<?xml version='1.0' encoding='UTF-8'?><gpx creator="YAMAP - https://yamap.com" xsi:schemaLocation="http://www.topografix.com/GPX/1/1 http://www.topografix.com/GPX/1/1/gpx.xsd" version="1.1" xmlns="http://www.topografix.com/GPX/1/1" xmlns:xsi="http://www.w3.org/2001/XMLSchema-instance"><metadata><bounds maxlat="35.7542993" maxlon="138.8533097" minlat="35.7314682" minlon="138.8025272"/></metadata><trk><name>大菩薩嶺</name><number>1</number><trkseg><trkpt lat="35.7384573" lon="138.8025272"><ele>897.97</ele><time>2023-07-16T23:58:28Z</time></trkpt><trkpt lat="35.7383941" lon="138.8027486"><ele>898.605</ele><time>2023-07-16T23:58:42Z</time></trkpt><trkpt lat="35.7383763" lon="138.8029704"><ele>900.93</ele><time>2023-07-16T23:58:57Z</time></trkpt><trkpt lat="35.7383673" lon="138.8031943"><ele>906.4933333333333</ele><time>2023-07-16T23:59:10Z</time></trkpt><trkpt lat="35.7382713" lon="138.8033917"><ele>908.89</ele><time>2023-07-16T23:59:26Z</time></trkpt><trkpt lat="35.7383292" lon="138.8036094"><ele>911.08</ele><time>2023-07-16T23:59:41Z</time></trkpt><trkpt lat="35.7383899" lon="138.8038195"><ele>912.4866666666667</ele><time>2023-07-16T23:59:57Z</time></trkpt><trkpt lat="35.7384533" lon="138.8040281"><ele>918.35</ele><time>2023-07-17T00:00:13Z</time></trkpt><trkpt lat="35.7384591" lon="138.8042537"><ele>923.04</ele><time>2023-07-17T00:00:43Z</time></trkpt><trkpt lat="35.7384375" lon="138.804481"><ele>926.2266666666668</ele><time>2023-07-17T00:00:51Z</time></trkpt><trkpt lat="35.7384622" lon="138.804705"><ele>927.4500000000002</ele><time>2023-07-17T00:01:05Z</time></trkpt><trkpt lat="35.7385623" lon="138.80489"><ele>928.86</ele><time>2023-07-17T00:01:20Z</time></trkpt><trkpt lat="35.7385403" lon="138.8051193"><ele>929.1333333333333</ele><time>2023-07-17T00:01:39Z</time></trkpt><trkpt lat="35.7385872" lon="138.8053378"><ele>931.37</ele><time>2023-07-17T00:01:52Z</time></trkpt><trkpt lat="35.738671" lon="138.805538"><ele>933.9466666666667</ele><time>2023-07-17T00:02:03Z</time></trkpt><trkpt lat="35.7387174" lon="138.8057532"><ele>937.8766666666667</ele><time>2023-07-17T00:02:18Z</time></trkpt><trkpt lat="35.7387985" lon="138.8059592"><ele>940.9</ele><time>2023-07-17T00:02:36Z</time></trkpt><trkpt lat="35.7389139" lon="138.8061425"><ele>943.3966666666666</ele><time>2023-07-17T00:02:56Z</time></trkpt><trkpt lat="35.7390506" lon="138.8062965"><ele>947.8833333333333</ele><time>2023-07-17T00:03:10Z</time></trkpt><trkpt lat="35.7390982" lon="138.8065135"><ele>951.2566666666667</ele><time>2023-07-17T00:03:24Z</time></trkpt><trkpt lat="35.739069" lon="138.8067335"><ele>953.2666666666668</ele><time>2023-07-17T00:03:40Z</time></trkpt><trkpt lat="35.7391308" lon="138.8069565"><ele>953.29</ele><time>2023-07-17T00:04:11Z</time></trkpt><trkpt lat="35.7391874" lon="138.8071765"><ele>954.1333333333333</ele><time>2023-07-17T00:04:23Z</time></trkpt><trkpt lat="35.7392279" lon="138.8073949"><ele>956.2766666666666</ele><time>2023-07-17T00:04:36Z</time></trkpt><trkpt lat="35.7393493" lon="138.8075728"><ele>958.2833333333333</ele><time>2023-07-17T00:04:48Z</time></trkpt><trkpt lat="35.7394167" lon="138.8077856"><ele>960.37</ele><time>2023-07-17T00:05:06Z</time></trkpt><trkpt lat="35.7394895" lon="138.8080129"><ele>962.94</ele><time>2023-07-17T00:05:23Z</time></trkpt><trkpt lat="35.7394693" lon="138.8082434"><ele>964.0033333333334</ele><time>2023-07-17T00:05:40Z</time></trkpt><trkpt lat="35.7394419" lon="138.8084687"><ele>965.0766666666667</ele><time>2023-07-17T00:05:55Z</time></trkpt><trkpt lat="35.7394102" lon="138.8086887"><ele>966.5533333333333</ele><time>2023-07-17T00:06:12Z</time></trkpt><trkpt lat="35.7394521" lon="138.808913"><ele>970.0866666666666</ele><time>2023-07-17T00:06:31Z</time></trkpt><trkpt lat="35.7396377" lon="138.8089531"><ele>973.6533333333333</ele><time>2023-07-17T00:06:41Z</time></trkpt><trkpt lat="35.7398058" lon="138.8090404"><ele>975.62</ele><time>2023-07-17T00:07:09Z</time></trkpt><trkpt lat="35.7397313" lon="138.8092552"><ele>978.5966666666668</ele><time>2023-07-17T00:07:27Z</time></trkpt><trkpt lat="35.7396546" lon="138.8094585"><ele>981.44</ele><time>2023-07-17T00:07:44Z</time></trkpt><trkpt lat="35.7396328" lon="138.809678"><ele>985.02</ele><time>2023-07-17T00:08:12Z</time></trkpt><trkpt lat="35.7396302" lon="138.809904"><ele>987.3833333333333</ele><time>2023-07-17T00:08:27Z</time></trkpt><trkpt lat="35.7396027" lon="138.8101276"><ele>990.6999999999999</ele><time>2023-07-17T00:08:41Z</time></trkpt><trkpt lat="35.7395586" lon="138.8103457"><ele>993.9066666666668</ele><time>2023-07-17T00:09:02Z</time></trkpt><trkpt lat="35.739644" lon="138.8105447"><ele>997.3333333333334</ele><time>2023-07-17T00:09:20Z</time></trkpt><trkpt lat="35.7397943" lon="138.8104079"><ele>1000.3666666666667</ele><time>2023-07-17T00:09:51Z</time></trkpt><trkpt lat="35.7398466" lon="138.8101915"><ele>1001.9133333333334</ele><time>2023-07-17T00:10:09Z</time></trkpt><trkpt lat="35.7399452" lon="138.8103925"><ele>1003.1600000000002</ele><time>2023-07-17T00:10:46Z</time></trkpt><trkpt lat="35.7399227" lon="138.8106204"><ele>1005.07</ele><time>2023-07-17T00:10:59Z</time></trkpt><trkpt lat="35.7398472" lon="138.810828"><ele>1010.2566666666667</ele><time>2023-07-17T00:11:12Z</time></trkpt><trkpt lat="35.7398719" lon="138.8110549"><ele>1015.0033333333334</ele><time>2023-07-17T00:11:26Z</time></trkpt><trkpt lat="35.7398601" lon="138.8108332"><ele>1017.3766666666667</ele><time>2023-07-17T00:12:07Z</time></trkpt><trkpt lat="35.7400129" lon="138.8107153"><ele>1016.1933333333333</ele><time>2023-07-17T00:12:23Z</time></trkpt><trkpt lat="35.7401098" lon="138.8109023"><ele>1012.6866666666666</ele><time>2023-07-17T00:12:39Z</time></trkpt><trkpt lat="35.7401698" lon="138.8111218"><ele>1012.8000000000001</ele><time>2023-07-17T00:12:55Z</time></trkpt><trkpt lat="35.7402211" lon="138.8113355"><ele>1015.7866666666667</ele><time>2023-07-17T00:13:15Z</time></trkpt><trkpt lat="35.7402793" lon="138.8115528"><ele>1021.75</ele><time>2023-07-17T00:13:36Z</time></trkpt><trkpt lat="35.7404382" lon="138.8116651"><ele>1026.2833333333333</ele><time>2023-07-17T00:14:17Z</time></trkpt><trkpt lat="35.7405508" lon="138.811844"><ele>1029.3033333333333</ele><time>2023-07-17T00:14:32Z</time></trkpt><trkpt lat="35.7407358" lon="138.8118671"><ele>1028.82</ele><time>2023-07-17T00:15:09Z</time></trkpt><trkpt lat="35.7409085" lon="138.8119388"><ele>1027.52</ele><time>2023-07-17T00:15:25Z</time></trkpt><trkpt lat="35.7410944" lon="138.8119401"><ele>1024.3033333333333</ele><time>2023-07-17T00:15:39Z</time></trkpt><trkpt lat="35.7412793" lon="138.8119185"><ele>1023.3333333333334</ele><time>2023-07-17T00:15:57Z</time></trkpt><trkpt lat="35.7414512" lon="138.8120029"><ele>1024.1433333333334</ele><time>2023-07-17T00:16:15Z</time></trkpt><trkpt lat="35.7415858" lon="138.8121713"><ele>1028.7066666666667</ele><time>2023-07-17T00:16:43Z</time></trkpt><trkpt lat="35.7417493" lon="138.8122659"><ele>1035.2</ele><time>2023-07-17T00:16:52Z</time></trkpt><trkpt lat="35.7418496" lon="138.8124517"><ele>1042.18</ele><time>2023-07-17T00:17:32Z</time></trkpt><trkpt lat="35.7420046" lon="138.8125934"><ele>1049.63</ele><time>2023-07-17T00:17:46Z</time></trkpt><trkpt lat="35.7421294" lon="138.8127609"><ele>1055.22</ele><time>2023-07-17T00:18:14Z</time></trkpt><trkpt lat="35.7422186" lon="138.8129612"><ele>1056.0133333333333</ele><time>2023-07-17T00:18:44Z</time></trkpt><trkpt lat="35.7423022" lon="138.813159"><ele>1053.5366666666666</ele><time>2023-07-17T00:19:11Z</time></trkpt><trkpt lat="35.7424969" lon="138.8131205"><ele>1052.0833333333333</ele><time>2023-07-17T00:19:33Z</time></trkpt><trkpt lat="35.742682" lon="138.8130779"><ele>1055.7433333333333</ele><time>2023-07-17T00:19:47Z</time></trkpt><trkpt lat="35.7426185" lon="138.8133036"><ele>1058.6366666666665</ele><time>2023-07-17T00:20:10Z</time></trkpt><trkpt lat="35.742777" lon="138.8134339"><ele>1061.1366666666665</ele><time>2023-07-17T00:20:27Z</time></trkpt><trkpt lat="35.7429385" lon="138.8135337"><ele>1060.8166666666666</ele><time>2023-07-17T00:20:45Z</time></trkpt><trkpt lat="35.7431262" lon="138.8135547"><ele>1062.86</ele><time>2023-07-17T00:21:17Z</time></trkpt><trkpt lat="35.7433141" lon="138.8135877"><ele>1065.5200000000002</ele><time>2023-07-17T00:21:32Z</time></trkpt><trkpt lat="35.7433832" lon="138.8138089"><ele>1068.7166666666667</ele><time>2023-07-17T00:21:48Z</time></trkpt><trkpt lat="35.7435504" lon="138.8139022"><ele>1071.9033333333334</ele><time>2023-07-17T00:22:12Z</time></trkpt><trkpt lat="35.7437054" lon="138.8140232"><ele>1074.61</ele><time>2023-07-17T00:22:45Z</time></trkpt><trkpt lat="35.743889" lon="138.8140465"><ele>1077.5833333333333</ele><time>2023-07-17T00:23:08Z</time></trkpt><trkpt lat="35.7440595" lon="138.8141445"><ele>1080.7966666666669</ele><time>2023-07-17T00:23:26Z</time></trkpt><trkpt lat="35.7442522" lon="138.8141196"><ele>1085.38</ele><time>2023-07-17T00:23:46Z</time></trkpt><trkpt lat="35.7444308" lon="138.8140518"><ele>1089.7266666666667</ele><time>2023-07-17T00:24:15Z</time></trkpt><trkpt lat="35.7446099" lon="138.8140204"><ele>1093.0533333333335</ele><time>2023-07-17T00:24:38Z</time></trkpt><trkpt lat="35.7447995" lon="138.8140144"><ele>1093.9033333333334</ele><time>2023-07-17T00:24:56Z</time></trkpt><trkpt lat="35.7449852" lon="138.8140503"><ele>1094.5066666666667</ele><time>2023-07-17T00:25:26Z</time></trkpt><trkpt lat="35.7451524" lon="138.8141544"><ele>1095.7</ele><time>2023-07-17T00:25:50Z</time></trkpt><trkpt lat="35.7452779" lon="138.8143141"><ele>1098.3066666666666</ele><time>2023-07-17T00:26:08Z</time></trkpt><trkpt lat="35.7454335" lon="138.8144404"><ele>1102.1733333333334</ele><time>2023-07-17T00:26:31Z</time></trkpt><trkpt lat="35.7455313" lon="138.8146303"><ele>1107.6566666666668</ele><time>2023-07-17T00:27:41Z</time></trkpt><trkpt lat="35.7456823" lon="138.8147725"><ele>1113.7300000000002</ele><time>2023-07-17T00:27:55Z</time></trkpt><trkpt lat="35.745707" lon="138.8149916"><ele>1121.1066666666668</ele><time>2023-07-17T00:28:56Z</time></trkpt><trkpt lat="35.7458667" lon="138.8151068"><ele>1128.1233333333334</ele><time>2023-07-17T00:29:38Z</time></trkpt><trkpt lat="35.7457711" lon="138.8153151"><ele>1137.4366666666667</ele><time>2023-07-17T00:30:32Z</time></trkpt><trkpt lat="35.7459484" lon="138.8153575"><ele>1144.9133333333334</ele><time>2023-07-17T00:32:54Z</time></trkpt><trkpt lat="35.7460305" lon="138.8155579"><ele>1152.25</ele><time>2023-07-17T00:33:24Z</time></trkpt><trkpt lat="35.7460988" lon="138.8157659"><ele>1157.86</ele><time>2023-07-17T00:34:12Z</time></trkpt><trkpt lat="35.7462172" lon="138.8159388"><ele>1164.53</ele><time>2023-07-17T00:35:08Z</time></trkpt><trkpt lat="35.7462925" lon="138.8161401"><ele>1172.96</ele><time>2023-07-17T00:36:05Z</time></trkpt><trkpt lat="35.7463907" lon="138.816326"><ele>1180.09</ele><time>2023-07-17T00:36:42Z</time></trkpt><trkpt lat="35.7464501" lon="138.8165369"><ele>1186.7533333333333</ele><time>2023-07-17T00:37:18Z</time></trkpt><trkpt lat="35.7465794" lon="138.8166911"><ele>1191.7366666666667</ele><time>2023-07-17T00:38:26Z</time></trkpt><trkpt lat="35.7466719" lon="138.816882"><ele>1198.0233333333333</ele><time>2023-07-17T00:39:19Z</time></trkpt><trkpt lat="35.7467632" lon="138.8170771"><ele>1208.41</ele><time>2023-07-17T00:40:49Z</time></trkpt><trkpt lat="35.746847" lon="138.8172761"><ele>1219.99</ele><time>2023-07-17T00:42:24Z</time></trkpt><trkpt lat="35.7469955" lon="138.8174024"><ele>1231.2466666666667</ele><time>2023-07-17T00:43:18Z</time></trkpt><trkpt lat="35.7471317" lon="138.8175513"><ele>1240.48</ele><time>2023-07-17T00:43:54Z</time></trkpt><trkpt lat="35.7472332" lon="138.817735"><ele>1249.5033333333333</ele><time>2023-07-17T00:44:48Z</time></trkpt><trkpt lat="35.7473144" lon="138.8179339"><ele>1261.1033333333335</ele><time>2023-07-17T00:46:36Z</time></trkpt><trkpt lat="35.7474226" lon="138.8181131"><ele>1270.4233333333334</ele><time>2023-07-17T00:47:36Z</time></trkpt><trkpt lat="35.7475149" lon="138.8183054"><ele>1277.6833333333334</ele><time>2023-07-17T00:48:23Z</time></trkpt><trkpt lat="35.7476239" lon="138.818486"><ele>1281.47</ele><time>2023-07-17T00:49:39Z</time></trkpt><trkpt lat="35.7477783" lon="138.818603"><ele>1284.9166666666667</ele><time>2023-07-17T00:49:54Z</time></trkpt><trkpt lat="35.747926" lon="138.8187317"><ele>1290.3033333333335</ele><time>2023-07-17T00:51:03Z</time></trkpt><trkpt lat="35.7480309" lon="138.8189175"><ele>1296.68</ele><time>2023-07-17T00:52:03Z</time></trkpt><trkpt lat="35.7481307" lon="138.8191055"><ele>1302.78</ele><time>2023-07-17T00:52:51Z</time></trkpt><trkpt lat="35.7482452" lon="138.8192873"><ele>1308.0033333333333</ele><time>2023-07-17T00:53:35Z</time></trkpt><trkpt lat="35.7483071" lon="138.8194966"><ele>1314.55</ele><time>2023-07-17T00:53:50Z</time></trkpt><trkpt lat="35.7484419" lon="138.8196694"><ele>1322.4333333333334</ele><time>2023-07-17T00:54:30Z</time></trkpt><trkpt lat="35.7484392" lon="138.8199009"><ele>1333.8366666666668</ele><time>2023-07-17T00:56:34Z</time></trkpt><trkpt lat="35.7485826" lon="138.8200361"><ele>1344.03</ele><time>2023-07-17T00:58:42Z</time></trkpt><trkpt lat="35.7487218" lon="138.8201839"><ele>1353.8400000000001</ele><time>2023-07-17T00:59:41Z</time></trkpt><trkpt lat="35.7486707" lon="138.8204039"><ele>1358.7833333333333</ele><time>2023-07-17T01:00:19Z</time></trkpt><trkpt lat="35.7485822" lon="138.8206035"><ele>1361.4666666666667</ele><time>2023-07-17T01:00:34Z</time></trkpt><trkpt lat="35.7485669" lon="138.8208274"><ele>1361.16</ele><time>2023-07-17T01:00:55Z</time></trkpt><trkpt lat="35.7486615" lon="138.8210188"><ele>1360.9766666666667</ele><time>2023-07-17T01:01:24Z</time></trkpt><trkpt lat="35.7486739" lon="138.8212435"><ele>1362.1566666666668</ele><time>2023-07-17T01:02:08Z</time></trkpt><trkpt lat="35.7487421" lon="138.8214501"><ele>1367.47</ele><time>2023-07-17T01:03:11Z</time></trkpt><trkpt lat="35.7487321" lon="138.8216717"><ele>1375.6333333333334</ele><time>2023-07-17T01:04:37Z</time></trkpt><trkpt lat="35.7488195" lon="138.8218662"><ele>1384.8166666666666</ele><time>2023-07-17T01:05:31Z</time></trkpt><trkpt lat="35.7489342" lon="138.8220426"><ele>1393.8799999999999</ele><time>2023-07-17T01:06:01Z</time></trkpt><trkpt lat="35.7490516" lon="138.8222142"><ele>1401.706666666667</ele><time>2023-07-17T01:06:58Z</time></trkpt><trkpt lat="35.7490792" lon="138.8224354"><ele>1408.14</ele><time>2023-07-17T01:07:32Z</time></trkpt><trkpt lat="35.7492405" lon="138.8225593"><ele>1414.5433333333333</ele><time>2023-07-17T01:09:02Z</time></trkpt><trkpt lat="35.74938" lon="138.8226994"><ele>1419.6933333333334</ele><time>2023-07-17T01:09:17Z</time></trkpt><trkpt lat="35.7495475" lon="138.8227885"><ele>1423.6599999999999</ele><time>2023-07-17T01:09:39Z</time></trkpt><trkpt lat="35.7496751" lon="138.8229637"><ele>1425.0133333333333</ele><time>2023-07-17T01:11:38Z</time></trkpt><trkpt lat="35.7497365" lon="138.8231763"><ele>1428.6366666666665</ele><time>2023-07-17T01:12:32Z</time></trkpt><trkpt lat="35.7497607" lon="138.8234017"><ele>1435.0366666666669</ele><time>2023-07-17T01:13:30Z</time></trkpt><trkpt lat="35.7498301" lon="138.8236139"><ele>1443.506666666667</ele><time>2023-07-17T01:15:01Z</time></trkpt><trkpt lat="35.749956" lon="138.8237725"><ele>1450.67</ele><time>2023-07-17T01:15:39Z</time></trkpt><trkpt lat="35.7500911" lon="138.8239258"><ele>1457.53</ele><time>2023-07-17T01:17:22Z</time></trkpt><trkpt lat="35.7502209" lon="138.8240892"><ele>1467.0733333333335</ele><time>2023-07-17T01:17:52Z</time></trkpt><trkpt lat="35.7503758" lon="138.824213"><ele>1476.3400000000001</ele><time>2023-07-17T01:18:35Z</time></trkpt><trkpt lat="35.750444" lon="138.824419"><ele>1484.9800000000002</ele><time>2023-07-17T01:19:27Z</time></trkpt><trkpt lat="35.7504398" lon="138.8246434"><ele>1490.5133333333333</ele><time>2023-07-17T01:19:46Z</time></trkpt><trkpt lat="35.7504762" lon="138.8248707"><ele>1494.5766666666668</ele><time>2023-07-17T01:20:13Z</time></trkpt><trkpt lat="35.7505595" lon="138.8250669"><ele>1495.6200000000001</ele><time>2023-07-17T01:20:32Z</time></trkpt><trkpt lat="35.7505682" lon="138.8252943"><ele>1494.1433333333334</ele><time>2023-07-17T01:20:45Z</time></trkpt><trkpt lat="35.7507132" lon="138.8254473"><ele>1493.8366666666668</ele><time>2023-07-17T01:21:18Z</time></trkpt><trkpt lat="35.7508937" lon="138.8254489"><ele>1497.8633333333335</ele><time>2023-07-17T01:21:30Z</time></trkpt><trkpt lat="35.7510801" lon="138.8254741"><ele>1506.71</ele><time>2023-07-17T01:23:13Z</time></trkpt><trkpt lat="35.7511898" lon="138.8256514"><ele>1514.7766666666666</ele><time>2023-07-17T01:25:05Z</time></trkpt><trkpt lat="35.7510495" lon="138.8257972"><ele>1522.006666666667</ele><time>2023-07-17T01:26:20Z</time></trkpt><trkpt lat="35.7511646" lon="138.8259678"><ele>1528.53</ele><time>2023-07-17T01:27:19Z</time></trkpt><trkpt lat="35.7511392" lon="138.8261887"><ele>1538.7933333333333</ele><time>2023-07-17T01:29:11Z</time></trkpt><trkpt lat="35.7512644" lon="138.8263481"><ele>1550.3533333333335</ele><time>2023-07-17T01:30:33Z</time></trkpt><trkpt lat="35.751412" lon="138.826489"><ele>1558.51</ele><time>2023-07-17T01:31:31Z</time></trkpt><trkpt lat="35.7515685" lon="138.8266099"><ele>1566.82</ele><time>2023-07-17T01:33:12Z</time></trkpt><trkpt lat="35.7516467" lon="138.826813"><ele>1575.5600000000002</ele><time>2023-07-17T01:34:20Z</time></trkpt><trkpt lat="35.7518018" lon="138.8269339"><ele>1586.13</ele><time>2023-07-17T01:36:29Z</time></trkpt><trkpt lat="35.7517233" lon="138.8271365"><ele>1596.6933333333334</ele><time>2023-07-17T01:36:57Z</time></trkpt><trkpt lat="35.7516038" lon="138.827323"><ele>1607.7666666666667</ele><time>2023-07-17T01:37:33Z</time></trkpt><trkpt lat="35.7514954" lon="138.8275097"><ele>1615.8566666666668</ele><time>2023-07-17T01:37:59Z</time></trkpt><trkpt lat="35.7514676" lon="138.8277359"><ele>1623.57</ele><time>2023-07-17T01:39:39Z</time></trkpt><trkpt lat="35.7515531" lon="138.8279339"><ele>1629.86</ele><time>2023-07-17T01:40:15Z</time></trkpt><trkpt lat="35.7517442" lon="138.8279436"><ele>1640.4066666666668</ele><time>2023-07-17T01:41:52Z</time></trkpt><trkpt lat="35.7519157" lon="138.8280206"><ele>1648.95</ele><time>2023-07-17T01:43:25Z</time></trkpt><trkpt lat="35.7520955" lon="138.8279875"><ele>1655.4033333333334</ele><time>2023-07-17T01:44:50Z</time></trkpt><trkpt lat="35.7522124" lon="138.8281605"><ele>1659.6733333333334</ele><time>2023-07-17T01:45:24Z</time></trkpt><trkpt lat="35.7523484" lon="138.8283121"><ele>1661.86</ele><time>2023-07-17T01:45:47Z</time></trkpt><trkpt lat="35.7524976" lon="138.8284425"><ele>1663.5766666666666</ele><time>2023-07-17T01:46:04Z</time></trkpt><trkpt lat="35.7526751" lon="138.8285365"><ele>1664.0266666666666</ele><time>2023-07-17T01:46:27Z</time></trkpt><trkpt lat="35.7528508" lon="138.8286205"><ele>1664.05</ele><time>2023-07-17T01:46:57Z</time></trkpt><trkpt lat="35.7530355" lon="138.8286737"><ele>1663.5366666666669</ele><time>2023-07-17T01:47:13Z</time></trkpt><trkpt lat="35.7532137" lon="138.8287491"><ele>1663.46</ele><time>2023-07-17T01:47:40Z</time></trkpt><trkpt lat="35.7533815" lon="138.828836"><ele>1664.2666666666667</ele><time>2023-07-17T01:47:56Z</time></trkpt><trkpt lat="35.7535649" lon="138.8288599"><ele>1666.3466666666666</ele><time>2023-07-17T01:48:18Z</time></trkpt><trkpt lat="35.7537462" lon="138.8288425"><ele>1668.64</ele><time>2023-07-17T01:48:35Z</time></trkpt><trkpt lat="35.7539361" lon="138.8288582"><ele>1671.5133333333333</ele><time>2023-07-17T01:48:54Z</time></trkpt><trkpt lat="35.7541196" lon="138.8288636"><ele>1674.1166666666668</ele><time>2023-07-17T01:49:08Z</time></trkpt><trkpt lat="35.7542993" lon="138.8289218"><ele>1675.9766666666667</ele><time>2023-07-17T01:49:25Z</time></trkpt><trkpt lat="35.7542054" lon="138.829115"><ele>1676.97</ele><time>2023-07-17T01:51:42Z</time></trkpt><trkpt lat="35.7541687" lon="138.8293319"><ele>1677.68</ele><time>2023-07-17T01:52:02Z</time></trkpt><trkpt lat="35.7541358" lon="138.8295522"><ele>1680.6133333333335</ele><time>2023-07-17T01:52:27Z</time></trkpt><trkpt lat="35.7541013" lon="138.8297716"><ele>1685.49</ele><time>2023-07-17T01:53:19Z</time></trkpt><trkpt lat="35.7541911" lon="138.8299729"><ele>1691.6466666666668</ele><time>2023-07-17T01:53:49Z</time></trkpt><trkpt lat="35.7542478" lon="138.8302009"><ele>1696.8666666666668</ele><time>2023-07-17T01:54:54Z</time></trkpt><trkpt lat="35.7541856" lon="138.8304135"><ele>1701.66</ele><time>2023-07-17T01:55:24Z</time></trkpt><trkpt lat="35.7541625" lon="138.8306437"><ele>1708.5433333333333</ele><time>2023-07-17T01:56:57Z</time></trkpt><trkpt lat="35.7541711" lon="138.8308685"><ele>1716.8</ele><time>2023-07-17T01:57:31Z</time></trkpt><trkpt lat="35.7542054" lon="138.8310863"><ele>1724.8266666666666</ele><time>2023-07-17T01:58:09Z</time></trkpt><trkpt lat="35.7542217" lon="138.8313142"><ele>1728.8133333333335</ele><time>2023-07-17T01:58:34Z</time></trkpt><trkpt lat="35.7541038" lon="138.8314982"><ele>1730.51</ele><time>2023-07-17T01:59:05Z</time></trkpt><trkpt lat="35.7539807" lon="138.8316657"><ele>1729.14</ele><time>2023-07-17T01:59:22Z</time></trkpt><trkpt lat="35.7537968" lon="138.8316875"><ele>1731.4333333333334</ele><time>2023-07-17T01:59:56Z</time></trkpt><trkpt lat="35.7536291" lon="138.8317753"><ele>1732.3866666666665</ele><time>2023-07-17T02:00:34Z</time></trkpt><trkpt lat="35.753458" lon="138.8318492"><ele>1737.9099999999999</ele><time>2023-07-17T02:01:02Z</time></trkpt><trkpt lat="35.7532776" lon="138.8318395"><ele>1743.0766666666668</ele><time>2023-07-17T02:01:29Z</time></trkpt><trkpt lat="35.7531838" lon="138.8320347"><ele>1751.6566666666668</ele><time>2023-07-17T02:02:13Z</time></trkpt><trkpt lat="35.753168" lon="138.8322611"><ele>1756.9166666666667</ele><time>2023-07-17T02:02:38Z</time></trkpt><trkpt lat="35.7529876" lon="138.8323257"><ele>1760.0433333333333</ele><time>2023-07-17T02:02:53Z</time></trkpt><trkpt lat="35.752962" lon="138.8325557"><ele>1759.3466666666666</ele><time>2023-07-17T02:03:10Z</time></trkpt><trkpt lat="35.7528465" lon="138.8327329"><ele>1759.17</ele><time>2023-07-17T02:03:33Z</time></trkpt><trkpt lat="35.7527107" lon="138.8328838"><ele>1759.01</ele><time>2023-07-17T02:04:03Z</time></trkpt><trkpt lat="35.7525775" lon="138.8330487"><ele>1763.5</ele><time>2023-07-17T02:10:27Z</time></trkpt><trkpt lat="35.7525727" lon="138.83327"><ele>1770.4133333333332</ele><time>2023-07-17T02:10:53Z</time></trkpt><trkpt lat="35.7526599" lon="138.8334658"><ele>1778.1566666666665</ele><time>2023-07-17T02:11:30Z</time></trkpt><trkpt lat="35.7527383" lon="138.833671"><ele>1782.6933333333334</ele><time>2023-07-17T02:12:19Z</time></trkpt><trkpt lat="35.7527873" lon="138.833891"><ele>1785.6933333333334</ele><time>2023-07-17T02:12:41Z</time></trkpt><trkpt lat="35.7528589" lon="138.8341035"><ele>1788.18</ele><time>2023-07-17T02:13:09Z</time></trkpt><trkpt lat="35.753019" lon="138.83421"><ele>1791.61</ele><time>2023-07-17T02:13:59Z</time></trkpt><trkpt lat="35.7531948" lon="138.8342678"><ele>1797.03</ele><time>2023-07-17T02:14:39Z</time></trkpt><trkpt lat="35.7533347" lon="138.834408"><ele>1804.5199999999998</ele><time>2023-07-17T02:15:00Z</time></trkpt><trkpt lat="35.7534816" lon="138.8345513"><ele>1810.8433333333332</ele><time>2023-07-17T02:15:45Z</time></trkpt><trkpt lat="35.7536297" lon="138.8346811"><ele>1814.9233333333334</ele><time>2023-07-17T02:16:05Z</time></trkpt><trkpt lat="35.7538001" lon="138.8347558"><ele>1814.4899999999998</ele><time>2023-07-17T02:16:31Z</time></trkpt><trkpt lat="35.7539284" lon="138.8349139"><ele>1812.9066666666668</ele><time>2023-07-17T02:17:03Z</time></trkpt><trkpt lat="35.7538366" lon="138.835113"><ele>1810.89</ele><time>2023-07-17T02:17:45Z</time></trkpt><trkpt lat="35.753686" lon="138.8352461"><ele>1811.4466666666667</ele><time>2023-07-17T02:18:06Z</time></trkpt><trkpt lat="35.7535116" lon="138.8353153"><ele>1814.1899999999998</ele><time>2023-07-17T02:18:25Z</time></trkpt><trkpt lat="35.7534475" lon="138.8355286"><ele>1817.6599999999999</ele><time>2023-07-17T02:19:43Z</time></trkpt><trkpt lat="35.7534644" lon="138.8357508"><ele>1819.8433333333332</ele><time>2023-07-17T02:20:02Z</time></trkpt><trkpt lat="35.7534318" lon="138.8359886"><ele>1822.1200000000001</ele><time>2023-07-17T02:20:27Z</time></trkpt><trkpt lat="35.7535171" lon="138.8361875"><ele>1822.6000000000001</ele><time>2023-07-17T02:20:51Z</time></trkpt><trkpt lat="35.7533963" lon="138.8363545"><ele>1823.8100000000002</ele><time>2023-07-17T02:21:22Z</time></trkpt><trkpt lat="35.7532111" lon="138.8363786"><ele>1824.2966666666669</ele><time>2023-07-17T02:21:52Z</time></trkpt><trkpt lat="35.753097" lon="138.8365543"><ele>1823.9266666666665</ele><time>2023-07-17T02:22:13Z</time></trkpt><trkpt lat="35.7529114" lon="138.8365557"><ele>1823.4099999999999</ele><time>2023-07-17T02:22:30Z</time></trkpt><trkpt lat="35.752789" lon="138.8367277"><ele>1820.1433333333334</ele><time>2023-07-17T02:22:49Z</time></trkpt><trkpt lat="35.7526092" lon="138.836765"><ele>1820.8333333333333</ele><time>2023-07-17T02:23:25Z</time></trkpt><trkpt lat="35.7524573" lon="138.8368887"><ele>1820.0633333333335</ele><time>2023-07-17T02:23:55Z</time></trkpt><trkpt lat="35.7523092" lon="138.8370527"><ele>1820.0366666666669</ele><time>2023-07-17T02:24:10Z</time></trkpt><trkpt lat="35.7521662" lon="138.837195"><ele>1816.493333333333</ele><time>2023-07-17T02:24:35Z</time></trkpt><trkpt lat="35.7519776" lon="138.8372123"><ele>1813.3966666666668</ele><time>2023-07-17T02:24:49Z</time></trkpt><trkpt lat="35.7518325" lon="138.8373488"><ele>1812.14</ele><time>2023-07-17T02:26:32Z</time></trkpt><trkpt lat="35.7516982" lon="138.837497"><ele>1813.11</ele><time>2023-07-17T02:27:34Z</time></trkpt><trkpt lat="35.7516908" lon="138.8377257"><ele>1814.9366666666667</ele><time>2023-07-17T02:28:09Z</time></trkpt><trkpt lat="35.7516717" lon="138.8379584"><ele>1818.3133333333335</ele><time>2023-07-17T02:28:26Z</time></trkpt><trkpt lat="35.7516932" lon="138.8381863"><ele>1821.33</ele><time>2023-07-17T02:28:42Z</time></trkpt><trkpt lat="35.7518114" lon="138.8383609"><ele>1821.2833333333335</ele><time>2023-07-17T02:29:03Z</time></trkpt><trkpt lat="35.751784" lon="138.8385886"><ele>1821.3466666666666</ele><time>2023-07-17T02:29:38Z</time></trkpt><trkpt lat="35.751759" lon="138.8388093"><ele>1823.4633333333334</ele><time>2023-07-17T02:29:53Z</time></trkpt><trkpt lat="35.7518793" lon="138.8389936"><ele>1827.9833333333333</ele><time>2023-07-17T02:30:08Z</time></trkpt><trkpt lat="35.7517787" lon="138.8391799"><ele>1831.1200000000001</ele><time>2023-07-17T02:30:51Z</time></trkpt><trkpt lat="35.7516009" lon="138.8392423"><ele>1832.4833333333336</ele><time>2023-07-17T02:31:21Z</time></trkpt><trkpt lat="35.7514211" lon="138.839292"><ele>1835.8333333333333</ele><time>2023-07-17T02:32:25Z</time></trkpt><trkpt lat="35.7512565" lon="138.8393865"><ele>1839.596666666667</ele><time>2023-07-17T02:32:43Z</time></trkpt><trkpt lat="35.7511841" lon="138.839595"><ele>1842.22</ele><time>2023-07-17T02:32:57Z</time></trkpt><trkpt lat="35.7511271" lon="138.8398107"><ele>1843.04</ele><time>2023-07-17T02:33:28Z</time></trkpt><trkpt lat="35.7510639" lon="138.8400224"><ele>1845.8966666666668</ele><time>2023-07-17T02:34:13Z</time></trkpt><trkpt lat="35.751083" lon="138.8402426"><ele>1850.6599999999999</ele><time>2023-07-17T02:34:49Z</time></trkpt><trkpt lat="35.7510632" lon="138.8404672"><ele>1855.5</ele><time>2023-07-17T02:35:54Z</time></trkpt><trkpt lat="35.7509278" lon="138.8406219"><ele>1859.6466666666665</ele><time>2023-07-17T02:36:22Z</time></trkpt><trkpt lat="35.7507672" lon="138.8407275"><ele>1863.17</ele><time>2023-07-17T02:36:41Z</time></trkpt><trkpt lat="35.7506734" lon="138.8409271"><ele>1864.5233333333333</ele><time>2023-07-17T02:36:58Z</time></trkpt><trkpt lat="35.7505713" lon="138.8411107"><ele>1862.9333333333334</ele><time>2023-07-17T02:37:21Z</time></trkpt><trkpt lat="35.7505342" lon="138.8413318"><ele>1862.0133333333333</ele><time>2023-07-17T02:38:04Z</time></trkpt><trkpt lat="35.7504606" lon="138.8415392"><ele>1865.5600000000002</ele><time>2023-07-17T02:38:44Z</time></trkpt><trkpt lat="35.7503305" lon="138.8416949"><ele>1872.6533333333334</ele><time>2023-07-17T02:39:12Z</time></trkpt><trkpt lat="35.7502398" lon="138.8418921"><ele>1877.0533333333333</ele><time>2023-07-17T02:39:26Z</time></trkpt><trkpt lat="35.7501095" lon="138.8420529"><ele>1881.6333333333334</ele><time>2023-07-17T02:40:07Z</time></trkpt><trkpt lat="35.7500773" lon="138.842275"><ele>1883.3933333333334</ele><time>2023-07-17T02:40:31Z</time></trkpt><trkpt lat="35.750111" lon="138.842497"><ele>1886.743333333333</ele><time>2023-07-17T02:41:16Z</time></trkpt><trkpt lat="35.7501561" lon="138.8427172"><ele>1885.6533333333334</ele><time>2023-07-17T02:41:56Z</time></trkpt><trkpt lat="35.7501902" lon="138.8429348"><ele>1889.1666666666667</ele><time>2023-07-17T02:42:33Z</time></trkpt><trkpt lat="35.7503213" lon="138.8431"><ele>1894.3999999999999</ele><time>2023-07-17T02:45:47Z</time></trkpt><trkpt lat="35.7504322" lon="138.843276"><ele>1903.0133333333333</ele><time>2023-07-17T02:46:35Z</time></trkpt><trkpt lat="35.7504975" lon="138.8434836"><ele>1908.206666666667</ele><time>2023-07-17T02:47:07Z</time></trkpt><trkpt lat="35.7505619" lon="138.843693"><ele>1910.8166666666668</ele><time>2023-07-17T02:47:20Z</time></trkpt><trkpt lat="35.750697" lon="138.8438441"><ele>1909.2866666666669</ele><time>2023-07-17T02:47:59Z</time></trkpt><trkpt lat="35.7506643" lon="138.8440631"><ele>1908.42</ele><time>2023-07-17T02:48:26Z</time></trkpt><trkpt lat="35.7505534" lon="138.8442528"><ele>1908.83</ele><time>2023-07-17T02:49:21Z</time></trkpt><trkpt lat="35.7505832" lon="138.8444727"><ele>1915.0966666666666</ele><time>2023-07-17T02:50:11Z</time></trkpt><trkpt lat="35.7507035" lon="138.8446623"><ele>1920.2866666666666</ele><time>2023-07-17T02:50:55Z</time></trkpt><trkpt lat="35.7506901" lon="138.8448864"><ele>1928.5</ele><time>2023-07-17T02:51:19Z</time></trkpt><trkpt lat="35.750511" lon="138.8448214"><ele>1936.5666666666666</ele><time>2023-07-17T02:52:54Z</time></trkpt><trkpt lat="35.7503605" lon="138.8446923"><ele>1943.7366666666667</ele><time>2023-07-17T02:53:32Z</time></trkpt><trkpt lat="35.7503405" lon="138.8444601"><ele>1945.6166666666668</ele><time>2023-07-17T02:53:55Z</time></trkpt><trkpt lat="35.7502308" lon="138.8442828"><ele>1944.92</ele><time>2023-07-17T02:54:22Z</time></trkpt><trkpt lat="35.7500681" lon="138.8441859"><ele>1947.9666666666665</ele><time>2023-07-17T02:54:43Z</time></trkpt><trkpt lat="35.749888" lon="138.8441571"><ele>1954.8466666666666</ele><time>2023-07-17T02:55:53Z</time></trkpt><trkpt lat="35.7497085" lon="138.8440977"><ele>1959.64</ele><time>2023-07-17T02:56:17Z</time></trkpt><trkpt lat="35.7495407" lon="138.8440115"><ele>1961.8966666666668</ele><time>2023-07-17T02:57:01Z</time></trkpt><trkpt lat="35.7495513" lon="138.8442382"><ele>1966.18</ele><time>2023-07-17T02:58:47Z</time></trkpt><trkpt lat="35.7496867" lon="138.8443866"><ele>1973.176666666667</ele><time>2023-07-17T02:59:35Z</time></trkpt><trkpt lat="35.7498496" lon="138.8444825"><ele>1979.1533333333334</ele><time>2023-07-17T03:00:11Z</time></trkpt><trkpt lat="35.7499082" lon="138.8446951"><ele>1981.1766666666665</ele><time>2023-07-17T03:00:33Z</time></trkpt><trkpt lat="35.7499625" lon="138.8449155"><ele>1983.8233333333335</ele><time>2023-07-17T03:01:11Z</time></trkpt><trkpt lat="35.7500458" lon="138.8451249"><ele>1987.1333333333332</ele><time>2023-07-17T03:02:05Z</time></trkpt><trkpt lat="35.7501437" lon="138.8453153"><ele>1989.08</ele><time>2023-07-17T03:02:30Z</time></trkpt><trkpt lat="35.7501671" lon="138.845539"><ele>1991.9133333333332</ele><time>2023-07-17T03:02:50Z</time></trkpt><trkpt lat="35.750183" lon="138.8457609"><ele>1996.6433333333334</ele><time>2023-07-17T03:03:26Z</time></trkpt><trkpt lat="35.7501357" lon="138.8459747"><ele>2003.82</ele><time>2023-07-17T03:04:04Z</time></trkpt><trkpt lat="35.7500157" lon="138.8461399"><ele>2011.6899999999998</ele><time>2023-07-17T03:04:49Z</time></trkpt><trkpt lat="35.7498555" lon="138.8460377"><ele>2019.26</ele><time>2023-07-17T03:06:02Z</time></trkpt><trkpt lat="35.7498178" lon="138.8458164"><ele>2026.4266666666665</ele><time>2023-07-17T03:06:24Z</time></trkpt><trkpt lat="35.7496833" lon="138.8456577"><ele>2032.6066666666666</ele><time>2023-07-17T03:07:24Z</time></trkpt><trkpt lat="35.7495026" lon="138.8456473"><ele>2037.6133333333335</ele><time>2023-07-17T03:08:55Z</time></trkpt><trkpt lat="35.7493234" lon="138.8457031"><ele>2041.8733333333332</ele><time>2023-07-17T03:09:30Z</time></trkpt><trkpt lat="35.749151" lon="138.8456159"><ele>2045.9633333333334</ele><time>2023-07-17T03:09:46Z</time></trkpt><trkpt lat="35.748977" lon="138.8455304"><ele>2049.4966666666664</ele><time>2023-07-17T03:10:11Z</time></trkpt><trkpt lat="35.7487932" lon="138.8455267"><ele>2053.23</ele><time>2023-07-17T03:10:29Z</time></trkpt><trkpt lat="35.7486136" lon="138.8455753"><ele>2053.866666666667</ele><time>2023-07-17T03:11:21Z</time></trkpt><trkpt lat="35.7484286" lon="138.845592"><ele>2053.2966666666666</ele><time>2023-07-17T03:11:32Z</time></trkpt><trkpt lat="35.7482421" lon="138.8455731"><ele>2050.68</ele><time>2023-07-17T03:11:51Z</time></trkpt><trkpt lat="35.7480616" lon="138.8455767"><ele>2047.5033333333333</ele><time>2023-07-17T03:12:13Z</time></trkpt><trkpt lat="35.7478958" lon="138.8456704"><ele>2042.36</ele><time>2023-07-17T03:12:58Z</time></trkpt><trkpt lat="35.7477101" lon="138.8457143"><ele>2037.17</ele><time>2023-07-17T03:13:21Z</time></trkpt><trkpt lat="35.747542" lon="138.8456265"><ele>2032.26</ele><time>2023-07-17T03:13:34Z</time></trkpt><trkpt lat="35.7473815" lon="138.8455124"><ele>2030.3733333333332</ele><time>2023-07-17T03:13:49Z</time></trkpt><trkpt lat="35.7472137" lon="138.8454207"><ele>2030.4766666666667</ele><time>2023-07-17T03:14:09Z</time></trkpt><trkpt lat="35.7470304" lon="138.8454371"><ele>2031.8133333333335</ele><time>2023-07-17T03:14:27Z</time></trkpt><trkpt lat="35.7468574" lon="138.8455018"><ele>2032.8500000000001</ele><time>2023-07-17T03:14:43Z</time></trkpt><trkpt lat="35.7466883" lon="138.8455974"><ele>2033.3433333333335</ele><time>2023-07-17T03:15:10Z</time></trkpt><trkpt lat="35.7465345" lon="138.845717"><ele>2034.3066666666666</ele><time>2023-07-17T03:15:28Z</time></trkpt><trkpt lat="35.746368" lon="138.845807"><ele>2035.8000000000002</ele><time>2023-07-17T03:16:06Z</time></trkpt><trkpt lat="35.7462279" lon="138.8459537"><ele>2037.9800000000002</ele><time>2023-07-17T03:17:47Z</time></trkpt><trkpt lat="35.7461372" lon="138.8461474"><ele>2039.49</ele><time>2023-07-17T03:32:09Z</time></trkpt><trkpt lat="35.746009" lon="138.846303"><ele>2039.6333333333334</ele><time>2023-07-17T03:32:25Z</time></trkpt><trkpt lat="35.745906" lon="138.8464878"><ele>2038.2866666666669</ele><time>2023-07-17T03:32:56Z</time></trkpt><trkpt lat="35.7457768" lon="138.8466547"><ele>2036.4533333333336</ele><time>2023-07-17T03:33:08Z</time></trkpt><trkpt lat="35.7456683" lon="138.8468371"><ele>2034.75</ele><time>2023-07-17T03:33:34Z</time></trkpt><trkpt lat="35.7455096" lon="138.8469463"><ele>2032.96</ele><time>2023-07-17T03:34:03Z</time></trkpt><trkpt lat="35.7453779" lon="138.8470994"><ele>2030.8266666666666</ele><time>2023-07-17T03:34:25Z</time></trkpt><trkpt lat="35.7452253" lon="138.8472407"><ele>2028.05</ele><time>2023-07-17T03:34:43Z</time></trkpt><trkpt lat="35.7450787" lon="138.8473703"><ele>2024.89</ele><time>2023-07-17T03:34:57Z</time></trkpt><trkpt lat="35.7449825" lon="138.8475583"><ele>2021.9399999999998</ele><time>2023-07-17T03:35:16Z</time></trkpt><trkpt lat="35.7448545" lon="138.8477156"><ele>2018.8833333333332</ele><time>2023-07-17T03:35:27Z</time></trkpt><trkpt lat="35.74469" lon="138.8478247"><ele>2015.1899999999998</ele><time>2023-07-17T03:35:42Z</time></trkpt><trkpt lat="35.7445449" lon="138.8479842"><ele>2011.1133333333335</ele><time>2023-07-17T03:35:59Z</time></trkpt><trkpt lat="35.7444317" lon="138.8481586"><ele>2008.3933333333334</ele><time>2023-07-17T03:36:13Z</time></trkpt><trkpt lat="35.7442688" lon="138.8482807"><ele>2006.1966666666667</ele><time>2023-07-17T03:36:51Z</time></trkpt><trkpt lat="35.7441428" lon="138.8484526"><ele>2004.7733333333335</ele><time>2023-07-17T03:37:07Z</time></trkpt><trkpt lat="35.7440634" lon="138.8486555"><ele>2002.3266666666668</ele><time>2023-07-17T03:38:07Z</time></trkpt><trkpt lat="35.7438951" lon="138.8487463"><ele>1999.9033333333334</ele><time>2023-07-17T03:38:15Z</time></trkpt><trkpt lat="35.7438799" lon="138.8489685"><ele>1996.6533333333334</ele><time>2023-07-17T03:38:45Z</time></trkpt><trkpt lat="35.7437283" lon="138.8490942"><ele>1992.7533333333333</ele><time>2023-07-17T03:39:05Z</time></trkpt><trkpt lat="35.7436122" lon="138.8492678"><ele>1988.0866666666668</ele><time>2023-07-17T03:39:38Z</time></trkpt><trkpt lat="35.7434867" lon="138.8494347"><ele>1982.82</ele><time>2023-07-17T03:39:54Z</time></trkpt><trkpt lat="35.7434894" lon="138.8496606"><ele>1979.4399999999998</ele><time>2023-07-17T03:40:06Z</time></trkpt><trkpt lat="35.7433342" lon="138.8497773"><ele>1977.1533333333336</ele><time>2023-07-17T03:40:29Z</time></trkpt><trkpt lat="35.7431643" lon="138.8498582"><ele>1975.1499999999999</ele><time>2023-07-17T03:40:52Z</time></trkpt><trkpt lat="35.7430576" lon="138.8500459"><ele>1973.54</ele><time>2023-07-17T03:41:18Z</time></trkpt><trkpt lat="35.7428981" lon="138.8501523"><ele>1972.46</ele><time>2023-07-17T03:41:42Z</time></trkpt><trkpt lat="35.742734" lon="138.8502563"><ele>1972.0900000000001</ele><time>2023-07-17T03:42:02Z</time></trkpt><trkpt lat="35.7425946" lon="138.8503977"><ele>1970.9333333333334</ele><time>2023-07-17T03:42:28Z</time></trkpt><trkpt lat="35.7424579" lon="138.8505437"><ele>1968.9233333333334</ele><time>2023-07-17T03:43:07Z</time></trkpt><trkpt lat="35.7422925" lon="138.8506319"><ele>1967.2966666666669</ele><time>2023-07-17T03:44:06Z</time></trkpt><trkpt lat="35.7421386" lon="138.850752"><ele>1965.6466666666668</ele><time>2023-07-17T03:44:16Z</time></trkpt><trkpt lat="35.7419985" lon="138.8508977"><ele>1964.3733333333332</ele><time>2023-07-17T03:44:33Z</time></trkpt><trkpt lat="35.7418297" lon="138.8509911"><ele>1962.6000000000001</ele><time>2023-07-17T03:45:03Z</time></trkpt><trkpt lat="35.7416755" lon="138.8511135"><ele>1960.5033333333333</ele><time>2023-07-17T03:45:19Z</time></trkpt><trkpt lat="35.741522" lon="138.8512411"><ele>1958.9333333333334</ele><time>2023-07-17T03:45:34Z</time></trkpt><trkpt lat="35.7413392" lon="138.8512423"><ele>1958.11</ele><time>2023-07-17T03:45:47Z</time></trkpt><trkpt lat="35.7411638" lon="138.8512963"><ele>1957.2133333333334</ele><time>2023-07-17T03:46:01Z</time></trkpt><trkpt lat="35.7409833" lon="138.8512506"><ele>1955.21</ele><time>2023-07-17T03:46:49Z</time></trkpt><trkpt lat="35.7407939" lon="138.8512229"><ele>1951.46</ele><time>2023-07-17T03:47:01Z</time></trkpt><trkpt lat="35.7406097" lon="138.8511801"><ele>1947.99</ele><time>2023-07-17T03:47:16Z</time></trkpt><trkpt lat="35.740439" lon="138.8510961"><ele>1944.29</ele><time>2023-07-17T03:47:32Z</time></trkpt><trkpt lat="35.7402672" lon="138.8511785"><ele>1942.64</ele><time>2023-07-17T03:47:44Z</time></trkpt><trkpt lat="35.7401011" lon="138.8512659"><ele>1940.8833333333332</ele><time>2023-07-17T03:47:59Z</time></trkpt><trkpt lat="35.7399257" lon="138.8513313"><ele>1940.3233333333335</ele><time>2023-07-17T03:48:23Z</time></trkpt><trkpt lat="35.7397434" lon="138.8513696"><ele>1939.3366666666668</ele><time>2023-07-17T03:48:42Z</time></trkpt><trkpt lat="35.7395789" lon="138.8512718"><ele>1938.6900000000003</ele><time>2023-07-17T03:49:01Z</time></trkpt><trkpt lat="35.7394414" lon="138.8511226"><ele>1937.8100000000002</ele><time>2023-07-17T03:49:19Z</time></trkpt><trkpt lat="35.7392605" lon="138.8510981"><ele>1938.0833333333333</ele><time>2023-07-17T03:49:47Z</time></trkpt><trkpt lat="35.7390708" lon="138.851132"><ele>1939.4433333333334</ele><time>2023-07-17T03:50:14Z</time></trkpt><trkpt lat="35.7388919" lon="138.8510866"><ele>1942.9633333333331</ele><time>2023-07-17T03:50:30Z</time></trkpt><trkpt lat="35.7387106" lon="138.8511047"><ele>1946.2766666666666</ele><time>2023-07-17T03:50:49Z</time></trkpt><trkpt lat="35.7385237" lon="138.8511533"><ele>1949.17</ele><time>2023-07-17T03:51:34Z</time></trkpt><trkpt lat="35.7383398" lon="138.8512317"><ele>1950.6233333333332</ele><time>2023-07-17T03:52:14Z</time></trkpt><trkpt lat="35.7382017" lon="138.8513742"><ele>1950.46</ele><time>2023-07-17T03:52:28Z</time></trkpt><trkpt lat="35.7380379" lon="138.8514727"><ele>1948.13</ele><time>2023-07-17T03:53:12Z</time></trkpt><trkpt lat="35.7380105" lon="138.8516956"><ele>1944.5200000000002</ele><time>2023-07-17T03:53:45Z</time></trkpt><trkpt lat="35.7378745" lon="138.8518472"><ele>1938.1533333333334</ele><time>2023-07-17T03:54:34Z</time></trkpt><trkpt lat="35.7377138" lon="138.8519836"><ele>1931.9333333333334</ele><time>2023-07-17T03:55:05Z</time></trkpt><trkpt lat="35.7376668" lon="138.8521973"><ele>1922.9800000000002</ele><time>2023-07-17T03:55:22Z</time></trkpt><trkpt lat="35.7375031" lon="138.8522999"><ele>1917.4800000000002</ele><time>2023-07-17T03:55:37Z</time></trkpt><trkpt lat="35.7373582" lon="138.8524328"><ele>1912.4433333333334</ele><time>2023-07-17T03:55:49Z</time></trkpt><trkpt lat="35.7372016" lon="138.852559"><ele>1910.4233333333334</ele><time>2023-07-17T03:56:08Z</time></trkpt><trkpt lat="35.73702" lon="138.8525073"><ele>1906.8000000000002</ele><time>2023-07-17T03:56:30Z</time></trkpt><trkpt lat="35.7369232" lon="138.8527018"><ele>1904.4633333333334</ele><time>2023-07-17T03:56:47Z</time></trkpt><trkpt lat="35.7368205" lon="138.8528928"><ele>1902.7300000000002</ele><time>2023-07-17T03:57:04Z</time></trkpt><trkpt lat="35.7366497" lon="138.8529636"><ele>1902.9433333333334</ele><time>2023-07-17T03:57:30Z</time></trkpt><trkpt lat="35.7365203" lon="138.8531188"><ele>1902.4033333333334</ele><time>2023-07-17T03:57:45Z</time></trkpt><trkpt lat="35.7363937" lon="138.8532845"><ele>1901.3100000000002</ele><time>2023-07-17T03:59:31Z</time></trkpt><trkpt lat="35.7362144" lon="138.8533097"><ele>1900.79</ele><time>2023-07-17T04:04:21Z</time></trkpt><trkpt lat="35.736037" lon="138.8532153"><ele>1900.7166666666665</ele><time>2023-07-17T04:05:26Z</time></trkpt><trkpt lat="35.7361472" lon="138.8530339"><ele>1900.3466666666666</ele><time>2023-07-17T04:05:53Z</time></trkpt><trkpt lat="35.7362892" lon="138.852879"><ele>1897.8466666666666</ele><time>2023-07-17T04:06:08Z</time></trkpt><trkpt lat="35.7364185" lon="138.8527069"><ele>1893.97</ele><time>2023-07-17T04:06:35Z</time></trkpt><trkpt lat="35.7364957" lon="138.8524944"><ele>1888.6833333333334</ele><time>2023-07-17T04:06:45Z</time></trkpt><trkpt lat="35.7365881" lon="138.8522987"><ele>1883.9066666666668</ele><time>2023-07-17T04:06:57Z</time></trkpt><trkpt lat="35.7366495" lon="138.8520894"><ele>1879.92</ele><time>2023-07-17T04:07:10Z</time></trkpt><trkpt lat="35.7367289" lon="138.8518773"><ele>1877.42</ele><time>2023-07-17T04:07:24Z</time></trkpt><trkpt lat="35.7368272" lon="138.8516894"><ele>1875.6566666666668</ele><time>2023-07-17T04:07:37Z</time></trkpt><trkpt lat="35.7368243" lon="138.8514673"><ele>1873.0933333333335</ele><time>2023-07-17T04:07:54Z</time></trkpt><trkpt lat="35.7368604" lon="138.8512452"><ele>1873.0400000000002</ele><time>2023-07-17T04:08:08Z</time></trkpt><trkpt lat="35.7367332" lon="138.8510877"><ele>1869.256666666667</ele><time>2023-07-17T04:08:18Z</time></trkpt><trkpt lat="35.7366589" lon="138.8508837"><ele>1865.6066666666666</ele><time>2023-07-17T04:08:31Z</time></trkpt><trkpt lat="35.7366535" lon="138.8506611"><ele>1859.8866666666665</ele><time>2023-07-17T04:08:46Z</time></trkpt><trkpt lat="35.7367702" lon="138.8504918"><ele>1859.1066666666666</ele><time>2023-07-17T04:08:59Z</time></trkpt><trkpt lat="35.7369041" lon="138.8503396"><ele>1860.1366666666665</ele><time>2023-07-17T04:09:12Z</time></trkpt><trkpt lat="35.7369775" lon="138.850129"><ele>1860.8066666666666</ele><time>2023-07-17T04:09:25Z</time></trkpt><trkpt lat="35.7369946" lon="138.8498968"><ele>1857.9000000000003</ele><time>2023-07-17T04:09:38Z</time></trkpt><trkpt lat="35.7370022" lon="138.8496724"><ele>1853.1333333333334</ele><time>2023-07-17T04:09:53Z</time></trkpt><trkpt lat="35.7370038" lon="138.8494448"><ele>1848.2</ele><time>2023-07-17T04:10:08Z</time></trkpt><trkpt lat="35.7369172" lon="138.8492466"><ele>1844.1899999999998</ele><time>2023-07-17T04:10:22Z</time></trkpt><trkpt lat="35.7367686" lon="138.8491054"><ele>1840.7733333333335</ele><time>2023-07-17T04:10:35Z</time></trkpt><trkpt lat="35.7365918" lon="138.8490316"><ele>1836.7300000000002</ele><time>2023-07-17T04:10:54Z</time></trkpt><trkpt lat="35.7364657" lon="138.8488621"><ele>1833.3433333333332</ele><time>2023-07-17T04:11:05Z</time></trkpt><trkpt lat="35.7364096" lon="138.8486493"><ele>1829.9433333333334</ele><time>2023-07-17T04:11:16Z</time></trkpt><trkpt lat="35.7363647" lon="138.8484307"><ele>1827.68</ele><time>2023-07-17T04:11:29Z</time></trkpt><trkpt lat="35.7363788" lon="138.8482053"><ele>1825.1633333333332</ele><time>2023-07-17T04:11:41Z</time></trkpt><trkpt lat="35.7363936" lon="138.8479844"><ele>1822.5100000000002</ele><time>2023-07-17T04:11:55Z</time></trkpt><trkpt lat="35.7363458" lon="138.8477694"><ele>1819.9333333333334</ele><time>2023-07-17T04:12:07Z</time></trkpt><trkpt lat="35.7364678" lon="138.8475934"><ele>1817.0933333333335</ele><time>2023-07-17T04:12:21Z</time></trkpt><trkpt lat="35.7366523" lon="138.8475781"><ele>1814.3400000000001</ele><time>2023-07-17T04:12:35Z</time></trkpt><trkpt lat="35.7368011" lon="138.847451"><ele>1810.8300000000002</ele><time>2023-07-17T04:12:47Z</time></trkpt><trkpt lat="35.7369778" lon="138.847509"><ele>1806.9400000000003</ele><time>2023-07-17T04:13:04Z</time></trkpt><trkpt lat="35.7371391" lon="138.8476193"><ele>1804.6499999999999</ele><time>2023-07-17T04:13:21Z</time></trkpt><trkpt lat="35.737318" lon="138.8476541"><ele>1802.3633333333335</ele><time>2023-07-17T04:13:35Z</time></trkpt><trkpt lat="35.7374936" lon="138.847572"><ele>1800.3999999999999</ele><time>2023-07-17T04:13:51Z</time></trkpt><trkpt lat="35.7376761" lon="138.8476158"><ele>1797.8033333333333</ele><time>2023-07-17T04:14:04Z</time></trkpt><trkpt lat="35.7378385" lon="138.8477247"><ele>1799.91</ele><time>2023-07-17T04:14:16Z</time></trkpt><trkpt lat="35.7380176" lon="138.8476892"><ele>1801.6433333333334</ele><time>2023-07-17T04:14:26Z</time></trkpt><trkpt lat="35.7382019" lon="138.8476265"><ele>1803.4099999999999</ele><time>2023-07-17T04:14:37Z</time></trkpt><trkpt lat="35.7383612" lon="138.8475123"><ele>1799.9800000000002</ele><time>2023-07-17T04:14:49Z</time></trkpt><trkpt lat="35.7385065" lon="138.8473737"><ele>1799.3933333333334</ele><time>2023-07-17T04:15:01Z</time></trkpt><trkpt lat="35.7385493" lon="138.8471554"><ele>1793.3866666666665</ele><time>2023-07-17T04:15:13Z</time></trkpt><trkpt lat="35.7386483" lon="138.8469622"><ele>1789.5866666666668</ele><time>2023-07-17T04:15:26Z</time></trkpt><trkpt lat="35.7388298" lon="138.8470429"><ele>1786.4066666666665</ele><time>2023-07-17T04:15:39Z</time></trkpt><trkpt lat="35.7390209" lon="138.8471102"><ele>1789.3166666666668</ele><time>2023-07-17T04:15:46Z</time></trkpt><trkpt lat="35.7391614" lon="138.8469688"><ele>1790.5733333333335</ele><time>2023-07-17T04:16:02Z</time></trkpt><trkpt lat="35.7392506" lon="138.8467498"><ele>1787.006666666667</ele><time>2023-07-17T04:16:19Z</time></trkpt><trkpt lat="35.7394207" lon="138.8466744"><ele>1781.5933333333332</ele><time>2023-07-17T04:16:32Z</time></trkpt><trkpt lat="35.7395763" lon="138.8465413"><ele>1776.4000000000003</ele><time>2023-07-17T04:16:46Z</time></trkpt><trkpt lat="35.7395773" lon="138.8463175"><ele>1772.2300000000002</ele><time>2023-07-17T04:16:58Z</time></trkpt><trkpt lat="35.7395134" lon="138.8461044"><ele>1767.9733333333334</ele><time>2023-07-17T04:17:14Z</time></trkpt><trkpt lat="35.7393635" lon="138.8459801"><ele>1763.7833333333335</ele><time>2023-07-17T04:17:29Z</time></trkpt><trkpt lat="35.7392965" lon="138.8457694"><ele>1761.55</ele><time>2023-07-17T04:17:43Z</time></trkpt><trkpt lat="35.7391421" lon="138.8456415"><ele>1759.0400000000002</ele><time>2023-07-17T04:17:55Z</time></trkpt><trkpt lat="35.7389786" lon="138.8455351"><ele>1756.5866666666668</ele><time>2023-07-17T04:18:07Z</time></trkpt><trkpt lat="35.7388134" lon="138.8454161"><ele>1753.61</ele><time>2023-07-17T04:18:22Z</time></trkpt><trkpt lat="35.7386461" lon="138.8453165"><ele>1750.8633333333335</ele><time>2023-07-17T04:18:35Z</time></trkpt><trkpt lat="35.738491" lon="138.8451995"><ele>1746.43</ele><time>2023-07-17T04:18:51Z</time></trkpt><trkpt lat="35.738338" lon="138.8450792"><ele>1740.3933333333334</ele><time>2023-07-17T04:19:09Z</time></trkpt><trkpt lat="35.7382747" lon="138.8448504"><ele>1734.006666666667</ele><time>2023-07-17T04:19:34Z</time></trkpt><trkpt lat="35.7381674" lon="138.8446653"><ele>1728.7766666666666</ele><time>2023-07-17T04:19:45Z</time></trkpt><trkpt lat="35.7380258" lon="138.8445087"><ele>1724.11</ele><time>2023-07-17T04:19:57Z</time></trkpt><trkpt lat="35.7378703" lon="138.8443938"><ele>1718.62</ele><time>2023-07-17T04:20:11Z</time></trkpt><trkpt lat="35.7377195" lon="138.8442724"><ele>1713.3233333333335</ele><time>2023-07-17T04:20:24Z</time></trkpt><trkpt lat="35.7376342" lon="138.8440754"><ele>1707.9833333333333</ele><time>2023-07-17T04:20:40Z</time></trkpt><trkpt lat="35.7378083" lon="138.8440139"><ele>1704.0166666666667</ele><time>2023-07-17T04:21:00Z</time></trkpt><trkpt lat="35.7379011" lon="138.8438154"><ele>1700.5</ele><time>2023-07-17T04:21:18Z</time></trkpt><trkpt lat="35.7380592" lon="138.8436991"><ele>1699.7666666666667</ele><time>2023-07-17T04:21:31Z</time></trkpt><trkpt lat="35.7380037" lon="138.8434835"><ele>1698.5766666666666</ele><time>2023-07-17T04:22:02Z</time></trkpt><trkpt lat="35.7379366" lon="138.8432722"><ele>1698.243333333333</ele><time>2023-07-17T04:22:37Z</time></trkpt><trkpt lat="35.7378346" lon="138.8430859"><ele>1698.5166666666667</ele><time>2023-07-17T04:22:56Z</time></trkpt><trkpt lat="35.7378417" lon="138.8428595"><ele>1701.28</ele><time>2023-07-17T04:23:18Z</time></trkpt><trkpt lat="35.7377641" lon="138.8426516"><ele>1703.61</ele><time>2023-07-17T04:23:32Z</time></trkpt><trkpt lat="35.7378944" lon="138.8424919"><ele>1706.58</ele><time>2023-07-17T04:23:46Z</time></trkpt><trkpt lat="35.7379203" lon="138.8422539"><ele>1708.0433333333333</ele><time>2023-07-17T04:24:01Z</time></trkpt><trkpt lat="35.7377962" lon="138.8420832"><ele>1708.6933333333334</ele><time>2023-07-17T04:24:11Z</time></trkpt><trkpt lat="35.7377623" lon="138.8418647"><ele>1707.6766666666665</ele><time>2023-07-17T04:24:24Z</time></trkpt><trkpt lat="35.7378224" lon="138.8416475"><ele>1707.6933333333334</ele><time>2023-07-17T04:24:40Z</time></trkpt><trkpt lat="35.7378757" lon="138.8414332"><ele>1709.0533333333333</ele><time>2023-07-17T04:24:52Z</time></trkpt><trkpt lat="35.7378327" lon="138.8412171"><ele>1708.8333333333333</ele><time>2023-07-17T04:25:05Z</time></trkpt><trkpt lat="35.7378322" lon="138.8409812"><ele>1708.2766666666666</ele><time>2023-07-17T04:25:27Z</time></trkpt><trkpt lat="35.7378005" lon="138.840762"><ele>1706.9933333333336</ele><time>2023-07-17T04:25:41Z</time></trkpt><trkpt lat="35.7377059" lon="138.8405651"><ele>1706.1433333333334</ele><time>2023-07-17T04:25:53Z</time></trkpt><trkpt lat="35.7377218" lon="138.8403425"><ele>1705.5766666666668</ele><time>2023-07-17T04:26:07Z</time></trkpt><trkpt lat="35.737773" lon="138.8401227"><ele>1705.92</ele><time>2023-07-17T04:26:23Z</time></trkpt><trkpt lat="35.7376539" lon="138.8399522"><ele>1703.57</ele><time>2023-07-17T04:26:33Z</time></trkpt><trkpt lat="35.7374805" lon="138.8398888"><ele>1700.1166666666668</ele><time>2023-07-17T04:26:44Z</time></trkpt><trkpt lat="35.7373616" lon="138.8397082"><ele>1696.9266666666665</ele><time>2023-07-17T04:26:53Z</time></trkpt><trkpt lat="35.7372229" lon="138.839561"><ele>1697.5866666666668</ele><time>2023-07-17T04:27:05Z</time></trkpt><trkpt lat="35.7371068" lon="138.8393711"><ele>1701.1966666666667</ele><time>2023-07-17T04:27:18Z</time></trkpt><trkpt lat="35.736951" lon="138.8392373"><ele>1703.7533333333333</ele><time>2023-07-17T04:27:31Z</time></trkpt><trkpt lat="35.7367706" lon="138.8392051"><ele>1705.0166666666667</ele><time>2023-07-17T04:27:42Z</time></trkpt><trkpt lat="35.7366511" lon="138.8390357"><ele>1703.8500000000001</ele><time>2023-07-17T04:28:05Z</time></trkpt><trkpt lat="35.7364629" lon="138.8390981"><ele>1702.7633333333333</ele><time>2023-07-17T04:28:20Z</time></trkpt><trkpt lat="35.7362814" lon="138.8390457"><ele>1702.5933333333332</ele><time>2023-07-17T04:28:55Z</time></trkpt><trkpt lat="35.73613" lon="138.8389085"><ele>1701.1499999999999</ele><time>2023-07-17T04:29:13Z</time></trkpt><trkpt lat="35.7359505" lon="138.8388632"><ele>1698.4833333333333</ele><time>2023-07-17T04:29:36Z</time></trkpt><trkpt lat="35.7360646" lon="138.8386852"><ele>1696.39</ele><time>2023-07-17T04:30:19Z</time></trkpt><trkpt lat="35.7361058" lon="138.8384627"><ele>1694.993333333333</ele><time>2023-07-17T04:30:35Z</time></trkpt><trkpt lat="35.7360932" lon="138.8382375"><ele>1694.5266666666666</ele><time>2023-07-17T04:31:02Z</time></trkpt><trkpt lat="35.7360992" lon="138.8380044"><ele>1693.0466666666669</ele><time>2023-07-17T04:31:16Z</time></trkpt><trkpt lat="35.7361227" lon="138.8377851"><ele>1691.03</ele><time>2023-07-17T04:31:28Z</time></trkpt><trkpt lat="35.7362268" lon="138.8375602"><ele>1688.17</ele><time>2023-07-17T04:31:52Z</time></trkpt><trkpt lat="35.7361965" lon="138.8373395"><ele>1683.6000000000001</ele><time>2023-07-17T04:32:03Z</time></trkpt><trkpt lat="35.7361723" lon="138.8371078"><ele>1679.8833333333334</ele><time>2023-07-17T04:32:17Z</time></trkpt><trkpt lat="35.7362193" lon="138.8368836"><ele>1678.4166666666667</ele><time>2023-07-17T04:32:31Z</time></trkpt><trkpt lat="35.7361423" lon="138.8366749"><ele>1678.7533333333333</ele><time>2023-07-17T04:32:43Z</time></trkpt><trkpt lat="35.7360572" lon="138.8364761"><ele>1678.5866666666668</ele><time>2023-07-17T04:32:59Z</time></trkpt><trkpt lat="35.7359606" lon="138.8362872"><ele>1676.8733333333332</ele><time>2023-07-17T04:33:18Z</time></trkpt><trkpt lat="35.7358691" lon="138.8360769"><ele>1674.966666666667</ele><time>2023-07-17T04:33:34Z</time></trkpt><trkpt lat="35.7357009" lon="138.8359803"><ele>1672.5533333333333</ele><time>2023-07-17T04:33:48Z</time></trkpt><trkpt lat="35.7355747" lon="138.835822"><ele>1670.6833333333334</ele><time>2023-07-17T04:34:07Z</time></trkpt><trkpt lat="35.735607" lon="138.8355945"><ele>1668.9466666666667</ele><time>2023-07-17T04:34:20Z</time></trkpt><trkpt lat="35.7355958" lon="138.8353509"><ele>1666.1633333333332</ele><time>2023-07-17T04:34:38Z</time></trkpt><trkpt lat="35.7354302" lon="138.8352508"><ele>1664.99</ele><time>2023-07-17T04:34:56Z</time></trkpt><trkpt lat="35.7352501" lon="138.8352153"><ele>1664.0866666666668</ele><time>2023-07-17T04:35:12Z</time></trkpt><trkpt lat="35.7351315" lon="138.8350276"><ele>1666.72</ele><time>2023-07-17T04:35:26Z</time></trkpt><trkpt lat="35.735073" lon="138.8347832"><ele>1668.073333333333</ele><time>2023-07-17T04:35:37Z</time></trkpt><trkpt lat="35.7350406" lon="138.8345581"><ele>1668.8933333333334</ele><time>2023-07-17T04:35:52Z</time></trkpt><trkpt lat="35.7348616" lon="138.8344964"><ele>1666.7966666666664</ele><time>2023-07-17T04:36:03Z</time></trkpt><trkpt lat="35.7346908" lon="138.8344232"><ele>1663.3366666666668</ele><time>2023-07-17T04:36:17Z</time></trkpt><trkpt lat="35.7345523" lon="138.8345705"><ele>1659.22</ele><time>2023-07-17T04:36:34Z</time></trkpt><trkpt lat="35.7343721" lon="138.834579"><ele>1655.0466666666669</ele><time>2023-07-17T04:37:01Z</time></trkpt><trkpt lat="35.7342677" lon="138.8347758"><ele>1650.9566666666667</ele><time>2023-07-17T04:37:06Z</time></trkpt><trkpt lat="35.7340878" lon="138.8347928"><ele>1646.4399999999998</ele><time>2023-07-17T04:37:20Z</time></trkpt><trkpt lat="35.7338862" lon="138.8347862"><ele>1642.7399999999998</ele><time>2023-07-17T04:37:29Z</time></trkpt><trkpt lat="35.7337019" lon="138.8347396"><ele>1640.8100000000002</ele><time>2023-07-17T04:37:44Z</time></trkpt><trkpt lat="35.7336105" lon="138.8345435"><ele>1639.0233333333333</ele><time>2023-07-17T04:37:58Z</time></trkpt><trkpt lat="35.7335795" lon="138.834316"><ele>1635.53</ele><time>2023-07-17T04:38:14Z</time></trkpt><trkpt lat="35.7334914" lon="138.8341072"><ele>1631.3433333333335</ele><time>2023-07-17T04:38:25Z</time></trkpt><trkpt lat="35.7333714" lon="138.8339353"><ele>1628.8033333333333</ele><time>2023-07-17T04:38:43Z</time></trkpt><trkpt lat="35.733299" lon="138.8337118"><ele>1628.7766666666666</ele><time>2023-07-17T04:38:56Z</time></trkpt><trkpt lat="35.7331977" lon="138.833527"><ele>1627.1633333333336</ele><time>2023-07-17T04:39:12Z</time></trkpt><trkpt lat="35.7330255" lon="138.8334479"><ele>1622.1899999999998</ele><time>2023-07-17T04:39:33Z</time></trkpt><trkpt lat="35.7328795" lon="138.8335796"><ele>1617.3066666666666</ele><time>2023-07-17T04:39:44Z</time></trkpt><trkpt lat="35.7327004" lon="138.8335344"><ele>1612.9533333333336</ele><time>2023-07-17T04:40:00Z</time></trkpt><trkpt lat="35.732567" lon="138.8333792"><ele>1612.6200000000001</ele><time>2023-07-17T04:40:19Z</time></trkpt><trkpt lat="35.7324062" lon="138.8332766"><ele>1612.3966666666668</ele><time>2023-07-17T04:40:32Z</time></trkpt><trkpt lat="35.7322457" lon="138.8331609"><ele>1613.2833333333335</ele><time>2023-07-17T04:40:48Z</time></trkpt><trkpt lat="35.7320695" lon="138.8331115"><ele>1612.3933333333334</ele><time>2023-07-17T04:40:59Z</time></trkpt><trkpt lat="35.7318886" lon="138.8330778"><ele>1611.3866666666665</ele><time>2023-07-17T04:41:16Z</time></trkpt><trkpt lat="35.7317643" lon="138.832916"><ele>1608.7266666666667</ele><time>2023-07-17T04:41:29Z</time></trkpt><trkpt lat="35.731602" lon="138.8328153"><ele>1603.6900000000003</ele><time>2023-07-17T04:41:42Z</time></trkpt><trkpt lat="35.7315815" lon="138.8325908"><ele>1595.9099999999999</ele><time>2023-07-17T04:41:59Z</time></trkpt><trkpt lat="35.7317425" lon="138.8324602"><ele>1590.4466666666667</ele><time>2023-07-17T04:42:08Z</time></trkpt><trkpt lat="35.7318322" lon="138.8322632"><ele>1587.6033333333332</ele><time>2023-07-17T04:42:21Z</time></trkpt><trkpt lat="35.731659" lon="138.8323644"><ele>1587.6900000000003</ele><time>2023-07-17T04:42:46Z</time></trkpt><trkpt lat="35.7314682" lon="138.8324902"><ele>1586.1066666666668</ele><time>2023-07-17T04:43:05Z</time></trkpt><trkpt lat="35.7316781" lon="138.8323805"><ele>1586.5933333333332</ele><time>2023-07-17T04:43:37Z</time></trkpt><trkpt lat="35.7317147" lon="138.832155"><ele>1586.5333333333335</ele><time>2023-07-17T04:43:50Z</time></trkpt></trkseg></trk></gpx>