<?xml version='1.0' encoding='UTF-8'?><gpx creator="YAMAP - https://yamap.com" xsi:schemaLocation="http://www.topografix.com/GPX/1/1 http://www.topografix.com/GPX/1/1/gpx.xsd" version="1.1" xmlns="http://www.topografix.com/GPX/1/1" xmlns:xsi="http://www.w3.org/2001/XMLSchema-instance"><metadata><bounds maxlat="35.6058267" maxlon="138.8276178" minlat="35.4984517" minlon="138.7685503"/></metadata><trk><name>笹子駅→清八山→三ッ峠山→河口湖駅</name><number>1</number><trkseg><trkpt lat="35.60408" lon="138.8272167"><ele>600.08</ele><time>2025-08-16T23:13:25Z</time></trkpt><trkpt lat="35.6041592" lon="138.8268689"><ele>600.485</ele><time>2025-08-16T23:13:46Z</time></trkpt><trkpt lat="35.6042772" lon="138.8271324"><ele>599.8266666666667</ele><time>2025-08-16T23:14:02Z</time></trkpt><trkpt lat="35.6043148" lon="138.8273895"><ele>598.9566666666667</ele><time>2025-08-16T23:14:14Z</time></trkpt><trkpt lat="35.6043267" lon="138.8276178"><ele>597.61</ele><time>2025-08-16T23:14:26Z</time></trkpt><trkpt lat="35.6043308" lon="138.8273535"><ele>597.3800000000001</ele><time>2025-08-16T23:15:21Z</time></trkpt><trkpt lat="35.6042687" lon="138.8271271"><ele>597.93</ele><time>2025-08-16T23:15:33Z</time></trkpt><trkpt lat="35.6042811" lon="138.8268727"><ele>598.7933333333334</ele><time>2025-08-16T23:15:50Z</time></trkpt><trkpt lat="35.6043489" lon="138.8266622"><ele>599.2666666666667</ele><time>2025-08-16T23:16:02Z</time></trkpt><trkpt lat="35.6043588" lon="138.8264338"><ele>599.3333333333334</ele><time>2025-08-16T23:16:11Z</time></trkpt><trkpt lat="35.6043161" lon="138.8261952"><ele>599.7633333333333</ele><time>2025-08-16T23:16:23Z</time></trkpt><trkpt lat="35.6043254" lon="138.8259492"><ele>600.5200000000001</ele><time>2025-08-16T23:16:37Z</time></trkpt><trkpt lat="35.6042807" lon="138.8257118"><ele>601.4533333333334</ele><time>2025-08-16T23:16:52Z</time></trkpt><trkpt lat="35.6043252" lon="138.8254547"><ele>602.1066666666667</ele><time>2025-08-16T23:17:07Z</time></trkpt><trkpt lat="35.6042651" lon="138.8252054"><ele>602.6533333333333</ele><time>2025-08-16T23:17:22Z</time></trkpt><trkpt lat="35.604256" lon="138.8249586"><ele>602.6033333333334</ele><time>2025-08-16T23:17:37Z</time></trkpt><trkpt lat="35.6042525" lon="138.8247293"><ele>602.1966666666666</ele><time>2025-08-16T23:17:51Z</time></trkpt><trkpt lat="35.6042252" lon="138.8245049"><ele>601.7566666666667</ele><time>2025-08-16T23:18:03Z</time></trkpt><trkpt lat="35.604193" lon="138.8242322"><ele>602.1933333333334</ele><time>2025-08-16T23:18:15Z</time></trkpt><trkpt lat="35.6041763" lon="138.8239994"><ele>603.3233333333334</ele><time>2025-08-16T23:18:29Z</time></trkpt><trkpt lat="35.6041797" lon="138.8237658"><ele>604.6566666666666</ele><time>2025-08-16T23:18:44Z</time></trkpt><trkpt lat="35.6041496" lon="138.8235397"><ele>605.7366666666667</ele><time>2025-08-16T23:18:56Z</time></trkpt><trkpt lat="35.6041719" lon="138.8233192"><ele>606.4533333333333</ele><time>2025-08-16T23:19:08Z</time></trkpt><trkpt lat="35.6041974" lon="138.8230868"><ele>606.9</ele><time>2025-08-16T23:19:20Z</time></trkpt><trkpt lat="35.6042441" lon="138.8228286"><ele>607.4333333333333</ele><time>2025-08-16T23:19:38Z</time></trkpt><trkpt lat="35.604288" lon="138.8225738"><ele>608.8533333333334</ele><time>2025-08-16T23:19:53Z</time></trkpt><trkpt lat="35.6043194" lon="138.8223321"><ele>610.6933333333333</ele><time>2025-08-16T23:20:08Z</time></trkpt><trkpt lat="35.6043739" lon="138.8221043"><ele>612.08</ele><time>2025-08-16T23:20:23Z</time></trkpt><trkpt lat="35.6044055" lon="138.8218504"><ele>612.54</ele><time>2025-08-16T23:20:38Z</time></trkpt><trkpt lat="35.6044523" lon="138.8215989"><ele>612.2666666666665</ele><time>2025-08-16T23:20:53Z</time></trkpt><trkpt lat="35.6044822" lon="138.8213655"><ele>612.7133333333333</ele><time>2025-08-16T23:21:05Z</time></trkpt><trkpt lat="35.6045116" lon="138.8211169"><ele>614.4133333333333</ele><time>2025-08-16T23:21:19Z</time></trkpt><trkpt lat="35.6045577" lon="138.8208574"><ele>617.3133333333334</ele><time>2025-08-16T23:21:34Z</time></trkpt><trkpt lat="35.6046068" lon="138.8206032"><ele>620.0166666666668</ele><time>2025-08-16T23:21:57Z</time></trkpt><trkpt lat="35.6046443" lon="138.8203648"><ele>621.6700000000001</ele><time>2025-08-16T23:22:13Z</time></trkpt><trkpt lat="35.6046533" lon="138.8200779"><ele>622.72</ele><time>2025-08-16T23:22:26Z</time></trkpt><trkpt lat="35.6047586" lon="138.8198838"><ele>623.4366666666666</ele><time>2025-08-16T23:22:41Z</time></trkpt><trkpt lat="35.6047824" lon="138.8196273"><ele>623.4466666666666</ele><time>2025-08-16T23:22:59Z</time></trkpt><trkpt lat="35.6048346" lon="138.8193481"><ele>622.6766666666666</ele><time>2025-08-16T23:23:15Z</time></trkpt><trkpt lat="35.6048995" lon="138.8190915"><ele>621.4533333333334</ele><time>2025-08-16T23:23:36Z</time></trkpt><trkpt lat="35.604921" lon="138.8188622"><ele>620.5566666666667</ele><time>2025-08-16T23:23:48Z</time></trkpt><trkpt lat="35.60502" lon="138.8186701"><ele>619.9900000000001</ele><time>2025-08-16T23:24:00Z</time></trkpt><trkpt lat="35.6052026" lon="138.8186227"><ele>619.89</ele><time>2025-08-16T23:24:14Z</time></trkpt><trkpt lat="35.6053795" lon="138.8185401"><ele>620.5066666666667</ele><time>2025-08-16T23:24:29Z</time></trkpt><trkpt lat="35.6055629" lon="138.8184244"><ele>622.2133333333333</ele><time>2025-08-16T23:24:41Z</time></trkpt><trkpt lat="35.6056971" lon="138.8182595"><ele>625.1233333333333</ele><time>2025-08-16T23:24:53Z</time></trkpt><trkpt lat="35.6058131" lon="138.8180651"><ele>628.5866666666667</ele><time>2025-08-16T23:25:08Z</time></trkpt><trkpt lat="35.6058267" lon="138.817805"><ele>631.7366666666666</ele><time>2025-08-16T23:25:26Z</time></trkpt><trkpt lat="35.6058043" lon="138.8175805"><ele>633.2199999999999</ele><time>2025-08-16T23:25:38Z</time></trkpt><trkpt lat="35.6057929" lon="138.817331"><ele>633.78</ele><time>2025-08-16T23:25:56Z</time></trkpt><trkpt lat="35.6057875" lon="138.8170722"><ele>634.15</ele><time>2025-08-16T23:26:11Z</time></trkpt><trkpt lat="35.6057592" lon="138.8168495"><ele>635.62</ele><time>2025-08-16T23:26:26Z</time></trkpt><trkpt lat="35.6057317" lon="138.8166298"><ele>636.8033333333333</ele><time>2025-08-16T23:26:38Z</time></trkpt><trkpt lat="35.6057086" lon="138.8164023"><ele>638.4499999999999</ele><time>2025-08-16T23:26:53Z</time></trkpt><trkpt lat="35.6057118" lon="138.8161274"><ele>641.6566666666666</ele><time>2025-08-16T23:27:08Z</time></trkpt><trkpt lat="35.6056839" lon="138.8158642"><ele>644.9566666666666</ele><time>2025-08-16T23:27:23Z</time></trkpt><trkpt lat="35.6056797" lon="138.8156348"><ele>647.4133333333333</ele><time>2025-08-16T23:27:38Z</time></trkpt><trkpt lat="35.6056392" lon="138.8153847"><ele>647.38</ele><time>2025-08-16T23:27:53Z</time></trkpt><trkpt lat="35.6056337" lon="138.8151504"><ele>647.4533333333334</ele><time>2025-08-16T23:28:07Z</time></trkpt><trkpt lat="35.6057308" lon="138.8149465"><ele>647.8</ele><time>2025-08-16T23:28:23Z</time></trkpt><trkpt lat="35.6057015" lon="138.8146933"><ele>648.1533333333333</ele><time>2025-08-16T23:28:38Z</time></trkpt><trkpt lat="35.6055971" lon="138.8145132"><ele>646.8066666666667</ele><time>2025-08-16T23:28:50Z</time></trkpt><trkpt lat="35.6055877" lon="138.8142637"><ele>645.1933333333333</ele><time>2025-08-16T23:29:02Z</time></trkpt><trkpt lat="35.6055505" lon="138.8140388"><ele>644.0333333333333</ele><time>2025-08-16T23:29:14Z</time></trkpt><trkpt lat="35.6055357" lon="138.8138041"><ele>644.48</ele><time>2025-08-16T23:29:26Z</time></trkpt><trkpt lat="35.6055023" lon="138.8135644"><ele>644.6866666666666</ele><time>2025-08-16T23:29:41Z</time></trkpt><trkpt lat="35.6054862" lon="138.8133369"><ele>645.12</ele><time>2025-08-16T23:29:53Z</time></trkpt><trkpt lat="35.6054922" lon="138.8131035"><ele>645.71</ele><time>2025-08-16T23:30:05Z</time></trkpt><trkpt lat="35.6054316" lon="138.8128413"><ele>645.9833333333335</ele><time>2025-08-16T23:30:20Z</time></trkpt><trkpt lat="35.6054287" lon="138.8126127"><ele>645.9833333333335</ele><time>2025-08-16T23:30:35Z</time></trkpt><trkpt lat="35.6054012" lon="138.812384"><ele>646.3333333333334</ele><time>2025-08-16T23:30:49Z</time></trkpt><trkpt lat="35.6053592" lon="138.8121317"><ele>647.7766666666666</ele><time>2025-08-16T23:31:05Z</time></trkpt><trkpt lat="35.6053409" lon="138.8118785"><ele>649.5</ele><time>2025-08-16T23:31:20Z</time></trkpt><trkpt lat="35.6052854" lon="138.8116188"><ele>651.24</ele><time>2025-08-16T23:31:35Z</time></trkpt><trkpt lat="35.6052783" lon="138.8113829"><ele>652.9000000000001</ele><time>2025-08-16T23:31:47Z</time></trkpt><trkpt lat="35.6052493" lon="138.8111495"><ele>654.5533333333334</ele><time>2025-08-16T23:32:02Z</time></trkpt><trkpt lat="35.6052151" lon="138.8109059"><ele>656.0733333333333</ele><time>2025-08-16T23:32:17Z</time></trkpt><trkpt lat="35.6051631" lon="138.8106851"><ele>657.8299999999999</ele><time>2025-08-16T23:32:38Z</time></trkpt><trkpt lat="35.6051036" lon="138.8104676"><ele>659.6966666666667</ele><time>2025-08-16T23:32:50Z</time></trkpt><trkpt lat="35.605034" lon="138.8102556"><ele>661.4033333333333</ele><time>2025-08-16T23:33:02Z</time></trkpt><trkpt lat="35.604976" lon="138.8100264"><ele>662.4333333333333</ele><time>2025-08-16T23:33:17Z</time></trkpt><trkpt lat="35.6048159" lon="138.8099125"><ele>664.16</ele><time>2025-08-16T23:33:33Z</time></trkpt><trkpt lat="35.6046219" lon="138.8098577"><ele>666.2400000000001</ele><time>2025-08-16T23:33:45Z</time></trkpt><trkpt lat="35.6044388" lon="138.8097457"><ele>668.83</ele><time>2025-08-16T23:34:09Z</time></trkpt><trkpt lat="35.604257" lon="138.8096471"><ele>670.6966666666666</ele><time>2025-08-16T23:34:24Z</time></trkpt><trkpt lat="35.6041672" lon="138.8094223"><ele>672.5066666666667</ele><time>2025-08-16T23:34:42Z</time></trkpt><trkpt lat="35.6041686" lon="138.8091868"><ele>674.09</ele><time>2025-08-16T23:35:15Z</time></trkpt><trkpt lat="35.60421" lon="138.8089375"><ele>675.2333333333335</ele><time>2025-08-16T23:35:27Z</time></trkpt><trkpt lat="35.6041448" lon="138.8086995"><ele>676.3766666666667</ele><time>2025-08-16T23:35:42Z</time></trkpt><trkpt lat="35.6041454" lon="138.8084613"><ele>677.4399999999999</ele><time>2025-08-16T23:35:57Z</time></trkpt><trkpt lat="35.6041747" lon="138.808238"><ele>678.5300000000001</ele><time>2025-08-16T23:36:09Z</time></trkpt><trkpt lat="35.6041937" lon="138.8079934"><ele>679.5633333333334</ele><time>2025-08-16T23:36:24Z</time></trkpt><trkpt lat="35.6039715" lon="138.8080287"><ele>682.0333333333333</ele><time>2025-08-16T23:36:40Z</time></trkpt><trkpt lat="35.6038935" lon="138.8082279"><ele>685.79</ele><time>2025-08-16T23:36:53Z</time></trkpt><trkpt lat="35.6038867" lon="138.8084724"><ele>688.8033333333333</ele><time>2025-08-16T23:37:11Z</time></trkpt><trkpt lat="35.6037749" lon="138.8086532"><ele>690.7333333333332</ele><time>2025-08-16T23:37:27Z</time></trkpt><trkpt lat="35.6035958" lon="138.808789"><ele>692.2866666666665</ele><time>2025-08-16T23:37:42Z</time></trkpt><trkpt lat="35.6033948" lon="138.8088878"><ele>694.0666666666666</ele><time>2025-08-16T23:38:01Z</time></trkpt><trkpt lat="35.6031815" lon="138.8089474"><ele>694.4366666666666</ele><time>2025-08-16T23:38:19Z</time></trkpt><trkpt lat="35.6029925" lon="138.8090335"><ele>694.6733333333333</ele><time>2025-08-16T23:38:34Z</time></trkpt><trkpt lat="35.6015267" lon="138.809375"><ele>716.85</ele><time>2025-08-16T23:40:27Z</time></trkpt><trkpt lat="35.6019964" lon="138.8100128"><ele>733.4066666666668</ele><time>2025-08-16T23:40:31Z</time></trkpt><trkpt lat="35.6017032" lon="138.8104017"><ele>736.9200000000001</ele><time>2025-08-16T23:40:41Z</time></trkpt><trkpt lat="35.6015185" lon="138.8104267"><ele>717.5966666666667</ele><time>2025-08-16T23:40:50Z</time></trkpt><trkpt lat="35.601356" lon="138.8103252"><ele>705.23</ele><time>2025-08-16T23:41:03Z</time></trkpt><trkpt lat="35.6011488" lon="138.8103966"><ele>703.4733333333334</ele><time>2025-08-16T23:41:15Z</time></trkpt><trkpt lat="35.6010131" lon="138.8102485"><ele>703.6033333333334</ele><time>2025-08-16T23:41:27Z</time></trkpt><trkpt lat="35.6009083" lon="138.8100647"><ele>703.9200000000001</ele><time>2025-08-16T23:41:39Z</time></trkpt><trkpt lat="35.6007165" lon="138.8100358"><ele>705.1666666666666</ele><time>2025-08-16T23:41:54Z</time></trkpt><trkpt lat="35.6005121" lon="138.8099665"><ele>705.4433333333333</ele><time>2025-08-16T23:42:09Z</time></trkpt><trkpt lat="35.60031" lon="138.8099484"><ele>704.4066666666668</ele><time>2025-08-16T23:42:21Z</time></trkpt><trkpt lat="35.6001282" lon="138.8100096"><ele>704.0133333333333</ele><time>2025-08-16T23:42:33Z</time></trkpt><trkpt lat="35.5999589" lon="138.8100854"><ele>703.6166666666667</ele><time>2025-08-16T23:42:45Z</time></trkpt><trkpt lat="35.5997931" lon="138.810207"><ele>704.1266666666667</ele><time>2025-08-16T23:43:03Z</time></trkpt><trkpt lat="35.5996995" lon="138.8103997"><ele>703.5733333333334</ele><time>2025-08-16T23:43:15Z</time></trkpt><trkpt lat="35.599559" lon="138.810555"><ele>702.7966666666666</ele><time>2025-08-16T23:43:30Z</time></trkpt><trkpt lat="35.5993445" lon="138.8105934"><ele>702.4066666666668</ele><time>2025-08-16T23:43:48Z</time></trkpt><trkpt lat="35.5991347" lon="138.8105666"><ele>703.1733333333335</ele><time>2025-08-16T23:44:03Z</time></trkpt><trkpt lat="35.5989232" lon="138.8105262"><ele>704.4699999999999</ele><time>2025-08-16T23:44:21Z</time></trkpt><trkpt lat="35.5987086" lon="138.8104187"><ele>705.4833333333335</ele><time>2025-08-16T23:44:39Z</time></trkpt><trkpt lat="35.5985333" lon="138.8103268"><ele>706.66</ele><time>2025-08-16T23:44:55Z</time></trkpt><trkpt lat="35.5983738" lon="138.8101687"><ele>708.3566666666667</ele><time>2025-08-16T23:45:10Z</time></trkpt><trkpt lat="35.5982225" lon="138.810042"><ele>709.4</ele><time>2025-08-16T23:45:27Z</time></trkpt><trkpt lat="35.5980492" lon="138.8099781"><ele>710.1533333333333</ele><time>2025-08-16T23:45:48Z</time></trkpt><trkpt lat="35.597862" lon="138.8098738"><ele>710.8433333333334</ele><time>2025-08-16T23:46:06Z</time></trkpt><trkpt lat="35.5976805" lon="138.8097778"><ele>712.8533333333334</ele><time>2025-08-16T23:46:22Z</time></trkpt><trkpt lat="35.5975086" lon="138.8096539"><ele>715.8866666666668</ele><time>2025-08-16T23:46:40Z</time></trkpt><trkpt lat="35.5973517" lon="138.8095448"><ele>719.0533333333334</ele><time>2025-08-16T23:46:55Z</time></trkpt><trkpt lat="35.5971765" lon="138.8094567"><ele>721.7266666666668</ele><time>2025-08-16T23:47:12Z</time></trkpt><trkpt lat="35.5970044" lon="138.8093528"><ele>724.3233333333334</ele><time>2025-08-16T23:47:30Z</time></trkpt><trkpt lat="35.5968249" lon="138.8092621"><ele>726.6766666666667</ele><time>2025-08-16T23:47:48Z</time></trkpt><trkpt lat="35.596675" lon="138.8091176"><ele>729.3633333333333</ele><time>2025-08-16T23:48:07Z</time></trkpt><trkpt lat="35.5965016" lon="138.8090325"><ele>731.1466666666666</ele><time>2025-08-16T23:48:25Z</time></trkpt><trkpt lat="35.5963358" lon="138.8088854"><ele>734.1266666666667</ele><time>2025-08-16T23:48:43Z</time></trkpt><trkpt lat="35.5962928" lon="138.8086539"><ele>737.3433333333334</ele><time>2025-08-16T23:49:26Z</time></trkpt><trkpt lat="35.5961616" lon="138.8084951"><ele>742.4733333333334</ele><time>2025-08-16T23:49:45Z</time></trkpt><trkpt lat="35.5960589" lon="138.808291"><ele>747.0099999999999</ele><time>2025-08-16T23:49:57Z</time></trkpt><trkpt lat="35.5960695" lon="138.808065"><ele>750.52</ele><time>2025-08-16T23:50:17Z</time></trkpt><trkpt lat="35.5961177" lon="138.8078446"><ele>751.9066666666668</ele><time>2025-08-16T23:50:39Z</time></trkpt><trkpt lat="35.5961067" lon="138.8075818"><ele>752.79</ele><time>2025-08-16T23:50:57Z</time></trkpt><trkpt lat="35.5961199" lon="138.8073396"><ele>752.9566666666666</ele><time>2025-08-16T23:51:15Z</time></trkpt><trkpt lat="35.5961084" lon="138.8070861"><ele>754.0900000000001</ele><time>2025-08-16T23:51:33Z</time></trkpt><trkpt lat="35.5960416" lon="138.8068659"><ele>755.0866666666667</ele><time>2025-08-16T23:51:51Z</time></trkpt><trkpt lat="35.5960524" lon="138.8066372"><ele>757.8633333333333</ele><time>2025-08-16T23:52:09Z</time></trkpt><trkpt lat="35.5960781" lon="138.8063966"><ele>761.1033333333335</ele><time>2025-08-16T23:52:27Z</time></trkpt><trkpt lat="35.5960649" lon="138.8061458"><ele>765.0866666666667</ele><time>2025-08-16T23:52:48Z</time></trkpt><trkpt lat="35.5960199" lon="138.8059086"><ele>768.9699999999999</ele><time>2025-08-16T23:53:06Z</time></trkpt><trkpt lat="35.5959897" lon="138.8056597"><ele>772.5166666666668</ele><time>2025-08-16T23:53:23Z</time></trkpt><trkpt lat="35.5959266" lon="138.8054339"><ele>775.0966666666667</ele><time>2025-08-16T23:53:41Z</time></trkpt><trkpt lat="35.5958302" lon="138.8052421"><ele>777.7966666666667</ele><time>2025-08-16T23:53:59Z</time></trkpt><trkpt lat="35.5957237" lon="138.8050488"><ele>779.59</ele><time>2025-08-16T23:54:17Z</time></trkpt><trkpt lat="35.5955579" lon="138.804915"><ele>780.8066666666667</ele><time>2025-08-16T23:54:35Z</time></trkpt><trkpt lat="35.5953892" lon="138.8047879"><ele>781.0733333333333</ele><time>2025-08-16T23:54:53Z</time></trkpt><trkpt lat="35.5952146" lon="138.8046515"><ele>782.3333333333334</ele><time>2025-08-16T23:55:09Z</time></trkpt><trkpt lat="35.5950187" lon="138.8045458"><ele>785.5100000000001</ele><time>2025-08-16T23:55:27Z</time></trkpt><trkpt lat="35.5948427" lon="138.8044271"><ele>790.2766666666666</ele><time>2025-08-16T23:55:51Z</time></trkpt><trkpt lat="35.5946725" lon="138.8042309"><ele>795.54</ele><time>2025-08-16T23:56:12Z</time></trkpt><trkpt lat="35.5944977" lon="138.8041497"><ele>799.5100000000001</ele><time>2025-08-16T23:56:30Z</time></trkpt><trkpt lat="35.5943018" lon="138.8040705"><ele>801.37</ele><time>2025-08-16T23:56:51Z</time></trkpt><trkpt lat="35.5941224" lon="138.8040097"><ele>802.4066666666666</ele><time>2025-08-16T23:57:09Z</time></trkpt><trkpt lat="35.5939132" lon="138.8039318"><ele>805.2433333333333</ele><time>2025-08-16T23:57:27Z</time></trkpt><trkpt lat="35.5937258" lon="138.8038854"><ele>809.5133333333333</ele><time>2025-08-16T23:57:45Z</time></trkpt><trkpt lat="35.5935301" lon="138.8038086"><ele>813.0166666666668</ele><time>2025-08-16T23:58:06Z</time></trkpt><trkpt lat="35.5933471" lon="138.8037546"><ele>814.4166666666666</ele><time>2025-08-16T23:58:33Z</time></trkpt><trkpt lat="35.593172" lon="138.8036929"><ele>815.7566666666667</ele><time>2025-08-16T23:58:45Z</time></trkpt><trkpt lat="35.5930262" lon="138.8035573"><ele>816.7866666666665</ele><time>2025-08-16T23:59:03Z</time></trkpt><trkpt lat="35.5928577" lon="138.8034357"><ele>818.0233333333334</ele><time>2025-08-16T23:59:21Z</time></trkpt><trkpt lat="35.5926769" lon="138.8033153"><ele>819.8333333333334</ele><time>2025-08-16T23:59:39Z</time></trkpt><trkpt lat="35.5925106" lon="138.8031655"><ele>822.7800000000001</ele><time>2025-08-17T00:00:00Z</time></trkpt><trkpt lat="35.5923938" lon="138.8029929"><ele>825.7400000000001</ele><time>2025-08-17T00:00:15Z</time></trkpt><trkpt lat="35.5922394" lon="138.8028178"><ele>827.4233333333333</ele><time>2025-08-17T00:00:33Z</time></trkpt><trkpt lat="35.5921151" lon="138.8026399"><ele>828.9966666666666</ele><time>2025-08-17T00:00:51Z</time></trkpt><trkpt lat="35.5919863" lon="138.8024687"><ele>832.0600000000001</ele><time>2025-08-17T00:01:09Z</time></trkpt><trkpt lat="35.5918719" lon="138.8022577"><ele>834.8566666666666</ele><time>2025-08-17T00:01:30Z</time></trkpt><trkpt lat="35.5917293" lon="138.8021201"><ele>837.9466666666667</ele><time>2025-08-17T00:01:45Z</time></trkpt><trkpt lat="35.5916038" lon="138.8019348"><ele>840.9166666666666</ele><time>2025-08-17T00:02:03Z</time></trkpt><trkpt lat="35.5914863" lon="138.8017327"><ele>844.46</ele><time>2025-08-17T00:02:21Z</time></trkpt><trkpt lat="35.5913457" lon="138.8015928"><ele>847.9233333333333</ele><time>2025-08-17T00:02:36Z</time></trkpt><trkpt lat="35.5911337" lon="138.8015227"><ele>851.7433333333333</ele><time>2025-08-17T00:02:54Z</time></trkpt><trkpt lat="35.5909637" lon="138.8016801"><ele>855.58</ele><time>2025-08-17T00:03:12Z</time></trkpt><trkpt lat="35.5908983" lon="138.8018887"><ele>858.5066666666668</ele><time>2025-08-17T00:03:30Z</time></trkpt><trkpt lat="35.5907935" lon="138.8021743"><ele>859.64</ele><time>2025-08-17T00:03:49Z</time></trkpt><trkpt lat="35.5907983" lon="138.8024382"><ele>859.6533333333333</ele><time>2025-08-17T00:04:19Z</time></trkpt><trkpt lat="35.5907662" lon="138.8027025"><ele>858.96</ele><time>2025-08-17T00:04:37Z</time></trkpt><trkpt lat="35.5906776" lon="138.8028952"><ele>859.9166666666666</ele><time>2025-08-17T00:04:56Z</time></trkpt><trkpt lat="35.5906308" lon="138.8031146"><ele>862.8466666666667</ele><time>2025-08-17T00:05:11Z</time></trkpt><trkpt lat="35.5905266" lon="138.8033297"><ele>867.3800000000001</ele><time>2025-08-17T00:05:28Z</time></trkpt><trkpt lat="35.5903511" lon="138.803416"><ele>870.7266666666668</ele><time>2025-08-17T00:05:43Z</time></trkpt><trkpt lat="35.5902258" lon="138.8032512"><ele>873.8033333333333</ele><time>2025-08-17T00:06:08Z</time></trkpt><trkpt lat="35.5902456" lon="138.8030182"><ele>876.0733333333334</ele><time>2025-08-17T00:06:20Z</time></trkpt><trkpt lat="35.5902082" lon="138.8027948"><ele>876.83</ele><time>2025-08-17T00:06:38Z</time></trkpt><trkpt lat="35.59011" lon="138.8026037"><ele>876.2900000000001</ele><time>2025-08-17T00:06:56Z</time></trkpt><trkpt lat="35.589928" lon="138.8024217"><ele>876.6533333333333</ele><time>2025-08-17T00:07:15Z</time></trkpt><trkpt lat="35.5897841" lon="138.802255"><ele>879.3033333333333</ele><time>2025-08-17T00:07:24Z</time></trkpt><trkpt lat="35.5897217" lon="138.8019887"><ele>881.8633333333333</ele><time>2025-08-17T00:07:40Z</time></trkpt><trkpt lat="35.5897271" lon="138.8017296"><ele>883.1233333333333</ele><time>2025-08-17T00:07:55Z</time></trkpt><trkpt lat="35.5896929" lon="138.8014993"><ele>883.4000000000001</ele><time>2025-08-17T00:08:13Z</time></trkpt><trkpt lat="35.589845" lon="138.8013271"><ele>883.4933333333335</ele><time>2025-08-17T00:08:31Z</time></trkpt><trkpt lat="35.5898846" lon="138.8010956"><ele>885.6700000000001</ele><time>2025-08-17T00:08:46Z</time></trkpt><trkpt lat="35.5898152" lon="138.8008677"><ele>890.1666666666666</ele><time>2025-08-17T00:09:01Z</time></trkpt><trkpt lat="35.5898843" lon="138.8006489"><ele>895.0433333333334</ele><time>2025-08-17T00:09:19Z</time></trkpt><trkpt lat="35.5897592" lon="138.8004179"><ele>899.0166666666665</ele><time>2025-08-17T00:09:29Z</time></trkpt><trkpt lat="35.5897124" lon="138.8001913"><ele>900.2400000000001</ele><time>2025-08-17T00:09:44Z</time></trkpt><trkpt lat="35.5897317" lon="138.7999558"><ele>902.8066666666667</ele><time>2025-08-17T00:09:56Z</time></trkpt><trkpt lat="35.5897126" lon="138.7997273"><ele>905.3266666666668</ele><time>2025-08-17T00:10:11Z</time></trkpt><trkpt lat="35.5896694" lon="138.7995074"><ele>908.5133333333333</ele><time>2025-08-17T00:10:23Z</time></trkpt><trkpt lat="35.5896768" lon="138.799266"><ele>910.2366666666667</ele><time>2025-08-17T00:10:41Z</time></trkpt><trkpt lat="35.5897107" lon="138.7990487"><ele>910.8733333333333</ele><time>2025-08-17T00:10:56Z</time></trkpt><trkpt lat="35.5898464" lon="138.7988557"><ele>910.9166666666666</ele><time>2025-08-17T00:11:13Z</time></trkpt><trkpt lat="35.5897147" lon="138.7986637"><ele>911.7033333333334</ele><time>2025-08-17T00:11:32Z</time></trkpt><trkpt lat="35.5895076" lon="138.7986838"><ele>913.6766666666666</ele><time>2025-08-17T00:11:47Z</time></trkpt><trkpt lat="35.5893472" lon="138.7984003"><ele>915.0166666666668</ele><time>2025-08-17T00:12:20Z</time></trkpt><trkpt lat="35.5892972" lon="138.7981559"><ele>915.1466666666666</ele><time>2025-08-17T00:12:32Z</time></trkpt><trkpt lat="35.589194" lon="138.7979626"><ele>915.2333333333332</ele><time>2025-08-17T00:13:11Z</time></trkpt><trkpt lat="35.5889963" lon="138.7979294"><ele>916.0533333333333</ele><time>2025-08-17T00:13:32Z</time></trkpt><trkpt lat="35.5887787" lon="138.7979131"><ele>918.64</ele><time>2025-08-17T00:13:53Z</time></trkpt><trkpt lat="35.5886541" lon="138.7977344"><ele>921.9200000000001</ele><time>2025-08-17T00:14:11Z</time></trkpt><trkpt lat="35.5885601" lon="138.7975343"><ele>925.94</ele><time>2025-08-17T00:14:29Z</time></trkpt><trkpt lat="35.5883598" lon="138.7975531"><ele>928.8166666666667</ele><time>2025-08-17T00:15:02Z</time></trkpt><trkpt lat="35.5881901" lon="138.797472"><ele>931.5233333333334</ele><time>2025-08-17T00:15:23Z</time></trkpt><trkpt lat="35.5880333" lon="138.7973622"><ele>934.7333333333335</ele><time>2025-08-17T00:15:47Z</time></trkpt><trkpt lat="35.5878683" lon="138.7972217"><ele>938.8366666666667</ele><time>2025-08-17T00:16:11Z</time></trkpt><trkpt lat="35.587685" lon="138.7971006"><ele>941.9566666666668</ele><time>2025-08-17T00:16:32Z</time></trkpt><trkpt lat="35.5875395" lon="138.7969619"><ele>944.39</ele><time>2025-08-17T00:16:50Z</time></trkpt><trkpt lat="35.5873621" lon="138.796886"><ele>946.18</ele><time>2025-08-17T00:17:11Z</time></trkpt><trkpt lat="35.5871843" lon="138.7968018"><ele>948.0633333333334</ele><time>2025-08-17T00:17:32Z</time></trkpt><trkpt lat="35.5870102" lon="138.7967046"><ele>949.9833333333335</ele><time>2025-08-17T00:17:53Z</time></trkpt><trkpt lat="35.586926" lon="138.796504"><ele>952.57</ele><time>2025-08-17T00:18:16Z</time></trkpt><trkpt lat="35.5867125" lon="138.796404"><ele>955.1666666666666</ele><time>2025-08-17T00:18:34Z</time></trkpt><trkpt lat="35.5866292" lon="138.7961997"><ele>959.7833333333333</ele><time>2025-08-17T00:18:56Z</time></trkpt><trkpt lat="35.5864817" lon="138.7960376"><ele>964.0833333333334</ele><time>2025-08-17T00:19:19Z</time></trkpt><trkpt lat="35.5862964" lon="138.7959787"><ele>967.7066666666666</ele><time>2025-08-17T00:19:38Z</time></trkpt><trkpt lat="35.586108" lon="138.7960081"><ele>967.7366666666667</ele><time>2025-08-17T00:19:56Z</time></trkpt><trkpt lat="35.5860059" lon="138.796217"><ele>966.5966666666667</ele><time>2025-08-17T00:21:21Z</time></trkpt><trkpt lat="35.5859044" lon="138.7964109"><ele>966.8066666666667</ele><time>2025-08-17T00:21:36Z</time></trkpt><trkpt lat="35.5857039" lon="138.7963478"><ele>969.7466666666666</ele><time>2025-08-17T00:21:57Z</time></trkpt><trkpt lat="35.5855492" lon="138.7961629"><ele>974.1466666666666</ele><time>2025-08-17T00:22:15Z</time></trkpt><trkpt lat="35.5853945" lon="138.7960233"><ele>978.2433333333333</ele><time>2025-08-17T00:22:30Z</time></trkpt><trkpt lat="35.5852019" lon="138.7960464"><ele>981.3233333333334</ele><time>2025-08-17T00:22:51Z</time></trkpt><trkpt lat="35.5850535" lon="138.7958801"><ele>983.6433333333334</ele><time>2025-08-17T00:23:12Z</time></trkpt><trkpt lat="35.5848848" lon="138.7960016"><ele>986.1700000000001</ele><time>2025-08-17T00:23:36Z</time></trkpt><trkpt lat="35.5847472" lon="138.7961587"><ele>988.4699999999999</ele><time>2025-08-17T00:23:54Z</time></trkpt><trkpt lat="35.5845556" lon="138.796109"><ele>992.2999999999998</ele><time>2025-08-17T00:24:21Z</time></trkpt><trkpt lat="35.5844304" lon="138.7959468"><ele>995.6333333333333</ele><time>2025-08-17T00:24:39Z</time></trkpt><trkpt lat="35.584247" lon="138.795898"><ele>998.9133333333333</ele><time>2025-08-17T00:25:02Z</time></trkpt><trkpt lat="35.5840685" lon="138.795939"><ele>1001.6233333333333</ele><time>2025-08-17T00:25:18Z</time></trkpt><trkpt lat="35.5838941" lon="138.7960454"><ele>1005.4733333333334</ele><time>2025-08-17T00:25:40Z</time></trkpt><trkpt lat="35.5837143" lon="138.7960863"><ele>1009.6700000000001</ele><time>2025-08-17T00:26:07Z</time></trkpt><trkpt lat="35.5836049" lon="138.7962688"><ele>1014.27</ele><time>2025-08-17T00:27:07Z</time></trkpt><trkpt lat="35.5834457" lon="138.7964091"><ele>1018.0866666666667</ele><time>2025-08-17T00:27:31Z</time></trkpt><trkpt lat="35.5832637" lon="138.7963862"><ele>1023.8733333333333</ele><time>2025-08-17T00:27:55Z</time></trkpt><trkpt lat="35.5830934" lon="138.796487"><ele>1029.4566666666667</ele><time>2025-08-17T00:28:55Z</time></trkpt><trkpt lat="35.5829256" lon="138.7965964"><ele>1035.6200000000001</ele><time>2025-08-17T00:29:25Z</time></trkpt><trkpt lat="35.5827355" lon="138.796692"><ele>1040.4733333333334</ele><time>2025-08-17T00:29:55Z</time></trkpt><trkpt lat="35.582547" lon="138.7967793"><ele>1046.246666666667</ele><time>2025-08-17T00:30:34Z</time></trkpt><trkpt lat="35.5823503" lon="138.7969521"><ele>1055.0633333333335</ele><time>2025-08-17T00:31:19Z</time></trkpt><trkpt lat="35.5822325" lon="138.797197"><ele>1063.4066666666668</ele><time>2025-08-17T00:32:04Z</time></trkpt><trkpt lat="35.5820645" lon="138.7973029"><ele>1073.4266666666665</ele><time>2025-08-17T00:32:40Z</time></trkpt><trkpt lat="35.5819015" lon="138.7974051"><ele>1080.79</ele><time>2025-08-17T00:33:28Z</time></trkpt><trkpt lat="35.5817523" lon="138.7975705"><ele>1087.9466666666667</ele><time>2025-08-17T00:33:55Z</time></trkpt><trkpt lat="35.5816575" lon="138.7973557"><ele>1094.246666666667</ele><time>2025-08-17T00:35:01Z</time></trkpt><trkpt lat="35.5816671" lon="138.7971038"><ele>1097.7600000000002</ele><time>2025-08-17T00:35:52Z</time></trkpt><trkpt lat="35.5814275" lon="138.7971071"><ele>1104.05</ele><time>2025-08-17T00:37:13Z</time></trkpt><trkpt lat="35.5812617" lon="138.7972427"><ele>1110.6366666666668</ele><time>2025-08-17T00:37:59Z</time></trkpt><trkpt lat="35.5811451" lon="138.7974145"><ele>1119.96</ele><time>2025-08-17T00:38:29Z</time></trkpt><trkpt lat="35.5809277" lon="138.7975763"><ele>1127.63</ele><time>2025-08-17T00:39:56Z</time></trkpt><trkpt lat="35.5807533" lon="138.797687"><ele>1134.2833333333333</ele><time>2025-08-17T00:40:23Z</time></trkpt><trkpt lat="35.5805019" lon="138.7977301"><ele>1141.0</ele><time>2025-08-17T00:41:38Z</time></trkpt><trkpt lat="35.5802907" lon="138.7976775"><ele>1148.4199999999998</ele><time>2025-08-17T00:42:17Z</time></trkpt><trkpt lat="35.5801263" lon="138.7977717"><ele>1155.4599999999998</ele><time>2025-08-17T00:42:56Z</time></trkpt><trkpt lat="35.579931" lon="138.7976853"><ele>1163.3466666666666</ele><time>2025-08-17T00:44:05Z</time></trkpt><trkpt lat="35.5797581" lon="138.7976148"><ele>1171.4666666666667</ele><time>2025-08-17T00:48:37Z</time></trkpt><trkpt lat="35.5795024" lon="138.7976266"><ele>1180.8466666666666</ele><time>2025-08-17T00:49:34Z</time></trkpt><trkpt lat="35.5793449" lon="138.7977443"><ele>1191.5733333333335</ele><time>2025-08-17T00:50:37Z</time></trkpt><trkpt lat="35.5791386" lon="138.797916"><ele>1203.8733333333332</ele><time>2025-08-17T00:51:22Z</time></trkpt><trkpt lat="35.5789538" lon="138.7978156"><ele>1214.9333333333334</ele><time>2025-08-17T00:52:31Z</time></trkpt><trkpt lat="35.5786824" lon="138.7977623"><ele>1227.05</ele><time>2025-08-17T00:54:04Z</time></trkpt><trkpt lat="35.5784753" lon="138.7977714"><ele>1237.7566666666667</ele><time>2025-08-17T00:55:01Z</time></trkpt><trkpt lat="35.57829" lon="138.797804"><ele>1250.72</ele><time>2025-08-17T00:56:05Z</time></trkpt><trkpt lat="35.5781404" lon="138.7976767"><ele>1260.5766666666668</ele><time>2025-08-17T00:57:06Z</time></trkpt><trkpt lat="35.5779658" lon="138.7977358"><ele>1268.4166666666667</ele><time>2025-08-17T00:58:03Z</time></trkpt><trkpt lat="35.577762" lon="138.7977915"><ele>1275.5700000000002</ele><time>2025-08-17T00:58:36Z</time></trkpt><trkpt lat="35.577573" lon="138.7978348"><ele>1284.0533333333333</ele><time>2025-08-17T00:59:21Z</time></trkpt><trkpt lat="35.5773519" lon="138.7978506"><ele>1294.8066666666666</ele><time>2025-08-17T01:00:54Z</time></trkpt><trkpt lat="35.5772026" lon="138.7980382"><ele>1305.1766666666665</ele><time>2025-08-17T01:01:52Z</time></trkpt><trkpt lat="35.5770222" lon="138.7981188"><ele>1316.5333333333335</ele><time>2025-08-17T01:02:46Z</time></trkpt><trkpt lat="35.5768332" lon="138.7981687"><ele>1327.9833333333333</ele><time>2025-08-17T01:03:40Z</time></trkpt><trkpt lat="35.5765684" lon="138.7981857"><ele>1339.48</ele><time>2025-08-17T01:04:58Z</time></trkpt><trkpt lat="35.5764006" lon="138.7982962"><ele>1349.2133333333331</ele><time>2025-08-17T01:05:43Z</time></trkpt><trkpt lat="35.5761985" lon="138.798371"><ele>1359.8933333333332</ele><time>2025-08-17T01:06:25Z</time></trkpt><trkpt lat="35.576012" lon="138.7983171"><ele>1369.3133333333333</ele><time>2025-08-17T01:07:01Z</time></trkpt><trkpt lat="35.5758301" lon="138.7983086"><ele>1380.9266666666665</ele><time>2025-08-17T01:07:40Z</time></trkpt><trkpt lat="35.5757496" lon="138.7985146"><ele>1391.79</ele><time>2025-08-17T01:09:55Z</time></trkpt><trkpt lat="35.5755645" lon="138.7984814"><ele>1404.7766666666666</ele><time>2025-08-17T01:10:38Z</time></trkpt><trkpt lat="35.5753607" lon="138.7986071"><ele>1417.5766666666666</ele><time>2025-08-17T01:12:15Z</time></trkpt><trkpt lat="35.57554" lon="138.7986768"><ele>1423.4466666666667</ele><time>2025-08-17T01:12:27Z</time></trkpt><trkpt lat="35.5753547" lon="138.7986942"><ele>1429.1233333333332</ele><time>2025-08-17T01:13:06Z</time></trkpt><trkpt lat="35.575157" lon="138.7986155"><ele>1434.1766666666665</ele><time>2025-08-17T01:13:33Z</time></trkpt><trkpt lat="35.5749839" lon="138.7985276"><ele>1443.6133333333335</ele><time>2025-08-17T01:14:06Z</time></trkpt><trkpt lat="35.5750603" lon="138.7988019"><ele>1450.5100000000002</ele><time>2025-08-17T01:15:30Z</time></trkpt><trkpt lat="35.5748098" lon="138.7987302"><ele>1459.0233333333333</ele><time>2025-08-17T01:16:57Z</time></trkpt><trkpt lat="35.5748419" lon="138.7989914"><ele>1467.5233333333333</ele><time>2025-08-17T01:17:57Z</time></trkpt><trkpt lat="35.5746651" lon="138.7989214"><ele>1478.3066666666666</ele><time>2025-08-17T01:18:45Z</time></trkpt><trkpt lat="35.5745207" lon="138.7990919"><ele>1487.54</ele><time>2025-08-17T01:20:15Z</time></trkpt><trkpt lat="35.5744363" lon="138.799293"><ele>1499.4266666666665</ele><time>2025-08-17T01:21:16Z</time></trkpt><trkpt lat="35.5743104" lon="138.7991081"><ele>1510.3433333333332</ele><time>2025-08-17T01:22:20Z</time></trkpt><trkpt lat="35.5742004" lon="138.7989209"><ele>1516.6599999999999</ele><time>2025-08-17T01:23:02Z</time></trkpt><trkpt lat="35.5740377" lon="138.7988189"><ele>1520.073333333333</ele><time>2025-08-17T01:23:44Z</time></trkpt><trkpt lat="35.5739927" lon="138.7990358"><ele>1523.1866666666667</ele><time>2025-08-17T01:25:17Z</time></trkpt><trkpt lat="35.5737904" lon="138.7990545"><ele>1529.0866666666668</ele><time>2025-08-17T01:26:20Z</time></trkpt><trkpt lat="35.5738446" lon="138.7992747"><ele>1535.96</ele><time>2025-08-17T01:27:32Z</time></trkpt><trkpt lat="35.5736662" lon="138.7993833"><ele>1542.42</ele><time>2025-08-17T01:27:53Z</time></trkpt><trkpt lat="35.5735421" lon="138.7995523"><ele>1549.3999999999999</ele><time>2025-08-17T01:28:26Z</time></trkpt><trkpt lat="35.5734917" lon="138.7997689"><ele>1557.5133333333333</ele><time>2025-08-17T01:29:14Z</time></trkpt><trkpt lat="35.5734483" lon="138.7999878"><ele>1563.8100000000002</ele><time>2025-08-17T01:29:35Z</time></trkpt><trkpt lat="35.5734449" lon="138.8002209"><ele>1567.4533333333336</ele><time>2025-08-17T01:30:02Z</time></trkpt><trkpt lat="35.5734972" lon="138.8004358"><ele>1566.4800000000002</ele><time>2025-08-17T01:30:35Z</time></trkpt><trkpt lat="35.5733296" lon="138.8003509"><ele>1565.17</ele><time>2025-08-17T01:31:32Z</time></trkpt><trkpt lat="35.5732335" lon="138.800156"><ele>1565.8466666666666</ele><time>2025-08-17T01:32:02Z</time></trkpt><trkpt lat="35.5730771" lon="138.7999046"><ele>1573.006666666667</ele><time>2025-08-17T01:33:05Z</time></trkpt><trkpt lat="35.5728995" lon="138.7997244"><ele>1582.32</ele><time>2025-08-17T01:34:38Z</time></trkpt><trkpt lat="35.5727354" lon="138.7996284"><ele>1589.5433333333333</ele><time>2025-08-17T01:35:02Z</time></trkpt><trkpt lat="35.5725537" lon="138.7995366"><ele>1591.33</ele><time>2025-08-17T01:35:26Z</time></trkpt><trkpt lat="35.5723783" lon="138.7994817"><ele>1589.9333333333334</ele><time>2025-08-17T01:40:52Z</time></trkpt><trkpt lat="35.5722178" lon="138.7993508"><ele>1588.39</ele><time>2025-08-17T01:41:22Z</time></trkpt><trkpt lat="35.5722127" lon="138.7991273"><ele>1585.92</ele><time>2025-08-17T01:41:49Z</time></trkpt><trkpt lat="35.5721096" lon="138.7989461"><ele>1581.75</ele><time>2025-08-17T01:42:22Z</time></trkpt><trkpt lat="35.5719531" lon="138.7991025"><ele>1573.8999999999999</ele><time>2025-08-17T01:43:13Z</time></trkpt><trkpt lat="35.5718402" lon="138.799286"><ele>1567.7666666666667</ele><time>2025-08-17T01:43:58Z</time></trkpt><trkpt lat="35.571655" lon="138.7992972"><ele>1560.9133333333332</ele><time>2025-08-17T01:44:31Z</time></trkpt><trkpt lat="35.5714655" lon="138.7992691"><ele>1554.89</ele><time>2025-08-17T01:44:54Z</time></trkpt><trkpt lat="35.5712919" lon="138.7992062"><ele>1545.9133333333332</ele><time>2025-08-17T01:45:22Z</time></trkpt><trkpt lat="35.571106" lon="138.7993188"><ele>1537.97</ele><time>2025-08-17T01:45:46Z</time></trkpt><trkpt lat="35.570913" lon="138.7993425"><ele>1531.2933333333337</ele><time>2025-08-17T01:46:16Z</time></trkpt><trkpt lat="35.5707027" lon="138.7993845"><ele>1523.3966666666668</ele><time>2025-08-17T01:46:46Z</time></trkpt><trkpt lat="35.5705125" lon="138.7994743"><ele>1516.0966666666666</ele><time>2025-08-17T01:47:10Z</time></trkpt><trkpt lat="35.5703202" lon="138.7995283"><ele>1508.47</ele><time>2025-08-17T01:47:31Z</time></trkpt><trkpt lat="35.5701409" lon="138.7995571"><ele>1502.1333333333332</ele><time>2025-08-17T01:47:58Z</time></trkpt><trkpt lat="35.5699642" lon="138.7994639"><ele>1496.4133333333332</ele><time>2025-08-17T01:48:16Z</time></trkpt><trkpt lat="35.5698027" lon="138.7993548"><ele>1491.0733333333335</ele><time>2025-08-17T01:48:34Z</time></trkpt><trkpt lat="35.5696283" lon="138.7992894"><ele>1487.2833333333335</ele><time>2025-08-17T01:49:04Z</time></trkpt><trkpt lat="35.5695057" lon="138.7991128"><ele>1483.74</ele><time>2025-08-17T01:49:31Z</time></trkpt><trkpt lat="35.5693261" lon="138.7991699"><ele>1482.5100000000002</ele><time>2025-08-17T01:49:52Z</time></trkpt><trkpt lat="35.5691471" lon="138.7992285"><ele>1482.1933333333334</ele><time>2025-08-17T01:50:10Z</time></trkpt><trkpt lat="35.5689246" lon="138.7991604"><ele>1483.43</ele><time>2025-08-17T01:50:31Z</time></trkpt><trkpt lat="35.568741" lon="138.7992021"><ele>1485.3100000000002</ele><time>2025-08-17T01:50:42Z</time></trkpt><trkpt lat="35.5685889" lon="138.7993348"><ele>1488.8066666666666</ele><time>2025-08-17T01:51:12Z</time></trkpt><trkpt lat="35.5683753" lon="138.7994436"><ele>1494.1933333333334</ele><time>2025-08-17T01:52:03Z</time></trkpt><trkpt lat="35.5681968" lon="138.7995115"><ele>1498.8133333333335</ele><time>2025-08-17T01:53:00Z</time></trkpt><trkpt lat="35.5680258" lon="138.7993951"><ele>1501.8433333333332</ele><time>2025-08-17T01:53:24Z</time></trkpt><trkpt lat="35.56788" lon="138.7992448"><ele>1501.7066666666667</ele><time>2025-08-17T01:54:03Z</time></trkpt><trkpt lat="35.5677297" lon="138.7991216"><ele>1499.4633333333334</ele><time>2025-08-17T01:54:21Z</time></trkpt><trkpt lat="35.5675433" lon="138.799023"><ele>1495.86</ele><time>2025-08-17T01:54:42Z</time></trkpt><trkpt lat="35.5673543" lon="138.7990132"><ele>1492.1066666666666</ele><time>2025-08-17T01:55:03Z</time></trkpt><trkpt lat="35.5671607" lon="138.7990318"><ele>1487.3133333333335</ele><time>2025-08-17T01:55:33Z</time></trkpt><trkpt lat="35.5669799" lon="138.7990397"><ele>1481.5266666666666</ele><time>2025-08-17T01:56:03Z</time></trkpt><trkpt lat="35.5667907" lon="138.7991381"><ele>1474.0900000000001</ele><time>2025-08-17T01:56:30Z</time></trkpt><trkpt lat="35.5666502" lon="138.7992846"><ele>1468.26</ele><time>2025-08-17T01:56:48Z</time></trkpt><trkpt lat="35.566466" lon="138.7993107"><ele>1463.3933333333334</ele><time>2025-08-17T01:57:06Z</time></trkpt><trkpt lat="35.5662676" lon="138.7993494"><ele>1459.7</ele><time>2025-08-17T01:57:24Z</time></trkpt><trkpt lat="35.5660462" lon="138.7993345"><ele>1455.9400000000003</ele><time>2025-08-17T01:57:42Z</time></trkpt><trkpt lat="35.56583" lon="138.799365"><ele>1454.1966666666667</ele><time>2025-08-17T01:58:09Z</time></trkpt><trkpt lat="35.5656488" lon="138.7994201"><ele>1455.54</ele><time>2025-08-17T01:58:48Z</time></trkpt><trkpt lat="35.5654619" lon="138.7994625"><ele>1460.6566666666668</ele><time>2025-08-17T01:59:15Z</time></trkpt><trkpt lat="35.5653035" lon="138.7995886"><ele>1467.5033333333333</ele><time>2025-08-17T01:59:36Z</time></trkpt><trkpt lat="35.5651351" lon="138.7996694"><ele>1474.5666666666666</ele><time>2025-08-17T02:01:05Z</time></trkpt><trkpt lat="35.5648717" lon="138.7995896"><ele>1483.7733333333333</ele><time>2025-08-17T02:02:32Z</time></trkpt><trkpt lat="35.5646107" lon="138.7995773"><ele>1492.7733333333335</ele><time>2025-08-17T02:07:44Z</time></trkpt><trkpt lat="35.5647239" lon="138.7997585"><ele>1498.8866666666665</ele><time>2025-08-17T02:09:02Z</time></trkpt><trkpt lat="35.5645827" lon="138.799621"><ele>1501.0766666666668</ele><time>2025-08-17T02:10:26Z</time></trkpt><trkpt lat="35.5644395" lon="138.7997671"><ele>1503.6333333333334</ele><time>2025-08-17T02:10:57Z</time></trkpt><trkpt lat="35.5642773" lon="138.7999001"><ele>1510.7333333333333</ele><time>2025-08-17T02:11:49Z</time></trkpt><trkpt lat="35.5641056" lon="138.799972"><ele>1518.9866666666667</ele><time>2025-08-17T02:12:31Z</time></trkpt><trkpt lat="35.5639066" lon="138.8000201"><ele>1525.8533333333332</ele><time>2025-08-17T02:13:58Z</time></trkpt><trkpt lat="35.563725" lon="138.7998918"><ele>1528.2666666666667</ele><time>2025-08-17T02:14:13Z</time></trkpt><trkpt lat="35.5635426" lon="138.7999264"><ele>1526.7333333333333</ele><time>2025-08-17T02:14:46Z</time></trkpt><trkpt lat="35.5633403" lon="138.799964"><ele>1520.3233333333335</ele><time>2025-08-17T02:15:13Z</time></trkpt><trkpt lat="35.563151" lon="138.8001147"><ele>1512.006666666667</ele><time>2025-08-17T02:15:46Z</time></trkpt><trkpt lat="35.5629874" lon="138.8002657"><ele>1505.45</ele><time>2025-08-17T02:16:01Z</time></trkpt><trkpt lat="35.5628159" lon="138.8003932"><ele>1502.5366666666669</ele><time>2025-08-17T02:16:19Z</time></trkpt><trkpt lat="35.56264" lon="138.8005236"><ele>1502.5366666666669</ele><time>2025-08-17T02:16:40Z</time></trkpt><trkpt lat="35.5624689" lon="138.8006443"><ele>1503.6733333333334</ele><time>2025-08-17T02:17:04Z</time></trkpt><trkpt lat="35.5623189" lon="138.8007858"><ele>1506.8766666666668</ele><time>2025-08-17T02:17:31Z</time></trkpt><trkpt lat="35.5621262" lon="138.8008552"><ele>1510.1833333333334</ele><time>2025-08-17T02:18:01Z</time></trkpt><trkpt lat="35.5619454" lon="138.800885"><ele>1512.1366666666665</ele><time>2025-08-17T02:18:22Z</time></trkpt><trkpt lat="35.5617513" lon="138.8009295"><ele>1511.76</ele><time>2025-08-17T02:18:43Z</time></trkpt><trkpt lat="35.5615441" lon="138.8009344"><ele>1510.6066666666666</ele><time>2025-08-17T02:19:04Z</time></trkpt><trkpt lat="35.5613703" lon="138.8010727"><ele>1509.0266666666666</ele><time>2025-08-17T02:19:22Z</time></trkpt><trkpt lat="35.5612477" lon="138.8012534"><ele>1506.7</ele><time>2025-08-17T02:19:40Z</time></trkpt><trkpt lat="35.5610854" lon="138.8013995"><ele>1504.5933333333335</ele><time>2025-08-17T02:20:04Z</time></trkpt><trkpt lat="35.5608895" lon="138.8014452"><ele>1501.6333333333332</ele><time>2025-08-17T02:20:28Z</time></trkpt><trkpt lat="35.5606825" lon="138.8014491"><ele>1498.0533333333333</ele><time>2025-08-17T02:21:10Z</time></trkpt><trkpt lat="35.5604973" lon="138.8014244"><ele>1494.1666666666667</ele><time>2025-08-17T02:21:25Z</time></trkpt><trkpt lat="35.5602963" lon="138.8014116"><ele>1492.2033333333336</ele><time>2025-08-17T02:21:44Z</time></trkpt><trkpt lat="35.5600964" lon="138.8014577"><ele>1493.256666666667</ele><time>2025-08-17T02:22:02Z</time></trkpt><trkpt lat="35.5599191" lon="138.8014104"><ele>1495.2299999999998</ele><time>2025-08-17T02:22:19Z</time></trkpt><trkpt lat="35.5597895" lon="138.8015738"><ele>1500.3766666666668</ele><time>2025-08-17T02:22:28Z</time></trkpt><trkpt lat="35.5596149" lon="138.8014592"><ele>1503.0666666666666</ele><time>2025-08-17T02:22:50Z</time></trkpt><trkpt lat="35.5594233" lon="138.8015029"><ele>1505.6000000000001</ele><time>2025-08-17T02:23:08Z</time></trkpt><trkpt lat="35.5592395" lon="138.8014565"><ele>1505.3100000000002</ele><time>2025-08-17T02:23:29Z</time></trkpt><trkpt lat="35.5590616" lon="138.801369"><ele>1506.38</ele><time>2025-08-17T02:23:53Z</time></trkpt><trkpt lat="35.558885" lon="138.8012903"><ele>1507.9800000000002</ele><time>2025-08-17T02:24:14Z</time></trkpt><trkpt lat="35.5586874" lon="138.8013049"><ele>1508.8966666666668</ele><time>2025-08-17T02:24:32Z</time></trkpt><trkpt lat="35.558505" lon="138.8012764"><ele>1509.7933333333333</ele><time>2025-08-17T02:24:51Z</time></trkpt><trkpt lat="35.5583144" lon="138.801277"><ele>1506.9266666666665</ele><time>2025-08-17T02:25:27Z</time></trkpt><trkpt lat="35.5582427" lon="138.8014852"><ele>1502.9233333333332</ele><time>2025-08-17T02:25:57Z</time></trkpt><trkpt lat="35.5582452" lon="138.801736"><ele>1496.9766666666665</ele><time>2025-08-17T02:26:27Z</time></trkpt><trkpt lat="35.5580746" lon="138.8018236"><ele>1490.76</ele><time>2025-08-17T02:26:51Z</time></trkpt><trkpt lat="35.5578987" lon="138.8019516"><ele>1483.0466666666669</ele><time>2025-08-17T02:27:12Z</time></trkpt><trkpt lat="35.5577592" lon="138.802104"><ele>1475.79</ele><time>2025-08-17T02:27:30Z</time></trkpt><trkpt lat="35.5576383" lon="138.8022698"><ele>1472.17</ele><time>2025-08-17T02:27:48Z</time></trkpt><trkpt lat="35.5574701" lon="138.802405"><ele>1473.72</ele><time>2025-08-17T02:28:06Z</time></trkpt><trkpt lat="35.5573035" lon="138.8025586"><ele>1481.2233333333334</ele><time>2025-08-17T02:28:24Z</time></trkpt><trkpt lat="35.5571273" lon="138.8025072"><ele>1489.8366666666668</ele><time>2025-08-17T02:28:42Z</time></trkpt><trkpt lat="35.5569521" lon="138.8024472"><ele>1495.966666666667</ele><time>2025-08-17T02:29:16Z</time></trkpt><trkpt lat="35.5567812" lon="138.802365"><ele>1497.9933333333336</ele><time>2025-08-17T02:29:54Z</time></trkpt><trkpt lat="35.5566035" lon="138.8023145"><ele>1500.3700000000001</ele><time>2025-08-17T02:30:34Z</time></trkpt><trkpt lat="35.5564611" lon="138.8021711"><ele>1500.38</ele><time>2025-08-17T02:30:47Z</time></trkpt><trkpt lat="35.5562689" lon="138.8021648"><ele>1501.5199999999998</ele><time>2025-08-17T02:31:08Z</time></trkpt><trkpt lat="35.556085" lon="138.8021383"><ele>1501.51</ele><time>2025-08-17T02:31:33Z</time></trkpt><trkpt lat="35.556193" lon="138.8023215"><ele>1507.043333333333</ele><time>2025-08-17T02:33:57Z</time></trkpt><trkpt lat="35.5562179" lon="138.8026182"><ele>1517.47</ele><time>2025-08-17T02:35:27Z</time></trkpt><trkpt lat="35.5562634" lon="138.8028373"><ele>1531.47</ele><time>2025-08-17T02:37:34Z</time></trkpt><trkpt lat="35.5562462" lon="138.8030663"><ele>1545.926666666667</ele><time>2025-08-17T02:39:04Z</time></trkpt><trkpt lat="35.5560854" lon="138.8031732"><ele>1556.8733333333332</ele><time>2025-08-17T02:39:34Z</time></trkpt><trkpt lat="35.5559461" lon="138.8033239"><ele>1566.006666666667</ele><time>2025-08-17T02:40:52Z</time></trkpt><trkpt lat="35.5558038" lon="138.8034876"><ele>1574.93</ele><time>2025-08-17T02:44:15Z</time></trkpt><trkpt lat="35.5556407" lon="138.8035824"><ele>1583.4233333333334</ele><time>2025-08-17T02:45:30Z</time></trkpt><trkpt lat="35.555461" lon="138.8036793"><ele>1592.61</ele><time>2025-08-17T02:46:42Z</time></trkpt><trkpt lat="35.5553004" lon="138.8037825"><ele>1601.71</ele><time>2025-08-17T02:47:12Z</time></trkpt><trkpt lat="35.5550835" lon="138.8039142"><ele>1612.3266666666668</ele><time>2025-08-17T02:48:49Z</time></trkpt><trkpt lat="35.5548628" lon="138.8040821"><ele>1623.74</ele><time>2025-08-17T02:50:14Z</time></trkpt><trkpt lat="35.5546842" lon="138.8041387"><ele>1634.5766666666668</ele><time>2025-08-17T02:51:20Z</time></trkpt><trkpt lat="35.5544981" lon="138.8042427"><ele>1642.9866666666667</ele><time>2025-08-17T02:51:54Z</time></trkpt><trkpt lat="35.5543611" lon="138.8044005"><ele>1648.5333333333335</ele><time>2025-08-17T02:53:08Z</time></trkpt><trkpt lat="35.5542863" lon="138.8046323"><ele>1652.6933333333334</ele><time>2025-08-17T02:53:23Z</time></trkpt><trkpt lat="35.5541959" lon="138.804848"><ele>1655.8433333333335</ele><time>2025-08-17T02:53:38Z</time></trkpt><trkpt lat="35.5541612" lon="138.8050804"><ele>1662.0600000000002</ele><time>2025-08-17T02:54:11Z</time></trkpt><trkpt lat="35.5541559" lon="138.8053032"><ele>1669.3633333333335</ele><time>2025-08-17T02:55:59Z</time></trkpt><trkpt lat="35.5542339" lon="138.8055147"><ele>1678.3733333333332</ele><time>2025-08-17T02:57:11Z</time></trkpt><trkpt lat="35.5541334" lon="138.8057184"><ele>1685.0199999999998</ele><time>2025-08-17T02:58:02Z</time></trkpt><trkpt lat="35.5541185" lon="138.8059532"><ele>1691.1466666666665</ele><time>2025-08-17T02:58:38Z</time></trkpt><trkpt lat="35.5539763" lon="138.8061263"><ele>1695.4066666666668</ele><time>2025-08-17T02:59:05Z</time></trkpt><trkpt lat="35.5538795" lon="138.8063367"><ele>1701.3033333333333</ele><time>2025-08-17T02:59:47Z</time></trkpt><trkpt lat="35.5538064" lon="138.8065497"><ele>1706.61</ele><time>2025-08-17T03:00:23Z</time></trkpt><trkpt lat="35.5537642" lon="138.8067725"><ele>1714.006666666667</ele><time>2025-08-17T03:01:11Z</time></trkpt><trkpt lat="35.5536874" lon="138.8069728"><ele>1721.0566666666666</ele><time>2025-08-17T03:02:23Z</time></trkpt><trkpt lat="35.5536607" lon="138.8072771"><ele>1730.47</ele><time>2025-08-17T03:04:23Z</time></trkpt><trkpt lat="35.5536869" lon="138.8075533"><ele>1744.3966666666668</ele><time>2025-08-17T03:05:44Z</time></trkpt><trkpt lat="35.5537169" lon="138.8077812"><ele>1757.5133333333333</ele><time>2025-08-17T03:08:08Z</time></trkpt><trkpt lat="35.5536827" lon="138.8080273"><ele>1767.4033333333336</ele><time>2025-08-17T03:08:50Z</time></trkpt><trkpt lat="35.5536928" lon="138.8082662"><ele>1769.2</ele><time>2025-08-17T03:09:19Z</time></trkpt><trkpt lat="35.5535113" lon="138.8083017"><ele>1766.14</ele><time>2025-08-17T03:09:55Z</time></trkpt><trkpt lat="35.5535063" lon="138.8085478"><ele>1760.9800000000002</ele><time>2025-08-17T03:10:19Z</time></trkpt><trkpt lat="35.5534547" lon="138.8087638"><ele>1754.0900000000001</ele><time>2025-08-17T03:10:49Z</time></trkpt><trkpt lat="35.5533057" lon="138.8089307"><ele>1748.22</ele><time>2025-08-17T03:11:10Z</time></trkpt><trkpt lat="35.5531297" lon="138.8089948"><ele>1743.0</ele><time>2025-08-17T03:11:28Z</time></trkpt><trkpt lat="35.5529547" lon="138.8090935"><ele>1738.6733333333334</ele><time>2025-08-17T03:11:43Z</time></trkpt><trkpt lat="35.5527666" lon="138.8091638"><ele>1735.0266666666666</ele><time>2025-08-17T03:12:10Z</time></trkpt><trkpt lat="35.5525884" lon="138.8092379"><ele>1733.43</ele><time>2025-08-17T03:12:28Z</time></trkpt><trkpt lat="35.5524339" lon="138.8093874"><ele>1734.8766666666668</ele><time>2025-08-17T03:12:49Z</time></trkpt><trkpt lat="35.5522493" lon="138.8094641"><ele>1737.9566666666667</ele><time>2025-08-17T03:13:10Z</time></trkpt><trkpt lat="35.5520953" lon="138.8095896"><ele>1740.4966666666667</ele><time>2025-08-17T03:13:25Z</time></trkpt><trkpt lat="35.5519344" lon="138.8097321"><ele>1742.4233333333334</ele><time>2025-08-17T03:13:42Z</time></trkpt><trkpt lat="35.5517268" lon="138.8097854"><ele>1744.4933333333336</ele><time>2025-08-17T03:14:04Z</time></trkpt><trkpt lat="35.5515342" lon="138.8098092"><ele>1746.58</ele><time>2025-08-17T03:14:21Z</time></trkpt><trkpt lat="35.5513642" lon="138.8099174"><ele>1748.9466666666667</ele><time>2025-08-17T03:14:43Z</time></trkpt><trkpt lat="35.5511862" lon="138.8099654"><ele>1752.1266666666668</ele><time>2025-08-17T03:15:10Z</time></trkpt><trkpt lat="35.551006" lon="138.810037"><ele>1756.61</ele><time>2025-08-17T03:15:40Z</time></trkpt><trkpt lat="35.550845" lon="138.8101398"><ele>1761.5333333333335</ele><time>2025-08-17T03:16:10Z</time></trkpt><trkpt lat="35.5506954" lon="138.8102716"><ele>1766.0133333333333</ele><time>2025-08-17T03:16:40Z</time></trkpt><trkpt lat="35.5505084" lon="138.8103487"><ele>1769.28</ele><time>2025-08-17T03:17:13Z</time></trkpt><trkpt lat="35.5506599" lon="138.8104699"><ele>1771.3799999999999</ele><time>2025-08-17T03:17:29Z</time></trkpt><trkpt lat="35.5504951" lon="138.8103559"><ele>1772.04</ele><time>2025-08-17T03:18:01Z</time></trkpt><trkpt lat="35.5503265" lon="138.8102195"><ele>1771.5199999999998</ele><time>2025-08-17T03:18:16Z</time></trkpt><trkpt lat="35.5502336" lon="138.8100045"><ele>1769.74</ele><time>2025-08-17T03:18:40Z</time></trkpt><trkpt lat="35.5500397" lon="138.809946"><ele>1768.9633333333331</ele><time>2025-08-17T03:18:58Z</time></trkpt><trkpt lat="35.5498515" lon="138.8099175"><ele>1769.3066666666666</ele><time>2025-08-17T03:19:22Z</time></trkpt><trkpt lat="35.5498126" lon="138.8096825"><ele>1770.926666666667</ele><time>2025-08-17T03:19:55Z</time></trkpt><trkpt lat="35.549727" lon="138.8094846"><ele>1772.4566666666667</ele><time>2025-08-17T03:20:10Z</time></trkpt><trkpt lat="35.5496327" lon="138.8092716"><ele>1774.0333333333335</ele><time>2025-08-17T03:20:31Z</time></trkpt><trkpt lat="35.5494524" lon="138.8092309"><ele>1776.7066666666667</ele><time>2025-08-17T03:21:01Z</time></trkpt><trkpt lat="35.5492696" lon="138.809142"><ele>1779.3433333333335</ele><time>2025-08-17T03:21:55Z</time></trkpt><trkpt lat="35.5494302" lon="138.8089993"><ele>1780.0199999999998</ele><time>2025-08-17T03:23:07Z</time></trkpt><trkpt lat="35.5495505" lon="138.8087747"><ele>1776.0033333333333</ele><time>2025-08-17T03:23:49Z</time></trkpt><trkpt lat="35.5496707" lon="138.8086007"><ele>1769.0366666666666</ele><time>2025-08-17T03:24:10Z</time></trkpt><trkpt lat="35.5497879" lon="138.8084197"><ele>1761.4866666666667</ele><time>2025-08-17T03:24:31Z</time></trkpt><trkpt lat="35.5498865" lon="138.8082278"><ele>1755.3933333333334</ele><time>2025-08-17T03:24:58Z</time></trkpt><trkpt lat="35.5498972" lon="138.8080071"><ele>1749.1000000000001</ele><time>2025-08-17T03:25:22Z</time></trkpt><trkpt lat="35.5498476" lon="138.8077798"><ele>1740.2166666666665</ele><time>2025-08-17T03:26:04Z</time></trkpt><trkpt lat="35.5499751" lon="138.8076081"><ele>1731.64</ele><time>2025-08-17T03:26:34Z</time></trkpt><trkpt lat="35.5498779" lon="138.8074037"><ele>1724.18</ele><time>2025-08-17T03:26:52Z</time></trkpt><trkpt lat="35.5497186" lon="138.807264"><ele>1722.0600000000002</ele><time>2025-08-17T03:27:13Z</time></trkpt><trkpt lat="35.5496084" lon="138.8070707"><ele>1721.3933333333334</ele><time>2025-08-17T03:27:31Z</time></trkpt><trkpt lat="35.5494473" lon="138.8069288"><ele>1724.22</ele><time>2025-08-17T03:30:25Z</time></trkpt><trkpt lat="35.549223" lon="138.8069112"><ele>1727.21</ele><time>2025-08-17T03:30:55Z</time></trkpt><trkpt lat="35.5491016" lon="138.8067385"><ele>1731.63</ele><time>2025-08-17T03:31:12Z</time></trkpt><trkpt lat="35.5490249" lon="138.8065114"><ele>1734.1733333333334</ele><time>2025-08-17T03:31:31Z</time></trkpt><trkpt lat="35.548851" lon="138.8063842"><ele>1735.5633333333335</ele><time>2025-08-17T03:31:52Z</time></trkpt><trkpt lat="35.5486841" lon="138.806279"><ele>1734.9766666666667</ele><time>2025-08-17T03:32:10Z</time></trkpt><trkpt lat="35.5484818" lon="138.8062163"><ele>1733.2666666666667</ele><time>2025-08-17T03:32:31Z</time></trkpt><trkpt lat="35.5483166" lon="138.806088"><ele>1731.0266666666666</ele><time>2025-08-17T03:32:49Z</time></trkpt><trkpt lat="35.548288" lon="138.8058702"><ele>1728.3233333333335</ele><time>2025-08-17T03:40:10Z</time></trkpt><trkpt lat="35.5482203" lon="138.8056603"><ele>1725.8233333333335</ele><time>2025-08-17T03:40:28Z</time></trkpt><trkpt lat="35.548109" lon="138.805486"><ele>1723.9666666666665</ele><time>2025-08-17T03:40:40Z</time></trkpt><trkpt lat="35.5479906" lon="138.8052775"><ele>1722.5033333333333</ele><time>2025-08-17T03:40:52Z</time></trkpt><trkpt lat="35.548005" lon="138.8050315"><ele>1721.2966666666669</ele><time>2025-08-17T03:41:19Z</time></trkpt><trkpt lat="35.5479411" lon="138.8048182"><ele>1720.9966666666667</ele><time>2025-08-17T03:41:37Z</time></trkpt><trkpt lat="35.5478868" lon="138.8045802"><ele>1721.5133333333333</ele><time>2025-08-17T03:41:55Z</time></trkpt><trkpt lat="35.5477376" lon="138.804414"><ele>1722.6333333333332</ele><time>2025-08-17T03:42:10Z</time></trkpt><trkpt lat="35.5476187" lon="138.8041955"><ele>1722.4366666666665</ele><time>2025-08-17T03:42:28Z</time></trkpt><trkpt lat="35.5474912" lon="138.8040313"><ele>1722.8066666666666</ele><time>2025-08-17T03:42:43Z</time></trkpt><trkpt lat="35.5473335" lon="138.8039159"><ele>1725.07</ele><time>2025-08-17T03:43:04Z</time></trkpt><trkpt lat="35.547189" lon="138.8037392"><ele>1727.8500000000001</ele><time>2025-08-17T03:43:25Z</time></trkpt><trkpt lat="35.547075" lon="138.8035209"><ele>1729.0966666666666</ele><time>2025-08-17T03:43:46Z</time></trkpt><trkpt lat="35.5469454" lon="138.8033606"><ele>1726.6166666666668</ele><time>2025-08-17T03:43:58Z</time></trkpt><trkpt lat="35.5467779" lon="138.8032591"><ele>1725.6866666666667</ele><time>2025-08-17T03:44:13Z</time></trkpt><trkpt lat="35.5466297" lon="138.8030752"><ele>1726.6533333333334</ele><time>2025-08-17T03:44:31Z</time></trkpt><trkpt lat="35.5464425" lon="138.8030524"><ele>1727.793333333333</ele><time>2025-08-17T03:45:41Z</time></trkpt><trkpt lat="35.5462321" lon="138.8029553"><ele>1726.0633333333335</ele><time>2025-08-17T03:45:53Z</time></trkpt><trkpt lat="35.5460526" lon="138.8028099"><ele>1723.3999999999999</ele><time>2025-08-17T03:46:11Z</time></trkpt><trkpt lat="35.5458756" lon="138.8027032"><ele>1722.3666666666668</ele><time>2025-08-17T03:46:26Z</time></trkpt><trkpt lat="35.5456589" lon="138.802668"><ele>1722.36</ele><time>2025-08-17T03:46:44Z</time></trkpt><trkpt lat="35.5454676" lon="138.8026162"><ele>1721.7933333333333</ele><time>2025-08-17T03:47:02Z</time></trkpt><trkpt lat="35.5452864" lon="138.8026579"><ele>1719.9866666666667</ele><time>2025-08-17T03:47:20Z</time></trkpt><trkpt lat="35.545131" lon="138.8027773"><ele>1716.4666666666665</ele><time>2025-08-17T03:47:38Z</time></trkpt><trkpt lat="35.5449572" lon="138.8028812"><ele>1711.993333333333</ele><time>2025-08-17T03:47:59Z</time></trkpt><trkpt lat="35.5447836" lon="138.8030006"><ele>1706.3066666666666</ele><time>2025-08-17T03:48:20Z</time></trkpt><trkpt lat="35.5446227" lon="138.8031144"><ele>1701.2333333333333</ele><time>2025-08-17T03:48:41Z</time></trkpt><trkpt lat="35.5444344" lon="138.8032308"><ele>1696.5233333333333</ele><time>2025-08-17T03:48:56Z</time></trkpt><trkpt lat="35.5442467" lon="138.8033223"><ele>1693.25</ele><time>2025-08-17T03:49:14Z</time></trkpt><trkpt lat="35.544063" lon="138.8034147"><ele>1689.8033333333333</ele><time>2025-08-17T03:49:31Z</time></trkpt><trkpt lat="35.5438821" lon="138.8035035"><ele>1686.67</ele><time>2025-08-17T03:49:47Z</time></trkpt><trkpt lat="35.5436999" lon="138.8035591"><ele>1683.9000000000003</ele><time>2025-08-17T03:50:02Z</time></trkpt><trkpt lat="35.5435121" lon="138.8035594"><ele>1681.66</ele><time>2025-08-17T03:50:20Z</time></trkpt><trkpt lat="35.5433147" lon="138.8036469"><ele>1678.9466666666667</ele><time>2025-08-17T03:50:35Z</time></trkpt><trkpt lat="35.5431547" lon="138.8037756"><ele>1675.5533333333333</ele><time>2025-08-17T03:50:50Z</time></trkpt><trkpt lat="35.5429818" lon="138.8039228"><ele>1671.5133333333333</ele><time>2025-08-17T03:51:10Z</time></trkpt><trkpt lat="35.5428345" lon="138.8040511"><ele>1666.2866666666666</ele><time>2025-08-17T03:51:32Z</time></trkpt><trkpt lat="35.5426753" lon="138.8042119"><ele>1659.8333333333333</ele><time>2025-08-17T03:51:56Z</time></trkpt><trkpt lat="35.5424728" lon="138.8041918"><ele>1652.1433333333334</ele><time>2025-08-17T03:52:23Z</time></trkpt><trkpt lat="35.5423339" lon="138.8043819"><ele>1644.1366666666665</ele><time>2025-08-17T03:52:47Z</time></trkpt><trkpt lat="35.5421893" lon="138.8045213"><ele>1636.0366666666666</ele><time>2025-08-17T03:53:14Z</time></trkpt><trkpt lat="35.5420141" lon="138.8046306"><ele>1627.9966666666667</ele><time>2025-08-17T03:53:40Z</time></trkpt><trkpt lat="35.5418343" lon="138.8047171"><ele>1619.8500000000001</ele><time>2025-08-17T03:54:10Z</time></trkpt><trkpt lat="35.5416519" lon="138.8046968"><ele>1611.3033333333333</ele><time>2025-08-17T03:54:34Z</time></trkpt><trkpt lat="35.5414536" lon="138.8046925"><ele>1603.736666666667</ele><time>2025-08-17T03:54:58Z</time></trkpt><trkpt lat="35.5412727" lon="138.8047807"><ele>1596.4733333333334</ele><time>2025-08-17T03:55:20Z</time></trkpt><trkpt lat="35.5411181" lon="138.8049409"><ele>1591.2033333333336</ele><time>2025-08-17T03:55:41Z</time></trkpt><trkpt lat="35.540952" lon="138.8050523"><ele>1586.3933333333334</ele><time>2025-08-17T03:55:56Z</time></trkpt><trkpt lat="35.5407739" lon="138.8051142"><ele>1583.3866666666665</ele><time>2025-08-17T03:56:14Z</time></trkpt><trkpt lat="35.5405626" lon="138.8051791"><ele>1579.9766666666667</ele><time>2025-08-17T03:56:31Z</time></trkpt><trkpt lat="35.5403652" lon="138.8052094"><ele>1576.32</ele><time>2025-08-17T03:56:46Z</time></trkpt><trkpt lat="35.5401539" lon="138.8052747"><ele>1572.7466666666667</ele><time>2025-08-17T03:57:01Z</time></trkpt><trkpt lat="35.5399693" lon="138.8052829"><ele>1569.7066666666667</ele><time>2025-08-17T03:57:16Z</time></trkpt><trkpt lat="35.5397902" lon="138.8053343"><ele>1568.3866666666665</ele><time>2025-08-17T03:57:30Z</time></trkpt><trkpt lat="35.539581" lon="138.8054063"><ele>1566.9466666666667</ele><time>2025-08-17T03:57:48Z</time></trkpt><trkpt lat="35.5393872" lon="138.8054276"><ele>1564.39</ele><time>2025-08-17T03:58:03Z</time></trkpt><trkpt lat="35.5391827" lon="138.805461"><ele>1560.0500000000002</ele><time>2025-08-17T03:58:19Z</time></trkpt><trkpt lat="35.5389723" lon="138.8054849"><ele>1555.8966666666668</ele><time>2025-08-17T03:58:36Z</time></trkpt><trkpt lat="35.538787" lon="138.8055859"><ele>1552.57</ele><time>2025-08-17T03:58:54Z</time></trkpt><trkpt lat="35.5385765" lon="138.8056175"><ele>1549.08</ele><time>2025-08-17T03:59:09Z</time></trkpt><trkpt lat="35.5383791" lon="138.8056212"><ele>1545.2266666666667</ele><time>2025-08-17T03:59:24Z</time></trkpt><trkpt lat="35.5381858" lon="138.8055796"><ele>1541.78</ele><time>2025-08-17T03:59:39Z</time></trkpt><trkpt lat="35.5379955" lon="138.8055492"><ele>1538.3433333333332</ele><time>2025-08-17T03:59:54Z</time></trkpt><trkpt lat="35.5377969" lon="138.8055547"><ele>1535.5366666666666</ele><time>2025-08-17T04:00:09Z</time></trkpt><trkpt lat="35.5376038" lon="138.8054836"><ele>1533.1966666666667</ele><time>2025-08-17T04:00:24Z</time></trkpt><trkpt lat="35.5374388" lon="138.8053806"><ele>1531.1233333333332</ele><time>2025-08-17T04:00:36Z</time></trkpt><trkpt lat="35.5372945" lon="138.8052415"><ele>1528.0533333333333</ele><time>2025-08-17T04:00:50Z</time></trkpt><trkpt lat="35.5370887" lon="138.8052164"><ele>1525.3</ele><time>2025-08-17T04:01:08Z</time></trkpt><trkpt lat="35.5369204" lon="138.8053444"><ele>1524.8366666666668</ele><time>2025-08-17T04:01:23Z</time></trkpt><trkpt lat="35.536781" lon="138.8054981"><ele>1527.0100000000002</ele><time>2025-08-17T04:01:38Z</time></trkpt><trkpt lat="35.5366113" lon="138.8055831"><ele>1529.8933333333334</ele><time>2025-08-17T04:01:53Z</time></trkpt><trkpt lat="35.5364068" lon="138.8056326"><ele>1533.08</ele><time>2025-08-17T04:02:11Z</time></trkpt><trkpt lat="35.5362015" lon="138.8055958"><ele>1535.7266666666667</ele><time>2025-08-17T04:02:29Z</time></trkpt><trkpt lat="35.5360043" lon="138.8054901"><ele>1538.2933333333333</ele><time>2025-08-17T04:02:47Z</time></trkpt><trkpt lat="35.5358305" lon="138.8053835"><ele>1540.57</ele><time>2025-08-17T04:03:05Z</time></trkpt><trkpt lat="35.5356302" lon="138.8053527"><ele>1542.8666666666668</ele><time>2025-08-17T04:03:23Z</time></trkpt><trkpt lat="35.5354319" lon="138.8054128"><ele>1545.676666666667</ele><time>2025-08-17T04:03:40Z</time></trkpt><trkpt lat="35.5352356" lon="138.8054914"><ele>1548.1933333333334</ele><time>2025-08-17T04:04:07Z</time></trkpt><trkpt lat="35.5350622" lon="138.8055905"><ele>1549.89</ele><time>2025-08-17T04:04:28Z</time></trkpt><trkpt lat="35.5349261" lon="138.8057375"><ele>1549.9366666666665</ele><time>2025-08-17T04:04:43Z</time></trkpt><trkpt lat="35.5347613" lon="138.8058402"><ele>1547.7066666666667</ele><time>2025-08-17T04:05:04Z</time></trkpt><trkpt lat="35.5345498" lon="138.8058903"><ele>1543.17</ele><time>2025-08-17T04:05:19Z</time></trkpt><trkpt lat="35.5344291" lon="138.8060912"><ele>1537.1066666666666</ele><time>2025-08-17T04:05:43Z</time></trkpt><trkpt lat="35.5343035" lon="138.8062562"><ele>1531.3400000000001</ele><time>2025-08-17T04:06:01Z</time></trkpt><trkpt lat="35.5341491" lon="138.8063865"><ele>1526.9399999999998</ele><time>2025-08-17T04:06:16Z</time></trkpt><trkpt lat="35.5339647" lon="138.8064875"><ele>1522.926666666667</ele><time>2025-08-17T04:06:34Z</time></trkpt><trkpt lat="35.5337996" lon="138.8065782"><ele>1519.6466666666665</ele><time>2025-08-17T04:06:51Z</time></trkpt><trkpt lat="35.5336157" lon="138.8066438"><ele>1515.6899999999998</ele><time>2025-08-17T04:07:04Z</time></trkpt><trkpt lat="35.5334207" lon="138.8066694"><ele>1511.6899999999998</ele><time>2025-08-17T04:07:25Z</time></trkpt><trkpt lat="35.533241" lon="138.8066263"><ele>1506.3933333333334</ele><time>2025-08-17T04:07:43Z</time></trkpt><trkpt lat="35.5330592" lon="138.8065744"><ele>1500.3666666666668</ele><time>2025-08-17T04:08:01Z</time></trkpt><trkpt lat="35.5328726" lon="138.8065305"><ele>1495.2700000000002</ele><time>2025-08-17T04:08:19Z</time></trkpt><trkpt lat="35.5326838" lon="138.8064628"><ele>1490.1566666666668</ele><time>2025-08-17T04:08:34Z</time></trkpt><trkpt lat="35.532494" lon="138.8063803"><ele>1486.6766666666665</ele><time>2025-08-17T04:08:52Z</time></trkpt><trkpt lat="35.5323091" lon="138.8063008"><ele>1483.54</ele><time>2025-08-17T04:09:10Z</time></trkpt><trkpt lat="35.5320838" lon="138.8062455"><ele>1482.6833333333334</ele><time>2025-08-17T04:09:28Z</time></trkpt><trkpt lat="35.5318867" lon="138.8062565"><ele>1482.36</ele><time>2025-08-17T04:09:43Z</time></trkpt><trkpt lat="35.5317033" lon="138.8062546"><ele>1482.05</ele><time>2025-08-17T04:09:58Z</time></trkpt><trkpt lat="35.5315163" lon="138.80623"><ele>1481.0466666666669</ele><time>2025-08-17T04:10:13Z</time></trkpt><trkpt lat="35.5313143" lon="138.806132"><ele>1479.8433333333335</ele><time>2025-08-17T04:10:31Z</time></trkpt><trkpt lat="35.5311366" lon="138.806027"><ele>1478.3333333333333</ele><time>2025-08-17T04:10:46Z</time></trkpt><trkpt lat="35.5309888" lon="138.8058981"><ele>1476.4466666666667</ele><time>2025-08-17T04:11:01Z</time></trkpt><trkpt lat="35.5309519" lon="138.8056794"><ele>1473.41</ele><time>2025-08-17T04:11:28Z</time></trkpt><trkpt lat="35.5308425" lon="138.8054538"><ele>1468.0433333333333</ele><time>2025-08-17T04:11:49Z</time></trkpt><trkpt lat="35.5306763" lon="138.8053383"><ele>1459.9566666666667</ele><time>2025-08-17T04:12:15Z</time></trkpt><trkpt lat="35.5307364" lon="138.8051044"><ele>1452.01</ele><time>2025-08-17T04:12:40Z</time></trkpt><trkpt lat="35.5306477" lon="138.8049004"><ele>1444.8133333333333</ele><time>2025-08-17T04:13:13Z</time></trkpt><trkpt lat="35.5304286" lon="138.8050256"><ele>1438.6066666666666</ele><time>2025-08-17T04:13:43Z</time></trkpt><trkpt lat="35.5302383" lon="138.8050469"><ele>1433.2633333333333</ele><time>2025-08-17T04:13:58Z</time></trkpt><trkpt lat="35.5300386" lon="138.8050362"><ele>1427.7</ele><time>2025-08-17T04:14:16Z</time></trkpt><trkpt lat="35.5298562" lon="138.8049378"><ele>1423.006666666667</ele><time>2025-08-17T04:14:31Z</time></trkpt><trkpt lat="35.529673" lon="138.8048975"><ele>1419.92</ele><time>2025-08-17T04:14:49Z</time></trkpt><trkpt lat="35.5294782" lon="138.8048843"><ele>1419.3500000000001</ele><time>2025-08-17T04:15:07Z</time></trkpt><trkpt lat="35.5292942" lon="138.8048768"><ele>1419.68</ele><time>2025-08-17T04:15:25Z</time></trkpt><trkpt lat="35.5291052" lon="138.8048517"><ele>1416.8566666666666</ele><time>2025-08-17T04:15:46Z</time></trkpt><trkpt lat="35.5289429" lon="138.8047518"><ele>1412.6033333333335</ele><time>2025-08-17T04:15:58Z</time></trkpt><trkpt lat="35.5287769" lon="138.804663"><ele>1408.3633333333335</ele><time>2025-08-17T04:16:16Z</time></trkpt><trkpt lat="35.5286085" lon="138.804565"><ele>1405.0133333333333</ele><time>2025-08-17T04:16:34Z</time></trkpt><trkpt lat="35.5284463" lon="138.8044605"><ele>1401.8066666666666</ele><time>2025-08-17T04:16:55Z</time></trkpt><trkpt lat="35.5283064" lon="138.8043201"><ele>1397.6733333333334</ele><time>2025-08-17T04:17:13Z</time></trkpt><trkpt lat="35.5281294" lon="138.8042195"><ele>1393.7233333333334</ele><time>2025-08-17T04:17:31Z</time></trkpt><trkpt lat="35.5279159" lon="138.8041812"><ele>1389.29</ele><time>2025-08-17T04:17:52Z</time></trkpt><trkpt lat="35.52773" lon="138.8041423"><ele>1384.8866666666665</ele><time>2025-08-17T04:18:10Z</time></trkpt><trkpt lat="35.527554" lon="138.8040413"><ele>1380.47</ele><time>2025-08-17T04:18:28Z</time></trkpt><trkpt lat="35.5273477" lon="138.8039545"><ele>1376.58</ele><time>2025-08-17T04:18:43Z</time></trkpt><trkpt lat="35.5271801" lon="138.8038314"><ele>1374.2533333333333</ele><time>2025-08-17T04:18:58Z</time></trkpt><trkpt lat="35.5269918" lon="138.8036992"><ele>1373.006666666667</ele><time>2025-08-17T04:19:16Z</time></trkpt><trkpt lat="35.5268238" lon="138.8036172"><ele>1372.8833333333332</ele><time>2025-08-17T04:19:31Z</time></trkpt><trkpt lat="35.526637" lon="138.8035393"><ele>1372.8633333333335</ele><time>2025-08-17T04:19:52Z</time></trkpt><trkpt lat="35.5264748" lon="138.8034111"><ele>1372.9633333333334</ele><time>2025-08-17T04:20:10Z</time></trkpt><trkpt lat="35.5263191" lon="138.8032861"><ele>1373.58</ele><time>2025-08-17T04:20:25Z</time></trkpt><trkpt lat="35.526132" lon="138.8031268"><ele>1374.1833333333334</ele><time>2025-08-17T04:20:39Z</time></trkpt><trkpt lat="35.5259224" lon="138.8030479"><ele>1374.0933333333332</ele><time>2025-08-17T04:20:57Z</time></trkpt><trkpt lat="35.525728" lon="138.8029422"><ele>1372.9433333333334</ele><time>2025-08-17T04:21:07Z</time></trkpt><trkpt lat="35.5255706" lon="138.8027881"><ele>1371.7933333333333</ele><time>2025-08-17T04:21:25Z</time></trkpt><trkpt lat="35.5253751" lon="138.8027305"><ele>1370.0566666666666</ele><time>2025-08-17T04:21:43Z</time></trkpt><trkpt lat="35.5252409" lon="138.8025184"><ele>1368.2700000000002</ele><time>2025-08-17T04:22:04Z</time></trkpt><trkpt lat="35.5250279" lon="138.8025549"><ele>1366.3066666666666</ele><time>2025-08-17T04:22:10Z</time></trkpt><trkpt lat="35.5248546" lon="138.8024622"><ele>1364.8733333333334</ele><time>2025-08-17T04:22:28Z</time></trkpt><trkpt lat="35.524707" lon="138.8023051"><ele>1363.7666666666667</ele><time>2025-08-17T04:22:40Z</time></trkpt><trkpt lat="35.5245956" lon="138.8021269"><ele>1361.99</ele><time>2025-08-17T04:22:55Z</time></trkpt><trkpt lat="35.5244701" lon="138.8019596"><ele>1359.9733333333334</ele><time>2025-08-17T04:23:10Z</time></trkpt><trkpt lat="35.52431" lon="138.8017733"><ele>1356.8166666666666</ele><time>2025-08-17T04:23:39Z</time></trkpt><trkpt lat="35.5241076" lon="138.801706"><ele>1353.7533333333333</ele><time>2025-08-17T04:24:04Z</time></trkpt><trkpt lat="35.5241453" lon="138.8014817"><ele>1351.0233333333333</ele><time>2025-08-17T04:25:55Z</time></trkpt><trkpt lat="35.5241293" lon="138.8012509"><ele>1347.3866666666665</ele><time>2025-08-17T04:26:13Z</time></trkpt><trkpt lat="35.5240341" lon="138.8010222"><ele>1342.5633333333333</ele><time>2025-08-17T04:26:34Z</time></trkpt><trkpt lat="35.5239791" lon="138.8007915"><ele>1336.72</ele><time>2025-08-17T04:26:52Z</time></trkpt><trkpt lat="35.5239072" lon="138.8005624"><ele>1332.2033333333331</ele><time>2025-08-17T04:27:13Z</time></trkpt><trkpt lat="35.523836" lon="138.8003125"><ele>1329.4966666666667</ele><time>2025-08-17T04:27:25Z</time></trkpt><trkpt lat="35.5237078" lon="138.8001366"><ele>1326.8500000000001</ele><time>2025-08-17T04:27:40Z</time></trkpt><trkpt lat="35.5235212" lon="138.8000349"><ele>1324.256666666667</ele><time>2025-08-17T04:29:01Z</time></trkpt><trkpt lat="35.5233481" lon="138.7998768"><ele>1319.9333333333334</ele><time>2025-08-17T04:29:16Z</time></trkpt><trkpt lat="35.5232125" lon="138.7996995"><ele>1316.3933333333334</ele><time>2025-08-17T04:29:33Z</time></trkpt><trkpt lat="35.5230616" lon="138.79956"><ele>1313.8300000000002</ele><time>2025-08-17T04:29:45Z</time></trkpt><trkpt lat="35.5229281" lon="138.7993717"><ele>1313.4066666666668</ele><time>2025-08-17T04:30:05Z</time></trkpt><trkpt lat="35.5227955" lon="138.7991759"><ele>1315.2933333333333</ele><time>2025-08-17T04:30:17Z</time></trkpt><trkpt lat="35.5226526" lon="138.7990186"><ele>1316.9766666666667</ele><time>2025-08-17T04:30:29Z</time></trkpt><trkpt lat="35.5224823" lon="138.7989278"><ele>1317.8633333333335</ele><time>2025-08-17T04:30:43Z</time></trkpt><trkpt lat="35.5222932" lon="138.7988507"><ele>1318.2066666666667</ele><time>2025-08-17T04:30:58Z</time></trkpt><trkpt lat="35.522116" lon="138.7987126"><ele>1318.2033333333334</ele><time>2025-08-17T04:31:12Z</time></trkpt><trkpt lat="35.5219631" lon="138.7985577"><ele>1317.7966666666664</ele><time>2025-08-17T04:31:30Z</time></trkpt><trkpt lat="35.5218332" lon="138.7983562"><ele>1317.3233333333335</ele><time>2025-08-17T04:31:47Z</time></trkpt><trkpt lat="35.5217061" lon="138.7981702"><ele>1318.0233333333333</ele><time>2025-08-17T04:32:05Z</time></trkpt><trkpt lat="35.5216051" lon="138.7979185"><ele>1319.0433333333333</ele><time>2025-08-17T04:32:17Z</time></trkpt><trkpt lat="35.5215151" lon="138.7976796"><ele>1318.4166666666667</ele><time>2025-08-17T04:32:29Z</time></trkpt><trkpt lat="35.5214222" lon="138.7974589"><ele>1316.4733333333334</ele><time>2025-08-17T04:32:44Z</time></trkpt><trkpt lat="35.5213176" lon="138.797256"><ele>1314.95</ele><time>2025-08-17T04:33:01Z</time></trkpt><trkpt lat="35.52122" lon="138.7970648"><ele>1313.8933333333332</ele><time>2025-08-17T04:33:25Z</time></trkpt><trkpt lat="35.5210614" lon="138.7969221"><ele>1313.26</ele><time>2025-08-17T04:33:49Z</time></trkpt><trkpt lat="35.5209556" lon="138.7967364"><ele>1312.4733333333334</ele><time>2025-08-17T04:34:10Z</time></trkpt><trkpt lat="35.5208451" lon="138.7965523"><ele>1311.19</ele><time>2025-08-17T04:34:31Z</time></trkpt><trkpt lat="35.5207029" lon="138.7963692"><ele>1309.6133333333335</ele><time>2025-08-17T04:34:48Z</time></trkpt><trkpt lat="35.5205824" lon="138.7961593"><ele>1307.8033333333335</ele><time>2025-08-17T04:35:10Z</time></trkpt><trkpt lat="35.5204327" lon="138.7959747"><ele>1305.8600000000001</ele><time>2025-08-17T04:35:28Z</time></trkpt><trkpt lat="35.520279" lon="138.7958407"><ele>1303.9066666666668</ele><time>2025-08-17T04:35:43Z</time></trkpt><trkpt lat="35.5201097" lon="138.7957378"><ele>1302.0333333333333</ele><time>2025-08-17T04:36:04Z</time></trkpt><trkpt lat="35.5200015" lon="138.7955445"><ele>1299.7533333333333</ele><time>2025-08-17T04:36:31Z</time></trkpt><trkpt lat="35.5199787" lon="138.7953004"><ele>1298.38</ele><time>2025-08-17T04:36:52Z</time></trkpt><trkpt lat="35.5199557" lon="138.7950782"><ele>1297.7333333333333</ele><time>2025-08-17T04:37:10Z</time></trkpt><trkpt lat="35.5198806" lon="138.7948622"><ele>1298.97</ele><time>2025-08-17T04:37:28Z</time></trkpt><trkpt lat="35.5198749" lon="138.794596"><ele>1299.05</ele><time>2025-08-17T04:38:04Z</time></trkpt><trkpt lat="35.5198976" lon="138.794361"><ele>1295.6833333333334</ele><time>2025-08-17T04:38:16Z</time></trkpt><trkpt lat="35.5198486" lon="138.794122"><ele>1288.11</ele><time>2025-08-17T04:38:37Z</time></trkpt><trkpt lat="35.5198539" lon="138.7939005"><ele>1280.0466666666666</ele><time>2025-08-17T04:38:55Z</time></trkpt><trkpt lat="35.5197413" lon="138.7937212"><ele>1274.1133333333332</ele><time>2025-08-17T04:39:25Z</time></trkpt><trkpt lat="35.5196304" lon="138.7935274"><ele>1268.8466666666666</ele><time>2025-08-17T04:40:13Z</time></trkpt><trkpt lat="35.5194618" lon="138.7934112"><ele>1263.9833333333333</ele><time>2025-08-17T04:40:34Z</time></trkpt><trkpt lat="35.519342" lon="138.7932098"><ele>1258.1266666666668</ele><time>2025-08-17T04:40:58Z</time></trkpt><trkpt lat="35.5191822" lon="138.7930558"><ele>1253.2733333333333</ele><time>2025-08-17T04:41:19Z</time></trkpt><trkpt lat="35.5190239" lon="138.7928752"><ele>1248.28</ele><time>2025-08-17T04:41:47Z</time></trkpt><trkpt lat="35.5188435" lon="138.7927848"><ele>1243.4233333333334</ele><time>2025-08-17T04:42:01Z</time></trkpt><trkpt lat="35.5186764" lon="138.7926516"><ele>1239.9466666666667</ele><time>2025-08-17T04:42:26Z</time></trkpt><trkpt lat="35.5184938" lon="138.7925452"><ele>1236.1166666666668</ele><time>2025-08-17T04:42:46Z</time></trkpt><trkpt lat="35.5183333" lon="138.7924315"><ele>1233.3966666666668</ele><time>2025-08-17T04:43:08Z</time></trkpt><trkpt lat="35.5181915" lon="138.7922765"><ele>1229.71</ele><time>2025-08-17T04:43:27Z</time></trkpt><trkpt lat="35.5180396" lon="138.7921039"><ele>1224.7433333333333</ele><time>2025-08-17T04:43:48Z</time></trkpt><trkpt lat="35.5178659" lon="138.7920061"><ele>1218.76</ele><time>2025-08-17T04:44:06Z</time></trkpt><trkpt lat="35.5177204" lon="138.7918693"><ele>1214.6966666666667</ele><time>2025-08-17T04:44:30Z</time></trkpt><trkpt lat="35.5175484" lon="138.7917951"><ele>1211.7233333333334</ele><time>2025-08-17T04:44:51Z</time></trkpt><trkpt lat="35.5173834" lon="138.7916862"><ele>1209.42</ele><time>2025-08-17T04:45:09Z</time></trkpt><trkpt lat="35.5172275" lon="138.7915705"><ele>1206.8</ele><time>2025-08-17T04:45:27Z</time></trkpt><trkpt lat="35.5170398" lon="138.7914879"><ele>1204.1866666666667</ele><time>2025-08-17T04:45:42Z</time></trkpt><trkpt lat="35.5168985" lon="138.7913198"><ele>1203.9633333333334</ele><time>2025-08-17T04:46:03Z</time></trkpt><trkpt lat="35.5167442" lon="138.7911349"><ele>1204.32</ele><time>2025-08-17T04:46:21Z</time></trkpt><trkpt lat="35.5165997" lon="138.790946"><ele>1206.8066666666666</ele><time>2025-08-17T04:46:39Z</time></trkpt><trkpt lat="35.5164287" lon="138.7908176"><ele>1206.8700000000001</ele><time>2025-08-17T04:46:57Z</time></trkpt><trkpt lat="35.5162425" lon="138.7907074"><ele>1207.2866666666669</ele><time>2025-08-17T04:47:15Z</time></trkpt><trkpt lat="35.5160705" lon="138.7906292"><ele>1205.756666666667</ele><time>2025-08-17T04:47:30Z</time></trkpt><trkpt lat="35.5158805" lon="138.7905624"><ele>1206.6900000000003</ele><time>2025-08-17T04:47:45Z</time></trkpt><trkpt lat="35.5156969" lon="138.7905415"><ele>1206.6900000000003</ele><time>2025-08-17T04:48:00Z</time></trkpt><trkpt lat="35.5154995" lon="138.7904461"><ele>1208.03</ele><time>2025-08-17T04:48:18Z</time></trkpt><trkpt lat="35.5153619" lon="138.7903019"><ele>1206.8133333333333</ele><time>2025-08-17T04:48:36Z</time></trkpt><trkpt lat="35.5152507" lon="138.7901211"><ele>1205.3833333333334</ele><time>2025-08-17T04:48:51Z</time></trkpt><trkpt lat="35.5151159" lon="138.7899522"><ele>1205.4066666666668</ele><time>2025-08-17T04:49:09Z</time></trkpt><trkpt lat="35.5150521" lon="138.7897268"><ele>1208.5133333333333</ele><time>2025-08-17T04:49:35Z</time></trkpt><trkpt lat="35.5149015" lon="138.7895895"><ele>1209.75</ele><time>2025-08-17T04:49:47Z</time></trkpt><trkpt lat="35.5147164" lon="138.7895464"><ele>1208.07</ele><time>2025-08-17T04:49:59Z</time></trkpt><trkpt lat="35.5145452" lon="138.7894395"><ele>1205.5800000000002</ele><time>2025-08-17T04:50:18Z</time></trkpt><trkpt lat="35.514394" lon="138.7893082"><ele>1205.0800000000002</ele><time>2025-08-17T04:50:39Z</time></trkpt><trkpt lat="35.5143696" lon="138.7890757"><ele>1206.2933333333333</ele><time>2025-08-17T04:50:57Z</time></trkpt><trkpt lat="35.5142407" lon="138.7888829"><ele>1203.16</ele><time>2025-08-17T04:51:15Z</time></trkpt><trkpt lat="35.5141554" lon="138.7886618"><ele>1199.74</ele><time>2025-08-17T04:51:32Z</time></trkpt><trkpt lat="35.5140134" lon="138.7884884"><ele>1196.3166666666666</ele><time>2025-08-17T04:51:53Z</time></trkpt><trkpt lat="35.5138246" lon="138.7883758"><ele>1196.38</ele><time>2025-08-17T04:52:11Z</time></trkpt><trkpt lat="35.5136898" lon="138.788229"><ele>1195.18</ele><time>2025-08-17T04:52:26Z</time></trkpt><trkpt lat="35.5135628" lon="138.7880316"><ele>1192.5533333333333</ele><time>2025-08-17T04:52:50Z</time></trkpt><trkpt lat="35.5134434" lon="138.787832"><ele>1190.4866666666667</ele><time>2025-08-17T04:53:06Z</time></trkpt><trkpt lat="35.5132877" lon="138.7876871"><ele>1189.5600000000002</ele><time>2025-08-17T04:53:21Z</time></trkpt><trkpt lat="35.513095" lon="138.7876487"><ele>1188.4</ele><time>2025-08-17T04:53:36Z</time></trkpt><trkpt lat="35.5129041" lon="138.7875997"><ele>1186.23</ele><time>2025-08-17T04:53:54Z</time></trkpt><trkpt lat="35.5127207" lon="138.7875752"><ele>1182.4733333333334</ele><time>2025-08-17T04:54:09Z</time></trkpt><trkpt lat="35.5125677" lon="138.7874261"><ele>1180.4033333333334</ele><time>2025-08-17T04:54:27Z</time></trkpt><trkpt lat="35.5124164" lon="138.7872583"><ele>1177.6366666666665</ele><time>2025-08-17T04:54:45Z</time></trkpt><trkpt lat="35.5122939" lon="138.7870726"><ele>1175.4166666666667</ele><time>2025-08-17T04:55:00Z</time></trkpt><trkpt lat="35.5121131" lon="138.7869576"><ele>1171.1266666666668</ele><time>2025-08-17T04:55:21Z</time></trkpt><trkpt lat="35.511931" lon="138.7868817"><ele>1168.3233333333335</ele><time>2025-08-17T04:55:36Z</time></trkpt><trkpt lat="35.5117656" lon="138.7867707"><ele>1167.0233333333333</ele><time>2025-08-17T04:55:57Z</time></trkpt><trkpt lat="35.511585" lon="138.7868615"><ele>1164.5033333333333</ele><time>2025-08-17T04:56:21Z</time></trkpt><trkpt lat="35.5113802" lon="138.7869494"><ele>1161.1100000000001</ele><time>2025-08-17T04:56:39Z</time></trkpt><trkpt lat="35.5111896" lon="138.7869336"><ele>1158.0633333333333</ele><time>2025-08-17T04:56:57Z</time></trkpt><trkpt lat="35.5110038" lon="138.7869416"><ele>1158.6033333333335</ele><time>2025-08-17T04:57:12Z</time></trkpt><trkpt lat="35.5108048" lon="138.7868729"><ele>1157.4033333333334</ele><time>2025-08-17T04:57:30Z</time></trkpt><trkpt lat="35.5105834" lon="138.7868746"><ele>1153.8400000000001</ele><time>2025-08-17T04:57:48Z</time></trkpt><trkpt lat="35.5103898" lon="138.7868735"><ele>1147.9466666666667</ele><time>2025-08-17T04:58:03Z</time></trkpt><trkpt lat="35.5101928" lon="138.786882"><ele>1142.4266666666665</ele><time>2025-08-17T04:58:20Z</time></trkpt><trkpt lat="35.5100059" lon="138.7868928"><ele>1136.7166666666667</ele><time>2025-08-17T04:58:38Z</time></trkpt><trkpt lat="35.5098134" lon="138.7869449"><ele>1132.11</ele><time>2025-08-17T04:58:57Z</time></trkpt><trkpt lat="35.5096271" lon="138.7869443"><ele>1128.7166666666667</ele><time>2025-08-17T04:59:15Z</time></trkpt><trkpt lat="35.5094841" lon="138.7868021"><ele>1125.7966666666669</ele><time>2025-08-17T04:59:30Z</time></trkpt><trkpt lat="35.5093337" lon="138.7866704"><ele>1122.7</ele><time>2025-08-17T04:59:42Z</time></trkpt><trkpt lat="35.5091375" lon="138.7866036"><ele>1119.5033333333333</ele><time>2025-08-17T05:00:00Z</time></trkpt><trkpt lat="35.5089554" lon="138.7865924"><ele>1117.4366666666667</ele><time>2025-08-17T05:00:15Z</time></trkpt><trkpt lat="35.5087557" lon="138.7865761"><ele>1115.8466666666668</ele><time>2025-08-17T05:00:33Z</time></trkpt><trkpt lat="35.5085651" lon="138.7866021"><ele>1114.67</ele><time>2025-08-17T05:00:48Z</time></trkpt><trkpt lat="35.508385" lon="138.7866358"><ele>1113.4933333333336</ele><time>2025-08-17T05:01:02Z</time></trkpt><trkpt lat="35.5082005" lon="138.7866826"><ele>1112.4666666666665</ele><time>2025-08-17T05:01:17Z</time></trkpt><trkpt lat="35.5080436" lon="138.7865729"><ele>1111.0166666666667</ele><time>2025-08-17T05:01:35Z</time></trkpt><trkpt lat="35.5079628" lon="138.7863681"><ele>1108.98</ele><time>2025-08-17T05:01:55Z</time></trkpt><trkpt lat="35.507858" lon="138.786176"><ele>1106.11</ele><time>2025-08-17T05:02:13Z</time></trkpt><trkpt lat="35.5077034" lon="138.7859996"><ele>1103.4</ele><time>2025-08-17T05:02:28Z</time></trkpt><trkpt lat="35.5075502" lon="138.7858629"><ele>1103.5866666666668</ele><time>2025-08-17T05:02:46Z</time></trkpt><trkpt lat="35.5073831" lon="138.7856841"><ele>1107.9533333333334</ele><time>2025-08-17T05:03:06Z</time></trkpt><trkpt lat="35.5072459" lon="138.7855143"><ele>1115.1633333333332</ele><time>2025-08-17T05:03:32Z</time></trkpt><trkpt lat="35.5070858" lon="138.7853911"><ele>1121.8533333333332</ele><time>2025-08-17T05:03:53Z</time></trkpt><trkpt lat="35.5069157" lon="138.7852871"><ele>1126.8933333333334</ele><time>2025-08-17T05:04:12Z</time></trkpt><trkpt lat="35.5067655" lon="138.785141"><ele>1129.5666666666666</ele><time>2025-08-17T05:04:33Z</time></trkpt><trkpt lat="35.5066418" lon="138.7849531"><ele>1133.7133333333334</ele><time>2025-08-17T05:04:51Z</time></trkpt><trkpt lat="35.5064863" lon="138.7847966"><ele>1137.0466666666669</ele><time>2025-08-17T05:05:15Z</time></trkpt><trkpt lat="35.5064182" lon="138.7845766"><ele>1143.26</ele><time>2025-08-17T05:05:42Z</time></trkpt><trkpt lat="35.5064012" lon="138.7843547"><ele>1146.5866666666668</ele><time>2025-08-17T05:06:03Z</time></trkpt><trkpt lat="35.5063017" lon="138.7841622"><ele>1147.2933333333333</ele><time>2025-08-17T05:06:24Z</time></trkpt><trkpt lat="35.5062327" lon="138.7839141"><ele>1144.8133333333333</ele><time>2025-08-17T05:06:42Z</time></trkpt><trkpt lat="35.506103" lon="138.783716"><ele>1142.54</ele><time>2025-08-17T05:06:57Z</time></trkpt><trkpt lat="35.5059789" lon="138.7835463"><ele>1142.1566666666665</ele><time>2025-08-17T05:07:12Z</time></trkpt><trkpt lat="35.5058024" lon="138.7834317"><ele>1141.5966666666666</ele><time>2025-08-17T05:07:30Z</time></trkpt><trkpt lat="35.5056552" lon="138.7832552"><ele>1138.743333333333</ele><time>2025-08-17T05:07:54Z</time></trkpt><trkpt lat="35.5055023" lon="138.7830999"><ele>1134.3233333333335</ele><time>2025-08-17T05:08:12Z</time></trkpt><trkpt lat="35.5053156" lon="138.7829754"><ele>1129.63</ele><time>2025-08-17T05:08:27Z</time></trkpt><trkpt lat="35.5051218" lon="138.7828266"><ele>1126.6866666666667</ele><time>2025-08-17T05:08:45Z</time></trkpt><trkpt lat="35.5049665" lon="138.7826662"><ele>1124.6200000000001</ele><time>2025-08-17T05:09:03Z</time></trkpt><trkpt lat="35.5048075" lon="138.7825285"><ele>1123.2033333333336</ele><time>2025-08-17T05:09:18Z</time></trkpt><trkpt lat="35.5046464" lon="138.78236"><ele>1121.7866666666666</ele><time>2025-08-17T05:09:36Z</time></trkpt><trkpt lat="35.5044797" lon="138.7821818"><ele>1119.3233333333335</ele><time>2025-08-17T05:09:54Z</time></trkpt><trkpt lat="35.5043588" lon="138.7819743"><ele>1116.43</ele><time>2025-08-17T05:10:12Z</time></trkpt><trkpt lat="35.504224" lon="138.7817718"><ele>1115.2066666666667</ele><time>2025-08-17T05:10:27Z</time></trkpt><trkpt lat="35.5040872" lon="138.7815825"><ele>1116.8066666666666</ele><time>2025-08-17T05:10:45Z</time></trkpt><trkpt lat="35.5039413" lon="138.7814397"><ele>1119.86</ele><time>2025-08-17T05:11:03Z</time></trkpt><trkpt lat="35.5038364" lon="138.7812525"><ele>1122.1133333333335</ele><time>2025-08-17T05:11:23Z</time></trkpt><trkpt lat="35.5037568" lon="138.7810542"><ele>1124.7766666666666</ele><time>2025-08-17T05:11:57Z</time></trkpt><trkpt lat="35.5036267" lon="138.7808746"><ele>1128.6666666666667</ele><time>2025-08-17T05:12:30Z</time></trkpt><trkpt lat="35.50347" lon="138.780733"><ele>1133.9466666666667</ele><time>2025-08-17T05:12:57Z</time></trkpt><trkpt lat="35.5033373" lon="138.7805616"><ele>1137.63</ele><time>2025-08-17T05:13:27Z</time></trkpt><trkpt lat="35.5032283" lon="138.7803651"><ele>1138.0933333333335</ele><time>2025-08-17T05:14:30Z</time></trkpt><trkpt lat="35.5033283" lon="138.7801768"><ele>1137.22</ele><time>2025-08-17T05:14:57Z</time></trkpt><trkpt lat="35.5034227" lon="138.7799866"><ele>1135.5433333333333</ele><time>2025-08-17T05:15:15Z</time></trkpt><trkpt lat="35.5034291" lon="138.7797373"><ele>1132.3966666666668</ele><time>2025-08-17T05:15:36Z</time></trkpt><trkpt lat="35.5034778" lon="138.7794949"><ele>1127.0633333333335</ele><time>2025-08-17T05:16:06Z</time></trkpt><trkpt lat="35.5035454" lon="138.7792586"><ele>1121.06</ele><time>2025-08-17T05:16:33Z</time></trkpt><trkpt lat="35.5035593" lon="138.779029"><ele>1116.9466666666665</ele><time>2025-08-17T05:16:51Z</time></trkpt><trkpt lat="35.5036103" lon="138.7788082"><ele>1114.7</ele><time>2025-08-17T05:17:09Z</time></trkpt><trkpt lat="35.5036404" lon="138.7785681"><ele>1113.3666666666666</ele><time>2025-08-17T05:17:27Z</time></trkpt><trkpt lat="35.5036288" lon="138.778345"><ele>1112.21</ele><time>2025-08-17T05:17:45Z</time></trkpt><trkpt lat="35.5037329" lon="138.7781171"><ele>1111.1399999999999</ele><time>2025-08-17T05:18:06Z</time></trkpt><trkpt lat="35.5037848" lon="138.7778995"><ele>1108.82</ele><time>2025-08-17T05:18:27Z</time></trkpt><trkpt lat="35.5037473" lon="138.7776533"><ele>1105.2333333333333</ele><time>2025-08-17T05:18:51Z</time></trkpt><trkpt lat="35.5036084" lon="138.7775001"><ele>1097.8833333333334</ele><time>2025-08-17T05:19:36Z</time></trkpt><trkpt lat="35.5035048" lon="138.7773091"><ele>1089.5</ele><time>2025-08-17T05:19:51Z</time></trkpt><trkpt lat="35.5034935" lon="138.7770884"><ele>1083.3233333333335</ele><time>2025-08-17T05:20:06Z</time></trkpt><trkpt lat="35.5034598" lon="138.776864"><ele>1080.4333333333334</ele><time>2025-08-17T05:20:39Z</time></trkpt><trkpt lat="35.5033899" lon="138.7766256"><ele>1079.9399999999998</ele><time>2025-08-17T05:21:15Z</time></trkpt><trkpt lat="35.5033096" lon="138.7764217"><ele>1077.8633333333335</ele><time>2025-08-17T05:21:51Z</time></trkpt><trkpt lat="35.5031515" lon="138.7762682"><ele>1073.4433333333334</ele><time>2025-08-17T05:22:27Z</time></trkpt><trkpt lat="35.5029883" lon="138.7761147"><ele>1066.59</ele><time>2025-08-17T05:22:54Z</time></trkpt><trkpt lat="35.5029308" lon="138.7758987"><ele>1058.2233333333334</ele><time>2025-08-17T05:23:12Z</time></trkpt><trkpt lat="35.502893" lon="138.7756568"><ele>1049.4133333333334</ele><time>2025-08-17T05:23:39Z</time></trkpt><trkpt lat="35.5028327" lon="138.775416"><ele>1040.14</ele><time>2025-08-17T05:24:09Z</time></trkpt><trkpt lat="35.5027782" lon="138.7751795"><ele>1031.4833333333333</ele><time>2025-08-17T05:24:33Z</time></trkpt><trkpt lat="35.5027421" lon="138.7749588"><ele>1023.3266666666668</ele><time>2025-08-17T05:24:53Z</time></trkpt><trkpt lat="35.5025828" lon="138.7747149"><ele>1017.3733333333333</ele><time>2025-08-17T05:25:05Z</time></trkpt><trkpt lat="35.5024896" lon="138.7744859"><ele>1011.5766666666667</ele><time>2025-08-17T05:25:21Z</time></trkpt><trkpt lat="35.5025044" lon="138.7742566"><ele>1007.2066666666668</ele><time>2025-08-17T05:25:42Z</time></trkpt><trkpt lat="35.5024291" lon="138.7740271"><ele>1001.3966666666666</ele><time>2025-08-17T05:26:03Z</time></trkpt><trkpt lat="35.50239" lon="138.7737755"><ele>994.6566666666668</ele><time>2025-08-17T05:26:30Z</time></trkpt><trkpt lat="35.5022979" lon="138.7735784"><ele>987.1766666666667</ele><time>2025-08-17T05:27:00Z</time></trkpt><trkpt lat="35.5022029" lon="138.7733603"><ele>979.8433333333334</ele><time>2025-08-17T05:27:24Z</time></trkpt><trkpt lat="35.5021512" lon="138.7731228"><ele>973.0666666666666</ele><time>2025-08-17T05:27:54Z</time></trkpt><trkpt lat="35.5020634" lon="138.7729026"><ele>965.0300000000001</ele><time>2025-08-17T05:28:12Z</time></trkpt><trkpt lat="35.5020076" lon="138.7726839"><ele>957.3233333333334</ele><time>2025-08-17T05:28:33Z</time></trkpt><trkpt lat="35.5020004" lon="138.7724301"><ele>951.7566666666667</ele><time>2025-08-17T05:28:48Z</time></trkpt><trkpt lat="35.502029" lon="138.7722093"><ele>949.4233333333333</ele><time>2025-08-17T05:29:03Z</time></trkpt><trkpt lat="35.502059" lon="138.7719755"><ele>950.0433333333334</ele><time>2025-08-17T05:29:18Z</time></trkpt><trkpt lat="35.502065" lon="138.7717515"><ele>950.6166666666667</ele><time>2025-08-17T05:29:30Z</time></trkpt><trkpt lat="35.5020556" lon="138.7715211"><ele>949.8833333333333</ele><time>2025-08-17T05:29:51Z</time></trkpt><trkpt lat="35.5021177" lon="138.7712967"><ele>947.1466666666666</ele><time>2025-08-17T05:30:11Z</time></trkpt><trkpt lat="35.5020902" lon="138.7710535"><ele>943.4533333333334</ele><time>2025-08-17T05:30:32Z</time></trkpt><trkpt lat="35.5021963" lon="138.7708355"><ele>936.8833333333333</ele><time>2025-08-17T05:31:18Z</time></trkpt><trkpt lat="35.5021901" lon="138.7706046"><ele>928.9433333333333</ele><time>2025-08-17T05:31:39Z</time></trkpt><trkpt lat="35.5023078" lon="138.7704326"><ele>919.7066666666666</ele><time>2025-08-17T05:32:06Z</time></trkpt><trkpt lat="35.5022542" lon="138.7702213"><ele>911.9466666666667</ele><time>2025-08-17T05:32:36Z</time></trkpt><trkpt lat="35.5023358" lon="138.7700094"><ele>903.5866666666667</ele><time>2025-08-17T05:33:03Z</time></trkpt><trkpt lat="35.5022518" lon="138.7697687"><ele>894.6266666666667</ele><time>2025-08-17T05:33:21Z</time></trkpt><trkpt lat="35.5022747" lon="138.7695488"><ele>886.3033333333334</ele><time>2025-08-17T05:36:36Z</time></trkpt><trkpt lat="35.5022943" lon="138.769329"><ele>879.37</ele><time>2025-08-17T05:36:57Z</time></trkpt><trkpt lat="35.5021089" lon="138.7693282"><ele>872.6766666666666</ele><time>2025-08-17T05:37:27Z</time></trkpt><trkpt lat="35.5019754" lon="138.7695617"><ele>867.6733333333333</ele><time>2025-08-17T05:37:48Z</time></trkpt><trkpt lat="35.5017918" lon="138.7695524"><ele>862.5433333333334</ele><time>2025-08-17T05:38:09Z</time></trkpt><trkpt lat="35.501552" lon="138.7696799"><ele>861.3366666666667</ele><time>2025-08-17T05:38:18Z</time></trkpt><trkpt lat="35.5014079" lon="138.7695379"><ele>858.4966666666668</ele><time>2025-08-17T05:38:27Z</time></trkpt><trkpt lat="35.5012266" lon="138.769549"><ele>856.8100000000001</ele><time>2025-08-17T05:38:45Z</time></trkpt><trkpt lat="35.501125" lon="138.7697779"><ele>855.1266666666667</ele><time>2025-08-17T05:39:03Z</time></trkpt><trkpt lat="35.5010136" lon="138.7699772"><ele>855.7666666666668</ele><time>2025-08-17T05:39:18Z</time></trkpt><trkpt lat="35.5009105" lon="138.7701725"><ele>855.9333333333334</ele><time>2025-08-17T05:39:30Z</time></trkpt><trkpt lat="35.5007278" lon="138.770289"><ele>854.82</ele><time>2025-08-17T05:39:51Z</time></trkpt><trkpt lat="35.5005668" lon="138.7701798"><ele>852.1766666666667</ele><time>2025-08-17T05:40:06Z</time></trkpt><trkpt lat="35.5004784" lon="138.7699481"><ele>850.8366666666666</ele><time>2025-08-17T05:40:23Z</time></trkpt><trkpt lat="35.5003262" lon="138.7697585"><ele>849.96</ele><time>2025-08-17T05:40:37Z</time></trkpt><trkpt lat="35.5002096" lon="138.7695673"><ele>850.6</ele><time>2025-08-17T05:40:49Z</time></trkpt><trkpt lat="35.5001998" lon="138.7693171"><ele>851.5133333333333</ele><time>2025-08-17T05:41:04Z</time></trkpt><trkpt lat="35.50029" lon="138.7690597"><ele>852.16</ele><time>2025-08-17T05:41:19Z</time></trkpt><trkpt lat="35.5002239" lon="138.7688178"><ele>852.68</ele><time>2025-08-17T05:41:39Z</time></trkpt><trkpt lat="35.5000757" lon="138.7686644"><ele>853.39</ele><time>2025-08-17T05:41:54Z</time></trkpt><trkpt lat="35.4998833" lon="138.7686046"><ele>854.2833333333333</ele><time>2025-08-17T05:42:09Z</time></trkpt><trkpt lat="35.4997017" lon="138.7685503"><ele>854.9233333333333</ele><time>2025-08-17T05:42:21Z</time></trkpt><trkpt lat="35.4995194" lon="138.7685506"><ele>855.2133333333333</ele><time>2025-08-17T05:42:35Z</time></trkpt><trkpt lat="35.4993459" lon="138.7686221"><ele>855.3733333333333</ele><time>2025-08-17T05:42:50Z</time></trkpt><trkpt lat="35.4991572" lon="138.7687372"><ele>855.43</ele><time>2025-08-17T05:43:04Z</time></trkpt><trkpt lat="35.4989505" lon="138.7688148"><ele>855.3466666666667</ele><time>2025-08-17T05:43:19Z</time></trkpt><trkpt lat="35.498764" lon="138.7688699"><ele>855.1966666666667</ele><time>2025-08-17T05:43:30Z</time></trkpt><trkpt lat="35.498632" lon="138.7690565"><ele>855.0366666666667</ele><time>2025-08-17T05:43:42Z</time></trkpt><trkpt lat="35.4984517" lon="138.7690993"><ele>854.9433333333333</ele><time>2025-08-17T05:43:56Z</time></trkpt></trkseg></trk></gpx>