<?xml version='1.0' encoding='UTF-8'?><gpx creator="YAMAP - https://yamap.com" xsi:schemaLocation="http://www.topografix.com/GPX/1/1 http://www.topografix.com/GPX/1/1/gpx.xsd" version="1.1" xmlns="http://www.topografix.com/GPX/1/1" xmlns:xsi="http://www.w3.org/2001/XMLSchema-instance"><metadata><bounds maxlat="35.4977066" maxlon="138.8663736" minlat="35.4785879" minlon="138.8031581"/></metadata><trk><name>杓子山</name><number>1</number><trkseg><trkpt lat="35.497651" lon="138.8032905"><ele>753.02</ele><time>2024-03-30T23:45:18Z</time></trkpt><trkpt lat="35.4975788" lon="138.8035196"><ele>752.72</ele><time>2024-03-30T23:45:48Z</time></trkpt><trkpt lat="35.4974029" lon="138.8036771"><ele>752.5133333333333</ele><time>2024-03-30T23:46:07Z</time></trkpt><trkpt lat="35.4972087" lon="138.8036844"><ele>752.2366666666667</ele><time>2024-03-30T23:46:26Z</time></trkpt><trkpt lat="35.4970333" lon="138.8037661"><ele>752.09</ele><time>2024-03-30T23:47:05Z</time></trkpt><trkpt lat="35.4968214" lon="138.8038261"><ele>752.0500000000001</ele><time>2024-03-30T23:47:18Z</time></trkpt><trkpt lat="35.4966464" lon="138.8037555"><ele>752.0600000000001</ele><time>2024-03-30T23:47:28Z</time></trkpt><trkpt lat="35.4964664" lon="138.803938"><ele>751.94</ele><time>2024-03-30T23:47:40Z</time></trkpt><trkpt lat="35.4962793" lon="138.8039977"><ele>751.82</ele><time>2024-03-30T23:48:55Z</time></trkpt><trkpt lat="35.4960965" lon="138.8040661"><ele>751.6033333333334</ele><time>2024-03-30T23:49:12Z</time></trkpt><trkpt lat="35.4958615" lon="138.8040987"><ele>751.8233333333334</ele><time>2024-03-30T23:49:23Z</time></trkpt><trkpt lat="35.4956656" lon="138.8041084"><ele>751.8533333333334</ele><time>2024-03-30T23:49:35Z</time></trkpt><trkpt lat="35.4954776" lon="138.804175"><ele>751.8266666666667</ele><time>2024-03-30T23:49:47Z</time></trkpt><trkpt lat="35.4953083" lon="138.8042548"><ele>751.3533333333334</ele><time>2024-03-30T23:49:59Z</time></trkpt><trkpt lat="35.4950641" lon="138.8043474"><ele>751.0099999999999</ele><time>2024-03-30T23:50:17Z</time></trkpt><trkpt lat="35.4948941" lon="138.8044356"><ele>750.8266666666667</ele><time>2024-03-30T23:50:29Z</time></trkpt><trkpt lat="35.4946979" lon="138.8044383"><ele>750.9766666666668</ele><time>2024-03-30T23:50:44Z</time></trkpt><trkpt lat="35.4945095" lon="138.8043572"><ele>751.2766666666666</ele><time>2024-03-30T23:50:57Z</time></trkpt><trkpt lat="35.4943126" lon="138.8043238"><ele>751.5666666666667</ele><time>2024-03-30T23:51:12Z</time></trkpt><trkpt lat="35.4941161" lon="138.8042804"><ele>751.82</ele><time>2024-03-30T23:51:24Z</time></trkpt><trkpt lat="35.4939325" lon="138.8042458"><ele>752.16</ele><time>2024-03-30T23:51:36Z</time></trkpt><trkpt lat="35.4937305" lon="138.8041896"><ele>752.5500000000001</ele><time>2024-03-30T23:51:50Z</time></trkpt><trkpt lat="35.4935709" lon="138.8040472"><ele>753.0966666666667</ele><time>2024-03-30T23:51:59Z</time></trkpt><trkpt lat="35.4933913" lon="138.8041352"><ele>753.6066666666667</ele><time>2024-03-30T23:52:14Z</time></trkpt><trkpt lat="35.4932066" lon="138.8041028"><ele>754.2733333333334</ele><time>2024-03-30T23:52:29Z</time></trkpt><trkpt lat="35.4930201" lon="138.8040554"><ele>754.9700000000001</ele><time>2024-03-30T23:53:24Z</time></trkpt><trkpt lat="35.4930188" lon="138.8042828"><ele>755.4200000000001</ele><time>2024-03-30T23:53:36Z</time></trkpt><trkpt lat="35.4929374" lon="138.8045293"><ele>755.5900000000001</ele><time>2024-03-30T23:53:46Z</time></trkpt><trkpt lat="35.4928956" lon="138.8047564"><ele>755.37</ele><time>2024-03-30T23:53:57Z</time></trkpt><trkpt lat="35.4928958" lon="138.8050046"><ele>755.1733333333333</ele><time>2024-03-30T23:54:09Z</time></trkpt><trkpt lat="35.492805" lon="138.8054613"><ele>754.9466666666667</ele><time>2024-03-30T23:54:20Z</time></trkpt><trkpt lat="35.4928047" lon="138.8057277"><ele>754.7233333333334</ele><time>2024-03-30T23:54:48Z</time></trkpt><trkpt lat="35.4927789" lon="138.8059483"><ele>754.4666666666667</ele><time>2024-03-30T23:55:03Z</time></trkpt><trkpt lat="35.4927238" lon="138.8061957"><ele>754.1433333333334</ele><time>2024-03-30T23:55:14Z</time></trkpt><trkpt lat="35.4927349" lon="138.8064264"><ele>753.7766666666666</ele><time>2024-03-30T23:55:29Z</time></trkpt><trkpt lat="35.4926804" lon="138.8066728"><ele>753.4866666666667</ele><time>2024-03-30T23:55:41Z</time></trkpt><trkpt lat="35.4926525" lon="138.8068942"><ele>753.0766666666667</ele><time>2024-03-30T23:55:55Z</time></trkpt><trkpt lat="35.4925816" lon="138.8071478"><ele>752.7033333333334</ele><time>2024-03-30T23:56:06Z</time></trkpt><trkpt lat="35.4925257" lon="138.807404"><ele>752.4266666666667</ele><time>2024-03-30T23:56:21Z</time></trkpt><trkpt lat="35.4925236" lon="138.8076436"><ele>752.5433333333334</ele><time>2024-03-30T23:56:35Z</time></trkpt><trkpt lat="35.4925423" lon="138.8078812"><ele>752.6233333333333</ele><time>2024-03-30T23:56:47Z</time></trkpt><trkpt lat="35.4925783" lon="138.8081083"><ele>752.5266666666666</ele><time>2024-03-30T23:56:58Z</time></trkpt><trkpt lat="35.4924783" lon="138.808354"><ele>752.0833333333334</ele><time>2024-03-30T23:57:16Z</time></trkpt><trkpt lat="35.4923884" lon="138.8085861"><ele>751.9233333333333</ele><time>2024-03-30T23:57:30Z</time></trkpt><trkpt lat="35.4924037" lon="138.8088171"><ele>751.81</ele><time>2024-03-30T23:57:42Z</time></trkpt><trkpt lat="35.492334" lon="138.8090789"><ele>752.0366666666667</ele><time>2024-03-30T23:57:54Z</time></trkpt><trkpt lat="35.4923687" lon="138.8093635"><ele>752.2066666666666</ele><time>2024-03-30T23:59:23Z</time></trkpt><trkpt lat="35.4923294" lon="138.8095835"><ele>752.31</ele><time>2024-03-30T23:59:35Z</time></trkpt><trkpt lat="35.4923026" lon="138.8098467"><ele>751.8833333333332</ele><time>2024-03-30T23:59:49Z</time></trkpt><trkpt lat="35.4923109" lon="138.8101301"><ele>750.9966666666668</ele><time>2024-03-31T00:00:04Z</time></trkpt><trkpt lat="35.492367" lon="138.8103745"><ele>749.9499999999999</ele><time>2024-03-31T00:00:18Z</time></trkpt><trkpt lat="35.4923775" lon="138.8106181"><ele>749.2633333333333</ele><time>2024-03-31T00:00:30Z</time></trkpt><trkpt lat="35.4923699" lon="138.810882"><ele>748.9933333333333</ele><time>2024-03-31T00:00:41Z</time></trkpt><trkpt lat="35.4923914" lon="138.8111207"><ele>748.87</ele><time>2024-03-31T00:00:56Z</time></trkpt><trkpt lat="35.4923068" lon="138.811376"><ele>748.86</ele><time>2024-03-31T00:01:05Z</time></trkpt><trkpt lat="35.492227" lon="138.8116064"><ele>748.5266666666668</ele><time>2024-03-31T00:01:25Z</time></trkpt><trkpt lat="35.4922094" lon="138.8118403"><ele>747.7833333333334</ele><time>2024-03-31T00:01:39Z</time></trkpt><trkpt lat="35.4921688" lon="138.8120772"><ele>747.21</ele><time>2024-03-31T00:01:51Z</time></trkpt><trkpt lat="35.4921053" lon="138.8123086"><ele>747.0366666666665</ele><time>2024-03-31T00:02:05Z</time></trkpt><trkpt lat="35.4919185" lon="138.8124465"><ele>747.6233333333333</ele><time>2024-03-31T00:02:17Z</time></trkpt><trkpt lat="35.491821" lon="138.8126738"><ele>748.0133333333333</ele><time>2024-03-31T00:02:31Z</time></trkpt><trkpt lat="35.4918196" lon="138.8129414"><ele>747.9200000000001</ele><time>2024-03-31T00:02:45Z</time></trkpt><trkpt lat="35.4916986" lon="138.8131546"><ele>747.2333333333332</ele><time>2024-03-31T00:03:00Z</time></trkpt><trkpt lat="35.4916248" lon="138.8133576"><ele>746.5633333333334</ele><time>2024-03-31T00:03:12Z</time></trkpt><trkpt lat="35.4914417" lon="138.8136309"><ele>747.7400000000001</ele><time>2024-03-31T00:03:24Z</time></trkpt><trkpt lat="35.4914259" lon="138.8138916"><ele>749.6366666666667</ele><time>2024-03-31T00:03:45Z</time></trkpt><trkpt lat="35.4913728" lon="138.8141041"><ele>751.6966666666667</ele><time>2024-03-31T00:03:57Z</time></trkpt><trkpt lat="35.4912898" lon="138.8143007"><ele>752.5333333333333</ele><time>2024-03-31T00:04:42Z</time></trkpt><trkpt lat="35.4911064" lon="138.8144426"><ele>753.2666666666668</ele><time>2024-03-31T00:05:09Z</time></trkpt><trkpt lat="35.490957" lon="138.8145667"><ele>753.88</ele><time>2024-03-31T00:05:18Z</time></trkpt><trkpt lat="35.490822" lon="138.8147595"><ele>754.6266666666667</ele><time>2024-03-31T00:05:33Z</time></trkpt><trkpt lat="35.4907483" lon="138.8149969"><ele>755.3766666666667</ele><time>2024-03-31T00:05:48Z</time></trkpt><trkpt lat="35.4905537" lon="138.8150613"><ele>756.3266666666667</ele><time>2024-03-31T00:05:59Z</time></trkpt><trkpt lat="35.4904974" lon="138.8153522"><ele>757.2466666666666</ele><time>2024-03-31T00:06:13Z</time></trkpt><trkpt lat="35.4904449" lon="138.8156024"><ele>758.1033333333334</ele><time>2024-03-31T00:06:33Z</time></trkpt><trkpt lat="35.4902992" lon="138.8157876"><ele>758.73</ele><time>2024-03-31T00:06:48Z</time></trkpt><trkpt lat="35.4901867" lon="138.8159761"><ele>759.0333333333334</ele><time>2024-03-31T00:06:59Z</time></trkpt><trkpt lat="35.4900526" lon="138.8161848"><ele>759.3233333333333</ele><time>2024-03-31T00:07:12Z</time></trkpt><trkpt lat="35.4898912" lon="138.8163493"><ele>759.6366666666668</ele><time>2024-03-31T00:07:26Z</time></trkpt><trkpt lat="35.4897358" lon="138.8164761"><ele>760.0433333333334</ele><time>2024-03-31T00:07:38Z</time></trkpt><trkpt lat="35.489591" lon="138.8166475"><ele>760.3533333333334</ele><time>2024-03-31T00:07:49Z</time></trkpt><trkpt lat="35.4895395" lon="138.816889"><ele>760.46</ele><time>2024-03-31T00:08:04Z</time></trkpt><trkpt lat="35.4893895" lon="138.817076"><ele>760.5300000000001</ele><time>2024-03-31T00:08:15Z</time></trkpt><trkpt lat="35.4893294" lon="138.8173353"><ele>760.4699999999999</ele><time>2024-03-31T00:08:30Z</time></trkpt><trkpt lat="35.4892655" lon="138.8176015"><ele>760.43</ele><time>2024-03-31T00:08:45Z</time></trkpt><trkpt lat="35.4891743" lon="138.8178071"><ele>760.3766666666667</ele><time>2024-03-31T00:08:57Z</time></trkpt><trkpt lat="35.4890905" lon="138.818009"><ele>760.39</ele><time>2024-03-31T00:09:09Z</time></trkpt><trkpt lat="35.4889531" lon="138.8181986"><ele>760.5166666666668</ele><time>2024-03-31T00:09:23Z</time></trkpt><trkpt lat="35.4888672" lon="138.8184367"><ele>760.5433333333334</ele><time>2024-03-31T00:09:35Z</time></trkpt><trkpt lat="35.4887035" lon="138.818605"><ele>760.64</ele><time>2024-03-31T00:09:52Z</time></trkpt><trkpt lat="35.4884541" lon="138.8185735"><ele>760.8533333333334</ele><time>2024-03-31T00:09:58Z</time></trkpt><trkpt lat="35.4884629" lon="138.818816"><ele>761.0300000000001</ele><time>2024-03-31T00:10:04Z</time></trkpt><trkpt lat="35.4885548" lon="138.8190243"><ele>761.0566666666667</ele><time>2024-03-31T00:10:09Z</time></trkpt><trkpt lat="35.488511" lon="138.8192654"><ele>760.82</ele><time>2024-03-31T00:10:24Z</time></trkpt><trkpt lat="35.4885883" lon="138.8195196"><ele>760.5333333333334</ele><time>2024-03-31T00:10:35Z</time></trkpt><trkpt lat="35.4884621" lon="138.8196788"><ele>760.4066666666668</ele><time>2024-03-31T00:10:47Z</time></trkpt><trkpt lat="35.4883553" lon="138.8199089"><ele>760.3566666666666</ele><time>2024-03-31T00:11:07Z</time></trkpt><trkpt lat="35.4883068" lon="138.8201802"><ele>760.4933333333333</ele><time>2024-03-31T00:11:22Z</time></trkpt><trkpt lat="35.4881292" lon="138.8203896"><ele>760.7199999999999</ele><time>2024-03-31T00:11:36Z</time></trkpt><trkpt lat="35.4880244" lon="138.820591"><ele>761.0300000000001</ele><time>2024-03-31T00:11:48Z</time></trkpt><trkpt lat="35.4879778" lon="138.8208207"><ele>761.34</ele><time>2024-03-31T00:12:03Z</time></trkpt><trkpt lat="35.4879903" lon="138.8210936"><ele>761.5533333333333</ele><time>2024-03-31T00:12:43Z</time></trkpt><trkpt lat="35.4878783" lon="138.8213114"><ele>761.7633333333333</ele><time>2024-03-31T00:12:55Z</time></trkpt><trkpt lat="35.4877739" lon="138.8215492"><ele>762.0033333333334</ele><time>2024-03-31T00:13:10Z</time></trkpt><trkpt lat="35.4876489" lon="138.8217772"><ele>762.2533333333334</ele><time>2024-03-31T00:13:24Z</time></trkpt><trkpt lat="35.4875266" lon="138.8219395"><ele>762.4633333333333</ele><time>2024-03-31T00:13:33Z</time></trkpt><trkpt lat="35.4875926" lon="138.8221865"><ele>762.5333333333334</ele><time>2024-03-31T00:13:49Z</time></trkpt><trkpt lat="35.4876464" lon="138.8224394"><ele>762.5333333333334</ele><time>2024-03-31T00:14:01Z</time></trkpt><trkpt lat="35.4876538" lon="138.8226826"><ele>762.4933333333333</ele><time>2024-03-31T00:14:16Z</time></trkpt><trkpt lat="35.487723" lon="138.8228954"><ele>762.5333333333333</ele><time>2024-03-31T00:14:30Z</time></trkpt><trkpt lat="35.4878519" lon="138.8231518"><ele>762.6700000000001</ele><time>2024-03-31T00:14:44Z</time></trkpt><trkpt lat="35.4879085" lon="138.8233946"><ele>762.88</ele><time>2024-03-31T00:14:57Z</time></trkpt><trkpt lat="35.4879051" lon="138.8236235"><ele>763.1366666666667</ele><time>2024-03-31T00:15:09Z</time></trkpt><trkpt lat="35.4878915" lon="138.8238728"><ele>763.4033333333333</ele><time>2024-03-31T00:15:23Z</time></trkpt><trkpt lat="35.4877831" lon="138.8241302"><ele>763.73</ele><time>2024-03-31T00:15:44Z</time></trkpt><trkpt lat="35.4877538" lon="138.8243846"><ele>764.09</ele><time>2024-03-31T00:15:56Z</time></trkpt><trkpt lat="35.4877682" lon="138.8246199"><ele>764.4666666666667</ele><time>2024-03-31T00:16:07Z</time></trkpt><trkpt lat="35.4878479" lon="138.8248519"><ele>764.7333333333332</ele><time>2024-03-31T00:16:19Z</time></trkpt><trkpt lat="35.4878283" lon="138.8250726"><ele>764.96</ele><time>2024-03-31T00:16:31Z</time></trkpt><trkpt lat="35.4877979" lon="138.8252918"><ele>765.1166666666667</ele><time>2024-03-31T00:16:39Z</time></trkpt><trkpt lat="35.4877606" lon="138.8255131"><ele>765.36</ele><time>2024-03-31T00:16:54Z</time></trkpt><trkpt lat="35.487692" lon="138.8257579"><ele>765.6133333333333</ele><time>2024-03-31T00:17:08Z</time></trkpt><trkpt lat="35.4876514" lon="138.8259797"><ele>765.8366666666667</ele><time>2024-03-31T00:17:22Z</time></trkpt><trkpt lat="35.48755" lon="138.8261936"><ele>766.0733333333333</ele><time>2024-03-31T00:17:37Z</time></trkpt><trkpt lat="35.487498" lon="138.826455"><ele>766.3100000000001</ele><time>2024-03-31T00:17:52Z</time></trkpt><trkpt lat="35.487427" lon="138.8267022"><ele>766.6066666666667</ele><time>2024-03-31T00:18:09Z</time></trkpt><trkpt lat="35.4873285" lon="138.826922"><ele>766.8366666666667</ele><time>2024-03-31T00:18:21Z</time></trkpt><trkpt lat="35.4872373" lon="138.8271642"><ele>767.0666666666667</ele><time>2024-03-31T00:18:32Z</time></trkpt><trkpt lat="35.4871286" lon="138.8273464"><ele>767.3033333333334</ele><time>2024-03-31T00:18:44Z</time></trkpt><trkpt lat="35.4870097" lon="138.8275314"><ele>767.54</ele><time>2024-03-31T00:19:02Z</time></trkpt><trkpt lat="35.4868713" lon="138.8276965"><ele>767.7700000000001</ele><time>2024-03-31T00:19:14Z</time></trkpt><trkpt lat="35.4867772" lon="138.8279413"><ele>768.0066666666667</ele><time>2024-03-31T00:19:29Z</time></trkpt><trkpt lat="35.4866575" lon="138.8281172"><ele>768.2599999999999</ele><time>2024-03-31T00:19:44Z</time></trkpt><trkpt lat="35.4865726" lon="138.8283546"><ele>768.5566666666667</ele><time>2024-03-31T00:19:58Z</time></trkpt><trkpt lat="35.4864037" lon="138.8285013"><ele>768.8533333333334</ele><time>2024-03-31T00:20:13Z</time></trkpt><trkpt lat="35.4861877" lon="138.8285737"><ele>769.1500000000001</ele><time>2024-03-31T00:20:31Z</time></trkpt><trkpt lat="35.486017" lon="138.8286739"><ele>769.4000000000001</ele><time>2024-03-31T00:20:42Z</time></trkpt><trkpt lat="35.4858157" lon="138.8288038"><ele>769.66</ele><time>2024-03-31T00:20:57Z</time></trkpt><trkpt lat="35.4857048" lon="138.8289776"><ele>769.8566666666666</ele><time>2024-03-31T00:21:15Z</time></trkpt><trkpt lat="35.4854845" lon="138.828934"><ele>770.2199999999999</ele><time>2024-03-31T00:21:29Z</time></trkpt><trkpt lat="35.4853149" lon="138.8290333"><ele>770.5233333333334</ele><time>2024-03-31T00:21:41Z</time></trkpt><trkpt lat="35.4851672" lon="138.8292142"><ele>770.9433333333333</ele><time>2024-03-31T00:21:55Z</time></trkpt><trkpt lat="35.484947" lon="138.829209"><ele>771.2000000000002</ele><time>2024-03-31T00:22:07Z</time></trkpt><trkpt lat="35.4847853" lon="138.8293895"><ele>771.6466666666666</ele><time>2024-03-31T00:22:24Z</time></trkpt><trkpt lat="35.4845938" lon="138.8295238"><ele>772.2199999999999</ele><time>2024-03-31T00:22:38Z</time></trkpt><trkpt lat="35.4843765" lon="138.8296906"><ele>772.8100000000001</ele><time>2024-03-31T00:22:50Z</time></trkpt><trkpt lat="35.4842049" lon="138.8298366"><ele>773.04</ele><time>2024-03-31T00:23:11Z</time></trkpt><trkpt lat="35.4839988" lon="138.8299871"><ele>773.3533333333334</ele><time>2024-03-31T00:23:26Z</time></trkpt><trkpt lat="35.4838073" lon="138.830053"><ele>773.6433333333333</ele><time>2024-03-31T00:23:35Z</time></trkpt><trkpt lat="35.4837164" lon="138.8302557"><ele>774.39</ele><time>2024-03-31T00:23:50Z</time></trkpt><trkpt lat="35.48358" lon="138.8304496"><ele>774.98</ele><time>2024-03-31T00:24:03Z</time></trkpt><trkpt lat="35.4833742" lon="138.8305435"><ele>775.6866666666666</ele><time>2024-03-31T00:24:18Z</time></trkpt><trkpt lat="35.483178" lon="138.8306004"><ele>776.1266666666667</ele><time>2024-03-31T00:24:30Z</time></trkpt><trkpt lat="35.4829866" lon="138.8307422"><ele>776.65</ele><time>2024-03-31T00:25:03Z</time></trkpt><trkpt lat="35.4827787" lon="138.830785"><ele>777.04</ele><time>2024-03-31T00:25:15Z</time></trkpt><trkpt lat="35.4825721" lon="138.8308484"><ele>777.5300000000001</ele><time>2024-03-31T00:25:30Z</time></trkpt><trkpt lat="35.4823938" lon="138.8309799"><ele>777.9533333333334</ele><time>2024-03-31T00:25:44Z</time></trkpt><trkpt lat="35.4822097" lon="138.8311449"><ele>778.5433333333334</ele><time>2024-03-31T00:25:59Z</time></trkpt><trkpt lat="35.482092" lon="138.8314152"><ele>779.0166666666668</ele><time>2024-03-31T00:26:14Z</time></trkpt><trkpt lat="35.4819075" lon="138.8314917"><ele>779.4066666666668</ele><time>2024-03-31T00:26:32Z</time></trkpt><trkpt lat="35.4817426" lon="138.8315992"><ele>779.6700000000001</ele><time>2024-03-31T00:26:44Z</time></trkpt><trkpt lat="35.4815622" lon="138.8317054"><ele>780.2333333333332</ele><time>2024-03-31T00:26:58Z</time></trkpt><trkpt lat="35.4813995" lon="138.8318361"><ele>781.07</ele><time>2024-03-31T00:27:13Z</time></trkpt><trkpt lat="35.4811779" lon="138.8319181"><ele>782.0600000000001</ele><time>2024-03-31T00:27:31Z</time></trkpt><trkpt lat="35.480997" lon="138.8320156"><ele>783.0633333333334</ele><time>2024-03-31T00:27:47Z</time></trkpt><trkpt lat="35.4807964" lon="138.8321228"><ele>784.0500000000001</ele><time>2024-03-31T00:27:59Z</time></trkpt><trkpt lat="35.4806763" lon="138.8322958"><ele>784.7399999999999</ele><time>2024-03-31T00:28:14Z</time></trkpt><trkpt lat="35.4805758" lon="138.8325524"><ele>785.8033333333333</ele><time>2024-03-31T00:28:25Z</time></trkpt><trkpt lat="35.480495" lon="138.8327538"><ele>786.8266666666667</ele><time>2024-03-31T00:28:44Z</time></trkpt><trkpt lat="35.4804147" lon="138.8329545"><ele>788.2400000000001</ele><time>2024-03-31T00:29:09Z</time></trkpt><trkpt lat="35.48036" lon="138.8331748"><ele>789.6766666666666</ele><time>2024-03-31T00:29:18Z</time></trkpt><trkpt lat="35.4802089" lon="138.8333246"><ele>792.81</ele><time>2024-03-31T00:29:30Z</time></trkpt><trkpt lat="35.480027" lon="138.8334099"><ele>795.79</ele><time>2024-03-31T00:29:42Z</time></trkpt><trkpt lat="35.4798351" lon="138.8334821"><ele>798.1466666666666</ele><time>2024-03-31T00:29:57Z</time></trkpt><trkpt lat="35.4796464" lon="138.8335067"><ele>798.4399999999999</ele><time>2024-03-31T00:30:12Z</time></trkpt><trkpt lat="35.4795891" lon="138.8337165"><ele>799.8766666666667</ele><time>2024-03-31T00:30:24Z</time></trkpt><trkpt lat="35.4795556" lon="138.833946"><ele>802.0333333333333</ele><time>2024-03-31T00:30:36Z</time></trkpt><trkpt lat="35.4794696" lon="138.8341739"><ele>804.5133333333333</ele><time>2024-03-31T00:30:51Z</time></trkpt><trkpt lat="35.4793696" lon="138.8344039"><ele>806.1233333333334</ele><time>2024-03-31T00:31:06Z</time></trkpt><trkpt lat="35.4792812" lon="138.8346047"><ele>807.6766666666666</ele><time>2024-03-31T00:31:21Z</time></trkpt><trkpt lat="35.4792848" lon="138.8348461"><ele>813.1266666666667</ele><time>2024-03-31T00:31:42Z</time></trkpt><trkpt lat="35.4791092" lon="138.834966"><ele>816.4333333333334</ele><time>2024-03-31T00:32:03Z</time></trkpt><trkpt lat="35.4789896" lon="138.8351888"><ele>820.2833333333333</ele><time>2024-03-31T00:32:34Z</time></trkpt><trkpt lat="35.4788804" lon="138.8354124"><ele>818.79</ele><time>2024-03-31T00:32:49Z</time></trkpt><trkpt lat="35.4787764" lon="138.8356015"><ele>820.6966666666667</ele><time>2024-03-31T00:33:04Z</time></trkpt><trkpt lat="35.4786715" lon="138.8358005"><ele>822.44</ele><time>2024-03-31T00:33:22Z</time></trkpt><trkpt lat="35.4785879" lon="138.8360276"><ele>826.6</ele><time>2024-03-31T00:33:43Z</time></trkpt><trkpt lat="35.4786119" lon="138.8362697"><ele>830.7366666666667</ele><time>2024-03-31T00:34:07Z</time></trkpt><trkpt lat="35.4786498" lon="138.8364961"><ele>836.0966666666667</ele><time>2024-03-31T00:34:25Z</time></trkpt><trkpt lat="35.4786826" lon="138.8367474"><ele>841.0966666666667</ele><time>2024-03-31T00:34:43Z</time></trkpt><trkpt lat="35.4787546" lon="138.8369869"><ele>845.2066666666666</ele><time>2024-03-31T00:35:04Z</time></trkpt><trkpt lat="35.478823" lon="138.8372048"><ele>847.54</ele><time>2024-03-31T00:35:22Z</time></trkpt><trkpt lat="35.4787415" lon="138.8374412"><ele>848.4966666666668</ele><time>2024-03-31T00:35:40Z</time></trkpt><trkpt lat="35.4786928" lon="138.8376765"><ele>848.7633333333333</ele><time>2024-03-31T00:35:58Z</time></trkpt><trkpt lat="35.4786873" lon="138.8379098"><ele>849.3266666666667</ele><time>2024-03-31T00:36:13Z</time></trkpt><trkpt lat="35.4787563" lon="138.8381409"><ele>851.6933333333333</ele><time>2024-03-31T00:36:28Z</time></trkpt><trkpt lat="35.4788021" lon="138.838396"><ele>854.2633333333333</ele><time>2024-03-31T00:36:43Z</time></trkpt><trkpt lat="35.4788873" lon="138.8386218"><ele>856.5300000000001</ele><time>2024-03-31T00:36:54Z</time></trkpt><trkpt lat="35.4789794" lon="138.8388208"><ele>858.41</ele><time>2024-03-31T00:37:13Z</time></trkpt><trkpt lat="35.4791552" lon="138.8389649"><ele>861.6933333333333</ele><time>2024-03-31T00:37:37Z</time></trkpt><trkpt lat="35.4792458" lon="138.8391559"><ele>864.7733333333334</ele><time>2024-03-31T00:37:52Z</time></trkpt><trkpt lat="35.4794018" lon="138.8393297"><ele>868.9533333333334</ele><time>2024-03-31T00:38:28Z</time></trkpt><trkpt lat="35.4794432" lon="138.8395737"><ele>871.69</ele><time>2024-03-31T00:38:48Z</time></trkpt><trkpt lat="35.4794808" lon="138.839827"><ele>873.1333333333333</ele><time>2024-03-31T00:39:04Z</time></trkpt><trkpt lat="35.4795795" lon="138.8400483"><ele>872.2599999999999</ele><time>2024-03-31T00:39:19Z</time></trkpt><trkpt lat="35.4797419" lon="138.840181"><ele>872.5300000000001</ele><time>2024-03-31T00:39:34Z</time></trkpt><trkpt lat="35.4798654" lon="138.8403526"><ele>875.9566666666666</ele><time>2024-03-31T00:39:49Z</time></trkpt><trkpt lat="35.4799735" lon="138.8405546"><ele>881.2233333333334</ele><time>2024-03-31T00:40:04Z</time></trkpt><trkpt lat="35.4800038" lon="138.8407821"><ele>884.5400000000001</ele><time>2024-03-31T00:40:21Z</time></trkpt><trkpt lat="35.4800265" lon="138.8410586"><ele>885.0966666666667</ele><time>2024-03-31T00:40:42Z</time></trkpt><trkpt lat="35.4800153" lon="138.8412834"><ele>883.7733333333334</ele><time>2024-03-31T00:40:55Z</time></trkpt><trkpt lat="35.4800429" lon="138.8415289"><ele>884.7366666666667</ele><time>2024-03-31T00:41:10Z</time></trkpt><trkpt lat="35.4799757" lon="138.841749"><ele>887.0099999999999</ele><time>2024-03-31T00:41:34Z</time></trkpt><trkpt lat="35.479929" lon="138.8419769"><ele>890.0833333333334</ele><time>2024-03-31T00:41:52Z</time></trkpt><trkpt lat="35.4799539" lon="138.8422346"><ele>893.0533333333333</ele><time>2024-03-31T00:42:10Z</time></trkpt><trkpt lat="35.4799042" lon="138.8424804"><ele>898.1533333333333</ele><time>2024-03-31T00:42:34Z</time></trkpt><trkpt lat="35.4797709" lon="138.842661"><ele>902.04</ele><time>2024-03-31T00:42:52Z</time></trkpt><trkpt lat="35.4798103" lon="138.8429085"><ele>904.3033333333333</ele><time>2024-03-31T00:43:10Z</time></trkpt><trkpt lat="35.4798867" lon="138.8431426"><ele>904.8566666666666</ele><time>2024-03-31T00:43:24Z</time></trkpt><trkpt lat="35.4798562" lon="138.8433936"><ele>906.11</ele><time>2024-03-31T00:43:43Z</time></trkpt><trkpt lat="35.4799402" lon="138.843655"><ele>908.2666666666668</ele><time>2024-03-31T00:44:02Z</time></trkpt><trkpt lat="35.4800092" lon="138.8438689"><ele>911.1733333333333</ele><time>2024-03-31T00:44:14Z</time></trkpt><trkpt lat="35.4800022" lon="138.8441111"><ele>913.3366666666667</ele><time>2024-03-31T00:44:29Z</time></trkpt><trkpt lat="35.4799927" lon="138.8443613"><ele>914.25</ele><time>2024-03-31T00:44:46Z</time></trkpt><trkpt lat="35.4800704" lon="138.8445679"><ele>914.0533333333333</ele><time>2024-03-31T00:45:01Z</time></trkpt><trkpt lat="35.4801813" lon="138.8447763"><ele>916.4033333333333</ele><time>2024-03-31T00:45:16Z</time></trkpt><trkpt lat="35.4802719" lon="138.8449696"><ele>919.6666666666666</ele><time>2024-03-31T00:45:34Z</time></trkpt><trkpt lat="35.4803001" lon="138.8451939"><ele>922.1466666666666</ele><time>2024-03-31T00:45:55Z</time></trkpt><trkpt lat="35.4803402" lon="138.8454166"><ele>924.3533333333334</ele><time>2024-03-31T00:46:18Z</time></trkpt><trkpt lat="35.4803312" lon="138.8456372"><ele>927.36</ele><time>2024-03-31T00:46:48Z</time></trkpt><trkpt lat="35.4804304" lon="138.845844"><ele>930.8066666666667</ele><time>2024-03-31T00:47:04Z</time></trkpt><trkpt lat="35.4804862" lon="138.8460589"><ele>933.8299999999999</ele><time>2024-03-31T00:47:33Z</time></trkpt><trkpt lat="35.480653" lon="138.84617"><ele>937.8666666666667</ele><time>2024-03-31T00:47:58Z</time></trkpt><trkpt lat="35.4808415" lon="138.8461287"><ele>942.4666666666667</ele><time>2024-03-31T00:48:19Z</time></trkpt><trkpt lat="35.4807378" lon="138.8463215"><ele>946.6133333333333</ele><time>2024-03-31T00:48:43Z</time></trkpt><trkpt lat="35.4808404" lon="138.8465183"><ele>951.7866666666667</ele><time>2024-03-31T00:49:54Z</time></trkpt><trkpt lat="35.4810273" lon="138.8465643"><ele>956.0966666666667</ele><time>2024-03-31T00:50:12Z</time></trkpt><trkpt lat="35.4812019" lon="138.8466334"><ele>960.8066666666667</ele><time>2024-03-31T00:50:33Z</time></trkpt><trkpt lat="35.4812706" lon="138.8468554"><ele>964.7933333333334</ele><time>2024-03-31T00:51:00Z</time></trkpt><trkpt lat="35.4813245" lon="138.8470794"><ele>970.2466666666666</ele><time>2024-03-31T00:52:53Z</time></trkpt><trkpt lat="35.4814676" lon="138.8472594"><ele>975.4399999999999</ele><time>2024-03-31T00:53:16Z</time></trkpt><trkpt lat="35.4816333" lon="138.8473725"><ele>979.0166666666668</ele><time>2024-03-31T00:53:37Z</time></trkpt><trkpt lat="35.4818173" lon="138.8474298"><ele>981.68</ele><time>2024-03-31T00:54:11Z</time></trkpt><trkpt lat="35.4819606" lon="138.8472194"><ele>985.1033333333335</ele><time>2024-03-31T00:54:32Z</time></trkpt><trkpt lat="35.4820276" lon="138.8469996"><ele>987.4699999999999</ele><time>2024-03-31T00:54:50Z</time></trkpt><trkpt lat="35.4821812" lon="138.8468755"><ele>990.7033333333334</ele><time>2024-03-31T00:55:09Z</time></trkpt><trkpt lat="35.4821531" lon="138.8471112"><ele>993.5033333333334</ele><time>2024-03-31T00:55:39Z</time></trkpt><trkpt lat="35.4821552" lon="138.8473491"><ele>997.0766666666667</ele><time>2024-03-31T00:55:59Z</time></trkpt><trkpt lat="35.4822755" lon="138.8475729"><ele>1000.4233333333333</ele><time>2024-03-31T00:56:16Z</time></trkpt><trkpt lat="35.4823363" lon="138.8477907"><ele>1002.0633333333334</ele><time>2024-03-31T00:56:30Z</time></trkpt><trkpt lat="35.4824286" lon="138.8480123"><ele>1004.0633333333334</ele><time>2024-03-31T00:57:21Z</time></trkpt><trkpt lat="35.4825111" lon="138.8482235"><ele>1004.9966666666668</ele><time>2024-03-31T00:57:39Z</time></trkpt><trkpt lat="35.4824731" lon="138.848442"><ele>1007.4966666666668</ele><time>2024-03-31T00:58:03Z</time></trkpt><trkpt lat="35.4826738" lon="138.8485136"><ele>1010.1233333333333</ele><time>2024-03-31T00:58:57Z</time></trkpt><trkpt lat="35.4828666" lon="138.8484251"><ele>1014.37</ele><time>2024-03-31T00:59:15Z</time></trkpt><trkpt lat="35.4829849" lon="138.8482052"><ele>1018.6733333333335</ele><time>2024-03-31T00:59:30Z</time></trkpt><trkpt lat="35.4830297" lon="138.8479708"><ele>1021.7600000000001</ele><time>2024-03-31T00:59:45Z</time></trkpt><trkpt lat="35.4830913" lon="138.8481991"><ele>1023.4433333333333</ele><time>2024-03-31T01:00:36Z</time></trkpt><trkpt lat="35.4830931" lon="138.8484377"><ele>1024.8666666666668</ele><time>2024-03-31T01:00:58Z</time></trkpt><trkpt lat="35.482964" lon="138.8486415"><ele>1025.8799999999999</ele><time>2024-03-31T01:01:16Z</time></trkpt><trkpt lat="35.482938" lon="138.8489034"><ele>1029.9866666666667</ele><time>2024-03-31T01:02:08Z</time></trkpt><trkpt lat="35.4828522" lon="138.8491098"><ele>1035.8566666666668</ele><time>2024-03-31T01:02:23Z</time></trkpt><trkpt lat="35.4827868" lon="138.8493177"><ele>1042.4566666666667</ele><time>2024-03-31T01:02:40Z</time></trkpt><trkpt lat="35.4826329" lon="138.8494709"><ele>1045.4733333333334</ele><time>2024-03-31T01:03:04Z</time></trkpt><trkpt lat="35.4827856" lon="138.8496027"><ele>1047.2066666666667</ele><time>2024-03-31T01:04:27Z</time></trkpt><trkpt lat="35.4829498" lon="138.8495088"><ele>1050.7433333333336</ele><time>2024-03-31T01:04:39Z</time></trkpt><trkpt lat="35.4830857" lon="138.8493178"><ele>1055.1266666666668</ele><time>2024-03-31T01:04:57Z</time></trkpt><trkpt lat="35.4831234" lon="138.8491"><ele>1058.6899999999998</ele><time>2024-03-31T01:05:17Z</time></trkpt><trkpt lat="35.4830546" lon="138.8488849"><ele>1055.9733333333334</ele><time>2024-03-31T01:05:42Z</time></trkpt><trkpt lat="35.4834247" lon="138.8488776"><ele>1057.89</ele><time>2024-03-31T01:05:51Z</time></trkpt><trkpt lat="35.4836038" lon="138.8487276"><ele>1059.4566666666667</ele><time>2024-03-31T01:06:03Z</time></trkpt><trkpt lat="35.4837168" lon="138.8485094"><ele>1062.6333333333334</ele><time>2024-03-31T01:06:21Z</time></trkpt><trkpt lat="35.483877" lon="138.8483734"><ele>1059.9833333333333</ele><time>2024-03-31T01:06:36Z</time></trkpt><trkpt lat="35.4838612" lon="138.8481216"><ele>1058.1133333333335</ele><time>2024-03-31T01:06:57Z</time></trkpt><trkpt lat="35.4840132" lon="138.847957"><ele>1060.7933333333333</ele><time>2024-03-31T01:07:18Z</time></trkpt><trkpt lat="35.4841081" lon="138.8481596"><ele>1064.3833333333332</ele><time>2024-03-31T01:07:45Z</time></trkpt><trkpt lat="35.4841604" lon="138.8483774"><ele>1067.3233333333333</ele><time>2024-03-31T01:08:12Z</time></trkpt><trkpt lat="35.4843023" lon="138.8485427"><ele>1069.9466666666667</ele><time>2024-03-31T01:08:36Z</time></trkpt><trkpt lat="35.4844532" lon="138.8486654"><ele>1074.5466666666666</ele><time>2024-03-31T01:09:09Z</time></trkpt><trkpt lat="35.484635" lon="138.8487304"><ele>1081.8066666666666</ele><time>2024-03-31T01:10:28Z</time></trkpt><trkpt lat="35.4846112" lon="138.8484755"><ele>1089.2366666666667</ele><time>2024-03-31T01:10:47Z</time></trkpt><trkpt lat="35.4846541" lon="138.8482512"><ele>1097.0966666666666</ele><time>2024-03-31T01:11:18Z</time></trkpt><trkpt lat="35.4847203" lon="138.8480357"><ele>1104.2666666666667</ele><time>2024-03-31T01:11:34Z</time></trkpt><trkpt lat="35.4847555" lon="138.8477915"><ele>1109.2433333333333</ele><time>2024-03-31T01:11:55Z</time></trkpt><trkpt lat="35.484742" lon="138.8475528"><ele>1112.3333333333333</ele><time>2024-03-31T01:12:40Z</time></trkpt><trkpt lat="35.4848793" lon="138.8477029"><ele>1115.5133333333335</ele><time>2024-03-31T01:13:40Z</time></trkpt><trkpt lat="35.4849899" lon="138.8478806"><ele>1120.3766666666668</ele><time>2024-03-31T01:14:13Z</time></trkpt><trkpt lat="35.4850261" lon="138.848099"><ele>1126.4166666666667</ele><time>2024-03-31T01:14:46Z</time></trkpt><trkpt lat="35.4852191" lon="138.8481267"><ele>1135.75</ele><time>2024-03-31T01:15:42Z</time></trkpt><trkpt lat="35.485327" lon="138.8479203"><ele>1145.26</ele><time>2024-03-31T01:16:01Z</time></trkpt><trkpt lat="35.485296" lon="138.8476889"><ele>1151.7700000000002</ele><time>2024-03-31T01:16:31Z</time></trkpt><trkpt lat="35.4852064" lon="138.8474923"><ele>1151.5566666666666</ele><time>2024-03-31T01:16:49Z</time></trkpt><trkpt lat="35.4853522" lon="138.8476354"><ele>1152.6533333333334</ele><time>2024-03-31T01:18:39Z</time></trkpt><trkpt lat="35.4854579" lon="138.8478259"><ele>1156.1866666666665</ele><time>2024-03-31T01:19:09Z</time></trkpt><trkpt lat="35.4855827" lon="138.8476467"><ele>1163.7766666666666</ele><time>2024-03-31T01:19:45Z</time></trkpt><trkpt lat="35.4856903" lon="138.8478551"><ele>1169.73</ele><time>2024-03-31T01:20:57Z</time></trkpt><trkpt lat="35.4857581" lon="138.8480725"><ele>1175.9266666666665</ele><time>2024-03-31T01:22:00Z</time></trkpt><trkpt lat="35.4858128" lon="138.8482861"><ele>1179.8866666666665</ele><time>2024-03-31T01:22:15Z</time></trkpt><trkpt lat="35.4858921" lon="138.8484883"><ele>1182.8866666666665</ele><time>2024-03-31T01:22:30Z</time></trkpt><trkpt lat="35.4860195" lon="138.8486957"><ele>1185.34</ele><time>2024-03-31T01:22:51Z</time></trkpt><trkpt lat="35.4861385" lon="138.8488792"><ele>1186.3666666666668</ele><time>2024-03-31T01:23:18Z</time></trkpt><trkpt lat="35.4861566" lon="138.8491255"><ele>1186.1033333333335</ele><time>2024-03-31T01:23:33Z</time></trkpt><trkpt lat="35.4862273" lon="138.8493508"><ele>1184.06</ele><time>2024-03-31T01:23:45Z</time></trkpt><trkpt lat="35.4863341" lon="138.8495358"><ele>1182.7333333333333</ele><time>2024-03-31T01:24:00Z</time></trkpt><trkpt lat="35.486368" lon="138.8497541"><ele>1182.5033333333333</ele><time>2024-03-31T01:24:15Z</time></trkpt><trkpt lat="35.4864421" lon="138.8499844"><ele>1183.45</ele><time>2024-03-31T01:24:33Z</time></trkpt><trkpt lat="35.4865345" lon="138.8501882"><ele>1185.6333333333334</ele><time>2024-03-31T01:24:57Z</time></trkpt><trkpt lat="35.4864936" lon="138.8504283"><ele>1187.4833333333333</ele><time>2024-03-31T01:26:08Z</time></trkpt><trkpt lat="35.4863987" lon="138.8506363"><ele>1184.8233333333335</ele><time>2024-03-31T01:26:41Z</time></trkpt><trkpt lat="35.4862733" lon="138.8508271"><ele>1180.1433333333332</ele><time>2024-03-31T01:26:53Z</time></trkpt><trkpt lat="35.4862879" lon="138.8510571"><ele>1174.8666666666668</ele><time>2024-03-31T01:27:11Z</time></trkpt><trkpt lat="35.486378" lon="138.8512909"><ele>1173.5200000000002</ele><time>2024-03-31T01:27:37Z</time></trkpt><trkpt lat="35.4863671" lon="138.8515147"><ele>1174.82</ele><time>2024-03-31T01:28:08Z</time></trkpt><trkpt lat="35.4863933" lon="138.8517374"><ele>1177.63</ele><time>2024-03-31T01:28:28Z</time></trkpt><trkpt lat="35.4863435" lon="138.8519718"><ele>1180.54</ele><time>2024-03-31T01:28:55Z</time></trkpt><trkpt lat="35.4863279" lon="138.8522203"><ele>1181.9733333333334</ele><time>2024-03-31T01:29:10Z</time></trkpt><trkpt lat="35.4863226" lon="138.8524432"><ele>1182.0833333333333</ele><time>2024-03-31T01:29:52Z</time></trkpt><trkpt lat="35.4863972" lon="138.8526672"><ele>1183.3533333333335</ele><time>2024-03-31T01:30:11Z</time></trkpt><trkpt lat="35.4864248" lon="138.8528913"><ele>1186.5833333333333</ele><time>2024-03-31T01:31:14Z</time></trkpt><trkpt lat="35.4864999" lon="138.8531032"><ele>1192.6299999999999</ele><time>2024-03-31T01:32:17Z</time></trkpt><trkpt lat="35.4864891" lon="138.8533373"><ele>1198.63</ele><time>2024-03-31T01:34:23Z</time></trkpt><trkpt lat="35.4864459" lon="138.8535588"><ele>1207.2466666666667</ele><time>2024-03-31T01:35:08Z</time></trkpt><trkpt lat="35.4864841" lon="138.853792"><ele>1214.5233333333335</ele><time>2024-03-31T01:36:38Z</time></trkpt><trkpt lat="35.4864991" lon="138.8540125"><ele>1225.2</ele><time>2024-03-31T01:37:44Z</time></trkpt><trkpt lat="35.4865006" lon="138.8542575"><ele>1234.7766666666666</ele><time>2024-03-31T01:39:14Z</time></trkpt><trkpt lat="35.4866153" lon="138.8544596"><ele>1246.54</ele><time>2024-03-31T01:39:59Z</time></trkpt><trkpt lat="35.4867141" lon="138.8546511"><ele>1255.1733333333334</ele><time>2024-03-31T01:41:50Z</time></trkpt><trkpt lat="35.4866928" lon="138.8549005"><ele>1262.1699999999998</ele><time>2024-03-31T01:43:22Z</time></trkpt><trkpt lat="35.4867392" lon="138.8551431"><ele>1267.0733333333335</ele><time>2024-03-31T01:43:44Z</time></trkpt><trkpt lat="35.4867477" lon="138.8553712"><ele>1269.8999999999999</ele><time>2024-03-31T01:43:59Z</time></trkpt><trkpt lat="35.4867374" lon="138.8555935"><ele>1273.0666666666668</ele><time>2024-03-31T01:44:29Z</time></trkpt><trkpt lat="35.4867802" lon="138.8558411"><ele>1275.14</ele><time>2024-03-31T01:44:56Z</time></trkpt><trkpt lat="35.4866558" lon="138.856044"><ele>1279.1000000000001</ele><time>2024-03-31T01:45:58Z</time></trkpt><trkpt lat="35.486611" lon="138.8562616"><ele>1281.2866666666666</ele><time>2024-03-31T01:46:47Z</time></trkpt><trkpt lat="35.4866114" lon="138.8564834"><ele>1285.3166666666666</ele><time>2024-03-31T01:48:14Z</time></trkpt><trkpt lat="35.4865383" lon="138.856727"><ele>1290.87</ele><time>2024-03-31T01:49:38Z</time></trkpt><trkpt lat="35.4864798" lon="138.8569489"><ele>1299.6933333333334</ele><time>2024-03-31T01:51:12Z</time></trkpt><trkpt lat="35.4864601" lon="138.8571824"><ele>1312.2700000000002</ele><time>2024-03-31T01:54:03Z</time></trkpt><trkpt lat="35.4864274" lon="138.8574068"><ele>1324.7266666666667</ele><time>2024-03-31T01:55:32Z</time></trkpt><trkpt lat="35.4862598" lon="138.8575299"><ele>1338.4366666666667</ele><time>2024-03-31T01:57:32Z</time></trkpt><trkpt lat="35.486206" lon="138.8577489"><ele>1353.0633333333333</ele><time>2024-03-31T01:59:53Z</time></trkpt><trkpt lat="35.4861751" lon="138.8579698"><ele>1368.7399999999998</ele><time>2024-03-31T02:01:56Z</time></trkpt><trkpt lat="35.486128" lon="138.8582051"><ele>1384.36</ele><time>2024-03-31T02:04:08Z</time></trkpt><trkpt lat="35.4861282" lon="138.8584471"><ele>1397.58</ele><time>2024-03-31T02:06:41Z</time></trkpt><trkpt lat="35.4861881" lon="138.8586633"><ele>1408.97</ele><time>2024-03-31T02:07:56Z</time></trkpt><trkpt lat="35.4862571" lon="138.8588691"><ele>1417.0333333333335</ele><time>2024-03-31T02:08:35Z</time></trkpt><trkpt lat="35.4862201" lon="138.8591179"><ele>1423.2066666666667</ele><time>2024-03-31T02:10:14Z</time></trkpt><trkpt lat="35.486205" lon="138.8593582"><ele>1427.2233333333334</ele><time>2024-03-31T02:10:43Z</time></trkpt><trkpt lat="35.4861255" lon="138.8595752"><ele>1429.9866666666667</ele><time>2024-03-31T02:11:07Z</time></trkpt><trkpt lat="35.4860486" lon="138.8597764"><ele>1431.7466666666667</ele><time>2024-03-31T02:12:42Z</time></trkpt><trkpt lat="35.4858945" lon="138.8599038"><ele>1435.89</ele><time>2024-03-31T02:13:29Z</time></trkpt><trkpt lat="35.4857576" lon="138.8600609"><ele>1440.7033333333336</ele><time>2024-03-31T02:14:14Z</time></trkpt><trkpt lat="35.4856092" lon="138.860215"><ele>1447.1466666666668</ele><time>2024-03-31T02:14:58Z</time></trkpt><trkpt lat="35.4854692" lon="138.8603626"><ele>1454.2333333333336</ele><time>2024-03-31T02:15:57Z</time></trkpt><trkpt lat="35.485365" lon="138.8605428"><ele>1461.8866666666665</ele><time>2024-03-31T02:16:33Z</time></trkpt><trkpt lat="35.4852362" lon="138.8607074"><ele>1469.7200000000003</ele><time>2024-03-31T02:17:39Z</time></trkpt><trkpt lat="35.485244" lon="138.8609785"><ele>1475.3166666666668</ele><time>2024-03-31T02:18:12Z</time></trkpt><trkpt lat="35.485178" lon="138.8612159"><ele>1479.2</ele><time>2024-03-31T02:18:30Z</time></trkpt><trkpt lat="35.4852343" lon="138.8614523"><ele>1479.25</ele><time>2024-03-31T02:19:00Z</time></trkpt><trkpt lat="35.4852838" lon="138.8616993"><ele>1477.1833333333332</ele><time>2024-03-31T02:19:13Z</time></trkpt><trkpt lat="35.4852207" lon="138.8619142"><ele>1476.5133333333333</ele><time>2024-03-31T02:19:37Z</time></trkpt><trkpt lat="35.4852299" lon="138.8621542"><ele>1477.1633333333332</ele><time>2024-03-31T02:19:54Z</time></trkpt><trkpt lat="35.4852675" lon="138.8623975"><ele>1479.7366666666667</ele><time>2024-03-31T02:20:28Z</time></trkpt><trkpt lat="35.4852959" lon="138.8626354"><ele>1481.0466666666669</ele><time>2024-03-31T02:20:46Z</time></trkpt><trkpt lat="35.485331" lon="138.8628699"><ele>1482.7733333333333</ele><time>2024-03-31T02:21:10Z</time></trkpt><trkpt lat="35.4854086" lon="138.8630859"><ele>1487.9766666666667</ele><time>2024-03-31T02:23:52Z</time></trkpt><trkpt lat="35.4855294" lon="138.8632729"><ele>1495.993333333333</ele><time>2024-03-31T02:25:37Z</time></trkpt><trkpt lat="35.4854543" lon="138.8634828"><ele>1505.6299999999999</ele><time>2024-03-31T02:26:54Z</time></trkpt><trkpt lat="35.4854639" lon="138.863744"><ele>1513.4733333333334</ele><time>2024-03-31T02:27:27Z</time></trkpt><trkpt lat="35.4855516" lon="138.8639516"><ele>1519.7233333333334</ele><time>2024-03-31T02:27:45Z</time></trkpt><trkpt lat="35.4855664" lon="138.8641914"><ele>1524.9399999999998</ele><time>2024-03-31T02:28:48Z</time></trkpt><trkpt lat="35.4856344" lon="138.8644288"><ele>1528.4866666666667</ele><time>2024-03-31T02:29:12Z</time></trkpt><trkpt lat="35.4856991" lon="138.8646682"><ele>1532.176666666667</ele><time>2024-03-31T02:29:57Z</time></trkpt><trkpt lat="35.4857697" lon="138.8648725"><ele>1537.756666666667</ele><time>2024-03-31T02:31:30Z</time></trkpt><trkpt lat="35.4857835" lon="138.8651141"><ele>1545.5433333333333</ele><time>2024-03-31T02:32:57Z</time></trkpt><trkpt lat="35.4857255" lon="138.8653282"><ele>1555.5100000000002</ele><time>2024-03-31T02:34:12Z</time></trkpt><trkpt lat="35.4856581" lon="138.8655373"><ele>1564.2233333333334</ele><time>2024-03-31T02:34:42Z</time></trkpt><trkpt lat="35.4855454" lon="138.8657193"><ele>1572.87</ele><time>2024-03-31T02:35:24Z</time></trkpt><trkpt lat="35.4854658" lon="138.8659194"><ele>1579.1533333333334</ele><time>2024-03-31T02:36:21Z</time></trkpt><trkpt lat="35.4853472" lon="138.8661074"><ele>1583.3433333333335</ele><time>2024-03-31T02:36:41Z</time></trkpt><trkpt lat="35.4851932" lon="138.8662409"><ele>1586.6000000000001</ele><time>2024-03-31T02:37:42Z</time></trkpt><trkpt lat="35.4849264" lon="138.8662101"><ele>1588.3133333333335</ele><time>2024-03-31T02:44:36Z</time></trkpt><trkpt lat="35.4851464" lon="138.866133"><ele>1590.3500000000001</ele><time>2024-03-31T02:44:39Z</time></trkpt><trkpt lat="35.4852156" lon="138.8663433"><ele>1588.5533333333333</ele><time>2024-03-31T02:51:21Z</time></trkpt><trkpt lat="35.485087" lon="138.8661627"><ele>1588.82</ele><time>2024-03-31T02:53:24Z</time></trkpt><trkpt lat="35.4851656" lon="138.8663736"><ele>1588.1666666666667</ele><time>2024-03-31T02:58:51Z</time></trkpt><trkpt lat="35.4851523" lon="138.8661483"><ele>1590.1133333333335</ele><time>2024-03-31T03:00:21Z</time></trkpt><trkpt lat="35.4849649" lon="138.8660976"><ele>1589.7166666666665</ele><time>2024-03-31T03:08:43Z</time></trkpt><trkpt lat="35.4848904" lon="138.8658725"><ele>1586.6166666666668</ele><time>2024-03-31T03:09:40Z</time></trkpt><trkpt lat="35.4846987" lon="138.8659161"><ele>1579.8633333333335</ele><time>2024-03-31T03:09:51Z</time></trkpt><trkpt lat="35.4845893" lon="138.8656888"><ele>1571.2766666666666</ele><time>2024-03-31T03:10:52Z</time></trkpt><trkpt lat="35.4844356" lon="138.8654925"><ele>1560.5633333333335</ele><time>2024-03-31T03:11:37Z</time></trkpt><trkpt lat="35.4842555" lon="138.8654304"><ele>1549.89</ele><time>2024-03-31T03:11:57Z</time></trkpt><trkpt lat="35.4840856" lon="138.8653311"><ele>1538.83</ele><time>2024-03-31T03:12:48Z</time></trkpt><trkpt lat="35.4839056" lon="138.8653688"><ele>1531.14</ele><time>2024-03-31T03:13:24Z</time></trkpt><trkpt lat="35.4838451" lon="138.865152"><ele>1525.0666666666666</ele><time>2024-03-31T03:13:48Z</time></trkpt><trkpt lat="35.4837559" lon="138.8649254"><ele>1518.1833333333332</ele><time>2024-03-31T03:14:06Z</time></trkpt><trkpt lat="35.4836225" lon="138.864774"><ele>1509.6899999999998</ele><time>2024-03-31T03:14:30Z</time></trkpt><trkpt lat="35.4835053" lon="138.8646027"><ele>1498.0866666666668</ele><time>2024-03-31T03:14:54Z</time></trkpt><trkpt lat="35.4833479" lon="138.8647423"><ele>1490.3033333333333</ele><time>2024-03-31T03:15:18Z</time></trkpt><trkpt lat="35.4834086" lon="138.8649581"><ele>1487.2166666666665</ele><time>2024-03-31T03:15:27Z</time></trkpt><trkpt lat="35.483265" lon="138.8651091"><ele>1484.78</ele><time>2024-03-31T03:15:51Z</time></trkpt><trkpt lat="35.4832298" lon="138.8653519"><ele>1479.6666666666667</ele><time>2024-03-31T03:16:12Z</time></trkpt><trkpt lat="35.4831559" lon="138.8651372"><ele>1471.8400000000001</ele><time>2024-03-31T03:16:53Z</time></trkpt><trkpt lat="35.4831589" lon="138.8648842"><ele>1468.8</ele><time>2024-03-31T03:17:11Z</time></trkpt><trkpt lat="35.4829626" lon="138.8649425"><ele>1462.33</ele><time>2024-03-31T03:17:33Z</time></trkpt><trkpt lat="35.4828833" lon="138.8651612"><ele>1455.83</ele><time>2024-03-31T03:17:57Z</time></trkpt><trkpt lat="35.4828187" lon="138.8653714"><ele>1446.9033333333334</ele><time>2024-03-31T03:18:17Z</time></trkpt><trkpt lat="35.4826457" lon="138.8655237"><ele>1440.4399999999998</ele><time>2024-03-31T03:18:47Z</time></trkpt><trkpt lat="35.4824241" lon="138.8655522"><ele>1433.3533333333335</ele><time>2024-03-31T03:19:08Z</time></trkpt><trkpt lat="35.4822285" lon="138.8655624"><ele>1425.7933333333333</ele><time>2024-03-31T03:19:41Z</time></trkpt><trkpt lat="35.4820391" lon="138.8655068"><ele>1418.8933333333334</ele><time>2024-03-31T03:19:58Z</time></trkpt><trkpt lat="35.4818679" lon="138.8653686"><ele>1412.9633333333334</ele><time>2024-03-31T03:20:22Z</time></trkpt><trkpt lat="35.4816711" lon="138.8652478"><ele>1406.67</ele><time>2024-03-31T03:20:42Z</time></trkpt><trkpt lat="35.4814806" lon="138.865344"><ele>1400.1800000000003</ele><time>2024-03-31T03:21:15Z</time></trkpt><trkpt lat="35.4812672" lon="138.8653435"><ele>1391.6633333333332</ele><time>2024-03-31T03:21:32Z</time></trkpt><trkpt lat="35.4812551" lon="138.8650941"><ele>1385.63</ele><time>2024-03-31T03:21:48Z</time></trkpt><trkpt lat="35.4810745" lon="138.8650575"><ele>1379.493333333333</ele><time>2024-03-31T03:22:12Z</time></trkpt><trkpt lat="35.4808891" lon="138.8650283"><ele>1374.7133333333334</ele><time>2024-03-31T03:22:32Z</time></trkpt><trkpt lat="35.4807049" lon="138.8649601"><ele>1368.0466666666669</ele><time>2024-03-31T03:22:51Z</time></trkpt><trkpt lat="35.4808478" lon="138.8650965"><ele>1365.26</ele><time>2024-03-31T03:25:00Z</time></trkpt><trkpt lat="35.4809048" lon="138.8648609"><ele>1364.0466666666666</ele><time>2024-03-31T03:25:24Z</time></trkpt><trkpt lat="35.4808516" lon="138.8646414"><ele>1361.1166666666666</ele><time>2024-03-31T03:25:39Z</time></trkpt><trkpt lat="35.4807071" lon="138.864463"><ele>1353.6833333333334</ele><time>2024-03-31T03:25:56Z</time></trkpt><trkpt lat="35.4805497" lon="138.8643273"><ele>1343.9399999999998</ele><time>2024-03-31T03:26:56Z</time></trkpt><trkpt lat="35.4804508" lon="138.8640955"><ele>1335.67</ele><time>2024-03-31T03:27:12Z</time></trkpt><trkpt lat="35.4803459" lon="138.8638646"><ele>1330.2300000000002</ele><time>2024-03-31T03:27:27Z</time></trkpt><trkpt lat="35.4804446" lon="138.8640602"><ele>1328.3033333333333</ele><time>2024-03-31T03:28:30Z</time></trkpt><trkpt lat="35.4806213" lon="138.8642228"><ele>1328.3</ele><time>2024-03-31T03:28:45Z</time></trkpt><trkpt lat="35.4808491" lon="138.8642946"><ele>1329.8066666666666</ele><time>2024-03-31T03:29:00Z</time></trkpt><trkpt lat="35.4810127" lon="138.8641178"><ele>1329.8866666666665</ele><time>2024-03-31T03:29:21Z</time></trkpt><trkpt lat="35.4809674" lon="138.8638805"><ele>1328.22</ele><time>2024-03-31T03:29:38Z</time></trkpt><trkpt lat="35.480784" lon="138.8638387"><ele>1322.0666666666666</ele><time>2024-03-31T03:30:23Z</time></trkpt><trkpt lat="35.4808451" lon="138.8635846"><ele>1317.3266666666666</ele><time>2024-03-31T03:30:40Z</time></trkpt><trkpt lat="35.4809694" lon="138.8633897"><ele>1314.86</ele><time>2024-03-31T03:30:56Z</time></trkpt><trkpt lat="35.4810333" lon="138.8631652"><ele>1315.24</ele><time>2024-03-31T03:31:11Z</time></trkpt><trkpt lat="35.4810804" lon="138.8629276"><ele>1311.9833333333333</ele><time>2024-03-31T03:31:29Z</time></trkpt><trkpt lat="35.481172" lon="138.8627095"><ele>1306.71</ele><time>2024-03-31T03:31:44Z</time></trkpt><trkpt lat="35.4812261" lon="138.8624722"><ele>1302.3333333333333</ele><time>2024-03-31T03:32:14Z</time></trkpt><trkpt lat="35.4813044" lon="138.8622285"><ele>1300.4399999999998</ele><time>2024-03-31T03:32:31Z</time></trkpt><trkpt lat="35.4813864" lon="138.8620095"><ele>1296.5266666666666</ele><time>2024-03-31T03:32:52Z</time></trkpt><trkpt lat="35.4814551" lon="138.8617728"><ele>1290.3733333333332</ele><time>2024-03-31T03:33:06Z</time></trkpt><trkpt lat="35.4812668" lon="138.8617024"><ele>1280.8766666666668</ele><time>2024-03-31T03:33:25Z</time></trkpt><trkpt lat="35.4814328" lon="138.861556"><ele>1278.0166666666667</ele><time>2024-03-31T03:33:39Z</time></trkpt><trkpt lat="35.4813731" lon="138.8613363"><ele>1273.0733333333335</ele><time>2024-03-31T03:33:55Z</time></trkpt><trkpt lat="35.4814548" lon="138.8611096"><ele>1271.1499999999999</ele><time>2024-03-31T03:34:16Z</time></trkpt><trkpt lat="35.4815415" lon="138.8609004"><ele>1263.7133333333334</ele><time>2024-03-31T03:34:31Z</time></trkpt><trkpt lat="35.4813574" lon="138.8609525"><ele>1259.07</ele><time>2024-03-31T03:35:08Z</time></trkpt><trkpt lat="35.4812324" lon="138.8611245"><ele>1253.676666666667</ele><time>2024-03-31T03:35:23Z</time></trkpt><trkpt lat="35.4810641" lon="138.8612258"><ele>1249.7833333333335</ele><time>2024-03-31T03:35:38Z</time></trkpt><trkpt lat="35.4812248" lon="138.8610225"><ele>1248.51</ele><time>2024-03-31T03:35:56Z</time></trkpt><trkpt lat="35.4813563" lon="138.8608327"><ele>1248.4800000000002</ele><time>2024-03-31T03:36:16Z</time></trkpt><trkpt lat="35.4813547" lon="138.8606027"><ele>1246.3733333333334</ele><time>2024-03-31T03:36:31Z</time></trkpt><trkpt lat="35.4813305" lon="138.8603314"><ele>1240.2066666666667</ele><time>2024-03-31T03:36:49Z</time></trkpt><trkpt lat="35.4813898" lon="138.860123"><ele>1234.6200000000001</ele><time>2024-03-31T03:37:01Z</time></trkpt><trkpt lat="35.4812786" lon="138.8598949"><ele>1230.1866666666667</ele><time>2024-03-31T03:37:15Z</time></trkpt><trkpt lat="35.4811674" lon="138.8597005"><ele>1227.7566666666667</ele><time>2024-03-31T03:37:30Z</time></trkpt><trkpt lat="35.4810306" lon="138.8595432"><ele>1223.5933333333332</ele><time>2024-03-31T03:37:45Z</time></trkpt><trkpt lat="35.480865" lon="138.8593716"><ele>1219.2933333333333</ele><time>2024-03-31T03:37:59Z</time></trkpt><trkpt lat="35.4808357" lon="138.8591438"><ele>1216.3566666666668</ele><time>2024-03-31T03:38:14Z</time></trkpt><trkpt lat="35.4807156" lon="138.8589688"><ele>1212.49</ele><time>2024-03-31T03:38:26Z</time></trkpt><trkpt lat="35.4808066" lon="138.8587593"><ele>1211.3066666666668</ele><time>2024-03-31T03:38:44Z</time></trkpt><trkpt lat="35.4808333" lon="138.8585247"><ele>1208.496666666667</ele><time>2024-03-31T03:38:56Z</time></trkpt><trkpt lat="35.4808987" lon="138.8582862"><ele>1206.5033333333333</ele><time>2024-03-31T03:39:13Z</time></trkpt><trkpt lat="35.4807195" lon="138.8581933"><ele>1201.9133333333332</ele><time>2024-03-31T03:40:27Z</time></trkpt><trkpt lat="35.4806225" lon="138.8583959"><ele>1198.93</ele><time>2024-03-31T03:40:42Z</time></trkpt><trkpt lat="35.4804654" lon="138.8585082"><ele>1194.6699999999998</ele><time>2024-03-31T03:41:00Z</time></trkpt><trkpt lat="35.4803218" lon="138.8583675"><ele>1186.53</ele><time>2024-03-31T03:42:09Z</time></trkpt><trkpt lat="35.4802149" lon="138.8581471"><ele>1173.18</ele><time>2024-03-31T03:42:35Z</time></trkpt><trkpt lat="35.4803891" lon="138.8580852"><ele>1164.2666666666667</ele><time>2024-03-31T03:42:48Z</time></trkpt><trkpt lat="35.4805767" lon="138.8582092"><ele>1168.2366666666667</ele><time>2024-03-31T03:42:57Z</time></trkpt><trkpt lat="35.4807348" lon="138.8580967"><ele>1181.3133333333333</ele><time>2024-03-31T03:43:09Z</time></trkpt><trkpt lat="35.4805756" lon="138.8579022"><ele>1183.09</ele><time>2024-03-31T03:43:15Z</time></trkpt><trkpt lat="35.4806558" lon="138.8576719"><ele>1176.88</ele><time>2024-03-31T03:43:27Z</time></trkpt><trkpt lat="35.4807152" lon="138.857436"><ele>1163.5166666666667</ele><time>2024-03-31T03:43:42Z</time></trkpt><trkpt lat="35.4808795" lon="138.8572582"><ele>1159.6233333333334</ele><time>2024-03-31T03:43:57Z</time></trkpt><trkpt lat="35.4809492" lon="138.8570439"><ele>1155.0833333333333</ele><time>2024-03-31T03:44:12Z</time></trkpt><trkpt lat="35.4809877" lon="138.8567836"><ele>1151.7033333333331</ele><time>2024-03-31T03:44:27Z</time></trkpt><trkpt lat="35.4811366" lon="138.856604"><ele>1148.8366666666668</ele><time>2024-03-31T03:44:41Z</time></trkpt><trkpt lat="35.4812575" lon="138.8564058"><ele>1147.41</ele><time>2024-03-31T03:44:56Z</time></trkpt><trkpt lat="35.4812427" lon="138.8561731"><ele>1145.9733333333334</ele><time>2024-03-31T03:45:10Z</time></trkpt><trkpt lat="35.4812883" lon="138.8559431"><ele>1142.32</ele><time>2024-03-31T03:45:21Z</time></trkpt><trkpt lat="35.4814351" lon="138.8557663"><ele>1140.9033333333334</ele><time>2024-03-31T03:45:36Z</time></trkpt><trkpt lat="35.4815253" lon="138.8555487"><ele>1141.2</ele><time>2024-03-31T03:45:56Z</time></trkpt><trkpt lat="35.4815155" lon="138.8553074"><ele>1142.09</ele><time>2024-03-31T03:46:05Z</time></trkpt><trkpt lat="35.4814501" lon="138.8550762"><ele>1137.0233333333335</ele><time>2024-03-31T03:46:21Z</time></trkpt><trkpt lat="35.4816305" lon="138.8549959"><ele>1131.0966666666668</ele><time>2024-03-31T03:46:43Z</time></trkpt><trkpt lat="35.4817778" lon="138.854815"><ele>1125.1499999999999</ele><time>2024-03-31T03:46:58Z</time></trkpt><trkpt lat="35.4818767" lon="138.8545935"><ele>1122.12</ele><time>2024-03-31T03:47:10Z</time></trkpt><trkpt lat="35.4817774" lon="138.8543416"><ele>1118.2666666666667</ele><time>2024-03-31T03:47:39Z</time></trkpt><trkpt lat="35.481734" lon="138.8540785"><ele>1115.006666666667</ele><time>2024-03-31T03:47:54Z</time></trkpt><trkpt lat="35.4816925" lon="138.8538618"><ele>1110.5533333333335</ele><time>2024-03-31T03:48:09Z</time></trkpt><trkpt lat="35.4816229" lon="138.8536313"><ele>1105.7233333333334</ele><time>2024-03-31T03:48:28Z</time></trkpt><trkpt lat="35.4814848" lon="138.8534484"><ele>1098.47</ele><time>2024-03-31T03:48:42Z</time></trkpt><trkpt lat="35.4813783" lon="138.8532599"><ele>1091.3300000000002</ele><time>2024-03-31T03:49:00Z</time></trkpt><trkpt lat="35.4813266" lon="138.8530467"><ele>1083.7033333333331</ele><time>2024-03-31T03:49:15Z</time></trkpt><trkpt lat="35.4811624" lon="138.8528768"><ele>1076.4833333333333</ele><time>2024-03-31T03:49:37Z</time></trkpt><trkpt lat="35.4809728" lon="138.8527864"><ele>1068.82</ele><time>2024-03-31T03:49:51Z</time></trkpt><trkpt lat="35.4808983" lon="138.8525734"><ele>1061.2366666666667</ele><time>2024-03-31T03:50:10Z</time></trkpt><trkpt lat="35.4807608" lon="138.8523884"><ele>1055.9866666666667</ele><time>2024-03-31T03:50:28Z</time></trkpt><trkpt lat="35.480583" lon="138.8522706"><ele>1050.8300000000002</ele><time>2024-03-31T03:50:52Z</time></trkpt><trkpt lat="35.4803771" lon="138.8522954"><ele>1045.46</ele><time>2024-03-31T03:51:13Z</time></trkpt><trkpt lat="35.4803729" lon="138.8520694"><ele>1040.2833333333333</ele><time>2024-03-31T03:51:36Z</time></trkpt><trkpt lat="35.4803921" lon="138.8518234"><ele>1037.87</ele><time>2024-03-31T03:51:51Z</time></trkpt><trkpt lat="35.4804897" lon="138.8515217"><ele>1037.13</ele><time>2024-03-31T03:52:27Z</time></trkpt><trkpt lat="35.4805243" lon="138.85128"><ele>1036.8833333333334</ele><time>2024-03-31T03:52:39Z</time></trkpt><trkpt lat="35.4804827" lon="138.8510575"><ele>1034.0766666666666</ele><time>2024-03-31T03:52:51Z</time></trkpt><trkpt lat="35.4804089" lon="138.8508335"><ele>1030.72</ele><time>2024-03-31T03:53:09Z</time></trkpt><trkpt lat="35.4802898" lon="138.8505853"><ele>1024.3</ele><time>2024-03-31T03:53:24Z</time></trkpt><trkpt lat="35.4802901" lon="138.8503563"><ele>1020.1333333333333</ele><time>2024-03-31T03:53:36Z</time></trkpt><trkpt lat="35.4802895" lon="138.8501298"><ele>1017.5666666666666</ele><time>2024-03-31T03:53:51Z</time></trkpt><trkpt lat="35.4802032" lon="138.8498997"><ele>1015.9</ele><time>2024-03-31T03:54:06Z</time></trkpt><trkpt lat="35.4802464" lon="138.8496851"><ele>1015.2133333333335</ele><time>2024-03-31T03:54:18Z</time></trkpt><trkpt lat="35.4802747" lon="138.8494202"><ele>1011.8466666666667</ele><time>2024-03-31T03:54:41Z</time></trkpt><trkpt lat="35.4802704" lon="138.8491782"><ele>1008.46</ele><time>2024-03-31T03:54:53Z</time></trkpt><trkpt lat="35.4802251" lon="138.8489451"><ele>1000.9733333333334</ele><time>2024-03-31T03:55:11Z</time></trkpt><trkpt lat="35.4804305" lon="138.8490482"><ele>995.8100000000001</ele><time>2024-03-31T03:55:23Z</time></trkpt><trkpt lat="35.480625" lon="138.8491228"><ele>991.7633333333333</ele><time>2024-03-31T03:55:41Z</time></trkpt><trkpt lat="35.480787" lon="138.8492803"><ele>991.7066666666666</ele><time>2024-03-31T03:56:02Z</time></trkpt><trkpt lat="35.4809305" lon="138.8491191"><ele>989.5366666666667</ele><time>2024-03-31T03:56:18Z</time></trkpt><trkpt lat="35.4810154" lon="138.8488917"><ele>991.4499999999999</ele><time>2024-03-31T03:56:33Z</time></trkpt><trkpt lat="35.4808266" lon="138.8487699"><ele>988.3933333333334</ele><time>2024-03-31T03:56:45Z</time></trkpt><trkpt lat="35.4807114" lon="138.848583"><ele>986.8733333333333</ele><time>2024-03-31T03:56:59Z</time></trkpt><trkpt lat="35.4805911" lon="138.8483793"><ele>981.73</ele><time>2024-03-31T03:57:21Z</time></trkpt><trkpt lat="35.4805173" lon="138.8481533"><ele>979.4200000000001</ele><time>2024-03-31T03:57:33Z</time></trkpt><trkpt lat="35.4804759" lon="138.8478852"><ele>977.2233333333334</ele><time>2024-03-31T03:57:54Z</time></trkpt><trkpt lat="35.4805446" lon="138.8476449"><ele>976.3233333333333</ele><time>2024-03-31T03:58:08Z</time></trkpt><trkpt lat="35.4806114" lon="138.8474014"><ele>976.8166666666667</ele><time>2024-03-31T03:58:23Z</time></trkpt><trkpt lat="35.4806581" lon="138.8471349"><ele>975.1466666666666</ele><time>2024-03-31T03:58:41Z</time></trkpt><trkpt lat="35.4806934" lon="138.8469071"><ele>971.7266666666668</ele><time>2024-03-31T03:58:56Z</time></trkpt><trkpt lat="35.4807474" lon="138.8466305"><ele>965.9766666666668</ele><time>2024-03-31T03:59:16Z</time></trkpt><trkpt lat="35.4807106" lon="138.8463768"><ele>959.77</ele><time>2024-03-31T03:59:28Z</time></trkpt><trkpt lat="35.4808495" lon="138.846192"><ele>953.4566666666666</ele><time>2024-03-31T03:59:46Z</time></trkpt><trkpt lat="35.480677" lon="138.8460434"><ele>947.2466666666668</ele><time>2024-03-31T04:00:12Z</time></trkpt><trkpt lat="35.4804887" lon="138.8460494"><ele>942.3866666666667</ele><time>2024-03-31T04:00:27Z</time></trkpt><trkpt lat="35.4804595" lon="138.8458297"><ele>938.2133333333335</ele><time>2024-03-31T04:00:42Z</time></trkpt><trkpt lat="35.4803839" lon="138.8455634"><ele>935.94</ele><time>2024-03-31T04:00:56Z</time></trkpt><trkpt lat="35.4804135" lon="138.84529"><ele>934.1233333333333</ele><time>2024-03-31T04:01:10Z</time></trkpt><trkpt lat="35.4804367" lon="138.8450274"><ele>932.23</ele><time>2024-03-31T04:01:25Z</time></trkpt><trkpt lat="35.4803779" lon="138.8447638"><ele>929.1266666666667</ele><time>2024-03-31T04:01:39Z</time></trkpt><trkpt lat="35.4802568" lon="138.8445868"><ele>926.4766666666666</ele><time>2024-03-31T04:01:57Z</time></trkpt><trkpt lat="35.4800837" lon="138.8444237"><ele>921.2633333333333</ele><time>2024-03-31T04:02:11Z</time></trkpt><trkpt lat="35.4800336" lon="138.8442031"><ele>917.66</ele><time>2024-03-31T04:02:23Z</time></trkpt><trkpt lat="35.4800395" lon="138.8439343"><ele>916.4066666666666</ele><time>2024-03-31T04:02:38Z</time></trkpt><trkpt lat="35.4799656" lon="138.8436963"><ele>917.2733333333332</ele><time>2024-03-31T04:02:53Z</time></trkpt><trkpt lat="35.4799012" lon="138.8434722"><ele>915.33</ele><time>2024-03-31T04:03:07Z</time></trkpt><trkpt lat="35.4798635" lon="138.8432135"><ele>911.4166666666666</ele><time>2024-03-31T04:03:28Z</time></trkpt><trkpt lat="35.4798918" lon="138.842994"><ele>908.0866666666667</ele><time>2024-03-31T04:03:40Z</time></trkpt><trkpt lat="35.4798205" lon="138.842756"><ele>906.1333333333333</ele><time>2024-03-31T04:03:51Z</time></trkpt><trkpt lat="35.4798747" lon="138.8425254"><ele>904.8633333333333</ele><time>2024-03-31T04:04:06Z</time></trkpt><trkpt lat="35.4800164" lon="138.8423399"><ele>902.7066666666666</ele><time>2024-03-31T04:04:20Z</time></trkpt><trkpt lat="35.4799737" lon="138.8420745"><ele>900.02</ele><time>2024-03-31T04:04:44Z</time></trkpt><trkpt lat="35.4799853" lon="138.8418534"><ele>896.5766666666667</ele><time>2024-03-31T04:04:59Z</time></trkpt><trkpt lat="35.479981" lon="138.8415885"><ele>891.39</ele><time>2024-03-31T04:05:14Z</time></trkpt><trkpt lat="35.4800707" lon="138.8413494"><ele>888.0633333333334</ele><time>2024-03-31T04:05:29Z</time></trkpt><trkpt lat="35.4800858" lon="138.8410896"><ele>885.6533333333333</ele><time>2024-03-31T04:05:40Z</time></trkpt><trkpt lat="35.4801219" lon="138.8408321"><ele>887.5666666666666</ele><time>2024-03-31T04:05:55Z</time></trkpt><trkpt lat="35.4800762" lon="138.8405716"><ele>888.8299999999999</ele><time>2024-03-31T04:06:10Z</time></trkpt><trkpt lat="35.4799899" lon="138.8403264"><ele>889.0633333333334</ele><time>2024-03-31T04:06:22Z</time></trkpt><trkpt lat="35.4798772" lon="138.8401105"><ele>885.63</ele><time>2024-03-31T04:06:36Z</time></trkpt><trkpt lat="35.4797777" lon="138.8399029"><ele>882.07</ele><time>2024-03-31T04:06:51Z</time></trkpt><trkpt lat="35.4796153" lon="138.8397422"><ele>879.0633333333334</ele><time>2024-03-31T04:07:08Z</time></trkpt><trkpt lat="35.4794787" lon="138.83954"><ele>878.4633333333335</ele><time>2024-03-31T04:07:23Z</time></trkpt><trkpt lat="35.4794363" lon="138.8393126"><ele>877.9033333333333</ele><time>2024-03-31T04:07:35Z</time></trkpt><trkpt lat="35.479314" lon="138.8391408"><ele>875.1700000000001</ele><time>2024-03-31T04:07:46Z</time></trkpt><trkpt lat="35.4791459" lon="138.8390216"><ele>871.0</ele><time>2024-03-31T04:07:58Z</time></trkpt><trkpt lat="35.4790447" lon="138.8388173"><ele>866.3166666666667</ele><time>2024-03-31T04:08:12Z</time></trkpt><trkpt lat="35.4789268" lon="138.8386218"><ele>862.8466666666667</ele><time>2024-03-31T04:08:26Z</time></trkpt><trkpt lat="35.4788453" lon="138.8384025"><ele>860.0033333333334</ele><time>2024-03-31T04:08:40Z</time></trkpt><trkpt lat="35.4788454" lon="138.8381419"><ele>858.2833333333334</ele><time>2024-03-31T04:08:55Z</time></trkpt><trkpt lat="35.4788059" lon="138.8378888"><ele>856.1533333333333</ele><time>2024-03-31T04:09:15Z</time></trkpt><trkpt lat="35.4787877" lon="138.83765"><ele>853.5366666666667</ele><time>2024-03-31T04:09:30Z</time></trkpt><trkpt lat="35.4787581" lon="138.8373897"><ele>850.2866666666667</ele><time>2024-03-31T04:09:44Z</time></trkpt><trkpt lat="35.4787643" lon="138.8371443"><ele>848.62</ele><time>2024-03-31T04:10:41Z</time></trkpt><trkpt lat="35.4787916" lon="138.8369065"><ele>848.6266666666667</ele><time>2024-03-31T04:10:56Z</time></trkpt><trkpt lat="35.4787808" lon="138.8366482"><ele>849.16</ele><time>2024-03-31T04:11:10Z</time></trkpt><trkpt lat="35.4786838" lon="138.8364066"><ele>846.4666666666667</ele><time>2024-03-31T04:11:25Z</time></trkpt><trkpt lat="35.4787729" lon="138.8361997"><ele>843.1466666666666</ele><time>2024-03-31T04:12:05Z</time></trkpt><trkpt lat="35.4786985" lon="138.8359655"><ele>837.2800000000001</ele><time>2024-03-31T04:12:20Z</time></trkpt><trkpt lat="35.4787278" lon="138.8357007"><ele>833.1466666666666</ele><time>2024-03-31T04:12:35Z</time></trkpt><trkpt lat="35.4788486" lon="138.835491"><ele>826.9200000000001</ele><time>2024-03-31T04:12:49Z</time></trkpt><trkpt lat="35.4789253" lon="138.8352556"><ele>822.0099999999999</ele><time>2024-03-31T04:13:07Z</time></trkpt><trkpt lat="35.4790113" lon="138.8350248"><ele>818.3633333333333</ele><time>2024-03-31T04:13:25Z</time></trkpt><trkpt lat="35.4791602" lon="138.8348729"><ele>817.1166666666667</ele><time>2024-03-31T04:13:40Z</time></trkpt><trkpt lat="35.4793048" lon="138.8347255"><ele>815.9500000000002</ele><time>2024-03-31T04:13:54Z</time></trkpt><trkpt lat="35.4793737" lon="138.8344969"><ele>813.2733333333332</ele><time>2024-03-31T04:14:06Z</time></trkpt><trkpt lat="35.4794698" lon="138.8342697"><ele>809.8166666666666</ele><time>2024-03-31T04:14:23Z</time></trkpt><trkpt lat="35.4795105" lon="138.8340244"><ele>806.8533333333334</ele><time>2024-03-31T04:14:38Z</time></trkpt><trkpt lat="35.4795824" lon="138.8338204"><ele>805.2666666666668</ele><time>2024-03-31T04:14:52Z</time></trkpt><trkpt lat="35.4797004" lon="138.8336204"><ele>802.8299999999999</ele><time>2024-03-31T04:15:10Z</time></trkpt><trkpt lat="35.4797464" lon="138.8333827"><ele>800.1866666666666</ele><time>2024-03-31T04:15:22Z</time></trkpt><trkpt lat="35.4799925" lon="138.8334318"><ele>798.3433333333332</ele><time>2024-03-31T04:15:30Z</time></trkpt><trkpt lat="35.4802021" lon="138.833372"><ele>798.48</ele><time>2024-03-31T04:15:48Z</time></trkpt><trkpt lat="35.4803065" lon="138.8331887"><ele>796.2266666666666</ele><time>2024-03-31T04:15:59Z</time></trkpt><trkpt lat="35.4803851" lon="138.8329754"><ele>793.2466666666666</ele><time>2024-03-31T04:16:14Z</time></trkpt><trkpt lat="35.4805244" lon="138.8327684"><ele>789.4433333333333</ele><time>2024-03-31T04:16:25Z</time></trkpt><trkpt lat="35.4805695" lon="138.8325447"><ele>788.3833333333333</ele><time>2024-03-31T04:16:37Z</time></trkpt><trkpt lat="35.4806361" lon="138.8323212"><ele>787.13</ele><time>2024-03-31T04:16:52Z</time></trkpt><trkpt lat="35.480818" lon="138.8321693"><ele>785.7666666666668</ele><time>2024-03-31T04:17:07Z</time></trkpt><trkpt lat="35.4810119" lon="138.832029"><ele>784.5333333333334</ele><time>2024-03-31T04:17:21Z</time></trkpt><trkpt lat="35.4812022" lon="138.8319048"><ele>783.7866666666665</ele><time>2024-03-31T04:17:36Z</time></trkpt><trkpt lat="35.48139" lon="138.8317748"><ele>782.9333333333334</ele><time>2024-03-31T04:17:53Z</time></trkpt><trkpt lat="35.4815634" lon="138.8316272"><ele>782.02</ele><time>2024-03-31T04:18:04Z</time></trkpt><trkpt lat="35.4817264" lon="138.831506"><ele>780.8933333333333</ele><time>2024-03-31T04:18:19Z</time></trkpt><trkpt lat="35.4818988" lon="138.8313501"><ele>780.3866666666667</ele><time>2024-03-31T04:18:30Z</time></trkpt><trkpt lat="35.4820888" lon="138.8313478"><ele>779.91</ele><time>2024-03-31T04:18:42Z</time></trkpt><trkpt lat="35.4822049" lon="138.8311634"><ele>779.68</ele><time>2024-03-31T04:19:02Z</time></trkpt><trkpt lat="35.4824063" lon="138.8310738"><ele>779.0166666666668</ele><time>2024-03-31T04:19:14Z</time></trkpt><trkpt lat="35.4824794" lon="138.8308514"><ele>778.6166666666667</ele><time>2024-03-31T04:19:32Z</time></trkpt><trkpt lat="35.4826922" lon="138.8306747"><ele>778.1166666666667</ele><time>2024-03-31T04:19:40Z</time></trkpt><trkpt lat="35.482884" lon="138.8306186"><ele>777.75</ele><time>2024-03-31T04:19:55Z</time></trkpt><trkpt lat="35.4830762" lon="138.8305061"><ele>777.3800000000001</ele><time>2024-03-31T04:20:10Z</time></trkpt><trkpt lat="35.4832495" lon="138.8304079"><ele>777.0033333333334</ele><time>2024-03-31T04:20:22Z</time></trkpt><trkpt lat="35.4834109" lon="138.8302209"><ele>776.6500000000001</ele><time>2024-03-31T04:20:36Z</time></trkpt><trkpt lat="35.4836282" lon="138.830275"><ele>776.1233333333333</ele><time>2024-03-31T04:20:48Z</time></trkpt><trkpt lat="35.483765" lon="138.8300709"><ele>775.3966666666666</ele><time>2024-03-31T04:21:05Z</time></trkpt><trkpt lat="35.4839559" lon="138.8299419"><ele>774.5866666666666</ele><time>2024-03-31T04:21:19Z</time></trkpt><trkpt lat="35.484145" lon="138.8298559"><ele>773.9333333333334</ele><time>2024-03-31T04:21:31Z</time></trkpt><trkpt lat="35.4843051" lon="138.82968"><ele>773.3933333333334</ele><time>2024-03-31T04:21:45Z</time></trkpt><trkpt lat="35.4845022" lon="138.8296724"><ele>773.0366666666667</ele><time>2024-03-31T04:22:00Z</time></trkpt><trkpt lat="35.4845863" lon="138.829441"><ele>772.5799999999999</ele><time>2024-03-31T04:22:13Z</time></trkpt><trkpt lat="35.4847653" lon="138.8293183"><ele>772.1966666666667</ele><time>2024-03-31T04:22:25Z</time></trkpt><trkpt lat="35.4849125" lon="138.8291581"><ele>771.5433333333334</ele><time>2024-03-31T04:22:37Z</time></trkpt><trkpt lat="35.4851136" lon="138.8291331"><ele>771.2400000000001</ele><time>2024-03-31T04:22:53Z</time></trkpt><trkpt lat="35.4853142" lon="138.8290079"><ele>770.9900000000001</ele><time>2024-03-31T04:23:07Z</time></trkpt><trkpt lat="35.4854409" lon="138.8288152"><ele>770.9900000000001</ele><time>2024-03-31T04:23:19Z</time></trkpt><trkpt lat="35.4856277" lon="138.8287818"><ele>770.6633333333333</ele><time>2024-03-31T04:23:31Z</time></trkpt><trkpt lat="35.4858344" lon="138.828883"><ele>770.3433333333334</ele><time>2024-03-31T04:23:47Z</time></trkpt><trkpt lat="35.4860272" lon="138.8287445"><ele>769.9666666666667</ele><time>2024-03-31T04:24:05Z</time></trkpt><trkpt lat="35.4862356" lon="138.8286421"><ele>769.6833333333334</ele><time>2024-03-31T04:24:20Z</time></trkpt><trkpt lat="35.4863837" lon="138.8284637"><ele>769.4066666666668</ele><time>2024-03-31T04:24:31Z</time></trkpt><trkpt lat="35.4865476" lon="138.8283658"><ele>769.1166666666667</ele><time>2024-03-31T04:24:43Z</time></trkpt><trkpt lat="35.4867046" lon="138.8282361"><ele>768.8766666666667</ele><time>2024-03-31T04:24:55Z</time></trkpt><trkpt lat="35.4867753" lon="138.8280023"><ele>768.64</ele><time>2024-03-31T04:25:06Z</time></trkpt><trkpt lat="35.4869041" lon="138.827788"><ele>768.36</ele><time>2024-03-31T04:25:24Z</time></trkpt><trkpt lat="35.4869271" lon="138.8275655"><ele>768.09</ele><time>2024-03-31T04:25:53Z</time></trkpt><trkpt lat="35.4870627" lon="138.8273954"><ele>767.8533333333334</ele><time>2024-03-31T04:26:08Z</time></trkpt><trkpt lat="35.487175" lon="138.8271938"><ele>767.6466666666666</ele><time>2024-03-31T04:26:20Z</time></trkpt><trkpt lat="35.4872821" lon="138.8270046"><ele>767.4266666666667</ele><time>2024-03-31T04:26:32Z</time></trkpt><trkpt lat="35.4874207" lon="138.8268588"><ele>767.2066666666666</ele><time>2024-03-31T04:26:40Z</time></trkpt><trkpt lat="35.4875048" lon="138.8266575"><ele>766.9533333333334</ele><time>2024-03-31T04:26:55Z</time></trkpt><trkpt lat="35.4875166" lon="138.8264164"><ele>766.6933333333333</ele><time>2024-03-31T04:27:13Z</time></trkpt><trkpt lat="35.4875839" lon="138.8261503"><ele>766.4433333333333</ele><time>2024-03-31T04:27:32Z</time></trkpt><trkpt lat="35.4876631" lon="138.8259231"><ele>766.2133333333335</ele><time>2024-03-31T04:27:44Z</time></trkpt><trkpt lat="35.4876983" lon="138.8256897"><ele>766.0133333333333</ele><time>2024-03-31T04:27:59Z</time></trkpt><trkpt lat="35.4878094" lon="138.8254929"><ele>765.7900000000001</ele><time>2024-03-31T04:28:13Z</time></trkpt><trkpt lat="35.4877782" lon="138.8252757"><ele>765.6066666666667</ele><time>2024-03-31T04:28:25Z</time></trkpt><trkpt lat="35.4877923" lon="138.8250119"><ele>765.35</ele><time>2024-03-31T04:28:37Z</time></trkpt><trkpt lat="35.4877526" lon="138.8247455"><ele>765.1466666666666</ele><time>2024-03-31T04:28:52Z</time></trkpt><trkpt lat="35.4877947" lon="138.8245172"><ele>764.8333333333334</ele><time>2024-03-31T04:29:06Z</time></trkpt><trkpt lat="35.4878173" lon="138.8242476"><ele>764.52</ele><time>2024-03-31T04:29:21Z</time></trkpt><trkpt lat="35.4878103" lon="138.8239956"><ele>764.1433333333333</ele><time>2024-03-31T04:29:32Z</time></trkpt><trkpt lat="35.4878705" lon="138.8237085"><ele>763.8233333333334</ele><time>2024-03-31T04:29:44Z</time></trkpt><trkpt lat="35.4878193" lon="138.8234763"><ele>763.54</ele><time>2024-03-31T04:29:56Z</time></trkpt><trkpt lat="35.4878381" lon="138.8232127"><ele>763.2733333333332</ele><time>2024-03-31T04:30:10Z</time></trkpt><trkpt lat="35.4877964" lon="138.822981"><ele>763.0</ele><time>2024-03-31T04:30:31Z</time></trkpt><trkpt lat="35.4877469" lon="138.8227298"><ele>762.75</ele><time>2024-03-31T04:30:37Z</time></trkpt><trkpt lat="35.487681" lon="138.8224942"><ele>762.5333333333333</ele><time>2024-03-31T04:31:03Z</time></trkpt><trkpt lat="35.4877572" lon="138.8222869"><ele>762.3800000000001</ele><time>2024-03-31T04:31:15Z</time></trkpt><trkpt lat="35.4876548" lon="138.8220694"><ele>762.3299999999999</ele><time>2024-03-31T04:31:24Z</time></trkpt><trkpt lat="35.487675" lon="138.8218122"><ele>762.3266666666667</ele><time>2024-03-31T04:31:38Z</time></trkpt><trkpt lat="35.4877823" lon="138.8216148"><ele>762.3266666666667</ele><time>2024-03-31T04:31:56Z</time></trkpt><trkpt lat="35.4878469" lon="138.8213813"><ele>762.2466666666668</ele><time>2024-03-31T04:32:11Z</time></trkpt><trkpt lat="35.4879152" lon="138.8211508"><ele>762.0866666666666</ele><time>2024-03-31T04:32:25Z</time></trkpt><trkpt lat="35.4880078" lon="138.8209338"><ele>761.8533333333334</ele><time>2024-03-31T04:32:37Z</time></trkpt><trkpt lat="35.4882005" lon="138.8208029"><ele>761.5366666666665</ele><time>2024-03-31T04:33:50Z</time></trkpt><trkpt lat="35.4880445" lon="138.8206007"><ele>761.36</ele><time>2024-03-31T04:34:01Z</time></trkpt><trkpt lat="35.4880999" lon="138.8203552"><ele>761.2133333333333</ele><time>2024-03-31T04:34:13Z</time></trkpt><trkpt lat="35.4882077" lon="138.820125"><ele>761.1133333333333</ele><time>2024-03-31T04:34:38Z</time></trkpt><trkpt lat="35.4883815" lon="138.8199566"><ele>760.8033333333333</ele><time>2024-03-31T04:34:50Z</time></trkpt><trkpt lat="35.4884985" lon="138.8197692"><ele>760.5133333333333</ele><time>2024-03-31T04:35:05Z</time></trkpt><trkpt lat="35.4886079" lon="138.8195698"><ele>760.2666666666668</ele><time>2024-03-31T04:35:19Z</time></trkpt><trkpt lat="35.4885837" lon="138.8193194"><ele>760.25</ele><time>2024-03-31T04:35:34Z</time></trkpt><trkpt lat="35.4886578" lon="138.819078"><ele>760.3166666666666</ele><time>2024-03-31T04:35:55Z</time></trkpt><trkpt lat="35.4887002" lon="138.8187571"><ele>760.4566666666666</ele><time>2024-03-31T04:36:04Z</time></trkpt><trkpt lat="35.4887943" lon="138.8185243"><ele>760.5300000000001</ele><time>2024-03-31T04:36:22Z</time></trkpt><trkpt lat="35.4889558" lon="138.818391"><ele>760.5500000000001</ele><time>2024-03-31T04:36:34Z</time></trkpt><trkpt lat="35.4889897" lon="138.818121"><ele>760.5433333333334</ele><time>2024-03-31T04:36:52Z</time></trkpt><trkpt lat="35.4890399" lon="138.8178723"><ele>760.6033333333334</ele><time>2024-03-31T04:37:07Z</time></trkpt><trkpt lat="35.4891952" lon="138.8176743"><ele>760.56</ele><time>2024-03-31T04:37:18Z</time></trkpt><trkpt lat="35.4893007" lon="138.8174503"><ele>760.5499999999998</ele><time>2024-03-31T04:37:34Z</time></trkpt><trkpt lat="35.4892648" lon="138.817199"><ele>760.5366666666665</ele><time>2024-03-31T04:37:51Z</time></trkpt><trkpt lat="35.489423" lon="138.8170695"><ele>760.5766666666667</ele><time>2024-03-31T04:38:01Z</time></trkpt><trkpt lat="35.489546" lon="138.8168453"><ele>760.5366666666667</ele><time>2024-03-31T04:38:12Z</time></trkpt><trkpt lat="35.4897191" lon="138.8167814"><ele>760.3299999999999</ele><time>2024-03-31T04:38:24Z</time></trkpt><trkpt lat="35.4897131" lon="138.8165561"><ele>760.2866666666667</ele><time>2024-03-31T04:38:36Z</time></trkpt><trkpt lat="35.4898343" lon="138.8163291"><ele>760.1999999999999</ele><time>2024-03-31T04:38:48Z</time></trkpt><trkpt lat="35.4899642" lon="138.8161724"><ele>760.1133333333333</ele><time>2024-03-31T04:39:00Z</time></trkpt><trkpt lat="35.4900738" lon="138.8159681"><ele>759.8266666666667</ele><time>2024-03-31T04:39:12Z</time></trkpt><trkpt lat="35.490209" lon="138.8157606"><ele>759.5799999999999</ele><time>2024-03-31T04:39:26Z</time></trkpt><trkpt lat="35.490354" lon="138.8156276"><ele>759.2833333333334</ele><time>2024-03-31T04:39:50Z</time></trkpt><trkpt lat="35.4904645" lon="138.8154107"><ele>758.8833333333333</ele><time>2024-03-31T04:40:02Z</time></trkpt><trkpt lat="35.4905707" lon="138.8152096"><ele>758.3033333333333</ele><time>2024-03-31T04:40:10Z</time></trkpt><trkpt lat="35.4906836" lon="138.8150136"><ele>757.5433333333334</ele><time>2024-03-31T04:40:26Z</time></trkpt><trkpt lat="35.4908561" lon="138.8148525"><ele>756.69</ele><time>2024-03-31T04:40:52Z</time></trkpt><trkpt lat="35.4909566" lon="138.8146115"><ele>755.6700000000001</ele><time>2024-03-31T04:41:04Z</time></trkpt><trkpt lat="35.4910705" lon="138.814418"><ele>754.8033333333334</ele><time>2024-03-31T04:41:16Z</time></trkpt><trkpt lat="35.4911803" lon="138.8141654"><ele>753.9766666666668</ele><time>2024-03-31T04:41:31Z</time></trkpt><trkpt lat="35.4910599" lon="138.8139512"><ele>753.44</ele><time>2024-03-31T04:41:46Z</time></trkpt><trkpt lat="35.4912646" lon="138.8138526"><ele>752.71</ele><time>2024-03-31T04:42:29Z</time></trkpt><trkpt lat="35.4914377" lon="138.8137577"><ele>751.9933333333333</ele><time>2024-03-31T04:42:50Z</time></trkpt><trkpt lat="35.4915752" lon="138.8139393"><ele>751.4900000000001</ele><time>2024-03-31T04:43:02Z</time></trkpt><trkpt lat="35.4917621" lon="138.8137668"><ele>751.0566666666667</ele><time>2024-03-31T04:43:19Z</time></trkpt><trkpt lat="35.4915126" lon="138.813739"><ele>751.0133333333333</ele><time>2024-03-31T04:45:37Z</time></trkpt><trkpt lat="35.4915912" lon="138.8134074"><ele>749.7200000000001</ele><time>2024-03-31T04:46:33Z</time></trkpt><trkpt lat="35.4916106" lon="138.8131213"><ele>748.1866666666666</ele><time>2024-03-31T04:46:39Z</time></trkpt><trkpt lat="35.4917312" lon="138.8129334"><ele>747.0</ele><time>2024-03-31T04:47:00Z</time></trkpt><trkpt lat="35.4918361" lon="138.8126954"><ele>747.1533333333333</ele><time>2024-03-31T04:47:18Z</time></trkpt><trkpt lat="35.4918883" lon="138.8124583"><ele>748.0133333333333</ele><time>2024-03-31T04:47:30Z</time></trkpt><trkpt lat="35.4920292" lon="138.8122363"><ele>748.2533333333334</ele><time>2024-03-31T04:47:41Z</time></trkpt><trkpt lat="35.4921019" lon="138.8120132"><ele>748.16</ele><time>2024-03-31T04:47:59Z</time></trkpt><trkpt lat="35.4921884" lon="138.8117664"><ele>747.6333333333333</ele><time>2024-03-31T04:48:14Z</time></trkpt><trkpt lat="35.4922322" lon="138.8115411"><ele>747.8266666666667</ele><time>2024-03-31T04:48:28Z</time></trkpt><trkpt lat="35.4923368" lon="138.8113033"><ele>748.0300000000001</ele><time>2024-03-31T04:48:40Z</time></trkpt><trkpt lat="35.4923519" lon="138.8110588"><ele>748.5600000000001</ele><time>2024-03-31T04:48:54Z</time></trkpt><trkpt lat="35.4925322" lon="138.8111532"><ele>748.3100000000001</ele><time>2024-03-31T04:48:57Z</time></trkpt><trkpt lat="35.4925172" lon="138.8108702"><ele>748.3366666666667</ele><time>2024-03-31T04:49:12Z</time></trkpt><trkpt lat="35.4924245" lon="138.8106618"><ele>748.3666666666668</ele><time>2024-03-31T04:49:20Z</time></trkpt><trkpt lat="35.492454" lon="138.8104437"><ele>748.68</ele><time>2024-03-31T04:49:32Z</time></trkpt><trkpt lat="35.492391" lon="138.8102063"><ele>749.0233333333332</ele><time>2024-03-31T04:49:44Z</time></trkpt><trkpt lat="35.4923398" lon="138.8099561"><ele>749.6733333333333</ele><time>2024-03-31T04:49:58Z</time></trkpt><trkpt lat="35.4923515" lon="138.8097083"><ele>750.5066666666667</ele><time>2024-03-31T04:50:10Z</time></trkpt><trkpt lat="35.4923476" lon="138.8094863"><ele>751.4499999999999</ele><time>2024-03-31T04:50:22Z</time></trkpt><trkpt lat="35.4923798" lon="138.8092095"><ele>752.0566666666667</ele><time>2024-03-31T04:50:40Z</time></trkpt><trkpt lat="35.492479" lon="138.8089935"><ele>752.1133333333333</ele><time>2024-03-31T04:51:20Z</time></trkpt><trkpt lat="35.4924546" lon="138.8087067"><ele>751.9133333333333</ele><time>2024-03-31T04:51:35Z</time></trkpt><trkpt lat="35.4924305" lon="138.8084666"><ele>751.6933333333333</ele><time>2024-03-31T04:51:50Z</time></trkpt><trkpt lat="35.4924889" lon="138.8082258"><ele>751.8133333333334</ele><time>2024-03-31T04:52:02Z</time></trkpt><trkpt lat="35.4925038" lon="138.8079968"><ele>752.0633333333334</ele><time>2024-03-31T04:52:14Z</time></trkpt><trkpt lat="35.4925373" lon="138.8077364"><ele>752.4500000000002</ele><time>2024-03-31T04:52:28Z</time></trkpt><trkpt lat="35.4926256" lon="138.8075181"><ele>752.4766666666668</ele><time>2024-03-31T04:52:40Z</time></trkpt><trkpt lat="35.4925409" lon="138.8072848"><ele>752.4433333333333</ele><time>2024-03-31T04:52:52Z</time></trkpt><trkpt lat="35.4925876" lon="138.8070632"><ele>752.2633333333333</ele><time>2024-03-31T04:53:03Z</time></trkpt><trkpt lat="35.4926877" lon="138.8068633"><ele>752.38</ele><time>2024-03-31T04:53:12Z</time></trkpt><trkpt lat="35.4926948" lon="138.806616"><ele>752.6066666666667</ele><time>2024-03-31T04:53:33Z</time></trkpt><trkpt lat="35.4927447" lon="138.806377"><ele>752.98</ele><time>2024-03-31T04:53:47Z</time></trkpt><trkpt lat="35.4927275" lon="138.8061266"><ele>753.5266666666666</ele><time>2024-03-31T04:53:59Z</time></trkpt><trkpt lat="35.492772" lon="138.8058776"><ele>753.9366666666666</ele><time>2024-03-31T04:54:16Z</time></trkpt><trkpt lat="35.4927987" lon="138.8056454"><ele>754.2866666666667</ele><time>2024-03-31T04:54:25Z</time></trkpt><trkpt lat="35.4928332" lon="138.8053956"><ele>754.4833333333335</ele><time>2024-03-31T04:54:43Z</time></trkpt><trkpt lat="35.4928282" lon="138.8051434"><ele>754.69</ele><time>2024-03-31T04:55:01Z</time></trkpt><trkpt lat="35.4929023" lon="138.8048719"><ele>754.85</ele><time>2024-03-31T04:55:13Z</time></trkpt><trkpt lat="35.4930101" lon="138.8046314"><ele>755.0</ele><time>2024-03-31T04:55:44Z</time></trkpt><trkpt lat="35.4929147" lon="138.8044401"><ele>755.2399999999999</ele><time>2024-03-31T04:55:56Z</time></trkpt><trkpt lat="35.4931445" lon="138.8042474"><ele>755.25</ele><time>2024-03-31T04:56:26Z</time></trkpt><trkpt lat="35.4933351" lon="138.80411"><ele>755.0433333333334</ele><time>2024-03-31T04:57:11Z</time></trkpt><trkpt lat="35.4935226" lon="138.8040966"><ele>754.4066666666668</ele><time>2024-03-31T04:57:23Z</time></trkpt><trkpt lat="35.4937021" lon="138.8041211"><ele>753.7566666666667</ele><time>2024-03-31T04:57:38Z</time></trkpt><trkpt lat="35.4938794" lon="138.8041897"><ele>753.15</ele><time>2024-03-31T04:57:52Z</time></trkpt><trkpt lat="35.4938676" lon="138.803958"><ele>753.0533333333333</ele><time>2024-03-31T04:58:28Z</time></trkpt><trkpt lat="35.494007" lon="138.8037546"><ele>753.29</ele><time>2024-03-31T04:58:50Z</time></trkpt><trkpt lat="35.49418" lon="138.8039122"><ele>753.4766666666666</ele><time>2024-03-31T04:58:59Z</time></trkpt><trkpt lat="35.4943561" lon="138.8037661"><ele>753.3266666666667</ele><time>2024-03-31T04:59:14Z</time></trkpt><trkpt lat="35.4944225" lon="138.8035088"><ele>753.1333333333333</ele><time>2024-03-31T04:59:29Z</time></trkpt><trkpt lat="35.4945906" lon="138.8033815"><ele>753.3866666666667</ele><time>2024-03-31T04:59:44Z</time></trkpt><trkpt lat="35.4947661" lon="138.8032859"><ele>753.8333333333334</ele><time>2024-03-31T04:59:58Z</time></trkpt><trkpt lat="35.4949434" lon="138.8034448"><ele>754.0433333333334</ele><time>2024-03-31T05:00:13Z</time></trkpt><trkpt lat="35.4950484" lon="138.8036259"><ele>753.8000000000001</ele><time>2024-03-31T05:00:26Z</time></trkpt><trkpt lat="35.4950571" lon="138.8038649"><ele>753.0533333333334</ele><time>2024-03-31T05:01:11Z</time></trkpt><trkpt lat="35.4952458" lon="138.8039892"><ele>752.4166666666666</ele><time>2024-03-31T05:01:23Z</time></trkpt><trkpt lat="35.495422" lon="138.8038492"><ele>752.2466666666666</ele><time>2024-03-31T05:01:48Z</time></trkpt><trkpt lat="35.495604" lon="138.8037529"><ele>752.7566666666667</ele><time>2024-03-31T05:02:03Z</time></trkpt><trkpt lat="35.4957637" lon="138.8036039"><ele>753.21</ele><time>2024-03-31T05:02:15Z</time></trkpt><trkpt lat="35.4959272" lon="138.8034732"><ele>753.3733333333333</ele><time>2024-03-31T05:02:29Z</time></trkpt><trkpt lat="35.4961078" lon="138.80332"><ele>753.34</ele><time>2024-03-31T05:02:41Z</time></trkpt><trkpt lat="35.4962835" lon="138.8032529"><ele>753.3800000000001</ele><time>2024-03-31T05:02:55Z</time></trkpt><trkpt lat="35.4964777" lon="138.8032536"><ele>753.4566666666666</ele><time>2024-03-31T05:03:07Z</time></trkpt><trkpt lat="35.4966586" lon="138.8033248"><ele>753.4166666666666</ele><time>2024-03-31T05:03:25Z</time></trkpt><trkpt lat="35.4968596" lon="138.8032655"><ele>753.3566666666666</ele><time>2024-03-31T05:03:36Z</time></trkpt><trkpt lat="35.4970639" lon="138.8032448"><ele>753.3133333333334</ele><time>2024-03-31T05:03:54Z</time></trkpt><trkpt lat="35.4972813" lon="138.8032229"><ele>753.3233333333333</ele><time>2024-03-31T05:04:08Z</time></trkpt><trkpt lat="35.4975045" lon="138.8031581"><ele>753.32</ele><time>2024-03-31T05:04:34Z</time></trkpt><trkpt lat="35.4977066" lon="138.8031836"><ele>753.3033333333333</ele><time>2024-03-31T05:04:49Z</time></trkpt></trkseg></trk></gpx>