<?xml version='1.0' encoding='UTF-8'?><gpx creator="YAMAP - https://yamap.com" xsi:schemaLocation="http://www.topografix.com/GPX/1/1 http://www.topografix.com/GPX/1/1/gpx.xsd" version="1.1" xmlns="http://www.topografix.com/GPX/1/1" xmlns:xsi="http://www.w3.org/2001/XMLSchema-instance"><metadata><bounds maxlat="35.873575" maxlon="139.2097885" minlat="35.8077512" minlon="139.1552976"/></metadata><trk><name>棒ノ嶺（棒ノ折山）・黒山・逆川ノ丸・興越山・岩茸石山・高水山</name><number>1</number><trkseg><trkpt lat="35.8729252" lon="139.1835232"><ele>253.3</ele><time>2023-03-10T23:35:03Z</time></trkpt><trkpt lat="35.8731207" lon="139.1834974"><ele>253.15</ele><time>2023-03-10T23:35:15Z</time></trkpt><trkpt lat="35.8731929" lon="139.1832863"><ele>253.80333333333337</ele><time>2023-03-10T23:35:29Z</time></trkpt><trkpt lat="35.8733853" lon="139.1832457"><ele>254.60333333333335</ele><time>2023-03-10T23:35:40Z</time></trkpt><trkpt lat="35.8734575" lon="139.183042"><ele>256.22333333333336</ele><time>2023-03-10T23:36:04Z</time></trkpt><trkpt lat="35.8733993" lon="139.1828075"><ele>257.3333333333333</ele><time>2023-03-10T23:36:12Z</time></trkpt><trkpt lat="35.8733203" lon="139.1825716"><ele>259.8566666666666</ele><time>2023-03-10T23:36:24Z</time></trkpt><trkpt lat="35.8732804" lon="139.1823477"><ele>262.91</ele><time>2023-03-10T23:36:38Z</time></trkpt><trkpt lat="35.8731492" lon="139.1821645"><ele>265.94666666666666</ele><time>2023-03-10T23:36:59Z</time></trkpt><trkpt lat="35.8730805" lon="139.1819547"><ele>268.09999999999997</ele><time>2023-03-10T23:37:08Z</time></trkpt><trkpt lat="35.8730063" lon="139.18175"><ele>272.2633333333333</ele><time>2023-03-10T23:37:21Z</time></trkpt><trkpt lat="35.8729189" lon="139.1815523"><ele>279.41333333333336</ele><time>2023-03-10T23:37:34Z</time></trkpt><trkpt lat="35.8727854" lon="139.1814028"><ele>287.01666666666665</ele><time>2023-03-10T23:37:48Z</time></trkpt><trkpt lat="35.8726366" lon="139.1812535"><ele>286.74666666666667</ele><time>2023-03-10T23:38:03Z</time></trkpt><trkpt lat="35.8724945" lon="139.1811125"><ele>283.1466666666667</ele><time>2023-03-10T23:38:23Z</time></trkpt><trkpt lat="35.8724244" lon="139.1808986"><ele>284.93</ele><time>2023-03-10T23:38:36Z</time></trkpt><trkpt lat="35.8722986" lon="139.1807382"><ele>291.4866666666666</ele><time>2023-03-10T23:38:51Z</time></trkpt><trkpt lat="35.8721474" lon="139.1806144"><ele>295.1466666666667</ele><time>2023-03-10T23:39:05Z</time></trkpt><trkpt lat="35.8719863" lon="139.1804904"><ele>292.6666666666667</ele><time>2023-03-10T23:39:21Z</time></trkpt><trkpt lat="35.8719223" lon="139.1802771"><ele>291.12333333333333</ele><time>2023-03-10T23:39:33Z</time></trkpt><trkpt lat="35.8718957" lon="139.1800578"><ele>292.8066666666667</ele><time>2023-03-10T23:39:46Z</time></trkpt><trkpt lat="35.8719738" lon="139.1798522"><ele>294.41</ele><time>2023-03-10T23:40:05Z</time></trkpt><trkpt lat="35.8720935" lon="139.1796848"><ele>298.04</ele><time>2023-03-10T23:40:26Z</time></trkpt><trkpt lat="35.872244" lon="139.1795429"><ele>303.7366666666667</ele><time>2023-03-10T23:40:40Z</time></trkpt><trkpt lat="35.872302" lon="139.1793303"><ele>307.2033333333334</ele><time>2023-03-10T23:40:56Z</time></trkpt><trkpt lat="35.8724403" lon="139.1791818"><ele>307.77</ele><time>2023-03-10T23:41:13Z</time></trkpt><trkpt lat="35.8725747" lon="139.179024"><ele>308.1433333333334</ele><time>2023-03-10T23:41:31Z</time></trkpt><trkpt lat="35.8726967" lon="139.1788428"><ele>310.46666666666664</ele><time>2023-03-10T23:41:41Z</time></trkpt><trkpt lat="35.8728747" lon="139.1787836"><ele>313.67</ele><time>2023-03-10T23:41:54Z</time></trkpt><trkpt lat="35.873054" lon="139.1787303"><ele>315.3333333333333</ele><time>2023-03-10T23:42:16Z</time></trkpt><trkpt lat="35.8731888" lon="139.1785756"><ele>318.2966666666667</ele><time>2023-03-10T23:42:31Z</time></trkpt><trkpt lat="35.8733708" lon="139.1785262"><ele>323.33</ele><time>2023-03-10T23:42:47Z</time></trkpt><trkpt lat="35.873443" lon="139.1783223"><ele>326.02666666666664</ele><time>2023-03-10T23:43:02Z</time></trkpt><trkpt lat="35.873575" lon="139.1781665"><ele>327.6066666666666</ele><time>2023-03-10T23:43:15Z</time></trkpt><trkpt lat="35.8734828" lon="139.1779698"><ele>324.8433333333333</ele><time>2023-03-10T23:43:31Z</time></trkpt><trkpt lat="35.8734119" lon="139.1777632"><ele>323.41</ele><time>2023-03-10T23:43:52Z</time></trkpt><trkpt lat="35.8732408" lon="139.1776263"><ele>321.63000000000005</ele><time>2023-03-10T23:44:01Z</time></trkpt><trkpt lat="35.8730564" lon="139.1775206"><ele>321.04333333333335</ele><time>2023-03-10T23:44:12Z</time></trkpt><trkpt lat="35.872895" lon="139.1773965"><ele>321.0866666666667</ele><time>2023-03-10T23:44:21Z</time></trkpt><trkpt lat="35.8727598" lon="139.1772218"><ele>321.06666666666666</ele><time>2023-03-10T23:44:37Z</time></trkpt><trkpt lat="35.8726359" lon="139.1770577"><ele>320.8233333333333</ele><time>2023-03-10T23:44:46Z</time></trkpt><trkpt lat="35.8724514" lon="139.1770446"><ele>320.63</ele><time>2023-03-10T23:45:00Z</time></trkpt><trkpt lat="35.8722968" lon="139.1769221"><ele>320.4066666666667</ele><time>2023-03-10T23:45:17Z</time></trkpt><trkpt lat="35.8721102" lon="139.1768906"><ele>320.6433333333334</ele><time>2023-03-10T23:45:26Z</time></trkpt><trkpt lat="35.8719375" lon="139.1768173"><ele>320.74</ele><time>2023-03-10T23:45:37Z</time></trkpt><trkpt lat="35.8717559" lon="139.1767569"><ele>321.13666666666666</ele><time>2023-03-10T23:45:50Z</time></trkpt><trkpt lat="35.871665" lon="139.1765594"><ele>321.7766666666667</ele><time>2023-03-10T23:46:00Z</time></trkpt><trkpt lat="35.8716236" lon="139.1763365"><ele>323.6333333333333</ele><time>2023-03-10T23:46:15Z</time></trkpt><trkpt lat="35.8718125" lon="139.1762799"><ele>325.3</ele><time>2023-03-10T23:46:22Z</time></trkpt><trkpt lat="35.8719888" lon="139.1761879"><ele>329.7633333333333</ele><time>2023-03-10T23:46:33Z</time></trkpt><trkpt lat="35.8721332" lon="139.1760312"><ele>333.62000000000006</ele><time>2023-03-10T23:46:49Z</time></trkpt><trkpt lat="35.872285" lon="139.1758848"><ele>336.57666666666665</ele><time>2023-03-10T23:47:01Z</time></trkpt><trkpt lat="35.8723641" lon="139.1756852"><ele>334.25333333333333</ele><time>2023-03-10T23:47:15Z</time></trkpt><trkpt lat="35.872234" lon="139.1755211"><ele>333.19</ele><time>2023-03-10T23:47:28Z</time></trkpt><trkpt lat="35.8720798" lon="139.1753943"><ele>338.2333333333333</ele><time>2023-03-10T23:47:39Z</time></trkpt><trkpt lat="35.8720415" lon="139.1751613"><ele>345.35999999999996</ele><time>2023-03-10T23:47:50Z</time></trkpt><trkpt lat="35.872162" lon="139.1749929"><ele>345.84</ele><time>2023-03-10T23:47:59Z</time></trkpt><trkpt lat="35.8721968" lon="139.1747594"><ele>340.7966666666667</ele><time>2023-03-10T23:48:14Z</time></trkpt><trkpt lat="35.8721141" lon="139.1745566"><ele>334.85</ele><time>2023-03-10T23:48:29Z</time></trkpt><trkpt lat="35.8719366" lon="139.174613"><ele>334.02</ele><time>2023-03-10T23:48:38Z</time></trkpt><trkpt lat="35.8717621" lon="139.1745272"><ele>333.47999999999996</ele><time>2023-03-10T23:48:47Z</time></trkpt><trkpt lat="35.8715783" lon="139.1744848"><ele>334.4033333333333</ele><time>2023-03-10T23:49:01Z</time></trkpt><trkpt lat="35.8714272" lon="139.1743439"><ele>334.24333333333334</ele><time>2023-03-10T23:49:15Z</time></trkpt><trkpt lat="35.8713327" lon="139.174116"><ele>332.3666666666667</ele><time>2023-03-10T23:49:37Z</time></trkpt><trkpt lat="35.8713046" lon="139.1738956"><ele>327.49333333333334</ele><time>2023-03-10T23:49:46Z</time></trkpt><trkpt lat="35.8712396" lon="139.1736789"><ele>323.10999999999996</ele><time>2023-03-10T23:49:59Z</time></trkpt><trkpt lat="35.8710718" lon="139.1735737"><ele>323.47666666666663</ele><time>2023-03-10T23:50:11Z</time></trkpt><trkpt lat="35.8709304" lon="139.1734288"><ele>324.48</ele><time>2023-03-10T23:50:22Z</time></trkpt><trkpt lat="35.8708142" lon="139.1732437"><ele>326.16333333333336</ele><time>2023-03-10T23:50:33Z</time></trkpt><trkpt lat="35.8706984" lon="139.173053"><ele>322.8633333333333</ele><time>2023-03-10T23:50:47Z</time></trkpt><trkpt lat="35.8705451" lon="139.1729162"><ele>320.9633333333333</ele><time>2023-03-10T23:51:01Z</time></trkpt><trkpt lat="35.8703966" lon="139.1727755"><ele>318.6066666666666</ele><time>2023-03-10T23:51:12Z</time></trkpt><trkpt lat="35.8702447" lon="139.172637"><ele>317.8533333333333</ele><time>2023-03-10T23:51:24Z</time></trkpt><trkpt lat="35.8700584" lon="139.1726372"><ele>319.2</ele><time>2023-03-10T23:51:37Z</time></trkpt><trkpt lat="35.8698743" lon="139.172664"><ele>325.43666666666667</ele><time>2023-03-10T23:51:49Z</time></trkpt><trkpt lat="35.8698767" lon="139.1724201"><ele>325.50333333333333</ele><time>2023-03-10T23:52:00Z</time></trkpt><trkpt lat="35.869984" lon="139.1722312"><ele>325.46999999999997</ele><time>2023-03-10T23:52:11Z</time></trkpt><trkpt lat="35.8698288" lon="139.1720855"><ele>322.34</ele><time>2023-03-10T23:53:13Z</time></trkpt><trkpt lat="35.8697107" lon="139.171904"><ele>330.56333333333333</ele><time>2023-03-10T23:53:43Z</time></trkpt><trkpt lat="35.8696947" lon="139.1716754"><ele>342.01000000000005</ele><time>2023-03-10T23:54:34Z</time></trkpt><trkpt lat="35.8695392" lon="139.1715585"><ele>353.6133333333334</ele><time>2023-03-10T23:54:52Z</time></trkpt><trkpt lat="35.8695605" lon="139.171318"><ele>363.16</ele><time>2023-03-10T23:55:38Z</time></trkpt><trkpt lat="35.8694581" lon="139.1711356"><ele>368.93</ele><time>2023-03-10T23:55:48Z</time></trkpt><trkpt lat="35.869367" lon="139.1709382"><ele>372.9666666666667</ele><time>2023-03-10T23:56:08Z</time></trkpt><trkpt lat="35.8693161" lon="139.1707051"><ele>375.9666666666667</ele><time>2023-03-10T23:57:16Z</time></trkpt><trkpt lat="35.8692037" lon="139.1705286"><ele>379.1266666666667</ele><time>2023-03-10T23:57:25Z</time></trkpt><trkpt lat="35.8690342" lon="139.1704347"><ele>383.1933333333333</ele><time>2023-03-10T23:57:47Z</time></trkpt><trkpt lat="35.8688706" lon="139.1703371"><ele>387.6166666666666</ele><time>2023-03-10T23:58:18Z</time></trkpt><trkpt lat="35.8686876" lon="139.1703323"><ele>390.18666666666667</ele><time>2023-03-10T23:58:39Z</time></trkpt><trkpt lat="35.8685028" lon="139.1702896"><ele>390.1133333333334</ele><time>2023-03-10T23:58:49Z</time></trkpt><trkpt lat="35.8683513" lon="139.1701626"><ele>387.7033333333334</ele><time>2023-03-10T23:59:06Z</time></trkpt><trkpt lat="35.8682433" lon="139.1699771"><ele>383.25333333333333</ele><time>2023-03-10T23:59:18Z</time></trkpt><trkpt lat="35.8681788" lon="139.1697698"><ele>382.7866666666667</ele><time>2023-03-10T23:59:48Z</time></trkpt><trkpt lat="35.8680105" lon="139.169673"><ele>385.24</ele><time>2023-03-11T00:00:05Z</time></trkpt><trkpt lat="35.8678594" lon="139.1695467"><ele>394.48</ele><time>2023-03-11T00:00:25Z</time></trkpt><trkpt lat="35.8678164" lon="139.1693262"><ele>403.72333333333336</ele><time>2023-03-11T00:01:07Z</time></trkpt><trkpt lat="35.8678155" lon="139.1690929"><ele>415.18</ele><time>2023-03-11T00:01:39Z</time></trkpt><trkpt lat="35.8676212" lon="139.1691057"><ele>420.07666666666665</ele><time>2023-03-11T00:01:50Z</time></trkpt><trkpt lat="35.8674388" lon="139.1691076"><ele>420.8500000000001</ele><time>2023-03-11T00:02:15Z</time></trkpt><trkpt lat="35.867252" lon="139.1690835"><ele>413.93</ele><time>2023-03-11T00:02:38Z</time></trkpt><trkpt lat="35.8672033" lon="139.1688619"><ele>414.24333333333334</ele><time>2023-03-11T00:03:15Z</time></trkpt><trkpt lat="35.8671373" lon="139.1686554"><ele>416.36000000000007</ele><time>2023-03-11T00:03:29Z</time></trkpt><trkpt lat="35.8670008" lon="139.1688035"><ele>417.27000000000004</ele><time>2023-03-11T00:04:35Z</time></trkpt><trkpt lat="35.8668247" lon="139.1687455"><ele>414.8433333333333</ele><time>2023-03-11T00:05:12Z</time></trkpt><trkpt lat="35.8666843" lon="139.1685804"><ele>414.4166666666667</ele><time>2023-03-11T00:05:21Z</time></trkpt><trkpt lat="35.8665303" lon="139.1684511"><ele>418.17</ele><time>2023-03-11T00:05:36Z</time></trkpt><trkpt lat="35.866375" lon="139.1683069"><ele>420.74</ele><time>2023-03-11T00:05:49Z</time></trkpt><trkpt lat="35.8665018" lon="139.1681"><ele>423.55333333333334</ele><time>2023-03-11T00:06:14Z</time></trkpt><trkpt lat="35.8663513" lon="139.1679609"><ele>425.73</ele><time>2023-03-11T00:07:21Z</time></trkpt><trkpt lat="35.8662105" lon="139.1678099"><ele>429.24666666666667</ele><time>2023-03-11T00:07:35Z</time></trkpt><trkpt lat="35.8660336" lon="139.1677403"><ele>431.9533333333333</ele><time>2023-03-11T00:07:52Z</time></trkpt><trkpt lat="35.8658556" lon="139.1676993"><ele>437.31</ele><time>2023-03-11T00:08:38Z</time></trkpt><trkpt lat="35.8657171" lon="139.1675223"><ele>444.99</ele><time>2023-03-11T00:08:53Z</time></trkpt><trkpt lat="35.8655707" lon="139.1673912"><ele>455.3766666666667</ele><time>2023-03-11T00:09:32Z</time></trkpt><trkpt lat="35.8654427" lon="139.1672247"><ele>465.5133333333333</ele><time>2023-03-11T00:09:54Z</time></trkpt><trkpt lat="35.8653708" lon="139.1670198"><ele>469.9666666666667</ele><time>2023-03-11T00:10:51Z</time></trkpt><trkpt lat="35.8652945" lon="139.1667846"><ele>470.3733333333334</ele><time>2023-03-11T00:11:02Z</time></trkpt><trkpt lat="35.8651376" lon="139.1666687"><ele>469.8</ele><time>2023-03-11T00:11:21Z</time></trkpt><trkpt lat="35.8649779" lon="139.1665622"><ele>473.26000000000005</ele><time>2023-03-11T00:12:19Z</time></trkpt><trkpt lat="35.8647872" lon="139.166527"><ele>479.13000000000005</ele><time>2023-03-11T00:12:45Z</time></trkpt><trkpt lat="35.8646825" lon="139.1663369"><ele>486.34666666666664</ele><time>2023-03-11T00:13:44Z</time></trkpt><trkpt lat="35.8645401" lon="139.1661965"><ele>494.83</ele><time>2023-03-11T00:14:48Z</time></trkpt><trkpt lat="35.8643602" lon="139.1662168"><ele>500.8533333333333</ele><time>2023-03-11T00:15:43Z</time></trkpt><trkpt lat="35.8641779" lon="139.1661988"><ele>504.76000000000005</ele><time>2023-03-11T00:16:03Z</time></trkpt><trkpt lat="35.864033" lon="139.1660659"><ele>506.25</ele><time>2023-03-11T00:16:20Z</time></trkpt><trkpt lat="35.8638373" lon="139.165877"><ele>510.3733333333334</ele><time>2023-03-11T00:17:32Z</time></trkpt><trkpt lat="35.8636908" lon="139.1657372"><ele>517.7033333333334</ele><time>2023-03-11T00:18:43Z</time></trkpt><trkpt lat="35.863505" lon="139.1656701"><ele>528.5466666666667</ele><time>2023-03-11T00:18:50Z</time></trkpt><trkpt lat="35.863325" lon="139.1657441"><ele>541.8833333333333</ele><time>2023-03-11T00:19:01Z</time></trkpt><trkpt lat="35.8633439" lon="139.165517"><ele>548.8333333333334</ele><time>2023-03-11T00:22:35Z</time></trkpt><trkpt lat="35.8632119" lon="139.1653591"><ele>553.3166666666667</ele><time>2023-03-11T00:22:42Z</time></trkpt><trkpt lat="35.8630301" lon="139.1653078"><ele>558.1066666666667</ele><time>2023-03-11T00:22:56Z</time></trkpt><trkpt lat="35.8629783" lon="139.1650922"><ele>563.53</ele><time>2023-03-11T00:23:51Z</time></trkpt><trkpt lat="35.8630556" lon="139.1648748"><ele>568.2133333333335</ele><time>2023-03-11T00:25:17Z</time></trkpt><trkpt lat="35.8629395" lon="139.1646955"><ele>566.5133333333333</ele><time>2023-03-11T00:25:34Z</time></trkpt><trkpt lat="35.8628927" lon="139.164473"><ele>568.0566666666667</ele><time>2023-03-11T00:25:45Z</time></trkpt><trkpt lat="35.8627327" lon="139.1643499"><ele>568.5333333333333</ele><time>2023-03-11T00:26:27Z</time></trkpt><trkpt lat="35.8625494" lon="139.1642533"><ele>571.8266666666667</ele><time>2023-03-11T00:27:03Z</time></trkpt><trkpt lat="35.862366" lon="139.1642151"><ele>575.6433333333334</ele><time>2023-03-11T00:27:44Z</time></trkpt><trkpt lat="35.8622016" lon="139.1643135"><ele>583.0600000000001</ele><time>2023-03-11T00:28:25Z</time></trkpt><trkpt lat="35.8620264" lon="139.1643707"><ele>591.8800000000001</ele><time>2023-03-11T00:28:43Z</time></trkpt><trkpt lat="35.8618363" lon="139.1643025"><ele>599.9900000000001</ele><time>2023-03-11T00:28:52Z</time></trkpt><trkpt lat="35.8617141" lon="139.1641394"><ele>604.8433333333334</ele><time>2023-03-11T00:29:02Z</time></trkpt><trkpt lat="35.8616862" lon="139.16392"><ele>603.69</ele><time>2023-03-11T00:29:25Z</time></trkpt><trkpt lat="35.8615491" lon="139.1637352"><ele>603.2266666666667</ele><time>2023-03-11T00:30:48Z</time></trkpt><trkpt lat="35.8613929" lon="139.163624"><ele>602.98</ele><time>2023-03-11T00:31:11Z</time></trkpt><trkpt lat="35.8612871" lon="139.1634398"><ele>607.1233333333333</ele><time>2023-03-11T00:32:09Z</time></trkpt><trkpt lat="35.8611403" lon="139.1632854"><ele>612.86</ele><time>2023-03-11T00:32:22Z</time></trkpt><trkpt lat="35.8610309" lon="139.1631074"><ele>620.0400000000001</ele><time>2023-03-11T00:32:46Z</time></trkpt><trkpt lat="35.8608868" lon="139.1629738"><ele>625.2633333333333</ele><time>2023-03-11T00:33:35Z</time></trkpt><trkpt lat="35.8608742" lon="139.1627504"><ele>629.19</ele><time>2023-03-11T00:34:21Z</time></trkpt><trkpt lat="35.8608489" lon="139.1625234"><ele>633.2333333333333</ele><time>2023-03-11T00:35:00Z</time></trkpt><trkpt lat="35.8608638" lon="139.1622984"><ele>639.6633333333333</ele><time>2023-03-11T00:35:19Z</time></trkpt><trkpt lat="35.8607102" lon="139.1621778"><ele>646.4033333333333</ele><time>2023-03-11T00:35:54Z</time></trkpt><trkpt lat="35.8606126" lon="139.1619861"><ele>652.2466666666667</ele><time>2023-03-11T00:36:29Z</time></trkpt><trkpt lat="35.8605104" lon="139.1618009"><ele>657.3366666666667</ele><time>2023-03-11T00:37:07Z</time></trkpt><trkpt lat="35.8604082" lon="139.1616102"><ele>663.6266666666667</ele><time>2023-03-11T00:37:49Z</time></trkpt><trkpt lat="35.8602438" lon="139.1615167"><ele>667.11</ele><time>2023-03-11T00:39:05Z</time></trkpt><trkpt lat="35.8600601" lon="139.1614578"><ele>670.7566666666667</ele><time>2023-03-11T00:39:26Z</time></trkpt><trkpt lat="35.8598966" lon="139.1613619"><ele>675.7066666666666</ele><time>2023-03-11T00:39:50Z</time></trkpt><trkpt lat="35.8597101" lon="139.1612652"><ele>683.4833333333332</ele><time>2023-03-11T00:40:11Z</time></trkpt><trkpt lat="35.8595341" lon="139.1611023"><ele>694.3766666666667</ele><time>2023-03-11T00:41:11Z</time></trkpt><trkpt lat="35.8593715" lon="139.1609984"><ele>703.8533333333334</ele><time>2023-03-11T00:43:29Z</time></trkpt><trkpt lat="35.8592704" lon="139.1611823"><ele>714.6766666666667</ele><time>2023-03-11T00:43:56Z</time></trkpt><trkpt lat="35.8592603" lon="139.1614165"><ele>723.5</ele><time>2023-03-11T00:44:39Z</time></trkpt><trkpt lat="35.8592968" lon="139.1616358"><ele>728.9266666666667</ele><time>2023-03-11T00:44:55Z</time></trkpt><trkpt lat="35.8594025" lon="139.161836"><ele>732.5233333333332</ele><time>2023-03-11T00:45:16Z</time></trkpt><trkpt lat="35.8595362" lon="139.1619932"><ele>731.57</ele><time>2023-03-11T00:45:30Z</time></trkpt><trkpt lat="35.8594124" lon="139.1621674"><ele>732.0633333333334</ele><time>2023-03-11T00:45:54Z</time></trkpt><trkpt lat="35.8592575" lon="139.1623037"><ele>733.8066666666667</ele><time>2023-03-11T00:46:13Z</time></trkpt><trkpt lat="35.8592254" lon="139.162528"><ele>738.3633333333333</ele><time>2023-03-11T00:46:30Z</time></trkpt><trkpt lat="35.8592531" lon="139.1627601"><ele>743.02</ele><time>2023-03-11T00:47:05Z</time></trkpt><trkpt lat="35.8592187" lon="139.1629783"><ele>740.11</ele><time>2023-03-11T00:47:19Z</time></trkpt><trkpt lat="35.8592159" lon="139.1632172"><ele>735.8699999999999</ele><time>2023-03-11T00:47:36Z</time></trkpt><trkpt lat="35.8592421" lon="139.1634435"><ele>732.3866666666667</ele><time>2023-03-11T00:47:49Z</time></trkpt><trkpt lat="35.8593072" lon="139.1636536"><ele>733.7566666666667</ele><time>2023-03-11T00:48:02Z</time></trkpt><trkpt lat="35.85943" lon="139.1638184"><ele>733.3333333333334</ele><time>2023-03-11T00:48:18Z</time></trkpt><trkpt lat="35.8592593" lon="139.1637377"><ele>733.16</ele><time>2023-03-11T00:50:18Z</time></trkpt><trkpt lat="35.8591132" lon="139.1636005"><ele>737.63</ele><time>2023-03-11T00:51:10Z</time></trkpt><trkpt lat="35.8589671" lon="139.163461"><ele>747.0266666666666</ele><time>2023-03-11T00:52:41Z</time></trkpt><trkpt lat="35.8587835" lon="139.1634319"><ele>756.3133333333334</ele><time>2023-03-11T00:55:02Z</time></trkpt><trkpt lat="35.8587163" lon="139.1632248"><ele>762.9933333333333</ele><time>2023-03-11T00:55:23Z</time></trkpt><trkpt lat="35.8586284" lon="139.1630281"><ele>769.5066666666668</ele><time>2023-03-11T00:56:08Z</time></trkpt><trkpt lat="35.8585715" lon="139.1628124"><ele>775.6066666666667</ele><time>2023-03-11T00:57:00Z</time></trkpt><trkpt lat="35.8585777" lon="139.1625875"><ele>782.0600000000001</ele><time>2023-03-11T00:57:36Z</time></trkpt><trkpt lat="35.8584989" lon="139.1623796"><ele>786.7733333333334</ele><time>2023-03-11T00:58:20Z</time></trkpt><trkpt lat="35.8585959" lon="139.1621841"><ele>791.4900000000001</ele><time>2023-03-11T00:58:59Z</time></trkpt><trkpt lat="35.8585138" lon="139.1619867"><ele>796.4466666666667</ele><time>2023-03-11T00:59:40Z</time></trkpt><trkpt lat="35.8584218" lon="139.1617739"><ele>801.5366666666667</ele><time>2023-03-11T01:01:08Z</time></trkpt><trkpt lat="35.8583056" lon="139.1615973"><ele>806.7033333333334</ele><time>2023-03-11T01:01:20Z</time></trkpt><trkpt lat="35.8581854" lon="139.1614184"><ele>810.5400000000001</ele><time>2023-03-11T01:02:23Z</time></trkpt><trkpt lat="35.8580512" lon="139.1612689"><ele>815.4766666666668</ele><time>2023-03-11T01:02:54Z</time></trkpt><trkpt lat="35.8579427" lon="139.1610907"><ele>820.6833333333334</ele><time>2023-03-11T01:03:31Z</time></trkpt><trkpt lat="35.857815" lon="139.1609305"><ele>827.4633333333335</ele><time>2023-03-11T01:04:28Z</time></trkpt><trkpt lat="35.8577098" lon="139.1607492"><ele>834.4633333333335</ele><time>2023-03-11T01:05:10Z</time></trkpt><trkpt lat="35.8576277" lon="139.1605459"><ele>842.8733333333333</ele><time>2023-03-11T01:05:43Z</time></trkpt><trkpt lat="35.8575291" lon="139.1603584"><ele>851.57</ele><time>2023-03-11T01:06:50Z</time></trkpt><trkpt lat="35.8574368" lon="139.1601536"><ele>859.8833333333333</ele><time>2023-03-11T01:08:04Z</time></trkpt><trkpt lat="35.8573543" lon="139.1599539"><ele>867.2600000000001</ele><time>2023-03-11T01:09:25Z</time></trkpt><trkpt lat="35.8571868" lon="139.1598588"><ele>875.5</ele><time>2023-03-11T01:10:13Z</time></trkpt><trkpt lat="35.8570993" lon="139.1596521"><ele>883.6533333333333</ele><time>2023-03-11T01:11:10Z</time></trkpt><trkpt lat="35.8571603" lon="139.1594364"><ele>889.4399999999999</ele><time>2023-03-11T01:13:05Z</time></trkpt><trkpt lat="35.8571739" lon="139.1592023"><ele>891.0266666666666</ele><time>2023-03-11T01:13:18Z</time></trkpt><trkpt lat="35.8572956" lon="139.1590217"><ele>890.4666666666667</ele><time>2023-03-11T01:13:30Z</time></trkpt><trkpt lat="35.8573864" lon="139.1588208"><ele>888.0866666666666</ele><time>2023-03-11T01:13:43Z</time></trkpt><trkpt lat="35.8574621" lon="139.1586064"><ele>885.2333333333332</ele><time>2023-03-11T01:13:59Z</time></trkpt><trkpt lat="35.8575306" lon="139.15839"><ele>882.7800000000001</ele><time>2023-03-11T01:14:10Z</time></trkpt><trkpt lat="35.857516" lon="139.1581687"><ele>883.1233333333333</ele><time>2023-03-11T01:14:22Z</time></trkpt><trkpt lat="35.8575567" lon="139.1579494"><ele>885.9466666666666</ele><time>2023-03-11T01:14:36Z</time></trkpt><trkpt lat="35.8577135" lon="139.1578395"><ele>890.4333333333334</ele><time>2023-03-11T01:14:53Z</time></trkpt><trkpt lat="35.8577667" lon="139.1576271"><ele>896.1500000000001</ele><time>2023-03-11T01:15:28Z</time></trkpt><trkpt lat="35.8578375" lon="139.1574205"><ele>902.2933333333334</ele><time>2023-03-11T01:16:15Z</time></trkpt><trkpt lat="35.8578727" lon="139.1572015"><ele>908.0766666666667</ele><time>2023-03-11T01:16:41Z</time></trkpt><trkpt lat="35.8580087" lon="139.1570444"><ele>913.52</ele><time>2023-03-11T01:17:14Z</time></trkpt><trkpt lat="35.8580432" lon="139.1568261"><ele>919.4533333333334</ele><time>2023-03-11T01:18:01Z</time></trkpt><trkpt lat="35.8581413" lon="139.1566377"><ele>925.4366666666666</ele><time>2023-03-11T01:18:57Z</time></trkpt><trkpt lat="35.8581514" lon="139.1564158"><ele>931.4566666666666</ele><time>2023-03-11T01:19:29Z</time></trkpt><trkpt lat="35.8582314" lon="139.1562137"><ele>936.6833333333334</ele><time>2023-03-11T01:20:21Z</time></trkpt><trkpt lat="35.8582889" lon="139.1560036"><ele>943.1033333333335</ele><time>2023-03-11T01:20:59Z</time></trkpt><trkpt lat="35.8583898" lon="139.1558181"><ele>949.8533333333335</ele><time>2023-03-11T01:21:23Z</time></trkpt><trkpt lat="35.8585108" lon="139.155642"><ele>956.3166666666667</ele><time>2023-03-11T01:22:25Z</time></trkpt><trkpt lat="35.8586725" lon="139.1555137"><ele>960.21</ele><time>2023-03-11T01:22:46Z</time></trkpt><trkpt lat="35.8586055" lon="139.1557208"><ele>961.0966666666667</ele><time>2023-03-11T01:23:32Z</time></trkpt><trkpt lat="35.8586283" lon="139.1555008"><ele>961.5233333333332</ele><time>2023-03-11T01:23:58Z</time></trkpt><trkpt lat="35.8585386" lon="139.1552976"><ele>962.4700000000001</ele><time>2023-03-11T01:24:09Z</time></trkpt><trkpt lat="35.8587082" lon="139.1553812"><ele>963.9733333333334</ele><time>2023-03-11T01:24:33Z</time></trkpt><trkpt lat="35.8585939" lon="139.1555539"><ele>963.9733333333334</ele><time>2023-03-11T01:34:03Z</time></trkpt><trkpt lat="35.8584165" lon="139.155599"><ele>962.46</ele><time>2023-03-11T01:37:40Z</time></trkpt><trkpt lat="35.8583412" lon="139.1558011"><ele>959.4733333333334</ele><time>2023-03-11T01:38:36Z</time></trkpt><trkpt lat="35.8582586" lon="139.1560028"><ele>955.3266666666667</ele><time>2023-03-11T01:39:07Z</time></trkpt><trkpt lat="35.8582474" lon="139.1562289"><ele>949.8733333333333</ele><time>2023-03-11T01:39:41Z</time></trkpt><trkpt lat="35.8581109" lon="139.1563789"><ele>943.7200000000001</ele><time>2023-03-11T01:40:09Z</time></trkpt><trkpt lat="35.8580077" lon="139.1565744"><ele>936.6133333333333</ele><time>2023-03-11T01:40:19Z</time></trkpt><trkpt lat="35.8579418" lon="139.1567953"><ele>929.4066666666668</ele><time>2023-03-11T01:40:52Z</time></trkpt><trkpt lat="35.8578768" lon="139.1570063"><ele>922.5200000000001</ele><time>2023-03-11T01:41:05Z</time></trkpt><trkpt lat="35.8578252" lon="139.1572223"><ele>916.8866666666667</ele><time>2023-03-11T01:41:30Z</time></trkpt><trkpt lat="35.8577462" lon="139.1574262"><ele>910.68</ele><time>2023-03-11T01:41:57Z</time></trkpt><trkpt lat="35.8576663" lon="139.1576385"><ele>904.4333333333334</ele><time>2023-03-11T01:42:21Z</time></trkpt><trkpt lat="35.857628" lon="139.1578583"><ele>898.3233333333334</ele><time>2023-03-11T01:42:38Z</time></trkpt><trkpt lat="35.8575543" lon="139.1580664"><ele>893.6133333333333</ele><time>2023-03-11T01:42:53Z</time></trkpt><trkpt lat="35.8575091" lon="139.1582961"><ele>889.3333333333334</ele><time>2023-03-11T01:43:05Z</time></trkpt><trkpt lat="35.8575268" lon="139.158529"><ele>885.34</ele><time>2023-03-11T01:43:16Z</time></trkpt><trkpt lat="35.8574308" lon="139.1587267"><ele>883.07</ele><time>2023-03-11T01:43:29Z</time></trkpt><trkpt lat="35.8573343" lon="139.1589276"><ele>883.9733333333334</ele><time>2023-03-11T01:43:42Z</time></trkpt><trkpt lat="35.8572129" lon="139.1591012"><ele>886.7166666666667</ele><time>2023-03-11T01:44:01Z</time></trkpt><trkpt lat="35.8571093" lon="139.1592999"><ele>889.21</ele><time>2023-03-11T01:44:13Z</time></trkpt><trkpt lat="35.8570057" lon="139.159483"><ele>890.5033333333334</ele><time>2023-03-11T01:44:26Z</time></trkpt><trkpt lat="35.8568351" lon="139.1595614"><ele>889.8433333333332</ele><time>2023-03-11T01:45:59Z</time></trkpt><trkpt lat="35.8566288" lon="139.1596259"><ele>887.84</ele><time>2023-03-11T01:46:12Z</time></trkpt><trkpt lat="35.8564486" lon="139.1596753"><ele>884.4833333333332</ele><time>2023-03-11T01:46:31Z</time></trkpt><trkpt lat="35.8562668" lon="139.1596953"><ele>879.7266666666668</ele><time>2023-03-11T01:46:45Z</time></trkpt><trkpt lat="35.8561001" lon="139.1598024"><ele>876.3066666666667</ele><time>2023-03-11T01:47:02Z</time></trkpt><trkpt lat="35.855919" lon="139.1598136"><ele>871.93</ele><time>2023-03-11T01:47:18Z</time></trkpt><trkpt lat="35.8557542" lon="139.1599056"><ele>868.3666666666667</ele><time>2023-03-11T01:47:34Z</time></trkpt><trkpt lat="35.8555991" lon="139.1600194"><ele>863.3533333333334</ele><time>2023-03-11T01:48:26Z</time></trkpt><trkpt lat="35.8554502" lon="139.1601636"><ele>860.2766666666666</ele><time>2023-03-11T01:48:42Z</time></trkpt><trkpt lat="35.855292" lon="139.1602896"><ele>858.66</ele><time>2023-03-11T01:48:53Z</time></trkpt><trkpt lat="35.8551428" lon="139.1604146"><ele>857.1166666666668</ele><time>2023-03-11T01:49:11Z</time></trkpt><trkpt lat="35.8550813" lon="139.1606304"><ele>854.6633333333333</ele><time>2023-03-11T01:49:36Z</time></trkpt><trkpt lat="35.854902" lon="139.160724"><ele>849.9666666666667</ele><time>2023-03-11T01:50:10Z</time></trkpt><trkpt lat="35.8547435" lon="139.1608501"><ele>844.7599999999999</ele><time>2023-03-11T01:50:21Z</time></trkpt><trkpt lat="35.8546037" lon="139.1609932"><ele>839.9399999999999</ele><time>2023-03-11T01:50:51Z</time></trkpt><trkpt lat="35.8544641" lon="139.161143"><ele>834.79</ele><time>2023-03-11T01:51:15Z</time></trkpt><trkpt lat="35.85431" lon="139.1612716"><ele>830.6033333333334</ele><time>2023-03-11T01:51:29Z</time></trkpt><trkpt lat="35.854132" lon="139.1613291"><ele>825.4166666666666</ele><time>2023-03-11T01:51:45Z</time></trkpt><trkpt lat="35.8539575" lon="139.1613846"><ele>823.9633333333333</ele><time>2023-03-11T01:52:02Z</time></trkpt><trkpt lat="35.8537698" lon="139.1614124"><ele>822.56</ele><time>2023-03-11T01:52:18Z</time></trkpt><trkpt lat="35.8535884" lon="139.1614457"><ele>822.46</ele><time>2023-03-11T01:52:33Z</time></trkpt><trkpt lat="35.8534101" lon="139.1614987"><ele>820.8033333333334</ele><time>2023-03-11T01:52:55Z</time></trkpt><trkpt lat="35.8532366" lon="139.1615607"><ele>818.1</ele><time>2023-03-11T01:53:53Z</time></trkpt><trkpt lat="35.8530876" lon="139.161689"><ele>812.09</ele><time>2023-03-11T01:54:24Z</time></trkpt><trkpt lat="35.8529161" lon="139.161778"><ele>804.3433333333332</ele><time>2023-03-11T01:54:44Z</time></trkpt><trkpt lat="35.8527508" lon="139.1618674"><ele>796.8566666666667</ele><time>2023-03-11T01:55:00Z</time></trkpt><trkpt lat="35.8525683" lon="139.1619394"><ele>792.6566666666668</ele><time>2023-03-11T01:55:18Z</time></trkpt><trkpt lat="35.8523912" lon="139.1619909"><ele>790.1</ele><time>2023-03-11T01:55:54Z</time></trkpt><trkpt lat="35.852219" lon="139.1620677"><ele>790.8100000000001</ele><time>2023-03-11T01:56:56Z</time></trkpt><trkpt lat="35.8520738" lon="139.1622013"><ele>793.9533333333334</ele><time>2023-03-11T01:57:14Z</time></trkpt><trkpt lat="35.8519259" lon="139.1623297"><ele>798.2666666666668</ele><time>2023-03-11T01:57:31Z</time></trkpt><trkpt lat="35.8517927" lon="139.1624824"><ele>802.4766666666666</ele><time>2023-03-11T01:57:52Z</time></trkpt><trkpt lat="35.8516171" lon="139.1625584"><ele>806.5233333333334</ele><time>2023-03-11T01:59:00Z</time></trkpt><trkpt lat="35.8514734" lon="139.1627047"><ele>813.6233333333333</ele><time>2023-03-11T01:59:56Z</time></trkpt><trkpt lat="35.8514396" lon="139.1629316"><ele>820.2866666666667</ele><time>2023-03-11T02:00:15Z</time></trkpt><trkpt lat="35.8512601" lon="139.1629996"><ele>826.9033333333333</ele><time>2023-03-11T02:00:30Z</time></trkpt><trkpt lat="35.8511292" lon="139.1631647"><ele>831.0666666666666</ele><time>2023-03-11T02:01:07Z</time></trkpt><trkpt lat="35.8509674" lon="139.1632977"><ele>835.1733333333333</ele><time>2023-03-11T02:01:20Z</time></trkpt><trkpt lat="35.850787" lon="139.1632678"><ele>835.62</ele><time>2023-03-11T02:04:48Z</time></trkpt><trkpt lat="35.8506015" lon="139.1632379"><ele>834.2466666666666</ele><time>2023-03-11T02:05:27Z</time></trkpt><trkpt lat="35.8504094" lon="139.1632167"><ele>829.8533333333334</ele><time>2023-03-11T02:05:40Z</time></trkpt><trkpt lat="35.8502932" lon="139.1630382"><ele>824.5866666666667</ele><time>2023-03-11T02:06:04Z</time></trkpt><trkpt lat="35.8501093" lon="139.1630347"><ele>822.7933333333334</ele><time>2023-03-11T02:06:20Z</time></trkpt><trkpt lat="35.8499579" lon="139.162902"><ele>824.7866666666667</ele><time>2023-03-11T02:06:36Z</time></trkpt><trkpt lat="35.8498517" lon="139.1627188"><ele>829.6866666666666</ele><time>2023-03-11T02:06:55Z</time></trkpt><trkpt lat="35.8496935" lon="139.1626101"><ele>831.11</ele><time>2023-03-11T02:07:13Z</time></trkpt><trkpt lat="35.8495224" lon="139.1625319"><ele>830.0966666666667</ele><time>2023-03-11T02:07:28Z</time></trkpt><trkpt lat="35.849365" lon="139.1624153"><ele>822.75</ele><time>2023-03-11T02:07:42Z</time></trkpt><trkpt lat="35.849215" lon="139.1625382"><ele>818.5866666666667</ele><time>2023-03-11T02:08:26Z</time></trkpt><trkpt lat="35.8490486" lon="139.1626309"><ele>812.8000000000001</ele><time>2023-03-11T02:08:47Z</time></trkpt><trkpt lat="35.8488806" lon="139.1627398"><ele>812.8266666666667</ele><time>2023-03-11T02:09:07Z</time></trkpt><trkpt lat="35.8487188" lon="139.1628649"><ele>810.6366666666667</ele><time>2023-03-11T02:09:20Z</time></trkpt><trkpt lat="35.848595" lon="139.163031"><ele>811.0099999999999</ele><time>2023-03-11T02:09:31Z</time></trkpt><trkpt lat="35.8485193" lon="139.1632325"><ele>812.7633333333333</ele><time>2023-03-11T02:09:43Z</time></trkpt><trkpt lat="35.8483772" lon="139.163396"><ele>816.6566666666668</ele><time>2023-03-11T02:10:04Z</time></trkpt><trkpt lat="35.8481918" lon="139.1634011"><ele>821.1833333333334</ele><time>2023-03-11T02:10:44Z</time></trkpt><trkpt lat="35.8480457" lon="139.1635516"><ele>825.1133333333333</ele><time>2023-03-11T02:11:11Z</time></trkpt><trkpt lat="35.8479313" lon="139.1637291"><ele>826.54</ele><time>2023-03-11T02:11:27Z</time></trkpt><trkpt lat="35.8477939" lon="139.1638848"><ele>826.3366666666667</ele><time>2023-03-11T02:11:42Z</time></trkpt><trkpt lat="35.8476278" lon="139.1639751"><ele>824.34</ele><time>2023-03-11T02:12:00Z</time></trkpt><trkpt lat="35.8475076" lon="139.1641545"><ele>822.5166666666668</ele><time>2023-03-11T02:12:17Z</time></trkpt><trkpt lat="35.8474105" lon="139.1643424"><ele>821.6933333333333</ele><time>2023-03-11T02:12:34Z</time></trkpt><trkpt lat="35.8473162" lon="139.164536"><ele>821.68</ele><time>2023-03-11T02:12:51Z</time></trkpt><trkpt lat="35.8471902" lon="139.1647044"><ele>821.43</ele><time>2023-03-11T02:13:13Z</time></trkpt><trkpt lat="35.8470094" lon="139.1647271"><ele>818.61</ele><time>2023-03-11T02:13:45Z</time></trkpt><trkpt lat="35.846825" lon="139.1647666"><ele>815.0233333333332</ele><time>2023-03-11T02:14:04Z</time></trkpt><trkpt lat="35.8466439" lon="139.1648379"><ele>810.9766666666668</ele><time>2023-03-11T02:14:29Z</time></trkpt><trkpt lat="35.8464582" lon="139.1648965"><ele>809.3266666666667</ele><time>2023-03-11T02:14:39Z</time></trkpt><trkpt lat="35.8462898" lon="139.1649822"><ele>809.19</ele><time>2023-03-11T02:14:56Z</time></trkpt><trkpt lat="35.8461153" lon="139.1650544"><ele>809.6066666666666</ele><time>2023-03-11T02:15:11Z</time></trkpt><trkpt lat="35.8460978" lon="139.1652863"><ele>811.1566666666668</ele><time>2023-03-11T02:15:26Z</time></trkpt><trkpt lat="35.8459166" lon="139.1653962"><ele>813.2166666666666</ele><time>2023-03-11T02:16:09Z</time></trkpt><trkpt lat="35.8457418" lon="139.1654558"><ele>816.3766666666667</ele><time>2023-03-11T02:16:27Z</time></trkpt><trkpt lat="35.8455562" lon="139.1655023"><ele>817.0133333333333</ele><time>2023-03-11T02:16:42Z</time></trkpt><trkpt lat="35.8453615" lon="139.1655267"><ele>814.5300000000001</ele><time>2023-03-11T02:16:57Z</time></trkpt><trkpt lat="35.8451989" lon="139.1656226"><ele>811.7666666666668</ele><time>2023-03-11T02:17:16Z</time></trkpt><trkpt lat="35.8450306" lon="139.1657115"><ele>810.61</ele><time>2023-03-11T02:17:41Z</time></trkpt><trkpt lat="35.8448732" lon="139.1658204"><ele>812.0466666666666</ele><time>2023-03-11T02:18:23Z</time></trkpt><trkpt lat="35.8447212" lon="139.165951"><ele>815.02</ele><time>2023-03-11T02:19:15Z</time></trkpt><trkpt lat="35.8445876" lon="139.1661077"><ele>821.8100000000001</ele><time>2023-03-11T02:20:00Z</time></trkpt><trkpt lat="35.844512" lon="139.1663097"><ele>830.88</ele><time>2023-03-11T02:20:15Z</time></trkpt><trkpt lat="35.8443333" lon="139.1663841"><ele>837.1933333333333</ele><time>2023-03-11T02:21:47Z</time></trkpt><trkpt lat="35.8441851" lon="139.1662504"><ele>836.3066666666667</ele><time>2023-03-11T02:22:03Z</time></trkpt><trkpt lat="35.8440208" lon="139.1661418"><ele>830.0466666666667</ele><time>2023-03-11T02:23:13Z</time></trkpt><trkpt lat="35.8438632" lon="139.1660273"><ele>820.2133333333335</ele><time>2023-03-11T02:23:24Z</time></trkpt><trkpt lat="35.8436746" lon="139.1660251"><ele>813.5733333333334</ele><time>2023-03-11T02:23:58Z</time></trkpt><trkpt lat="35.8434881" lon="139.1659669"><ele>810.2600000000001</ele><time>2023-03-11T02:24:14Z</time></trkpt><trkpt lat="35.8433247" lon="139.1658711"><ele>809.2966666666666</ele><time>2023-03-11T02:24:37Z</time></trkpt><trkpt lat="35.8431767" lon="139.1660003"><ele>810.0099999999999</ele><time>2023-03-11T02:25:21Z</time></trkpt><trkpt lat="35.8430218" lon="139.166116"><ele>809.9533333333334</ele><time>2023-03-11T02:25:41Z</time></trkpt><trkpt lat="35.8428775" lon="139.1662692"><ele>810.3933333333334</ele><time>2023-03-11T02:25:54Z</time></trkpt><trkpt lat="35.8427634" lon="139.1664619"><ele>806.7366666666667</ele><time>2023-03-11T02:26:23Z</time></trkpt><trkpt lat="35.8426892" lon="139.1666718"><ele>801.0333333333333</ele><time>2023-03-11T02:26:52Z</time></trkpt><trkpt lat="35.8425544" lon="139.1668198"><ele>794.77</ele><time>2023-03-11T02:27:28Z</time></trkpt><trkpt lat="35.8424444" lon="139.1669955"><ele>787.5300000000001</ele><time>2023-03-11T02:27:48Z</time></trkpt><trkpt lat="35.8423011" lon="139.1671511"><ele>781.3333333333334</ele><time>2023-03-11T02:28:36Z</time></trkpt><trkpt lat="35.8421701" lon="139.1673126"><ele>776.1966666666667</ele><time>2023-03-11T02:28:53Z</time></trkpt><trkpt lat="35.8420665" lon="139.1675378"><ele>773.4233333333333</ele><time>2023-03-11T02:29:08Z</time></trkpt><trkpt lat="35.8419708" lon="139.1677263"><ele>771.25</ele><time>2023-03-11T02:29:53Z</time></trkpt><trkpt lat="35.8418206" lon="139.1678562"><ele>768.2266666666668</ele><time>2023-03-11T02:31:00Z</time></trkpt><trkpt lat="35.8417351" lon="139.1680628"><ele>766.12</ele><time>2023-03-11T02:31:24Z</time></trkpt><trkpt lat="35.8415992" lon="139.168224"><ele>763.8866666666667</ele><time>2023-03-11T02:31:36Z</time></trkpt><trkpt lat="35.8414431" lon="139.1683386"><ele>762.75</ele><time>2023-03-11T02:32:12Z</time></trkpt><trkpt lat="35.8413349" lon="139.1685204"><ele>759.8833333333333</ele><time>2023-03-11T02:32:37Z</time></trkpt><trkpt lat="35.8412412" lon="139.1687239"><ele>754.5466666666667</ele><time>2023-03-11T02:33:06Z</time></trkpt><trkpt lat="35.8411762" lon="139.168934"><ele>748.5300000000001</ele><time>2023-03-11T02:33:42Z</time></trkpt><trkpt lat="35.8411188" lon="139.169147"><ele>741.0733333333334</ele><time>2023-03-11T02:35:06Z</time></trkpt><trkpt lat="35.8409904" lon="139.1693031"><ele>735.6066666666667</ele><time>2023-03-11T02:36:14Z</time></trkpt><trkpt lat="35.840815" lon="139.1693542"><ele>730.3566666666666</ele><time>2023-03-11T02:36:36Z</time></trkpt><trkpt lat="35.8406525" lon="139.1694621"><ele>730.1899999999999</ele><time>2023-03-11T02:37:13Z</time></trkpt><trkpt lat="35.8405257" lon="139.169635"><ele>733.1733333333333</ele><time>2023-03-11T02:37:27Z</time></trkpt><trkpt lat="35.8405109" lon="139.1698576"><ele>737.5866666666667</ele><time>2023-03-11T02:38:20Z</time></trkpt><trkpt lat="35.8405329" lon="139.1700796"><ele>741.6333333333333</ele><time>2023-03-11T02:38:41Z</time></trkpt><trkpt lat="35.8405182" lon="139.1703039"><ele>743.1833333333334</ele><time>2023-03-11T02:39:06Z</time></trkpt><trkpt lat="35.8403984" lon="139.1704806"><ele>743.4766666666668</ele><time>2023-03-11T02:39:39Z</time></trkpt><trkpt lat="35.8402589" lon="139.170645"><ele>740.2033333333334</ele><time>2023-03-11T02:40:02Z</time></trkpt><trkpt lat="35.8401168" lon="139.1707826"><ele>734.8866666666667</ele><time>2023-03-11T02:40:18Z</time></trkpt><trkpt lat="35.8400754" lon="139.1710398"><ele>728.4266666666666</ele><time>2023-03-11T02:41:18Z</time></trkpt><trkpt lat="35.8399806" lon="139.1712544"><ele>724.1133333333333</ele><time>2023-03-11T02:41:53Z</time></trkpt><trkpt lat="35.8400702" lon="139.1714488"><ele>722.6566666666666</ele><time>2023-03-11T02:42:11Z</time></trkpt><trkpt lat="35.8400363" lon="139.1717062"><ele>725.37</ele><time>2023-03-11T02:42:34Z</time></trkpt><trkpt lat="35.8399775" lon="139.1719208"><ele>728.4066666666668</ele><time>2023-03-11T02:42:52Z</time></trkpt><trkpt lat="35.8398503" lon="139.1720864"><ele>730.65</ele><time>2023-03-11T02:43:12Z</time></trkpt><trkpt lat="35.8396841" lon="139.172175"><ele>728.73</ele><time>2023-03-11T02:44:07Z</time></trkpt><trkpt lat="35.8395115" lon="139.1722555"><ele>724.2633333333333</ele><time>2023-03-11T02:44:23Z</time></trkpt><trkpt lat="35.839367" lon="139.1723916"><ele>718.5</ele><time>2023-03-11T02:44:38Z</time></trkpt><trkpt lat="35.839194" lon="139.1724588"><ele>713.2033333333334</ele><time>2023-03-11T02:44:59Z</time></trkpt><trkpt lat="35.8390524" lon="139.1725995"><ele>710.0666666666667</ele><time>2023-03-11T02:46:07Z</time></trkpt><trkpt lat="35.8389235" lon="139.1727594"><ele>712.5300000000001</ele><time>2023-03-11T02:47:10Z</time></trkpt><trkpt lat="35.838766" lon="139.1728749"><ele>718.9566666666666</ele><time>2023-03-11T02:48:04Z</time></trkpt><trkpt lat="35.8386058" lon="139.1729827"><ele>726.29</ele><time>2023-03-11T02:48:35Z</time></trkpt><trkpt lat="35.8384455" lon="139.173103"><ele>730.2466666666668</ele><time>2023-03-11T02:48:49Z</time></trkpt><trkpt lat="35.8382642" lon="139.1731205"><ele>731.3166666666666</ele><time>2023-03-11T02:49:02Z</time></trkpt><trkpt lat="35.8381692" lon="139.1733126"><ele>732.2366666666667</ele><time>2023-03-11T02:49:26Z</time></trkpt><trkpt lat="35.8380626" lon="139.1735063"><ele>732.9566666666666</ele><time>2023-03-11T02:49:37Z</time></trkpt><trkpt lat="35.8379866" lon="139.1737074"><ele>734.6533333333333</ele><time>2023-03-11T02:50:06Z</time></trkpt><trkpt lat="35.8379789" lon="139.1739309"><ele>735.9033333333333</ele><time>2023-03-11T02:50:42Z</time></trkpt><trkpt lat="35.8379253" lon="139.1741456"><ele>737.8266666666667</ele><time>2023-03-11T02:51:21Z</time></trkpt><trkpt lat="35.8378202" lon="139.1743504"><ele>739.2066666666666</ele><time>2023-03-11T02:51:39Z</time></trkpt><trkpt lat="35.8376505" lon="139.1744428"><ele>739.2266666666668</ele><time>2023-03-11T02:51:54Z</time></trkpt><trkpt lat="35.83748" lon="139.1743407"><ele>736.8766666666667</ele><time>2023-03-11T02:52:28Z</time></trkpt><trkpt lat="35.8373039" lon="139.1742823"><ele>733.0500000000001</ele><time>2023-03-11T02:52:37Z</time></trkpt><trkpt lat="35.8371228" lon="139.1742883"><ele>728.9133333333334</ele><time>2023-03-11T02:52:56Z</time></trkpt><trkpt lat="35.8369341" lon="139.1743446"><ele>725.7633333333333</ele><time>2023-03-11T02:53:34Z</time></trkpt><trkpt lat="35.8367872" lon="139.1744871"><ele>723.2266666666666</ele><time>2023-03-11T02:53:47Z</time></trkpt><trkpt lat="35.8367028" lon="139.1746833"><ele>720.9933333333333</ele><time>2023-03-11T02:54:09Z</time></trkpt><trkpt lat="35.8365617" lon="139.1748291"><ele>717.6766666666667</ele><time>2023-03-11T02:54:33Z</time></trkpt><trkpt lat="35.8364361" lon="139.1749894"><ele>713.8966666666666</ele><time>2023-03-11T02:54:56Z</time></trkpt><trkpt lat="35.836291" lon="139.1751338"><ele>709.7800000000001</ele><time>2023-03-11T02:55:15Z</time></trkpt><trkpt lat="35.8362227" lon="139.1753401"><ele>706.0633333333334</ele><time>2023-03-11T02:55:27Z</time></trkpt><trkpt lat="35.8362442" lon="139.1755669"><ele>703.6366666666667</ele><time>2023-03-11T02:55:40Z</time></trkpt><trkpt lat="35.8362578" lon="139.1758001"><ele>701.4500000000002</ele><time>2023-03-11T02:55:48Z</time></trkpt><trkpt lat="35.8361843" lon="139.1760082"><ele>703.37</ele><time>2023-03-11T02:56:05Z</time></trkpt><trkpt lat="35.8361621" lon="139.1762285"><ele>706.1533333333333</ele><time>2023-03-11T02:56:30Z</time></trkpt><trkpt lat="35.8360726" lon="139.1764272"><ele>710.1566666666668</ele><time>2023-03-11T02:57:09Z</time></trkpt><trkpt lat="35.8359018" lon="139.1765217"><ele>710.2733333333334</ele><time>2023-03-11T02:57:29Z</time></trkpt><trkpt lat="35.8357614" lon="139.1766712"><ele>707.7566666666668</ele><time>2023-03-11T02:57:52Z</time></trkpt><trkpt lat="35.8356418" lon="139.1768374"><ele>704.3866666666667</ele><time>2023-03-11T02:58:04Z</time></trkpt><trkpt lat="35.8355593" lon="139.1770372"><ele>701.7633333333333</ele><time>2023-03-11T02:59:18Z</time></trkpt><trkpt lat="35.835413" lon="139.1771673"><ele>704.3933333333334</ele><time>2023-03-11T02:59:58Z</time></trkpt><trkpt lat="35.8352606" lon="139.1772861"><ele>710.1066666666666</ele><time>2023-03-11T03:00:51Z</time></trkpt><trkpt lat="35.8351087" lon="139.1774085"><ele>717.5433333333334</ele><time>2023-03-11T03:01:46Z</time></trkpt><trkpt lat="35.8349587" lon="139.1772602"><ele>721.29</ele><time>2023-03-11T03:02:19Z</time></trkpt><trkpt lat="35.8347802" lon="139.1772032"><ele>722.3366666666667</ele><time>2023-03-11T03:02:29Z</time></trkpt><trkpt lat="35.8346025" lon="139.1771538"><ele>720.62</ele><time>2023-03-11T03:02:42Z</time></trkpt><trkpt lat="35.8344226" lon="139.1772124"><ele>717.1700000000001</ele><time>2023-03-11T03:03:05Z</time></trkpt><trkpt lat="35.8342431" lon="139.1772485"><ele>712.3933333333334</ele><time>2023-03-11T03:03:31Z</time></trkpt><trkpt lat="35.8340501" lon="139.177239"><ele>706.0533333333334</ele><time>2023-03-11T03:04:04Z</time></trkpt><trkpt lat="35.8338805" lon="139.1771393"><ele>699.6666666666666</ele><time>2023-03-11T03:04:38Z</time></trkpt><trkpt lat="35.8336973" lon="139.1771519"><ele>696.3466666666667</ele><time>2023-03-11T03:05:30Z</time></trkpt><trkpt lat="35.8335168" lon="139.1770873"><ele>697.1466666666666</ele><time>2023-03-11T03:05:41Z</time></trkpt><trkpt lat="35.8333557" lon="139.1769809"><ele>700.9333333333334</ele><time>2023-03-11T03:05:54Z</time></trkpt><trkpt lat="35.8331732" lon="139.1770277"><ele>706.1633333333333</ele><time>2023-03-11T03:07:55Z</time></trkpt><trkpt lat="35.8329899" lon="139.1770322"><ele>711.04</ele><time>2023-03-11T03:08:52Z</time></trkpt><trkpt lat="35.8328379" lon="139.1771568"><ele>717.8233333333334</ele><time>2023-03-11T03:09:45Z</time></trkpt><trkpt lat="35.8326996" lon="139.1772995"><ele>726.4</ele><time>2023-03-11T03:10:49Z</time></trkpt><trkpt lat="35.8325216" lon="139.1773668"><ele>735.1</ele><time>2023-03-11T03:11:14Z</time></trkpt><trkpt lat="35.8323377" lon="139.1773743"><ele>739.7233333333334</ele><time>2023-03-11T03:11:58Z</time></trkpt><trkpt lat="35.8321582" lon="139.1773956"><ele>740.3066666666667</ele><time>2023-03-11T03:12:49Z</time></trkpt><trkpt lat="35.8319802" lon="139.1774315"><ele>735.3433333333334</ele><time>2023-03-11T03:13:31Z</time></trkpt><trkpt lat="35.8318226" lon="139.1775591"><ele>730.3100000000001</ele><time>2023-03-11T03:14:24Z</time></trkpt><trkpt lat="35.8316272" lon="139.1775687"><ele>726.2533333333334</ele><time>2023-03-11T03:15:40Z</time></trkpt><trkpt lat="35.8314051" lon="139.1776073"><ele>730.5100000000001</ele><time>2023-03-11T03:16:12Z</time></trkpt><trkpt lat="35.8312248" lon="139.1776216"><ele>736.9900000000001</ele><time>2023-03-11T03:16:28Z</time></trkpt><trkpt lat="35.8310457" lon="139.1776523"><ele>743.2733333333334</ele><time>2023-03-11T03:17:06Z</time></trkpt><trkpt lat="35.8309377" lon="139.1778383"><ele>749.57</ele><time>2023-03-11T03:17:52Z</time></trkpt><trkpt lat="35.8308915" lon="139.1780579"><ele>757.2766666666666</ele><time>2023-03-11T03:18:46Z</time></trkpt><trkpt lat="35.8308582" lon="139.1782911"><ele>765.3566666666667</ele><time>2023-03-11T03:19:25Z</time></trkpt><trkpt lat="35.8308445" lon="139.1785149"><ele>771.9266666666667</ele><time>2023-03-11T03:20:31Z</time></trkpt><trkpt lat="35.830777" lon="139.1787258"><ele>779.0433333333334</ele><time>2023-03-11T03:21:27Z</time></trkpt><trkpt lat="35.8307495" lon="139.1790321"><ele>785.5233333333334</ele><time>2023-03-11T03:22:31Z</time></trkpt><trkpt lat="35.8305811" lon="139.1791449"><ele>789.5333333333333</ele><time>2023-03-11T03:26:19Z</time></trkpt><trkpt lat="35.8304708" lon="139.1793368"><ele>789.3366666666667</ele><time>2023-03-11T03:26:40Z</time></trkpt><trkpt lat="35.8303244" lon="139.1794693"><ele>785.9766666666668</ele><time>2023-03-11T03:26:55Z</time></trkpt><trkpt lat="35.8301474" lon="139.1795303"><ele>781.1466666666666</ele><time>2023-03-11T03:27:16Z</time></trkpt><trkpt lat="35.8299633" lon="139.179582"><ele>776.3100000000001</ele><time>2023-03-11T03:27:48Z</time></trkpt><trkpt lat="35.8300368" lon="139.1797918"><ele>770.7166666666667</ele><time>2023-03-11T03:28:36Z</time></trkpt><trkpt lat="35.8300614" lon="139.1800113"><ele>763.6999999999999</ele><time>2023-03-11T03:29:07Z</time></trkpt><trkpt lat="35.8300042" lon="139.1802238"><ele>753.3966666666665</ele><time>2023-03-11T03:30:30Z</time></trkpt><trkpt lat="35.8300679" lon="139.1804348"><ele>742.77</ele><time>2023-03-11T03:30:53Z</time></trkpt><trkpt lat="35.8300705" lon="139.1806633"><ele>733.4833333333332</ele><time>2023-03-11T03:31:06Z</time></trkpt><trkpt lat="35.8301038" lon="139.1808864"><ele>728.39</ele><time>2023-03-11T03:31:18Z</time></trkpt><trkpt lat="35.8300987" lon="139.1811183"><ele>727.4866666666667</ele><time>2023-03-11T03:31:30Z</time></trkpt><trkpt lat="35.830018" lon="139.1813266"><ele>728.9733333333334</ele><time>2023-03-11T03:31:46Z</time></trkpt><trkpt lat="35.8300178" lon="139.1815535"><ele>730.1766666666667</ele><time>2023-03-11T03:32:05Z</time></trkpt><trkpt lat="35.8299154" lon="139.1817513"><ele>729.8133333333334</ele><time>2023-03-11T03:32:21Z</time></trkpt><trkpt lat="35.8297811" lon="139.1819053"><ele>726.6533333333333</ele><time>2023-03-11T03:32:43Z</time></trkpt><trkpt lat="35.8296229" lon="139.1820183"><ele>721.6999999999999</ele><time>2023-03-11T03:33:00Z</time></trkpt><trkpt lat="35.829474" lon="139.1821451"><ele>715.8933333333333</ele><time>2023-03-11T03:33:16Z</time></trkpt><trkpt lat="35.8293405" lon="139.1822955"><ele>714.1633333333333</ele><time>2023-03-11T03:34:25Z</time></trkpt><trkpt lat="35.8292964" lon="139.1825238"><ele>715.34</ele><time>2023-03-11T03:34:52Z</time></trkpt><trkpt lat="35.8292516" lon="139.182747"><ele>718.1933333333333</ele><time>2023-03-11T03:35:03Z</time></trkpt><trkpt lat="35.8291975" lon="139.1829598"><ele>721.65</ele><time>2023-03-11T03:35:14Z</time></trkpt><trkpt lat="35.8291853" lon="139.1831893"><ele>724.8666666666667</ele><time>2023-03-11T03:35:26Z</time></trkpt><trkpt lat="35.8292575" lon="139.1833994"><ele>727.4433333333333</ele><time>2023-03-11T03:35:42Z</time></trkpt><trkpt lat="35.8293609" lon="139.183583"><ele>727.3333333333334</ele><time>2023-03-11T03:35:57Z</time></trkpt><trkpt lat="35.8294185" lon="139.1837952"><ele>727.25</ele><time>2023-03-11T03:36:11Z</time></trkpt><trkpt lat="35.8293736" lon="139.1840155"><ele>728.3366666666667</ele><time>2023-03-11T03:36:25Z</time></trkpt><trkpt lat="35.8294059" lon="139.1842408"><ele>729.9766666666666</ele><time>2023-03-11T03:36:39Z</time></trkpt><trkpt lat="35.8295261" lon="139.184421"><ele>731.0066666666667</ele><time>2023-03-11T03:37:00Z</time></trkpt><trkpt lat="35.8296068" lon="139.1846248"><ele>730.8833333333333</ele><time>2023-03-11T03:37:15Z</time></trkpt><trkpt lat="35.8296452" lon="139.1848469"><ele>730.14</ele><time>2023-03-11T03:37:29Z</time></trkpt><trkpt lat="35.8296157" lon="139.1850679"><ele>730.2133333333335</ele><time>2023-03-11T03:37:43Z</time></trkpt><trkpt lat="35.8296228" lon="139.1852904"><ele>729.6566666666668</ele><time>2023-03-11T03:37:57Z</time></trkpt><trkpt lat="35.8296424" lon="139.1855119"><ele>728.0999999999999</ele><time>2023-03-11T03:38:27Z</time></trkpt><trkpt lat="35.8296328" lon="139.1857336"><ele>726.1466666666666</ele><time>2023-03-11T03:39:18Z</time></trkpt><trkpt lat="35.8296268" lon="139.1859591"><ele>724.7566666666667</ele><time>2023-03-11T03:39:39Z</time></trkpt><trkpt lat="35.8296472" lon="139.1861905"><ele>723.75</ele><time>2023-03-11T03:39:54Z</time></trkpt><trkpt lat="35.8295881" lon="139.1864156"><ele>722.0533333333333</ele><time>2023-03-11T03:40:07Z</time></trkpt><trkpt lat="35.8295431" lon="139.1866439"><ele>718.9866666666667</ele><time>2023-03-11T03:40:19Z</time></trkpt><trkpt lat="35.8295226" lon="139.1868728"><ele>715.6966666666667</ele><time>2023-03-11T03:40:32Z</time></trkpt><trkpt lat="35.8294951" lon="139.187092"><ele>715.08</ele><time>2023-03-11T03:40:59Z</time></trkpt><trkpt lat="35.8293994" lon="139.1872958"><ele>716.6633333333334</ele><time>2023-03-11T03:41:16Z</time></trkpt><trkpt lat="35.8293524" lon="139.1875221"><ele>718.4499999999999</ele><time>2023-03-11T03:41:29Z</time></trkpt><trkpt lat="35.829313" lon="139.1877427"><ele>717.0566666666667</ele><time>2023-03-11T03:41:50Z</time></trkpt><trkpt lat="35.8293351" lon="139.1879658"><ele>716.41</ele><time>2023-03-11T03:42:06Z</time></trkpt><trkpt lat="35.8293513" lon="139.1881941"><ele>718.4033333333333</ele><time>2023-03-11T03:42:24Z</time></trkpt><trkpt lat="35.8295262" lon="139.1882805"><ele>718.5</ele><time>2023-03-11T03:42:38Z</time></trkpt><trkpt lat="35.8297009" lon="139.1883434"><ele>715.17</ele><time>2023-03-11T03:42:49Z</time></trkpt><trkpt lat="35.8296482" lon="139.1885558"><ele>710.9933333333333</ele><time>2023-03-11T03:43:04Z</time></trkpt><trkpt lat="35.8295489" lon="139.1887464"><ele>712.6999999999999</ele><time>2023-03-11T03:43:17Z</time></trkpt><trkpt lat="35.8295459" lon="139.1889736"><ele>715.41</ele><time>2023-03-11T03:43:31Z</time></trkpt><trkpt lat="35.8294622" lon="139.1891715"><ele>716.9200000000001</ele><time>2023-03-11T03:43:47Z</time></trkpt><trkpt lat="35.8293526" lon="139.1893521"><ele>717.18</ele><time>2023-03-11T03:44:01Z</time></trkpt><trkpt lat="35.8293128" lon="139.1895812"><ele>718.1333333333333</ele><time>2023-03-11T03:44:16Z</time></trkpt><trkpt lat="35.8293841" lon="139.1897996"><ele>718.15</ele><time>2023-03-11T03:44:31Z</time></trkpt><trkpt lat="35.829297" lon="139.1899945"><ele>717.5133333333333</ele><time>2023-03-11T03:44:46Z</time></trkpt><trkpt lat="35.8291388" lon="139.1901316"><ele>719.5099999999999</ele><time>2023-03-11T03:45:02Z</time></trkpt><trkpt lat="35.8290401" lon="139.1903264"><ele>722.5666666666666</ele><time>2023-03-11T03:45:21Z</time></trkpt><trkpt lat="35.8289291" lon="139.1905028"><ele>724.0466666666667</ele><time>2023-03-11T03:45:36Z</time></trkpt><trkpt lat="35.8288029" lon="139.1906646"><ele>721.85</ele><time>2023-03-11T03:46:05Z</time></trkpt><trkpt lat="35.8286472" lon="139.1907998"><ele>718.4466666666667</ele><time>2023-03-11T03:46:20Z</time></trkpt><trkpt lat="35.8286117" lon="139.1910194"><ele>714.9866666666667</ele><time>2023-03-11T03:47:17Z</time></trkpt><trkpt lat="35.8284642" lon="139.1908644"><ele>713.7633333333333</ele><time>2023-03-11T03:48:58Z</time></trkpt><trkpt lat="35.8282828" lon="139.1909292"><ele>715.2366666666667</ele><time>2023-03-11T03:49:17Z</time></trkpt><trkpt lat="35.8283163" lon="139.1911499"><ele>715.7566666666667</ele><time>2023-03-11T03:49:44Z</time></trkpt><trkpt lat="35.8284964" lon="139.1911648"><ele>713.9166666666666</ele><time>2023-03-11T03:58:37Z</time></trkpt><trkpt lat="35.8286742" lon="139.1912067"><ele>710.6</ele><time>2023-03-11T03:59:08Z</time></trkpt><trkpt lat="35.8285191" lon="139.19132"><ele>706.7066666666666</ele><time>2023-03-11T04:00:11Z</time></trkpt><trkpt lat="35.8283463" lon="139.1914094"><ele>705.7533333333334</ele><time>2023-03-11T04:00:27Z</time></trkpt><trkpt lat="35.8281853" lon="139.1915328"><ele>706.6066666666667</ele><time>2023-03-11T04:00:42Z</time></trkpt><trkpt lat="35.8282148" lon="139.1917615"><ele>709.5566666666667</ele><time>2023-03-11T04:00:51Z</time></trkpt><trkpt lat="35.8282599" lon="139.1919767"><ele>709.7533333333334</ele><time>2023-03-11T04:01:03Z</time></trkpt><trkpt lat="35.8281768" lon="139.1921796"><ele>710.4133333333334</ele><time>2023-03-11T04:01:17Z</time></trkpt><trkpt lat="35.828183" lon="139.1924075"><ele>709.0833333333334</ele><time>2023-03-11T04:01:28Z</time></trkpt><trkpt lat="35.8282213" lon="139.1926257"><ele>708.39</ele><time>2023-03-11T04:01:42Z</time></trkpt><trkpt lat="35.8281367" lon="139.1928361"><ele>704.0533333333333</ele><time>2023-03-11T04:02:01Z</time></trkpt><trkpt lat="35.8280268" lon="139.1930491"><ele>701.7166666666667</ele><time>2023-03-11T04:02:14Z</time></trkpt><trkpt lat="35.8278733" lon="139.1931706"><ele>700.85</ele><time>2023-03-11T04:02:30Z</time></trkpt><trkpt lat="35.8277676" lon="139.193351"><ele>700.08</ele><time>2023-03-11T04:02:45Z</time></trkpt><trkpt lat="35.8276791" lon="139.1935486"><ele>698.4233333333333</ele><time>2023-03-11T04:03:14Z</time></trkpt><trkpt lat="35.8275361" lon="139.1936941"><ele>693.6533333333333</ele><time>2023-03-11T04:03:28Z</time></trkpt><trkpt lat="35.8273565" lon="139.1937194"><ele>689.6966666666667</ele><time>2023-03-11T04:03:53Z</time></trkpt><trkpt lat="35.8271699" lon="139.1937572"><ele>685.93</ele><time>2023-03-11T04:04:20Z</time></trkpt><trkpt lat="35.8270013" lon="139.1938366"><ele>682.3933333333333</ele><time>2023-03-11T04:04:37Z</time></trkpt><trkpt lat="35.8269961" lon="139.193612"><ele>677.8866666666667</ele><time>2023-03-11T04:05:10Z</time></trkpt><trkpt lat="35.8268146" lon="139.1936207"><ele>670.9866666666667</ele><time>2023-03-11T04:05:41Z</time></trkpt><trkpt lat="35.8266348" lon="139.1935764"><ele>662.3433333333334</ele><time>2023-03-11T04:06:12Z</time></trkpt><trkpt lat="35.8264626" lon="139.1936471"><ele>652.9700000000001</ele><time>2023-03-11T04:07:41Z</time></trkpt><trkpt lat="35.8263789" lon="139.1938481"><ele>646.2166666666667</ele><time>2023-03-11T04:07:55Z</time></trkpt><trkpt lat="35.8263141" lon="139.1940787"><ele>643.0233333333334</ele><time>2023-03-11T04:08:09Z</time></trkpt><trkpt lat="35.8262136" lon="139.1942684"><ele>640.1166666666667</ele><time>2023-03-11T04:08:29Z</time></trkpt><trkpt lat="35.8260257" lon="139.1942075"><ele>635.6966666666667</ele><time>2023-03-11T04:08:36Z</time></trkpt><trkpt lat="35.8258491" lon="139.1943044"><ele>630.1033333333334</ele><time>2023-03-11T04:08:49Z</time></trkpt><trkpt lat="35.8257151" lon="139.1944575"><ele>625.4566666666666</ele><time>2023-03-11T04:09:02Z</time></trkpt><trkpt lat="35.825648" lon="139.1946767"><ele>623.1566666666666</ele><time>2023-03-11T04:09:14Z</time></trkpt><trkpt lat="35.825479" lon="139.1947861"><ele>620.7733333333333</ele><time>2023-03-11T04:09:48Z</time></trkpt><trkpt lat="35.8253189" lon="139.194917"><ele>616.8566666666666</ele><time>2023-03-11T04:09:58Z</time></trkpt><trkpt lat="35.8251798" lon="139.1950736"><ele>611.2900000000001</ele><time>2023-03-11T04:10:17Z</time></trkpt><trkpt lat="35.8250597" lon="139.1952441"><ele>607.0300000000001</ele><time>2023-03-11T04:10:28Z</time></trkpt><trkpt lat="35.8249074" lon="139.1953635"><ele>602.0666666666667</ele><time>2023-03-11T04:10:40Z</time></trkpt><trkpt lat="35.8247406" lon="139.1954517"><ele>596.1266666666667</ele><time>2023-03-11T04:11:05Z</time></trkpt><trkpt lat="35.8246391" lon="139.19564"><ele>590.2666666666668</ele><time>2023-03-11T04:11:25Z</time></trkpt><trkpt lat="35.824521" lon="139.1958113"><ele>586.7466666666667</ele><time>2023-03-11T04:11:57Z</time></trkpt><trkpt lat="35.8243509" lon="139.195885"><ele>583.8733333333333</ele><time>2023-03-11T04:12:37Z</time></trkpt><trkpt lat="35.8241731" lon="139.1959238"><ele>579.8266666666667</ele><time>2023-03-11T04:12:52Z</time></trkpt><trkpt lat="35.8239853" lon="139.1958952"><ele>573.7433333333333</ele><time>2023-03-11T04:13:10Z</time></trkpt><trkpt lat="35.8238404" lon="139.1960279"><ele>568.9733333333334</ele><time>2023-03-11T04:13:27Z</time></trkpt><trkpt lat="35.8238598" lon="139.1962495"><ele>563.6033333333334</ele><time>2023-03-11T04:13:51Z</time></trkpt><trkpt lat="35.8237385" lon="139.1964385"><ele>557.8833333333333</ele><time>2023-03-11T04:14:23Z</time></trkpt><trkpt lat="35.8238352" lon="139.1966334"><ele>549.16</ele><time>2023-03-11T04:14:55Z</time></trkpt><trkpt lat="35.8237183" lon="139.1968084"><ele>540.8666666666667</ele><time>2023-03-11T04:15:18Z</time></trkpt><trkpt lat="35.8236756" lon="139.1970353"><ele>532.16</ele><time>2023-03-11T04:15:35Z</time></trkpt><trkpt lat="35.8237524" lon="139.1972468"><ele>523.8</ele><time>2023-03-11T04:15:57Z</time></trkpt><trkpt lat="35.8239365" lon="139.1972262"><ele>515.6800000000001</ele><time>2023-03-11T04:16:57Z</time></trkpt><trkpt lat="35.824087" lon="139.1973621"><ele>507.89000000000004</ele><time>2023-03-11T04:17:42Z</time></trkpt><trkpt lat="35.8240652" lon="139.1975822"><ele>498.1566666666667</ele><time>2023-03-11T04:18:22Z</time></trkpt><trkpt lat="35.8241669" lon="139.197765"><ele>488.4166666666667</ele><time>2023-03-11T04:18:51Z</time></trkpt><trkpt lat="35.8241565" lon="139.1979879"><ele>478.41</ele><time>2023-03-11T04:19:18Z</time></trkpt><trkpt lat="35.8241692" lon="139.1982231"><ele>469.78000000000003</ele><time>2023-03-11T04:20:29Z</time></trkpt><trkpt lat="35.8242347" lon="139.1984322"><ele>460.6366666666666</ele><time>2023-03-11T04:21:25Z</time></trkpt><trkpt lat="35.8241538" lon="139.1986345"><ele>455.26666666666665</ele><time>2023-03-11T04:21:37Z</time></trkpt><trkpt lat="35.8240228" lon="139.1987967"><ele>451.4566666666667</ele><time>2023-03-11T04:22:05Z</time></trkpt><trkpt lat="35.8238861" lon="139.1989446"><ele>447.41333333333336</ele><time>2023-03-11T04:22:28Z</time></trkpt><trkpt lat="35.8237634" lon="139.1991154"><ele>442.46666666666664</ele><time>2023-03-11T04:22:48Z</time></trkpt><trkpt lat="35.8235958" lon="139.1992055"><ele>437.48333333333335</ele><time>2023-03-11T04:23:31Z</time></trkpt><trkpt lat="35.8234286" lon="139.1993058"><ele>433.09666666666664</ele><time>2023-03-11T04:23:44Z</time></trkpt><trkpt lat="35.8232471" lon="139.1993135"><ele>430.7066666666667</ele><time>2023-03-11T04:23:55Z</time></trkpt><trkpt lat="35.8230837" lon="139.1994167"><ele>430.2566666666667</ele><time>2023-03-11T04:24:11Z</time></trkpt><trkpt lat="35.8229623" lon="139.199591"><ele>428.94000000000005</ele><time>2023-03-11T04:24:31Z</time></trkpt><trkpt lat="35.822787" lon="139.1996655"><ele>425.3500000000001</ele><time>2023-03-11T04:24:54Z</time></trkpt><trkpt lat="35.822646" lon="139.1998118"><ele>419.14000000000004</ele><time>2023-03-11T04:25:16Z</time></trkpt><trkpt lat="35.8225401" lon="139.1999927"><ele>411.7633333333333</ele><time>2023-03-11T04:25:45Z</time></trkpt><trkpt lat="35.8223654" lon="139.2000554"><ele>403.87999999999994</ele><time>2023-03-11T04:26:13Z</time></trkpt><trkpt lat="35.8221892" lon="139.2001391"><ele>397.4066666666667</ele><time>2023-03-11T04:26:26Z</time></trkpt><trkpt lat="35.8220011" lon="139.2001391"><ele>392.35666666666674</ele><time>2023-03-11T04:26:39Z</time></trkpt><trkpt lat="35.8218224" lon="139.2001764"><ele>387.6366666666667</ele><time>2023-03-11T04:26:59Z</time></trkpt><trkpt lat="35.8216499" lon="139.2002685"><ele>382.6333333333334</ele><time>2023-03-11T04:27:14Z</time></trkpt><trkpt lat="35.8214654" lon="139.2002864"><ele>379.21333333333337</ele><time>2023-03-11T04:27:25Z</time></trkpt><trkpt lat="35.821302" lon="139.2004126"><ele>375.3233333333333</ele><time>2023-03-11T04:27:40Z</time></trkpt><trkpt lat="35.8211187" lon="139.2004702"><ele>372.47333333333336</ele><time>2023-03-11T04:27:51Z</time></trkpt><trkpt lat="35.820957" lon="139.2005764"><ele>368.44000000000005</ele><time>2023-03-11T04:28:03Z</time></trkpt><trkpt lat="35.8207892" lon="139.200717"><ele>366.46333333333337</ele><time>2023-03-11T04:28:19Z</time></trkpt><trkpt lat="35.82062" lon="139.2007947"><ele>364.52666666666664</ele><time>2023-03-11T04:28:30Z</time></trkpt><trkpt lat="35.8204312" lon="139.2007885"><ele>365.2633333333333</ele><time>2023-03-11T04:28:46Z</time></trkpt><trkpt lat="35.8203249" lon="139.2009837"><ele>361.6666666666667</ele><time>2023-03-11T04:29:01Z</time></trkpt><trkpt lat="35.8201813" lon="139.2011182"><ele>358.65333333333336</ele><time>2023-03-11T04:29:15Z</time></trkpt><trkpt lat="35.8200102" lon="139.2011957"><ele>354.69</ele><time>2023-03-11T04:29:30Z</time></trkpt><trkpt lat="35.8198532" lon="139.2013083"><ele>353.87999999999994</ele><time>2023-03-11T04:29:43Z</time></trkpt><trkpt lat="35.8196919" lon="139.2014142"><ele>348.9266666666667</ele><time>2023-03-11T04:30:00Z</time></trkpt><trkpt lat="35.819516" lon="139.2014871"><ele>344.0833333333333</ele><time>2023-03-11T04:30:18Z</time></trkpt><trkpt lat="35.8193181" lon="139.2015057"><ele>337.93</ele><time>2023-03-11T04:30:30Z</time></trkpt><trkpt lat="35.8191372" lon="139.2015314"><ele>335.8233333333333</ele><time>2023-03-11T04:30:55Z</time></trkpt><trkpt lat="35.8189568" lon="139.2014798"><ele>335.53666666666663</ele><time>2023-03-11T04:31:07Z</time></trkpt><trkpt lat="35.8188272" lon="139.2016484"><ele>333.75333333333333</ele><time>2023-03-11T04:31:22Z</time></trkpt><trkpt lat="35.8186724" lon="139.2017821"><ele>329.08666666666664</ele><time>2023-03-11T04:31:35Z</time></trkpt><trkpt lat="35.8185266" lon="139.2019222"><ele>321.7766666666667</ele><time>2023-03-11T04:31:47Z</time></trkpt><trkpt lat="35.818405" lon="139.202098"><ele>317.33</ele><time>2023-03-11T04:31:57Z</time></trkpt><trkpt lat="35.8182657" lon="139.2022419"><ele>313.3933333333334</ele><time>2023-03-11T04:32:19Z</time></trkpt><trkpt lat="35.8180897" lon="139.2023161"><ele>307.8933333333333</ele><time>2023-03-11T04:32:32Z</time></trkpt><trkpt lat="35.8179412" lon="139.2024419"><ele>301.93333333333334</ele><time>2023-03-11T04:32:43Z</time></trkpt><trkpt lat="35.8177695" lon="139.2023656"><ele>298.0266666666667</ele><time>2023-03-11T04:32:58Z</time></trkpt><trkpt lat="35.8176119" lon="139.2025436"><ele>296.29</ele><time>2023-03-11T04:33:16Z</time></trkpt><trkpt lat="35.817502" lon="139.2027344"><ele>296.05333333333334</ele><time>2023-03-11T04:33:27Z</time></trkpt><trkpt lat="35.8174655" lon="139.2029572"><ele>296.6233333333334</ele><time>2023-03-11T04:33:39Z</time></trkpt><trkpt lat="35.8175869" lon="139.2031367"><ele>296.97333333333336</ele><time>2023-03-11T04:33:45Z</time></trkpt><trkpt lat="35.8176608" lon="139.2033418"><ele>296.5033333333334</ele><time>2023-03-11T04:33:57Z</time></trkpt><trkpt lat="35.8177577" lon="139.2035328"><ele>293.8766666666667</ele><time>2023-03-11T04:34:07Z</time></trkpt><trkpt lat="35.8178379" lon="139.2037471"><ele>291.16333333333336</ele><time>2023-03-11T04:34:22Z</time></trkpt><trkpt lat="35.8179161" lon="139.2039523"><ele>288.63</ele><time>2023-03-11T04:34:35Z</time></trkpt><trkpt lat="35.8178225" lon="139.2041624"><ele>287.69666666666666</ele><time>2023-03-11T04:34:48Z</time></trkpt><trkpt lat="35.8178013" lon="139.204395"><ele>286.77</ele><time>2023-03-11T04:35:02Z</time></trkpt><trkpt lat="35.8176413" lon="139.2045133"><ele>285.94</ele><time>2023-03-11T04:35:15Z</time></trkpt><trkpt lat="35.8174524" lon="139.2044768"><ele>285.67</ele><time>2023-03-11T04:35:31Z</time></trkpt><trkpt lat="35.8172733" lon="139.2044484"><ele>285.8433333333333</ele><time>2023-03-11T04:35:57Z</time></trkpt><trkpt lat="35.8171117" lon="139.2045523"><ele>285.95</ele><time>2023-03-11T04:36:10Z</time></trkpt><trkpt lat="35.8170052" lon="139.2047355"><ele>284.7</ele><time>2023-03-11T04:36:24Z</time></trkpt><trkpt lat="35.8168588" lon="139.2048942"><ele>282.5333333333333</ele><time>2023-03-11T04:36:40Z</time></trkpt><trkpt lat="35.8166765" lon="139.2049613"><ele>280.3966666666667</ele><time>2023-03-11T04:36:51Z</time></trkpt><trkpt lat="35.8165421" lon="139.2051285"><ele>278.95666666666665</ele><time>2023-03-11T04:37:04Z</time></trkpt><trkpt lat="35.8163981" lon="139.2052661"><ele>278.2633333333333</ele><time>2023-03-11T04:37:21Z</time></trkpt><trkpt lat="35.8162352" lon="139.2053853"><ele>277.27</ele><time>2023-03-11T04:37:32Z</time></trkpt><trkpt lat="35.8161258" lon="139.2055669"><ele>275.68666666666667</ele><time>2023-03-11T04:37:46Z</time></trkpt><trkpt lat="35.815944" lon="139.2056246"><ele>273.53</ele><time>2023-03-11T04:38:00Z</time></trkpt><trkpt lat="35.8157554" lon="139.2056671"><ele>271.4266666666667</ele><time>2023-03-11T04:38:12Z</time></trkpt><trkpt lat="35.8155812" lon="139.2057485"><ele>270.16</ele><time>2023-03-11T04:38:25Z</time></trkpt><trkpt lat="35.8154887" lon="139.205952"><ele>269.3866666666667</ele><time>2023-03-11T04:38:39Z</time></trkpt><trkpt lat="35.8154464" lon="139.2061716"><ele>269.09999999999997</ele><time>2023-03-11T04:38:52Z</time></trkpt><trkpt lat="35.8155194" lon="139.2063871"><ele>268.5566666666667</ele><time>2023-03-11T04:39:03Z</time></trkpt><trkpt lat="35.8155393" lon="139.2066198"><ele>268.33666666666664</ele><time>2023-03-11T04:39:16Z</time></trkpt><trkpt lat="35.8154344" lon="139.2068002"><ele>267.53000000000003</ele><time>2023-03-11T04:39:30Z</time></trkpt><trkpt lat="35.8153224" lon="139.2070197"><ele>266.6966666666667</ele><time>2023-03-11T04:39:46Z</time></trkpt><trkpt lat="35.8152554" lon="139.2072256"><ele>265.56333333333333</ele><time>2023-03-11T04:39:58Z</time></trkpt><trkpt lat="35.8152196" lon="139.2074433"><ele>264.37999999999994</ele><time>2023-03-11T04:40:10Z</time></trkpt><trkpt lat="35.8152135" lon="139.2076667"><ele>262.8733333333334</ele><time>2023-03-11T04:40:22Z</time></trkpt><trkpt lat="35.8151169" lon="139.207873"><ele>261.24666666666667</ele><time>2023-03-11T04:40:35Z</time></trkpt><trkpt lat="35.8149594" lon="139.2079917"><ele>259.8933333333334</ele><time>2023-03-11T04:40:57Z</time></trkpt><trkpt lat="35.814777" lon="139.2080557"><ele>258.8966666666667</ele><time>2023-03-11T04:41:10Z</time></trkpt><trkpt lat="35.8146118" lon="139.2081559"><ele>257.89000000000004</ele><time>2023-03-11T04:41:21Z</time></trkpt><trkpt lat="35.8144537" lon="139.2082775"><ele>256.92</ele><time>2023-03-11T04:41:34Z</time></trkpt><trkpt lat="35.8142998" lon="139.2084154"><ele>255.78666666666666</ele><time>2023-03-11T04:41:46Z</time></trkpt><trkpt lat="35.8141243" lon="139.2085014"><ele>255.13666666666666</ele><time>2023-03-11T04:42:02Z</time></trkpt><trkpt lat="35.8139571" lon="139.2085883"><ele>254.68999999999997</ele><time>2023-03-11T04:42:15Z</time></trkpt><trkpt lat="35.8138133" lon="139.2087306"><ele>253.14666666666665</ele><time>2023-03-11T04:42:31Z</time></trkpt><trkpt lat="35.8136436" lon="139.208832"><ele>250.97</ele><time>2023-03-11T04:42:42Z</time></trkpt><trkpt lat="35.8134714" lon="139.2087184"><ele>248.9666666666667</ele><time>2023-03-11T04:42:52Z</time></trkpt><trkpt lat="35.8133425" lon="139.2085606"><ele>248.92</ele><time>2023-03-11T04:43:02Z</time></trkpt><trkpt lat="35.8131932" lon="139.2084298"><ele>249.18666666666664</ele><time>2023-03-11T04:43:14Z</time></trkpt><trkpt lat="35.8130992" lon="139.2082401"><ele>249.99666666666667</ele><time>2023-03-11T04:43:25Z</time></trkpt><trkpt lat="35.812948" lon="139.2080993"><ele>250.99</ele><time>2023-03-11T04:43:37Z</time></trkpt><trkpt lat="35.8127633" lon="139.2081684"><ele>250.39333333333332</ele><time>2023-03-11T04:43:45Z</time></trkpt><trkpt lat="35.8126058" lon="139.208298"><ele>248.10999999999999</ele><time>2023-03-11T04:43:53Z</time></trkpt><trkpt lat="35.8124535" lon="139.2084439"><ele>243.92333333333332</ele><time>2023-03-11T04:44:04Z</time></trkpt><trkpt lat="35.8123049" lon="139.2085753"><ele>241.14000000000001</ele><time>2023-03-11T04:44:15Z</time></trkpt><trkpt lat="35.8121849" lon="139.2087537"><ele>239.25333333333333</ele><time>2023-03-11T04:44:27Z</time></trkpt><trkpt lat="35.8120611" lon="139.2089249"><ele>238.35000000000002</ele><time>2023-03-11T04:44:39Z</time></trkpt><trkpt lat="35.8119038" lon="139.2090333"><ele>237.78666666666666</ele><time>2023-03-11T04:44:50Z</time></trkpt><trkpt lat="35.8117829" lon="139.2092108"><ele>237.08666666666667</ele><time>2023-03-11T04:45:02Z</time></trkpt><trkpt lat="35.8116248" lon="139.2093262"><ele>236.14666666666668</ele><time>2023-03-11T04:45:16Z</time></trkpt><trkpt lat="35.8114321" lon="139.2092703"><ele>235.60000000000002</ele><time>2023-03-11T04:45:28Z</time></trkpt><trkpt lat="35.8112483" lon="139.2092911"><ele>235.37333333333333</ele><time>2023-03-11T04:45:40Z</time></trkpt><trkpt lat="35.8111014" lon="139.2094276"><ele>234.51666666666668</ele><time>2023-03-11T04:45:55Z</time></trkpt><trkpt lat="35.8109183" lon="139.2093557"><ele>232.76666666666668</ele><time>2023-03-11T04:46:05Z</time></trkpt><trkpt lat="35.8107453" lon="139.2092777"><ele>231.72000000000003</ele><time>2023-03-11T04:46:18Z</time></trkpt><trkpt lat="35.8105514" lon="139.2092755"><ele>232.76333333333335</ele><time>2023-03-11T04:46:30Z</time></trkpt><trkpt lat="35.8103752" lon="139.2093502"><ele>234.9766666666667</ele><time>2023-03-11T04:46:40Z</time></trkpt><trkpt lat="35.8102191" lon="139.2094841"><ele>235.50666666666666</ele><time>2023-03-11T04:46:52Z</time></trkpt><trkpt lat="35.8101369" lon="139.2096929"><ele>233.32000000000002</ele><time>2023-03-11T04:47:01Z</time></trkpt><trkpt lat="35.8099694" lon="139.2097885"><ele>230.07000000000002</ele><time>2023-03-11T04:47:14Z</time></trkpt><trkpt lat="35.8097891" lon="139.2097037"><ele>228.16666666666666</ele><time>2023-03-11T04:47:31Z</time></trkpt><trkpt lat="35.8096096" lon="139.209746"><ele>227.36333333333334</ele><time>2023-03-11T04:47:46Z</time></trkpt><trkpt lat="35.8094074" lon="139.2097259"><ele>226.51333333333332</ele><time>2023-03-11T04:48:00Z</time></trkpt><trkpt lat="35.8092288" lon="139.2096781"><ele>225.05333333333337</ele><time>2023-03-11T04:48:10Z</time></trkpt><trkpt lat="35.8090477" lon="139.2096483"><ele>224.95666666666668</ele><time>2023-03-11T04:48:26Z</time></trkpt><trkpt lat="35.8089861" lon="139.2094224"><ele>225.96000000000004</ele><time>2023-03-11T04:49:09Z</time></trkpt><trkpt lat="35.8088723" lon="139.2092494"><ele>227.23666666666668</ele><time>2023-03-11T04:49:21Z</time></trkpt><trkpt lat="35.8087193" lon="139.2090902"><ele>227.82666666666668</ele><time>2023-03-11T04:49:36Z</time></trkpt><trkpt lat="35.8085575" lon="139.2089763"><ele>228.06333333333336</ele><time>2023-03-11T04:49:48Z</time></trkpt><trkpt lat="35.8084401" lon="139.2087983"><ele>231.0533333333333</ele><time>2023-03-11T04:50:01Z</time></trkpt><trkpt lat="35.8083574" lon="139.2085989"><ele>236.42</ele><time>2023-03-11T04:50:14Z</time></trkpt><trkpt lat="35.808275" lon="139.2083903"><ele>242.31000000000003</ele><time>2023-03-11T04:50:28Z</time></trkpt><trkpt lat="35.8080964" lon="139.2083127"><ele>246.16333333333333</ele><time>2023-03-11T04:50:39Z</time></trkpt><trkpt lat="35.8079757" lon="139.2081285"><ele>247.89666666666665</ele><time>2023-03-11T04:50:55Z</time></trkpt><trkpt lat="35.8079069" lon="139.2079165"><ele>249.22</ele><time>2023-03-11T04:51:07Z</time></trkpt><trkpt lat="35.8077512" lon="139.2077974"><ele>248.4</ele><time>2023-03-11T04:51:18Z</time></trkpt></trkseg></trk></gpx>