<?xml version='1.0' encoding='UTF-8'?><gpx creator="YAMAP - https://yamap.com" xsi:schemaLocation="http://www.topografix.com/GPX/1/1 http://www.topografix.com/GPX/1/1/gpx.xsd" version="1.1" xmlns="http://www.topografix.com/GPX/1/1" xmlns:xsi="http://www.w3.org/2001/XMLSchema-instance"><metadata><bounds maxlat="35.7902248" maxlon="139.2308674" minlat="35.7322859" minlon="139.1501983"/></metadata><trk><name>辛神尾根・ロンデン尾根を歩いて日の出山</name><number>1</number><trkseg><trkpt lat="35.7324286" lon="139.2284002"><ele>189.0</ele><time>2024-03-09T23:19:03Z</time></trkpt><trkpt lat="35.7324422" lon="139.2286335"><ele>188.72</ele><time>2024-03-09T23:19:41Z</time></trkpt><trkpt lat="35.732337" lon="139.2288269"><ele>188.3033333333333</ele><time>2024-03-09T23:19:41Z</time></trkpt><trkpt lat="35.7322859" lon="139.2290449"><ele>187.63333333333333</ele><time>2024-03-09T23:20:15Z</time></trkpt><trkpt lat="35.7324341" lon="139.2291901"><ele>187.33666666666667</ele><time>2024-03-09T23:20:21Z</time></trkpt><trkpt lat="35.7326186" lon="139.2293207"><ele>187.08333333333334</ele><time>2024-03-09T23:20:31Z</time></trkpt><trkpt lat="35.7327639" lon="139.2294661"><ele>186.75</ele><time>2024-03-09T23:20:44Z</time></trkpt><trkpt lat="35.7328748" lon="139.2296468"><ele>185.83666666666667</ele><time>2024-03-09T23:21:03Z</time></trkpt><trkpt lat="35.7330224" lon="139.2297807"><ele>184.81000000000003</ele><time>2024-03-09T23:21:09Z</time></trkpt><trkpt lat="35.7331879" lon="139.2298716"><ele>183.85</ele><time>2024-03-09T23:21:26Z</time></trkpt><trkpt lat="35.7333086" lon="139.2300478"><ele>182.98666666666668</ele><time>2024-03-09T23:21:36Z</time></trkpt><trkpt lat="35.7334448" lon="139.2302246"><ele>182.23333333333335</ele><time>2024-03-09T23:21:50Z</time></trkpt><trkpt lat="35.7335723" lon="139.2303839"><ele>181.60333333333335</ele><time>2024-03-09T23:22:00Z</time></trkpt><trkpt lat="35.7337496" lon="139.230486"><ele>181.14333333333335</ele><time>2024-03-09T23:22:14Z</time></trkpt><trkpt lat="35.7337979" lon="139.2307028"><ele>181.42999999999998</ele><time>2024-03-09T23:22:23Z</time></trkpt><trkpt lat="35.7339309" lon="139.2308674"><ele>182.6966666666667</ele><time>2024-03-09T23:22:35Z</time></trkpt><trkpt lat="35.73413" lon="139.2308208"><ele>184.93666666666664</ele><time>2024-03-09T23:22:47Z</time></trkpt><trkpt lat="35.7343157" lon="139.230743"><ele>187.95333333333335</ele><time>2024-03-09T23:23:05Z</time></trkpt><trkpt lat="35.7344859" lon="139.2306498"><ele>190.87</ele><time>2024-03-09T23:23:17Z</time></trkpt><trkpt lat="35.7346558" lon="139.2305569"><ele>193.21333333333334</ele><time>2024-03-09T23:23:30Z</time></trkpt><trkpt lat="35.7347508" lon="139.2303239"><ele>193.79666666666665</ele><time>2024-03-09T23:23:37Z</time></trkpt><trkpt lat="35.7349052" lon="139.2301764"><ele>193.87333333333333</ele><time>2024-03-09T23:23:45Z</time></trkpt><trkpt lat="35.7350445" lon="139.2300119"><ele>193.54999999999998</ele><time>2024-03-09T23:23:59Z</time></trkpt><trkpt lat="35.7352005" lon="139.2298896"><ele>193.27666666666667</ele><time>2024-03-09T23:24:11Z</time></trkpt><trkpt lat="35.7353179" lon="139.2297188"><ele>192.17</ele><time>2024-03-09T23:24:23Z</time></trkpt><trkpt lat="35.735476" lon="139.2295946"><ele>191.32000000000002</ele><time>2024-03-09T23:24:35Z</time></trkpt><trkpt lat="35.7355859" lon="139.2293919"><ele>191.18666666666664</ele><time>2024-03-09T23:25:02Z</time></trkpt><trkpt lat="35.7356444" lon="139.2291536"><ele>192.26999999999998</ele><time>2024-03-09T23:25:16Z</time></trkpt><trkpt lat="35.7357838" lon="139.2289883"><ele>194.98333333333335</ele><time>2024-03-09T23:25:32Z</time></trkpt><trkpt lat="35.7358536" lon="139.2287805"><ele>200.41666666666666</ele><time>2024-03-09T23:25:46Z</time></trkpt><trkpt lat="35.7359221" lon="139.2285699"><ele>204.86</ele><time>2024-03-09T23:25:56Z</time></trkpt><trkpt lat="35.7359519" lon="139.2283509"><ele>207.24333333333334</ele><time>2024-03-09T23:26:08Z</time></trkpt><trkpt lat="35.7359559" lon="139.2281294"><ele>206.17999999999998</ele><time>2024-03-09T23:26:22Z</time></trkpt><trkpt lat="35.7360638" lon="139.2279256"><ele>205.58</ele><time>2024-03-09T23:26:37Z</time></trkpt><trkpt lat="35.7360992" lon="139.2276933"><ele>204.73000000000002</ele><time>2024-03-09T23:26:55Z</time></trkpt><trkpt lat="35.7362554" lon="139.227575"><ele>205.35666666666665</ele><time>2024-03-09T23:27:05Z</time></trkpt><trkpt lat="35.7364139" lon="139.2274647"><ele>207.19333333333336</ele><time>2024-03-09T23:27:19Z</time></trkpt><trkpt lat="35.7365227" lon="139.2272827"><ele>209.28666666666666</ele><time>2024-03-09T23:27:35Z</time></trkpt><trkpt lat="35.7367003" lon="139.2272306"><ele>210.70333333333335</ele><time>2024-03-09T23:27:47Z</time></trkpt><trkpt lat="35.736859" lon="139.2271087"><ele>210.84</ele><time>2024-03-09T23:28:02Z</time></trkpt><trkpt lat="35.7370241" lon="139.2270044"><ele>211.38333333333333</ele><time>2024-03-09T23:28:14Z</time></trkpt><trkpt lat="35.7371921" lon="139.2268976"><ele>211.73333333333335</ele><time>2024-03-09T23:28:31Z</time></trkpt><trkpt lat="35.7372877" lon="139.2266994"><ele>211.79</ele><time>2024-03-09T23:28:47Z</time></trkpt><trkpt lat="35.7374675" lon="139.2266496"><ele>212.20666666666668</ele><time>2024-03-09T23:28:57Z</time></trkpt><trkpt lat="35.7376528" lon="139.2266291"><ele>212.65333333333334</ele><time>2024-03-09T23:29:10Z</time></trkpt><trkpt lat="35.7378098" lon="139.2265144"><ele>213.76666666666665</ele><time>2024-03-09T23:29:26Z</time></trkpt><trkpt lat="35.7379601" lon="139.2263807"><ele>214.4466666666667</ele><time>2024-03-09T23:29:36Z</time></trkpt><trkpt lat="35.7380542" lon="139.2261827"><ele>215.09333333333333</ele><time>2024-03-09T23:29:52Z</time></trkpt><trkpt lat="35.7381574" lon="139.2259974"><ele>215.92333333333332</ele><time>2024-03-09T23:30:04Z</time></trkpt><trkpt lat="35.7383025" lon="139.2258238"><ele>216.87333333333333</ele><time>2024-03-09T23:30:17Z</time></trkpt><trkpt lat="35.7384835" lon="139.2257503"><ele>218.26333333333332</ele><time>2024-03-09T23:30:27Z</time></trkpt><trkpt lat="35.7385755" lon="139.2255539"><ele>219.06000000000003</ele><time>2024-03-09T23:30:51Z</time></trkpt><trkpt lat="35.7385439" lon="139.2253264"><ele>217.65</ele><time>2024-03-09T23:31:06Z</time></trkpt><trkpt lat="35.7386952" lon="139.2252007"><ele>216.21</ele><time>2024-03-09T23:31:15Z</time></trkpt><trkpt lat="35.7388622" lon="139.2250906"><ele>215.38333333333333</ele><time>2024-03-09T23:31:26Z</time></trkpt><trkpt lat="35.7389797" lon="139.224915"><ele>216.14</ele><time>2024-03-09T23:31:42Z</time></trkpt><trkpt lat="35.7391287" lon="139.2247894"><ele>217.5233333333333</ele><time>2024-03-09T23:32:06Z</time></trkpt><trkpt lat="35.7392534" lon="139.2246265"><ele>217.6833333333333</ele><time>2024-03-09T23:32:21Z</time></trkpt><trkpt lat="35.7393845" lon="139.2244654"><ele>218.72</ele><time>2024-03-09T23:32:42Z</time></trkpt><trkpt lat="35.7395728" lon="139.2244603"><ele>219.39666666666665</ele><time>2024-03-09T23:32:56Z</time></trkpt><trkpt lat="35.739744" lon="139.2245484"><ele>220.9533333333333</ele><time>2024-03-09T23:33:09Z</time></trkpt><trkpt lat="35.7399018" lon="139.2246946"><ele>222.65333333333334</ele><time>2024-03-09T23:33:24Z</time></trkpt><trkpt lat="35.7400099" lon="139.2248762"><ele>223.94000000000003</ele><time>2024-03-09T23:33:40Z</time></trkpt><trkpt lat="35.7401946" lon="139.2248645"><ele>225.36666666666667</ele><time>2024-03-09T23:33:54Z</time></trkpt><trkpt lat="35.7403185" lon="139.2250349"><ele>227.06333333333336</ele><time>2024-03-09T23:34:08Z</time></trkpt><trkpt lat="35.7405294" lon="139.2250683"><ele>228.7166666666667</ele><time>2024-03-09T23:34:20Z</time></trkpt><trkpt lat="35.7406786" lon="139.2251949"><ele>232.99666666666667</ele><time>2024-03-09T23:34:47Z</time></trkpt><trkpt lat="35.7409026" lon="139.2251815"><ele>235.59666666666666</ele><time>2024-03-09T23:35:04Z</time></trkpt><trkpt lat="35.7410827" lon="139.2251146"><ele>235.81000000000003</ele><time>2024-03-09T23:37:21Z</time></trkpt><trkpt lat="35.7409524" lon="139.2249448"><ele>234.08</ele><time>2024-03-09T23:37:31Z</time></trkpt><trkpt lat="35.7409664" lon="139.2247219"><ele>236.65</ele><time>2024-03-09T23:38:36Z</time></trkpt><trkpt lat="35.7411202" lon="139.2245945"><ele>241.55000000000004</ele><time>2024-03-09T23:39:02Z</time></trkpt><trkpt lat="35.7411823" lon="139.2243844"><ele>247.15333333333334</ele><time>2024-03-09T23:39:23Z</time></trkpt><trkpt lat="35.7412095" lon="139.2241581"><ele>248.90666666666667</ele><time>2024-03-09T23:39:40Z</time></trkpt><trkpt lat="35.7413159" lon="139.2239729"><ele>249.01999999999998</ele><time>2024-03-09T23:39:54Z</time></trkpt><trkpt lat="35.7413694" lon="139.223754"><ele>248.02666666666667</ele><time>2024-03-09T23:40:17Z</time></trkpt><trkpt lat="35.7415306" lon="139.2236467"><ele>247.50333333333333</ele><time>2024-03-09T23:40:45Z</time></trkpt><trkpt lat="35.7416362" lon="139.2234588"><ele>252.19000000000003</ele><time>2024-03-09T23:41:58Z</time></trkpt><trkpt lat="35.7417475" lon="139.2232833"><ele>256.7633333333333</ele><time>2024-03-09T23:42:13Z</time></trkpt><trkpt lat="35.7418818" lon="139.2231329"><ele>261.1466666666667</ele><time>2024-03-09T23:42:24Z</time></trkpt><trkpt lat="35.7418835" lon="139.2229116"><ele>262.6066666666667</ele><time>2024-03-09T23:42:39Z</time></trkpt><trkpt lat="35.7419198" lon="139.222681"><ele>263.31666666666666</ele><time>2024-03-09T23:42:53Z</time></trkpt><trkpt lat="35.742071" lon="139.222536"><ele>264.71333333333337</ele><time>2024-03-09T23:43:11Z</time></trkpt><trkpt lat="35.7422686" lon="139.2225178"><ele>267.28999999999996</ele><time>2024-03-09T23:43:25Z</time></trkpt><trkpt lat="35.7424484" lon="139.222547"><ele>270.1266666666666</ele><time>2024-03-09T23:44:19Z</time></trkpt><trkpt lat="35.7426149" lon="139.2224537"><ele>274.12333333333333</ele><time>2024-03-09T23:45:10Z</time></trkpt><trkpt lat="35.7427858" lon="139.2223454"><ele>278.21666666666664</ele><time>2024-03-09T23:46:08Z</time></trkpt><trkpt lat="35.7429644" lon="139.2222858"><ele>283.28333333333336</ele><time>2024-03-09T23:47:10Z</time></trkpt><trkpt lat="35.7430823" lon="139.2220636"><ele>290.0733333333333</ele><time>2024-03-09T23:48:18Z</time></trkpt><trkpt lat="35.7432337" lon="139.2219317"><ele>295.57666666666665</ele><time>2024-03-09T23:48:28Z</time></trkpt><trkpt lat="35.7433147" lon="139.2217328"><ele>298.90333333333336</ele><time>2024-03-09T23:48:55Z</time></trkpt><trkpt lat="35.7432071" lon="139.2215538"><ele>300.22333333333336</ele><time>2024-03-09T23:49:09Z</time></trkpt><trkpt lat="35.7432076" lon="139.2213275"><ele>301.3933333333333</ele><time>2024-03-09T23:49:24Z</time></trkpt><trkpt lat="35.74328" lon="139.2211204"><ele>304.77000000000004</ele><time>2024-03-09T23:50:28Z</time></trkpt><trkpt lat="35.7432704" lon="139.220889"><ele>308.6066666666666</ele><time>2024-03-09T23:51:14Z</time></trkpt><trkpt lat="35.7431637" lon="139.2207099"><ele>313.83666666666664</ele><time>2024-03-09T23:52:51Z</time></trkpt><trkpt lat="35.7431722" lon="139.2204697"><ele>317.18666666666667</ele><time>2024-03-09T23:54:26Z</time></trkpt><trkpt lat="35.7433297" lon="139.2203417"><ele>317.1166666666667</ele><time>2024-03-09T23:54:50Z</time></trkpt><trkpt lat="35.743457" lon="139.2201835"><ele>315.07666666666665</ele><time>2024-03-09T23:55:04Z</time></trkpt><trkpt lat="35.7435452" lon="139.2199784"><ele>315.18666666666667</ele><time>2024-03-09T23:55:25Z</time></trkpt><trkpt lat="35.743666" lon="139.219807"><ele>317.00333333333333</ele><time>2024-03-09T23:55:41Z</time></trkpt><trkpt lat="35.7436443" lon="139.2195712"><ele>318.96</ele><time>2024-03-09T23:56:02Z</time></trkpt><trkpt lat="35.7438105" lon="139.2194547"><ele>319.40000000000003</ele><time>2024-03-09T23:56:17Z</time></trkpt><trkpt lat="35.7439732" lon="139.2193511"><ele>318.92333333333335</ele><time>2024-03-09T23:56:52Z</time></trkpt><trkpt lat="35.7441197" lon="139.2192007"><ele>318.48333333333335</ele><time>2024-03-09T23:57:06Z</time></trkpt><trkpt lat="35.7442962" lon="139.2191148"><ele>319.32</ele><time>2024-03-09T23:58:09Z</time></trkpt><trkpt lat="35.744416" lon="139.2189428"><ele>320.43333333333334</ele><time>2024-03-09T23:58:25Z</time></trkpt><trkpt lat="35.7444841" lon="139.2187305"><ele>318.51666666666665</ele><time>2024-03-09T23:58:53Z</time></trkpt><trkpt lat="35.7445778" lon="139.21854"><ele>313.9433333333333</ele><time>2024-03-09T23:59:23Z</time></trkpt><trkpt lat="35.7445535" lon="139.2183049"><ele>311.9533333333333</ele><time>2024-03-09T23:59:41Z</time></trkpt><trkpt lat="35.7445276" lon="139.2180858"><ele>313.8433333333333</ele><time>2024-03-10T00:00:34Z</time></trkpt><trkpt lat="35.7445505" lon="139.2178596"><ele>318.63000000000005</ele><time>2024-03-10T00:01:09Z</time></trkpt><trkpt lat="35.7446042" lon="139.2176483"><ele>322.44000000000005</ele><time>2024-03-10T00:02:53Z</time></trkpt><trkpt lat="35.744626" lon="139.2174282"><ele>331.17</ele><time>2024-03-10T00:04:26Z</time></trkpt><trkpt lat="35.7446535" lon="139.217201"><ele>343.49</ele><time>2024-03-10T00:05:11Z</time></trkpt><trkpt lat="35.7446772" lon="139.2169789"><ele>356.28</ele><time>2024-03-10T00:06:26Z</time></trkpt><trkpt lat="35.7445785" lon="139.2167925"><ele>365.17333333333335</ele><time>2024-03-10T00:07:11Z</time></trkpt><trkpt lat="35.7444407" lon="139.2166475"><ele>371.1566666666667</ele><time>2024-03-10T00:07:58Z</time></trkpt><trkpt lat="35.7443799" lon="139.2164291"><ele>377.2666666666667</ele><time>2024-03-10T00:08:36Z</time></trkpt><trkpt lat="35.7443727" lon="139.2161965"><ele>381.87000000000006</ele><time>2024-03-10T00:08:51Z</time></trkpt><trkpt lat="35.744351" lon="139.2159684"><ele>386.27</ele><time>2024-03-10T00:09:09Z</time></trkpt><trkpt lat="35.7444274" lon="139.2157604"><ele>389.3633333333334</ele><time>2024-03-10T00:09:30Z</time></trkpt><trkpt lat="35.7445712" lon="139.2156053"><ele>391.7266666666667</ele><time>2024-03-10T00:10:09Z</time></trkpt><trkpt lat="35.7446101" lon="139.2153871"><ele>394.0366666666667</ele><time>2024-03-10T00:10:38Z</time></trkpt><trkpt lat="35.7446921" lon="139.2151893"><ele>396.8866666666667</ele><time>2024-03-10T00:11:22Z</time></trkpt><trkpt lat="35.7447573" lon="139.2149824"><ele>399.8733333333334</ele><time>2024-03-10T00:11:58Z</time></trkpt><trkpt lat="35.7449118" lon="139.2148537"><ele>401.2766666666667</ele><time>2024-03-10T00:12:15Z</time></trkpt><trkpt lat="35.7450947" lon="139.2148368"><ele>402.2866666666667</ele><time>2024-03-10T00:12:41Z</time></trkpt><trkpt lat="35.7452897" lon="139.2148929"><ele>404.1133333333334</ele><time>2024-03-10T00:12:55Z</time></trkpt><trkpt lat="35.7454744" lon="139.2148494"><ele>407.92</ele><time>2024-03-10T00:13:15Z</time></trkpt><trkpt lat="35.7456548" lon="139.214806"><ele>413.20666666666665</ele><time>2024-03-10T00:13:48Z</time></trkpt><trkpt lat="35.7458306" lon="139.2148597"><ele>419.1266666666667</ele><time>2024-03-10T00:15:33Z</time></trkpt><trkpt lat="35.7460038" lon="139.2149585"><ele>425.08</ele><time>2024-03-10T00:15:59Z</time></trkpt><trkpt lat="35.7461962" lon="139.2149757"><ele>430.24333333333334</ele><time>2024-03-10T00:16:15Z</time></trkpt><trkpt lat="35.7463819" lon="139.2149844"><ele>435.3933333333334</ele><time>2024-03-10T00:17:03Z</time></trkpt><trkpt lat="35.7465082" lon="139.2148023"><ele>438.52333333333337</ele><time>2024-03-10T00:17:54Z</time></trkpt><trkpt lat="35.7466831" lon="139.2147297"><ele>440.9066666666667</ele><time>2024-03-10T00:18:07Z</time></trkpt><trkpt lat="35.7468052" lon="139.2145574"><ele>441.92</ele><time>2024-03-10T00:18:19Z</time></trkpt><trkpt lat="35.7469638" lon="139.2144417"><ele>442.3533333333333</ele><time>2024-03-10T00:18:36Z</time></trkpt><trkpt lat="35.7470731" lon="139.2142496"><ele>441.82666666666665</ele><time>2024-03-10T00:19:01Z</time></trkpt><trkpt lat="35.7471788" lon="139.2140636"><ele>439.63000000000005</ele><time>2024-03-10T00:19:17Z</time></trkpt><trkpt lat="35.7473416" lon="139.2139582"><ele>436.55</ele><time>2024-03-10T00:19:35Z</time></trkpt><trkpt lat="35.7474847" lon="139.2137929"><ele>430.97</ele><time>2024-03-10T00:20:00Z</time></trkpt><trkpt lat="35.7475615" lon="139.2135783"><ele>426.28000000000003</ele><time>2024-03-10T00:20:15Z</time></trkpt><trkpt lat="35.7476715" lon="139.2134002"><ele>424.47</ele><time>2024-03-10T00:20:33Z</time></trkpt><trkpt lat="35.7478548" lon="139.2133989"><ele>428.4066666666667</ele><time>2024-03-10T00:20:55Z</time></trkpt><trkpt lat="35.7479725" lon="139.2132287"><ele>435.80333333333334</ele><time>2024-03-10T00:22:33Z</time></trkpt><trkpt lat="35.7480609" lon="139.2130079"><ele>443.8</ele><time>2024-03-10T00:22:50Z</time></trkpt><trkpt lat="35.7481458" lon="139.2127927"><ele>446.45000000000005</ele><time>2024-03-10T00:23:08Z</time></trkpt><trkpt lat="35.7481371" lon="139.2125604"><ele>445.7266666666667</ele><time>2024-03-10T00:23:25Z</time></trkpt><trkpt lat="35.7483013" lon="139.2124363"><ele>442.99</ele><time>2024-03-10T00:23:44Z</time></trkpt><trkpt lat="35.748476" lon="139.2123428"><ele>443.3333333333333</ele><time>2024-03-10T00:24:03Z</time></trkpt><trkpt lat="35.7486625" lon="139.2122846"><ele>444.28999999999996</ele><time>2024-03-10T00:24:21Z</time></trkpt><trkpt lat="35.7488289" lon="139.2124051"><ele>447.31666666666666</ele><time>2024-03-10T00:24:39Z</time></trkpt><trkpt lat="35.7490096" lon="139.2124372"><ele>450.66</ele><time>2024-03-10T00:24:54Z</time></trkpt><trkpt lat="35.7491728" lon="139.2125448"><ele>455.57666666666665</ele><time>2024-03-10T00:25:17Z</time></trkpt><trkpt lat="35.7493573" lon="139.2125417"><ele>457.99666666666667</ele><time>2024-03-10T00:25:56Z</time></trkpt><trkpt lat="35.7495089" lon="139.2126631"><ele>460.6233333333333</ele><time>2024-03-10T00:26:15Z</time></trkpt><trkpt lat="35.7496919" lon="139.2126813"><ele>460.8433333333333</ele><time>2024-03-10T00:26:30Z</time></trkpt><trkpt lat="35.7498807" lon="139.2126703"><ele>459.32666666666665</ele><time>2024-03-10T00:26:45Z</time></trkpt><trkpt lat="35.7500599" lon="139.2127175"><ele>454.99666666666667</ele><time>2024-03-10T00:27:04Z</time></trkpt><trkpt lat="35.7502256" lon="139.212818"><ele>449.83666666666664</ele><time>2024-03-10T00:27:27Z</time></trkpt><trkpt lat="35.7504097" lon="139.2128505"><ele>445.9533333333334</ele><time>2024-03-10T00:27:46Z</time></trkpt><trkpt lat="35.7502576" lon="139.212683"><ele>443.49333333333334</ele><time>2024-03-10T00:27:47Z</time></trkpt><trkpt lat="35.7504432" lon="139.2127439"><ele>442.3733333333334</ele><time>2024-03-10T00:28:21Z</time></trkpt><trkpt lat="35.7506141" lon="139.2128211"><ele>441.8500000000001</ele><time>2024-03-10T00:29:14Z</time></trkpt><trkpt lat="35.750798" lon="139.2128643"><ele>442.0833333333333</ele><time>2024-03-10T00:29:30Z</time></trkpt><trkpt lat="35.7509758" lon="139.2127776"><ele>442.3566666666666</ele><time>2024-03-10T00:29:47Z</time></trkpt><trkpt lat="35.751139" lon="139.2126743"><ele>442.91333333333336</ele><time>2024-03-10T00:30:06Z</time></trkpt><trkpt lat="35.7513258" lon="139.2126254"><ele>442.66333333333336</ele><time>2024-03-10T00:30:24Z</time></trkpt><trkpt lat="35.7515064" lon="139.2126523"><ele>442.15000000000003</ele><time>2024-03-10T00:30:42Z</time></trkpt><trkpt lat="35.75162" lon="139.2128427"><ele>444.64000000000004</ele><time>2024-03-10T00:31:00Z</time></trkpt><trkpt lat="35.7517684" lon="139.2129851"><ele>447.49333333333334</ele><time>2024-03-10T00:31:22Z</time></trkpt><trkpt lat="35.7519126" lon="139.2128408"><ele>449.54333333333335</ele><time>2024-03-10T00:32:17Z</time></trkpt><trkpt lat="35.752086" lon="139.212766"><ele>446.98</ele><time>2024-03-10T00:32:46Z</time></trkpt><trkpt lat="35.7521114" lon="139.212539"><ele>444.00666666666666</ele><time>2024-03-10T00:32:59Z</time></trkpt><trkpt lat="35.7522265" lon="139.2123588"><ele>441.9533333333334</ele><time>2024-03-10T00:33:44Z</time></trkpt><trkpt lat="35.7522536" lon="139.2121197"><ele>441.34</ele><time>2024-03-10T00:33:59Z</time></trkpt><trkpt lat="35.7520954" lon="139.2120031"><ele>440.25333333333333</ele><time>2024-03-10T00:34:11Z</time></trkpt><trkpt lat="35.752192" lon="139.2118093"><ele>440.16333333333336</ele><time>2024-03-10T00:34:29Z</time></trkpt><trkpt lat="35.7522371" lon="139.2115889"><ele>438.0333333333333</ele><time>2024-03-10T00:34:55Z</time></trkpt><trkpt lat="35.7521018" lon="139.2114256"><ele>435.32</ele><time>2024-03-10T00:35:13Z</time></trkpt><trkpt lat="35.7519294" lon="139.211333"><ele>433.81</ele><time>2024-03-10T00:35:40Z</time></trkpt><trkpt lat="35.7518069" lon="139.2111545"><ele>433.3233333333333</ele><time>2024-03-10T00:35:55Z</time></trkpt><trkpt lat="35.7518042" lon="139.2109321"><ele>432.1333333333334</ele><time>2024-03-10T00:36:11Z</time></trkpt><trkpt lat="35.7519452" lon="139.2107769"><ele>426.87999999999994</ele><time>2024-03-10T00:37:28Z</time></trkpt><trkpt lat="35.7520808" lon="139.2106281"><ele>418.98</ele><time>2024-03-10T00:37:51Z</time></trkpt><trkpt lat="35.7520994" lon="139.210398"><ele>412.21666666666664</ele><time>2024-03-10T00:37:56Z</time></trkpt><trkpt lat="35.752077" lon="139.2101601"><ele>410.0933333333333</ele><time>2024-03-10T00:38:09Z</time></trkpt><trkpt lat="35.752107" lon="139.209896"><ele>414.6499999999999</ele><time>2024-03-10T00:38:41Z</time></trkpt><trkpt lat="35.7521682" lon="139.209674"><ele>422.7266666666667</ele><time>2024-03-10T00:40:06Z</time></trkpt><trkpt lat="35.7522074" lon="139.2094481"><ele>431.2866666666667</ele><time>2024-03-10T00:40:47Z</time></trkpt><trkpt lat="35.7521279" lon="139.2092471"><ele>436.3933333333334</ele><time>2024-03-10T00:41:10Z</time></trkpt><trkpt lat="35.7522051" lon="139.2090446"><ele>435.3733333333333</ele><time>2024-03-10T00:41:24Z</time></trkpt><trkpt lat="35.7523117" lon="139.2088517"><ele>427.82666666666665</ele><time>2024-03-10T00:42:12Z</time></trkpt><trkpt lat="35.7523202" lon="139.2086303"><ele>419.39333333333326</ele><time>2024-03-10T00:42:31Z</time></trkpt><trkpt lat="35.7523902" lon="139.2084237"><ele>414.78000000000003</ele><time>2024-03-10T00:42:49Z</time></trkpt><trkpt lat="35.7525094" lon="139.2082195"><ele>414.78</ele><time>2024-03-10T00:43:10Z</time></trkpt><trkpt lat="35.7525645" lon="139.2080005"><ele>417.0733333333333</ele><time>2024-03-10T00:43:24Z</time></trkpt><trkpt lat="35.752534" lon="139.2077801"><ele>419.2133333333333</ele><time>2024-03-10T00:43:43Z</time></trkpt><trkpt lat="35.7527197" lon="139.2077534"><ele>419.78666666666663</ele><time>2024-03-10T00:44:44Z</time></trkpt><trkpt lat="35.7528765" lon="139.2076375"><ele>418.1133333333334</ele><time>2024-03-10T00:44:58Z</time></trkpt><trkpt lat="35.7530429" lon="139.2075489"><ele>415.8766666666667</ele><time>2024-03-10T00:45:12Z</time></trkpt><trkpt lat="35.7531361" lon="139.2073584"><ele>414.0133333333333</ele><time>2024-03-10T00:45:27Z</time></trkpt><trkpt lat="35.7531729" lon="139.2071328"><ele>412.83666666666664</ele><time>2024-03-10T00:45:43Z</time></trkpt><trkpt lat="35.7532981" lon="139.2069676"><ele>413.0133333333333</ele><time>2024-03-10T00:46:02Z</time></trkpt><trkpt lat="35.7533171" lon="139.2067417"><ele>414.51666666666665</ele><time>2024-03-10T00:46:17Z</time></trkpt><trkpt lat="35.7534911" lon="139.2066425"><ele>420.7033333333334</ele><time>2024-03-10T00:47:44Z</time></trkpt><trkpt lat="35.7535831" lon="139.2064477"><ele>428.2266666666667</ele><time>2024-03-10T00:48:31Z</time></trkpt><trkpt lat="35.7537463" lon="139.2063519"><ele>435.66</ele><time>2024-03-10T00:49:20Z</time></trkpt><trkpt lat="35.7537632" lon="139.2060961"><ele>439.1333333333334</ele><time>2024-03-10T00:49:35Z</time></trkpt><trkpt lat="35.7537808" lon="139.205857"><ele>440.6466666666667</ele><time>2024-03-10T00:50:34Z</time></trkpt><trkpt lat="35.7537987" lon="139.2056262"><ele>441.15333333333336</ele><time>2024-03-10T00:50:47Z</time></trkpt><trkpt lat="35.7537424" lon="139.2054039"><ele>442.00666666666666</ele><time>2024-03-10T00:51:16Z</time></trkpt><trkpt lat="35.7537772" lon="139.2051716"><ele>443.19</ele><time>2024-03-10T00:51:37Z</time></trkpt><trkpt lat="35.753873" lon="139.2049693"><ele>443.3066666666667</ele><time>2024-03-10T00:51:52Z</time></trkpt><trkpt lat="35.7540567" lon="139.2049252"><ele>442.8966666666667</ele><time>2024-03-10T00:52:17Z</time></trkpt><trkpt lat="35.7542492" lon="139.2049208"><ele>441.5466666666666</ele><time>2024-03-10T00:52:30Z</time></trkpt><trkpt lat="35.7544417" lon="139.2049158"><ele>439.9433333333333</ele><time>2024-03-10T00:52:49Z</time></trkpt><trkpt lat="35.754638" lon="139.2048716"><ele>436.33666666666664</ele><time>2024-03-10T00:53:09Z</time></trkpt><trkpt lat="35.7547405" lon="139.2046894"><ele>436.2366666666667</ele><time>2024-03-10T00:53:26Z</time></trkpt><trkpt lat="35.7548924" lon="139.2045552"><ele>438.73</ele><time>2024-03-10T00:53:45Z</time></trkpt><trkpt lat="35.7550907" lon="139.2045669"><ele>445.2366666666667</ele><time>2024-03-10T00:54:23Z</time></trkpt><trkpt lat="35.7552711" lon="139.2045835"><ele>449.8933333333334</ele><time>2024-03-10T00:55:03Z</time></trkpt><trkpt lat="35.7554467" lon="139.2045297"><ele>454.72</ele><time>2024-03-10T00:55:30Z</time></trkpt><trkpt lat="35.755636" lon="139.204522"><ele>457.83</ele><time>2024-03-10T00:55:49Z</time></trkpt><trkpt lat="35.7558078" lon="139.2044461"><ele>459.82</ele><time>2024-03-10T00:56:05Z</time></trkpt><trkpt lat="35.7558112" lon="139.2042119"><ele>462.07</ele><time>2024-03-10T00:56:20Z</time></trkpt><trkpt lat="35.7558123" lon="139.2039893"><ele>464.8333333333333</ele><time>2024-03-10T00:56:35Z</time></trkpt><trkpt lat="35.7559896" lon="139.2039051"><ele>467.17333333333335</ele><time>2024-03-10T00:56:49Z</time></trkpt><trkpt lat="35.7560804" lon="139.2037061"><ele>469.84666666666664</ele><time>2024-03-10T00:57:54Z</time></trkpt><trkpt lat="35.7561679" lon="139.2035116"><ele>473.19000000000005</ele><time>2024-03-10T00:58:08Z</time></trkpt><trkpt lat="35.7562941" lon="139.2033346"><ele>477.1966666666667</ele><time>2024-03-10T00:58:24Z</time></trkpt><trkpt lat="35.7563854" lon="139.2031373"><ele>479.6066666666666</ele><time>2024-03-10T00:58:38Z</time></trkpt><trkpt lat="35.7564868" lon="139.2029494"><ele>481.35999999999996</ele><time>2024-03-10T00:58:54Z</time></trkpt><trkpt lat="35.7566172" lon="139.2027423"><ele>483.59666666666664</ele><time>2024-03-10T00:59:07Z</time></trkpt><trkpt lat="35.7567764" lon="139.2026123"><ele>484.8633333333333</ele><time>2024-03-10T00:59:38Z</time></trkpt><trkpt lat="35.7567853" lon="139.2023911"><ele>486.97</ele><time>2024-03-10T00:59:54Z</time></trkpt><trkpt lat="35.7568598" lon="139.2021897"><ele>488.91333333333336</ele><time>2024-03-10T01:00:46Z</time></trkpt><trkpt lat="35.7569624" lon="139.2019965"><ele>492.52</ele><time>2024-03-10T01:01:25Z</time></trkpt><trkpt lat="35.7569405" lon="139.2017727"><ele>496.1166666666666</ele><time>2024-03-10T01:01:41Z</time></trkpt><trkpt lat="35.756929" lon="139.2015513"><ele>496.9266666666667</ele><time>2024-03-10T01:01:54Z</time></trkpt><trkpt lat="35.7571597" lon="139.2017093"><ele>499.0366666666667</ele><time>2024-03-10T01:02:03Z</time></trkpt><trkpt lat="35.7573478" lon="139.2017581"><ele>498.27333333333337</ele><time>2024-03-10T01:02:13Z</time></trkpt><trkpt lat="35.7575347" lon="139.2017852"><ele>497.7666666666667</ele><time>2024-03-10T01:02:30Z</time></trkpt><trkpt lat="35.7575583" lon="139.201536"><ele>497.91</ele><time>2024-03-10T01:02:37Z</time></trkpt><trkpt lat="35.7576212" lon="139.2013221"><ele>500.3533333333333</ele><time>2024-03-10T01:03:02Z</time></trkpt><trkpt lat="35.7577323" lon="139.2011311"><ele>503.9566666666667</ele><time>2024-03-10T01:03:16Z</time></trkpt><trkpt lat="35.7577909" lon="139.2009053"><ele>505.22333333333336</ele><time>2024-03-10T01:03:37Z</time></trkpt><trkpt lat="35.7578379" lon="139.2006912"><ele>505.6366666666666</ele><time>2024-03-10T01:03:54Z</time></trkpt><trkpt lat="35.7578755" lon="139.2004562"><ele>507.5466666666667</ele><time>2024-03-10T01:04:10Z</time></trkpt><trkpt lat="35.7580172" lon="139.2003048"><ele>507.7166666666667</ele><time>2024-03-10T01:04:25Z</time></trkpt><trkpt lat="35.7581427" lon="139.2001341"><ele>508.4766666666667</ele><time>2024-03-10T01:04:44Z</time></trkpt><trkpt lat="35.7581085" lon="139.1999092"><ele>509.83666666666664</ele><time>2024-03-10T01:04:56Z</time></trkpt><trkpt lat="35.7581776" lon="139.1996821"><ele>513.2633333333333</ele><time>2024-03-10T01:05:13Z</time></trkpt><trkpt lat="35.7582713" lon="139.1994804"><ele>516.25</ele><time>2024-03-10T01:06:09Z</time></trkpt><trkpt lat="35.7581879" lon="139.1992808"><ele>519.67</ele><time>2024-03-10T01:06:59Z</time></trkpt><trkpt lat="35.7581529" lon="139.1990534"><ele>524.56</ele><time>2024-03-10T01:08:04Z</time></trkpt><trkpt lat="35.7580388" lon="139.1988743"><ele>530.7199999999999</ele><time>2024-03-10T01:08:16Z</time></trkpt><trkpt lat="35.75795" lon="139.1986791"><ele>536.1533333333333</ele><time>2024-03-10T01:08:28Z</time></trkpt><trkpt lat="35.7578499" lon="139.1984838"><ele>539.4200000000001</ele><time>2024-03-10T01:08:47Z</time></trkpt><trkpt lat="35.7577215" lon="139.1983283"><ele>540.8166666666667</ele><time>2024-03-10T01:09:06Z</time></trkpt><trkpt lat="35.7578372" lon="139.1981526"><ele>541.2833333333334</ele><time>2024-03-10T01:09:40Z</time></trkpt><trkpt lat="35.7578687" lon="139.1979252"><ele>540.3333333333334</ele><time>2024-03-10T01:09:57Z</time></trkpt><trkpt lat="35.7579346" lon="139.1977187"><ele>537.0066666666667</ele><time>2024-03-10T01:10:11Z</time></trkpt><trkpt lat="35.7580543" lon="139.1975412"><ele>531.5533333333334</ele><time>2024-03-10T01:10:32Z</time></trkpt><trkpt lat="35.7582304" lon="139.1974787"><ele>526.35</ele><time>2024-03-10T01:10:44Z</time></trkpt><trkpt lat="35.7583455" lon="139.1972843"><ele>522.7700000000001</ele><time>2024-03-10T01:11:10Z</time></trkpt><trkpt lat="35.7585272" lon="139.1972874"><ele>522.1633333333333</ele><time>2024-03-10T01:11:18Z</time></trkpt><trkpt lat="35.7586652" lon="139.1971439"><ele>522.17</ele><time>2024-03-10T01:11:35Z</time></trkpt><trkpt lat="35.7588013" lon="139.196983"><ele>523.1866666666666</ele><time>2024-03-10T01:11:51Z</time></trkpt><trkpt lat="35.7588999" lon="139.1967902"><ele>523.0033333333333</ele><time>2024-03-10T01:12:05Z</time></trkpt><trkpt lat="35.7589992" lon="139.1966022"><ele>524.4666666666667</ele><time>2024-03-10T01:12:23Z</time></trkpt><trkpt lat="35.7591176" lon="139.1964329"><ele>528.1966666666667</ele><time>2024-03-10T01:12:48Z</time></trkpt><trkpt lat="35.7592561" lon="139.196283"><ele>533.64</ele><time>2024-03-10T01:14:23Z</time></trkpt><trkpt lat="35.7594133" lon="139.1961441"><ele>540.8266666666667</ele><time>2024-03-10T01:15:08Z</time></trkpt><trkpt lat="35.7595428" lon="139.1959884"><ele>548.39</ele><time>2024-03-10T01:15:47Z</time></trkpt><trkpt lat="35.7596591" lon="139.1958117"><ele>555.0799999999999</ele><time>2024-03-10T01:16:12Z</time></trkpt><trkpt lat="35.7596477" lon="139.1955864"><ele>557.41</ele><time>2024-03-10T01:16:35Z</time></trkpt><trkpt lat="35.7598223" lon="139.1955257"><ele>557.5166666666667</ele><time>2024-03-10T01:16:49Z</time></trkpt><trkpt lat="35.7599583" lon="139.1953778"><ele>557.2033333333334</ele><time>2024-03-10T01:17:53Z</time></trkpt><trkpt lat="35.7600647" lon="139.1951798"><ele>561.43</ele><time>2024-03-10T01:18:51Z</time></trkpt><trkpt lat="35.7601591" lon="139.1949743"><ele>570.0566666666667</ele><time>2024-03-10T01:20:41Z</time></trkpt><trkpt lat="35.7601951" lon="139.1947565"><ele>581.2466666666667</ele><time>2024-03-10T01:21:35Z</time></trkpt><trkpt lat="35.7603584" lon="139.1946393"><ele>589.5333333333333</ele><time>2024-03-10T01:22:30Z</time></trkpt><trkpt lat="35.7604953" lon="139.1944878"><ele>594.6466666666666</ele><time>2024-03-10T01:22:57Z</time></trkpt><trkpt lat="35.7605132" lon="139.194257"><ele>597.0300000000001</ele><time>2024-03-10T01:23:22Z</time></trkpt><trkpt lat="35.760588" lon="139.1940507"><ele>600.4899999999999</ele><time>2024-03-10T01:23:41Z</time></trkpt><trkpt lat="35.7607106" lon="139.1938846"><ele>602.1866666666666</ele><time>2024-03-10T01:24:00Z</time></trkpt><trkpt lat="35.7608262" lon="139.1937067"><ele>602.3433333333332</ele><time>2024-03-10T01:24:56Z</time></trkpt><trkpt lat="35.7608574" lon="139.1934822"><ele>599.9200000000001</ele><time>2024-03-10T01:25:30Z</time></trkpt><trkpt lat="35.7609118" lon="139.1932664"><ele>595.1333333333333</ele><time>2024-03-10T01:25:45Z</time></trkpt><trkpt lat="35.7608832" lon="139.1930354"><ele>591.4499999999999</ele><time>2024-03-10T01:26:02Z</time></trkpt><trkpt lat="35.7610216" lon="139.1928843"><ele>587.1666666666666</ele><time>2024-03-10T01:26:36Z</time></trkpt><trkpt lat="35.7611054" lon="139.1926873"><ele>584.8933333333333</ele><time>2024-03-10T01:26:54Z</time></trkpt><trkpt lat="35.7612427" lon="139.192532"><ele>580.3233333333334</ele><time>2024-03-10T01:26:59Z</time></trkpt><trkpt lat="35.7611572" lon="139.1923327"><ele>577.4666666666667</ele><time>2024-03-10T01:27:31Z</time></trkpt><trkpt lat="35.7612068" lon="139.1921191"><ele>573.5733333333334</ele><time>2024-03-10T01:27:48Z</time></trkpt><trkpt lat="35.7612101" lon="139.1918919"><ele>572.4533333333334</ele><time>2024-03-10T01:28:07Z</time></trkpt><trkpt lat="35.7613052" lon="139.1916963"><ele>571.69</ele><time>2024-03-10T01:28:22Z</time></trkpt><trkpt lat="35.7614617" lon="139.1915728"><ele>572.8866666666667</ele><time>2024-03-10T01:29:13Z</time></trkpt><trkpt lat="35.7615757" lon="139.1913153"><ele>578.3266666666667</ele><time>2024-03-10T01:30:00Z</time></trkpt><trkpt lat="35.7616749" lon="139.1911257"><ele>583.7433333333333</ele><time>2024-03-10T01:30:15Z</time></trkpt><trkpt lat="35.7617933" lon="139.1909502"><ele>585.3533333333334</ele><time>2024-03-10T01:30:39Z</time></trkpt><trkpt lat="35.7617939" lon="139.190726"><ele>582.48</ele><time>2024-03-10T01:30:57Z</time></trkpt><trkpt lat="35.761799" lon="139.190497"><ele>578.46</ele><time>2024-03-10T01:31:18Z</time></trkpt><trkpt lat="35.7619479" lon="139.1903553"><ele>577.8266666666667</ele><time>2024-03-10T01:31:37Z</time></trkpt><trkpt lat="35.7620084" lon="139.1901439"><ele>580.2533333333333</ele><time>2024-03-10T01:32:44Z</time></trkpt><trkpt lat="35.7621181" lon="139.1899588"><ele>583.7866666666667</ele><time>2024-03-10T01:33:15Z</time></trkpt><trkpt lat="35.7621076" lon="139.1897379"><ele>594.6866666666666</ele><time>2024-03-10T01:34:36Z</time></trkpt><trkpt lat="35.761981" lon="139.1895652"><ele>606.1999999999999</ele><time>2024-03-10T01:35:24Z</time></trkpt><trkpt lat="35.7620919" lon="139.1893822"><ele>619.18</ele><time>2024-03-10T01:37:41Z</time></trkpt><trkpt lat="35.7622035" lon="139.1892013"><ele>625.1766666666667</ele><time>2024-03-10T01:38:07Z</time></trkpt><trkpt lat="35.7621948" lon="139.1889443"><ele>626.0600000000001</ele><time>2024-03-10T01:38:58Z</time></trkpt><trkpt lat="35.7622257" lon="139.1887116"><ele>626.4000000000001</ele><time>2024-03-10T01:39:12Z</time></trkpt><trkpt lat="35.7621445" lon="139.1885068"><ele>626.0366666666667</ele><time>2024-03-10T01:40:16Z</time></trkpt><trkpt lat="35.7620185" lon="139.1883356"><ele>627.0366666666667</ele><time>2024-03-10T01:40:31Z</time></trkpt><trkpt lat="35.7618557" lon="139.1884424"><ele>629.8000000000001</ele><time>2024-03-10T01:40:56Z</time></trkpt><trkpt lat="35.7616992" lon="139.188289"><ele>633.8866666666667</ele><time>2024-03-10T01:41:26Z</time></trkpt><trkpt lat="35.7615274" lon="139.1881392"><ele>639.3566666666667</ele><time>2024-03-10T01:42:44Z</time></trkpt><trkpt lat="35.7613982" lon="139.1879797"><ele>643.1766666666667</ele><time>2024-03-10T01:43:08Z</time></trkpt><trkpt lat="35.7612487" lon="139.1878442"><ele>646.9433333333333</ele><time>2024-03-10T01:43:39Z</time></trkpt><trkpt lat="35.7611579" lon="139.1876329"><ele>649.7366666666667</ele><time>2024-03-10T01:43:50Z</time></trkpt><trkpt lat="35.761313" lon="139.1874645"><ele>650.3266666666667</ele><time>2024-03-10T01:43:55Z</time></trkpt><trkpt lat="35.7614569" lon="139.1873083"><ele>650.5433333333334</ele><time>2024-03-10T01:44:18Z</time></trkpt><trkpt lat="35.7616242" lon="139.1872221"><ele>651.0066666666667</ele><time>2024-03-10T01:44:30Z</time></trkpt><trkpt lat="35.7617637" lon="139.18706"><ele>651.3566666666667</ele><time>2024-03-10T01:44:43Z</time></trkpt><trkpt lat="35.7617874" lon="139.1868273"><ele>650.5166666666668</ele><time>2024-03-10T01:44:59Z</time></trkpt><trkpt lat="35.7619358" lon="139.186695"><ele>649.1433333333333</ele><time>2024-03-10T01:45:14Z</time></trkpt><trkpt lat="35.7621174" lon="139.1866373"><ele>649.35</ele><time>2024-03-10T01:45:30Z</time></trkpt><trkpt lat="35.7622685" lon="139.1864976"><ele>649.3366666666667</ele><time>2024-03-10T01:45:49Z</time></trkpt><trkpt lat="35.7623139" lon="139.1862709"><ele>650.58</ele><time>2024-03-10T01:46:03Z</time></trkpt><trkpt lat="35.7623016" lon="139.1860419"><ele>652.4633333333334</ele><time>2024-03-10T01:46:18Z</time></trkpt><trkpt lat="35.7623516" lon="139.1858282"><ele>655.97</ele><time>2024-03-10T01:46:30Z</time></trkpt><trkpt lat="35.7625058" lon="139.1857127"><ele>657.2833333333333</ele><time>2024-03-10T01:46:45Z</time></trkpt><trkpt lat="35.7626972" lon="139.1856978"><ele>656.8033333333334</ele><time>2024-03-10T01:47:07Z</time></trkpt><trkpt lat="35.7627123" lon="139.1854491"><ele>657.4266666666667</ele><time>2024-03-10T01:47:30Z</time></trkpt><trkpt lat="35.7628299" lon="139.1852688"><ele>656.7600000000001</ele><time>2024-03-10T01:47:39Z</time></trkpt><trkpt lat="35.7629264" lon="139.1850719"><ele>653.6933333333333</ele><time>2024-03-10T01:47:52Z</time></trkpt><trkpt lat="35.762954" lon="139.1848502"><ele>646.77</ele><time>2024-03-10T01:48:25Z</time></trkpt><trkpt lat="35.7629802" lon="139.184626"><ele>643.43</ele><time>2024-03-10T01:48:38Z</time></trkpt><trkpt lat="35.7630027" lon="139.1844007"><ele>642.5633333333334</ele><time>2024-03-10T01:49:13Z</time></trkpt><trkpt lat="35.7629264" lon="139.1841903"><ele>645.97</ele><time>2024-03-10T01:49:28Z</time></trkpt><trkpt lat="35.7629884" lon="139.1839745"><ele>650.8000000000001</ele><time>2024-03-10T01:49:41Z</time></trkpt><trkpt lat="35.7630173" lon="139.1837458"><ele>656.88</ele><time>2024-03-10T01:50:07Z</time></trkpt><trkpt lat="35.7629947" lon="139.1835232"><ele>661.1166666666667</ele><time>2024-03-10T01:50:59Z</time></trkpt><trkpt lat="35.7629373" lon="139.1832966"><ele>663.25</ele><time>2024-03-10T01:51:41Z</time></trkpt><trkpt lat="35.7629654" lon="139.1830745"><ele>662.9766666666666</ele><time>2024-03-10T01:52:11Z</time></trkpt><trkpt lat="35.7629391" lon="139.1828519"><ele>665.1966666666667</ele><time>2024-03-10T01:52:28Z</time></trkpt><trkpt lat="35.7629488" lon="139.1826274"><ele>666.8633333333333</ele><time>2024-03-10T01:52:42Z</time></trkpt><trkpt lat="35.7629426" lon="139.1824023"><ele>668.8433333333334</ele><time>2024-03-10T01:52:57Z</time></trkpt><trkpt lat="35.7629407" lon="139.1821764"><ele>666.0166666666668</ele><time>2024-03-10T01:53:10Z</time></trkpt><trkpt lat="35.7630415" lon="139.1819795"><ele>662.4066666666666</ele><time>2024-03-10T01:53:27Z</time></trkpt><trkpt lat="35.7629747" lon="139.1817652"><ele>660.9200000000001</ele><time>2024-03-10T01:53:39Z</time></trkpt><trkpt lat="35.7629344" lon="139.1815464"><ele>661.5466666666667</ele><time>2024-03-10T01:53:52Z</time></trkpt><trkpt lat="35.7630309" lon="139.1813357"><ele>662.7466666666666</ele><time>2024-03-10T01:54:06Z</time></trkpt><trkpt lat="35.7631304" lon="139.181149"><ele>665.2366666666667</ele><time>2024-03-10T01:54:19Z</time></trkpt><trkpt lat="35.763208" lon="139.1809457"><ele>668.4733333333334</ele><time>2024-03-10T01:54:42Z</time></trkpt><trkpt lat="35.7633281" lon="139.1807526"><ele>673.98</ele><time>2024-03-10T01:55:35Z</time></trkpt><trkpt lat="35.7634495" lon="139.180585"><ele>677.57</ele><time>2024-03-10T01:55:49Z</time></trkpt><trkpt lat="35.7636278" lon="139.1804947"><ele>680.0033333333333</ele><time>2024-03-10T01:56:07Z</time></trkpt><trkpt lat="35.763817" lon="139.1804715"><ele>680.7333333333332</ele><time>2024-03-10T01:56:25Z</time></trkpt><trkpt lat="35.7639968" lon="139.180453"><ele>680.8933333333333</ele><time>2024-03-10T01:56:40Z</time></trkpt><trkpt lat="35.7641872" lon="139.1804653"><ele>681.67</ele><time>2024-03-10T01:56:59Z</time></trkpt><trkpt lat="35.7643393" lon="139.1803162"><ele>682.5933333333334</ele><time>2024-03-10T01:57:16Z</time></trkpt><trkpt lat="35.7645222" lon="139.1803182"><ele>684.3733333333333</ele><time>2024-03-10T01:57:33Z</time></trkpt><trkpt lat="35.7646982" lon="139.180373"><ele>686.4</ele><time>2024-03-10T01:57:59Z</time></trkpt><trkpt lat="35.7648784" lon="139.1803668"><ele>688.4633333333335</ele><time>2024-03-10T01:58:12Z</time></trkpt><trkpt lat="35.7650674" lon="139.1803258"><ele>690.37</ele><time>2024-03-10T01:58:26Z</time></trkpt><trkpt lat="35.7652408" lon="139.180257"><ele>692.0100000000001</ele><time>2024-03-10T01:58:45Z</time></trkpt><trkpt lat="35.7654264" lon="139.1802781"><ele>693.4500000000002</ele><time>2024-03-10T01:59:16Z</time></trkpt><trkpt lat="35.7656099" lon="139.180242"><ele>695.8833333333333</ele><time>2024-03-10T01:59:40Z</time></trkpt><trkpt lat="35.7657894" lon="139.1802152"><ele>698.1566666666668</ele><time>2024-03-10T01:59:58Z</time></trkpt><trkpt lat="35.7659174" lon="139.1804527"><ele>700.0366666666667</ele><time>2024-03-10T02:00:10Z</time></trkpt><trkpt lat="35.7660939" lon="139.1805056"><ele>700.8533333333335</ele><time>2024-03-10T02:00:28Z</time></trkpt><trkpt lat="35.7662708" lon="139.1805649"><ele>701.61</ele><time>2024-03-10T02:00:43Z</time></trkpt><trkpt lat="35.7664433" lon="139.1806649"><ele>703.3233333333334</ele><time>2024-03-10T02:01:03Z</time></trkpt><trkpt lat="35.7666113" lon="139.1807516"><ele>705.3533333333334</ele><time>2024-03-10T02:01:18Z</time></trkpt><trkpt lat="35.7667966" lon="139.1807427"><ele>707.8299999999999</ele><time>2024-03-10T02:01:39Z</time></trkpt><trkpt lat="35.766971" lon="139.1808004"><ele>709.4699999999999</ele><time>2024-03-10T02:01:56Z</time></trkpt><trkpt lat="35.7671521" lon="139.1807864"><ele>709.67</ele><time>2024-03-10T02:02:12Z</time></trkpt><trkpt lat="35.7673347" lon="139.1807917"><ele>708.2433333333333</ele><time>2024-03-10T02:02:31Z</time></trkpt><trkpt lat="35.7675226" lon="139.180824"><ele>708.12</ele><time>2024-03-10T02:02:45Z</time></trkpt><trkpt lat="35.7676752" lon="139.1806968"><ele>709.7033333333334</ele><time>2024-03-10T02:02:58Z</time></trkpt><trkpt lat="35.7678295" lon="139.1805726"><ele>714.7033333333334</ele><time>2024-03-10T02:03:17Z</time></trkpt><trkpt lat="35.7679412" lon="139.1803975"><ele>718.5033333333334</ele><time>2024-03-10T02:03:38Z</time></trkpt><trkpt lat="35.7679316" lon="139.180174"><ele>721.2033333333333</ele><time>2024-03-10T02:03:51Z</time></trkpt><trkpt lat="35.7678941" lon="139.1799451"><ele>719.9266666666666</ele><time>2024-03-10T02:04:12Z</time></trkpt><trkpt lat="35.7679666" lon="139.1797319"><ele>721.2833333333333</ele><time>2024-03-10T02:04:27Z</time></trkpt><trkpt lat="35.7680527" lon="139.1795296"><ele>723.8166666666667</ele><time>2024-03-10T02:04:49Z</time></trkpt><trkpt lat="35.7681767" lon="139.1793633"><ele>727.8633333333333</ele><time>2024-03-10T02:05:10Z</time></trkpt><trkpt lat="35.7682613" lon="139.1791561"><ele>724.0333333333333</ele><time>2024-03-10T02:05:27Z</time></trkpt><trkpt lat="35.7684497" lon="139.1791436"><ele>718.5966666666667</ele><time>2024-03-10T02:05:44Z</time></trkpt><trkpt lat="35.7686253" lon="139.1790626"><ele>711.9233333333333</ele><time>2024-03-10T02:06:02Z</time></trkpt><trkpt lat="35.7687932" lon="139.1789587"><ele>710.8499999999999</ele><time>2024-03-10T02:06:16Z</time></trkpt><trkpt lat="35.7689369" lon="139.178817"><ele>709.96</ele><time>2024-03-10T02:06:29Z</time></trkpt><trkpt lat="35.7689739" lon="139.1785974"><ele>708.7600000000001</ele><time>2024-03-10T02:06:50Z</time></trkpt><trkpt lat="35.7691026" lon="139.1784335"><ele>706.0066666666667</ele><time>2024-03-10T02:07:11Z</time></trkpt><trkpt lat="35.7692786" lon="139.178512"><ele>706.94</ele><time>2024-03-10T02:07:26Z</time></trkpt><trkpt lat="35.7694643" lon="139.1784853"><ele>708.5500000000001</ele><time>2024-03-10T02:07:47Z</time></trkpt><trkpt lat="35.7695944" lon="139.1783316"><ele>710.1833333333334</ele><time>2024-03-10T02:08:06Z</time></trkpt><trkpt lat="35.7697513" lon="139.1782139"><ele>706.52</ele><time>2024-03-10T02:08:33Z</time></trkpt><trkpt lat="35.7699393" lon="139.1781744"><ele>708.1066666666666</ele><time>2024-03-10T02:08:58Z</time></trkpt><trkpt lat="35.7700385" lon="139.1779863"><ele>709.9333333333334</ele><time>2024-03-10T02:09:48Z</time></trkpt><trkpt lat="35.7701699" lon="139.1778142"><ele>715.6033333333334</ele><time>2024-03-10T02:10:17Z</time></trkpt><trkpt lat="35.7703581" lon="139.1777689"><ele>720.7600000000001</ele><time>2024-03-10T02:11:13Z</time></trkpt><trkpt lat="35.770483" lon="139.1776063"><ele>727.5266666666666</ele><time>2024-03-10T02:11:57Z</time></trkpt><trkpt lat="35.7706377" lon="139.1774844"><ele>734.2233333333334</ele><time>2024-03-10T02:12:16Z</time></trkpt><trkpt lat="35.7707491" lon="139.1772977"><ele>736.2766666666666</ele><time>2024-03-10T02:12:30Z</time></trkpt><trkpt lat="35.7708899" lon="139.1771497"><ele>736.8299999999999</ele><time>2024-03-10T02:13:02Z</time></trkpt><trkpt lat="35.7710365" lon="139.1770192"><ele>733.7633333333333</ele><time>2024-03-10T02:13:44Z</time></trkpt><trkpt lat="35.7711737" lon="139.1768433"><ele>729.3566666666667</ele><time>2024-03-10T02:14:03Z</time></trkpt><trkpt lat="35.7712586" lon="139.1766195"><ele>725.1133333333333</ele><time>2024-03-10T02:14:18Z</time></trkpt><trkpt lat="35.7714302" lon="139.1765411"><ele>720.3966666666666</ele><time>2024-03-10T02:14:42Z</time></trkpt><trkpt lat="35.7715476" lon="139.1763653"><ele>718.23</ele><time>2024-03-10T02:14:59Z</time></trkpt><trkpt lat="35.7716132" lon="139.1761439"><ele>718.6033333333334</ele><time>2024-03-10T02:15:25Z</time></trkpt><trkpt lat="35.7717971" lon="139.176104"><ele>720.8933333333334</ele><time>2024-03-10T02:15:39Z</time></trkpt><trkpt lat="35.7719712" lon="139.1760158"><ele>722.5633333333334</ele><time>2024-03-10T02:15:59Z</time></trkpt><trkpt lat="35.7721477" lon="139.1759533"><ele>721.6333333333333</ele><time>2024-03-10T02:16:14Z</time></trkpt><trkpt lat="35.7723299" lon="139.1759111"><ele>721.1633333333334</ele><time>2024-03-10T02:16:34Z</time></trkpt><trkpt lat="35.7725124" lon="139.1759766"><ele>718.8733333333333</ele><time>2024-03-10T02:16:49Z</time></trkpt><trkpt lat="35.7726012" lon="139.1757841"><ele>717.23</ele><time>2024-03-10T02:17:08Z</time></trkpt><trkpt lat="35.7727846" lon="139.1757577"><ele>714.0066666666667</ele><time>2024-03-10T02:17:27Z</time></trkpt><trkpt lat="35.7729381" lon="139.1756108"><ele>713.1</ele><time>2024-03-10T02:17:40Z</time></trkpt><trkpt lat="35.7731259" lon="139.1755455"><ele>714.0100000000001</ele><time>2024-03-10T02:18:11Z</time></trkpt><trkpt lat="35.7732507" lon="139.1753724"><ele>714.5533333333334</ele><time>2024-03-10T02:18:23Z</time></trkpt><trkpt lat="35.7734255" lon="139.1752779"><ele>715.21</ele><time>2024-03-10T02:18:39Z</time></trkpt><trkpt lat="35.7735627" lon="139.1751251"><ele>711.8100000000001</ele><time>2024-03-10T02:18:53Z</time></trkpt><trkpt lat="35.7737087" lon="139.1749741"><ele>708.3800000000001</ele><time>2024-03-10T02:19:10Z</time></trkpt><trkpt lat="35.7738311" lon="139.1748111"><ele>703.5233333333332</ele><time>2024-03-10T02:19:25Z</time></trkpt><trkpt lat="35.7739713" lon="139.1746432"><ele>701.0866666666667</ele><time>2024-03-10T02:19:41Z</time></trkpt><trkpt lat="35.7740538" lon="139.1744396"><ele>702.9900000000001</ele><time>2024-03-10T02:19:50Z</time></trkpt><trkpt lat="35.7742241" lon="139.1743657"><ele>707.64</ele><time>2024-03-10T02:20:09Z</time></trkpt><trkpt lat="35.7743235" lon="139.1741687"><ele>714.7933333333334</ele><time>2024-03-10T02:21:27Z</time></trkpt><trkpt lat="35.7744887" lon="139.1740602"><ele>719.9166666666666</ele><time>2024-03-10T02:22:00Z</time></trkpt><trkpt lat="35.7745595" lon="139.1738339"><ele>724.59</ele><time>2024-03-10T02:22:18Z</time></trkpt><trkpt lat="35.7746856" lon="139.1736711"><ele>725.8466666666667</ele><time>2024-03-10T02:22:33Z</time></trkpt><trkpt lat="35.7747886" lon="139.1734774"><ele>728.08</ele><time>2024-03-10T02:22:57Z</time></trkpt><trkpt lat="35.7749582" lon="139.1733782"><ele>728.6433333333334</ele><time>2024-03-10T02:23:20Z</time></trkpt><trkpt lat="35.7750959" lon="139.1732156"><ele>728.2933333333334</ele><time>2024-03-10T02:23:39Z</time></trkpt><trkpt lat="35.7752368" lon="139.1730736"><ele>725.7599999999999</ele><time>2024-03-10T02:24:06Z</time></trkpt><trkpt lat="35.7753996" lon="139.1729494"><ele>723.46</ele><time>2024-03-10T02:24:30Z</time></trkpt><trkpt lat="35.7755732" lon="139.1728777"><ele>721.11</ele><time>2024-03-10T02:24:53Z</time></trkpt><trkpt lat="35.7757191" lon="139.1727464"><ele>719.8166666666666</ele><time>2024-03-10T02:25:23Z</time></trkpt><trkpt lat="35.77588" lon="139.172636"><ele>720.07</ele><time>2024-03-10T02:25:52Z</time></trkpt><trkpt lat="35.7760282" lon="139.1725069"><ele>723.2400000000001</ele><time>2024-03-10T02:26:10Z</time></trkpt><trkpt lat="35.7761786" lon="139.1723774"><ele>726.9633333333333</ele><time>2024-03-10T02:26:33Z</time></trkpt><trkpt lat="35.7763071" lon="139.1722216"><ele>726.6999999999999</ele><time>2024-03-10T02:26:54Z</time></trkpt><trkpt lat="35.7764432" lon="139.1720582"><ele>723.2033333333333</ele><time>2024-03-10T02:27:08Z</time></trkpt><trkpt lat="35.7765651" lon="139.1718862"><ele>721.2233333333334</ele><time>2024-03-10T02:27:24Z</time></trkpt><trkpt lat="35.7766161" lon="139.171668"><ele>723.8466666666667</ele><time>2024-03-10T02:27:50Z</time></trkpt><trkpt lat="35.7767899" lon="139.1716056"><ele>730.4000000000001</ele><time>2024-03-10T02:28:25Z</time></trkpt><trkpt lat="35.7768381" lon="139.171391"><ele>736.8499999999999</ele><time>2024-03-10T02:32:41Z</time></trkpt><trkpt lat="35.7769281" lon="139.1711982"><ele>743.3166666666666</ele><time>2024-03-10T02:33:18Z</time></trkpt><trkpt lat="35.7770671" lon="139.1710477"><ele>747.4633333333333</ele><time>2024-03-10T02:33:35Z</time></trkpt><trkpt lat="35.7770953" lon="139.1708183"><ele>747.5366666666667</ele><time>2024-03-10T02:33:47Z</time></trkpt><trkpt lat="35.777262" lon="139.1707191"><ele>745.2966666666666</ele><time>2024-03-10T02:33:57Z</time></trkpt><trkpt lat="35.7774161" lon="139.1706035"><ele>742.7800000000001</ele><time>2024-03-10T02:34:12Z</time></trkpt><trkpt lat="35.7775726" lon="139.1704541"><ele>742.39</ele><time>2024-03-10T02:34:24Z</time></trkpt><trkpt lat="35.7777427" lon="139.1703701"><ele>741.9966666666666</ele><time>2024-03-10T02:34:37Z</time></trkpt><trkpt lat="35.7778903" lon="139.1702346"><ele>743.4233333333333</ele><time>2024-03-10T02:34:51Z</time></trkpt><trkpt lat="35.7780629" lon="139.1701438"><ele>744.7533333333334</ele><time>2024-03-10T02:35:09Z</time></trkpt><trkpt lat="35.778225" lon="139.1700366"><ele>748.4833333333332</ele><time>2024-03-10T02:35:23Z</time></trkpt><trkpt lat="35.7784052" lon="139.1701228"><ele>750.68</ele><time>2024-03-10T02:35:38Z</time></trkpt><trkpt lat="35.7786011" lon="139.1700876"><ele>756.4533333333334</ele><time>2024-03-10T02:35:53Z</time></trkpt><trkpt lat="35.778779" lon="139.1701861"><ele>762.9633333333335</ele><time>2024-03-10T02:36:15Z</time></trkpt><trkpt lat="35.7788517" lon="139.1704018"><ele>768.77</ele><time>2024-03-10T02:36:29Z</time></trkpt><trkpt lat="35.7788751" lon="139.1706243"><ele>768.35</ele><time>2024-03-10T02:36:45Z</time></trkpt><trkpt lat="35.7789605" lon="139.1708208"><ele>765.7733333333334</ele><time>2024-03-10T02:37:12Z</time></trkpt><trkpt lat="35.7790891" lon="139.1709791"><ele>764.7733333333334</ele><time>2024-03-10T02:37:27Z</time></trkpt><trkpt lat="35.7792345" lon="139.1708301"><ele>768.5766666666667</ele><time>2024-03-10T02:38:12Z</time></trkpt><trkpt lat="35.7792944" lon="139.1706182"><ele>773.1266666666667</ele><time>2024-03-10T02:39:26Z</time></trkpt><trkpt lat="35.7793464" lon="139.1703979"><ele>779.6533333333333</ele><time>2024-03-10T02:40:04Z</time></trkpt><trkpt lat="35.77935" lon="139.1701688"><ele>784.65</ele><time>2024-03-10T02:40:28Z</time></trkpt><trkpt lat="35.7792776" lon="139.1699566"><ele>790.6566666666668</ele><time>2024-03-10T02:40:45Z</time></trkpt><trkpt lat="35.7792418" lon="139.1697365"><ele>797.0799999999999</ele><time>2024-03-10T02:41:51Z</time></trkpt><trkpt lat="35.7792184" lon="139.1695136"><ele>804.4399999999999</ele><time>2024-03-10T02:42:08Z</time></trkpt><trkpt lat="35.7792626" lon="139.1692919"><ele>810.5566666666667</ele><time>2024-03-10T02:42:23Z</time></trkpt><trkpt lat="35.7793336" lon="139.1690788"><ele>815.0033333333334</ele><time>2024-03-10T02:42:48Z</time></trkpt><trkpt lat="35.7793354" lon="139.1688511"><ele>818.9966666666666</ele><time>2024-03-10T02:43:11Z</time></trkpt><trkpt lat="35.779519" lon="139.1687942"><ele>823.19</ele><time>2024-03-10T02:43:41Z</time></trkpt><trkpt lat="35.7796991" lon="139.1687562"><ele>828.3433333333334</ele><time>2024-03-10T02:44:35Z</time></trkpt><trkpt lat="35.7798605" lon="139.1686545"><ele>833.7166666666667</ele><time>2024-03-10T02:45:18Z</time></trkpt><trkpt lat="35.7800018" lon="139.1685007"><ele>839.1766666666667</ele><time>2024-03-10T02:45:54Z</time></trkpt><trkpt lat="35.7801445" lon="139.1683373"><ele>844.1766666666667</ele><time>2024-03-10T02:46:26Z</time></trkpt><trkpt lat="35.7802789" lon="139.1681771"><ele>849.1166666666667</ele><time>2024-03-10T02:46:42Z</time></trkpt><trkpt lat="35.7804145" lon="139.1680189"><ele>854.3166666666666</ele><time>2024-03-10T02:47:40Z</time></trkpt><trkpt lat="35.7805294" lon="139.1678399"><ele>860.3299999999999</ele><time>2024-03-10T02:48:05Z</time></trkpt><trkpt lat="35.7807027" lon="139.167774"><ele>866.6899999999999</ele><time>2024-03-10T02:49:36Z</time></trkpt><trkpt lat="35.7808731" lon="139.167698"><ele>875.0766666666667</ele><time>2024-03-10T02:50:16Z</time></trkpt><trkpt lat="35.7810487" lon="139.1676132"><ele>884.0600000000001</ele><time>2024-03-10T02:50:54Z</time></trkpt><trkpt lat="35.7812232" lon="139.1675337"><ele>893.14</ele><time>2024-03-10T02:52:04Z</time></trkpt><trkpt lat="35.781227" lon="139.1673067"><ele>897.91</ele><time>2024-03-10T02:57:57Z</time></trkpt><trkpt lat="35.7811864" lon="139.1675287"><ele>899.79</ele><time>2024-03-10T03:07:51Z</time></trkpt><trkpt lat="35.7813113" lon="139.1676896"><ele>897.7933333333334</ele><time>2024-03-10T03:15:42Z</time></trkpt><trkpt lat="35.7811288" lon="139.1677087"><ele>897.5166666666668</ele><time>2024-03-10T03:16:51Z</time></trkpt><trkpt lat="35.7811766" lon="139.1674634"><ele>897.6033333333334</ele><time>2024-03-10T03:18:21Z</time></trkpt><trkpt lat="35.7812391" lon="139.1672506"><ele>898.2200000000001</ele><time>2024-03-10T03:18:42Z</time></trkpt><trkpt lat="35.781155" lon="139.1669968"><ele>896.09</ele><time>2024-03-10T03:19:33Z</time></trkpt><trkpt lat="35.7810461" lon="139.166818"><ele>890.7833333333334</ele><time>2024-03-10T03:19:57Z</time></trkpt><trkpt lat="35.7811106" lon="139.1665801"><ele>884.9333333333334</ele><time>2024-03-10T03:20:18Z</time></trkpt><trkpt lat="35.7809568" lon="139.1664314"><ele>879.4699999999999</ele><time>2024-03-10T03:20:48Z</time></trkpt><trkpt lat="35.7807586" lon="139.1663436"><ele>876.6166666666667</ele><time>2024-03-10T03:21:14Z</time></trkpt><trkpt lat="35.7805758" lon="139.1662818"><ele>874.8533333333334</ele><time>2024-03-10T03:21:32Z</time></trkpt><trkpt lat="35.7803998" lon="139.1661779"><ele>873.13</ele><time>2024-03-10T03:21:47Z</time></trkpt><trkpt lat="35.7802403" lon="139.1660574"><ele>870.5566666666667</ele><time>2024-03-10T03:22:01Z</time></trkpt><trkpt lat="35.7800518" lon="139.1659897"><ele>867.5266666666666</ele><time>2024-03-10T03:22:16Z</time></trkpt><trkpt lat="35.7798696" lon="139.1659457"><ele>863.5633333333334</ele><time>2024-03-10T03:22:34Z</time></trkpt><trkpt lat="35.7796893" lon="139.1659341"><ele>857.8100000000001</ele><time>2024-03-10T03:22:53Z</time></trkpt><trkpt lat="35.7795019" lon="139.1659495"><ele>851.9900000000001</ele><time>2024-03-10T03:23:20Z</time></trkpt><trkpt lat="35.7793251" lon="139.1659966"><ele>846.6166666666668</ele><time>2024-03-10T03:23:34Z</time></trkpt><trkpt lat="35.7791469" lon="139.1659605"><ele>842.71</ele><time>2024-03-10T03:23:51Z</time></trkpt><trkpt lat="35.7791215" lon="139.1657268"><ele>839.6833333333334</ele><time>2024-03-10T03:24:11Z</time></trkpt><trkpt lat="35.7792265" lon="139.1655371"><ele>837.5166666666668</ele><time>2024-03-10T03:24:29Z</time></trkpt><trkpt lat="35.7793569" lon="139.165366"><ele>837.21</ele><time>2024-03-10T03:24:46Z</time></trkpt><trkpt lat="35.7794742" lon="139.1651932"><ele>836.1666666666666</ele><time>2024-03-10T03:25:05Z</time></trkpt><trkpt lat="35.7796525" lon="139.1651129"><ele>834.34</ele><time>2024-03-10T03:25:23Z</time></trkpt><trkpt lat="35.7798144" lon="139.1649953"><ele>828.7199999999999</ele><time>2024-03-10T03:25:44Z</time></trkpt><trkpt lat="35.7799879" lon="139.1650748"><ele>824.5733333333334</ele><time>2024-03-10T03:26:20Z</time></trkpt><trkpt lat="35.7801657" lon="139.1651291"><ele>821.2466666666666</ele><time>2024-03-10T03:26:42Z</time></trkpt><trkpt lat="35.7803239" lon="139.1650209"><ele>819.2566666666667</ele><time>2024-03-10T03:26:56Z</time></trkpt><trkpt lat="35.7804933" lon="139.1648927"><ele>816.4866666666667</ele><time>2024-03-10T03:27:20Z</time></trkpt><trkpt lat="35.7805987" lon="139.1646995"><ele>815.3733333333333</ele><time>2024-03-10T03:27:32Z</time></trkpt><trkpt lat="35.7806653" lon="139.1644927"><ele>815.4233333333333</ele><time>2024-03-10T03:27:58Z</time></trkpt><trkpt lat="35.7805481" lon="139.16432"><ele>812.5133333333333</ele><time>2024-03-10T03:28:22Z</time></trkpt><trkpt lat="35.7804977" lon="139.1641042"><ele>806.6433333333333</ele><time>2024-03-10T03:28:42Z</time></trkpt><trkpt lat="35.7804425" lon="139.1638878"><ele>799.7366666666667</ele><time>2024-03-10T03:28:57Z</time></trkpt><trkpt lat="35.7805023" lon="139.1636631"><ele>797.4166666666666</ele><time>2024-03-10T03:29:11Z</time></trkpt><trkpt lat="35.780516" lon="139.1634416"><ele>795.6333333333333</ele><time>2024-03-10T03:29:38Z</time></trkpt><trkpt lat="35.7806469" lon="139.1632704"><ele>796.2633333333333</ele><time>2024-03-10T03:29:50Z</time></trkpt><trkpt lat="35.7806483" lon="139.1630462"><ele>794.4166666666666</ele><time>2024-03-10T03:30:14Z</time></trkpt><trkpt lat="35.7806489" lon="139.1628172"><ele>791.2433333333333</ele><time>2024-03-10T03:30:34Z</time></trkpt><trkpt lat="35.7807095" lon="139.1625982"><ele>784.6966666666667</ele><time>2024-03-10T03:30:50Z</time></trkpt><trkpt lat="35.7807247" lon="139.1623705"><ele>778.4266666666666</ele><time>2024-03-10T03:31:07Z</time></trkpt><trkpt lat="35.7808118" lon="139.1621552"><ele>775.7466666666668</ele><time>2024-03-10T03:31:22Z</time></trkpt><trkpt lat="35.7809719" lon="139.1620465"><ele>776.5833333333334</ele><time>2024-03-10T03:31:50Z</time></trkpt><trkpt lat="35.7811288" lon="139.1619335"><ele>777.85</ele><time>2024-03-10T03:32:01Z</time></trkpt><trkpt lat="35.7812641" lon="139.16178"><ele>780.2600000000001</ele><time>2024-03-10T03:32:12Z</time></trkpt><trkpt lat="35.7814024" lon="139.1616311"><ele>780.4766666666668</ele><time>2024-03-10T03:32:27Z</time></trkpt><trkpt lat="35.7815203" lon="139.1614543"><ele>779.7766666666666</ele><time>2024-03-10T03:32:42Z</time></trkpt><trkpt lat="35.7816831" lon="139.1613506"><ele>775.3800000000001</ele><time>2024-03-10T03:33:09Z</time></trkpt><trkpt lat="35.7817137" lon="139.1611123"><ele>772.0466666666667</ele><time>2024-03-10T03:33:23Z</time></trkpt><trkpt lat="35.7817749" lon="139.1608982"><ele>768.75</ele><time>2024-03-10T03:33:38Z</time></trkpt><trkpt lat="35.7817969" lon="139.1606725"><ele>766.2399999999999</ele><time>2024-03-10T03:33:51Z</time></trkpt><trkpt lat="35.7817616" lon="139.1604454"><ele>766.5933333333334</ele><time>2024-03-10T03:34:04Z</time></trkpt><trkpt lat="35.7816903" lon="139.1602288"><ele>771.3466666666667</ele><time>2024-03-10T03:34:15Z</time></trkpt><trkpt lat="35.7815116" lon="139.1601926"><ele>776.7666666666668</ele><time>2024-03-10T03:34:30Z</time></trkpt><trkpt lat="35.7814446" lon="139.1599805"><ele>780.2600000000001</ele><time>2024-03-10T03:34:59Z</time></trkpt><trkpt lat="35.7814222" lon="139.1597545"><ele>782.1333333333333</ele><time>2024-03-10T03:35:21Z</time></trkpt><trkpt lat="35.7814843" lon="139.1595468"><ele>785.0233333333334</ele><time>2024-03-10T03:35:41Z</time></trkpt><trkpt lat="35.7816165" lon="139.1593825"><ele>788.2266666666668</ele><time>2024-03-10T03:35:58Z</time></trkpt><trkpt lat="35.7816898" lon="139.1591759"><ele>788.56</ele><time>2024-03-10T03:36:16Z</time></trkpt><trkpt lat="35.7818459" lon="139.159064"><ele>789.35</ele><time>2024-03-10T03:36:35Z</time></trkpt><trkpt lat="35.7819829" lon="139.158918"><ele>788.2366666666667</ele><time>2024-03-10T03:36:53Z</time></trkpt><trkpt lat="35.7821087" lon="139.1587589"><ele>788.7233333333334</ele><time>2024-03-10T03:37:22Z</time></trkpt><trkpt lat="35.7822711" lon="139.1586628"><ele>787.1733333333333</ele><time>2024-03-10T03:37:37Z</time></trkpt><trkpt lat="35.7823796" lon="139.1584747"><ele>785.5266666666666</ele><time>2024-03-10T03:38:04Z</time></trkpt><trkpt lat="35.7825543" lon="139.1585854"><ele>787.3299999999999</ele><time>2024-03-10T03:38:17Z</time></trkpt><trkpt lat="35.7826968" lon="139.1584312"><ele>788.96</ele><time>2024-03-10T03:38:34Z</time></trkpt><trkpt lat="35.7828686" lon="139.1583575"><ele>790.8833333333333</ele><time>2024-03-10T03:38:54Z</time></trkpt><trkpt lat="35.7830501" lon="139.1583252"><ele>789.0466666666667</ele><time>2024-03-10T03:39:11Z</time></trkpt><trkpt lat="35.783233" lon="139.158293"><ele>786.5500000000001</ele><time>2024-03-10T03:39:32Z</time></trkpt><trkpt lat="35.7833967" lon="139.1581974"><ele>784.8166666666666</ele><time>2024-03-10T03:39:58Z</time></trkpt><trkpt lat="35.7834646" lon="139.1579727"><ele>785.1</ele><time>2024-03-10T03:40:13Z</time></trkpt><trkpt lat="35.7835208" lon="139.1577461"><ele>788.0766666666667</ele><time>2024-03-10T03:40:28Z</time></trkpt><trkpt lat="35.7836085" lon="139.1575458"><ele>791.7133333333333</ele><time>2024-03-10T03:40:44Z</time></trkpt><trkpt lat="35.783766" lon="139.1574213"><ele>793.04</ele><time>2024-03-10T03:40:58Z</time></trkpt><trkpt lat="35.7838227" lon="139.1572051"><ele>796.73</ele><time>2024-03-10T03:41:14Z</time></trkpt><trkpt lat="35.7837519" lon="139.1569789"><ele>800.0799999999999</ele><time>2024-03-10T03:41:31Z</time></trkpt><trkpt lat="35.7837324" lon="139.1567506"><ele>806.5500000000001</ele><time>2024-03-10T03:42:05Z</time></trkpt><trkpt lat="35.7835704" lon="139.1566476"><ele>809.1166666666667</ele><time>2024-03-10T03:42:39Z</time></trkpt><trkpt lat="35.7834034" lon="139.1565471"><ele>810.5500000000001</ele><time>2024-03-10T03:42:53Z</time></trkpt><trkpt lat="35.7833198" lon="139.1563438"><ele>809.9633333333333</ele><time>2024-03-10T03:43:19Z</time></trkpt><trkpt lat="35.7833837" lon="139.1561293"><ele>810.11</ele><time>2024-03-10T03:43:34Z</time></trkpt><trkpt lat="35.7835096" lon="139.1559633"><ele>812.7066666666666</ele><time>2024-03-10T03:43:53Z</time></trkpt><trkpt lat="35.78359" lon="139.1557649"><ele>815.6233333333333</ele><time>2024-03-10T03:44:09Z</time></trkpt><trkpt lat="35.7836104" lon="139.155538"><ele>816.7199999999999</ele><time>2024-03-10T03:44:24Z</time></trkpt><trkpt lat="35.783686" lon="139.1553296"><ele>815.88</ele><time>2024-03-10T03:44:41Z</time></trkpt><trkpt lat="35.7837874" lon="139.1551366"><ele>813.5833333333334</ele><time>2024-03-10T03:44:58Z</time></trkpt><trkpt lat="35.783978" lon="139.1550802"><ele>812.6933333333333</ele><time>2024-03-10T03:45:24Z</time></trkpt><trkpt lat="35.7838872" lon="139.154834"><ele>814.1</ele><time>2024-03-10T03:45:34Z</time></trkpt><trkpt lat="35.7837414" lon="139.1546998"><ele>818.1133333333333</ele><time>2024-03-10T03:45:42Z</time></trkpt><trkpt lat="35.7836038" lon="139.154552"><ele>822.6766666666666</ele><time>2024-03-10T03:46:24Z</time></trkpt><trkpt lat="35.7834756" lon="139.1543897"><ele>824.7333333333332</ele><time>2024-03-10T03:46:37Z</time></trkpt><trkpt lat="35.7835347" lon="139.1541802"><ele>826.5099999999999</ele><time>2024-03-10T03:46:50Z</time></trkpt><trkpt lat="35.7836381" lon="139.1539971"><ele>828.5833333333334</ele><time>2024-03-10T03:47:03Z</time></trkpt><trkpt lat="35.783668" lon="139.1537747"><ele>831.1766666666667</ele><time>2024-03-10T03:47:40Z</time></trkpt><trkpt lat="35.7837385" lon="139.153553"><ele>830.4666666666667</ele><time>2024-03-10T03:50:25Z</time></trkpt><trkpt lat="35.7836472" lon="139.1533331"><ele>829.6733333333333</ele><time>2024-03-10T03:50:39Z</time></trkpt><trkpt lat="35.7835595" lon="139.1531377"><ele>832.4233333333333</ele><time>2024-03-10T03:51:00Z</time></trkpt><trkpt lat="35.7834594" lon="139.1529505"><ele>839.5766666666667</ele><time>2024-03-10T03:51:45Z</time></trkpt><trkpt lat="35.7833576" lon="139.152761"><ele>847.16</ele><time>2024-03-10T03:52:06Z</time></trkpt><trkpt lat="35.7834399" lon="139.1525545"><ele>852.2599999999999</ele><time>2024-03-10T03:52:27Z</time></trkpt><trkpt lat="35.7834602" lon="139.1523312"><ele>854.4900000000001</ele><time>2024-03-10T03:52:59Z</time></trkpt><trkpt lat="35.783619" lon="139.1524467"><ele>857.1633333333333</ele><time>2024-03-10T03:53:31Z</time></trkpt><trkpt lat="35.7837962" lon="139.1523361"><ele>858.8333333333334</ele><time>2024-03-10T03:53:49Z</time></trkpt><trkpt lat="35.7839235" lon="139.1521772"><ele>860.5966666666667</ele><time>2024-03-10T03:54:03Z</time></trkpt><trkpt lat="35.7840988" lon="139.1521134"><ele>859.8833333333333</ele><time>2024-03-10T03:54:17Z</time></trkpt><trkpt lat="35.7842041" lon="139.1519151"><ele>859.0133333333333</ele><time>2024-03-10T03:54:37Z</time></trkpt><trkpt lat="35.7843895" lon="139.1519145"><ele>856.25</ele><time>2024-03-10T03:54:57Z</time></trkpt><trkpt lat="35.784573" lon="139.1519409"><ele>853.2333333333332</ele><time>2024-03-10T03:55:35Z</time></trkpt><trkpt lat="35.7847676" lon="139.1520027"><ele>849.5066666666667</ele><time>2024-03-10T03:56:49Z</time></trkpt><trkpt lat="35.7849689" lon="139.1520705"><ele>844.8633333333333</ele><time>2024-03-10T03:57:13Z</time></trkpt><trkpt lat="35.7851584" lon="139.1519841"><ele>840.4733333333334</ele><time>2024-03-10T03:57:30Z</time></trkpt><trkpt lat="35.7851958" lon="139.1517637"><ele>839.2733333333334</ele><time>2024-03-10T03:57:48Z</time></trkpt><trkpt lat="35.7853873" lon="139.1517615"><ele>839.6466666666666</ele><time>2024-03-10T03:58:03Z</time></trkpt><trkpt lat="35.7855831" lon="139.1518358"><ele>837.8866666666668</ele><time>2024-03-10T03:58:15Z</time></trkpt><trkpt lat="35.7857643" lon="139.1518296"><ele>831.73</ele><time>2024-03-10T03:58:33Z</time></trkpt><trkpt lat="35.7859363" lon="139.1517591"><ele>823.2366666666667</ele><time>2024-03-10T03:58:43Z</time></trkpt><trkpt lat="35.7860708" lon="139.1516029"><ele>818.3266666666667</ele><time>2024-03-10T03:58:57Z</time></trkpt><trkpt lat="35.7862482" lon="139.1515609"><ele>815.4900000000001</ele><time>2024-03-10T03:59:28Z</time></trkpt><trkpt lat="35.7862369" lon="139.1513339"><ele>817.9033333333333</ele><time>2024-03-10T03:59:41Z</time></trkpt><trkpt lat="35.7863138" lon="139.151129"><ele>820.5466666666666</ele><time>2024-03-10T04:00:07Z</time></trkpt><trkpt lat="35.7864988" lon="139.1511278"><ele>823.6133333333333</ele><time>2024-03-10T04:00:31Z</time></trkpt><trkpt lat="35.7866593" lon="139.1510109"><ele>826.3733333333333</ele><time>2024-03-10T04:00:51Z</time></trkpt><trkpt lat="35.7868391" lon="139.151033"><ele>828.6633333333333</ele><time>2024-03-10T04:01:11Z</time></trkpt><trkpt lat="35.7870118" lon="139.1509208"><ele>831.1766666666667</ele><time>2024-03-10T04:01:43Z</time></trkpt><trkpt lat="35.7871855" lon="139.1508242"><ele>833.3766666666667</ele><time>2024-03-10T04:02:01Z</time></trkpt><trkpt lat="35.787371" lon="139.1508516"><ele>836.0733333333334</ele><time>2024-03-10T04:02:36Z</time></trkpt><trkpt lat="35.7875505" lon="139.1508862"><ele>838.7266666666666</ele><time>2024-03-10T04:03:03Z</time></trkpt><trkpt lat="35.7877401" lon="139.1508895"><ele>841.56</ele><time>2024-03-10T04:03:33Z</time></trkpt><trkpt lat="35.7879249" lon="139.1509221"><ele>845.5533333333333</ele><time>2024-03-10T04:04:16Z</time></trkpt><trkpt lat="35.7881061" lon="139.1508769"><ele>849.07</ele><time>2024-03-10T04:04:43Z</time></trkpt><trkpt lat="35.7882895" lon="139.1508597"><ele>851.12</ele><time>2024-03-10T04:04:59Z</time></trkpt><trkpt lat="35.7884792" lon="139.1509012"><ele>852.0900000000001</ele><time>2024-03-10T04:05:34Z</time></trkpt><trkpt lat="35.7886638" lon="139.1508402"><ele>854.1366666666667</ele><time>2024-03-10T04:05:48Z</time></trkpt><trkpt lat="35.7887391" lon="139.1506391"><ele>856.3066666666667</ele><time>2024-03-10T04:06:04Z</time></trkpt><trkpt lat="35.7887965" lon="139.1504163"><ele>855.9333333333334</ele><time>2024-03-10T04:06:22Z</time></trkpt><trkpt lat="35.7889674" lon="139.1503007"><ele>854.4433333333335</ele><time>2024-03-10T04:06:36Z</time></trkpt><trkpt lat="35.7891332" lon="139.1501983"><ele>854.2866666666667</ele><time>2024-03-10T04:06:53Z</time></trkpt><trkpt lat="35.7892451" lon="139.1504455"><ele>854.3033333333334</ele><time>2024-03-10T04:07:33Z</time></trkpt><trkpt lat="35.7892786" lon="139.1506652"><ele>853.08</ele><time>2024-03-10T04:07:46Z</time></trkpt><trkpt lat="35.7894338" lon="139.1507931"><ele>848.1166666666667</ele><time>2024-03-10T04:08:05Z</time></trkpt><trkpt lat="35.7895325" lon="139.1509798"><ele>844.62</ele><time>2024-03-10T04:08:22Z</time></trkpt><trkpt lat="35.7895959" lon="139.1511954"><ele>842.5766666666667</ele><time>2024-03-10T04:08:36Z</time></trkpt><trkpt lat="35.7897441" lon="139.1513513"><ele>841.8533333333334</ele><time>2024-03-10T04:08:52Z</time></trkpt><trkpt lat="35.7898694" lon="139.1515144"><ele>839.6666666666666</ele><time>2024-03-10T04:09:08Z</time></trkpt><trkpt lat="35.7899301" lon="139.1517264"><ele>838.7233333333334</ele><time>2024-03-10T04:09:23Z</time></trkpt><trkpt lat="35.7900234" lon="139.1519364"><ele>839.32</ele><time>2024-03-10T04:09:40Z</time></trkpt><trkpt lat="35.7901142" lon="139.1521291"><ele>840.11</ele><time>2024-03-10T04:09:55Z</time></trkpt><trkpt lat="35.7902085" lon="139.1523198"><ele>839.5100000000001</ele><time>2024-03-10T04:10:10Z</time></trkpt><trkpt lat="35.7902248" lon="139.152541"><ele>838.9266666666667</ele><time>2024-03-10T04:10:32Z</time></trkpt><trkpt lat="35.79013" lon="139.152773"><ele>840.1</ele><time>2024-03-10T04:10:44Z</time></trkpt><trkpt lat="35.7900589" lon="139.1529851"><ele>839.9833333333332</ele><time>2024-03-10T04:10:57Z</time></trkpt><trkpt lat="35.7900158" lon="139.1532096"><ele>837.5133333333333</ele><time>2024-03-10T04:11:17Z</time></trkpt><trkpt lat="35.7899299" lon="139.1534079"><ele>834.8133333333334</ele><time>2024-03-10T04:11:45Z</time></trkpt></trkseg></trk></gpx>