<?xml version='1.0' encoding='UTF-8'?><gpx creator="YAMAP - https://yamap.com" xsi:schemaLocation="http://www.topografix.com/GPX/1/1 http://www.topografix.com/GPX/1/1/gpx.xsd" version="1.1" xmlns="http://www.topografix.com/GPX/1/1" xmlns:xsi="http://www.w3.org/2001/XMLSchema-instance"><metadata><bounds maxlat="35.9155768" maxlon="139.2264098" minlat="35.8714992" minlon="139.1809417"/></metadata><trk><name>初詣、子ノ権現と竹寺</name><number>1</number><trkseg><trkpt lat="35.9083328" lon="139.2263024"><ele>184.81</ele><time>2024-01-01T23:53:47Z</time></trkpt><trkpt lat="35.9084924" lon="139.2264098"><ele>183.61</ele><time>2024-01-01T23:53:58Z</time></trkpt><trkpt lat="35.9085586" lon="139.2261802"><ele>183.06333333333336</ele><time>2024-01-01T23:54:02Z</time></trkpt><trkpt lat="35.9085594" lon="139.2259537"><ele>182.09333333333333</ele><time>2024-01-01T23:54:25Z</time></trkpt><trkpt lat="35.9085494" lon="139.2257317"><ele>181.78666666666666</ele><time>2024-01-01T23:54:40Z</time></trkpt><trkpt lat="35.9085798" lon="139.2254924"><ele>181.47333333333333</ele><time>2024-01-01T23:54:55Z</time></trkpt><trkpt lat="35.9085063" lon="139.2252883"><ele>181.55666666666664</ele><time>2024-01-01T23:55:09Z</time></trkpt><trkpt lat="35.9085965" lon="139.2250856"><ele>181.64666666666668</ele><time>2024-01-01T23:55:19Z</time></trkpt><trkpt lat="35.9085835" lon="139.2248537"><ele>182.96666666666667</ele><time>2024-01-01T23:55:40Z</time></trkpt><trkpt lat="35.9085553" lon="139.2246222"><ele>184.72333333333336</ele><time>2024-01-01T23:55:54Z</time></trkpt><trkpt lat="35.9086183" lon="139.2244146"><ele>186.69000000000003</ele><time>2024-01-01T23:56:06Z</time></trkpt><trkpt lat="35.9086544" lon="139.2241975"><ele>187.79</ele><time>2024-01-01T23:56:22Z</time></trkpt><trkpt lat="35.9086818" lon="139.2239771"><ele>188.04</ele><time>2024-01-01T23:56:33Z</time></trkpt><trkpt lat="35.9088056" lon="139.2238127"><ele>187.1966666666667</ele><time>2024-01-01T23:56:46Z</time></trkpt><trkpt lat="35.9088734" lon="139.2235993"><ele>185.35333333333332</ele><time>2024-01-01T23:57:03Z</time></trkpt><trkpt lat="35.9088771" lon="139.2233622"><ele>184.60333333333332</ele><time>2024-01-01T23:57:18Z</time></trkpt><trkpt lat="35.9090643" lon="139.2233032"><ele>184.1833333333333</ele><time>2024-01-01T23:57:31Z</time></trkpt><trkpt lat="35.909168" lon="139.2231156"><ele>185.04333333333332</ele><time>2024-01-01T23:57:43Z</time></trkpt><trkpt lat="35.9093363" lon="139.2230295"><ele>184.37</ele><time>2024-01-01T23:57:53Z</time></trkpt><trkpt lat="35.9094786" lon="139.2228871"><ele>183.88666666666668</ele><time>2024-01-01T23:58:09Z</time></trkpt><trkpt lat="35.9095904" lon="139.2226976"><ele>183.25333333333333</ele><time>2024-01-01T23:58:23Z</time></trkpt><trkpt lat="35.9095685" lon="139.2224748"><ele>183.61</ele><time>2024-01-01T23:58:35Z</time></trkpt><trkpt lat="35.909749" lon="139.2224084"><ele>184.18999999999997</ele><time>2024-01-01T23:58:47Z</time></trkpt><trkpt lat="35.9099318" lon="139.2223273"><ele>185.01999999999998</ele><time>2024-01-01T23:59:00Z</time></trkpt><trkpt lat="35.9100476" lon="139.2221403"><ele>185.95666666666668</ele><time>2024-01-01T23:59:17Z</time></trkpt><trkpt lat="35.9101983" lon="139.2220186"><ele>187.54333333333338</ele><time>2024-01-01T23:59:29Z</time></trkpt><trkpt lat="35.9103348" lon="139.2218497"><ele>189.41</ele><time>2024-01-01T23:59:48Z</time></trkpt><trkpt lat="35.9104693" lon="139.2216984"><ele>191.2066666666667</ele><time>2024-01-02T00:00:03Z</time></trkpt><trkpt lat="35.9105117" lon="139.2214674"><ele>194.44333333333336</ele><time>2024-01-02T00:00:17Z</time></trkpt><trkpt lat="35.9106919" lon="139.2214141"><ele>196.33333333333334</ele><time>2024-01-02T00:00:33Z</time></trkpt><trkpt lat="35.9108698" lon="139.2213401"><ele>197.7966666666667</ele><time>2024-01-02T00:00:44Z</time></trkpt><trkpt lat="35.9110175" lon="139.2211888"><ele>198.21333333333334</ele><time>2024-01-02T00:01:03Z</time></trkpt><trkpt lat="35.9111206" lon="139.2209957"><ele>199.65333333333334</ele><time>2024-01-02T00:01:17Z</time></trkpt><trkpt lat="35.9112984" lon="139.2209412"><ele>201.35999999999999</ele><time>2024-01-02T00:01:32Z</time></trkpt><trkpt lat="35.9114787" lon="139.2209585"><ele>202.08333333333334</ele><time>2024-01-02T00:01:49Z</time></trkpt><trkpt lat="35.9116501" lon="139.2210319"><ele>201.5</ele><time>2024-01-02T00:02:07Z</time></trkpt><trkpt lat="35.9118462" lon="139.2210059"><ele>200.0066666666667</ele><time>2024-01-02T00:02:21Z</time></trkpt><trkpt lat="35.9119756" lon="139.2208366"><ele>200.37</ele><time>2024-01-02T00:02:37Z</time></trkpt><trkpt lat="35.9120201" lon="139.2206064"><ele>205.28</ele><time>2024-01-02T00:02:46Z</time></trkpt><trkpt lat="35.9122071" lon="139.2206051"><ele>206.62666666666667</ele><time>2024-01-02T00:03:04Z</time></trkpt><trkpt lat="35.9124014" lon="139.2205651"><ele>205.11333333333334</ele><time>2024-01-02T00:03:15Z</time></trkpt><trkpt lat="35.9125932" lon="139.2205191"><ele>199.62666666666667</ele><time>2024-01-02T00:03:30Z</time></trkpt><trkpt lat="35.9127512" lon="139.220409"><ele>198.4333333333333</ele><time>2024-01-02T00:03:44Z</time></trkpt><trkpt lat="35.9129093" lon="139.2202474"><ele>198.35999999999999</ele><time>2024-01-02T00:03:56Z</time></trkpt><trkpt lat="35.9127308" lon="139.2201526"><ele>198.56666666666663</ele><time>2024-01-02T00:04:10Z</time></trkpt><trkpt lat="35.9125573" lon="139.2200613"><ele>199.85333333333332</ele><time>2024-01-02T00:04:19Z</time></trkpt><trkpt lat="35.9124785" lon="139.2198448"><ele>203.22000000000003</ele><time>2024-01-02T00:04:32Z</time></trkpt><trkpt lat="35.9124403" lon="139.2196178"><ele>206.0233333333333</ele><time>2024-01-02T00:04:48Z</time></trkpt><trkpt lat="35.9124619" lon="139.2193772"><ele>207.39333333333335</ele><time>2024-01-02T00:05:02Z</time></trkpt><trkpt lat="35.9124731" lon="139.2191519"><ele>206.65333333333334</ele><time>2024-01-02T00:05:18Z</time></trkpt><trkpt lat="35.9126328" lon="139.2190293"><ele>202.11333333333334</ele><time>2024-01-02T00:05:30Z</time></trkpt><trkpt lat="35.9127574" lon="139.2188524"><ele>197.44000000000003</ele><time>2024-01-02T00:05:42Z</time></trkpt><trkpt lat="35.9128526" lon="139.2186536"><ele>192.5</ele><time>2024-01-02T00:05:55Z</time></trkpt><trkpt lat="35.9129126" lon="139.2184441"><ele>191.96333333333334</ele><time>2024-01-02T00:06:11Z</time></trkpt><trkpt lat="35.9130032" lon="139.2182463"><ele>191.67333333333332</ele><time>2024-01-02T00:06:25Z</time></trkpt><trkpt lat="35.9131228" lon="139.2180674"><ele>191.27</ele><time>2024-01-02T00:06:38Z</time></trkpt><trkpt lat="35.9132916" lon="139.2179639"><ele>190.58666666666667</ele><time>2024-01-02T00:06:51Z</time></trkpt><trkpt lat="35.9133568" lon="139.2177472"><ele>190.13333333333333</ele><time>2024-01-02T00:07:03Z</time></trkpt><trkpt lat="35.913467" lon="139.2175702"><ele>189.65666666666667</ele><time>2024-01-02T00:07:16Z</time></trkpt><trkpt lat="35.9135899" lon="139.2174032"><ele>189.72</ele><time>2024-01-02T00:07:31Z</time></trkpt><trkpt lat="35.9137656" lon="139.217328"><ele>188.71333333333334</ele><time>2024-01-02T00:07:41Z</time></trkpt><trkpt lat="35.9139406" lon="139.2172557"><ele>187.62333333333333</ele><time>2024-01-02T00:07:53Z</time></trkpt><trkpt lat="35.9141254" lon="139.217215"><ele>185.87666666666667</ele><time>2024-01-02T00:08:05Z</time></trkpt><trkpt lat="35.9142874" lon="139.217098"><ele>185.02999999999997</ele><time>2024-01-02T00:08:16Z</time></trkpt><trkpt lat="35.9144433" lon="139.2169783"><ele>185.10333333333332</ele><time>2024-01-02T00:08:34Z</time></trkpt><trkpt lat="35.9146294" lon="139.2169319"><ele>185.90333333333334</ele><time>2024-01-02T00:08:50Z</time></trkpt><trkpt lat="35.9146555" lon="139.2167068"><ele>187.4466666666667</ele><time>2024-01-02T00:09:02Z</time></trkpt><trkpt lat="35.9146053" lon="139.2164921"><ele>189.73666666666668</ele><time>2024-01-02T00:09:13Z</time></trkpt><trkpt lat="35.9145434" lon="139.2162798"><ele>191.96000000000004</ele><time>2024-01-02T00:09:24Z</time></trkpt><trkpt lat="35.9147072" lon="139.2161822"><ele>193.94333333333336</ele><time>2024-01-02T00:10:27Z</time></trkpt><trkpt lat="35.9145246" lon="139.2161106"><ele>195.01666666666668</ele><time>2024-01-02T00:11:00Z</time></trkpt><trkpt lat="35.9144304" lon="139.2159164"><ele>196.74333333333334</ele><time>2024-01-02T00:11:14Z</time></trkpt><trkpt lat="35.9144851" lon="139.21569"><ele>198.9366666666667</ele><time>2024-01-02T00:11:30Z</time></trkpt><trkpt lat="35.9145417" lon="139.2154739"><ele>202.87</ele><time>2024-01-02T00:11:42Z</time></trkpt><trkpt lat="35.9146254" lon="139.2152662"><ele>205.99333333333334</ele><time>2024-01-02T00:12:36Z</time></trkpt><trkpt lat="35.9147559" lon="139.2150995"><ele>211.35333333333332</ele><time>2024-01-02T00:12:53Z</time></trkpt><trkpt lat="35.9147837" lon="139.2148755"><ele>217.17333333333332</ele><time>2024-01-02T00:13:14Z</time></trkpt><trkpt lat="35.9148865" lon="139.2146905"><ele>223.8033333333333</ele><time>2024-01-02T00:13:38Z</time></trkpt><trkpt lat="35.9149982" lon="139.2144987"><ele>229.83666666666667</ele><time>2024-01-02T00:14:00Z</time></trkpt><trkpt lat="35.9150211" lon="139.2142758"><ele>235.19999999999996</ele><time>2024-01-02T00:14:31Z</time></trkpt><trkpt lat="35.9151493" lon="139.2141163"><ele>240.91</ele><time>2024-01-02T00:15:17Z</time></trkpt><trkpt lat="35.9153331" lon="139.214095"><ele>246.00333333333333</ele><time>2024-01-02T00:16:00Z</time></trkpt><trkpt lat="35.9153604" lon="139.2138433"><ele>252.08333333333334</ele><time>2024-01-02T00:16:47Z</time></trkpt><trkpt lat="35.9152836" lon="139.2136384"><ele>259.83</ele><time>2024-01-02T00:16:56Z</time></trkpt><trkpt lat="35.9150947" lon="139.2135968"><ele>267.57666666666665</ele><time>2024-01-02T00:17:02Z</time></trkpt><trkpt lat="35.9149151" lon="139.2136222"><ele>270.1133333333333</ele><time>2024-01-02T00:17:19Z</time></trkpt><trkpt lat="35.9149835" lon="139.2134159"><ele>274.86</ele><time>2024-01-02T00:18:30Z</time></trkpt><trkpt lat="35.9151143" lon="139.2135789"><ele>274.86000000000007</ele><time>2024-01-02T00:18:44Z</time></trkpt><trkpt lat="35.9153192" lon="139.2135976"><ele>277.01666666666665</ele><time>2024-01-02T00:19:08Z</time></trkpt><trkpt lat="35.9154499" lon="139.2134307"><ele>274.31666666666666</ele><time>2024-01-02T00:19:19Z</time></trkpt><trkpt lat="35.9155768" lon="139.2132174"><ele>278.6433333333334</ele><time>2024-01-02T00:19:53Z</time></trkpt><trkpt lat="35.9155242" lon="139.2129996"><ele>285.79</ele><time>2024-01-02T00:20:44Z</time></trkpt><trkpt lat="35.9155137" lon="139.2127777"><ele>297.9766666666667</ele><time>2024-01-02T00:21:36Z</time></trkpt><trkpt lat="35.9153399" lon="139.2126957"><ele>307.69</ele><time>2024-01-02T00:22:50Z</time></trkpt><trkpt lat="35.9151719" lon="139.2126108"><ele>315.7266666666667</ele><time>2024-01-02T00:23:02Z</time></trkpt><trkpt lat="35.9152564" lon="139.2124109"><ele>321.90333333333336</ele><time>2024-01-02T00:24:23Z</time></trkpt><trkpt lat="35.9151353" lon="139.2122389"><ele>328.24333333333334</ele><time>2024-01-02T00:24:55Z</time></trkpt><trkpt lat="35.9151983" lon="139.2120306"><ele>337.74666666666667</ele><time>2024-01-02T00:26:08Z</time></trkpt><trkpt lat="35.9153399" lon="139.2118667"><ele>345.06333333333333</ele><time>2024-01-02T00:27:21Z</time></trkpt><trkpt lat="35.9153237" lon="139.2116369"><ele>350.3966666666667</ele><time>2024-01-02T00:27:35Z</time></trkpt><trkpt lat="35.9153328" lon="139.2114105"><ele>352.84999999999997</ele><time>2024-01-02T00:28:07Z</time></trkpt><trkpt lat="35.9153297" lon="139.2111884"><ele>355.43333333333334</ele><time>2024-01-02T00:28:22Z</time></trkpt><trkpt lat="35.9153534" lon="139.2109651"><ele>359.25666666666666</ele><time>2024-01-02T00:29:19Z</time></trkpt><trkpt lat="35.9153713" lon="139.2107443"><ele>364.2866666666667</ele><time>2024-01-02T00:30:17Z</time></trkpt><trkpt lat="35.9152418" lon="139.2105774"><ele>368.44</ele><time>2024-01-02T00:31:27Z</time></trkpt><trkpt lat="35.9150739" lon="139.2104962"><ele>371.7966666666666</ele><time>2024-01-02T00:31:50Z</time></trkpt><trkpt lat="35.9149433" lon="139.2103419"><ele>373.8633333333334</ele><time>2024-01-02T00:32:10Z</time></trkpt><trkpt lat="35.9148412" lon="139.2101588"><ele>376.85666666666674</ele><time>2024-01-02T00:32:44Z</time></trkpt><trkpt lat="35.914693" lon="139.2100215"><ele>379.85666666666674</ele><time>2024-01-02T00:33:15Z</time></trkpt><trkpt lat="35.9145269" lon="139.2099244"><ele>382.56</ele><time>2024-01-02T00:33:26Z</time></trkpt><trkpt lat="35.914382" lon="139.2097731"><ele>384.26000000000005</ele><time>2024-01-02T00:33:44Z</time></trkpt><trkpt lat="35.9142353" lon="139.2096424"><ele>387.52</ele><time>2024-01-02T00:34:34Z</time></trkpt><trkpt lat="35.9140868" lon="139.2095152"><ele>392.04333333333335</ele><time>2024-01-02T00:35:20Z</time></trkpt><trkpt lat="35.9139519" lon="139.2093393"><ele>400.0</ele><time>2024-01-02T00:37:05Z</time></trkpt><trkpt lat="35.913937" lon="139.2091076"><ele>406.9966666666667</ele><time>2024-01-02T00:38:38Z</time></trkpt><trkpt lat="35.9139761" lon="139.2088672"><ele>414.03000000000003</ele><time>2024-01-02T00:38:57Z</time></trkpt><trkpt lat="35.9139404" lon="139.2086493"><ele>418.22</ele><time>2024-01-02T00:39:46Z</time></trkpt><trkpt lat="35.9138674" lon="139.2084434"><ele>422.94</ele><time>2024-01-02T00:40:12Z</time></trkpt><trkpt lat="35.9139536" lon="139.2082362"><ele>426.5466666666667</ele><time>2024-01-02T00:41:07Z</time></trkpt><trkpt lat="35.914054" lon="139.2080502"><ele>429.02666666666664</ele><time>2024-01-02T00:41:22Z</time></trkpt><trkpt lat="35.9142046" lon="139.2079135"><ele>429.82</ele><time>2024-01-02T00:41:42Z</time></trkpt><trkpt lat="35.9143377" lon="139.2077576"><ele>428.4133333333334</ele><time>2024-01-02T00:42:00Z</time></trkpt><trkpt lat="35.9144844" lon="139.2076277"><ele>426.12000000000006</ele><time>2024-01-02T00:42:13Z</time></trkpt><trkpt lat="35.9146152" lon="139.2074662"><ele>423.75</ele><time>2024-01-02T00:42:29Z</time></trkpt><trkpt lat="35.9146806" lon="139.2072438"><ele>424.1266666666667</ele><time>2024-01-02T00:43:12Z</time></trkpt><trkpt lat="35.9148161" lon="139.2070951"><ele>429.4433333333333</ele><time>2024-01-02T00:44:16Z</time></trkpt><trkpt lat="35.914845" lon="139.2068758"><ele>435.8833333333334</ele><time>2024-01-02T00:45:23Z</time></trkpt><trkpt lat="35.9147672" lon="139.2066744"><ele>439.1833333333334</ele><time>2024-01-02T00:45:54Z</time></trkpt><trkpt lat="35.9147132" lon="139.2064585"><ele>436.56</ele><time>2024-01-02T00:46:07Z</time></trkpt><trkpt lat="35.9146347" lon="139.2062546"><ele>433.3533333333333</ele><time>2024-01-02T00:46:20Z</time></trkpt><trkpt lat="35.9145099" lon="139.2060935"><ele>430.78333333333336</ele><time>2024-01-02T00:46:38Z</time></trkpt><trkpt lat="35.914342" lon="139.2060079"><ele>429.6033333333333</ele><time>2024-01-02T00:46:53Z</time></trkpt><trkpt lat="35.9142572" lon="139.2058102"><ele>426.59666666666664</ele><time>2024-01-02T00:47:14Z</time></trkpt><trkpt lat="35.9142696" lon="139.2055881"><ele>421.47333333333336</ele><time>2024-01-02T00:48:05Z</time></trkpt><trkpt lat="35.9142569" lon="139.2053628"><ele>413.9633333333333</ele><time>2024-01-02T00:49:00Z</time></trkpt><trkpt lat="35.9142518" lon="139.2051409"><ele>404.6333333333334</ele><time>2024-01-02T00:49:50Z</time></trkpt><trkpt lat="35.9141544" lon="139.2049515"><ele>397.60999999999996</ele><time>2024-01-02T00:50:18Z</time></trkpt><trkpt lat="35.9140956" lon="139.204719"><ele>393.30333333333334</ele><time>2024-01-02T00:50:30Z</time></trkpt><trkpt lat="35.9139852" lon="139.2045414"><ele>392.74666666666667</ele><time>2024-01-02T00:50:44Z</time></trkpt><trkpt lat="35.9138262" lon="139.2044316"><ele>393.7366666666667</ele><time>2024-01-02T00:51:18Z</time></trkpt><trkpt lat="35.9137821" lon="139.2042047"><ele>399.01</ele><time>2024-01-02T00:52:23Z</time></trkpt><trkpt lat="35.9136371" lon="139.2040439"><ele>405.33666666666664</ele><time>2024-01-02T00:53:04Z</time></trkpt><trkpt lat="35.9134902" lon="139.2039035"><ele>412.0</ele><time>2024-01-02T00:53:16Z</time></trkpt><trkpt lat="35.913376" lon="139.2037286"><ele>416.32</ele><time>2024-01-02T00:53:43Z</time></trkpt><trkpt lat="35.9133933" lon="139.2034985"><ele>419.1933333333334</ele><time>2024-01-02T00:54:32Z</time></trkpt><trkpt lat="35.9134773" lon="139.2032947"><ele>419.32666666666665</ele><time>2024-01-02T00:54:48Z</time></trkpt><trkpt lat="35.9133767" lon="139.2031067"><ele>419.33</ele><time>2024-01-02T00:55:12Z</time></trkpt><trkpt lat="35.913267" lon="139.2029305"><ele>419.66333333333336</ele><time>2024-01-02T00:55:30Z</time></trkpt><trkpt lat="35.9131187" lon="139.2027977"><ele>423.98333333333335</ele><time>2024-01-02T00:56:13Z</time></trkpt><trkpt lat="35.9131211" lon="139.2025738"><ele>425.3433333333333</ele><time>2024-01-02T00:56:38Z</time></trkpt><trkpt lat="35.912982" lon="139.2024243"><ele>425.77</ele><time>2024-01-02T00:56:54Z</time></trkpt><trkpt lat="35.9128187" lon="139.2023081"><ele>424.03999999999996</ele><time>2024-01-02T00:57:10Z</time></trkpt><trkpt lat="35.9126934" lon="139.2021486"><ele>423.16</ele><time>2024-01-02T00:57:29Z</time></trkpt><trkpt lat="35.912525" lon="139.2020622"><ele>423.0333333333333</ele><time>2024-01-02T00:57:47Z</time></trkpt><trkpt lat="35.9124822" lon="139.201821"><ele>422.71333333333337</ele><time>2024-01-02T00:58:54Z</time></trkpt><trkpt lat="35.9125492" lon="139.2016119"><ele>422.23</ele><time>2024-01-02T00:59:05Z</time></trkpt><trkpt lat="35.9125574" lon="139.2013874"><ele>420.6733333333334</ele><time>2024-01-02T00:59:40Z</time></trkpt><trkpt lat="35.9124887" lon="139.2011811"><ele>417.52333333333337</ele><time>2024-01-02T01:00:19Z</time></trkpt><trkpt lat="35.9124469" lon="139.2009573"><ele>412.16</ele><time>2024-01-02T01:00:38Z</time></trkpt><trkpt lat="35.9125072" lon="139.2007448"><ele>405.44666666666666</ele><time>2024-01-02T01:01:48Z</time></trkpt><trkpt lat="35.9126169" lon="139.200563"><ele>398.21999999999997</ele><time>2024-01-02T01:02:04Z</time></trkpt><trkpt lat="35.9126295" lon="139.2003409"><ele>390.9533333333333</ele><time>2024-01-02T01:02:20Z</time></trkpt><trkpt lat="35.9125422" lon="139.2001441"><ele>384.91</ele><time>2024-01-02T01:02:36Z</time></trkpt><trkpt lat="35.9127078" lon="139.2000538"><ele>381.8733333333334</ele><time>2024-01-02T01:03:41Z</time></trkpt><trkpt lat="35.9127732" lon="139.1998411"><ele>385.31333333333333</ele><time>2024-01-02T01:04:10Z</time></trkpt><trkpt lat="35.9127658" lon="139.1995895"><ele>392.0</ele><time>2024-01-02T01:04:32Z</time></trkpt><trkpt lat="35.9126337" lon="139.1994343"><ele>397.93333333333334</ele><time>2024-01-02T01:04:57Z</time></trkpt><trkpt lat="35.9124701" lon="139.1993315"><ele>400.3766666666667</ele><time>2024-01-02T01:05:10Z</time></trkpt><trkpt lat="35.9123651" lon="139.1991507"><ele>400.80333333333334</ele><time>2024-01-02T01:05:32Z</time></trkpt><trkpt lat="35.9122999" lon="139.1989302"><ele>401.5133333333333</ele><time>2024-01-02T01:05:53Z</time></trkpt><trkpt lat="35.9122466" lon="139.1987112"><ele>402.4866666666667</ele><time>2024-01-02T01:06:18Z</time></trkpt><trkpt lat="35.9122233" lon="139.1984855"><ele>403.40000000000003</ele><time>2024-01-02T01:06:54Z</time></trkpt><trkpt lat="35.9122665" lon="139.198259"><ele>404.42</ele><time>2024-01-02T01:07:07Z</time></trkpt><trkpt lat="35.912206" lon="139.1980425"><ele>406.4433333333334</ele><time>2024-01-02T01:07:22Z</time></trkpt><trkpt lat="35.9122186" lon="139.1978161"><ele>411.35666666666674</ele><time>2024-01-02T01:08:22Z</time></trkpt><trkpt lat="35.9120788" lon="139.1976674"><ele>418.36000000000007</ele><time>2024-01-02T01:08:53Z</time></trkpt><trkpt lat="35.911921" lon="139.1975578"><ele>425.88000000000005</ele><time>2024-01-02T01:09:22Z</time></trkpt><trkpt lat="35.9117482" lon="139.1976259"><ele>430.75666666666666</ele><time>2024-01-02T01:09:59Z</time></trkpt><trkpt lat="35.9115603" lon="139.1976783"><ele>431.50666666666666</ele><time>2024-01-02T01:10:08Z</time></trkpt><trkpt lat="35.9114045" lon="139.1975622"><ele>430.74333333333334</ele><time>2024-01-02T01:12:28Z</time></trkpt><trkpt lat="35.91155" lon="139.197424"><ele>433.34</ele><time>2024-01-02T01:12:45Z</time></trkpt><trkpt lat="35.9115929" lon="139.1972031"><ele>440.77666666666664</ele><time>2024-01-02T01:14:41Z</time></trkpt><trkpt lat="35.9116338" lon="139.1969841"><ele>447.77666666666664</ele><time>2024-01-02T01:15:01Z</time></trkpt><trkpt lat="35.9116335" lon="139.1967582"><ele>450.5566666666667</ele><time>2024-01-02T01:15:20Z</time></trkpt><trkpt lat="35.9116111" lon="139.1965361"><ele>448.23333333333335</ele><time>2024-01-02T01:15:44Z</time></trkpt><trkpt lat="35.9115387" lon="139.1963298"><ele>442.1933333333333</ele><time>2024-01-02T01:16:15Z</time></trkpt><trkpt lat="35.9114031" lon="139.196175"><ele>436.7633333333333</ele><time>2024-01-02T01:17:06Z</time></trkpt><trkpt lat="35.9113027" lon="139.1959691"><ele>434.89333333333326</ele><time>2024-01-02T01:18:20Z</time></trkpt><trkpt lat="35.9112528" lon="139.1957559"><ele>438.42</ele><time>2024-01-02T01:19:13Z</time></trkpt><trkpt lat="35.911125" lon="139.1955725"><ele>441.67</ele><time>2024-01-02T01:19:37Z</time></trkpt><trkpt lat="35.9109413" lon="139.1955032"><ele>447.0566666666667</ele><time>2024-01-02T01:19:55Z</time></trkpt><trkpt lat="35.9107583" lon="139.1954944"><ele>451.06</ele><time>2024-01-02T01:20:19Z</time></trkpt><trkpt lat="35.9105913" lon="139.1954052"><ele>451.5466666666666</ele><time>2024-01-02T01:20:56Z</time></trkpt><trkpt lat="35.910471" lon="139.1952392"><ele>448.7966666666666</ele><time>2024-01-02T01:21:15Z</time></trkpt><trkpt lat="35.9103247" lon="139.1950971"><ele>447.35666666666674</ele><time>2024-01-02T01:21:37Z</time></trkpt><trkpt lat="35.9101786" lon="139.19493"><ele>451.21000000000004</ele><time>2024-01-02T01:21:51Z</time></trkpt><trkpt lat="35.9100098" lon="139.1948354"><ele>457.78</ele><time>2024-01-02T01:22:46Z</time></trkpt><trkpt lat="35.9098494" lon="139.1947285"><ele>464.99333333333334</ele><time>2024-01-02T01:23:41Z</time></trkpt><trkpt lat="35.9097288" lon="139.1945612"><ele>472.84666666666664</ele><time>2024-01-02T01:24:57Z</time></trkpt><trkpt lat="35.9096292" lon="139.194367"><ele>479.28999999999996</ele><time>2024-01-02T01:25:26Z</time></trkpt><trkpt lat="35.9095467" lon="139.1941676"><ele>484.53999999999996</ele><time>2024-01-02T01:25:41Z</time></trkpt><trkpt lat="35.9094907" lon="139.1939466"><ele>488.2033333333334</ele><time>2024-01-02T01:25:59Z</time></trkpt><trkpt lat="35.9093563" lon="139.1937988"><ele>490.24666666666667</ele><time>2024-01-02T01:26:26Z</time></trkpt><trkpt lat="35.9092652" lon="139.193578"><ele>493.22</ele><time>2024-01-02T01:27:22Z</time></trkpt><trkpt lat="35.9093319" lon="139.1933559"><ele>494.81</ele><time>2024-01-02T01:28:06Z</time></trkpt><trkpt lat="35.9093603" lon="139.1931149"><ele>494.05</ele><time>2024-01-02T01:28:33Z</time></trkpt><trkpt lat="35.9094456" lon="139.1929164"><ele>491.6466666666667</ele><time>2024-01-02T01:29:00Z</time></trkpt><trkpt lat="35.9093521" lon="139.1927136"><ele>495.42666666666673</ele><time>2024-01-02T01:30:25Z</time></trkpt><trkpt lat="35.9092149" lon="139.1925688"><ele>505.06</ele><time>2024-01-02T01:30:43Z</time></trkpt><trkpt lat="35.9093713" lon="139.1924574"><ele>514.9133333333333</ele><time>2024-01-02T01:31:26Z</time></trkpt><trkpt lat="35.909215" lon="139.1923404"><ele>520.6366666666667</ele><time>2024-01-02T01:32:28Z</time></trkpt><trkpt lat="35.9090674" lon="139.1922132"><ele>524.8000000000001</ele><time>2024-01-02T01:32:53Z</time></trkpt><trkpt lat="35.9089408" lon="139.1920522"><ele>530.0866666666667</ele><time>2024-01-02T01:33:12Z</time></trkpt><trkpt lat="35.9087687" lon="139.1919791"><ele>534.13</ele><time>2024-01-02T01:33:58Z</time></trkpt><trkpt lat="35.9085866" lon="139.1919519"><ele>537.1666666666666</ele><time>2024-01-02T01:34:22Z</time></trkpt><trkpt lat="35.9084054" lon="139.1919091"><ele>538.11</ele><time>2024-01-02T01:34:42Z</time></trkpt><trkpt lat="35.9082525" lon="139.1917871"><ele>544.0433333333334</ele><time>2024-01-02T01:35:12Z</time></trkpt><trkpt lat="35.9080979" lon="139.1916674"><ele>550.1733333333333</ele><time>2024-01-02T01:35:43Z</time></trkpt><trkpt lat="35.9080038" lon="139.1914704"><ele>559.2199999999999</ele><time>2024-01-02T01:37:00Z</time></trkpt><trkpt lat="35.9078659" lon="139.1913193"><ele>564.3833333333333</ele><time>2024-01-02T01:37:33Z</time></trkpt><trkpt lat="35.9077132" lon="139.1911989"><ele>567.3800000000001</ele><time>2024-01-02T01:37:55Z</time></trkpt><trkpt lat="35.9075314" lon="139.1911495"><ele>566.17</ele><time>2024-01-02T01:38:12Z</time></trkpt><trkpt lat="35.9073692" lon="139.1910494"><ele>565.0966666666667</ele><time>2024-01-02T01:38:32Z</time></trkpt><trkpt lat="35.9071956" lon="139.1909669"><ele>566.04</ele><time>2024-01-02T01:38:48Z</time></trkpt><trkpt lat="35.9070262" lon="139.1908733"><ele>570.5066666666667</ele><time>2024-01-02T01:39:08Z</time></trkpt><trkpt lat="35.9068685" lon="139.1907514"><ele>575.86</ele><time>2024-01-02T01:39:27Z</time></trkpt><trkpt lat="35.9066917" lon="139.190695"><ele>579.2333333333332</ele><time>2024-01-02T01:39:47Z</time></trkpt><trkpt lat="35.9065296" lon="139.1905964"><ele>582.8433333333334</ele><time>2024-01-02T01:40:10Z</time></trkpt><trkpt lat="35.9063512" lon="139.1905436"><ele>584.9533333333334</ele><time>2024-01-02T01:40:29Z</time></trkpt><trkpt lat="35.9061826" lon="139.1906357"><ele>587.71</ele><time>2024-01-02T01:40:47Z</time></trkpt><trkpt lat="35.9060714" lon="139.1908175"><ele>589.6266666666667</ele><time>2024-01-02T01:41:04Z</time></trkpt><trkpt lat="35.9060535" lon="139.1910442"><ele>590.4266666666666</ele><time>2024-01-02T01:41:25Z</time></trkpt><trkpt lat="35.9059204" lon="139.1911999"><ele>592.4566666666666</ele><time>2024-01-02T01:41:47Z</time></trkpt><trkpt lat="35.9057115" lon="139.1912541"><ele>594.2800000000001</ele><time>2024-01-02T01:42:04Z</time></trkpt><trkpt lat="35.9058545" lon="139.1911011"><ele>597.1800000000001</ele><time>2024-01-02T01:42:55Z</time></trkpt><trkpt lat="35.9058867" lon="139.1908647"><ele>598.8966666666666</ele><time>2024-01-02T01:43:06Z</time></trkpt><trkpt lat="35.9059711" lon="139.1906633"><ele>599.7633333333333</ele><time>2024-01-02T01:43:20Z</time></trkpt><trkpt lat="35.9059121" lon="139.190448"><ele>603.5733333333333</ele><time>2024-01-02T01:43:34Z</time></trkpt><trkpt lat="35.9060533" lon="139.1903008"><ele>606.23</ele><time>2024-01-02T01:43:47Z</time></trkpt><trkpt lat="35.9062134" lon="139.1901678"><ele>608.1433333333333</ele><time>2024-01-02T01:44:03Z</time></trkpt><trkpt lat="35.9064006" lon="139.1901491"><ele>607.9666666666667</ele><time>2024-01-02T01:44:20Z</time></trkpt><trkpt lat="35.9065528" lon="139.1900239"><ele>611.9566666666667</ele><time>2024-01-02T01:44:40Z</time></trkpt><trkpt lat="35.906656" lon="139.1898316"><ele>618.83</ele><time>2024-01-02T01:44:56Z</time></trkpt><trkpt lat="35.9067692" lon="139.1896587"><ele>623.3866666666667</ele><time>2024-01-02T01:45:10Z</time></trkpt><trkpt lat="35.9068943" lon="139.189493"><ele>626.14</ele><time>2024-01-02T01:45:29Z</time></trkpt><trkpt lat="35.9070725" lon="139.1894129"><ele>628.6733333333333</ele><time>2024-01-02T01:46:01Z</time></trkpt><trkpt lat="35.9071684" lon="139.1892245"><ele>630.8233333333334</ele><time>2024-01-02T01:46:25Z</time></trkpt><trkpt lat="35.9072698" lon="139.189031"><ele>631.5033333333333</ele><time>2024-01-02T01:46:39Z</time></trkpt><trkpt lat="35.9074108" lon="139.1888746"><ele>630.0300000000001</ele><time>2024-01-02T01:46:51Z</time></trkpt><trkpt lat="35.907518" lon="139.1890628"><ele>629.59</ele><time>2024-01-02T01:47:12Z</time></trkpt><trkpt lat="35.9073459" lon="139.1891467"><ele>630.8833333333333</ele><time>2024-01-02T01:47:30Z</time></trkpt><trkpt lat="35.9074901" lon="139.1889757"><ele>631.7533333333333</ele><time>2024-01-02T01:49:06Z</time></trkpt><trkpt lat="35.9073477" lon="139.1888326"><ele>631.4133333333334</ele><time>2024-01-02T01:50:01Z</time></trkpt><trkpt lat="35.9073606" lon="139.1886096"><ele>628.62</ele><time>2024-01-02T01:50:28Z</time></trkpt><trkpt lat="35.9074359" lon="139.1884035"><ele>627.5100000000001</ele><time>2024-01-02T01:50:42Z</time></trkpt><trkpt lat="35.9075142" lon="139.1881956"><ele>628.1433333333334</ele><time>2024-01-02T01:51:05Z</time></trkpt><trkpt lat="35.907544" lon="139.1879699"><ele>629.7866666666667</ele><time>2024-01-02T01:51:16Z</time></trkpt><trkpt lat="35.9076435" lon="139.1877797"><ele>630.2566666666667</ele><time>2024-01-02T01:51:35Z</time></trkpt><trkpt lat="35.9077487" lon="139.1875997"><ele>630.2133333333333</ele><time>2024-01-02T01:51:52Z</time></trkpt><trkpt lat="35.907735" lon="139.1873686"><ele>630.09</ele><time>2024-01-02T01:52:08Z</time></trkpt><trkpt lat="35.9076297" lon="139.1871684"><ele>628.0</ele><time>2024-01-02T01:52:23Z</time></trkpt><trkpt lat="35.9075618" lon="139.1869573"><ele>622.1666666666666</ele><time>2024-01-02T01:52:38Z</time></trkpt><trkpt lat="35.9075324" lon="139.1867075"><ele>615.8333333333334</ele><time>2024-01-02T01:53:12Z</time></trkpt><trkpt lat="35.9074862" lon="139.1869292"><ele>612.29</ele><time>2024-01-02T01:53:38Z</time></trkpt><trkpt lat="35.9073439" lon="139.1867832"><ele>612.4766666666667</ele><time>2024-01-02T01:54:04Z</time></trkpt><trkpt lat="35.9073622" lon="139.1865573"><ele>614.7333333333332</ele><time>2024-01-02T01:54:24Z</time></trkpt><trkpt lat="35.90728" lon="139.1863466"><ele>618.0799999999999</ele><time>2024-01-02T01:54:42Z</time></trkpt><trkpt lat="35.9072253" lon="139.1861277"><ele>623.86</ele><time>2024-01-02T01:55:05Z</time></trkpt><trkpt lat="35.9070541" lon="139.186046"><ele>630.9066666666666</ele><time>2024-01-02T01:55:21Z</time></trkpt><trkpt lat="35.9069243" lon="139.1858906"><ele>637.0466666666666</ele><time>2024-01-02T01:55:37Z</time></trkpt><trkpt lat="35.9067537" lon="139.1858017"><ele>640.6566666666668</ele><time>2024-01-02T01:55:53Z</time></trkpt><trkpt lat="35.9065694" lon="139.1858335"><ele>640.5666666666667</ele><time>2024-01-02T01:56:05Z</time></trkpt><trkpt lat="35.9063697" lon="139.1858048"><ele>639.2133333333333</ele><time>2024-01-02T01:56:17Z</time></trkpt><trkpt lat="35.9061881" lon="139.1858018"><ele>636.5666666666667</ele><time>2024-01-02T01:56:32Z</time></trkpt><trkpt lat="35.9061381" lon="139.1855837"><ele>632.69</ele><time>2024-01-02T01:57:01Z</time></trkpt><trkpt lat="35.9063106" lon="139.1854687"><ele>631.1333333333333</ele><time>2024-01-02T01:57:22Z</time></trkpt><trkpt lat="35.9063426" lon="139.185247"><ele>626.7666666666668</ele><time>2024-01-02T01:57:39Z</time></trkpt><trkpt lat="35.9063557" lon="139.1850221"><ele>622.4866666666667</ele><time>2024-01-02T01:57:54Z</time></trkpt><trkpt lat="35.9063906" lon="139.184801"><ele>616.3366666666667</ele><time>2024-01-02T01:58:12Z</time></trkpt><trkpt lat="35.9063282" lon="139.1845896"><ele>611.39</ele><time>2024-01-02T01:58:29Z</time></trkpt><trkpt lat="35.9062615" lon="139.1843825"><ele>605.72</ele><time>2024-01-02T01:58:52Z</time></trkpt><trkpt lat="35.9060855" lon="139.1843305"><ele>599.1366666666667</ele><time>2024-01-02T01:59:18Z</time></trkpt><trkpt lat="35.9059038" lon="139.1843394"><ele>591.8933333333333</ele><time>2024-01-02T01:59:41Z</time></trkpt><trkpt lat="35.9057649" lon="139.1841967"><ele>589.2233333333334</ele><time>2024-01-02T01:59:53Z</time></trkpt><trkpt lat="35.9056015" lon="139.1840967"><ele>587.4333333333333</ele><time>2024-01-02T02:00:05Z</time></trkpt><trkpt lat="35.9054175" lon="139.1840838"><ele>587.1666666666666</ele><time>2024-01-02T02:00:17Z</time></trkpt><trkpt lat="35.9052512" lon="139.1839826"><ele>583.3333333333334</ele><time>2024-01-02T02:00:32Z</time></trkpt><trkpt lat="35.9050972" lon="139.1838619"><ele>578.25</ele><time>2024-01-02T02:00:48Z</time></trkpt><trkpt lat="35.9050378" lon="139.1836483"><ele>573.86</ele><time>2024-01-02T02:01:23Z</time></trkpt><trkpt lat="35.9048779" lon="139.1835246"><ele>570.7766666666666</ele><time>2024-01-02T02:01:39Z</time></trkpt><trkpt lat="35.9046897" lon="139.1834749"><ele>569.4066666666668</ele><time>2024-01-02T02:02:17Z</time></trkpt><trkpt lat="35.9044975" lon="139.1834972"><ele>568.62</ele><time>2024-01-02T02:02:26Z</time></trkpt><trkpt lat="35.9043135" lon="139.1834953"><ele>566.1766666666667</ele><time>2024-01-02T02:02:42Z</time></trkpt><trkpt lat="35.9041242" lon="139.1835206"><ele>562.4466666666667</ele><time>2024-01-02T02:02:52Z</time></trkpt><trkpt lat="35.9039333" lon="139.1835502"><ele>560.0500000000001</ele><time>2024-01-02T02:03:12Z</time></trkpt><trkpt lat="35.9037477" lon="139.1835892"><ele>560.9499999999999</ele><time>2024-01-02T02:03:26Z</time></trkpt><trkpt lat="35.9035676" lon="139.1836388"><ele>562.5533333333333</ele><time>2024-01-02T02:04:03Z</time></trkpt><trkpt lat="35.9033847" lon="139.1835925"><ele>564.42</ele><time>2024-01-02T02:04:15Z</time></trkpt><trkpt lat="35.903202" lon="139.1835815"><ele>566.0833333333334</ele><time>2024-01-02T02:04:32Z</time></trkpt><trkpt lat="35.9030129" lon="139.1835513"><ele>566.64</ele><time>2024-01-02T02:04:55Z</time></trkpt><trkpt lat="35.9028323" lon="139.1835449"><ele>565.57</ele><time>2024-01-02T02:05:08Z</time></trkpt><trkpt lat="35.9026492" lon="139.183573"><ele>563.53</ele><time>2024-01-02T02:05:29Z</time></trkpt><trkpt lat="35.9024917" lon="139.1836969"><ele>562.7366666666667</ele><time>2024-01-02T02:05:44Z</time></trkpt><trkpt lat="35.9023026" lon="139.1836689"><ele>562.7933333333334</ele><time>2024-01-02T02:05:59Z</time></trkpt><trkpt lat="35.9021337" lon="139.1837559"><ele>564.5</ele><time>2024-01-02T02:06:14Z</time></trkpt><trkpt lat="35.9019442" lon="139.1837342"><ele>566.9900000000001</ele><time>2024-01-02T02:06:27Z</time></trkpt><trkpt lat="35.9017632" lon="139.1836697"><ele>569.8866666666667</ele><time>2024-01-02T02:06:59Z</time></trkpt><trkpt lat="35.9015813" lon="139.1836801"><ele>571.2433333333333</ele><time>2024-01-02T02:07:11Z</time></trkpt><trkpt lat="35.9014014" lon="139.183616"><ele>571.64</ele><time>2024-01-02T02:07:21Z</time></trkpt><trkpt lat="35.9012158" lon="139.1835824"><ele>571.0333333333334</ele><time>2024-01-02T02:07:34Z</time></trkpt><trkpt lat="35.9010338" lon="139.1835738"><ele>569.9666666666667</ele><time>2024-01-02T02:07:49Z</time></trkpt><trkpt lat="35.900863" lon="139.1836836"><ele>569.61</ele><time>2024-01-02T02:08:03Z</time></trkpt><trkpt lat="35.9006812" lon="139.1837161"><ele>569.7033333333334</ele><time>2024-01-02T02:08:21Z</time></trkpt><trkpt lat="35.9004974" lon="139.1837204"><ele>570.35</ele><time>2024-01-02T02:08:46Z</time></trkpt><trkpt lat="35.9003098" lon="139.1837373"><ele>572.2766666666668</ele><time>2024-01-02T02:08:58Z</time></trkpt><trkpt lat="35.9001316" lon="139.1837727"><ele>575.62</ele><time>2024-01-02T02:09:32Z</time></trkpt><trkpt lat="35.8999578" lon="139.1838451"><ele>582.5766666666667</ele><time>2024-01-02T02:10:24Z</time></trkpt><trkpt lat="35.8997773" lon="139.1837918"><ele>588.7066666666666</ele><time>2024-01-02T02:11:01Z</time></trkpt><trkpt lat="35.8996322" lon="139.1836442"><ele>594.0766666666667</ele><time>2024-01-02T02:11:46Z</time></trkpt><trkpt lat="35.8995005" lon="139.1834892"><ele>597.1766666666667</ele><time>2024-01-02T02:12:17Z</time></trkpt><trkpt lat="35.8993235" lon="139.1835399"><ele>601.0300000000001</ele><time>2024-01-02T02:12:33Z</time></trkpt><trkpt lat="35.8991353" lon="139.1835828"><ele>605.4933333333333</ele><time>2024-01-02T02:12:50Z</time></trkpt><trkpt lat="35.8989985" lon="139.1837379"><ele>608.65</ele><time>2024-01-02T02:13:16Z</time></trkpt><trkpt lat="35.8988675" lon="139.1839026"><ele>610.2733333333333</ele><time>2024-01-02T02:13:30Z</time></trkpt><trkpt lat="35.8987321" lon="139.1840567"><ele>611.2633333333333</ele><time>2024-01-02T02:13:43Z</time></trkpt><trkpt lat="35.8986166" lon="139.1842328"><ele>612.9733333333334</ele><time>2024-01-02T02:13:58Z</time></trkpt><trkpt lat="35.8984704" lon="139.1843802"><ele>613.6500000000001</ele><time>2024-01-02T02:14:16Z</time></trkpt><trkpt lat="35.8983102" lon="139.1844876"><ele>613.13</ele><time>2024-01-02T02:15:09Z</time></trkpt><trkpt lat="35.8981811" lon="139.1846435"><ele>609.7466666666667</ele><time>2024-01-02T02:15:47Z</time></trkpt><trkpt lat="35.8980709" lon="139.1848238"><ele>604.5066666666667</ele><time>2024-01-02T02:15:59Z</time></trkpt><trkpt lat="35.8979129" lon="139.1849499"><ele>597.2099999999999</ele><time>2024-01-02T02:16:13Z</time></trkpt><trkpt lat="35.8978507" lon="139.1851634"><ele>589.7033333333334</ele><time>2024-01-02T02:16:28Z</time></trkpt><trkpt lat="35.8977624" lon="139.1853722"><ele>582.0833333333334</ele><time>2024-01-02T02:17:15Z</time></trkpt><trkpt lat="35.89769" lon="139.1855841"><ele>577.1433333333333</ele><time>2024-01-02T02:17:27Z</time></trkpt><trkpt lat="35.8976278" lon="139.1858071"><ele>572.8333333333334</ele><time>2024-01-02T02:17:41Z</time></trkpt><trkpt lat="35.8976493" lon="139.1860285"><ele>571.4966666666668</ele><time>2024-01-02T02:17:51Z</time></trkpt><trkpt lat="35.8976716" lon="139.1862634"><ele>569.8233333333334</ele><time>2024-01-02T02:18:06Z</time></trkpt><trkpt lat="35.897552" lon="139.1864485"><ele>567.4966666666668</ele><time>2024-01-02T02:18:25Z</time></trkpt><trkpt lat="35.8974058" lon="139.1865888"><ele>565.37</ele><time>2024-01-02T02:18:51Z</time></trkpt><trkpt lat="35.8972132" lon="139.1866047"><ele>561.4033333333333</ele><time>2024-01-02T02:19:04Z</time></trkpt><trkpt lat="35.8970187" lon="139.1867109"><ele>559.6033333333334</ele><time>2024-01-02T02:19:17Z</time></trkpt><trkpt lat="35.8970314" lon="139.1869478"><ele>559.2366666666667</ele><time>2024-01-02T02:19:27Z</time></trkpt><trkpt lat="35.8969656" lon="139.1871612"><ele>560.12</ele><time>2024-01-02T02:19:40Z</time></trkpt><trkpt lat="35.8968389" lon="139.1873269"><ele>559.8066666666667</ele><time>2024-01-02T02:20:14Z</time></trkpt><trkpt lat="35.8967227" lon="139.1875073"><ele>559.5600000000001</ele><time>2024-01-02T02:20:29Z</time></trkpt><trkpt lat="35.8965473" lon="139.1875769"><ele>561.8266666666667</ele><time>2024-01-02T02:20:48Z</time></trkpt><trkpt lat="35.8963627" lon="139.1875782"><ele>566.19</ele><time>2024-01-02T02:21:03Z</time></trkpt><trkpt lat="35.8961803" lon="139.1875447"><ele>569.7766666666666</ele><time>2024-01-02T02:21:22Z</time></trkpt><trkpt lat="35.8959995" lon="139.1875906"><ele>572.2666666666668</ele><time>2024-01-02T02:21:37Z</time></trkpt><trkpt lat="35.8958148" lon="139.187544"><ele>574.1333333333333</ele><time>2024-01-02T02:21:49Z</time></trkpt><trkpt lat="35.8956282" lon="139.1875227"><ele>574.4233333333333</ele><time>2024-01-02T02:22:03Z</time></trkpt><trkpt lat="35.8954416" lon="139.1875579"><ele>573.2199999999999</ele><time>2024-01-02T02:22:20Z</time></trkpt><trkpt lat="35.8952726" lon="139.1876438"><ele>572.2466666666667</ele><time>2024-01-02T02:22:31Z</time></trkpt><trkpt lat="35.8951485" lon="139.1878106"><ele>573.4399999999999</ele><time>2024-01-02T02:22:47Z</time></trkpt><trkpt lat="35.8949704" lon="139.1877718"><ele>575.7066666666666</ele><time>2024-01-02T02:22:57Z</time></trkpt><trkpt lat="35.894793" lon="139.1877222"><ele>577.4333333333333</ele><time>2024-01-02T02:23:13Z</time></trkpt><trkpt lat="35.8946158" lon="139.187785"><ele>579.77</ele><time>2024-01-02T02:23:36Z</time></trkpt><trkpt lat="35.8944357" lon="139.1877614"><ele>580.9666666666667</ele><time>2024-01-02T02:23:52Z</time></trkpt><trkpt lat="35.8942678" lon="139.1876567"><ele>580.2166666666667</ele><time>2024-01-02T02:24:06Z</time></trkpt><trkpt lat="35.8940894" lon="139.1875807"><ele>574.36</ele><time>2024-01-02T02:24:17Z</time></trkpt><trkpt lat="35.8939169" lon="139.1875122"><ele>570.7700000000001</ele><time>2024-01-02T02:24:43Z</time></trkpt><trkpt lat="35.8937765" lon="139.1873679"><ele>569.6833333333334</ele><time>2024-01-02T02:24:58Z</time></trkpt><trkpt lat="35.8935751" lon="139.1873973"><ele>572.8866666666667</ele><time>2024-01-02T02:25:34Z</time></trkpt><trkpt lat="35.8933987" lon="139.1873235"><ele>574.7466666666668</ele><time>2024-01-02T02:25:52Z</time></trkpt><trkpt lat="35.8932202" lon="139.1873694"><ele>571.1966666666667</ele><time>2024-01-02T02:26:11Z</time></trkpt><trkpt lat="35.8930391" lon="139.1873823"><ele>563.2400000000001</ele><time>2024-01-02T02:26:25Z</time></trkpt><trkpt lat="35.8928552" lon="139.1874022"><ele>553.7900000000001</ele><time>2024-01-02T02:26:38Z</time></trkpt><trkpt lat="35.8926766" lon="139.1874628"><ele>547.9</ele><time>2024-01-02T02:26:53Z</time></trkpt><trkpt lat="35.8925084" lon="139.1875733"><ele>544.37</ele><time>2024-01-02T02:27:05Z</time></trkpt><trkpt lat="35.8923539" lon="139.1877093"><ele>540.7166666666666</ele><time>2024-01-02T02:27:18Z</time></trkpt><trkpt lat="35.8922585" lon="139.187899"><ele>536.0133333333333</ele><time>2024-01-02T02:27:31Z</time></trkpt><trkpt lat="35.8921607" lon="139.1880885"><ele>530.3333333333334</ele><time>2024-01-02T02:27:45Z</time></trkpt><trkpt lat="35.8920296" lon="139.1882448"><ele>525.26</ele><time>2024-01-02T02:27:57Z</time></trkpt><trkpt lat="35.8919201" lon="139.1884285"><ele>521.41</ele><time>2024-01-02T02:28:15Z</time></trkpt><trkpt lat="35.8918718" lon="139.1886501"><ele>516.3733333333333</ele><time>2024-01-02T02:28:31Z</time></trkpt><trkpt lat="35.8917813" lon="139.1888578"><ele>512.2199999999999</ele><time>2024-01-02T02:28:42Z</time></trkpt><trkpt lat="35.8916361" lon="139.189003"><ele>509.84</ele><time>2024-01-02T02:28:51Z</time></trkpt><trkpt lat="35.8915165" lon="139.1891902"><ele>510.5366666666667</ele><time>2024-01-02T02:29:03Z</time></trkpt><trkpt lat="35.891383" lon="139.1893581"><ele>511.51666666666665</ele><time>2024-01-02T02:29:17Z</time></trkpt><trkpt lat="35.8912022" lon="139.1893753"><ele>514.17</ele><time>2024-01-02T02:29:31Z</time></trkpt><trkpt lat="35.8910678" lon="139.1895347"><ele>514.6</ele><time>2024-01-02T02:29:47Z</time></trkpt><trkpt lat="35.8909818" lon="139.1897354"><ele>515.5666666666666</ele><time>2024-01-02T02:30:03Z</time></trkpt><trkpt lat="35.890847" lon="139.189887"><ele>514.93</ele><time>2024-01-02T02:30:17Z</time></trkpt><trkpt lat="35.8907734" lon="139.1900981"><ele>515.3433333333334</ele><time>2024-01-02T02:30:35Z</time></trkpt><trkpt lat="35.8907342" lon="139.1903209"><ele>515.3933333333333</ele><time>2024-01-02T02:30:50Z</time></trkpt><trkpt lat="35.890668" lon="139.1905414"><ele>516.3666666666667</ele><time>2024-01-02T02:31:04Z</time></trkpt><trkpt lat="35.8905444" lon="139.1907073"><ele>518.6766666666666</ele><time>2024-01-02T02:31:20Z</time></trkpt><trkpt lat="35.8903948" lon="139.1908349"><ele>520.84</ele><time>2024-01-02T02:31:36Z</time></trkpt><trkpt lat="35.8902142" lon="139.1908686"><ele>521.1533333333333</ele><time>2024-01-02T02:31:51Z</time></trkpt><trkpt lat="35.890062" lon="139.1909889"><ele>520.46</ele><time>2024-01-02T02:32:11Z</time></trkpt><trkpt lat="35.8899234" lon="139.1911369"><ele>518.6033333333334</ele><time>2024-01-02T02:32:41Z</time></trkpt><trkpt lat="35.8899887" lon="139.1913582"><ele>515.6333333333333</ele><time>2024-01-02T02:33:04Z</time></trkpt><trkpt lat="35.8899801" lon="139.1915857"><ele>510.07</ele><time>2024-01-02T02:35:49Z</time></trkpt><trkpt lat="35.8900167" lon="139.1918088"><ele>504.07666666666665</ele><time>2024-01-02T02:36:17Z</time></trkpt><trkpt lat="35.8899937" lon="139.1920472"><ele>498.71000000000004</ele><time>2024-01-02T02:36:25Z</time></trkpt><trkpt lat="35.8898855" lon="139.1922611"><ele>494.23333333333335</ele><time>2024-01-02T02:37:10Z</time></trkpt><trkpt lat="35.8899085" lon="139.1924869"><ele>490.3833333333334</ele><time>2024-01-02T02:40:23Z</time></trkpt><trkpt lat="35.8899451" lon="139.1922571"><ele>488.39000000000004</ele><time>2024-01-02T02:51:37Z</time></trkpt><trkpt lat="35.8900641" lon="139.1920827"><ele>490.76000000000005</ele><time>2024-01-02T02:52:02Z</time></trkpt><trkpt lat="35.8900834" lon="139.1918614"><ele>495.4533333333334</ele><time>2024-01-02T02:52:18Z</time></trkpt><trkpt lat="35.8900143" lon="139.1916565"><ele>499.23333333333335</ele><time>2024-01-02T02:52:37Z</time></trkpt><trkpt lat="35.8900089" lon="139.1914303"><ele>503.35999999999996</ele><time>2024-01-02T02:52:56Z</time></trkpt><trkpt lat="35.8898624" lon="139.1912907"><ele>506.1233333333333</ele><time>2024-01-02T02:53:12Z</time></trkpt><trkpt lat="35.8899226" lon="139.1910785"><ele>512.1466666666666</ele><time>2024-01-02T02:54:26Z</time></trkpt><trkpt lat="35.8897443" lon="139.1910241"><ele>517.3533333333334</ele><time>2024-01-02T02:55:21Z</time></trkpt><trkpt lat="35.8895672" lon="139.1910825"><ele>521.67</ele><time>2024-01-02T02:55:38Z</time></trkpt><trkpt lat="35.889381" lon="139.1910461"><ele>522.4866666666667</ele><time>2024-01-02T02:55:54Z</time></trkpt><trkpt lat="35.8893196" lon="139.1908364"><ele>524.2800000000001</ele><time>2024-01-02T02:56:11Z</time></trkpt><trkpt lat="35.8892733" lon="139.190618"><ele>529.5433333333333</ele><time>2024-01-02T02:56:24Z</time></trkpt><trkpt lat="35.8891664" lon="139.1904348"><ele>534.6</ele><time>2024-01-02T02:56:41Z</time></trkpt><trkpt lat="35.8890035" lon="139.1903315"><ele>537.27</ele><time>2024-01-02T02:56:56Z</time></trkpt><trkpt lat="35.8888275" lon="139.1902811"><ele>535.9466666666667</ele><time>2024-01-02T02:57:10Z</time></trkpt><trkpt lat="35.888648" lon="139.1903055"><ele>535.0100000000001</ele><time>2024-01-02T02:57:33Z</time></trkpt><trkpt lat="35.8884676" lon="139.1902189"><ele>536.52</ele><time>2024-01-02T02:57:59Z</time></trkpt><trkpt lat="35.8883109" lon="139.1900901"><ele>541.2133333333333</ele><time>2024-01-02T02:58:14Z</time></trkpt><trkpt lat="35.8881673" lon="139.1899552"><ele>549.6666666666666</ele><time>2024-01-02T02:58:29Z</time></trkpt><trkpt lat="35.8879922" lon="139.1898686"><ele>554.9499999999999</ele><time>2024-01-02T02:58:49Z</time></trkpt><trkpt lat="35.887809" lon="139.1898383"><ele>557.9833333333333</ele><time>2024-01-02T02:59:06Z</time></trkpt><trkpt lat="35.8876669" lon="139.1896806"><ele>560.3366666666667</ele><time>2024-01-02T02:59:28Z</time></trkpt><trkpt lat="35.8876063" lon="139.1894628"><ele>560.9333333333333</ele><time>2024-01-02T03:00:44Z</time></trkpt><trkpt lat="35.8874483" lon="139.1893536"><ele>560.0066666666667</ele><time>2024-01-02T03:01:04Z</time></trkpt><trkpt lat="35.8873009" lon="139.1892086"><ele>552.5633333333333</ele><time>2024-01-02T03:01:32Z</time></trkpt><trkpt lat="35.8871775" lon="139.189039"><ele>544.0633333333334</ele><time>2024-01-02T03:01:44Z</time></trkpt><trkpt lat="35.8870566" lon="139.188868"><ele>536.4466666666667</ele><time>2024-01-02T03:01:59Z</time></trkpt><trkpt lat="35.8869729" lon="139.1886685"><ele>531.0500000000001</ele><time>2024-01-02T03:02:14Z</time></trkpt><trkpt lat="35.8868778" lon="139.1884773"><ele>529.12</ele><time>2024-01-02T03:02:33Z</time></trkpt><trkpt lat="35.8868191" lon="139.1882664"><ele>527.1466666666666</ele><time>2024-01-02T03:02:49Z</time></trkpt><trkpt lat="35.8869323" lon="139.1880826"><ele>524.8166666666666</ele><time>2024-01-02T03:03:22Z</time></trkpt><trkpt lat="35.8869046" lon="139.1878633"><ele>518.0</ele><time>2024-01-02T03:04:07Z</time></trkpt><trkpt lat="35.8870119" lon="139.1876842"><ele>508.93</ele><time>2024-01-02T03:04:41Z</time></trkpt><trkpt lat="35.8869356" lon="139.1874713"><ele>497.43666666666667</ele><time>2024-01-02T03:04:56Z</time></trkpt><trkpt lat="35.8869617" lon="139.1872521"><ele>486.7</ele><time>2024-01-02T03:05:46Z</time></trkpt><trkpt lat="35.8867883" lon="139.1871675"><ele>477.03000000000003</ele><time>2024-01-02T03:06:26Z</time></trkpt><trkpt lat="35.8867674" lon="139.1869456"><ele>468.83</ele><time>2024-01-02T03:07:17Z</time></trkpt><trkpt lat="35.8867109" lon="139.1867178"><ele>461.10999999999996</ele><time>2024-01-02T03:07:46Z</time></trkpt><trkpt lat="35.886711" lon="139.18649"><ele>454.1266666666667</ele><time>2024-01-02T03:08:10Z</time></trkpt><trkpt lat="35.8866495" lon="139.1862736"><ele>446.9466666666667</ele><time>2024-01-02T03:08:34Z</time></trkpt><trkpt lat="35.8866097" lon="139.186046"><ele>439.5333333333333</ele><time>2024-01-02T03:08:51Z</time></trkpt><trkpt lat="35.8867251" lon="139.1858744"><ele>431.3533333333333</ele><time>2024-01-02T03:09:06Z</time></trkpt><trkpt lat="35.8867266" lon="139.1856369"><ele>423.08</ele><time>2024-01-02T03:09:46Z</time></trkpt><trkpt lat="35.8866835" lon="139.1854128"><ele>414.97</ele><time>2024-01-02T03:10:21Z</time></trkpt><trkpt lat="35.8866158" lon="139.1852065"><ele>408.03333333333336</ele><time>2024-01-02T03:11:15Z</time></trkpt><trkpt lat="35.8866238" lon="139.1849782"><ele>399.78000000000003</ele><time>2024-01-02T03:11:41Z</time></trkpt><trkpt lat="35.8866455" lon="139.1847556"><ele>392.3733333333333</ele><time>2024-01-02T03:11:53Z</time></trkpt><trkpt lat="35.886476" lon="139.1848396"><ele>387.96333333333337</ele><time>2024-01-02T03:14:19Z</time></trkpt><trkpt lat="35.8863287" lon="139.1847081"><ele>384.0466666666667</ele><time>2024-01-02T03:15:50Z</time></trkpt><trkpt lat="35.8862941" lon="139.1844836"><ele>379.52000000000004</ele><time>2024-01-02T03:16:22Z</time></trkpt><trkpt lat="35.8863862" lon="139.1842906"><ele>371.20666666666665</ele><time>2024-01-02T03:16:51Z</time></trkpt><trkpt lat="35.8864542" lon="139.1840778"><ele>364.0733333333333</ele><time>2024-01-02T03:17:04Z</time></trkpt><trkpt lat="35.8865759" lon="139.1839072"><ele>357.86999999999995</ele><time>2024-01-02T03:17:21Z</time></trkpt><trkpt lat="35.8866329" lon="139.1836953"><ele>349.6566666666666</ele><time>2024-01-02T03:17:37Z</time></trkpt><trkpt lat="35.8864511" lon="139.183705"><ele>343.66</ele><time>2024-01-02T03:17:55Z</time></trkpt><trkpt lat="35.8862728" lon="139.1837861"><ele>337.92333333333335</ele><time>2024-01-02T03:18:09Z</time></trkpt><trkpt lat="35.8863263" lon="139.1835683"><ele>334.46333333333337</ele><time>2024-01-02T03:18:26Z</time></trkpt><trkpt lat="35.8863223" lon="139.1833459"><ele>328.2033333333333</ele><time>2024-01-02T03:18:44Z</time></trkpt><trkpt lat="35.8861896" lon="139.1834976"><ele>322.2</ele><time>2024-01-02T03:19:10Z</time></trkpt><trkpt lat="35.8860576" lon="139.1833448"><ele>313.91</ele><time>2024-01-02T03:19:52Z</time></trkpt><trkpt lat="35.8860723" lon="139.1831223"><ele>307.12</ele><time>2024-01-02T03:20:04Z</time></trkpt><trkpt lat="35.8859272" lon="139.1829908"><ele>299.07</ele><time>2024-01-02T03:20:32Z</time></trkpt><trkpt lat="35.8857699" lon="139.1828725"><ele>288.5833333333333</ele><time>2024-01-02T03:20:58Z</time></trkpt><trkpt lat="35.8855881" lon="139.1828368"><ele>276.64000000000004</ele><time>2024-01-02T03:21:22Z</time></trkpt><trkpt lat="35.8854086" lon="139.1828752"><ele>264.7</ele><time>2024-01-02T03:21:53Z</time></trkpt><trkpt lat="35.8852247" lon="139.1828399"><ele>256.58</ele><time>2024-01-02T03:22:19Z</time></trkpt><trkpt lat="35.8852749" lon="139.1826266"><ele>250.41666666666666</ele><time>2024-01-02T03:22:48Z</time></trkpt><trkpt lat="35.8851052" lon="139.1827027"><ele>246.8033333333333</ele><time>2024-01-02T03:23:12Z</time></trkpt><trkpt lat="35.8849196" lon="139.1827432"><ele>245.17999999999998</ele><time>2024-01-02T03:23:23Z</time></trkpt><trkpt lat="35.8847501" lon="139.1828695"><ele>244.72333333333336</ele><time>2024-01-02T03:23:35Z</time></trkpt><trkpt lat="35.8845715" lon="139.1829165"><ele>244.31000000000003</ele><time>2024-01-02T03:23:48Z</time></trkpt><trkpt lat="35.8843851" lon="139.1829747"><ele>244.7266666666667</ele><time>2024-01-02T03:24:02Z</time></trkpt><trkpt lat="35.8842286" lon="139.1830885"><ele>245.07666666666668</ele><time>2024-01-02T03:24:16Z</time></trkpt><trkpt lat="35.8840747" lon="139.1832173"><ele>245.81000000000003</ele><time>2024-01-02T03:24:32Z</time></trkpt><trkpt lat="35.8839447" lon="139.1833888"><ele>247.07666666666668</ele><time>2024-01-02T03:24:44Z</time></trkpt><trkpt lat="35.8837584" lon="139.1834419"><ele>247.75333333333333</ele><time>2024-01-02T03:24:56Z</time></trkpt><trkpt lat="35.8835651" lon="139.1834238"><ele>247.68666666666664</ele><time>2024-01-02T03:25:12Z</time></trkpt><trkpt lat="35.8833869" lon="139.1834968"><ele>246.88333333333335</ele><time>2024-01-02T03:25:36Z</time></trkpt><trkpt lat="35.8832168" lon="139.1836135"><ele>246.46666666666667</ele><time>2024-01-02T03:25:50Z</time></trkpt><trkpt lat="35.8830465" lon="139.1837003"><ele>246.30000000000004</ele><time>2024-01-02T03:26:05Z</time></trkpt><trkpt lat="35.882876" lon="139.1837832"><ele>246.4</ele><time>2024-01-02T03:26:16Z</time></trkpt><trkpt lat="35.8827022" lon="139.1838551"><ele>246.47333333333336</ele><time>2024-01-02T03:26:30Z</time></trkpt><trkpt lat="35.8825192" lon="139.1838973"><ele>246.21</ele><time>2024-01-02T03:26:44Z</time></trkpt><trkpt lat="35.8823777" lon="139.1840511"><ele>246.48000000000002</ele><time>2024-01-02T03:26:58Z</time></trkpt><trkpt lat="35.8821715" lon="139.1840766"><ele>246.66</ele><time>2024-01-02T03:27:09Z</time></trkpt><trkpt lat="35.8819973" lon="139.184135"><ele>246.76</ele><time>2024-01-02T03:27:23Z</time></trkpt><trkpt lat="35.8818103" lon="139.1841879"><ele>246.5</ele><time>2024-01-02T03:27:37Z</time></trkpt><trkpt lat="35.8816322" lon="139.1842807"><ele>246.49</ele><time>2024-01-02T03:27:52Z</time></trkpt><trkpt lat="35.8814405" lon="139.1843931"><ele>246.59666666666666</ele><time>2024-01-02T03:28:06Z</time></trkpt><trkpt lat="35.8812617" lon="139.184444"><ele>246.29999999999998</ele><time>2024-01-02T03:28:31Z</time></trkpt><trkpt lat="35.8810831" lon="139.1845032"><ele>245.71666666666667</ele><time>2024-01-02T03:28:44Z</time></trkpt><trkpt lat="35.8809318" lon="139.1843705"><ele>245.15</ele><time>2024-01-02T03:29:01Z</time></trkpt><trkpt lat="35.8809641" lon="139.1841236"><ele>243.89333333333335</ele><time>2024-01-02T03:29:10Z</time></trkpt><trkpt lat="35.8808432" lon="139.1839345"><ele>242.1833333333333</ele><time>2024-01-02T03:29:37Z</time></trkpt><trkpt lat="35.8807103" lon="139.1837679"><ele>240.11333333333334</ele><time>2024-01-02T03:29:46Z</time></trkpt><trkpt lat="35.8805688" lon="139.1836229"><ele>238.19333333333336</ele><time>2024-01-02T03:30:01Z</time></trkpt><trkpt lat="35.8804197" lon="139.1834936"><ele>236.93333333333337</ele><time>2024-01-02T03:30:18Z</time></trkpt><trkpt lat="35.8802937" lon="139.1833203"><ele>237.32000000000002</ele><time>2024-01-02T03:30:33Z</time></trkpt><trkpt lat="35.8802723" lon="139.1830984"><ele>239.38666666666668</ele><time>2024-01-02T03:30:50Z</time></trkpt><trkpt lat="35.8800949" lon="139.1831757"><ele>241.55666666666664</ele><time>2024-01-02T03:30:59Z</time></trkpt><trkpt lat="35.880014" lon="139.1829716"><ele>243.44999999999996</ele><time>2024-01-02T03:31:16Z</time></trkpt><trkpt lat="35.8798299" lon="139.1829746"><ele>244.54666666666665</ele><time>2024-01-02T03:31:30Z</time></trkpt><trkpt lat="35.879653" lon="139.1830421"><ele>245.65</ele><time>2024-01-02T03:31:42Z</time></trkpt><trkpt lat="35.8795405" lon="139.1832324"><ele>245.17333333333332</ele><time>2024-01-02T03:32:01Z</time></trkpt><trkpt lat="35.8793629" lon="139.1832771"><ele>244.77999999999997</ele><time>2024-01-02T03:32:10Z</time></trkpt><trkpt lat="35.8791776" lon="139.183203"><ele>244.71</ele><time>2024-01-02T03:32:19Z</time></trkpt><trkpt lat="35.8789911" lon="139.183202"><ele>245.56333333333336</ele><time>2024-01-02T03:32:29Z</time></trkpt><trkpt lat="35.8788181" lon="139.1833053"><ele>245.45666666666668</ele><time>2024-01-02T03:32:43Z</time></trkpt><trkpt lat="35.8786697" lon="139.1834366"><ele>244.99333333333334</ele><time>2024-01-02T03:32:57Z</time></trkpt><trkpt lat="35.8785072" lon="139.1835345"><ele>244.9466666666667</ele><time>2024-01-02T03:33:10Z</time></trkpt><trkpt lat="35.8783321" lon="139.1836019"><ele>246.16333333333333</ele><time>2024-01-02T03:33:22Z</time></trkpt><trkpt lat="35.8781949" lon="139.1837467"><ele>245.7266666666667</ele><time>2024-01-02T03:33:37Z</time></trkpt><trkpt lat="35.8781806" lon="139.1839695"><ele>243.60333333333332</ele><time>2024-01-02T03:33:50Z</time></trkpt><trkpt lat="35.8781604" lon="139.1841982"><ele>240.56000000000003</ele><time>2024-01-02T03:34:01Z</time></trkpt><trkpt lat="35.8781304" lon="139.184421"><ele>238.71333333333334</ele><time>2024-01-02T03:34:14Z</time></trkpt><trkpt lat="35.8780809" lon="139.1841932"><ele>238.17</ele><time>2024-01-02T03:34:30Z</time></trkpt><trkpt lat="35.8781342" lon="139.1839638"><ele>238.48000000000002</ele><time>2024-01-02T03:34:43Z</time></trkpt><trkpt lat="35.878128" lon="139.1837342"><ele>240.44333333333336</ele><time>2024-01-02T03:34:55Z</time></trkpt><trkpt lat="35.8778751" lon="139.1839691"><ele>241.98333333333335</ele><time>2024-01-02T03:35:05Z</time></trkpt><trkpt lat="35.8776983" lon="139.184029"><ele>243.60666666666665</ele><time>2024-01-02T03:35:10Z</time></trkpt><trkpt lat="35.8775202" lon="139.1841109"><ele>243.86666666666667</ele><time>2024-01-02T03:35:22Z</time></trkpt><trkpt lat="35.8773321" lon="139.1841213"><ele>245.28</ele><time>2024-01-02T03:35:38Z</time></trkpt><trkpt lat="35.8771494" lon="139.1840887"><ele>247.32333333333335</ele><time>2024-01-02T03:35:55Z</time></trkpt><trkpt lat="35.8769931" lon="139.1842008"><ele>248.82333333333335</ele><time>2024-01-02T03:36:05Z</time></trkpt><trkpt lat="35.8768064" lon="139.1842542"><ele>249.12</ele><time>2024-01-02T03:36:20Z</time></trkpt><trkpt lat="35.8766242" lon="139.1841781"><ele>251.87666666666667</ele><time>2024-01-02T03:36:26Z</time></trkpt><trkpt lat="35.8764687" lon="139.1842967"><ele>252.91666666666666</ele><time>2024-01-02T03:36:33Z</time></trkpt><trkpt lat="35.8763844" lon="139.1845089"><ele>251.64666666666668</ele><time>2024-01-02T03:36:47Z</time></trkpt><trkpt lat="35.8763352" lon="139.1847653"><ele>245.01666666666665</ele><time>2024-01-02T03:36:57Z</time></trkpt><trkpt lat="35.8762228" lon="139.1849555"><ele>240.0566666666667</ele><time>2024-01-02T03:37:09Z</time></trkpt><trkpt lat="35.8761043" lon="139.1851453"><ele>237.10333333333332</ele><time>2024-01-02T03:37:23Z</time></trkpt><trkpt lat="35.8759919" lon="139.1853204"><ele>235.04333333333332</ele><time>2024-01-02T03:37:38Z</time></trkpt><trkpt lat="35.875867" lon="139.1855004"><ele>232.97</ele><time>2024-01-02T03:37:52Z</time></trkpt><trkpt lat="35.8756943" lon="139.1855716"><ele>231.6</ele><time>2024-01-02T03:38:05Z</time></trkpt><trkpt lat="35.8755544" lon="139.1857113"><ele>230.54666666666665</ele><time>2024-01-02T03:38:14Z</time></trkpt><trkpt lat="35.8754059" lon="139.1858585"><ele>230.06000000000003</ele><time>2024-01-02T03:38:31Z</time></trkpt><trkpt lat="35.8752306" lon="139.1857881"><ele>229.92999999999998</ele><time>2024-01-02T03:38:42Z</time></trkpt><trkpt lat="35.8750448" lon="139.1858564"><ele>229.75333333333333</ele><time>2024-01-02T03:38:54Z</time></trkpt><trkpt lat="35.8749111" lon="139.1856632"><ele>231.3166666666667</ele><time>2024-01-02T03:39:01Z</time></trkpt><trkpt lat="35.8747397" lon="139.1855523"><ele>236.26666666666665</ele><time>2024-01-02T03:39:11Z</time></trkpt><trkpt lat="35.8745624" lon="139.1856449"><ele>241.78666666666666</ele><time>2024-01-02T03:39:30Z</time></trkpt><trkpt lat="35.8743959" lon="139.1857682"><ele>245.34333333333333</ele><time>2024-01-02T03:39:40Z</time></trkpt><trkpt lat="35.8742695" lon="139.1859424"><ele>245.74666666666667</ele><time>2024-01-02T03:39:49Z</time></trkpt><trkpt lat="35.8741316" lon="139.1861044"><ele>245.96333333333334</ele><time>2024-01-02T03:40:01Z</time></trkpt><trkpt lat="35.8740233" lon="139.1863014"><ele>245.38000000000002</ele><time>2024-01-02T03:40:14Z</time></trkpt><trkpt lat="35.8738919" lon="139.1864633"><ele>242.26666666666668</ele><time>2024-01-02T03:40:25Z</time></trkpt><trkpt lat="35.8737329" lon="139.1865776"><ele>239.27999999999997</ele><time>2024-01-02T03:40:40Z</time></trkpt><trkpt lat="35.8735689" lon="139.1866732"><ele>237.60666666666665</ele><time>2024-01-02T03:40:54Z</time></trkpt><trkpt lat="35.8734919" lon="139.18689"><ele>235.82666666666668</ele><time>2024-01-02T03:41:04Z</time></trkpt><trkpt lat="35.8733097" lon="139.1869764"><ele>233.58666666666667</ele><time>2024-01-02T03:41:13Z</time></trkpt><trkpt lat="35.8731251" lon="139.1869813"><ele>231.5</ele><time>2024-01-02T03:41:25Z</time></trkpt><trkpt lat="35.8729532" lon="139.1869017"><ele>231.95000000000002</ele><time>2024-01-02T03:41:39Z</time></trkpt><trkpt lat="35.8728388" lon="139.1867041"><ele>233.17999999999998</ele><time>2024-01-02T03:41:51Z</time></trkpt><trkpt lat="35.8726898" lon="139.1865451"><ele>233.87</ele><time>2024-01-02T03:42:05Z</time></trkpt><trkpt lat="35.8726486" lon="139.1863077"><ele>235.25</ele><time>2024-01-02T03:42:18Z</time></trkpt><trkpt lat="35.8726375" lon="139.1860796"><ele>237.89666666666668</ele><time>2024-01-02T03:42:31Z</time></trkpt><trkpt lat="35.8726495" lon="139.1858491"><ele>241.92</ele><time>2024-01-02T03:42:41Z</time></trkpt><trkpt lat="35.8727687" lon="139.1856771"><ele>245.63</ele><time>2024-01-02T03:42:51Z</time></trkpt><trkpt lat="35.8727942" lon="139.1854534"><ele>248.35</ele><time>2024-01-02T03:43:08Z</time></trkpt><trkpt lat="35.8728045" lon="139.185223"><ele>248.6833333333333</ele><time>2024-01-02T03:43:24Z</time></trkpt><trkpt lat="35.8728101" lon="139.1849986"><ele>247.50666666666666</ele><time>2024-01-02T03:43:31Z</time></trkpt><trkpt lat="35.872727" lon="139.1847823"><ele>244.95000000000002</ele><time>2024-01-02T03:43:41Z</time></trkpt><trkpt lat="35.8728359" lon="139.1845907"><ele>243.70000000000002</ele><time>2024-01-02T03:43:51Z</time></trkpt><trkpt lat="35.8728743" lon="139.1843718"><ele>243.32000000000002</ele><time>2024-01-02T03:44:09Z</time></trkpt><trkpt lat="35.872972" lon="139.1841705"><ele>244.06333333333336</ele><time>2024-01-02T03:44:20Z</time></trkpt><trkpt lat="35.8731107" lon="139.1840259"><ele>245.86333333333332</ele><time>2024-01-02T03:44:26Z</time></trkpt><trkpt lat="35.8731239" lon="139.1838002"><ele>248.17666666666665</ele><time>2024-01-02T03:44:42Z</time></trkpt><trkpt lat="35.8733006" lon="139.183628"><ele>250.88333333333335</ele><time>2024-01-02T03:44:54Z</time></trkpt><trkpt lat="35.8734197" lon="139.1834326"><ele>253.02</ele><time>2024-01-02T03:44:59Z</time></trkpt><trkpt lat="35.8732541" lon="139.1835347"><ele>253.79666666666665</ele><time>2024-01-02T03:45:22Z</time></trkpt><trkpt lat="35.8730657" lon="139.1835022"><ele>253.73333333333335</ele><time>2024-01-02T03:45:30Z</time></trkpt><trkpt lat="35.8728646" lon="139.1834555"><ele>253.50666666666666</ele><time>2024-01-02T03:45:45Z</time></trkpt><trkpt lat="35.8726771" lon="139.1834289"><ele>253.84666666666666</ele><time>2024-01-02T03:45:57Z</time></trkpt><trkpt lat="35.8724973" lon="139.1834035"><ele>253.74</ele><time>2024-01-02T03:46:10Z</time></trkpt><trkpt lat="35.8723196" lon="139.1835133"><ele>252.74</ele><time>2024-01-02T03:46:18Z</time></trkpt><trkpt lat="35.8721325" lon="139.1834818"><ele>250.84666666666666</ele><time>2024-01-02T03:46:33Z</time></trkpt><trkpt lat="35.8720915" lon="139.1831807"><ele>250.29666666666665</ele><time>2024-01-02T03:46:51Z</time></trkpt><trkpt lat="35.8722186" lon="139.1830048"><ele>250.56333333333336</ele><time>2024-01-02T03:47:08Z</time></trkpt><trkpt lat="35.8721257" lon="139.1828099"><ele>251.66</ele><time>2024-01-02T03:47:19Z</time></trkpt><trkpt lat="35.8719703" lon="139.182673"><ele>251.66666666666666</ele><time>2024-01-02T03:47:29Z</time></trkpt><trkpt lat="35.8718979" lon="139.1824661"><ele>251.31333333333336</ele><time>2024-01-02T03:47:48Z</time></trkpt><trkpt lat="35.8718722" lon="139.182243"><ele>251.09</ele><time>2024-01-02T03:47:57Z</time></trkpt><trkpt lat="35.8718598" lon="139.1820033"><ele>251.53</ele><time>2024-01-02T03:48:09Z</time></trkpt><trkpt lat="35.8717632" lon="139.1818005"><ele>251.88666666666666</ele><time>2024-01-02T03:48:19Z</time></trkpt><trkpt lat="35.8716865" lon="139.1815868"><ele>252.13000000000002</ele><time>2024-01-02T03:48:33Z</time></trkpt><trkpt lat="35.8716514" lon="139.1813642"><ele>252.13</ele><time>2024-01-02T03:48:45Z</time></trkpt><trkpt lat="35.8715793" lon="139.1811532"><ele>252.57333333333335</ele><time>2024-01-02T03:48:56Z</time></trkpt><trkpt lat="35.8714992" lon="139.1809417"><ele>253.02333333333334</ele><time>2024-01-02T03:49:11Z</time></trkpt></trkseg></trk></gpx>