<?xml version='1.0' encoding='UTF-8'?><gpx creator="YAMAP - https://yamap.com" xsi:schemaLocation="http://www.topografix.com/GPX/1/1 http://www.topografix.com/GPX/1/1/gpx.xsd" version="1.1" xmlns="http://www.topografix.com/GPX/1/1" xmlns:xsi="http://www.w3.org/2001/XMLSchema-instance"><metadata><bounds maxlat="35.8160393" maxlon="139.2299638" minlat="35.7791218" minlon="139.1467908"/></metadata><trk><name>日向和田駅から古里駅</name><number>1</number><trkseg><trkpt lat="35.7877172" lon="139.229767"><ele>211.91</ele><time>2024-09-20T23:39:09Z</time></trkpt><trkpt lat="35.7878612" lon="139.2299638"><ele>213.555</ele><time>2024-09-20T23:39:19Z</time></trkpt><trkpt lat="35.7880341" lon="139.2298127"><ele>214.25</ele><time>2024-09-20T23:40:04Z</time></trkpt><trkpt lat="35.7881823" lon="139.2296556"><ele>215.73000000000002</ele><time>2024-09-20T23:40:19Z</time></trkpt><trkpt lat="35.7883571" lon="139.22953"><ele>215.86666666666667</ele><time>2024-09-20T23:40:34Z</time></trkpt><trkpt lat="35.7885184" lon="139.2294067"><ele>216.07666666666668</ele><time>2024-09-20T23:40:49Z</time></trkpt><trkpt lat="35.788664" lon="139.2292717"><ele>215.79666666666665</ele><time>2024-09-20T23:41:01Z</time></trkpt><trkpt lat="35.7888413" lon="139.2291205"><ele>215.52999999999997</ele><time>2024-09-20T23:41:18Z</time></trkpt><trkpt lat="35.7890254" lon="139.2290753"><ele>215.51333333333332</ele><time>2024-09-20T23:41:30Z</time></trkpt><trkpt lat="35.7891191" lon="139.2288196"><ele>215.22333333333333</ele><time>2024-09-20T23:41:54Z</time></trkpt><trkpt lat="35.7892007" lon="139.2285803"><ele>214.79333333333332</ele><time>2024-09-20T23:42:08Z</time></trkpt><trkpt lat="35.7892883" lon="139.2283393"><ele>213.12333333333333</ele><time>2024-09-20T23:42:22Z</time></trkpt><trkpt lat="35.7893588" lon="139.2281305"><ele>208.99</ele><time>2024-09-20T23:42:31Z</time></trkpt><trkpt lat="35.7894187" lon="139.2278705"><ele>196.4366666666667</ele><time>2024-09-20T23:42:45Z</time></trkpt><trkpt lat="35.7894695" lon="139.2276384"><ele>183.74666666666667</ele><time>2024-09-20T23:42:59Z</time></trkpt><trkpt lat="35.7895166" lon="139.2274224"><ele>175.35</ele><time>2024-09-20T23:43:11Z</time></trkpt><trkpt lat="35.7895573" lon="139.2272044"><ele>183.02666666666667</ele><time>2024-09-20T23:43:25Z</time></trkpt><trkpt lat="35.7895982" lon="139.2269688"><ele>195.43000000000004</ele><time>2024-09-20T23:43:37Z</time></trkpt><trkpt lat="35.7896578" lon="139.2267155"><ele>206.7266666666667</ele><time>2024-09-20T23:43:51Z</time></trkpt><trkpt lat="35.7896575" lon="139.2264848"><ele>210.82000000000002</ele><time>2024-09-20T23:44:06Z</time></trkpt><trkpt lat="35.7896234" lon="139.2262577"><ele>211.20666666666668</ele><time>2024-09-20T23:44:17Z</time></trkpt><trkpt lat="35.7895379" lon="139.2260267"><ele>211.43666666666664</ele><time>2024-09-20T23:44:32Z</time></trkpt><trkpt lat="35.7894917" lon="139.2257837"><ele>211.71666666666667</ele><time>2024-09-20T23:44:46Z</time></trkpt><trkpt lat="35.7894074" lon="139.2255581"><ele>211.89666666666668</ele><time>2024-09-20T23:44:58Z</time></trkpt><trkpt lat="35.7893382" lon="139.2253369"><ele>212.11333333333334</ele><time>2024-09-20T23:45:13Z</time></trkpt><trkpt lat="35.789313" lon="139.2251136"><ele>212.30000000000004</ele><time>2024-09-20T23:45:27Z</time></trkpt><trkpt lat="35.7891856" lon="139.224908"><ele>212.52333333333334</ele><time>2024-09-20T23:45:39Z</time></trkpt><trkpt lat="35.7890816" lon="139.2246572"><ele>212.82000000000002</ele><time>2024-09-20T23:45:53Z</time></trkpt><trkpt lat="35.7889712" lon="139.2244681"><ele>213.12</ele><time>2024-09-20T23:46:08Z</time></trkpt><trkpt lat="35.7888549" lon="139.2242663"><ele>213.42666666666665</ele><time>2024-09-20T23:46:25Z</time></trkpt><trkpt lat="35.7887615" lon="139.2240166"><ele>213.63</ele><time>2024-09-20T23:46:37Z</time></trkpt><trkpt lat="35.7886767" lon="139.2238027"><ele>213.84666666666666</ele><time>2024-09-20T23:46:49Z</time></trkpt><trkpt lat="35.7885947" lon="139.2235897"><ele>214.13333333333333</ele><time>2024-09-20T23:47:03Z</time></trkpt><trkpt lat="35.7884806" lon="139.2233923"><ele>214.53666666666666</ele><time>2024-09-20T23:47:15Z</time></trkpt><trkpt lat="35.7883718" lon="139.2231899"><ele>214.98666666666668</ele><time>2024-09-20T23:47:32Z</time></trkpt><trkpt lat="35.7882732" lon="139.2229946"><ele>215.45333333333335</ele><time>2024-09-20T23:47:44Z</time></trkpt><trkpt lat="35.788179" lon="139.2227871"><ele>215.86333333333334</ele><time>2024-09-20T23:47:58Z</time></trkpt><trkpt lat="35.7880191" lon="139.2226677"><ele>216.3033333333333</ele><time>2024-09-20T23:48:13Z</time></trkpt><trkpt lat="35.7878327" lon="139.2227926"><ele>216.60333333333332</ele><time>2024-09-20T23:48:28Z</time></trkpt><trkpt lat="35.787673" lon="139.2229547"><ele>216.76333333333335</ele><time>2024-09-20T23:48:43Z</time></trkpt><trkpt lat="35.7874963" lon="139.2230749"><ele>216.64333333333335</ele><time>2024-09-20T23:48:57Z</time></trkpt><trkpt lat="35.7873327" lon="139.2231804"><ele>216.5233333333333</ele><time>2024-09-20T23:49:12Z</time></trkpt><trkpt lat="35.7871624" lon="139.2233173"><ele>216.3066666666667</ele><time>2024-09-20T23:49:27Z</time></trkpt><trkpt lat="35.7869606" lon="139.2233234"><ele>216.00666666666666</ele><time>2024-09-20T23:49:42Z</time></trkpt><trkpt lat="35.7868697" lon="139.223117"><ele>215.64666666666668</ele><time>2024-09-20T23:49:54Z</time></trkpt><trkpt lat="35.7868306" lon="139.2228363"><ele>215.28</ele><time>2024-09-20T23:50:12Z</time></trkpt><trkpt lat="35.7868637" lon="139.2226041"><ele>215.2966666666667</ele><time>2024-09-20T23:50:27Z</time></trkpt><trkpt lat="35.7869351" lon="139.2223638"><ele>215.60333333333335</ele><time>2024-09-20T23:50:45Z</time></trkpt><trkpt lat="35.7869663" lon="139.2221445"><ele>216.1966666666667</ele><time>2024-09-20T23:50:57Z</time></trkpt><trkpt lat="35.786985" lon="139.2219175"><ele>216.98333333333335</ele><time>2024-09-20T23:51:09Z</time></trkpt><trkpt lat="35.7869432" lon="139.2216806"><ele>217.5566666666667</ele><time>2024-09-20T23:51:21Z</time></trkpt><trkpt lat="35.7869522" lon="139.2214222"><ele>218.41</ele><time>2024-09-20T23:51:42Z</time></trkpt><trkpt lat="35.7869673" lon="139.2211883"><ele>219.59666666666666</ele><time>2024-09-20T23:51:57Z</time></trkpt><trkpt lat="35.7869733" lon="139.2209255"><ele>221.35666666666665</ele><time>2024-09-20T23:52:12Z</time></trkpt><trkpt lat="35.7868571" lon="139.2206911"><ele>222.62</ele><time>2024-09-20T23:52:30Z</time></trkpt><trkpt lat="35.7867457" lon="139.220513"><ele>222.8166666666667</ele><time>2024-09-20T23:52:42Z</time></trkpt><trkpt lat="35.7866038" lon="139.2203182"><ele>222.11333333333334</ele><time>2024-09-20T23:52:57Z</time></trkpt><trkpt lat="35.7864909" lon="139.220104"><ele>221.63</ele><time>2024-09-20T23:53:12Z</time></trkpt><trkpt lat="35.7864985" lon="139.2198599"><ele>221.45000000000002</ele><time>2024-09-20T23:53:27Z</time></trkpt><trkpt lat="35.7865422" lon="139.2196306"><ele>221.48333333333335</ele><time>2024-09-20T23:53:39Z</time></trkpt><trkpt lat="35.7865875" lon="139.2193767"><ele>221.36333333333334</ele><time>2024-09-20T23:53:54Z</time></trkpt><trkpt lat="35.7866496" lon="139.2190827"><ele>221.57000000000002</ele><time>2024-09-20T23:54:12Z</time></trkpt><trkpt lat="35.7866734" lon="139.2188057"><ele>221.94000000000003</ele><time>2024-09-20T23:54:27Z</time></trkpt><trkpt lat="35.7866353" lon="139.218587"><ele>222.69333333333336</ele><time>2024-09-20T23:54:39Z</time></trkpt><trkpt lat="35.7865124" lon="139.2183685"><ele>223.07666666666668</ele><time>2024-09-20T23:54:54Z</time></trkpt><trkpt lat="35.7863781" lon="139.2181704"><ele>223.25</ele><time>2024-09-20T23:55:09Z</time></trkpt><trkpt lat="35.7862987" lon="139.217934"><ele>223.58666666666667</ele><time>2024-09-20T23:55:27Z</time></trkpt><trkpt lat="35.7863575" lon="139.2176951"><ele>225.09666666666666</ele><time>2024-09-20T23:55:42Z</time></trkpt><trkpt lat="35.7863993" lon="139.2174542"><ele>226.32666666666668</ele><time>2024-09-20T23:55:54Z</time></trkpt><trkpt lat="35.7863752" lon="139.2171984"><ele>227.42666666666665</ele><time>2024-09-20T23:56:09Z</time></trkpt><trkpt lat="35.7863604" lon="139.2169525"><ele>227.83666666666667</ele><time>2024-09-20T23:56:27Z</time></trkpt><trkpt lat="35.7862952" lon="139.2167446"><ele>228.58333333333334</ele><time>2024-09-20T23:56:42Z</time></trkpt><trkpt lat="35.7863382" lon="139.2164921"><ele>230.79333333333332</ele><time>2024-09-20T23:56:54Z</time></trkpt><trkpt lat="35.7862219" lon="139.2163188"><ele>233.82333333333335</ele><time>2024-09-20T23:57:09Z</time></trkpt><trkpt lat="35.786111" lon="139.2161279"><ele>236.58666666666667</ele><time>2024-09-20T23:57:24Z</time></trkpt><trkpt lat="35.7860298" lon="139.2159283"><ele>236.53</ele><time>2024-09-20T23:57:51Z</time></trkpt><trkpt lat="35.7859451" lon="139.2156977"><ele>237.14666666666668</ele><time>2024-09-20T23:58:18Z</time></trkpt><trkpt lat="35.7859033" lon="139.2154821"><ele>241.55000000000004</ele><time>2024-09-20T23:58:36Z</time></trkpt><trkpt lat="35.7859016" lon="139.2152587"><ele>247.64000000000001</ele><time>2024-09-20T23:59:21Z</time></trkpt><trkpt lat="35.7858748" lon="139.2150312"><ele>252.79</ele><time>2024-09-20T23:59:57Z</time></trkpt><trkpt lat="35.7859052" lon="139.214807"><ele>255.34666666666666</ele><time>2024-09-21T00:00:18Z</time></trkpt><trkpt lat="35.7858407" lon="139.2145944"><ele>259.02333333333337</ele><time>2024-09-21T00:00:48Z</time></trkpt><trkpt lat="35.7857714" lon="139.2143859"><ele>263.34666666666664</ele><time>2024-09-21T00:01:30Z</time></trkpt><trkpt lat="35.7857458" lon="139.2141526"><ele>270.0566666666667</ele><time>2024-09-21T00:01:57Z</time></trkpt><trkpt lat="35.7857661" lon="139.2139292"><ele>276.42333333333335</ele><time>2024-09-21T00:02:24Z</time></trkpt><trkpt lat="35.7858467" lon="139.2137018"><ele>283.22666666666663</ele><time>2024-09-21T00:02:48Z</time></trkpt><trkpt lat="35.785776" lon="139.2134935"><ele>287.6333333333333</ele><time>2024-09-21T00:03:18Z</time></trkpt><trkpt lat="35.7856639" lon="139.2132655"><ele>291.4766666666667</ele><time>2024-09-21T00:03:51Z</time></trkpt><trkpt lat="35.7855933" lon="139.2130529"><ele>294.1666666666667</ele><time>2024-09-21T00:04:15Z</time></trkpt><trkpt lat="35.7855798" lon="139.2128064"><ele>296.9466666666667</ele><time>2024-09-21T00:04:42Z</time></trkpt><trkpt lat="35.7856661" lon="139.2125914"><ele>298.90333333333336</ele><time>2024-09-21T00:05:06Z</time></trkpt><trkpt lat="35.785788" lon="139.2124201"><ele>301.11999999999995</ele><time>2024-09-21T00:05:24Z</time></trkpt><trkpt lat="35.7857617" lon="139.2121815"><ele>303.06</ele><time>2024-09-21T00:05:48Z</time></trkpt><trkpt lat="35.7857805" lon="139.2119314"><ele>305.77</ele><time>2024-09-21T00:06:09Z</time></trkpt><trkpt lat="35.785719" lon="139.2117047"><ele>308.3433333333333</ele><time>2024-09-21T00:06:33Z</time></trkpt><trkpt lat="35.7856883" lon="139.2114653"><ele>312.0466666666667</ele><time>2024-09-21T00:07:15Z</time></trkpt><trkpt lat="35.7857213" lon="139.2112389"><ele>316.76000000000005</ele><time>2024-09-21T00:07:33Z</time></trkpt><trkpt lat="35.7857734" lon="139.2110156"><ele>321.67</ele><time>2024-09-21T00:07:54Z</time></trkpt><trkpt lat="35.7858542" lon="139.2108022"><ele>326.1033333333333</ele><time>2024-09-21T00:08:12Z</time></trkpt><trkpt lat="35.7859184" lon="139.2105863"><ele>329.53333333333336</ele><time>2024-09-21T00:08:30Z</time></trkpt><trkpt lat="35.7859711" lon="139.2103421"><ele>332.4433333333333</ele><time>2024-09-21T00:08:51Z</time></trkpt><trkpt lat="35.786115" lon="139.210176"><ele>335.3366666666667</ele><time>2024-09-21T00:09:15Z</time></trkpt><trkpt lat="35.7862328" lon="139.2100013"><ele>338.38000000000005</ele><time>2024-09-21T00:09:39Z</time></trkpt><trkpt lat="35.7862426" lon="139.2097604"><ele>341.7466666666667</ele><time>2024-09-21T00:10:00Z</time></trkpt><trkpt lat="35.7862725" lon="139.2095119"><ele>345.15000000000003</ele><time>2024-09-21T00:10:18Z</time></trkpt><trkpt lat="35.7863261" lon="139.2092996"><ele>348.4366666666667</ele><time>2024-09-21T00:10:36Z</time></trkpt><trkpt lat="35.7863467" lon="139.2090792"><ele>351.16333333333336</ele><time>2024-09-21T00:10:54Z</time></trkpt><trkpt lat="35.786343" lon="139.2088267"><ele>353.16</ele><time>2024-09-21T00:11:15Z</time></trkpt><trkpt lat="35.7863617" lon="139.2086016"><ele>356.1766666666667</ele><time>2024-09-21T00:11:38Z</time></trkpt><trkpt lat="35.7864248" lon="139.2083785"><ele>359.64000000000004</ele><time>2024-09-21T00:12:17Z</time></trkpt><trkpt lat="35.7864905" lon="139.2081307"><ele>364.6566666666667</ele><time>2024-09-21T00:13:11Z</time></trkpt><trkpt lat="35.7864918" lon="139.2078975"><ele>371.34999999999997</ele><time>2024-09-21T00:14:14Z</time></trkpt><trkpt lat="35.7865103" lon="139.2076706"><ele>381.96000000000004</ele><time>2024-09-21T00:15:26Z</time></trkpt><trkpt lat="35.7866412" lon="139.2075086"><ele>391.55</ele><time>2024-09-21T00:16:35Z</time></trkpt><trkpt lat="35.7866329" lon="139.2072802"><ele>401.92</ele><time>2024-09-21T00:17:38Z</time></trkpt><trkpt lat="35.7867895" lon="139.207131"><ele>409.23</ele><time>2024-09-21T00:18:05Z</time></trkpt><trkpt lat="35.7869701" lon="139.207124"><ele>415.85999999999996</ele><time>2024-09-21T00:18:35Z</time></trkpt><trkpt lat="35.7871576" lon="139.2070864"><ele>419.2166666666667</ele><time>2024-09-21T00:18:56Z</time></trkpt><trkpt lat="35.7872577" lon="139.2068921"><ele>423.7633333333333</ele><time>2024-09-21T00:19:55Z</time></trkpt><trkpt lat="35.7870761" lon="139.2068538"><ele>429.09666666666664</ele><time>2024-09-21T00:20:42Z</time></trkpt><trkpt lat="35.7869728" lon="139.20665"><ele>433.65333333333336</ele><time>2024-09-21T00:21:12Z</time></trkpt><trkpt lat="35.7869032" lon="139.2064278"><ele>437.1433333333334</ele><time>2024-09-21T00:21:39Z</time></trkpt><trkpt lat="35.7869388" lon="139.2062022"><ele>445.09666666666664</ele><time>2024-09-21T00:23:15Z</time></trkpt><trkpt lat="35.7870351" lon="139.2059767"><ele>454.20000000000005</ele><time>2024-09-21T00:24:00Z</time></trkpt><trkpt lat="35.7868715" lon="139.2058641"><ele>465.9266666666667</ele><time>2024-09-21T00:24:57Z</time></trkpt><trkpt lat="35.7866899" lon="139.2058689"><ele>473.6233333333334</ele><time>2024-09-21T00:25:21Z</time></trkpt><trkpt lat="35.7865084" lon="139.2058872"><ele>478.84</ele><time>2024-09-21T00:25:39Z</time></trkpt><trkpt lat="35.7863176" lon="139.205945"><ele>481.08666666666676</ele><time>2024-09-21T00:26:00Z</time></trkpt><trkpt lat="35.7862116" lon="139.2061375"><ele>475.6700000000001</ele><time>2024-09-21T00:27:12Z</time></trkpt><trkpt lat="35.7862021" lon="139.2059138"><ele>476.56</ele><time>2024-09-21T00:28:17Z</time></trkpt><trkpt lat="35.786299" lon="139.2056931"><ele>479.44000000000005</ele><time>2024-09-21T00:28:44Z</time></trkpt><trkpt lat="35.7863925" lon="139.2054734"><ele>490.0366666666667</ele><time>2024-09-21T00:29:14Z</time></trkpt><trkpt lat="35.7864417" lon="139.2052385"><ele>496.84</ele><time>2024-09-21T00:29:38Z</time></trkpt><trkpt lat="35.7865092" lon="139.2049794"><ele>502.59</ele><time>2024-09-21T00:30:47Z</time></trkpt><trkpt lat="35.7865415" lon="139.2047396"><ele>508.97666666666663</ele><time>2024-09-21T00:31:10Z</time></trkpt><trkpt lat="35.7865794" lon="139.2045223"><ele>515.2866666666667</ele><time>2024-09-21T00:31:40Z</time></trkpt><trkpt lat="35.7866488" lon="139.2042913"><ele>519.6533333333333</ele><time>2024-09-21T00:31:58Z</time></trkpt><trkpt lat="35.7866768" lon="139.2040722"><ele>522.14</ele><time>2024-09-21T00:32:16Z</time></trkpt><trkpt lat="35.7866864" lon="139.2038233"><ele>523.5233333333334</ele><time>2024-09-21T00:32:39Z</time></trkpt><trkpt lat="35.7866964" lon="139.2035895"><ele>525.2366666666667</ele><time>2024-09-21T00:33:02Z</time></trkpt><trkpt lat="35.786625" lon="139.2033775"><ele>528.4466666666667</ele><time>2024-09-21T00:33:20Z</time></trkpt><trkpt lat="35.7865062" lon="139.2031737"><ele>532.8766666666667</ele><time>2024-09-21T00:33:40Z</time></trkpt><trkpt lat="35.7864064" lon="139.2029742"><ele>537.2566666666667</ele><time>2024-09-21T00:34:01Z</time></trkpt><trkpt lat="35.7864803" lon="139.2027474"><ele>540.8233333333334</ele><time>2024-09-21T00:34:22Z</time></trkpt><trkpt lat="35.786571" lon="139.2025472"><ele>543.3233333333334</ele><time>2024-09-21T00:34:40Z</time></trkpt><trkpt lat="35.7865935" lon="139.20232"><ele>546.41</ele><time>2024-09-21T00:35:07Z</time></trkpt><trkpt lat="35.786469" lon="139.2021521"><ele>548.8000000000001</ele><time>2024-09-21T00:35:22Z</time></trkpt><trkpt lat="35.7863387" lon="139.2019801"><ele>551.1766666666667</ele><time>2024-09-21T00:35:46Z</time></trkpt><trkpt lat="35.786246" lon="139.2017663"><ele>553.2566666666667</ele><time>2024-09-21T00:36:10Z</time></trkpt><trkpt lat="35.7862731" lon="139.2015375"><ele>557.1366666666667</ele><time>2024-09-21T00:36:43Z</time></trkpt><trkpt lat="35.7862515" lon="139.2012917"><ele>562.8633333333333</ele><time>2024-09-21T00:37:31Z</time></trkpt><trkpt lat="35.7861988" lon="139.2010685"><ele>567.8633333333333</ele><time>2024-09-21T00:38:04Z</time></trkpt><trkpt lat="35.7863106" lon="139.2008855"><ele>571.57</ele><time>2024-09-21T00:38:25Z</time></trkpt><trkpt lat="35.7863601" lon="139.200665"><ele>573.44</ele><time>2024-09-21T00:38:42Z</time></trkpt><trkpt lat="35.7863782" lon="139.2004367"><ele>577.4633333333335</ele><time>2024-09-21T00:39:09Z</time></trkpt><trkpt lat="35.7864097" lon="139.2001877"><ele>585.1433333333334</ele><time>2024-09-21T00:40:06Z</time></trkpt><trkpt lat="35.7862464" lon="139.2000625"><ele>593.3066666666667</ele><time>2024-09-21T00:40:30Z</time></trkpt><trkpt lat="35.7860598" lon="139.2000014"><ele>598.1466666666666</ele><time>2024-09-21T00:40:57Z</time></trkpt><trkpt lat="35.785948" lon="139.199764"><ele>603.0533333333333</ele><time>2024-09-21T00:41:45Z</time></trkpt><trkpt lat="35.7858979" lon="139.1995445"><ele>608.04</ele><time>2024-09-21T00:42:18Z</time></trkpt><trkpt lat="35.7859584" lon="139.1993114"><ele>616.9233333333333</ele><time>2024-09-21T00:42:42Z</time></trkpt><trkpt lat="35.7859429" lon="139.1990495"><ele>621.1433333333334</ele><time>2024-09-21T00:43:03Z</time></trkpt><trkpt lat="35.7858332" lon="139.1988454"><ele>624.29</ele><time>2024-09-21T00:43:29Z</time></trkpt><trkpt lat="35.7856783" lon="139.1986818"><ele>625.7866666666667</ele><time>2024-09-21T00:43:49Z</time></trkpt><trkpt lat="35.7858659" lon="139.1986427"><ele>630.1533333333333</ele><time>2024-09-21T00:45:19Z</time></trkpt><trkpt lat="35.7860876" lon="139.1986041"><ele>636.2333333333335</ele><time>2024-09-21T00:46:22Z</time></trkpt><trkpt lat="35.7862156" lon="139.1984236"><ele>641.4533333333334</ele><time>2024-09-21T00:47:43Z</time></trkpt><trkpt lat="35.7863368" lon="139.198232"><ele>643.2433333333333</ele><time>2024-09-21T00:48:04Z</time></trkpt><trkpt lat="35.7863648" lon="139.1980057"><ele>643.0833333333334</ele><time>2024-09-21T00:48:40Z</time></trkpt><trkpt lat="35.7863895" lon="139.197771"><ele>641.8366666666667</ele><time>2024-09-21T00:49:13Z</time></trkpt><trkpt lat="35.7865287" lon="139.1975858"><ele>639.21</ele><time>2024-09-21T00:49:52Z</time></trkpt><trkpt lat="35.7866322" lon="139.1973968"><ele>633.8000000000001</ele><time>2024-09-21T00:50:28Z</time></trkpt><trkpt lat="35.786778" lon="139.1972381"><ele>628.0766666666667</ele><time>2024-09-21T00:51:10Z</time></trkpt><trkpt lat="35.7866544" lon="139.1970719"><ele>624.62</ele><time>2024-09-21T00:52:28Z</time></trkpt><trkpt lat="35.7865823" lon="139.196859"><ele>625.83</ele><time>2024-09-21T00:52:46Z</time></trkpt><trkpt lat="35.7865901" lon="139.1965822"><ele>629.38</ele><time>2024-09-21T00:53:03Z</time></trkpt><trkpt lat="35.7866171" lon="139.1963634"><ele>632.68</ele><time>2024-09-21T00:53:17Z</time></trkpt><trkpt lat="35.7866637" lon="139.1961173"><ele>635.6633333333333</ele><time>2024-09-21T00:53:35Z</time></trkpt><trkpt lat="35.7867646" lon="139.1959221"><ele>636.6666666666666</ele><time>2024-09-21T00:53:53Z</time></trkpt><trkpt lat="35.7868224" lon="139.1956967"><ele>635.0766666666667</ele><time>2024-09-21T00:54:08Z</time></trkpt><trkpt lat="35.7868199" lon="139.1954676"><ele>629.8266666666667</ele><time>2024-09-21T00:54:26Z</time></trkpt><trkpt lat="35.7869053" lon="139.1952687"><ele>624.4700000000001</ele><time>2024-09-21T00:54:41Z</time></trkpt><trkpt lat="35.7869642" lon="139.1950419"><ele>621.7533333333334</ele><time>2024-09-21T00:54:56Z</time></trkpt><trkpt lat="35.7870942" lon="139.1948716"><ele>624.1</ele><time>2024-09-21T00:55:17Z</time></trkpt><trkpt lat="35.7872136" lon="139.1946846"><ele>626.5333333333333</ele><time>2024-09-21T00:55:35Z</time></trkpt><trkpt lat="35.7871885" lon="139.1944272"><ele>626.29</ele><time>2024-09-21T00:55:53Z</time></trkpt><trkpt lat="35.787333" lon="139.1942255"><ele>623.29</ele><time>2024-09-21T00:56:14Z</time></trkpt><trkpt lat="35.7874967" lon="139.1940862"><ele>618.3033333333333</ele><time>2024-09-21T00:56:26Z</time></trkpt><trkpt lat="35.7876781" lon="139.1939362"><ele>614.6566666666666</ele><time>2024-09-21T00:56:58Z</time></trkpt><trkpt lat="35.7877088" lon="139.1936873"><ele>614.9766666666667</ele><time>2024-09-21T00:57:34Z</time></trkpt><trkpt lat="35.7877266" lon="139.1934501"><ele>618.8133333333334</ele><time>2024-09-21T00:57:55Z</time></trkpt><trkpt lat="35.7877818" lon="139.1932333"><ele>625.1266666666667</ele><time>2024-09-21T00:58:13Z</time></trkpt><trkpt lat="35.7878866" lon="139.193047"><ele>628.1633333333334</ele><time>2024-09-21T00:58:31Z</time></trkpt><trkpt lat="35.7880885" lon="139.1930522"><ele>630.9166666666666</ele><time>2024-09-21T00:59:01Z</time></trkpt><trkpt lat="35.7882777" lon="139.1929867"><ele>633.2033333333334</ele><time>2024-09-21T00:59:19Z</time></trkpt><trkpt lat="35.7884874" lon="139.1928879"><ele>636.2199999999999</ele><time>2024-09-21T00:59:37Z</time></trkpt><trkpt lat="35.7886927" lon="139.1928276"><ele>638.8966666666666</ele><time>2024-09-21T00:59:52Z</time></trkpt><trkpt lat="35.7888742" lon="139.1927759"><ele>641.3133333333334</ele><time>2024-09-21T01:00:25Z</time></trkpt><trkpt lat="35.7889443" lon="139.1925533"><ele>642.3633333333333</ele><time>2024-09-21T01:00:55Z</time></trkpt><trkpt lat="35.7889374" lon="139.1922971"><ele>642.7866666666667</ele><time>2024-09-21T01:01:25Z</time></trkpt><trkpt lat="35.7888862" lon="139.192077"><ele>641.0100000000001</ele><time>2024-09-21T01:01:43Z</time></trkpt><trkpt lat="35.7887801" lon="139.191861"><ele>638.5166666666668</ele><time>2024-09-21T01:02:40Z</time></trkpt><trkpt lat="35.788703" lon="139.1916131"><ele>637.0466666666667</ele><time>2024-09-21T01:03:19Z</time></trkpt><trkpt lat="35.7886894" lon="139.1913392"><ele>637.7933333333334</ele><time>2024-09-21T01:03:40Z</time></trkpt><trkpt lat="35.7887353" lon="139.1910859"><ele>637.5266666666668</ele><time>2024-09-21T01:04:01Z</time></trkpt><trkpt lat="35.7887154" lon="139.190856"><ele>635.6233333333333</ele><time>2024-09-21T01:04:25Z</time></trkpt><trkpt lat="35.7887162" lon="139.1906241"><ele>633.7733333333333</ele><time>2024-09-21T01:04:46Z</time></trkpt><trkpt lat="35.788811" lon="139.1903976"><ele>634.7333333333332</ele><time>2024-09-21T01:05:06Z</time></trkpt><trkpt lat="35.7888855" lon="139.1901799"><ele>637.08</ele><time>2024-09-21T01:05:24Z</time></trkpt><trkpt lat="35.7888916" lon="139.1899539"><ele>639.41</ele><time>2024-09-21T01:05:45Z</time></trkpt><trkpt lat="35.7888938" lon="139.1897237"><ele>640.8766666666667</ele><time>2024-09-21T01:06:03Z</time></trkpt><trkpt lat="35.7889651" lon="139.1894967"><ele>642.25</ele><time>2024-09-21T01:06:21Z</time></trkpt><trkpt lat="35.7890277" lon="139.1892561"><ele>643.41</ele><time>2024-09-21T01:06:42Z</time></trkpt><trkpt lat="35.7891398" lon="139.189043"><ele>644.5733333333334</ele><time>2024-09-21T01:07:00Z</time></trkpt><trkpt lat="35.7890385" lon="139.1888465"><ele>646.2433333333333</ele><time>2024-09-21T01:07:21Z</time></trkpt><trkpt lat="35.7889018" lon="139.1886316"><ele>648.3433333333334</ele><time>2024-09-21T01:08:01Z</time></trkpt><trkpt lat="35.7888184" lon="139.188431"><ele>650.4566666666666</ele><time>2024-09-21T01:08:16Z</time></trkpt><trkpt lat="35.7887067" lon="139.1882086"><ele>652.1033333333334</ele><time>2024-09-21T01:08:37Z</time></trkpt><trkpt lat="35.7886341" lon="139.1879952"><ele>653.3133333333334</ele><time>2024-09-21T01:08:58Z</time></trkpt><trkpt lat="35.7885802" lon="139.1877466"><ele>653.2400000000001</ele><time>2024-09-21T01:09:16Z</time></trkpt><trkpt lat="35.7885028" lon="139.1875278"><ele>654.54</ele><time>2024-09-21T01:09:35Z</time></trkpt><trkpt lat="35.7883875" lon="139.1873342"><ele>657.24</ele><time>2024-09-21T01:10:05Z</time></trkpt><trkpt lat="35.7882435" lon="139.1871746"><ele>662.7666666666668</ele><time>2024-09-21T01:11:50Z</time></trkpt><trkpt lat="35.7880606" lon="139.1871478"><ele>668.91</ele><time>2024-09-21T01:12:14Z</time></trkpt><trkpt lat="35.7878755" lon="139.1871365"><ele>674.7333333333333</ele><time>2024-09-21T01:12:41Z</time></trkpt><trkpt lat="35.7877136" lon="139.1870287"><ele>680.5266666666666</ele><time>2024-09-21T01:13:47Z</time></trkpt><trkpt lat="35.7878584" lon="139.1868833"><ele>686.5666666666667</ele><time>2024-09-21T01:14:47Z</time></trkpt><trkpt lat="35.7879479" lon="139.1866804"><ele>692.25</ele><time>2024-09-21T01:15:14Z</time></trkpt><trkpt lat="35.7878975" lon="139.186463"><ele>696.4533333333333</ele><time>2024-09-21T01:15:38Z</time></trkpt><trkpt lat="35.7877679" lon="139.1862717"><ele>698.9499999999999</ele><time>2024-09-21T01:16:02Z</time></trkpt><trkpt lat="35.7877371" lon="139.1860405"><ele>700.68</ele><time>2024-09-21T01:16:17Z</time></trkpt><trkpt lat="35.7877079" lon="139.1857794"><ele>702.33</ele><time>2024-09-21T01:16:38Z</time></trkpt><trkpt lat="35.7877213" lon="139.1855317"><ele>703.4866666666667</ele><time>2024-09-21T01:16:59Z</time></trkpt><trkpt lat="35.7877506" lon="139.1852856"><ele>704.4966666666666</ele><time>2024-09-21T01:17:23Z</time></trkpt><trkpt lat="35.7877311" lon="139.1850344"><ele>705.1733333333335</ele><time>2024-09-21T01:17:41Z</time></trkpt><trkpt lat="35.7878552" lon="139.1848339"><ele>706.4566666666666</ele><time>2024-09-21T01:17:59Z</time></trkpt><trkpt lat="35.7878967" lon="139.1846004"><ele>707.8533333333334</ele><time>2024-09-21T01:18:14Z</time></trkpt><trkpt lat="35.7879075" lon="139.1843709"><ele>709.8866666666667</ele><time>2024-09-21T01:18:29Z</time></trkpt><trkpt lat="35.7878416" lon="139.1841416"><ele>711.7199999999999</ele><time>2024-09-21T01:18:53Z</time></trkpt><trkpt lat="35.7877174" lon="139.1839753"><ele>715.5533333333333</ele><time>2024-09-21T01:19:26Z</time></trkpt><trkpt lat="35.7876389" lon="139.1837751"><ele>719.9000000000001</ele><time>2024-09-21T01:19:56Z</time></trkpt><trkpt lat="35.7875569" lon="139.1835739"><ele>724.5633333333334</ele><time>2024-09-21T01:20:29Z</time></trkpt><trkpt lat="35.7875009" lon="139.1833479"><ele>728.8633333333333</ele><time>2024-09-21T01:20:56Z</time></trkpt><trkpt lat="35.787516" lon="139.18311"><ele>734.2666666666668</ele><time>2024-09-21T01:21:41Z</time></trkpt><trkpt lat="35.7874195" lon="139.1829229"><ele>740.8933333333333</ele><time>2024-09-21T01:22:14Z</time></trkpt><trkpt lat="35.787415" lon="139.1826684"><ele>746.35</ele><time>2024-09-21T01:22:56Z</time></trkpt><trkpt lat="35.7874823" lon="139.1824427"><ele>749.91</ele><time>2024-09-21T01:23:17Z</time></trkpt><trkpt lat="35.7875802" lon="139.1822193"><ele>751.5100000000001</ele><time>2024-09-21T01:23:35Z</time></trkpt><trkpt lat="35.7876536" lon="139.1820097"><ele>752.11</ele><time>2024-09-21T01:23:52Z</time></trkpt><trkpt lat="35.7875725" lon="139.1818119"><ele>751.4466666666667</ele><time>2024-09-21T01:24:53Z</time></trkpt><trkpt lat="35.7874557" lon="139.1816055"><ele>748.7333333333332</ele><time>2024-09-21T01:25:14Z</time></trkpt><trkpt lat="35.7873346" lon="139.1814135"><ele>744.3933333333334</ele><time>2024-09-21T01:25:38Z</time></trkpt><trkpt lat="35.787338" lon="139.1811549"><ele>737.6999999999999</ele><time>2024-09-21T01:26:05Z</time></trkpt><trkpt lat="35.7872628" lon="139.1809312"><ele>731.0133333333333</ele><time>2024-09-21T01:26:29Z</time></trkpt><trkpt lat="35.787201" lon="139.1807157"><ele>723.5633333333334</ele><time>2024-09-21T01:26:53Z</time></trkpt><trkpt lat="35.7870941" lon="139.1805105"><ele>718.6166666666668</ele><time>2024-09-21T01:27:18Z</time></trkpt><trkpt lat="35.786974" lon="139.1803336"><ele>714.3000000000001</ele><time>2024-09-21T01:27:33Z</time></trkpt><trkpt lat="35.7868191" lon="139.180178"><ele>711.0366666666667</ele><time>2024-09-21T01:27:54Z</time></trkpt><trkpt lat="35.7866592" lon="139.1800113"><ele>707.2366666666667</ele><time>2024-09-21T01:28:15Z</time></trkpt><trkpt lat="35.7865" lon="139.1799035"><ele>704.4499999999999</ele><time>2024-09-21T01:28:30Z</time></trkpt><trkpt lat="35.7863702" lon="139.1797039"><ele>702.7533333333334</ele><time>2024-09-21T01:28:45Z</time></trkpt><trkpt lat="35.7863437" lon="139.1794616"><ele>701.86</ele><time>2024-09-21T01:29:03Z</time></trkpt><trkpt lat="35.7862537" lon="139.1792425"><ele>699.0300000000001</ele><time>2024-09-21T01:29:21Z</time></trkpt><trkpt lat="35.7861299" lon="139.1790575"><ele>696.2733333333332</ele><time>2024-09-21T01:29:36Z</time></trkpt><trkpt lat="35.7860572" lon="139.1788523"><ele>693.64</ele><time>2024-09-21T01:29:54Z</time></trkpt><trkpt lat="35.7860111" lon="139.1786304"><ele>691.8000000000001</ele><time>2024-09-21T01:30:09Z</time></trkpt><trkpt lat="35.785952" lon="139.1784014"><ele>690.1433333333334</ele><time>2024-09-21T01:30:27Z</time></trkpt><trkpt lat="35.7858811" lon="139.1781736"><ele>687.1233333333333</ele><time>2024-09-21T01:30:42Z</time></trkpt><trkpt lat="35.7858383" lon="139.1779571"><ele>686.94</ele><time>2024-09-21T01:31:00Z</time></trkpt><trkpt lat="35.7856829" lon="139.1777739"><ele>690.5566666666667</ele><time>2024-09-21T01:32:18Z</time></trkpt><trkpt lat="35.7855833" lon="139.1775729"><ele>697.6833333333334</ele><time>2024-09-21T01:33:27Z</time></trkpt><trkpt lat="35.785535" lon="139.1773544"><ele>706.6666666666666</ele><time>2024-09-21T01:34:24Z</time></trkpt><trkpt lat="35.7854515" lon="139.177125"><ele>714.3966666666666</ele><time>2024-09-21T01:35:09Z</time></trkpt><trkpt lat="35.785399" lon="139.1769058"><ele>722.6833333333334</ele><time>2024-09-21T01:35:39Z</time></trkpt><trkpt lat="35.785305" lon="139.1766958"><ele>728.35</ele><time>2024-09-21T01:36:06Z</time></trkpt><trkpt lat="35.7852185" lon="139.1764828"><ele>734.0433333333334</ele><time>2024-09-21T01:36:30Z</time></trkpt><trkpt lat="35.7852201" lon="139.1762604"><ele>737.94</ele><time>2024-09-21T01:36:54Z</time></trkpt><trkpt lat="35.7851721" lon="139.1760288"><ele>740.6733333333333</ele><time>2024-09-21T01:37:21Z</time></trkpt><trkpt lat="35.7851512" lon="139.1757951"><ele>742.1700000000001</ele><time>2024-09-21T01:37:54Z</time></trkpt><trkpt lat="35.7850211" lon="139.1756089"><ele>745.16</ele><time>2024-09-21T01:38:12Z</time></trkpt><trkpt lat="35.7849208" lon="139.1754103"><ele>748.8533333333334</ele><time>2024-09-21T01:38:36Z</time></trkpt><trkpt lat="35.7847905" lon="139.1752366"><ele>753.13</ele><time>2024-09-21T01:39:06Z</time></trkpt><trkpt lat="35.784679" lon="139.1750532"><ele>755.1633333333333</ele><time>2024-09-21T01:39:36Z</time></trkpt><trkpt lat="35.7845599" lon="139.1748765"><ele>757.9266666666667</ele><time>2024-09-21T01:40:00Z</time></trkpt><trkpt lat="35.7844357" lon="139.1746996"><ele>759.7666666666668</ele><time>2024-09-21T01:40:18Z</time></trkpt><trkpt lat="35.7843391" lon="139.1744971"><ele>761.2733333333332</ele><time>2024-09-21T01:40:51Z</time></trkpt><trkpt lat="35.7841755" lon="139.1744039"><ele>761.7533333333334</ele><time>2024-09-21T01:41:10Z</time></trkpt><trkpt lat="35.784078" lon="139.1742043"><ele>760.7333333333332</ele><time>2024-09-21T01:41:32Z</time></trkpt><trkpt lat="35.783953" lon="139.1740247"><ele>758.11</ele><time>2024-09-21T01:41:47Z</time></trkpt><trkpt lat="35.7837916" lon="139.1738888"><ele>755.4733333333334</ele><time>2024-09-21T01:42:05Z</time></trkpt><trkpt lat="35.7836362" lon="139.1737502"><ele>752.7833333333333</ele><time>2024-09-21T01:42:26Z</time></trkpt><trkpt lat="35.7834681" lon="139.1736316"><ele>752.16</ele><time>2024-09-21T01:42:41Z</time></trkpt><trkpt lat="35.7833761" lon="139.1734264"><ele>749.1066666666666</ele><time>2024-09-21T01:42:56Z</time></trkpt><trkpt lat="35.7832039" lon="139.1732708"><ele>746.19</ele><time>2024-09-21T01:43:17Z</time></trkpt><trkpt lat="35.7830879" lon="139.1730998"><ele>743.5400000000001</ele><time>2024-09-21T01:43:32Z</time></trkpt><trkpt lat="35.7829312" lon="139.1729874"><ele>744.9066666666668</ele><time>2024-09-21T01:43:50Z</time></trkpt><trkpt lat="35.7828093" lon="139.1727982"><ele>747.3666666666668</ele><time>2024-09-21T01:44:11Z</time></trkpt><trkpt lat="35.7827013" lon="139.172616"><ele>750.7166666666667</ele><time>2024-09-21T01:44:32Z</time></trkpt><trkpt lat="35.7825601" lon="139.1724313"><ele>753.4</ele><time>2024-09-21T01:45:14Z</time></trkpt><trkpt lat="35.7824208" lon="139.1722856"><ele>756.9699999999999</ele><time>2024-09-21T01:45:38Z</time></trkpt><trkpt lat="35.7823077" lon="139.1720583"><ele>761.4900000000001</ele><time>2024-09-21T01:47:59Z</time></trkpt><trkpt lat="35.7822048" lon="139.1718704"><ele>766.6833333333334</ele><time>2024-09-21T01:48:56Z</time></trkpt><trkpt lat="35.7820802" lon="139.1717027"><ele>774.1333333333333</ele><time>2024-09-21T01:49:32Z</time></trkpt><trkpt lat="35.782025" lon="139.1714687"><ele>781.9466666666667</ele><time>2024-09-21T01:50:17Z</time></trkpt><trkpt lat="35.781942" lon="139.1712616"><ele>789.9633333333333</ele><time>2024-09-21T01:50:56Z</time></trkpt><trkpt lat="35.7818988" lon="139.171045"><ele>794.3566666666666</ele><time>2024-09-21T01:51:38Z</time></trkpt><trkpt lat="35.7818168" lon="139.1708464"><ele>800.1</ele><time>2024-09-21T01:52:26Z</time></trkpt><trkpt lat="35.7817602" lon="139.1706321"><ele>804.19</ele><time>2024-09-21T01:52:53Z</time></trkpt><trkpt lat="35.7816923" lon="139.17042"><ele>809.3566666666666</ele><time>2024-09-21T01:53:20Z</time></trkpt><trkpt lat="35.7817395" lon="139.1701966"><ele>812.1999999999999</ele><time>2024-09-21T01:53:47Z</time></trkpt><trkpt lat="35.7817178" lon="139.1699685"><ele>816.5533333333333</ele><time>2024-09-21T01:54:20Z</time></trkpt><trkpt lat="35.7816629" lon="139.1697416"><ele>821.7766666666666</ele><time>2024-09-21T01:55:02Z</time></trkpt><trkpt lat="35.7815715" lon="139.1695491"><ele>827.7333333333332</ele><time>2024-09-21T01:55:56Z</time></trkpt><trkpt lat="35.7814846" lon="139.1693359"><ele>833.6733333333333</ele><time>2024-09-21T01:56:23Z</time></trkpt><trkpt lat="35.7814389" lon="139.1691065"><ele>841.07</ele><time>2024-09-21T01:57:17Z</time></trkpt><trkpt lat="35.7813631" lon="139.1688718"><ele>850.39</ele><time>2024-09-21T01:58:44Z</time></trkpt><trkpt lat="35.7813387" lon="139.1685601"><ele>859.5933333333332</ele><time>2024-09-21T02:00:38Z</time></trkpt><trkpt lat="35.7813592" lon="139.1683157"><ele>867.6333333333333</ele><time>2024-09-21T02:01:17Z</time></trkpt><trkpt lat="35.7812764" lon="139.1681164"><ele>874.3800000000001</ele><time>2024-09-21T02:02:14Z</time></trkpt><trkpt lat="35.7812334" lon="139.1678509"><ele>883.4933333333333</ele><time>2024-09-21T02:03:32Z</time></trkpt><trkpt lat="35.7811708" lon="139.1676129"><ele>892.0400000000001</ele><time>2024-09-21T02:13:01Z</time></trkpt><trkpt lat="35.781177" lon="139.1673536"><ele>898.2166666666667</ele><time>2024-09-21T02:14:40Z</time></trkpt><trkpt lat="35.7811791" lon="139.1671164"><ele>898.82</ele><time>2024-09-21T02:14:58Z</time></trkpt><trkpt lat="35.7810669" lon="139.1669347"><ele>895.3066666666667</ele><time>2024-09-21T02:15:19Z</time></trkpt><trkpt lat="35.7810409" lon="139.1667095"><ele>889.4066666666668</ele><time>2024-09-21T02:15:40Z</time></trkpt><trkpt lat="35.7809314" lon="139.1664955"><ele>883.6633333333333</ele><time>2024-09-21T02:16:07Z</time></trkpt><trkpt lat="35.7807561" lon="139.1663604"><ele>879.29</ele><time>2024-09-21T02:17:04Z</time></trkpt><trkpt lat="35.7805626" lon="139.1663188"><ele>874.9200000000001</ele><time>2024-09-21T02:17:19Z</time></trkpt><trkpt lat="35.7803793" lon="139.1661884"><ele>871.9433333333333</ele><time>2024-09-21T02:17:43Z</time></trkpt><trkpt lat="35.7802201" lon="139.1660541"><ele>868.46</ele><time>2024-09-21T02:17:58Z</time></trkpt><trkpt lat="35.7800277" lon="139.166012"><ele>866.6166666666667</ele><time>2024-09-21T02:18:13Z</time></trkpt><trkpt lat="35.7798343" lon="139.1659519"><ele>862.6533333333333</ele><time>2024-09-21T02:18:34Z</time></trkpt><trkpt lat="35.7796558" lon="139.1658641"><ele>858.59</ele><time>2024-09-21T02:18:52Z</time></trkpt><trkpt lat="35.7794732" lon="139.1659512"><ele>852.7700000000001</ele><time>2024-09-21T02:19:07Z</time></trkpt><trkpt lat="35.7792935" lon="139.1659801"><ele>847.3366666666667</ele><time>2024-09-21T02:19:22Z</time></trkpt><trkpt lat="35.7791218" lon="139.1659073"><ele>842.65</ele><time>2024-09-21T02:19:40Z</time></trkpt><trkpt lat="35.7791387" lon="139.1656784"><ele>838.3633333333333</ele><time>2024-09-21T02:20:01Z</time></trkpt><trkpt lat="35.7792603" lon="139.1654621"><ele>837.1166666666668</ele><time>2024-09-21T02:20:22Z</time></trkpt><trkpt lat="35.7793819" lon="139.1652497"><ele>834.3333333333334</ele><time>2024-09-21T02:20:37Z</time></trkpt><trkpt lat="35.7795259" lon="139.1651099"><ele>832.9</ele><time>2024-09-21T02:20:55Z</time></trkpt><trkpt lat="35.7797081" lon="139.1650208"><ele>828.7066666666666</ele><time>2024-09-21T02:21:13Z</time></trkpt><trkpt lat="35.7799012" lon="139.1650558"><ele>826.6766666666666</ele><time>2024-09-21T02:21:28Z</time></trkpt><trkpt lat="35.7800996" lon="139.1651388"><ele>824.21</ele><time>2024-09-21T02:21:43Z</time></trkpt><trkpt lat="35.78028" lon="139.1651038"><ele>820.1033333333334</ele><time>2024-09-21T02:21:58Z</time></trkpt><trkpt lat="35.780443" lon="139.1649612"><ele>817.87</ele><time>2024-09-21T02:22:19Z</time></trkpt><trkpt lat="35.7805671" lon="139.1647685"><ele>815.6066666666667</ele><time>2024-09-21T02:22:34Z</time></trkpt><trkpt lat="35.7805716" lon="139.1645222"><ele>814.7333333333332</ele><time>2024-09-21T02:22:58Z</time></trkpt><trkpt lat="35.7805233" lon="139.1642916"><ele>810.3800000000001</ele><time>2024-09-21T02:23:19Z</time></trkpt><trkpt lat="35.7805122" lon="139.1640527"><ele>806.84</ele><time>2024-09-21T02:23:37Z</time></trkpt><trkpt lat="35.7805192" lon="139.1637892"><ele>803.2133333333333</ele><time>2024-09-21T02:23:55Z</time></trkpt><trkpt lat="35.7805086" lon="139.1635672"><ele>800.4766666666668</ele><time>2024-09-21T02:24:13Z</time></trkpt><trkpt lat="35.7805702" lon="139.1633296"><ele>797.3433333333334</ele><time>2024-09-21T02:24:28Z</time></trkpt><trkpt lat="35.7806288" lon="139.163111"><ele>793.5100000000001</ele><time>2024-09-21T02:24:43Z</time></trkpt><trkpt lat="35.7806444" lon="139.1628898"><ele>790.4766666666668</ele><time>2024-09-21T02:25:01Z</time></trkpt><trkpt lat="35.7806889" lon="139.1626418"><ele>785.1899999999999</ele><time>2024-09-21T02:25:19Z</time></trkpt><trkpt lat="35.780741" lon="139.1623916"><ele>780.29</ele><time>2024-09-21T02:25:34Z</time></trkpt><trkpt lat="35.7808151" lon="139.162185"><ele>776.5233333333334</ele><time>2024-09-21T02:25:52Z</time></trkpt><trkpt lat="35.7809531" lon="139.1619995"><ele>778.0866666666666</ele><time>2024-09-21T02:26:13Z</time></trkpt><trkpt lat="35.7810872" lon="139.161835"><ele>783.5666666666666</ele><time>2024-09-21T02:26:27Z</time></trkpt><trkpt lat="35.7812361" lon="139.1616906"><ele>786.6933333333333</ele><time>2024-09-21T02:26:43Z</time></trkpt><trkpt lat="35.7813926" lon="139.1615639"><ele>785.29</ele><time>2024-09-21T02:26:58Z</time></trkpt><trkpt lat="35.7815414" lon="139.1613956"><ele>780.4900000000001</ele><time>2024-09-21T02:27:16Z</time></trkpt><trkpt lat="35.7816399" lon="139.1611957"><ele>775.98</ele><time>2024-09-21T02:27:37Z</time></trkpt><trkpt lat="35.7816835" lon="139.1609473"><ele>772.5099999999999</ele><time>2024-09-21T02:27:55Z</time></trkpt><trkpt lat="35.78176" lon="139.1607161"><ele>768.2333333333332</ele><time>2024-09-21T02:28:10Z</time></trkpt><trkpt lat="35.7817471" lon="139.1604739"><ele>767.04</ele><time>2024-09-21T02:28:31Z</time></trkpt><trkpt lat="35.7816417" lon="139.1602915"><ele>770.2366666666667</ele><time>2024-09-21T02:28:46Z</time></trkpt><trkpt lat="35.7814893" lon="139.160132"><ele>775.6566666666668</ele><time>2024-09-21T02:29:13Z</time></trkpt><trkpt lat="35.7814213" lon="139.1599131"><ele>780.7833333333334</ele><time>2024-09-21T02:29:30Z</time></trkpt><trkpt lat="35.7813441" lon="139.1597068"><ele>781.2733333333334</ele><time>2024-09-21T02:29:45Z</time></trkpt><trkpt lat="35.7814903" lon="139.1595169"><ele>783.4699999999999</ele><time>2024-09-21T02:30:12Z</time></trkpt><trkpt lat="35.781563" lon="139.1593091"><ele>783.8433333333334</ele><time>2024-09-21T02:30:30Z</time></trkpt><trkpt lat="35.7816872" lon="139.1591377"><ele>785.7733333333334</ele><time>2024-09-21T02:30:47Z</time></trkpt><trkpt lat="35.7818338" lon="139.1589583"><ele>785.8533333333334</ele><time>2024-09-21T02:31:05Z</time></trkpt><trkpt lat="35.7819646" lon="139.1587951"><ele>785.7166666666666</ele><time>2024-09-21T02:31:20Z</time></trkpt><trkpt lat="35.7821398" lon="139.1587211"><ele>785.3433333333332</ele><time>2024-09-21T02:31:38Z</time></trkpt><trkpt lat="35.7823197" lon="139.1586417"><ele>785.8133333333334</ele><time>2024-09-21T02:31:56Z</time></trkpt><trkpt lat="35.7825045" lon="139.1585214"><ele>787.1266666666667</ele><time>2024-09-21T02:32:11Z</time></trkpt><trkpt lat="35.7826876" lon="139.1583937"><ele>787.9466666666667</ele><time>2024-09-21T02:32:29Z</time></trkpt><trkpt lat="35.7828871" lon="139.1583583"><ele>788.4566666666666</ele><time>2024-09-21T02:32:47Z</time></trkpt><trkpt lat="35.7830827" lon="139.1583305"><ele>787.7400000000001</ele><time>2024-09-21T02:33:08Z</time></trkpt><trkpt lat="35.7832644" lon="139.1582626"><ele>786.1500000000001</ele><time>2024-09-21T02:33:23Z</time></trkpt><trkpt lat="35.7833504" lon="139.1580521"><ele>784.9866666666667</ele><time>2024-09-21T02:33:38Z</time></trkpt><trkpt lat="35.7834885" lon="139.1578712"><ele>786.2766666666666</ele><time>2024-09-21T02:33:53Z</time></trkpt><trkpt lat="35.7835305" lon="139.1576418"><ele>789.5200000000001</ele><time>2024-09-21T02:34:11Z</time></trkpt><trkpt lat="35.783649" lon="139.1574369"><ele>792.4466666666667</ele><time>2024-09-21T02:34:29Z</time></trkpt><trkpt lat="35.7837253" lon="139.1572345"><ele>795.46</ele><time>2024-09-21T02:34:47Z</time></trkpt><trkpt lat="35.7837336" lon="139.1570112"><ele>799.4633333333335</ele><time>2024-09-21T02:35:01Z</time></trkpt><trkpt lat="35.783712" lon="139.1567739"><ele>805.3833333333333</ele><time>2024-09-21T02:35:24Z</time></trkpt><trkpt lat="35.7836007" lon="139.1565998"><ele>810.3366666666667</ele><time>2024-09-21T02:35:51Z</time></trkpt><trkpt lat="35.7834297" lon="139.1564736"><ele>813.1899999999999</ele><time>2024-09-21T02:36:10Z</time></trkpt><trkpt lat="35.7833524" lon="139.1562721"><ele>812.6033333333334</ele><time>2024-09-21T02:36:33Z</time></trkpt><trkpt lat="35.7834198" lon="139.156049"><ele>811.1666666666666</ele><time>2024-09-21T02:36:53Z</time></trkpt><trkpt lat="35.7835374" lon="139.1558336"><ele>811.68</ele><time>2024-09-21T02:37:11Z</time></trkpt><trkpt lat="35.7836129" lon="139.1556036"><ele>813.6433333333333</ele><time>2024-09-21T02:37:26Z</time></trkpt><trkpt lat="35.7836624" lon="139.1553759"><ele>815.0633333333334</ele><time>2024-09-21T02:37:41Z</time></trkpt><trkpt lat="35.7837521" lon="139.1551619"><ele>814.02</ele><time>2024-09-21T02:37:56Z</time></trkpt><trkpt lat="35.7838529" lon="139.1549528"><ele>814.0933333333334</ele><time>2024-09-21T02:38:11Z</time></trkpt><trkpt lat="35.783799" lon="139.1547173"><ele>816.8633333333333</ele><time>2024-09-21T02:38:29Z</time></trkpt><trkpt lat="35.7836387" lon="139.1545625"><ele>821.75</ele><time>2024-09-21T02:38:47Z</time></trkpt><trkpt lat="35.7834925" lon="139.1543771"><ele>824.5233333333334</ele><time>2024-09-21T02:39:10Z</time></trkpt><trkpt lat="35.7835189" lon="139.1541579"><ele>826.8166666666666</ele><time>2024-09-21T02:39:31Z</time></trkpt><trkpt lat="35.7835798" lon="139.1539445"><ele>828.81</ele><time>2024-09-21T02:39:56Z</time></trkpt><trkpt lat="35.7836536" lon="139.1537196"><ele>831.4033333333333</ele><time>2024-09-21T02:40:14Z</time></trkpt><trkpt lat="35.7836443" lon="139.1534777"><ele>831.7933333333334</ele><time>2024-09-21T02:41:26Z</time></trkpt><trkpt lat="35.7836079" lon="139.153239"><ele>832.9866666666667</ele><time>2024-09-21T02:41:43Z</time></trkpt><trkpt lat="35.7835264" lon="139.1530258"><ele>837.16</ele><time>2024-09-21T02:41:59Z</time></trkpt><trkpt lat="35.7834436" lon="139.1528117"><ele>844.5533333333333</ele><time>2024-09-21T02:42:29Z</time></trkpt><trkpt lat="35.7834155" lon="139.1525488"><ele>850.4933333333333</ele><time>2024-09-21T02:43:26Z</time></trkpt><trkpt lat="35.7834372" lon="139.1523201"><ele>854.0</ele><time>2024-09-21T02:43:50Z</time></trkpt><trkpt lat="35.7836319" lon="139.152424"><ele>856.4033333333333</ele><time>2024-09-21T02:44:50Z</time></trkpt><trkpt lat="35.7838114" lon="139.1523762"><ele>858.8333333333334</ele><time>2024-09-21T02:45:05Z</time></trkpt><trkpt lat="35.7839751" lon="139.1522038"><ele>860.5966666666667</ele><time>2024-09-21T02:45:20Z</time></trkpt><trkpt lat="35.7841391" lon="139.1520615"><ele>858.7033333333334</ele><time>2024-09-21T02:45:38Z</time></trkpt><trkpt lat="35.7842771" lon="139.151912"><ele>856.8433333333334</ele><time>2024-09-21T02:45:53Z</time></trkpt><trkpt lat="35.7844803" lon="139.1519433"><ele>853.0500000000001</ele><time>2024-09-21T02:46:38Z</time></trkpt><trkpt lat="35.7846686" lon="139.1520027"><ele>850.0733333333333</ele><time>2024-09-21T02:47:05Z</time></trkpt><trkpt lat="35.784851" lon="139.1519574"><ele>848.5500000000001</ele><time>2024-09-21T02:47:20Z</time></trkpt><trkpt lat="35.7850545" lon="139.1519449"><ele>846.4833333333332</ele><time>2024-09-21T02:47:38Z</time></trkpt><trkpt lat="35.7852339" lon="139.1517966"><ele>845.8833333333333</ele><time>2024-09-21T02:47:56Z</time></trkpt><trkpt lat="35.7854241" lon="139.1518286"><ele>840.7400000000001</ele><time>2024-09-21T02:48:08Z</time></trkpt><trkpt lat="35.7856171" lon="139.1518169"><ele>836.4700000000001</ele><time>2024-09-21T02:48:23Z</time></trkpt><trkpt lat="35.785799" lon="139.1517813"><ele>828.87</ele><time>2024-09-21T02:48:44Z</time></trkpt><trkpt lat="35.7859802" lon="139.1516863"><ele>822.1700000000001</ele><time>2024-09-21T02:48:59Z</time></trkpt><trkpt lat="35.7861614" lon="139.1515946"><ele>817.4566666666666</ele><time>2024-09-21T02:49:14Z</time></trkpt><trkpt lat="35.7861726" lon="139.1513547"><ele>817.2666666666668</ele><time>2024-09-21T02:49:37Z</time></trkpt><trkpt lat="35.7862334" lon="139.1511445"><ele>819.6</ele><time>2024-09-21T02:50:22Z</time></trkpt><trkpt lat="35.7863832" lon="139.1510153"><ele>822.0799999999999</ele><time>2024-09-21T02:50:37Z</time></trkpt><trkpt lat="35.7865714" lon="139.1509448"><ele>824.91</ele><time>2024-09-21T02:50:55Z</time></trkpt><trkpt lat="35.7867714" lon="139.151039"><ele>827.5566666666667</ele><time>2024-09-21T02:51:13Z</time></trkpt><trkpt lat="35.7869576" lon="139.1509989"><ele>830.2933333333334</ele><time>2024-09-21T02:51:28Z</time></trkpt><trkpt lat="35.787163" lon="139.1509126"><ele>832.0733333333334</ele><time>2024-09-21T02:51:46Z</time></trkpt><trkpt lat="35.7873479" lon="139.1509201"><ele>834.0100000000001</ele><time>2024-09-21T02:52:01Z</time></trkpt><trkpt lat="35.7875301" lon="139.1509827"><ele>835.3866666666667</ele><time>2024-09-21T02:52:16Z</time></trkpt><trkpt lat="35.7877076" lon="139.1510731"><ele>837.08</ele><time>2024-09-21T02:52:28Z</time></trkpt><trkpt lat="35.7878642" lon="139.1512015"><ele>837.4033333333333</ele><time>2024-09-21T02:52:40Z</time></trkpt><trkpt lat="35.7879975" lon="139.1513664"><ele>837.9733333333334</ele><time>2024-09-21T02:52:55Z</time></trkpt><trkpt lat="35.7881918" lon="139.151349"><ele>838.4133333333333</ele><time>2024-09-21T02:53:13Z</time></trkpt><trkpt lat="35.7884121" lon="139.1513752"><ele>838.3933333333334</ele><time>2024-09-21T02:53:28Z</time></trkpt><trkpt lat="35.7885658" lon="139.1515893"><ele>837.7166666666667</ele><time>2024-09-21T02:53:46Z</time></trkpt><trkpt lat="35.7886636" lon="139.1518163"><ele>837.2833333333334</ele><time>2024-09-21T02:54:01Z</time></trkpt><trkpt lat="35.788615" lon="139.1520356"><ele>835.6233333333333</ele><time>2024-09-21T02:54:10Z</time></trkpt><trkpt lat="35.788606" lon="139.1522764"><ele>836.6933333333333</ele><time>2024-09-21T02:54:28Z</time></trkpt><trkpt lat="35.7886045" lon="139.1525482"><ele>837.6033333333334</ele><time>2024-09-21T02:54:46Z</time></trkpt><trkpt lat="35.7885369" lon="139.152779"><ele>838.7266666666666</ele><time>2024-09-21T02:54:58Z</time></trkpt><trkpt lat="35.7886772" lon="139.1529402"><ele>839.7133333333333</ele><time>2024-09-21T02:55:10Z</time></trkpt><trkpt lat="35.7888374" lon="139.1530488"><ele>840.3433333333332</ele><time>2024-09-21T02:55:25Z</time></trkpt><trkpt lat="35.7889909" lon="139.1531745"><ele>842.9033333333333</ele><time>2024-09-21T02:55:39Z</time></trkpt><trkpt lat="35.7891807" lon="139.1532098"><ele>843.9866666666667</ele><time>2024-09-21T02:55:52Z</time></trkpt><trkpt lat="35.7893834" lon="139.1532598"><ele>845.3633333333333</ele><time>2024-09-21T02:56:07Z</time></trkpt><trkpt lat="35.789565" lon="139.1533137"><ele>845.2466666666666</ele><time>2024-09-21T02:56:22Z</time></trkpt><trkpt lat="35.7897927" lon="139.153356"><ele>842.61</ele><time>2024-09-21T02:57:07Z</time></trkpt><trkpt lat="35.7899691" lon="139.1532989"><ele>836.9033333333333</ele><time>2024-09-21T02:57:25Z</time></trkpt><trkpt lat="35.7900256" lon="139.1530575"><ele>835.5500000000001</ele><time>2024-09-21T03:00:07Z</time></trkpt><trkpt lat="35.7900951" lon="139.1528349"><ele>837.3033333333333</ele><time>2024-09-21T03:00:28Z</time></trkpt><trkpt lat="35.7902" lon="139.1526364"><ele>840.2066666666666</ele><time>2024-09-21T03:00:49Z</time></trkpt><trkpt lat="35.7901921" lon="139.1523945"><ele>840.3666666666667</ele><time>2024-09-21T03:01:10Z</time></trkpt><trkpt lat="35.7902326" lon="139.1521777"><ele>838.0566666666667</ele><time>2024-09-21T03:01:28Z</time></trkpt><trkpt lat="35.7900984" lon="139.1520091"><ele>838.2633333333333</ele><time>2024-09-21T03:01:46Z</time></trkpt><trkpt lat="35.7899831" lon="139.1518038"><ele>837.77</ele><time>2024-09-21T03:02:04Z</time></trkpt><trkpt lat="35.7898799" lon="139.1516195"><ele>838.89</ele><time>2024-09-21T03:02:19Z</time></trkpt><trkpt lat="35.7897962" lon="139.1514173"><ele>837.9200000000001</ele><time>2024-09-21T03:02:37Z</time></trkpt><trkpt lat="35.7897376" lon="139.1512001"><ele>835.7933333333334</ele><time>2024-09-21T03:02:54Z</time></trkpt><trkpt lat="35.789578" lon="139.1510722"><ele>836.4200000000001</ele><time>2024-09-21T03:03:09Z</time></trkpt><trkpt lat="35.7894825" lon="139.1508436"><ele>836.0099999999999</ele><time>2024-09-21T03:03:27Z</time></trkpt><trkpt lat="35.7893495" lon="139.1506636"><ele>840.56</ele><time>2024-09-21T03:03:45Z</time></trkpt><trkpt lat="35.78924" lon="139.15045"><ele>844.4200000000001</ele><time>2024-09-21T03:04:03Z</time></trkpt><trkpt lat="35.7891672" lon="139.1502172"><ele>851.7766666666666</ele><time>2024-09-21T03:04:21Z</time></trkpt><trkpt lat="35.7891615" lon="139.1499662"><ele>856.8633333333333</ele><time>2024-09-21T03:04:48Z</time></trkpt><trkpt lat="35.7890635" lon="139.1497437"><ele>858.14</ele><time>2024-09-21T03:05:06Z</time></trkpt><trkpt lat="35.7890598" lon="139.149485"><ele>858.16</ele><time>2024-09-21T03:05:24Z</time></trkpt><trkpt lat="35.7889663" lon="139.1492835"><ele>856.3000000000001</ele><time>2024-09-21T03:05:42Z</time></trkpt><trkpt lat="35.788879" lon="139.1490765"><ele>854.5266666666666</ele><time>2024-09-21T03:06:00Z</time></trkpt><trkpt lat="35.7890722" lon="139.1490376"><ele>848.8733333333333</ele><time>2024-09-21T03:06:21Z</time></trkpt><trkpt lat="35.7892282" lon="139.1491518"><ele>846.8133333333334</ele><time>2024-09-21T03:06:39Z</time></trkpt><trkpt lat="35.7894143" lon="139.1492126"><ele>845.9566666666666</ele><time>2024-09-21T03:06:57Z</time></trkpt><trkpt lat="35.7895864" lon="139.1491436"><ele>849.7966666666667</ele><time>2024-09-21T03:07:12Z</time></trkpt><trkpt lat="35.7897809" lon="139.1490829"><ele>853.0066666666667</ele><time>2024-09-21T03:07:34Z</time></trkpt><trkpt lat="35.7899385" lon="139.1489365"><ele>857.3733333333333</ele><time>2024-09-21T03:07:52Z</time></trkpt><trkpt lat="35.790092" lon="139.1487673"><ele>862.0566666666667</ele><time>2024-09-21T03:08:15Z</time></trkpt><trkpt lat="35.7902021" lon="139.148566"><ele>866.1433333333334</ele><time>2024-09-21T03:08:40Z</time></trkpt><trkpt lat="35.7903516" lon="139.1484069"><ele>868.5766666666668</ele><time>2024-09-21T03:09:41Z</time></trkpt><trkpt lat="35.7905439" lon="139.1483637"><ele>869.5300000000001</ele><time>2024-09-21T03:10:07Z</time></trkpt><trkpt lat="35.7907408" lon="139.1482773"><ele>870.2366666666667</ele><time>2024-09-21T03:10:29Z</time></trkpt><trkpt lat="35.7909312" lon="139.148205"><ele>873.6600000000002</ele><time>2024-09-21T03:10:54Z</time></trkpt><trkpt lat="35.7911127" lon="139.1481176"><ele>879.5766666666667</ele><time>2024-09-21T03:11:18Z</time></trkpt><trkpt lat="35.7912238" lon="139.147934"><ele>887.5</ele><time>2024-09-21T03:11:41Z</time></trkpt><trkpt lat="35.7912563" lon="139.1477"><ele>893.6833333333334</ele><time>2024-09-21T03:12:05Z</time></trkpt><trkpt lat="35.7913745" lon="139.1475269"><ele>897.1633333333333</ele><time>2024-09-21T03:12:59Z</time></trkpt><trkpt lat="35.7915558" lon="139.147558"><ele>898.6700000000001</ele><time>2024-09-21T03:18:38Z</time></trkpt><trkpt lat="35.7917488" lon="139.1474476"><ele>900.6633333333333</ele><time>2024-09-21T03:18:59Z</time></trkpt><trkpt lat="35.7918999" lon="139.1473051"><ele>903.07</ele><time>2024-09-21T03:19:14Z</time></trkpt><trkpt lat="35.7920462" lon="139.1471333"><ele>904.8833333333333</ele><time>2024-09-21T03:19:35Z</time></trkpt><trkpt lat="35.7922241" lon="139.1470062"><ele>907.7566666666667</ele><time>2024-09-21T03:19:53Z</time></trkpt><trkpt lat="35.7924051" lon="139.1469621"><ele>911.8466666666667</ele><time>2024-09-21T03:20:14Z</time></trkpt><trkpt lat="35.7925844" lon="139.1468915"><ele>916.4699999999999</ele><time>2024-09-21T03:20:35Z</time></trkpt><trkpt lat="35.7927822" lon="139.1467957"><ele>919.1233333333333</ele><time>2024-09-21T03:21:08Z</time></trkpt><trkpt lat="35.7929647" lon="139.1467908"><ele>919.5966666666667</ele><time>2024-09-21T03:21:23Z</time></trkpt><trkpt lat="35.793047" lon="139.1470235"><ele>918.2633333333333</ele><time>2024-09-21T03:21:53Z</time></trkpt><trkpt lat="35.7931996" lon="139.1471632"><ele>915.0733333333334</ele><time>2024-09-21T03:22:11Z</time></trkpt><trkpt lat="35.7933603" lon="139.1473283"><ele>910.5433333333334</ele><time>2024-09-21T03:23:08Z</time></trkpt><trkpt lat="35.7934585" lon="139.147531"><ele>905.0633333333334</ele><time>2024-09-21T03:23:35Z</time></trkpt><trkpt lat="35.793631" lon="139.1476154"><ele>899.4</ele><time>2024-09-21T03:23:59Z</time></trkpt><trkpt lat="35.7937677" lon="139.1477718"><ele>894.0166666666668</ele><time>2024-09-21T03:24:23Z</time></trkpt><trkpt lat="35.7939466" lon="139.1479319"><ele>886.6966666666667</ele><time>2024-09-21T03:25:20Z</time></trkpt><trkpt lat="35.794045" lon="139.1481421"><ele>878.9066666666668</ele><time>2024-09-21T03:26:11Z</time></trkpt><trkpt lat="35.7941653" lon="139.1483278"><ele>871.0533333333333</ele><time>2024-09-21T03:26:32Z</time></trkpt><trkpt lat="35.7943261" lon="139.1485161"><ele>866.4033333333333</ele><time>2024-09-21T03:26:50Z</time></trkpt><trkpt lat="35.7944639" lon="139.1486868"><ele>864.2166666666667</ele><time>2024-09-21T03:27:05Z</time></trkpt><trkpt lat="35.7946389" lon="139.1488089"><ele>863.6433333333334</ele><time>2024-09-21T03:27:26Z</time></trkpt><trkpt lat="35.7948264" lon="139.1488859"><ele>863.5366666666667</ele><time>2024-09-21T03:27:41Z</time></trkpt><trkpt lat="35.7950037" lon="139.1489773"><ele>862.9966666666666</ele><time>2024-09-21T03:27:57Z</time></trkpt><trkpt lat="35.7951666" lon="139.1491035"><ele>862.2433333333333</ele><time>2024-09-21T03:28:15Z</time></trkpt><trkpt lat="35.7953153" lon="139.1492664"><ele>861.4666666666667</ele><time>2024-09-21T03:28:33Z</time></trkpt><trkpt lat="35.7955002" lon="139.1493095"><ele>860.5833333333334</ele><time>2024-09-21T03:28:51Z</time></trkpt><trkpt lat="35.7956739" lon="139.1493765"><ele>859.0766666666667</ele><time>2024-09-21T03:29:09Z</time></trkpt><trkpt lat="35.7958773" lon="139.1494607"><ele>856.14</ele><time>2024-09-21T03:29:27Z</time></trkpt><trkpt lat="35.796027" lon="139.149604"><ele>852.8633333333333</ele><time>2024-09-21T03:29:42Z</time></trkpt><trkpt lat="35.7962071" lon="139.1497231"><ele>848.7066666666666</ele><time>2024-09-21T03:30:00Z</time></trkpt><trkpt lat="35.7963689" lon="139.1498764"><ele>845.2366666666667</ele><time>2024-09-21T03:30:15Z</time></trkpt><trkpt lat="35.7965329" lon="139.1499871"><ele>841.5100000000001</ele><time>2024-09-21T03:30:39Z</time></trkpt><trkpt lat="35.7966705" lon="139.1501518"><ele>839.7666666666668</ele><time>2024-09-21T03:30:54Z</time></trkpt><trkpt lat="35.796818" lon="139.1502825"><ele>838.4200000000001</ele><time>2024-09-21T03:31:21Z</time></trkpt><trkpt lat="35.7970099" lon="139.1503066"><ele>835.5466666666667</ele><time>2024-09-21T03:31:36Z</time></trkpt><trkpt lat="35.7971914" lon="139.1503533"><ele>831.3166666666666</ele><time>2024-09-21T03:32:03Z</time></trkpt><trkpt lat="35.7973774" lon="139.1503401"><ele>824.6266666666667</ele><time>2024-09-21T03:32:29Z</time></trkpt><trkpt lat="35.7975888" lon="139.1503205"><ele>818.4966666666668</ele><time>2024-09-21T03:32:54Z</time></trkpt><trkpt lat="35.7977888" lon="139.1502698"><ele>810.6366666666668</ele><time>2024-09-21T03:34:03Z</time></trkpt><trkpt lat="35.7979805" lon="139.1502392"><ele>802.6133333333333</ele><time>2024-09-21T03:34:57Z</time></trkpt><trkpt lat="35.7982025" lon="139.1502422"><ele>795.1566666666668</ele><time>2024-09-21T03:35:39Z</time></trkpt><trkpt lat="35.7983869" lon="139.150258"><ele>790.18</ele><time>2024-09-21T03:35:57Z</time></trkpt><trkpt lat="35.7985727" lon="139.1502875"><ele>786.89</ele><time>2024-09-21T03:36:17Z</time></trkpt><trkpt lat="35.7987519" lon="139.1503353"><ele>783.5566666666667</ele><time>2024-09-21T03:36:33Z</time></trkpt><trkpt lat="35.7989504" lon="139.1504118"><ele>779.4233333333333</ele><time>2024-09-21T03:36:51Z</time></trkpt><trkpt lat="35.7991616" lon="139.1504706"><ele>775.6999999999999</ele><time>2024-09-21T03:37:14Z</time></trkpt><trkpt lat="35.7993319" lon="139.1505481"><ele>773.4766666666668</ele><time>2024-09-21T03:37:26Z</time></trkpt><trkpt lat="35.799508" lon="139.1506611"><ele>771.9833333333335</ele><time>2024-09-21T03:37:44Z</time></trkpt><trkpt lat="35.7996892" lon="139.1506648"><ele>770.8133333333334</ele><time>2024-09-21T03:38:02Z</time></trkpt><trkpt lat="35.7998681" lon="139.1506315"><ele>767.89</ele><time>2024-09-21T03:38:17Z</time></trkpt><trkpt lat="35.8000695" lon="139.1506804"><ele>763.02</ele><time>2024-09-21T03:38:38Z</time></trkpt><trkpt lat="35.8001906" lon="139.1504962"><ele>755.13</ele><time>2024-09-21T03:39:08Z</time></trkpt><trkpt lat="35.8003953" lon="139.1504322"><ele>747.5933333333334</ele><time>2024-09-21T03:40:08Z</time></trkpt><trkpt lat="35.800585" lon="139.1503685"><ele>738.91</ele><time>2024-09-21T03:41:02Z</time></trkpt><trkpt lat="35.8006054" lon="139.1501362"><ele>730.1999999999999</ele><time>2024-09-21T03:41:26Z</time></trkpt><trkpt lat="35.800767" lon="139.1500285"><ele>720.52</ele><time>2024-09-21T03:42:23Z</time></trkpt><trkpt lat="35.8009119" lon="139.1498745"><ele>711.7866666666667</ele><time>2024-09-21T03:42:52Z</time></trkpt><trkpt lat="35.8010826" lon="139.149781"><ele>705.2566666666668</ele><time>2024-09-21T03:44:04Z</time></trkpt><trkpt lat="35.8012327" lon="139.1495958"><ele>699.35</ele><time>2024-09-21T03:44:46Z</time></trkpt><trkpt lat="35.8013892" lon="139.1494707"><ele>694.7066666666668</ele><time>2024-09-21T03:45:04Z</time></trkpt><trkpt lat="35.8015416" lon="139.1493274"><ele>691.1933333333333</ele><time>2024-09-21T03:45:25Z</time></trkpt><trkpt lat="35.8017074" lon="139.1491826"><ele>687.1966666666667</ele><time>2024-09-21T03:45:46Z</time></trkpt><trkpt lat="35.8018957" lon="139.1491432"><ele>684.0</ele><time>2024-09-21T03:46:28Z</time></trkpt><trkpt lat="35.8020891" lon="139.1491634"><ele>680.0500000000001</ele><time>2024-09-21T03:54:23Z</time></trkpt><trkpt lat="35.8022614" lon="139.149087"><ele>677.68</ele><time>2024-09-21T03:54:47Z</time></trkpt><trkpt lat="35.8024433" lon="139.1491007"><ele>675.0333333333333</ele><time>2024-09-21T03:56:11Z</time></trkpt><trkpt lat="35.8024264" lon="139.1493311"><ele>671.1366666666667</ele><time>2024-09-21T03:56:20Z</time></trkpt><trkpt lat="35.8024299" lon="139.1495528"><ele>666.6966666666666</ele><time>2024-09-21T03:56:47Z</time></trkpt><trkpt lat="35.80256" lon="139.149727"><ele>660.7533333333334</ele><time>2024-09-21T03:57:17Z</time></trkpt><trkpt lat="35.8027445" lon="139.1497708"><ele>655.1766666666667</ele><time>2024-09-21T03:57:41Z</time></trkpt><trkpt lat="35.8029141" lon="139.1496721"><ele>650.9966666666666</ele><time>2024-09-21T03:58:02Z</time></trkpt><trkpt lat="35.8031107" lon="139.149694"><ele>647.5533333333333</ele><time>2024-09-21T03:58:27Z</time></trkpt><trkpt lat="35.8033024" lon="139.1497799"><ele>644.27</ele><time>2024-09-21T03:58:48Z</time></trkpt><trkpt lat="35.8034815" lon="139.1498711"><ele>638.9066666666668</ele><time>2024-09-21T03:59:15Z</time></trkpt><trkpt lat="35.8033024" lon="139.1499601"><ele>633.4966666666668</ele><time>2024-09-21T03:59:57Z</time></trkpt><trkpt lat="35.803261" lon="139.1501968"><ele>624.21</ele><time>2024-09-21T04:00:21Z</time></trkpt><trkpt lat="35.8034549" lon="139.1502595"><ele>615.6866666666666</ele><time>2024-09-21T04:00:42Z</time></trkpt><trkpt lat="35.8036449" lon="139.1502847"><ele>608.1233333333333</ele><time>2024-09-21T04:01:03Z</time></trkpt><trkpt lat="35.8038318" lon="139.1503877"><ele>604.5</ele><time>2024-09-21T04:01:27Z</time></trkpt><trkpt lat="35.8040186" lon="139.1504494"><ele>599.9433333333333</ele><time>2024-09-21T04:02:18Z</time></trkpt><trkpt lat="35.8041975" lon="139.1505326"><ele>594.9033333333333</ele><time>2024-09-21T04:02:36Z</time></trkpt><trkpt lat="35.8043001" lon="139.1507494"><ele>590.3933333333333</ele><time>2024-09-21T04:03:00Z</time></trkpt><trkpt lat="35.8044162" lon="139.1509204"><ele>587.6133333333333</ele><time>2024-09-21T04:03:15Z</time></trkpt><trkpt lat="35.8046052" lon="139.1510085"><ele>587.1766666666666</ele><time>2024-09-21T04:03:39Z</time></trkpt><trkpt lat="35.8047388" lon="139.1511971"><ele>587.1266666666667</ele><time>2024-09-21T04:03:59Z</time></trkpt><trkpt lat="35.8048804" lon="139.1513766"><ele>584.36</ele><time>2024-09-21T04:04:18Z</time></trkpt><trkpt lat="35.8049385" lon="139.1516073"><ele>579.7833333333334</ele><time>2024-09-21T04:04:36Z</time></trkpt><trkpt lat="35.8049127" lon="139.1518519"><ele>573.0333333333334</ele><time>2024-09-21T04:04:51Z</time></trkpt><trkpt lat="35.8050295" lon="139.1520285"><ele>570.0566666666667</ele><time>2024-09-21T04:05:12Z</time></trkpt><trkpt lat="35.8051973" lon="139.1521376"><ele>566.13</ele><time>2024-09-21T04:05:36Z</time></trkpt><trkpt lat="35.8053956" lon="139.1521561"><ele>560.9333333333333</ele><time>2024-09-21T04:06:00Z</time></trkpt><trkpt lat="35.80545" lon="139.1523713"><ele>551.79</ele><time>2024-09-21T04:07:00Z</time></trkpt><trkpt lat="35.8056341" lon="139.1523047"><ele>543.4566666666666</ele><time>2024-09-21T04:07:25Z</time></trkpt><trkpt lat="35.805659" lon="139.1525361"><ele>535.7966666666666</ele><time>2024-09-21T04:07:55Z</time></trkpt><trkpt lat="35.8055082" lon="139.1526619"><ele>529.2333333333332</ele><time>2024-09-21T04:08:16Z</time></trkpt><trkpt lat="35.805691" lon="139.1527441"><ele>523.0433333333333</ele><time>2024-09-21T04:08:40Z</time></trkpt><trkpt lat="35.8058466" lon="139.1526278"><ele>519.4000000000001</ele><time>2024-09-21T04:08:56Z</time></trkpt><trkpt lat="35.8058185" lon="139.1528539"><ele>515.7333333333332</ele><time>2024-09-21T04:09:23Z</time></trkpt><trkpt lat="35.8056895" lon="139.1530215"><ele>510.9666666666667</ele><time>2024-09-21T04:09:47Z</time></trkpt><trkpt lat="35.8056107" lon="139.1532361"><ele>504.5566666666667</ele><time>2024-09-21T04:10:32Z</time></trkpt><trkpt lat="35.8057842" lon="139.153348"><ele>498.01666666666665</ele><time>2024-09-21T04:10:53Z</time></trkpt><trkpt lat="35.8059832" lon="139.1534502"><ele>491.9866666666667</ele><time>2024-09-21T04:11:17Z</time></trkpt><trkpt lat="35.8061711" lon="139.1534737"><ele>487.97666666666663</ele><time>2024-09-21T04:11:35Z</time></trkpt><trkpt lat="35.806067" lon="139.1536804"><ele>484.10666666666674</ele><time>2024-09-21T04:12:08Z</time></trkpt><trkpt lat="35.805956" lon="139.1538613"><ele>480.09</ele><time>2024-09-21T04:12:29Z</time></trkpt><trkpt lat="35.8058808" lon="139.1540717"><ele>474.6700000000001</ele><time>2024-09-21T04:12:44Z</time></trkpt><trkpt lat="35.8059576" lon="139.1542752"><ele>469.6233333333333</ele><time>2024-09-21T04:13:29Z</time></trkpt><trkpt lat="35.8061395" lon="139.1542059"><ele>464.43</ele><time>2024-09-21T04:13:47Z</time></trkpt><trkpt lat="35.8063291" lon="139.1541891"><ele>460.35666666666674</ele><time>2024-09-21T04:14:09Z</time></trkpt><trkpt lat="35.8065134" lon="139.1541226"><ele>456.41333333333336</ele><time>2024-09-21T04:14:30Z</time></trkpt><trkpt lat="35.8066875" lon="139.1539889"><ele>451.86999999999995</ele><time>2024-09-21T04:14:48Z</time></trkpt><trkpt lat="35.8067051" lon="139.1542409"><ele>445.9666666666667</ele><time>2024-09-21T04:15:12Z</time></trkpt><trkpt lat="35.8067233" lon="139.1544615"><ele>439.2866666666667</ele><time>2024-09-21T04:15:39Z</time></trkpt><trkpt lat="35.8065934" lon="139.1546416"><ele>432.46333333333337</ele><time>2024-09-21T04:16:03Z</time></trkpt><trkpt lat="35.8064635" lon="139.1548027"><ele>428.32</ele><time>2024-09-21T04:16:21Z</time></trkpt><trkpt lat="35.8063549" lon="139.155006"><ele>424.57</ele><time>2024-09-21T04:16:39Z</time></trkpt><trkpt lat="35.8062951" lon="139.155233"><ele>421.2533333333334</ele><time>2024-09-21T04:16:57Z</time></trkpt><trkpt lat="35.806242" lon="139.1554451"><ele>414.66333333333336</ele><time>2024-09-21T04:17:21Z</time></trkpt><trkpt lat="35.8064497" lon="139.1554565"><ele>409.58666666666664</ele><time>2024-09-21T04:17:42Z</time></trkpt><trkpt lat="35.8066904" lon="139.1555086"><ele>403.66</ele><time>2024-09-21T04:18:12Z</time></trkpt><trkpt lat="35.8068835" lon="139.1554659"><ele>400.2733333333333</ele><time>2024-09-21T04:18:30Z</time></trkpt><trkpt lat="35.8070336" lon="139.1553389"><ele>395.9166666666667</ele><time>2024-09-21T04:18:48Z</time></trkpt><trkpt lat="35.8071798" lon="139.1551543"><ele>393.1333333333334</ele><time>2024-09-21T04:19:09Z</time></trkpt><trkpt lat="35.8073129" lon="139.1549867"><ele>389.59</ele><time>2024-09-21T04:19:39Z</time></trkpt><trkpt lat="35.8074169" lon="139.1547996"><ele>388.5033333333334</ele><time>2024-09-21T04:19:57Z</time></trkpt><trkpt lat="35.8075646" lon="139.1546475"><ele>386.2133333333333</ele><time>2024-09-21T04:20:21Z</time></trkpt><trkpt lat="35.8077131" lon="139.154518"><ele>383.8766666666667</ele><time>2024-09-21T04:20:45Z</time></trkpt><trkpt lat="35.8076645" lon="139.1547449"><ele>377.03666666666663</ele><time>2024-09-21T04:21:41Z</time></trkpt><trkpt lat="35.8076157" lon="139.1549751"><ele>371.30333333333334</ele><time>2024-09-21T04:22:06Z</time></trkpt><trkpt lat="35.8078073" lon="139.154948"><ele>362.3966666666667</ele><time>2024-09-21T04:23:11Z</time></trkpt><trkpt lat="35.8079808" lon="139.1548054"><ele>357.08666666666664</ele><time>2024-09-21T04:23:32Z</time></trkpt><trkpt lat="35.8081506" lon="139.154687"><ele>349.54999999999995</ele><time>2024-09-21T04:23:53Z</time></trkpt><trkpt lat="35.8083134" lon="139.1545887"><ele>345.1966666666667</ele><time>2024-09-21T04:24:11Z</time></trkpt><trkpt lat="35.8085084" lon="139.1545547"><ele>337.80333333333334</ele><time>2024-09-21T04:24:38Z</time></trkpt><trkpt lat="35.8086938" lon="139.1545104"><ele>332.7033333333333</ele><time>2024-09-21T04:25:02Z</time></trkpt><trkpt lat="35.8088695" lon="139.1544054"><ele>327.00666666666666</ele><time>2024-09-21T04:25:23Z</time></trkpt><trkpt lat="35.8090278" lon="139.1542745"><ele>322.7933333333333</ele><time>2024-09-21T04:25:47Z</time></trkpt><trkpt lat="35.8092248" lon="139.154349"><ele>316.2866666666667</ele><time>2024-09-21T04:26:20Z</time></trkpt><trkpt lat="35.8093615" lon="139.1545205"><ele>308.67333333333335</ele><time>2024-09-21T04:26:44Z</time></trkpt><trkpt lat="35.8095075" lon="139.1546845"><ele>301.0266666666667</ele><time>2024-09-21T04:27:05Z</time></trkpt><trkpt lat="35.8096563" lon="139.1548302"><ele>295.0533333333333</ele><time>2024-09-21T04:27:41Z</time></trkpt><trkpt lat="35.8098038" lon="139.1550036"><ele>290.75</ele><time>2024-09-21T04:28:29Z</time></trkpt><trkpt lat="35.8099231" lon="139.1552293"><ele>286.77</ele><time>2024-09-21T04:28:48Z</time></trkpt><trkpt lat="35.8100271" lon="139.1554626"><ele>283.01666666666665</ele><time>2024-09-21T04:29:07Z</time></trkpt><trkpt lat="35.8102237" lon="139.1554402"><ele>279.98</ele><time>2024-09-21T04:29:31Z</time></trkpt><trkpt lat="35.8103794" lon="139.1552992"><ele>277.37</ele><time>2024-09-21T04:29:46Z</time></trkpt><trkpt lat="35.8105564" lon="139.1551371"><ele>275.73333333333335</ele><time>2024-09-21T04:30:01Z</time></trkpt><trkpt lat="35.8107014" lon="139.1549803"><ele>274.30333333333334</ele><time>2024-09-21T04:30:16Z</time></trkpt><trkpt lat="35.8108455" lon="139.1548196"><ele>273.8233333333333</ele><time>2024-09-21T04:30:31Z</time></trkpt><trkpt lat="35.8109769" lon="139.154643"><ele>273.77</ele><time>2024-09-21T04:30:46Z</time></trkpt><trkpt lat="35.8111511" lon="139.1544934"><ele>274.2166666666667</ele><time>2024-09-21T04:31:04Z</time></trkpt><trkpt lat="35.8113415" lon="139.1543745"><ele>274.83</ele><time>2024-09-21T04:31:19Z</time></trkpt><trkpt lat="35.8115193" lon="139.1542766"><ele>275.3333333333333</ele><time>2024-09-21T04:31:37Z</time></trkpt><trkpt lat="35.8116939" lon="139.1541892"><ele>275.60999999999996</ele><time>2024-09-21T04:31:52Z</time></trkpt><trkpt lat="35.8119062" lon="139.1541164"><ele>275.6066666666666</ele><time>2024-09-21T04:32:08Z</time></trkpt><trkpt lat="35.8120768" lon="139.1540414"><ele>275.22999999999996</ele><time>2024-09-21T04:32:20Z</time></trkpt><trkpt lat="35.8122774" lon="139.153921"><ele>275.08666666666664</ele><time>2024-09-21T04:32:38Z</time></trkpt><trkpt lat="35.8124549" lon="139.1538387"><ele>274.64000000000004</ele><time>2024-09-21T04:32:50Z</time></trkpt><trkpt lat="35.8125885" lon="139.1536429"><ele>275.4733333333333</ele><time>2024-09-21T04:33:08Z</time></trkpt><trkpt lat="35.8127346" lon="139.153495"><ele>277.02666666666664</ele><time>2024-09-21T04:33:23Z</time></trkpt><trkpt lat="35.8128596" lon="139.1533128"><ele>279.59333333333336</ele><time>2024-09-21T04:33:38Z</time></trkpt><trkpt lat="35.8130429" lon="139.1531861"><ele>280.92333333333335</ele><time>2024-09-21T04:33:56Z</time></trkpt><trkpt lat="35.8132255" lon="139.1531301"><ele>281.25</ele><time>2024-09-21T04:34:11Z</time></trkpt><trkpt lat="35.8134143" lon="139.1530405"><ele>280.9866666666667</ele><time>2024-09-21T04:34:27Z</time></trkpt><trkpt lat="35.8135854" lon="139.1529593"><ele>280.42</ele><time>2024-09-21T04:34:42Z</time></trkpt><trkpt lat="35.8137663" lon="139.1529169"><ele>279.0133333333333</ele><time>2024-09-21T04:34:57Z</time></trkpt><trkpt lat="35.8139602" lon="139.1528339"><ele>275.75333333333333</ele><time>2024-09-21T04:35:12Z</time></trkpt><trkpt lat="35.8141433" lon="139.1527829"><ele>266.6066666666667</ele><time>2024-09-21T04:35:27Z</time></trkpt><trkpt lat="35.8143222" lon="139.1526938"><ele>256.05</ele><time>2024-09-21T04:35:42Z</time></trkpt><trkpt lat="35.8145489" lon="139.1526023"><ele>252.7266666666667</ele><time>2024-09-21T04:35:54Z</time></trkpt><trkpt lat="35.8147443" lon="139.1525237"><ele>261.94666666666666</ele><time>2024-09-21T04:36:11Z</time></trkpt><trkpt lat="35.814916" lon="139.1524496"><ele>274.34</ele><time>2024-09-21T04:36:23Z</time></trkpt><trkpt lat="35.8151134" lon="139.1523489"><ele>281.79333333333335</ele><time>2024-09-21T04:36:38Z</time></trkpt><trkpt lat="35.8152929" lon="139.1522974"><ele>283.5</ele><time>2024-09-21T04:36:50Z</time></trkpt><trkpt lat="35.8154723" lon="139.1522119"><ele>284.90000000000003</ele><time>2024-09-21T04:37:05Z</time></trkpt><trkpt lat="35.8153306" lon="139.1520156"><ele>285.40333333333336</ele><time>2024-09-21T04:37:26Z</time></trkpt><trkpt lat="35.8154915" lon="139.1521561"><ele>285.90333333333336</ele><time>2024-09-21T04:46:50Z</time></trkpt><trkpt lat="35.8156838" lon="139.1521045"><ele>286.36</ele><time>2024-09-21T04:47:05Z</time></trkpt><trkpt lat="35.8158495" lon="139.151976"><ele>287.46666666666664</ele><time>2024-09-21T04:48:24Z</time></trkpt><trkpt lat="35.8160393" lon="139.1519922"><ele>288.7266666666667</ele><time>2024-09-21T04:48:39Z</time></trkpt></trkseg></trk></gpx>