<?xml version='1.0' encoding='UTF-8'?><gpx creator="YAMAP - https://yamap.com" xsi:schemaLocation="http://www.topografix.com/GPX/1/1 http://www.topografix.com/GPX/1/1/gpx.xsd" version="1.1" xmlns="http://www.topografix.com/GPX/1/1" xmlns:xsi="http://www.w3.org/2001/XMLSchema-instance"><metadata><bounds maxlat="33.1183249" maxlon="131.2592786" minlat="33.0961595" minlon="131.2290586"/></metadata><trk><name>法華院温泉山荘</name><number>1</number><trkseg><trkpt lat="33.1183249" lon="131.2290586"><ele>1036.67</ele><time>2025-06-25T01:19:04Z</time></trkpt><trkpt lat="33.1179625" lon="131.2292795"><ele>1037.9050000000002</ele><time>2025-06-25T01:19:08Z</time></trkpt><trkpt lat="33.1177777" lon="131.2291948"><ele>1038.7</ele><time>2025-06-25T01:19:30Z</time></trkpt><trkpt lat="33.1176316" lon="131.2293646"><ele>1040.1900000000003</ele><time>2025-06-25T01:19:48Z</time></trkpt><trkpt lat="33.1174561" lon="131.2294239"><ele>1041.1166666666668</ele><time>2025-06-25T01:20:04Z</time></trkpt><trkpt lat="33.1172634" lon="131.2294213"><ele>1042.0733333333335</ele><time>2025-06-25T01:20:22Z</time></trkpt><trkpt lat="33.1170673" lon="131.2293584"><ele>1043.01</ele><time>2025-06-25T01:20:49Z</time></trkpt><trkpt lat="33.1168683" lon="131.2292852"><ele>1044.0866666666668</ele><time>2025-06-25T01:21:10Z</time></trkpt><trkpt lat="33.1166821" lon="131.2294067"><ele>1045.16</ele><time>2025-06-25T01:21:28Z</time></trkpt><trkpt lat="33.1165019" lon="131.229421"><ele>1046.2266666666667</ele><time>2025-06-25T01:21:40Z</time></trkpt><trkpt lat="33.1163091" lon="131.2293607"><ele>1047.2833333333335</ele><time>2025-06-25T01:21:57Z</time></trkpt><trkpt lat="33.1161248" lon="131.2293574"><ele>1048.3000000000002</ele><time>2025-06-25T01:22:12Z</time></trkpt><trkpt lat="33.1159424" lon="131.2293367"><ele>1049.3366666666668</ele><time>2025-06-25T01:22:32Z</time></trkpt><trkpt lat="33.1157446" lon="131.2293612"><ele>1050.2433333333333</ele><time>2025-06-25T01:22:50Z</time></trkpt><trkpt lat="33.115541" lon="131.229324"><ele>1051.4533333333334</ele><time>2025-06-25T01:23:04Z</time></trkpt><trkpt lat="33.1153347" lon="131.2293406"><ele>1053.2633333333333</ele><time>2025-06-25T01:23:29Z</time></trkpt><trkpt lat="33.1151252" lon="131.2293085"><ele>1055.3766666666668</ele><time>2025-06-25T01:23:49Z</time></trkpt><trkpt lat="33.1149175" lon="131.2292989"><ele>1057.5433333333333</ele><time>2025-06-25T01:24:06Z</time></trkpt><trkpt lat="33.1147328" lon="131.2292666"><ele>1059.32</ele><time>2025-06-25T01:24:27Z</time></trkpt><trkpt lat="33.1145252" lon="131.2292172"><ele>1061.0066666666667</ele><time>2025-06-25T01:24:45Z</time></trkpt><trkpt lat="33.1143205" lon="131.229276"><ele>1062.6633333333332</ele><time>2025-06-25T01:25:03Z</time></trkpt><trkpt lat="33.1141489" lon="131.2293467"><ele>1064.4533333333336</ele><time>2025-06-25T01:25:18Z</time></trkpt><trkpt lat="33.1139542" lon="131.2293487"><ele>1066.6666666666667</ele><time>2025-06-25T01:25:35Z</time></trkpt><trkpt lat="33.113779" lon="131.2292681"><ele>1068.9</ele><time>2025-06-25T01:25:50Z</time></trkpt><trkpt lat="33.1135833" lon="131.2292076"><ele>1071.55</ele><time>2025-06-25T01:26:11Z</time></trkpt><trkpt lat="33.1133842" lon="131.2291569"><ele>1073.3533333333332</ele><time>2025-06-25T01:26:29Z</time></trkpt><trkpt lat="33.1131626" lon="131.2291613"><ele>1074.7266666666667</ele><time>2025-06-25T01:26:47Z</time></trkpt><trkpt lat="33.1129529" lon="131.2291708"><ele>1075.6233333333332</ele><time>2025-06-25T01:27:10Z</time></trkpt><trkpt lat="33.1127624" lon="131.2291413"><ele>1076.8866666666665</ele><time>2025-06-25T01:27:26Z</time></trkpt><trkpt lat="33.1125724" lon="131.2291673"><ele>1078.6299999999999</ele><time>2025-06-25T01:27:50Z</time></trkpt><trkpt lat="33.1123866" lon="131.2292626"><ele>1080.8833333333332</ele><time>2025-06-25T01:28:09Z</time></trkpt><trkpt lat="33.1122039" lon="131.2293098"><ele>1083.5066666666667</ele><time>2025-06-25T01:28:30Z</time></trkpt><trkpt lat="33.1120295" lon="131.2294419"><ele>1085.7</ele><time>2025-06-25T01:28:48Z</time></trkpt><trkpt lat="33.1119066" lon="131.2296085"><ele>1087.21</ele><time>2025-06-25T01:29:06Z</time></trkpt><trkpt lat="33.1117715" lon="131.2297967"><ele>1088.5633333333333</ele><time>2025-06-25T01:29:24Z</time></trkpt><trkpt lat="33.1116317" lon="131.229937"><ele>1090.6166666666666</ele><time>2025-06-25T01:29:44Z</time></trkpt><trkpt lat="33.1114384" lon="131.230034"><ele>1093.2333333333333</ele><time>2025-06-25T01:30:10Z</time></trkpt><trkpt lat="33.1112746" lon="131.2301389"><ele>1095.9399999999998</ele><time>2025-06-25T01:30:41Z</time></trkpt><trkpt lat="33.1111036" lon="131.2302543"><ele>1098.59</ele><time>2025-06-25T01:32:29Z</time></trkpt><trkpt lat="33.1109171" lon="131.2303403"><ele>1101.1000000000001</ele><time>2025-06-25T01:32:54Z</time></trkpt><trkpt lat="33.1107592" lon="131.2304884"><ele>1103.7266666666667</ele><time>2025-06-25T01:33:19Z</time></trkpt><trkpt lat="33.1106512" lon="131.2306662"><ele>1106.2333333333333</ele><time>2025-06-25T01:33:41Z</time></trkpt><trkpt lat="33.110556" lon="131.2308921"><ele>1108.8100000000002</ele><time>2025-06-25T01:34:07Z</time></trkpt><trkpt lat="33.1105031" lon="131.2311267"><ele>1111.6633333333334</ele><time>2025-06-25T01:34:28Z</time></trkpt><trkpt lat="33.1105037" lon="131.2313724"><ele>1114.8033333333333</ele><time>2025-06-25T01:34:56Z</time></trkpt><trkpt lat="33.1105291" lon="131.2315911"><ele>1117.7233333333334</ele><time>2025-06-25T01:35:17Z</time></trkpt><trkpt lat="33.1105102" lon="131.2318285"><ele>1120.5600000000002</ele><time>2025-06-25T01:35:44Z</time></trkpt><trkpt lat="33.1104258" lon="131.2320945"><ele>1123.4166666666667</ele><time>2025-06-25T01:36:08Z</time></trkpt><trkpt lat="33.1103348" lon="131.232292"><ele>1126.1066666666666</ele><time>2025-06-25T01:36:42Z</time></trkpt><trkpt lat="33.110146" lon="131.2324019"><ele>1128.89</ele><time>2025-06-25T01:37:15Z</time></trkpt><trkpt lat="33.1099359" lon="131.2324416"><ele>1131.6866666666667</ele><time>2025-06-25T01:37:33Z</time></trkpt><trkpt lat="33.1097749" lon="131.232268"><ele>1134.04</ele><time>2025-06-25T01:37:51Z</time></trkpt><trkpt lat="33.1096238" lon="131.2321482"><ele>1135.3466666666666</ele><time>2025-06-25T01:38:16Z</time></trkpt><trkpt lat="33.1094385" lon="131.2321841"><ele>1136.17</ele><time>2025-06-25T01:38:34Z</time></trkpt><trkpt lat="33.1092635" lon="131.2322421"><ele>1137.8066666666666</ele><time>2025-06-25T01:38:49Z</time></trkpt><trkpt lat="33.109072" lon="131.232185"><ele>1140.2766666666666</ele><time>2025-06-25T01:39:07Z</time></trkpt><trkpt lat="33.1088901" lon="131.2323001"><ele>1142.9933333333333</ele><time>2025-06-25T01:39:31Z</time></trkpt><trkpt lat="33.108781" lon="131.2324746"><ele>1145.8</ele><time>2025-06-25T01:39:51Z</time></trkpt><trkpt lat="33.1087049" lon="131.2326999"><ele>1148.6566666666668</ele><time>2025-06-25T01:40:12Z</time></trkpt><trkpt lat="33.1086742" lon="131.2329278"><ele>1151.5566666666666</ele><time>2025-06-25T01:40:34Z</time></trkpt><trkpt lat="33.1087608" lon="131.2331395"><ele>1153.5</ele><time>2025-06-25T01:41:08Z</time></trkpt><trkpt lat="33.1087289" lon="131.2333709"><ele>1155.3933333333334</ele><time>2025-06-25T01:41:32Z</time></trkpt><trkpt lat="33.1085917" lon="131.2335201"><ele>1157.39</ele><time>2025-06-25T01:42:05Z</time></trkpt><trkpt lat="33.108417" lon="131.2335751"><ele>1160.4933333333333</ele><time>2025-06-25T01:42:32Z</time></trkpt><trkpt lat="33.1082391" lon="131.2336161"><ele>1163.5166666666667</ele><time>2025-06-25T01:42:53Z</time></trkpt><trkpt lat="33.1080559" lon="131.2336311"><ele>1165.9599999999998</ele><time>2025-06-25T01:43:17Z</time></trkpt><trkpt lat="33.107874" lon="131.233639"><ele>1168.03</ele><time>2025-06-25T01:43:52Z</time></trkpt><trkpt lat="33.1076937" lon="131.2336641"><ele>1171.03</ele><time>2025-06-25T01:44:28Z</time></trkpt><trkpt lat="33.1075679" lon="131.2338258"><ele>1174.4233333333332</ele><time>2025-06-25T01:44:58Z</time></trkpt><trkpt lat="33.107591" lon="131.2340487"><ele>1177.7566666666667</ele><time>2025-06-25T01:45:51Z</time></trkpt><trkpt lat="33.1076665" lon="131.2342463"><ele>1180.1033333333332</ele><time>2025-06-25T01:46:21Z</time></trkpt><trkpt lat="33.1074936" lon="131.234326"><ele>1182.62</ele><time>2025-06-25T01:46:57Z</time></trkpt><trkpt lat="33.1073086" lon="131.2342334"><ele>1184.8866666666665</ele><time>2025-06-25T01:47:32Z</time></trkpt><trkpt lat="33.1071269" lon="131.2341261"><ele>1186.36</ele><time>2025-06-25T01:47:53Z</time></trkpt><trkpt lat="33.106922" lon="131.2341536"><ele>1187.6566666666668</ele><time>2025-06-25T01:48:09Z</time></trkpt><trkpt lat="33.1067458" lon="131.2340356"><ele>1190.2833333333335</ele><time>2025-06-25T01:48:27Z</time></trkpt><trkpt lat="33.1065573" lon="131.2338971"><ele>1193.1133333333335</ele><time>2025-06-25T01:48:42Z</time></trkpt><trkpt lat="33.1064034" lon="131.2337435"><ele>1193.9166666666667</ele><time>2025-06-25T01:49:00Z</time></trkpt><trkpt lat="33.1063199" lon="131.2335458"><ele>1193.09</ele><time>2025-06-25T01:50:48Z</time></trkpt><trkpt lat="33.1062779" lon="131.2333294"><ele>1192.6233333333332</ele><time>2025-06-25T01:51:03Z</time></trkpt><trkpt lat="33.106283" lon="131.2330689"><ele>1193.743333333333</ele><time>2025-06-25T01:51:29Z</time></trkpt><trkpt lat="33.106462" lon="131.2329215"><ele>1194.9366666666665</ele><time>2025-06-25T01:51:44Z</time></trkpt><trkpt lat="33.106642" lon="131.23287"><ele>1195.1333333333334</ele><time>2025-06-25T01:51:57Z</time></trkpt><trkpt lat="33.1068028" lon="131.2327487"><ele>1194.2366666666667</ele><time>2025-06-25T01:52:39Z</time></trkpt><trkpt lat="33.1066351" lon="131.2326559"><ele>1195.3866666666668</ele><time>2025-06-25T01:53:15Z</time></trkpt><trkpt lat="33.1063926" lon="131.2326352"><ele>1201.0066666666664</ele><time>2025-06-25T01:54:30Z</time></trkpt><trkpt lat="33.1062101" lon="131.2326696"><ele>1209.3833333333334</ele><time>2025-06-25T01:56:09Z</time></trkpt><trkpt lat="33.10602" lon="131.2326194"><ele>1218.2833333333335</ele><time>2025-06-25T01:56:57Z</time></trkpt><trkpt lat="33.1058265" lon="131.2325908"><ele>1225.1266666666668</ele><time>2025-06-25T01:57:30Z</time></trkpt><trkpt lat="33.1056527" lon="131.2324748"><ele>1230.56</ele><time>2025-06-25T01:58:00Z</time></trkpt><trkpt lat="33.1054712" lon="131.2324107"><ele>1234.3233333333335</ele><time>2025-06-25T01:58:21Z</time></trkpt><trkpt lat="33.1052855" lon="131.232437"><ele>1236.78</ele><time>2025-06-25T01:58:42Z</time></trkpt><trkpt lat="33.1051123" lon="131.2323169"><ele>1239.14</ele><time>2025-06-25T01:59:09Z</time></trkpt><trkpt lat="33.1049235" lon="131.2322867"><ele>1241.07</ele><time>2025-06-25T01:59:39Z</time></trkpt><trkpt lat="33.1047223" lon="131.2322565"><ele>1243.3799999999999</ele><time>2025-06-25T02:00:06Z</time></trkpt><trkpt lat="33.1045352" lon="131.2322224"><ele>1246.1000000000001</ele><time>2025-06-25T02:00:36Z</time></trkpt><trkpt lat="33.1043385" lon="131.2322014"><ele>1249.2166666666667</ele><time>2025-06-25T02:01:03Z</time></trkpt><trkpt lat="33.1041383" lon="131.2321746"><ele>1252.01</ele><time>2025-06-25T02:01:31Z</time></trkpt><trkpt lat="33.1039638" lon="131.2322352"><ele>1254.2066666666667</ele><time>2025-06-25T02:01:52Z</time></trkpt><trkpt lat="33.1038097" lon="131.2321026"><ele>1256.3066666666666</ele><time>2025-06-25T02:02:22Z</time></trkpt><trkpt lat="33.1036315" lon="131.2321376"><ele>1258.2966666666669</ele><time>2025-06-25T02:02:49Z</time></trkpt><trkpt lat="33.1034463" lon="131.2321626"><ele>1261.2133333333334</ele><time>2025-06-25T02:03:28Z</time></trkpt><trkpt lat="33.1032663" lon="131.2322094"><ele>1264.3066666666666</ele><time>2025-06-25T02:05:07Z</time></trkpt><trkpt lat="33.1030639" lon="131.2321989"><ele>1268.0933333333332</ele><time>2025-06-25T02:05:37Z</time></trkpt><trkpt lat="33.102878" lon="131.2321927"><ele>1272.1466666666668</ele><time>2025-06-25T02:06:01Z</time></trkpt><trkpt lat="33.1026931" lon="131.2322006"><ele>1276.1866666666667</ele><time>2025-06-25T02:06:28Z</time></trkpt><trkpt lat="33.1024998" lon="131.2321833"><ele>1280.7666666666667</ele><time>2025-06-25T02:07:01Z</time></trkpt><trkpt lat="33.1023107" lon="131.2322001"><ele>1285.2299999999998</ele><time>2025-06-25T02:07:31Z</time></trkpt><trkpt lat="33.1021114" lon="131.2321972"><ele>1290.1333333333334</ele><time>2025-06-25T02:08:04Z</time></trkpt><trkpt lat="33.1019295" lon="131.232246"><ele>1293.8666666666668</ele><time>2025-06-25T02:08:40Z</time></trkpt><trkpt lat="33.1017464" lon="131.2323392"><ele>1297.5866666666666</ele><time>2025-06-25T02:09:34Z</time></trkpt><trkpt lat="33.1015875" lon="131.2324503"><ele>1301.0433333333333</ele><time>2025-06-25T02:10:10Z</time></trkpt><trkpt lat="33.101423" lon="131.2325579"><ele>1305.39</ele><time>2025-06-25T02:10:46Z</time></trkpt><trkpt lat="33.1012528" lon="131.2326563"><ele>1309.2766666666666</ele><time>2025-06-25T02:11:13Z</time></trkpt><trkpt lat="33.1010669" lon="131.2327552"><ele>1313.45</ele><time>2025-06-25T02:11:46Z</time></trkpt><trkpt lat="33.1009166" lon="131.2328736"><ele>1317.256666666667</ele><time>2025-06-25T02:12:07Z</time></trkpt><trkpt lat="33.1009324" lon="131.2330992"><ele>1320.5033333333333</ele><time>2025-06-25T02:14:01Z</time></trkpt><trkpt lat="33.1008628" lon="131.2333162"><ele>1323.92</ele><time>2025-06-25T02:14:25Z</time></trkpt><trkpt lat="33.1007708" lon="131.2335308"><ele>1327.04</ele><time>2025-06-25T02:14:52Z</time></trkpt><trkpt lat="33.1007584" lon="131.2337467"><ele>1330.1899999999998</ele><time>2025-06-25T02:15:16Z</time></trkpt><trkpt lat="33.1007044" lon="131.2339695"><ele>1334.6533333333334</ele><time>2025-06-25T02:16:43Z</time></trkpt><trkpt lat="33.1007532" lon="131.2342186"><ele>1339.2866666666666</ele><time>2025-06-25T02:17:22Z</time></trkpt><trkpt lat="33.1007581" lon="131.2344551"><ele>1345.2533333333333</ele><time>2025-06-25T02:17:42Z</time></trkpt><trkpt lat="33.1007408" lon="131.2346799"><ele>1349.2433333333333</ele><time>2025-06-25T02:18:01Z</time></trkpt><trkpt lat="33.100683" lon="131.2349223"><ele>1351.4966666666667</ele><time>2025-06-25T02:18:22Z</time></trkpt><trkpt lat="33.100561" lon="131.2351074"><ele>1352.6866666666667</ele><time>2025-06-25T02:18:43Z</time></trkpt><trkpt lat="33.1004335" lon="131.2352635"><ele>1353.11</ele><time>2025-06-25T02:19:01Z</time></trkpt><trkpt lat="33.1003088" lon="131.2354569"><ele>1356.6933333333334</ele><time>2025-06-25T02:19:20Z</time></trkpt><trkpt lat="33.1002752" lon="131.2356827"><ele>1359.5033333333333</ele><time>2025-06-25T02:19:38Z</time></trkpt><trkpt lat="33.1002175" lon="131.235896"><ele>1362.5433333333333</ele><time>2025-06-25T02:19:57Z</time></trkpt><trkpt lat="33.1001853" lon="131.2361405"><ele>1362.9566666666667</ele><time>2025-06-25T02:20:16Z</time></trkpt><trkpt lat="33.1001137" lon="131.2363558"><ele>1364.6966666666667</ele><time>2025-06-25T02:20:37Z</time></trkpt><trkpt lat="33.0999737" lon="131.2365094"><ele>1367.0766666666668</ele><time>2025-06-25T02:20:58Z</time></trkpt><trkpt lat="33.0998018" lon="131.2365995"><ele>1370.9800000000002</ele><time>2025-06-25T02:21:22Z</time></trkpt><trkpt lat="33.0996212" lon="131.2366589"><ele>1374.6666666666667</ele><time>2025-06-25T02:21:49Z</time></trkpt><trkpt lat="33.0994274" lon="131.236732"><ele>1379.6566666666665</ele><time>2025-06-25T02:22:33Z</time></trkpt><trkpt lat="33.0992392" lon="131.2367956"><ele>1382.8733333333332</ele><time>2025-06-25T02:22:55Z</time></trkpt><trkpt lat="33.0990441" lon="131.2368423"><ele>1384.6866666666665</ele><time>2025-06-25T02:24:19Z</time></trkpt><trkpt lat="33.0988656" lon="131.236924"><ele>1384.8666666666668</ele><time>2025-06-25T02:25:35Z</time></trkpt><trkpt lat="33.0986962" lon="131.2370548"><ele>1385.426666666667</ele><time>2025-06-25T02:25:58Z</time></trkpt><trkpt lat="33.0985186" lon="131.2370942"><ele>1388.4633333333331</ele><time>2025-06-25T02:26:17Z</time></trkpt><trkpt lat="33.0983283" lon="131.2371632"><ele>1391.0233333333333</ele><time>2025-06-25T02:26:38Z</time></trkpt><trkpt lat="33.0981505" lon="131.2372193"><ele>1393.8366666666668</ele><time>2025-06-25T02:26:56Z</time></trkpt><trkpt lat="33.0979674" lon="131.2372384"><ele>1395.55</ele><time>2025-06-25T02:27:17Z</time></trkpt><trkpt lat="33.0978646" lon="131.2374492"><ele>1396.2033333333331</ele><time>2025-06-25T02:27:38Z</time></trkpt><trkpt lat="33.0978889" lon="131.2376866"><ele>1395.5100000000002</ele><time>2025-06-25T02:28:08Z</time></trkpt><trkpt lat="33.0980147" lon="131.2378418"><ele>1394.8466666666666</ele><time>2025-06-25T02:28:50Z</time></trkpt><trkpt lat="33.0981292" lon="131.2380351"><ele>1395.0633333333335</ele><time>2025-06-25T02:29:14Z</time></trkpt><trkpt lat="33.0980716" lon="131.2382549"><ele>1398.36</ele><time>2025-06-25T02:29:47Z</time></trkpt><trkpt lat="33.098144" lon="131.2384896"><ele>1402.17</ele><time>2025-06-25T02:30:44Z</time></trkpt><trkpt lat="33.098308" lon="131.2386029"><ele>1405.3766666666668</ele><time>2025-06-25T02:31:11Z</time></trkpt><trkpt lat="33.098373" lon="131.2388166"><ele>1408.4966666666667</ele><time>2025-06-25T02:31:44Z</time></trkpt><trkpt lat="33.0983428" lon="131.2390384"><ele>1412.426666666667</ele><time>2025-06-25T02:32:23Z</time></trkpt><trkpt lat="33.0982733" lon="131.2392612"><ele>1419.24</ele><time>2025-06-25T02:33:23Z</time></trkpt><trkpt lat="33.0982585" lon="131.2394893"><ele>1426.13</ele><time>2025-06-25T02:34:14Z</time></trkpt><trkpt lat="33.0981772" lon="131.2396928"><ele>1434.3966666666668</ele><time>2025-06-25T02:35:02Z</time></trkpt><trkpt lat="33.098043" lon="131.2398628"><ele>1443.033333333333</ele><time>2025-06-25T02:36:20Z</time></trkpt><trkpt lat="33.0980133" lon="131.2400779"><ele>1451.89</ele><time>2025-06-25T02:37:41Z</time></trkpt><trkpt lat="33.0979463" lon="131.2402894"><ele>1460.0566666666666</ele><time>2025-06-25T02:39:23Z</time></trkpt><trkpt lat="33.0978772" lon="131.2404951"><ele>1466.5400000000002</ele><time>2025-06-25T02:39:59Z</time></trkpt><trkpt lat="33.0977893" lon="131.2406935"><ele>1471.3100000000002</ele><time>2025-06-25T02:40:26Z</time></trkpt><trkpt lat="33.0976798" lon="131.2408872"><ele>1475.4566666666667</ele><time>2025-06-25T02:42:12Z</time></trkpt><trkpt lat="33.097623" lon="131.2411084"><ele>1480.0733333333335</ele><time>2025-06-25T02:43:15Z</time></trkpt><trkpt lat="33.0975065" lon="131.2412895"><ele>1485.7666666666667</ele><time>2025-06-25T02:44:03Z</time></trkpt><trkpt lat="33.0974608" lon="131.2415064"><ele>1491.5333333333335</ele><time>2025-06-25T02:44:51Z</time></trkpt><trkpt lat="33.0973753" lon="131.2417077"><ele>1496.7133333333334</ele><time>2025-06-25T02:45:23Z</time></trkpt><trkpt lat="33.0973979" lon="131.2419215"><ele>1502.1066666666666</ele><time>2025-06-25T02:45:51Z</time></trkpt><trkpt lat="33.0972876" lon="131.2420913"><ele>1505.0566666666666</ele><time>2025-06-25T02:47:16Z</time></trkpt><trkpt lat="33.097232" lon="131.2423116"><ele>1506.9966666666667</ele><time>2025-06-25T02:47:46Z</time></trkpt><trkpt lat="33.0971454" lon="131.242516"><ele>1505.216666666667</ele><time>2025-06-25T02:48:07Z</time></trkpt><trkpt lat="33.0971238" lon="131.2427474"><ele>1502.4266666666665</ele><time>2025-06-25T02:49:04Z</time></trkpt><trkpt lat="33.0970753" lon="131.2429949"><ele>1497.6500000000003</ele><time>2025-06-25T02:51:09Z</time></trkpt><trkpt lat="33.0969742" lon="131.2431787"><ele>1492.9366666666667</ele><time>2025-06-25T02:52:30Z</time></trkpt><trkpt lat="33.0968622" lon="131.2433684"><ele>1485.6733333333334</ele><time>2025-06-25T02:55:39Z</time></trkpt><trkpt lat="33.0967005" lon="131.2435026"><ele>1478.0866666666668</ele><time>2025-06-25T02:56:42Z</time></trkpt><trkpt lat="33.0965101" lon="131.243525"><ele>1471.0133333333333</ele><time>2025-06-25T02:57:30Z</time></trkpt><trkpt lat="33.0963486" lon="131.2436711"><ele>1466.2466666666667</ele><time>2025-06-25T02:58:09Z</time></trkpt><trkpt lat="33.0963058" lon="131.243901"><ele>1463.49</ele><time>2025-06-25T03:01:51Z</time></trkpt><trkpt lat="33.096307" lon="131.2441232"><ele>1462.0466666666669</ele><time>2025-06-25T03:02:09Z</time></trkpt><trkpt lat="33.0962899" lon="131.2443517"><ele>1461.5966666666666</ele><time>2025-06-25T03:02:28Z</time></trkpt><trkpt lat="33.0963219" lon="131.2445764"><ele>1460.9633333333334</ele><time>2025-06-25T03:03:04Z</time></trkpt><trkpt lat="33.0963454" lon="131.2448157"><ele>1460.3766666666668</ele><time>2025-06-25T03:03:31Z</time></trkpt><trkpt lat="33.09635" lon="131.2450366"><ele>1459.9233333333334</ele><time>2025-06-25T03:03:49Z</time></trkpt><trkpt lat="33.0964128" lon="131.2452697"><ele>1459.8666666666668</ele><time>2025-06-25T03:04:10Z</time></trkpt><trkpt lat="33.0965419" lon="131.2454751"><ele>1459.82</ele><time>2025-06-25T03:04:30Z</time></trkpt><trkpt lat="33.09671" lon="131.2456373"><ele>1459.8</ele><time>2025-06-25T03:04:49Z</time></trkpt><trkpt lat="33.0968155" lon="131.245835"><ele>1459.8133333333333</ele><time>2025-06-25T03:05:13Z</time></trkpt><trkpt lat="33.0969332" lon="131.2460261"><ele>1459.8100000000002</ele><time>2025-06-25T03:05:28Z</time></trkpt><trkpt lat="33.0969313" lon="131.2462789"><ele>1459.7433333333336</ele><time>2025-06-25T03:05:45Z</time></trkpt><trkpt lat="33.0969131" lon="131.246525"><ele>1459.6033333333335</ele><time>2025-06-25T03:06:04Z</time></trkpt><trkpt lat="33.0969042" lon="131.2467742"><ele>1459.4166666666667</ele><time>2025-06-25T03:06:25Z</time></trkpt><trkpt lat="33.0968912" lon="131.2469965"><ele>1459.1566666666668</ele><time>2025-06-25T03:06:42Z</time></trkpt><trkpt lat="33.0969508" lon="131.2472107"><ele>1458.8500000000001</ele><time>2025-06-25T03:07:01Z</time></trkpt><trkpt lat="33.096953" lon="131.2474393"><ele>1458.4666666666665</ele><time>2025-06-25T03:07:16Z</time></trkpt><trkpt lat="33.0969991" lon="131.2476735"><ele>1458.05</ele><time>2025-06-25T03:07:34Z</time></trkpt><trkpt lat="33.0970667" lon="131.2479149"><ele>1457.75</ele><time>2025-06-25T03:07:55Z</time></trkpt><trkpt lat="33.0971142" lon="131.2481319"><ele>1457.78</ele><time>2025-06-25T03:08:13Z</time></trkpt><trkpt lat="33.0971352" lon="131.2483553"><ele>1457.926666666667</ele><time>2025-06-25T03:08:31Z</time></trkpt><trkpt lat="33.0971437" lon="131.248607"><ele>1457.6366666666665</ele><time>2025-06-25T03:09:04Z</time></trkpt><trkpt lat="33.0971909" lon="131.2488282"><ele>1456.9366666666665</ele><time>2025-06-25T03:10:13Z</time></trkpt><trkpt lat="33.0971951" lon="131.2490564"><ele>1455.2866666666669</ele><time>2025-06-25T03:11:18Z</time></trkpt><trkpt lat="33.0972647" lon="131.249263"><ele>1453.2433333333336</ele><time>2025-06-25T03:12:11Z</time></trkpt><trkpt lat="33.097314" lon="131.2494855"><ele>1449.4066666666668</ele><time>2025-06-25T03:13:10Z</time></trkpt><trkpt lat="33.097386" lon="131.2496844"><ele>1444.47</ele><time>2025-06-25T03:14:55Z</time></trkpt><trkpt lat="33.0974673" lon="131.2498905"><ele>1438.0199999999998</ele><time>2025-06-25T03:16:07Z</time></trkpt><trkpt lat="33.0975354" lon="131.2501219"><ele>1431.0633333333335</ele><time>2025-06-25T03:17:21Z</time></trkpt><trkpt lat="33.0976012" lon="131.2503235"><ele>1421.7866666666669</ele><time>2025-06-25T03:18:44Z</time></trkpt><trkpt lat="33.0975547" lon="131.2505449"><ele>1415.1000000000001</ele><time>2025-06-25T03:19:45Z</time></trkpt><trkpt lat="33.097562" lon="131.2507782"><ele>1408.6733333333334</ele><time>2025-06-25T03:20:45Z</time></trkpt><trkpt lat="33.0975084" lon="131.251004"><ele>1405.486666666667</ele><time>2025-06-25T03:21:15Z</time></trkpt><trkpt lat="33.0974686" lon="131.2512371"><ele>1399.78</ele><time>2025-06-25T03:22:09Z</time></trkpt><trkpt lat="33.0973836" lon="131.2514516"><ele>1393.2333333333336</ele><time>2025-06-25T03:23:05Z</time></trkpt><trkpt lat="33.0973176" lon="131.2516576"><ele>1385.3566666666666</ele><time>2025-06-25T03:25:05Z</time></trkpt><trkpt lat="33.0973942" lon="131.2518521"><ele>1375.3</ele><time>2025-06-25T03:27:23Z</time></trkpt><trkpt lat="33.0975464" lon="131.2519783"><ele>1363.44</ele><time>2025-06-25T03:28:36Z</time></trkpt><trkpt lat="33.0974391" lon="131.2521639"><ele>1351.97</ele><time>2025-06-25T03:29:48Z</time></trkpt><trkpt lat="33.0973119" lon="131.2523285"><ele>1342.2066666666667</ele><time>2025-06-25T03:30:28Z</time></trkpt><trkpt lat="33.0975141" lon="131.2523537"><ele>1336.6033333333335</ele><time>2025-06-25T03:30:51Z</time></trkpt><trkpt lat="33.0974379" lon="131.2525524"><ele>1330.0233333333333</ele><time>2025-06-25T03:31:48Z</time></trkpt><trkpt lat="33.097243" lon="131.2526253"><ele>1326.79</ele><time>2025-06-25T03:32:12Z</time></trkpt><trkpt lat="33.097221" lon="131.2529001"><ele>1320.8933333333334</ele><time>2025-06-25T03:33:06Z</time></trkpt><trkpt lat="33.0971924" lon="131.2531311"><ele>1316.5733333333335</ele><time>2025-06-25T03:33:42Z</time></trkpt><trkpt lat="33.0971086" lon="131.2533633"><ele>1309.7766666666669</ele><time>2025-06-25T03:34:00Z</time></trkpt><trkpt lat="33.0969083" lon="131.2533757"><ele>1308.7733333333335</ele><time>2025-06-25T03:34:23Z</time></trkpt><trkpt lat="33.0968413" lon="131.2536109"><ele>1308.4433333333334</ele><time>2025-06-25T03:35:43Z</time></trkpt><trkpt lat="33.0968777" lon="131.2538493"><ele>1307.18</ele><time>2025-06-25T03:36:05Z</time></trkpt><trkpt lat="33.0967851" lon="131.2540718"><ele>1304.1866666666667</ele><time>2025-06-25T03:36:24Z</time></trkpt><trkpt lat="33.0967925" lon="131.2542891"><ele>1297.7900000000002</ele><time>2025-06-25T03:36:42Z</time></trkpt><trkpt lat="33.0967549" lon="131.254512"><ele>1292.96</ele><time>2025-06-25T03:37:00Z</time></trkpt><trkpt lat="33.0966313" lon="131.2547034"><ele>1285.72</ele><time>2025-06-25T03:37:15Z</time></trkpt><trkpt lat="33.0965441" lon="131.2548981"><ele>1281.3566666666668</ele><time>2025-06-25T03:37:33Z</time></trkpt><trkpt lat="33.0964832" lon="131.2551504"><ele>1276.57</ele><time>2025-06-25T03:37:51Z</time></trkpt><trkpt lat="33.0963198" lon="131.2552983"><ele>1274.0100000000002</ele><time>2025-06-25T03:38:09Z</time></trkpt><trkpt lat="33.0965236" lon="131.255276"><ele>1271.97</ele><time>2025-06-25T03:40:57Z</time></trkpt><trkpt lat="33.0963089" lon="131.2553017"><ele>1272.43</ele><time>2025-06-25T03:43:18Z</time></trkpt><trkpt lat="33.0961607" lon="131.2554304"><ele>1273.4233333333332</ele><time>2025-06-25T03:44:09Z</time></trkpt><trkpt lat="33.0963353" lon="131.255311"><ele>1274.2533333333333</ele><time>2025-06-25T03:47:06Z</time></trkpt><trkpt lat="33.0962216" lon="131.2552167"><ele>1275.96</ele><time>2025-06-25T23:14:15Z</time></trkpt><trkpt lat="33.0961595" lon="131.2554943"><ele>1275.63</ele><time>2025-06-25T23:14:46Z</time></trkpt><trkpt lat="33.0961661" lon="131.2557288"><ele>1273.9166666666667</ele><time>2025-06-25T23:14:58Z</time></trkpt><trkpt lat="33.0962846" lon="131.2559462"><ele>1270.5733333333335</ele><time>2025-06-25T23:15:11Z</time></trkpt><trkpt lat="33.0964" lon="131.2561354"><ele>1265.6366666666665</ele><time>2025-06-25T23:15:23Z</time></trkpt><trkpt lat="33.0966011" lon="131.2561285"><ele>1262.8666666666668</ele><time>2025-06-25T23:15:41Z</time></trkpt><trkpt lat="33.0967557" lon="131.2563158"><ele>1260.88</ele><time>2025-06-25T23:15:56Z</time></trkpt><trkpt lat="33.096897" lon="131.25647"><ele>1260.05</ele><time>2025-06-25T23:16:11Z</time></trkpt><trkpt lat="33.0969571" lon="131.2567133"><ele>1257.2833333333335</ele><time>2025-06-25T23:16:26Z</time></trkpt><trkpt lat="33.0971027" lon="131.2568641"><ele>1254.28</ele><time>2025-06-25T23:16:41Z</time></trkpt><trkpt lat="33.0972464" lon="131.257031"><ele>1251.2066666666667</ele><time>2025-06-25T23:16:56Z</time></trkpt><trkpt lat="33.0974502" lon="131.2571019"><ele>1249.3833333333332</ele><time>2025-06-25T23:17:11Z</time></trkpt><trkpt lat="33.0976043" lon="131.2572388"><ele>1248.67</ele><time>2025-06-25T23:17:26Z</time></trkpt><trkpt lat="33.0977264" lon="131.2574076"><ele>1248.6933333333334</ele><time>2025-06-25T23:17:41Z</time></trkpt><trkpt lat="33.0978187" lon="131.2576438"><ele>1248.3933333333334</ele><time>2025-06-25T23:18:16Z</time></trkpt><trkpt lat="33.0979832" lon="131.2577418"><ele>1247.7700000000002</ele><time>2025-06-25T23:18:25Z</time></trkpt><trkpt lat="33.0981547" lon="131.2578627"><ele>1246.4133333333332</ele><time>2025-06-25T23:18:40Z</time></trkpt><trkpt lat="33.0982963" lon="131.2580565"><ele>1244.1499999999999</ele><time>2025-06-25T23:18:57Z</time></trkpt><trkpt lat="33.0984404" lon="131.2581939"><ele>1241.9933333333333</ele><time>2025-06-25T23:19:10Z</time></trkpt><trkpt lat="33.098597" lon="131.258327"><ele>1240.2299999999998</ele><time>2025-06-25T23:19:25Z</time></trkpt><trkpt lat="33.0987684" lon="131.2584683"><ele>1239.5966666666666</ele><time>2025-06-25T23:19:40Z</time></trkpt><trkpt lat="33.0989259" lon="131.2586033"><ele>1238.6233333333332</ele><time>2025-06-25T23:19:55Z</time></trkpt><trkpt lat="33.0991072" lon="131.2587147"><ele>1237.4433333333334</ele><time>2025-06-25T23:20:09Z</time></trkpt><trkpt lat="33.0993101" lon="131.258797"><ele>1236.006666666667</ele><time>2025-06-25T23:20:25Z</time></trkpt><trkpt lat="33.0994821" lon="131.2588652"><ele>1234.7366666666667</ele><time>2025-06-25T23:20:40Z</time></trkpt><trkpt lat="33.099668" lon="131.2589549"><ele>1233.5933333333335</ele><time>2025-06-25T23:20:55Z</time></trkpt><trkpt lat="33.0998419" lon="131.2590126"><ele>1232.6133333333335</ele><time>2025-06-25T23:21:10Z</time></trkpt><trkpt lat="33.1000589" lon="131.2590415"><ele>1231.4633333333334</ele><time>2025-06-25T23:21:25Z</time></trkpt><trkpt lat="33.1002399" lon="131.2589843"><ele>1230.39</ele><time>2025-06-25T23:21:40Z</time></trkpt><trkpt lat="33.1004277" lon="131.2589927"><ele>1229.1433333333332</ele><time>2025-06-25T23:21:55Z</time></trkpt><trkpt lat="33.1006018" lon="131.2589067"><ele>1227.93</ele><time>2025-06-25T23:22:10Z</time></trkpt><trkpt lat="33.1008149" lon="131.2590131"><ele>1226.8</ele><time>2025-06-25T23:22:43Z</time></trkpt><trkpt lat="33.1010104" lon="131.2589303"><ele>1226.256666666667</ele><time>2025-06-25T23:22:55Z</time></trkpt><trkpt lat="33.1012374" lon="131.2589067"><ele>1225.9266666666667</ele><time>2025-06-25T23:23:13Z</time></trkpt><trkpt lat="33.1014331" lon="131.2590037"><ele>1225.81</ele><time>2025-06-25T23:23:31Z</time></trkpt><trkpt lat="33.101607" lon="131.2590703"><ele>1225.68</ele><time>2025-06-25T23:23:49Z</time></trkpt><trkpt lat="33.1018455" lon="131.2590173"><ele>1226.4866666666667</ele><time>2025-06-25T23:24:01Z</time></trkpt><trkpt lat="33.1020581" lon="131.2590295"><ele>1227.0533333333333</ele><time>2025-06-25T23:24:17Z</time></trkpt><trkpt lat="33.1022401" lon="131.2590957"><ele>1227.22</ele><time>2025-06-25T23:24:32Z</time></trkpt><trkpt lat="33.1024625" lon="131.2591315"><ele>1226.6299999999999</ele><time>2025-06-25T23:24:47Z</time></trkpt><trkpt lat="33.1026657" lon="131.2591556"><ele>1225.74</ele><time>2025-06-25T23:25:02Z</time></trkpt><trkpt lat="33.1028374" lon="131.2592544"><ele>1225.1833333333334</ele><time>2025-06-25T23:25:17Z</time></trkpt><trkpt lat="33.1030447" lon="131.2592786"><ele>1224.98</ele><time>2025-06-25T23:25:34Z</time></trkpt><trkpt lat="33.1032016" lon="131.2591691"><ele>1226.5000000000002</ele><time>2025-06-25T23:25:55Z</time></trkpt><trkpt lat="33.1032963" lon="131.2589623"><ele>1229.13</ele><time>2025-06-25T23:26:17Z</time></trkpt><trkpt lat="33.1034645" lon="131.2588283"><ele>1231.926666666667</ele><time>2025-06-25T23:26:40Z</time></trkpt><trkpt lat="33.1036527" lon="131.25871"><ele>1234.5766666666668</ele><time>2025-06-25T23:27:02Z</time></trkpt><trkpt lat="33.1038512" lon="131.2586227"><ele>1236.756666666667</ele><time>2025-06-25T23:27:23Z</time></trkpt><trkpt lat="33.1039941" lon="131.2584819"><ele>1238.8366666666668</ele><time>2025-06-25T23:27:44Z</time></trkpt><trkpt lat="33.1041289" lon="131.2583362"><ele>1240.64</ele><time>2025-06-25T23:28:02Z</time></trkpt><trkpt lat="33.1042562" lon="131.2581688"><ele>1242.55</ele><time>2025-06-25T23:28:20Z</time></trkpt><trkpt lat="33.1044051" lon="131.2580455"><ele>1244.32</ele><time>2025-06-25T23:28:47Z</time></trkpt><trkpt lat="33.1045472" lon="131.2579117"><ele>1246.2</ele><time>2025-06-25T23:29:08Z</time></trkpt><trkpt lat="33.1046625" lon="131.2577454"><ele>1248.38</ele><time>2025-06-25T23:29:34Z</time></trkpt><trkpt lat="33.1047259" lon="131.2575229"><ele>1251.9266666666665</ele><time>2025-06-25T23:30:01Z</time></trkpt><trkpt lat="33.1048552" lon="131.2573174"><ele>1255.6933333333334</ele><time>2025-06-25T23:30:46Z</time></trkpt><trkpt lat="33.1049996" lon="131.2571812"><ele>1259.0433333333333</ele><time>2025-06-25T23:31:07Z</time></trkpt><trkpt lat="33.1051935" lon="131.2570432"><ele>1261.6766666666667</ele><time>2025-06-25T23:31:49Z</time></trkpt><trkpt lat="33.1053626" lon="131.2569383"><ele>1263.0966666666666</ele><time>2025-06-25T23:32:07Z</time></trkpt><trkpt lat="33.1055367" lon="131.2568498"><ele>1264.7433333333333</ele><time>2025-06-25T23:32:37Z</time></trkpt><trkpt lat="33.105695" lon="131.2567359"><ele>1266.8933333333334</ele><time>2025-06-25T23:32:56Z</time></trkpt><trkpt lat="33.1058736" lon="131.2568354"><ele>1270.1733333333334</ele><time>2025-06-25T23:33:27Z</time></trkpt><trkpt lat="33.1060456" lon="131.2569061"><ele>1272.83</ele><time>2025-06-25T23:33:49Z</time></trkpt><trkpt lat="33.1062786" lon="131.2569824"><ele>1273.4333333333334</ele><time>2025-06-25T23:34:30Z</time></trkpt><trkpt lat="33.1064694" lon="131.2570464"><ele>1272.64</ele><time>2025-06-25T23:35:01Z</time></trkpt><trkpt lat="33.1065862" lon="131.2568552"><ele>1271.6666666666667</ele><time>2025-06-25T23:35:19Z</time></trkpt><trkpt lat="33.1067582" lon="131.2567866"><ele>1271.25</ele><time>2025-06-25T23:35:52Z</time></trkpt><trkpt lat="33.1069463" lon="131.2568075"><ele>1271.68</ele><time>2025-06-25T23:36:13Z</time></trkpt><trkpt lat="33.1070517" lon="131.2566321"><ele>1272.9733333333334</ele><time>2025-06-25T23:36:40Z</time></trkpt><trkpt lat="33.1070373" lon="131.2564103"><ele>1275.3566666666668</ele><time>2025-06-25T23:37:00Z</time></trkpt><trkpt lat="33.1071634" lon="131.2562568"><ele>1277.3433333333335</ele><time>2025-06-25T23:37:30Z</time></trkpt><trkpt lat="33.1072007" lon="131.2560384"><ele>1280.0733333333335</ele><time>2025-06-25T23:37:40Z</time></trkpt><trkpt lat="33.107295" lon="131.2558181"><ele>1281.8999999999999</ele><time>2025-06-25T23:38:16Z</time></trkpt><trkpt lat="33.1073286" lon="131.255581"><ele>1285.9866666666667</ele><time>2025-06-25T23:38:47Z</time></trkpt><trkpt lat="33.1074704" lon="131.2554412"><ele>1289.13</ele><time>2025-06-25T23:39:03Z</time></trkpt><trkpt lat="33.1075991" lon="131.2552461"><ele>1292.2966666666669</ele><time>2025-06-25T23:39:56Z</time></trkpt><trkpt lat="33.107799" lon="131.2551064"><ele>1294.0866666666668</ele><time>2025-06-25T23:40:27Z</time></trkpt><trkpt lat="33.1079707" lon="131.2549738"><ele>1295.5433333333333</ele><time>2025-06-25T23:40:51Z</time></trkpt><trkpt lat="33.1080155" lon="131.2547593"><ele>1299.1533333333334</ele><time>2025-06-25T23:41:06Z</time></trkpt><trkpt lat="33.1074835" lon="131.2547631"><ele>1305.8133333333333</ele><time>2025-06-25T23:41:34Z</time></trkpt><trkpt lat="33.1073043" lon="131.2547368"><ele>1313.6866666666667</ele><time>2025-06-25T23:41:37Z</time></trkpt><trkpt lat="33.1075538" lon="131.2547469"><ele>1316.756666666667</ele><time>2025-06-25T23:41:40Z</time></trkpt><trkpt lat="33.1078759" lon="131.2546892"><ele>1315.0866666666668</ele><time>2025-06-25T23:41:43Z</time></trkpt><trkpt lat="33.1081146" lon="131.2546357"><ele>1309.7500000000002</ele><time>2025-06-25T23:41:49Z</time></trkpt><trkpt lat="33.1081992" lon="131.2544325"><ele>1309.2866666666666</ele><time>2025-06-25T23:42:37Z</time></trkpt><trkpt lat="33.1083429" lon="131.2542971"><ele>1310.0533333333333</ele><time>2025-06-25T23:43:09Z</time></trkpt><trkpt lat="33.1082818" lon="131.2540924"><ele>1314.8933333333334</ele><time>2025-06-25T23:44:40Z</time></trkpt><trkpt lat="33.1081816" lon="131.253891"><ele>1320.0866666666666</ele><time>2025-06-25T23:45:10Z</time></trkpt><trkpt lat="33.1083785" lon="131.2538445"><ele>1323.2133333333334</ele><time>2025-06-25T23:45:46Z</time></trkpt><trkpt lat="33.1085771" lon="131.2538742"><ele>1325.3433333333335</ele><time>2025-06-25T23:46:08Z</time></trkpt><trkpt lat="33.1087713" lon="131.2537675"><ele>1327.0866666666668</ele><time>2025-06-25T23:46:45Z</time></trkpt><trkpt lat="33.1089355" lon="131.2538578"><ele>1330.5166666666667</ele><time>2025-06-25T23:47:12Z</time></trkpt><trkpt lat="33.1090576" lon="131.2540235"><ele>1332.21</ele><time>2025-06-25T23:47:42Z</time></trkpt><trkpt lat="33.1092237" lon="131.2541259"><ele>1331.3300000000002</ele><time>2025-06-25T23:48:55Z</time></trkpt><trkpt lat="33.1093987" lon="131.2541792"><ele>1329.9566666666667</ele><time>2025-06-25T23:49:25Z</time></trkpt><trkpt lat="33.1096057" lon="131.2541496"><ele>1330.1133333333335</ele><time>2025-06-25T23:49:55Z</time></trkpt><trkpt lat="33.1097655" lon="131.2540064"><ele>1330.8233333333335</ele><time>2025-06-25T23:50:22Z</time></trkpt><trkpt lat="33.1099562" lon="131.253907"><ele>1332.2666666666667</ele><time>2025-06-25T23:50:49Z</time></trkpt><trkpt lat="33.1101386" lon="131.253836"><ele>1332.4633333333334</ele><time>2025-06-25T23:51:10Z</time></trkpt><trkpt lat="33.1103145" lon="131.2538864"><ele>1332.21</ele><time>2025-06-25T23:51:41Z</time></trkpt><trkpt lat="33.1105005" lon="131.2538184"><ele>1332.6266666666668</ele><time>2025-06-25T23:52:05Z</time></trkpt><trkpt lat="33.1106643" lon="131.2536802"><ele>1334.1033333333335</ele><time>2025-06-25T23:52:35Z</time></trkpt><trkpt lat="33.1108711" lon="131.2536426"><ele>1336.5166666666667</ele><time>2025-06-25T23:53:26Z</time></trkpt><trkpt lat="33.1109745" lon="131.2538466"><ele>1337.5033333333333</ele><time>2025-06-25T23:54:11Z</time></trkpt><trkpt lat="33.1111136" lon="131.2539919"><ele>1338.1633333333332</ele><time>2025-06-25T23:54:38Z</time></trkpt><trkpt lat="33.1112863" lon="131.2540554"><ele>1338.0666666666666</ele><time>2025-06-25T23:54:58Z</time></trkpt><trkpt lat="33.1114754" lon="131.2539905"><ele>1339.0066666666667</ele><time>2025-06-25T23:55:25Z</time></trkpt><trkpt lat="33.1116691" lon="131.2539495"><ele>1339.3466666666666</ele><time>2025-06-25T23:55:56Z</time></trkpt><trkpt lat="33.1118922" lon="131.2539008"><ele>1339.3833333333332</ele><time>2025-06-25T23:56:17Z</time></trkpt><trkpt lat="33.1119882" lon="131.2537043"><ele>1339.0566666666666</ele><time>2025-06-25T23:57:13Z</time></trkpt><trkpt lat="33.1121363" lon="131.2535787"><ele>1338.6666666666667</ele><time>2025-06-25T23:57:58Z</time></trkpt><trkpt lat="33.1123264" lon="131.2535221"><ele>1337.5566666666666</ele><time>2025-06-25T23:58:37Z</time></trkpt><trkpt lat="33.1124812" lon="131.2533844"><ele>1335.2533333333333</ele><time>2025-06-25T23:59:22Z</time></trkpt><trkpt lat="33.1126603" lon="131.2533168"><ele>1332.3066666666666</ele><time>2025-06-25T23:59:57Z</time></trkpt><trkpt lat="33.1127344" lon="131.2531045"><ele>1330.0</ele><time>2025-06-26T00:00:15Z</time></trkpt><trkpt lat="33.1128318" lon="131.2529217"><ele>1328.2366666666667</ele><time>2025-06-26T00:00:36Z</time></trkpt><trkpt lat="33.1129636" lon="131.2527712"><ele>1327.2066666666667</ele><time>2025-06-26T00:01:16Z</time></trkpt><trkpt lat="33.1130765" lon="131.25256"><ele>1326.0666666666666</ele><time>2025-06-26T00:02:01Z</time></trkpt><trkpt lat="33.1131203" lon="131.2523143"><ele>1324.8566666666668</ele><time>2025-06-26T00:02:31Z</time></trkpt><trkpt lat="33.1130904" lon="131.252096"><ele>1323.4866666666667</ele><time>2025-06-26T00:02:49Z</time></trkpt><trkpt lat="33.1130885" lon="131.2518476"><ele>1322.1966666666667</ele><time>2025-06-26T00:03:10Z</time></trkpt><trkpt lat="33.1130638" lon="131.251615"><ele>1321.3166666666666</ele><time>2025-06-26T00:03:49Z</time></trkpt><trkpt lat="33.11302" lon="131.2513997"><ele>1320.5566666666666</ele><time>2025-06-26T00:04:07Z</time></trkpt><trkpt lat="33.1130119" lon="131.2511567"><ele>1320.2333333333333</ele><time>2025-06-26T00:04:25Z</time></trkpt><trkpt lat="33.1129736" lon="131.250912"><ele>1320.8366666666668</ele><time>2025-06-26T00:05:10Z</time></trkpt><trkpt lat="33.112921" lon="131.2506704"><ele>1322.46</ele><time>2025-06-26T00:05:52Z</time></trkpt><trkpt lat="33.112796" lon="131.2504913"><ele>1324.7466666666667</ele><time>2025-06-26T00:06:22Z</time></trkpt><trkpt lat="33.1126133" lon="131.2503692"><ele>1327.0533333333333</ele><time>2025-06-26T00:06:39Z</time></trkpt><trkpt lat="33.1124499" lon="131.250259"><ele>1328.4833333333333</ele><time>2025-06-26T00:06:57Z</time></trkpt><trkpt lat="33.112356" lon="131.2500745"><ele>1328.76</ele><time>2025-06-26T00:08:22Z</time></trkpt><trkpt lat="33.1123149" lon="131.2498637"><ele>1326.8933333333334</ele><time>2025-06-26T00:08:55Z</time></trkpt><trkpt lat="33.1123485" lon="131.2496437"><ele>1324.1000000000001</ele><time>2025-06-26T00:09:15Z</time></trkpt><trkpt lat="33.1124212" lon="131.2494141"><ele>1320.84</ele><time>2025-06-26T00:09:35Z</time></trkpt><trkpt lat="33.112445" lon="131.2491864"><ele>1319.2333333333333</ele><time>2025-06-26T00:09:56Z</time></trkpt><trkpt lat="33.1124191" lon="131.2489689"><ele>1318.9566666666667</ele><time>2025-06-26T00:10:18Z</time></trkpt><trkpt lat="33.1122698" lon="131.2487302"><ele>1318.7133333333334</ele><time>2025-06-26T00:10:54Z</time></trkpt><trkpt lat="33.1120803" lon="131.248752"><ele>1318.3766666666668</ele><time>2025-06-26T00:11:36Z</time></trkpt><trkpt lat="33.111883" lon="131.2487214"><ele>1317.0866666666668</ele><time>2025-06-26T00:12:03Z</time></trkpt><trkpt lat="33.1117144" lon="131.248825"><ele>1317.5266666666666</ele><time>2025-06-26T00:12:33Z</time></trkpt><trkpt lat="33.1115947" lon="131.2486236"><ele>1316.3166666666666</ele><time>2025-06-26T00:13:49Z</time></trkpt><trkpt lat="33.1115615" lon="131.2484107"><ele>1313.3166666666666</ele><time>2025-06-26T00:14:53Z</time></trkpt><trkpt lat="33.1116575" lon="131.2481864"><ele>1307.0733333333335</ele><time>2025-06-26T00:16:01Z</time></trkpt><trkpt lat="33.1118323" lon="131.2481313"><ele>1299.2233333333334</ele><time>2025-06-26T00:17:05Z</time></trkpt><trkpt lat="33.1120035" lon="131.248055"><ele>1291.6899999999998</ele><time>2025-06-26T00:18:47Z</time></trkpt><trkpt lat="33.1121236" lon="131.247863"><ele>1283.51</ele><time>2025-06-26T00:19:23Z</time></trkpt><trkpt lat="33.1122705" lon="131.2477276"><ele>1275.8733333333332</ele><time>2025-06-26T00:21:47Z</time></trkpt><trkpt lat="33.1124578" lon="131.2477623"><ele>1271.2</ele><time>2025-06-26T00:22:08Z</time></trkpt><trkpt lat="33.1126606" lon="131.2476885"><ele>1268.3666666666668</ele><time>2025-06-26T00:22:50Z</time></trkpt><trkpt lat="33.1128097" lon="131.2474729"><ele>1263.85</ele><time>2025-06-26T00:24:20Z</time></trkpt><trkpt lat="33.1129167" lon="131.2472902"><ele>1256.0566666666666</ele><time>2025-06-26T00:24:50Z</time></trkpt><trkpt lat="33.1129331" lon="131.2469753"><ele>1249.0066666666667</ele><time>2025-06-26T00:26:04Z</time></trkpt><trkpt lat="33.1129364" lon="131.2469109"><ele>1245.9433333333334</ele><time>2025-06-26T00:26:14Z</time></trkpt><trkpt lat="33.1128726" lon="131.2467077"><ele>1245.4366666666667</ele><time>2025-06-26T00:26:31Z</time></trkpt><trkpt lat="33.1130589" lon="131.2466399"><ele>1243.45</ele><time>2025-06-26T00:27:08Z</time></trkpt><trkpt lat="33.1132437" lon="131.2464487"><ele>1239.93</ele><time>2025-06-26T00:28:17Z</time></trkpt><trkpt lat="33.1134163" lon="131.2462881"><ele>1234.1633333333334</ele><time>2025-06-26T00:28:54Z</time></trkpt><trkpt lat="33.1136066" lon="131.2462549"><ele>1229.1166666666668</ele><time>2025-06-26T00:29:18Z</time></trkpt><trkpt lat="33.1137632" lon="131.2461208"><ele>1223.8766666666668</ele><time>2025-06-26T00:30:11Z</time></trkpt><trkpt lat="33.1140273" lon="131.2461427"><ele>1218.8366666666668</ele><time>2025-06-26T00:31:01Z</time></trkpt><trkpt lat="33.1141876" lon="131.2460369"><ele>1213.2666666666667</ele><time>2025-06-26T00:31:56Z</time></trkpt><trkpt lat="33.1142587" lon="131.2458384"><ele>1207.7966666666666</ele><time>2025-06-26T00:32:32Z</time></trkpt><trkpt lat="33.1144411" lon="131.2456992"><ele>1200.5466666666664</ele><time>2025-06-26T00:33:05Z</time></trkpt><trkpt lat="33.1144939" lon="131.2454699"><ele>1191.9933333333336</ele><time>2025-06-26T00:34:27Z</time></trkpt><trkpt lat="33.1145388" lon="131.2452394"><ele>1184.98</ele><time>2025-06-26T00:34:51Z</time></trkpt><trkpt lat="33.1145792" lon="131.2450073"><ele>1181.6466666666665</ele><time>2025-06-26T00:35:30Z</time></trkpt><trkpt lat="33.1146498" lon="131.2447709"><ele>1180.1033333333335</ele><time>2025-06-26T00:35:57Z</time></trkpt><trkpt lat="33.1146794" lon="131.2445281"><ele>1178.0133333333333</ele><time>2025-06-26T00:36:45Z</time></trkpt><trkpt lat="33.1147294" lon="131.2443001"><ele>1174.0366666666666</ele><time>2025-06-26T00:37:12Z</time></trkpt><trkpt lat="33.1148152" lon="131.2441051"><ele>1170.1066666666666</ele><time>2025-06-26T00:37:33Z</time></trkpt><trkpt lat="33.1150141" lon="131.2440867"><ele>1166.2099999999998</ele><time>2025-06-26T00:38:15Z</time></trkpt><trkpt lat="33.1152224" lon="131.2439911"><ele>1162.7166666666665</ele><time>2025-06-26T00:38:39Z</time></trkpt><trkpt lat="33.1153643" lon="131.2438463"><ele>1159.5</ele><time>2025-06-26T00:38:57Z</time></trkpt><trkpt lat="33.1155037" lon="131.2437046"><ele>1156.1366666666665</ele><time>2025-06-26T00:39:15Z</time></trkpt><trkpt lat="33.1155866" lon="131.2435135"><ele>1153.75</ele><time>2025-06-26T00:39:33Z</time></trkpt><trkpt lat="33.115665" lon="131.2433156"><ele>1151.4633333333334</ele><time>2025-06-26T00:39:57Z</time></trkpt><trkpt lat="33.1157506" lon="131.2431128"><ele>1148.7666666666667</ele><time>2025-06-26T00:40:15Z</time></trkpt><trkpt lat="33.1158485" lon="131.2429117"><ele>1144.8133333333333</ele><time>2025-06-26T00:40:42Z</time></trkpt><trkpt lat="33.1159795" lon="131.2427427"><ele>1140.5666666666666</ele><time>2025-06-26T00:41:05Z</time></trkpt><trkpt lat="33.1161247" lon="131.2425547"><ele>1135.9833333333333</ele><time>2025-06-26T00:41:36Z</time></trkpt><trkpt lat="33.1162691" lon="131.2423979"><ele>1131.4466666666667</ele><time>2025-06-26T00:42:04Z</time></trkpt><trkpt lat="33.1163807" lon="131.2422247"><ele>1127.18</ele><time>2025-06-26T00:42:21Z</time></trkpt><trkpt lat="33.1164821" lon="131.2420329"><ele>1124.12</ele><time>2025-06-26T00:42:45Z</time></trkpt><trkpt lat="33.1165495" lon="131.2418114"><ele>1122.4033333333334</ele><time>2025-06-26T00:43:10Z</time></trkpt><trkpt lat="33.1166845" lon="131.2416587"><ele>1119.1899999999998</ele><time>2025-06-26T00:43:37Z</time></trkpt><trkpt lat="33.1167156" lon="131.2414402"><ele>1114.4366666666667</ele><time>2025-06-26T00:44:01Z</time></trkpt><trkpt lat="33.1167628" lon="131.241209"><ele>1109.2633333333333</ele><time>2025-06-26T00:44:31Z</time></trkpt><trkpt lat="33.1167353" lon="131.240997"><ele>1106.0133333333333</ele><time>2025-06-26T00:44:46Z</time></trkpt><trkpt lat="33.1166144" lon="131.2408251"><ele>1103.8133333333333</ele><time>2025-06-26T00:45:01Z</time></trkpt><trkpt lat="33.1165249" lon="131.2406123"><ele>1100.8766666666668</ele><time>2025-06-26T00:45:31Z</time></trkpt><trkpt lat="33.1164827" lon="131.2403753"><ele>1097.78</ele><time>2025-06-26T00:45:58Z</time></trkpt><trkpt lat="33.1164902" lon="131.2401271"><ele>1094.3</ele><time>2025-06-26T00:46:37Z</time></trkpt><trkpt lat="33.1165497" lon="131.2399221"><ele>1090.93</ele><time>2025-06-26T00:48:32Z</time></trkpt><trkpt lat="33.1163535" lon="131.2399003"><ele>1089.6966666666667</ele><time>2025-06-26T00:48:53Z</time></trkpt><trkpt lat="33.116414" lon="131.2396678"><ele>1088.5733333333335</ele><time>2025-06-26T00:49:23Z</time></trkpt><trkpt lat="33.1165922" lon="131.2396124"><ele>1086.68</ele><time>2025-06-26T00:50:02Z</time></trkpt><trkpt lat="33.1164939" lon="131.2394298"><ele>1082.97</ele><time>2025-06-26T00:50:23Z</time></trkpt><trkpt lat="33.1165692" lon="131.239235"><ele>1079.0266666666666</ele><time>2025-06-26T00:50:41Z</time></trkpt><trkpt lat="33.1166864" lon="131.2390562"><ele>1076.91</ele><time>2025-06-26T00:51:06Z</time></trkpt><trkpt lat="33.1166417" lon="131.238827"><ele>1074.4866666666667</ele><time>2025-06-26T00:51:33Z</time></trkpt><trkpt lat="33.1166633" lon="131.2385932"><ele>1072.5466666666669</ele><time>2025-06-26T00:51:57Z</time></trkpt><trkpt lat="33.116533" lon="131.2384193"><ele>1070.66</ele><time>2025-06-26T00:52:27Z</time></trkpt><trkpt lat="33.1164718" lon="131.2382069"><ele>1068.6866666666667</ele><time>2025-06-26T00:52:50Z</time></trkpt><trkpt lat="33.1164834" lon="131.2379659"><ele>1066.4833333333333</ele><time>2025-06-26T00:53:24Z</time></trkpt><trkpt lat="33.1165158" lon="131.23774"><ele>1063.4266666666665</ele><time>2025-06-26T00:53:59Z</time></trkpt><trkpt lat="33.1165157" lon="131.2375035"><ele>1060.4666666666667</ele><time>2025-06-26T00:54:23Z</time></trkpt><trkpt lat="33.1166351" lon="131.2373343"><ele>1057.9933333333333</ele><time>2025-06-26T00:54:41Z</time></trkpt><trkpt lat="33.1166732" lon="131.2371055"><ele>1056.3533333333332</ele><time>2025-06-26T00:55:06Z</time></trkpt><trkpt lat="33.1165968" lon="131.2368594"><ele>1055.2133333333334</ele><time>2025-06-26T00:55:30Z</time></trkpt><trkpt lat="33.116386" lon="131.2367329"><ele>1054.3566666666666</ele><time>2025-06-26T00:55:48Z</time></trkpt><trkpt lat="33.1163868" lon="131.236502"><ele>1053.4166666666667</ele><time>2025-06-26T00:56:01Z</time></trkpt><trkpt lat="33.1162237" lon="131.2363423"><ele>1051.73</ele><time>2025-06-26T00:56:28Z</time></trkpt><trkpt lat="33.1161338" lon="131.2361361"><ele>1049.5533333333333</ele><time>2025-06-26T00:56:46Z</time></trkpt><trkpt lat="33.116022" lon="131.235927"><ele>1047.25</ele><time>2025-06-26T00:57:03Z</time></trkpt><trkpt lat="33.1159402" lon="131.2356873"><ele>1045.8733333333332</ele><time>2025-06-26T00:57:19Z</time></trkpt><trkpt lat="33.1158208" lon="131.2355116"><ele>1046.03</ele><time>2025-06-26T00:57:45Z</time></trkpt><trkpt lat="33.1157075" lon="131.2353405"><ele>1046.9733333333334</ele><time>2025-06-26T00:58:00Z</time></trkpt><trkpt lat="33.1156623" lon="131.2351167"><ele>1048.3266666666666</ele><time>2025-06-26T00:58:15Z</time></trkpt><trkpt lat="33.1156152" lon="131.2348963"><ele>1049.4833333333333</ele><time>2025-06-26T00:58:29Z</time></trkpt><trkpt lat="33.1155341" lon="131.2346677"><ele>1050.7666666666667</ele><time>2025-06-26T00:58:43Z</time></trkpt><trkpt lat="33.1154992" lon="131.2344534"><ele>1050.8333333333333</ele><time>2025-06-26T00:58:58Z</time></trkpt><trkpt lat="33.1154393" lon="131.2342306"><ele>1051.0533333333333</ele><time>2025-06-26T00:59:16Z</time></trkpt><trkpt lat="33.1154799" lon="131.2340136"><ele>1051.1566666666668</ele><time>2025-06-26T00:59:34Z</time></trkpt><trkpt lat="33.1154977" lon="131.2337905"><ele>1051.26</ele><time>2025-06-26T00:59:49Z</time></trkpt><trkpt lat="33.1155686" lon="131.2335613"><ele>1050.47</ele><time>2025-06-26T01:00:10Z</time></trkpt><trkpt lat="33.1156791" lon="131.2333563"><ele>1049.4233333333332</ele><time>2025-06-26T01:00:24Z</time></trkpt><trkpt lat="33.1158215" lon="131.233166"><ele>1048.91</ele><time>2025-06-26T01:00:40Z</time></trkpt><trkpt lat="33.1158982" lon="131.2329575"><ele>1048.84</ele><time>2025-06-26T01:01:01Z</time></trkpt><trkpt lat="33.1160089" lon="131.2327157"><ele>1048.3766666666666</ele><time>2025-06-26T01:01:16Z</time></trkpt><trkpt lat="33.1160451" lon="131.232499"><ele>1047.9933333333333</ele><time>2025-06-26T01:01:46Z</time></trkpt><trkpt lat="33.1161791" lon="131.2323454"><ele>1047.2666666666667</ele><time>2025-06-26T01:02:02Z</time></trkpt><trkpt lat="33.1162315" lon="131.2321387"><ele>1047.0566666666666</ele><time>2025-06-26T01:02:16Z</time></trkpt><trkpt lat="33.1164262" lon="131.2320548"><ele>1046.42</ele><time>2025-06-26T01:02:37Z</time></trkpt><trkpt lat="33.1165662" lon="131.2318968"><ele>1045.79</ele><time>2025-06-26T01:04:47Z</time></trkpt><trkpt lat="33.1167077" lon="131.2317615"><ele>1044.82</ele><time>2025-06-26T01:05:03Z</time></trkpt><trkpt lat="33.1168764" lon="131.2316225"><ele>1043.9366666666667</ele><time>2025-06-26T01:05:23Z</time></trkpt><trkpt lat="33.1170576" lon="131.2314787"><ele>1042.8866666666665</ele><time>2025-06-26T01:06:15Z</time></trkpt><trkpt lat="33.1172228" lon="131.2313406"><ele>1041.7</ele><time>2025-06-26T01:06:33Z</time></trkpt><trkpt lat="33.1173761" lon="131.2312116"><ele>1040.6766666666667</ele><time>2025-06-26T01:06:51Z</time></trkpt><trkpt lat="33.1175399" lon="131.2310908"><ele>1039.82</ele><time>2025-06-26T01:07:09Z</time></trkpt><trkpt lat="33.1177052" lon="131.2309605"><ele>1039.1066666666666</ele><time>2025-06-26T01:07:27Z</time></trkpt><trkpt lat="33.1178093" lon="131.2307815"><ele>1038.1533333333334</ele><time>2025-06-26T01:07:48Z</time></trkpt><trkpt lat="33.1179762" lon="131.2306343"><ele>1036.7566666666667</ele><time>2025-06-26T01:08:18Z</time></trkpt><trkpt lat="33.1179755" lon="131.2304057"><ele>1035.74</ele><time>2025-06-26T01:08:33Z</time></trkpt><trkpt lat="33.1179671" lon="131.2301886"><ele>1035.6533333333334</ele><time>2025-06-26T01:08:47Z</time></trkpt><trkpt lat="33.1180923" lon="131.2300195"><ele>1036.4033333333334</ele><time>2025-06-26T01:09:08Z</time></trkpt><trkpt lat="33.1181369" lon="131.2297995"><ele>1037.25</ele><time>2025-06-26T01:09:30Z</time></trkpt><trkpt lat="33.1182674" lon="131.2296334"><ele>1037.4933333333333</ele><time>2025-06-26T01:09:51Z</time></trkpt><trkpt lat="33.1181554" lon="131.2294555"><ele>1037.6666666666667</ele><time>2025-06-26T01:10:18Z</time></trkpt></trkseg></trk></gpx>