<?xml version='1.0' encoding='UTF-8'?><gpx creator="YAMAP - https://yamap.com" xsi:schemaLocation="http://www.topografix.com/GPX/1/1 http://www.topografix.com/GPX/1/1/gpx.xsd" version="1.1" xmlns="http://www.topografix.com/GPX/1/1" xmlns:xsi="http://www.w3.org/2001/XMLSchema-instance"><metadata><bounds maxlat="35.8088483" maxlon="139.0972527" minlat="35.7699611" minlon="139.0489498"/></metadata><trk><name>御前山</name><number>1</number><trkseg><trkpt lat="35.7926807" lon="139.0492863"><ele>532.42</ele><time>2024-06-07T23:19:48Z</time></trkpt><trkpt lat="35.7925916" lon="139.0490797"><ele>532.3199999999999</ele><time>2024-06-07T23:20:19Z</time></trkpt><trkpt lat="35.7924107" lon="139.0489498"><ele>532.0166666666665</ele><time>2024-06-07T23:20:40Z</time></trkpt><trkpt lat="35.7923784" lon="139.0492129"><ele>531.5266666666668</ele><time>2024-06-07T23:21:13Z</time></trkpt><trkpt lat="35.792207" lon="139.0492931"><ele>530.8366666666667</ele><time>2024-06-07T23:21:22Z</time></trkpt><trkpt lat="35.7920731" lon="139.0494718"><ele>530.41</ele><time>2024-06-07T23:21:34Z</time></trkpt><trkpt lat="35.7919081" lon="139.0496125"><ele>529.1866666666666</ele><time>2024-06-07T23:21:49Z</time></trkpt><trkpt lat="35.7919138" lon="139.049877"><ele>529.2366666666666</ele><time>2024-06-07T23:22:01Z</time></trkpt><trkpt lat="35.7918551" lon="139.0500919"><ele>529.4899999999999</ele><time>2024-06-07T23:22:16Z</time></trkpt><trkpt lat="35.7917268" lon="139.0502633"><ele>530.9033333333333</ele><time>2024-06-07T23:22:31Z</time></trkpt><trkpt lat="35.7916554" lon="139.0505202"><ele>531.5799999999999</ele><time>2024-06-07T23:22:52Z</time></trkpt><trkpt lat="35.7915594" lon="139.0507479"><ele>531.79</ele><time>2024-06-07T23:23:07Z</time></trkpt><trkpt lat="35.7913716" lon="139.0508336"><ele>531.2133333333333</ele><time>2024-06-07T23:23:22Z</time></trkpt><trkpt lat="35.7911774" lon="139.0508876"><ele>529.5766666666667</ele><time>2024-06-07T23:23:46Z</time></trkpt><trkpt lat="35.7909495" lon="139.0508435"><ele>527.4933333333333</ele><time>2024-06-07T23:24:01Z</time></trkpt><trkpt lat="35.7907567" lon="139.0508257"><ele>526.57</ele><time>2024-06-07T23:24:16Z</time></trkpt><trkpt lat="35.7905677" lon="139.0508149"><ele>527.2266666666666</ele><time>2024-06-07T23:24:28Z</time></trkpt><trkpt lat="35.7903516" lon="139.0507792"><ele>527.5866666666666</ele><time>2024-06-07T23:24:43Z</time></trkpt><trkpt lat="35.7901583" lon="139.0507376"><ele>527.3266666666667</ele><time>2024-06-07T23:24:58Z</time></trkpt><trkpt lat="35.7899635" lon="139.050711"><ele>526.9333333333334</ele><time>2024-06-07T23:25:10Z</time></trkpt><trkpt lat="35.7897415" lon="139.0506733"><ele>527.5566666666667</ele><time>2024-06-07T23:25:25Z</time></trkpt><trkpt lat="35.7895356" lon="139.0506368"><ele>527.93</ele><time>2024-06-07T23:25:39Z</time></trkpt><trkpt lat="35.7893313" lon="139.0506898"><ele>527.2933333333333</ele><time>2024-06-07T23:25:54Z</time></trkpt><trkpt lat="35.7891338" lon="139.0506278"><ele>526.55</ele><time>2024-06-07T23:26:06Z</time></trkpt><trkpt lat="35.7889005" lon="139.0505752"><ele>527.4566666666666</ele><time>2024-06-07T23:26:20Z</time></trkpt><trkpt lat="35.7887008" lon="139.050577"><ele>528.0100000000001</ele><time>2024-06-07T23:26:49Z</time></trkpt><trkpt lat="35.7885153" lon="139.0505697"><ele>527.84</ele><time>2024-06-07T23:27:04Z</time></trkpt><trkpt lat="35.7883303" lon="139.0505759"><ele>526.5100000000001</ele><time>2024-06-07T23:27:20Z</time></trkpt><trkpt lat="35.7881097" lon="139.0506651"><ele>527.86</ele><time>2024-06-07T23:27:36Z</time></trkpt><trkpt lat="35.7880672" lon="139.0509075"><ele>530.5133333333333</ele><time>2024-06-07T23:27:51Z</time></trkpt><trkpt lat="35.7881869" lon="139.0511005"><ele>531.3666666666667</ele><time>2024-06-07T23:28:06Z</time></trkpt><trkpt lat="35.788079" lon="139.0513242"><ele>531.7033333333334</ele><time>2024-06-07T23:28:27Z</time></trkpt><trkpt lat="35.7879328" lon="139.0514888"><ele>531.5833333333334</ele><time>2024-06-07T23:28:42Z</time></trkpt><trkpt lat="35.7877477" lon="139.0514896"><ele>535.06</ele><time>2024-06-07T23:29:09Z</time></trkpt><trkpt lat="35.7875509" lon="139.0514198"><ele>541.3533333333334</ele><time>2024-06-07T23:29:30Z</time></trkpt><trkpt lat="35.7873569" lon="139.0514223"><ele>549.9499999999999</ele><time>2024-06-07T23:29:57Z</time></trkpt><trkpt lat="35.7871639" lon="139.0514458"><ele>562.3333333333334</ele><time>2024-06-07T23:30:12Z</time></trkpt><trkpt lat="35.7873195" lon="139.0516024"><ele>563.3366666666666</ele><time>2024-06-07T23:30:30Z</time></trkpt><trkpt lat="35.7874842" lon="139.0514203"><ele>561.55</ele><time>2024-06-07T23:30:59Z</time></trkpt><trkpt lat="35.7874748" lon="139.0511972"><ele>555.9866666666667</ele><time>2024-06-07T23:31:37Z</time></trkpt><trkpt lat="35.7871378" lon="139.0512793"><ele>564.76</ele><time>2024-06-07T23:32:00Z</time></trkpt><trkpt lat="35.7869866" lon="139.0514071"><ele>574.8133333333334</ele><time>2024-06-07T23:32:42Z</time></trkpt><trkpt lat="35.7868337" lon="139.051576"><ele>585.5366666666667</ele><time>2024-06-07T23:33:33Z</time></trkpt><trkpt lat="35.7866697" lon="139.0517274"><ele>591.9666666666667</ele><time>2024-06-07T23:33:57Z</time></trkpt><trkpt lat="35.7865189" lon="139.0518619"><ele>598.3133333333334</ele><time>2024-06-07T23:34:36Z</time></trkpt><trkpt lat="35.7863962" lon="139.0520287"><ele>603.1133333333333</ele><time>2024-06-07T23:34:57Z</time></trkpt><trkpt lat="35.7863271" lon="139.0522524"><ele>606.8933333333334</ele><time>2024-06-07T23:35:24Z</time></trkpt><trkpt lat="35.786235" lon="139.0524473"><ele>611.4633333333333</ele><time>2024-06-07T23:35:41Z</time></trkpt><trkpt lat="35.786192" lon="139.0526645"><ele>618.6666666666666</ele><time>2024-06-07T23:37:09Z</time></trkpt><trkpt lat="35.7860194" lon="139.0527543"><ele>626.6233333333333</ele><time>2024-06-07T23:37:57Z</time></trkpt><trkpt lat="35.7858358" lon="139.0527276"><ele>636.44</ele><time>2024-06-07T23:39:09Z</time></trkpt><trkpt lat="35.7856777" lon="139.0528349"><ele>646.2133333333333</ele><time>2024-06-07T23:40:39Z</time></trkpt><trkpt lat="35.7855014" lon="139.0528917"><ele>660.5733333333333</ele><time>2024-06-07T23:42:39Z</time></trkpt><trkpt lat="35.7853665" lon="139.0530455"><ele>675.8766666666667</ele><time>2024-06-07T23:43:57Z</time></trkpt><trkpt lat="35.785235" lon="139.0532005"><ele>689.83</ele><time>2024-06-07T23:45:27Z</time></trkpt><trkpt lat="35.7851628" lon="139.0534056"><ele>700.6899999999999</ele><time>2024-06-07T23:45:57Z</time></trkpt><trkpt lat="35.7850518" lon="139.053591"><ele>709.2466666666666</ele><time>2024-06-07T23:46:51Z</time></trkpt><trkpt lat="35.7849081" lon="139.0537252"><ele>717.4566666666666</ele><time>2024-06-07T23:47:51Z</time></trkpt><trkpt lat="35.7847731" lon="139.0538857"><ele>723.4266666666667</ele><time>2024-06-07T23:48:09Z</time></trkpt><trkpt lat="35.7847151" lon="139.0540968"><ele>728.9166666666666</ele><time>2024-06-07T23:48:24Z</time></trkpt><trkpt lat="35.7845896" lon="139.0542746"><ele>734.21</ele><time>2024-06-07T23:48:45Z</time></trkpt><trkpt lat="35.7844492" lon="139.0544233"><ele>737.9366666666666</ele><time>2024-06-07T23:49:03Z</time></trkpt><trkpt lat="35.7843668" lon="139.0546542"><ele>739.7366666666667</ele><time>2024-06-07T23:49:21Z</time></trkpt><trkpt lat="35.7842694" lon="139.0548668"><ele>738.36</ele><time>2024-06-07T23:49:39Z</time></trkpt><trkpt lat="35.7841179" lon="139.0550418"><ele>735.5733333333333</ele><time>2024-06-07T23:50:03Z</time></trkpt><trkpt lat="35.7839986" lon="139.0552353"><ele>733.4466666666667</ele><time>2024-06-07T23:50:24Z</time></trkpt><trkpt lat="35.7839784" lon="139.055462"><ele>732.8233333333333</ele><time>2024-06-07T23:50:42Z</time></trkpt><trkpt lat="35.783914" lon="139.0556989"><ele>733.21</ele><time>2024-06-07T23:51:18Z</time></trkpt><trkpt lat="35.7838818" lon="139.0559467"><ele>734.6833333333334</ele><time>2024-06-07T23:51:42Z</time></trkpt><trkpt lat="35.7838782" lon="139.0561721"><ele>737.5799999999999</ele><time>2024-06-07T23:52:41Z</time></trkpt><trkpt lat="35.7837837" lon="139.0563744"><ele>744.2800000000001</ele><time>2024-06-07T23:53:50Z</time></trkpt><trkpt lat="35.7837676" lon="139.0566025"><ele>751.77</ele><time>2024-06-07T23:54:38Z</time></trkpt><trkpt lat="35.7837399" lon="139.0568406"><ele>760.5300000000001</ele><time>2024-06-07T23:55:11Z</time></trkpt><trkpt lat="35.7837011" lon="139.0570804"><ele>768.1733333333333</ele><time>2024-06-07T23:56:11Z</time></trkpt><trkpt lat="35.7836676" lon="139.0573035"><ele>776.1166666666667</ele><time>2024-06-07T23:56:35Z</time></trkpt><trkpt lat="35.7836529" lon="139.0575387"><ele>783.0633333333334</ele><time>2024-06-07T23:57:32Z</time></trkpt><trkpt lat="35.7836148" lon="139.0577555"><ele>791.0</ele><time>2024-06-07T23:58:08Z</time></trkpt><trkpt lat="35.7835964" lon="139.0579881"><ele>799.4266666666667</ele><time>2024-06-07T23:59:08Z</time></trkpt><trkpt lat="35.7835487" lon="139.0582419"><ele>807.1033333333334</ele><time>2024-06-07T23:59:32Z</time></trkpt><trkpt lat="35.7834342" lon="139.0584438"><ele>812.1700000000001</ele><time>2024-06-07T23:59:50Z</time></trkpt><trkpt lat="35.7833917" lon="139.0586639"><ele>815.3133333333334</ele><time>2024-06-08T00:00:23Z</time></trkpt><trkpt lat="35.7832176" lon="139.0587742"><ele>819.5300000000001</ele><time>2024-06-08T00:00:53Z</time></trkpt><trkpt lat="35.7830783" lon="139.0589174"><ele>825.0666666666666</ele><time>2024-06-08T00:02:14Z</time></trkpt><trkpt lat="35.7829067" lon="139.0589937"><ele>832.85</ele><time>2024-06-08T00:03:08Z</time></trkpt><trkpt lat="35.7827044" lon="139.0591019"><ele>841.36</ele><time>2024-06-08T00:03:32Z</time></trkpt><trkpt lat="35.7825179" lon="139.0591038"><ele>849.7166666666667</ele><time>2024-06-08T00:04:17Z</time></trkpt><trkpt lat="35.7823368" lon="139.0590905"><ele>856.1933333333333</ele><time>2024-06-08T00:04:41Z</time></trkpt><trkpt lat="35.7821646" lon="139.0591595"><ele>861.6933333333333</ele><time>2024-06-08T00:05:20Z</time></trkpt><trkpt lat="35.7819761" lon="139.0592547"><ele>866.27</ele><time>2024-06-08T00:06:05Z</time></trkpt><trkpt lat="35.7818185" lon="139.0593963"><ele>871.82</ele><time>2024-06-08T00:06:38Z</time></trkpt><trkpt lat="35.7816377" lon="139.0595006"><ele>876.8733333333334</ele><time>2024-06-08T00:06:56Z</time></trkpt><trkpt lat="35.7814824" lon="139.0596491"><ele>881.4266666666667</ele><time>2024-06-08T00:07:26Z</time></trkpt><trkpt lat="35.7813078" lon="139.0597316"><ele>886.6133333333333</ele><time>2024-06-08T00:07:59Z</time></trkpt><trkpt lat="35.7811465" lon="139.0598416"><ele>891.9133333333333</ele><time>2024-06-08T00:08:41Z</time></trkpt><trkpt lat="35.7809626" lon="139.0598371"><ele>899.2133333333333</ele><time>2024-06-08T00:09:08Z</time></trkpt><trkpt lat="35.7807527" lon="139.0598661"><ele>905.7266666666666</ele><time>2024-06-08T00:09:56Z</time></trkpt><trkpt lat="35.7805799" lon="139.0599396"><ele>912.5033333333334</ele><time>2024-06-08T00:10:53Z</time></trkpt><trkpt lat="35.7803898" lon="139.0599876"><ele>919.5133333333333</ele><time>2024-06-08T00:11:32Z</time></trkpt><trkpt lat="35.7801881" lon="139.0600685"><ele>927.2133333333335</ele><time>2024-06-08T00:12:20Z</time></trkpt><trkpt lat="35.7800036" lon="139.0601776"><ele>934.7066666666668</ele><time>2024-06-08T00:14:26Z</time></trkpt><trkpt lat="35.7800043" lon="139.0604366"><ele>939.8666666666668</ele><time>2024-06-08T00:14:41Z</time></trkpt><trkpt lat="35.7798721" lon="139.0606464"><ele>942.4933333333333</ele><time>2024-06-08T00:15:02Z</time></trkpt><trkpt lat="35.7797735" lon="139.0608596"><ele>944.5</ele><time>2024-06-08T00:15:23Z</time></trkpt><trkpt lat="35.7797057" lon="139.0610782"><ele>946.6333333333333</ele><time>2024-06-08T00:15:50Z</time></trkpt><trkpt lat="35.7796168" lon="139.0612966"><ele>948.84</ele><time>2024-06-08T00:16:08Z</time></trkpt><trkpt lat="35.7795322" lon="139.0615114"><ele>950.3766666666667</ele><time>2024-06-08T00:16:26Z</time></trkpt><trkpt lat="35.7794599" lon="139.0617237"><ele>951.2066666666666</ele><time>2024-06-08T00:16:53Z</time></trkpt><trkpt lat="35.7793417" lon="139.0619592"><ele>951.9200000000001</ele><time>2024-06-08T00:17:14Z</time></trkpt><trkpt lat="35.7793262" lon="139.0621877"><ele>952.2033333333333</ele><time>2024-06-08T00:17:26Z</time></trkpt><trkpt lat="35.7792955" lon="139.0624597"><ele>952.3133333333334</ele><time>2024-06-08T00:17:44Z</time></trkpt><trkpt lat="35.7792897" lon="139.0627212"><ele>952.0633333333334</ele><time>2024-06-08T00:18:03Z</time></trkpt><trkpt lat="35.7793449" lon="139.0629324"><ele>950.0466666666666</ele><time>2024-06-08T00:18:21Z</time></trkpt><trkpt lat="35.7793367" lon="139.0631602"><ele>946.8699999999999</ele><time>2024-06-08T00:18:46Z</time></trkpt><trkpt lat="35.7793131" lon="139.0634035"><ele>943.3833333333333</ele><time>2024-06-08T00:19:04Z</time></trkpt><trkpt lat="35.7793848" lon="139.0636171"><ele>942.4500000000002</ele><time>2024-06-08T00:19:22Z</time></trkpt><trkpt lat="35.7794189" lon="139.0638518"><ele>945.4966666666668</ele><time>2024-06-08T00:20:16Z</time></trkpt><trkpt lat="35.779386" lon="139.0640731"><ele>950.3366666666667</ele><time>2024-06-08T00:20:40Z</time></trkpt><trkpt lat="35.779283" lon="139.0642762"><ele>958.23</ele><time>2024-06-08T00:21:52Z</time></trkpt><trkpt lat="35.7792354" lon="139.0645028"><ele>965.7399999999999</ele><time>2024-06-08T00:22:40Z</time></trkpt><trkpt lat="35.7792428" lon="139.0647368"><ele>975.48</ele><time>2024-06-08T00:23:22Z</time></trkpt><trkpt lat="35.779269" lon="139.0649682"><ele>985.0500000000001</ele><time>2024-06-08T00:24:28Z</time></trkpt><trkpt lat="35.7792096" lon="139.0651983"><ele>994.4866666666667</ele><time>2024-06-08T00:25:00Z</time></trkpt><trkpt lat="35.7791002" lon="139.065413"><ele>1001.3566666666666</ele><time>2024-06-08T00:25:22Z</time></trkpt><trkpt lat="35.7790699" lon="139.0656626"><ele>1006.36</ele><time>2024-06-08T00:25:37Z</time></trkpt><trkpt lat="35.7789721" lon="139.0658703"><ele>1009.3466666666667</ele><time>2024-06-08T00:25:54Z</time></trkpt><trkpt lat="35.7789024" lon="139.0660866"><ele>1012.0466666666667</ele><time>2024-06-08T00:26:22Z</time></trkpt><trkpt lat="35.7787598" lon="139.0662281"><ele>1013.12</ele><time>2024-06-08T00:26:43Z</time></trkpt><trkpt lat="35.7786168" lon="139.0663758"><ele>1014.5666666666666</ele><time>2024-06-08T00:27:01Z</time></trkpt><trkpt lat="35.778484" lon="139.0665303"><ele>1015.1966666666667</ele><time>2024-06-08T00:27:19Z</time></trkpt><trkpt lat="35.7783853" lon="139.0667268"><ele>1016.6566666666668</ele><time>2024-06-08T00:27:37Z</time></trkpt><trkpt lat="35.7782127" lon="139.0668324"><ele>1017.83</ele><time>2024-06-08T00:27:58Z</time></trkpt><trkpt lat="35.7780304" lon="139.0669439"><ele>1019.6666666666666</ele><time>2024-06-08T00:28:16Z</time></trkpt><trkpt lat="35.7778489" lon="139.0670476"><ele>1021.3866666666668</ele><time>2024-06-08T00:28:34Z</time></trkpt><trkpt lat="35.7777178" lon="139.0672187"><ele>1022.7766666666666</ele><time>2024-06-08T00:28:58Z</time></trkpt><trkpt lat="35.7775895" lon="139.0673745"><ele>1024.1266666666668</ele><time>2024-06-08T00:29:22Z</time></trkpt><trkpt lat="35.7774037" lon="139.0674769"><ele>1026.9766666666667</ele><time>2024-06-08T00:29:42Z</time></trkpt><trkpt lat="35.7772146" lon="139.0674965"><ele>1031.7133333333334</ele><time>2024-06-08T00:30:13Z</time></trkpt><trkpt lat="35.7770645" lon="139.0676364"><ele>1037.2700000000002</ele><time>2024-06-08T00:31:49Z</time></trkpt><trkpt lat="35.7768829" lon="139.0677321"><ele>1041.2266666666667</ele><time>2024-06-08T00:32:07Z</time></trkpt><trkpt lat="35.7767662" lon="139.0679389"><ele>1044.2766666666666</ele><time>2024-06-08T00:32:28Z</time></trkpt><trkpt lat="35.7766122" lon="139.0681036"><ele>1047.6533333333334</ele><time>2024-06-08T00:32:48Z</time></trkpt><trkpt lat="35.7764533" lon="139.0682114"><ele>1052.55</ele><time>2024-06-08T00:33:22Z</time></trkpt><trkpt lat="35.7762653" lon="139.0682799"><ele>1056.9366666666667</ele><time>2024-06-08T00:34:10Z</time></trkpt><trkpt lat="35.7760864" lon="139.0683152"><ele>1061.9766666666667</ele><time>2024-06-08T00:34:40Z</time></trkpt><trkpt lat="35.7759172" lon="139.068403"><ele>1067.32</ele><time>2024-06-08T00:35:31Z</time></trkpt><trkpt lat="35.775743" lon="139.0684653"><ele>1076.1899999999998</ele><time>2024-06-08T00:37:26Z</time></trkpt><trkpt lat="35.7755837" lon="139.0685753"><ele>1085.14</ele><time>2024-06-08T00:37:53Z</time></trkpt><trkpt lat="35.7754015" lon="139.0686135"><ele>1094.5233333333333</ele><time>2024-06-08T00:38:50Z</time></trkpt><trkpt lat="35.7752331" lon="139.068711"><ele>1102.5766666666668</ele><time>2024-06-08T00:39:11Z</time></trkpt><trkpt lat="35.7750681" lon="139.0688542"><ele>1110.7133333333334</ele><time>2024-06-08T00:39:41Z</time></trkpt><trkpt lat="35.7749421" lon="139.0690158"><ele>1116.65</ele><time>2024-06-08T00:40:20Z</time></trkpt><trkpt lat="35.7748036" lon="139.0691936"><ele>1120.9666666666665</ele><time>2024-06-08T00:41:05Z</time></trkpt><trkpt lat="35.7746575" lon="139.0693763"><ele>1123.49</ele><time>2024-06-08T00:41:20Z</time></trkpt><trkpt lat="35.7745325" lon="139.0695518"><ele>1126.5</ele><time>2024-06-08T00:41:37Z</time></trkpt><trkpt lat="35.774385" lon="139.0696863"><ele>1128.9766666666667</ele><time>2024-06-08T00:41:54Z</time></trkpt><trkpt lat="35.7743578" lon="139.0699115"><ele>1130.8166666666668</ele><time>2024-06-08T00:42:17Z</time></trkpt><trkpt lat="35.7742784" lon="139.0701378"><ele>1131.9633333333334</ele><time>2024-06-08T00:42:40Z</time></trkpt><trkpt lat="35.7742249" lon="139.0703532"><ele>1133.93</ele><time>2024-06-08T00:43:01Z</time></trkpt><trkpt lat="35.7741081" lon="139.0705563"><ele>1137.32</ele><time>2024-06-08T00:43:52Z</time></trkpt><trkpt lat="35.7740722" lon="139.0707828"><ele>1143.8766666666668</ele><time>2024-06-08T00:44:29Z</time></trkpt><trkpt lat="35.7740063" lon="139.0710023"><ele>1151.4366666666667</ele><time>2024-06-08T00:45:11Z</time></trkpt><trkpt lat="35.7739243" lon="139.071217"><ele>1160.8333333333333</ele><time>2024-06-08T00:45:41Z</time></trkpt><trkpt lat="35.7738258" lon="139.0714049"><ele>1168.2733333333333</ele><time>2024-06-08T00:46:20Z</time></trkpt><trkpt lat="35.77367" lon="139.0715255"><ele>1173.26</ele><time>2024-06-08T00:47:02Z</time></trkpt><trkpt lat="35.7735798" lon="139.0717284"><ele>1178.7133333333334</ele><time>2024-06-08T00:47:44Z</time></trkpt><trkpt lat="35.7735359" lon="139.0719511"><ele>1184.6466666666665</ele><time>2024-06-08T00:48:38Z</time></trkpt><trkpt lat="35.7734619" lon="139.0721562"><ele>1193.4833333333333</ele><time>2024-06-08T00:50:14Z</time></trkpt><trkpt lat="35.7732832" lon="139.0722033"><ele>1200.39</ele><time>2024-06-08T00:51:14Z</time></trkpt><trkpt lat="35.7731173" lon="139.0722902"><ele>1208.6333333333334</ele><time>2024-06-08T00:51:50Z</time></trkpt><trkpt lat="35.7729492" lon="139.0724187"><ele>1215.6266666666668</ele><time>2024-06-08T00:52:17Z</time></trkpt><trkpt lat="35.7728961" lon="139.0726728"><ele>1221.61</ele><time>2024-06-08T00:52:56Z</time></trkpt><trkpt lat="35.7728299" lon="139.0729105"><ele>1224.5333333333335</ele><time>2024-06-08T00:53:16Z</time></trkpt><trkpt lat="35.7728957" lon="139.0731447"><ele>1226.9566666666667</ele><time>2024-06-08T00:53:32Z</time></trkpt><trkpt lat="35.7729288" lon="139.0733642"><ele>1229.756666666667</ele><time>2024-06-08T00:53:53Z</time></trkpt><trkpt lat="35.7728672" lon="139.0735749"><ele>1233.8233333333335</ele><time>2024-06-08T00:55:41Z</time></trkpt><trkpt lat="35.7727949" lon="139.073793"><ele>1239.5433333333333</ele><time>2024-06-08T00:56:17Z</time></trkpt><trkpt lat="35.7728111" lon="139.0740171"><ele>1246.11</ele><time>2024-06-08T00:57:14Z</time></trkpt><trkpt lat="35.7726874" lon="139.0741848"><ele>1255.1499999999999</ele><time>2024-06-08T00:58:41Z</time></trkpt><trkpt lat="35.7725726" lon="139.0743697"><ele>1265.7166666666665</ele><time>2024-06-08T00:59:35Z</time></trkpt><trkpt lat="35.7724871" lon="139.0745854"><ele>1281.8633333333335</ele><time>2024-06-08T01:00:58Z</time></trkpt><trkpt lat="35.7725302" lon="139.0748059"><ele>1295.1666666666667</ele><time>2024-06-08T01:02:03Z</time></trkpt><trkpt lat="35.7724069" lon="139.0749713"><ele>1308.0533333333333</ele><time>2024-06-08T01:03:51Z</time></trkpt><trkpt lat="35.7723732" lon="139.0751919"><ele>1316.5433333333333</ele><time>2024-06-08T01:04:57Z</time></trkpt><trkpt lat="35.7721718" lon="139.0752688"><ele>1326.82</ele><time>2024-06-08T01:05:27Z</time></trkpt><trkpt lat="35.7719879" lon="139.0752734"><ele>1333.7300000000002</ele><time>2024-06-08T01:05:54Z</time></trkpt><trkpt lat="35.7719028" lon="139.0754699"><ele>1338.44</ele><time>2024-06-08T01:06:47Z</time></trkpt><trkpt lat="35.7717822" lon="139.0756478"><ele>1340.0966666666668</ele><time>2024-06-08T01:07:05Z</time></trkpt><trkpt lat="35.77173" lon="139.0758797"><ele>1339.7666666666667</ele><time>2024-06-08T01:07:29Z</time></trkpt><trkpt lat="35.7717398" lon="139.0761266"><ele>1336.49</ele><time>2024-06-08T01:07:47Z</time></trkpt><trkpt lat="35.7717506" lon="139.0763542"><ele>1331.4399999999998</ele><time>2024-06-08T01:08:11Z</time></trkpt><trkpt lat="35.7716375" lon="139.0765599"><ele>1325.0800000000002</ele><time>2024-06-08T01:08:29Z</time></trkpt><trkpt lat="35.7714774" lon="139.0767498"><ele>1321.2666666666667</ele><time>2024-06-08T01:08:47Z</time></trkpt><trkpt lat="35.7713739" lon="139.0769325"><ele>1319.2233333333334</ele><time>2024-06-08T01:09:01Z</time></trkpt><trkpt lat="35.7713134" lon="139.0771409"><ele>1321.2200000000003</ele><time>2024-06-08T01:09:14Z</time></trkpt><trkpt lat="35.7710908" lon="139.0772652"><ele>1322.26</ele><time>2024-06-08T01:09:35Z</time></trkpt><trkpt lat="35.7710308" lon="139.0774784"><ele>1325.0966666666666</ele><time>2024-06-08T01:10:13Z</time></trkpt><trkpt lat="35.7711093" lon="139.077696"><ele>1327.0266666666666</ele><time>2024-06-08T01:10:40Z</time></trkpt><trkpt lat="35.7710005" lon="139.0778764"><ele>1332.0733333333335</ele><time>2024-06-08T01:11:37Z</time></trkpt><trkpt lat="35.7710037" lon="139.0781052"><ele>1338.41</ele><time>2024-06-08T01:12:54Z</time></trkpt><trkpt lat="35.7710948" lon="139.0783234"><ele>1347.43</ele><time>2024-06-08T01:14:00Z</time></trkpt><trkpt lat="35.771241" lon="139.0784558"><ele>1354.3366666666668</ele><time>2024-06-08T01:14:54Z</time></trkpt><trkpt lat="35.7710828" lon="139.0785699"><ele>1361.79</ele><time>2024-06-08T01:15:45Z</time></trkpt><trkpt lat="35.7709065" lon="139.0786991"><ele>1367.68</ele><time>2024-06-08T01:16:06Z</time></trkpt><trkpt lat="35.7708314" lon="139.0789337"><ele>1374.3833333333332</ele><time>2024-06-08T01:16:49Z</time></trkpt><trkpt lat="35.7706844" lon="139.0790675"><ele>1378.6833333333334</ele><time>2024-06-08T01:17:49Z</time></trkpt><trkpt lat="35.7705334" lon="139.0792209"><ele>1383.6833333333334</ele><time>2024-06-08T01:18:16Z</time></trkpt><trkpt lat="35.77041" lon="139.0794075"><ele>1387.8733333333337</ele><time>2024-06-08T01:18:31Z</time></trkpt><trkpt lat="35.7702524" lon="139.0795636"><ele>1391.2233333333334</ele><time>2024-06-08T01:18:49Z</time></trkpt><trkpt lat="35.7701096" lon="139.0797058"><ele>1393.1233333333332</ele><time>2024-06-08T01:19:22Z</time></trkpt><trkpt lat="35.7700154" lon="139.0799679"><ele>1395.6333333333332</ele><time>2024-06-08T01:19:40Z</time></trkpt><trkpt lat="35.7699611" lon="139.0802106"><ele>1398.3333333333333</ele><time>2024-06-08T01:19:58Z</time></trkpt><trkpt lat="35.7700105" lon="139.0804551"><ele>1400.8766666666668</ele><time>2024-06-08T01:20:16Z</time></trkpt><trkpt lat="35.7700814" lon="139.0806985"><ele>1402.3633333333335</ele><time>2024-06-08T01:33:49Z</time></trkpt><trkpt lat="35.7701684" lon="139.0808989"><ele>1402.4433333333334</ele><time>2024-06-08T01:34:22Z</time></trkpt><trkpt lat="35.7703333" lon="139.0810589"><ele>1398.6666666666667</ele><time>2024-06-08T01:34:57Z</time></trkpt><trkpt lat="35.7703179" lon="139.0812939"><ele>1392.2866666666669</ele><time>2024-06-08T01:35:34Z</time></trkpt><trkpt lat="35.7702226" lon="139.0815026"><ele>1384.6533333333334</ele><time>2024-06-08T01:36:04Z</time></trkpt><trkpt lat="35.7701618" lon="139.0817492"><ele>1378.2266666666667</ele><time>2024-06-08T01:36:25Z</time></trkpt><trkpt lat="35.7701953" lon="139.0819846"><ele>1371.0833333333333</ele><time>2024-06-08T01:36:46Z</time></trkpt><trkpt lat="35.7702341" lon="139.0822321"><ele>1363.31</ele><time>2024-06-08T01:37:07Z</time></trkpt><trkpt lat="35.7701732" lon="139.0824712"><ele>1356.19</ele><time>2024-06-08T01:37:28Z</time></trkpt><trkpt lat="35.7701176" lon="139.0826843"><ele>1350.1666666666667</ele><time>2024-06-08T01:38:07Z</time></trkpt><trkpt lat="35.7703064" lon="139.0826043"><ele>1346.7033333333336</ele><time>2024-06-08T01:38:40Z</time></trkpt><trkpt lat="35.7704566" lon="139.0824631"><ele>1342.97</ele><time>2024-06-08T01:38:57Z</time></trkpt><trkpt lat="35.7706585" lon="139.0824023"><ele>1340.0266666666666</ele><time>2024-06-08T01:39:16Z</time></trkpt><trkpt lat="35.7707858" lon="139.0826039"><ele>1337.5866666666666</ele><time>2024-06-08T01:41:58Z</time></trkpt><trkpt lat="35.7708307" lon="139.0828327"><ele>1334.8133333333333</ele><time>2024-06-08T01:42:16Z</time></trkpt><trkpt lat="35.7710058" lon="139.0828903"><ele>1331.6666666666667</ele><time>2024-06-08T01:42:32Z</time></trkpt><trkpt lat="35.7711895" lon="139.082906"><ele>1325.8566666666668</ele><time>2024-06-08T01:42:49Z</time></trkpt><trkpt lat="35.7713768" lon="139.0828222"><ele>1321.82</ele><time>2024-06-08T01:43:08Z</time></trkpt><trkpt lat="35.7715689" lon="139.0828597"><ele>1316.5466666666669</ele><time>2024-06-08T01:43:28Z</time></trkpt><trkpt lat="35.7717516" lon="139.0828619"><ele>1312.0966666666666</ele><time>2024-06-08T01:44:25Z</time></trkpt><trkpt lat="35.7719358" lon="139.0829548"><ele>1307.74</ele><time>2024-06-08T01:45:07Z</time></trkpt><trkpt lat="35.7720679" lon="139.0831652"><ele>1303.5133333333333</ele><time>2024-06-08T01:45:22Z</time></trkpt><trkpt lat="35.772186" lon="139.0833467"><ele>1299.9133333333334</ele><time>2024-06-08T01:45:37Z</time></trkpt><trkpt lat="35.7723982" lon="139.0833431"><ele>1296.9866666666667</ele><time>2024-06-08T01:45:52Z</time></trkpt><trkpt lat="35.7725902" lon="139.0833105"><ele>1293.71</ele><time>2024-06-08T01:46:07Z</time></trkpt><trkpt lat="35.7727817" lon="139.0834082"><ele>1288.9466666666667</ele><time>2024-06-08T01:46:28Z</time></trkpt><trkpt lat="35.772976" lon="139.0833794"><ele>1283.88</ele><time>2024-06-08T01:46:49Z</time></trkpt><trkpt lat="35.773169" lon="139.0833638"><ele>1279.1066666666666</ele><time>2024-06-08T01:47:07Z</time></trkpt><trkpt lat="35.7732903" lon="139.0831878"><ele>1274.4433333333334</ele><time>2024-06-08T01:47:21Z</time></trkpt><trkpt lat="35.7733816" lon="139.0829792"><ele>1267.6033333333332</ele><time>2024-06-08T01:48:01Z</time></trkpt><trkpt lat="35.773463" lon="139.0827696"><ele>1259.3366666666666</ele><time>2024-06-08T01:48:16Z</time></trkpt><trkpt lat="35.7735679" lon="139.0825863"><ele>1250.3733333333334</ele><time>2024-06-08T01:49:07Z</time></trkpt><trkpt lat="35.7737496" lon="139.0826106"><ele>1241.2966666666669</ele><time>2024-06-08T01:49:49Z</time></trkpt><trkpt lat="35.7739479" lon="139.0824991"><ele>1235.6233333333332</ele><time>2024-06-08T01:50:06Z</time></trkpt><trkpt lat="35.7740984" lon="139.0823351"><ele>1228.7600000000002</ele><time>2024-06-08T01:50:28Z</time></trkpt><trkpt lat="35.7739875" lon="139.0825204"><ele>1227.2866666666669</ele><time>2024-06-08T01:50:52Z</time></trkpt><trkpt lat="35.7740561" lon="139.0827408"><ele>1224.4700000000003</ele><time>2024-06-08T01:51:10Z</time></trkpt><trkpt lat="35.7740488" lon="139.0829997"><ele>1223.0433333333333</ele><time>2024-06-08T01:51:37Z</time></trkpt><trkpt lat="35.7742131" lon="139.0830952"><ele>1216.3700000000001</ele><time>2024-06-08T01:52:04Z</time></trkpt><trkpt lat="35.7743927" lon="139.083207"><ele>1208.72</ele><time>2024-06-08T01:52:22Z</time></trkpt><trkpt lat="35.7745942" lon="139.0832563"><ele>1201.0600000000002</ele><time>2024-06-08T01:52:40Z</time></trkpt><trkpt lat="35.774773" lon="139.0833248"><ele>1193.12</ele><time>2024-06-08T01:52:58Z</time></trkpt><trkpt lat="35.7749664" lon="139.0833404"><ele>1186.29</ele><time>2024-06-08T01:53:19Z</time></trkpt><trkpt lat="35.7751481" lon="139.083238"><ele>1178.7933333333333</ele><time>2024-06-08T01:53:43Z</time></trkpt><trkpt lat="35.7751995" lon="139.0834858"><ele>1173.006666666667</ele><time>2024-06-08T01:54:01Z</time></trkpt><trkpt lat="35.7754" lon="139.083524"><ele>1165.8666666666668</ele><time>2024-06-08T01:54:31Z</time></trkpt><trkpt lat="35.7755107" lon="139.0833329"><ele>1159.32</ele><time>2024-06-08T01:54:43Z</time></trkpt><trkpt lat="35.7754801" lon="139.0835549"><ele>1155.0199999999998</ele><time>2024-06-08T01:55:08Z</time></trkpt><trkpt lat="35.775646" lon="139.0834684"><ele>1149.4366666666665</ele><time>2024-06-08T01:55:11Z</time></trkpt><trkpt lat="35.7758053" lon="139.0836499"><ele>1143.8500000000001</ele><time>2024-06-08T01:55:29Z</time></trkpt><trkpt lat="35.7757058" lon="139.0838595"><ele>1137.79</ele><time>2024-06-08T01:55:44Z</time></trkpt><trkpt lat="35.7758608" lon="139.0840069"><ele>1133.3433333333335</ele><time>2024-06-08T01:56:17Z</time></trkpt><trkpt lat="35.7760659" lon="139.0841082"><ele>1129.9066666666668</ele><time>2024-06-08T01:56:32Z</time></trkpt><trkpt lat="35.7762232" lon="139.0839633"><ele>1123.2266666666667</ele><time>2024-06-08T01:56:44Z</time></trkpt><trkpt lat="35.7764024" lon="139.0840853"><ele>1117.9233333333332</ele><time>2024-06-08T01:57:52Z</time></trkpt><trkpt lat="35.7762319" lon="139.0839201"><ele>1115.8133333333333</ele><time>2024-06-08T01:59:19Z</time></trkpt><trkpt lat="35.776197" lon="139.0836737"><ele>1113.6033333333335</ele><time>2024-06-08T02:00:37Z</time></trkpt><trkpt lat="35.7761605" lon="139.0834193"><ele>1111.3366666666666</ele><time>2024-06-08T02:01:07Z</time></trkpt><trkpt lat="35.7763137" lon="139.0832705"><ele>1102.8933333333332</ele><time>2024-06-08T02:01:55Z</time></trkpt><trkpt lat="35.7764346" lon="139.0830702"><ele>1092.5633333333333</ele><time>2024-06-08T02:02:10Z</time></trkpt><trkpt lat="35.7764406" lon="139.0828048"><ele>1082.9366666666667</ele><time>2024-06-08T02:02:25Z</time></trkpt><trkpt lat="35.7762913" lon="139.0826708"><ele>1080.71</ele><time>2024-06-08T02:02:40Z</time></trkpt><trkpt lat="35.7763421" lon="139.0824553"><ele>1078.5166666666667</ele><time>2024-06-08T02:03:10Z</time></trkpt><trkpt lat="35.7763176" lon="139.0822151"><ele>1075.3266666666666</ele><time>2024-06-08T02:03:34Z</time></trkpt><trkpt lat="35.7762752" lon="139.0819889"><ele>1065.41</ele><time>2024-06-08T02:04:04Z</time></trkpt><trkpt lat="35.7762618" lon="139.0817672"><ele>1057.3566666666666</ele><time>2024-06-08T02:04:30Z</time></trkpt><trkpt lat="35.7761705" lon="139.0815348"><ele>1052.28</ele><time>2024-06-08T02:05:16Z</time></trkpt><trkpt lat="35.7763558" lon="139.0815199"><ele>1047.6433333333334</ele><time>2024-06-08T02:05:40Z</time></trkpt><trkpt lat="35.7765398" lon="139.0815216"><ele>1041.8966666666668</ele><time>2024-06-08T02:06:51Z</time></trkpt><trkpt lat="35.7766949" lon="139.0813877"><ele>1035.0600000000002</ele><time>2024-06-08T02:07:54Z</time></trkpt><trkpt lat="35.7768761" lon="139.0813397"><ele>1030.3500000000001</ele><time>2024-06-08T02:08:09Z</time></trkpt><trkpt lat="35.7770702" lon="139.0814148"><ele>1028.17</ele><time>2024-06-08T02:08:42Z</time></trkpt><trkpt lat="35.7771633" lon="139.0812173"><ele>1025.8433333333335</ele><time>2024-06-08T02:09:00Z</time></trkpt><trkpt lat="35.7773479" lon="139.0810944"><ele>1023.0</ele><time>2024-06-08T02:10:00Z</time></trkpt><trkpt lat="35.7774397" lon="139.0813035"><ele>1019.04</ele><time>2024-06-08T02:11:09Z</time></trkpt><trkpt lat="35.7774092" lon="139.0815457"><ele>1014.9266666666666</ele><time>2024-06-08T02:11:51Z</time></trkpt><trkpt lat="35.7775756" lon="139.081434"><ele>1009.7666666666668</ele><time>2024-06-08T02:12:21Z</time></trkpt><trkpt lat="35.7776317" lon="139.0816615"><ele>1005.1366666666667</ele><time>2024-06-08T02:12:47Z</time></trkpt><trkpt lat="35.7775916" lon="139.0818797"><ele>996.5133333333333</ele><time>2024-06-08T02:13:08Z</time></trkpt><trkpt lat="35.7778138" lon="139.081819"><ele>986.6966666666667</ele><time>2024-06-08T02:13:25Z</time></trkpt><trkpt lat="35.7779701" lon="139.0816731"><ele>976.4666666666667</ele><time>2024-06-08T02:13:37Z</time></trkpt><trkpt lat="35.778138" lon="139.0818357"><ele>966.9700000000001</ele><time>2024-06-08T02:14:21Z</time></trkpt><trkpt lat="35.7782347" lon="139.0816368"><ele>963.1433333333334</ele><time>2024-06-08T02:14:33Z</time></trkpt><trkpt lat="35.7782176" lon="139.0813758"><ele>964.4433333333333</ele><time>2024-06-08T02:16:33Z</time></trkpt><trkpt lat="35.7781418" lon="139.0817183"><ele>964.7600000000001</ele><time>2024-06-08T02:16:36Z</time></trkpt><trkpt lat="35.7780554" lon="139.0819177"><ele>963.4633333333335</ele><time>2024-06-08T02:16:45Z</time></trkpt><trkpt lat="35.7780603" lon="139.0821664"><ele>956.9200000000001</ele><time>2024-06-08T02:16:57Z</time></trkpt><trkpt lat="35.7780595" lon="139.0824569"><ele>952.2000000000002</ele><time>2024-06-08T02:17:09Z</time></trkpt><trkpt lat="35.7781258" lon="139.0826741"><ele>945.7000000000002</ele><time>2024-06-08T02:17:21Z</time></trkpt><trkpt lat="35.7782276" lon="139.0828929"><ele>937.9633333333335</ele><time>2024-06-08T02:17:39Z</time></trkpt><trkpt lat="35.778317" lon="139.0831123"><ele>931.8000000000001</ele><time>2024-06-08T02:17:57Z</time></trkpt><trkpt lat="35.7783697" lon="139.0833376"><ele>925.8299999999999</ele><time>2024-06-08T02:18:11Z</time></trkpt><trkpt lat="35.7784341" lon="139.0835465"><ele>922.0333333333333</ele><time>2024-06-08T02:18:33Z</time></trkpt><trkpt lat="35.7783174" lon="139.083361"><ele>921.94</ele><time>2024-06-08T02:18:51Z</time></trkpt><trkpt lat="35.7783216" lon="139.08359"><ele>925.48</ele><time>2024-06-08T02:19:12Z</time></trkpt><trkpt lat="35.7785314" lon="139.0835847"><ele>924.8233333333333</ele><time>2024-06-08T02:19:15Z</time></trkpt><trkpt lat="35.7785993" lon="139.0837978"><ele>920.8666666666667</ele><time>2024-06-08T02:19:24Z</time></trkpt><trkpt lat="35.7786911" lon="139.0840243"><ele>913.6533333333333</ele><time>2024-06-08T02:19:36Z</time></trkpt><trkpt lat="35.7788787" lon="139.0841592"><ele>909.83</ele><time>2024-06-08T02:19:51Z</time></trkpt><trkpt lat="35.7788979" lon="139.0843881"><ele>907.3533333333334</ele><time>2024-06-08T02:20:05Z</time></trkpt><trkpt lat="35.779085" lon="139.084477"><ele>901.87</ele><time>2024-06-08T02:20:23Z</time></trkpt><trkpt lat="35.7790704" lon="139.0847343"><ele>898.1766666666667</ele><time>2024-06-08T02:20:35Z</time></trkpt><trkpt lat="35.7790934" lon="139.084975"><ele>895.84</ele><time>2024-06-08T02:20:56Z</time></trkpt><trkpt lat="35.7792767" lon="139.0850554"><ele>893.2766666666666</ele><time>2024-06-08T02:21:09Z</time></trkpt><trkpt lat="35.7795166" lon="139.085105"><ele>888.5466666666667</ele><time>2024-06-08T02:21:25Z</time></trkpt><trkpt lat="35.7796077" lon="139.0853101"><ele>879.98</ele><time>2024-06-08T02:21:40Z</time></trkpt><trkpt lat="35.7797331" lon="139.0855137"><ele>877.7266666666666</ele><time>2024-06-08T02:21:57Z</time></trkpt><trkpt lat="35.7799139" lon="139.0854919"><ele>872.4666666666667</ele><time>2024-06-08T02:22:10Z</time></trkpt><trkpt lat="35.7800972" lon="139.0856087"><ele>866.8666666666667</ele><time>2024-06-08T02:22:39Z</time></trkpt><trkpt lat="35.7801295" lon="139.0858327"><ele>859.2633333333333</ele><time>2024-06-08T02:22:51Z</time></trkpt><trkpt lat="35.7802763" lon="139.0860175"><ele>855.0333333333334</ele><time>2024-06-08T02:23:11Z</time></trkpt><trkpt lat="35.7804413" lon="139.0861196"><ele>849.2933333333334</ele><time>2024-06-08T02:27:19Z</time></trkpt><trkpt lat="35.7806155" lon="139.086036"><ele>843.7933333333334</ele><time>2024-06-08T02:27:52Z</time></trkpt><trkpt lat="35.7807828" lon="139.0862056"><ele>838.7333333333332</ele><time>2024-06-08T02:28:07Z</time></trkpt><trkpt lat="35.7808769" lon="139.0864077"><ele>835.9766666666666</ele><time>2024-06-08T02:28:46Z</time></trkpt><trkpt lat="35.780692" lon="139.0864982"><ele>832.0999999999999</ele><time>2024-06-08T02:29:13Z</time></trkpt><trkpt lat="35.7806436" lon="139.0867212"><ele>828.64</ele><time>2024-06-08T02:29:58Z</time></trkpt><trkpt lat="35.7808621" lon="139.0866233"><ele>827.3566666666666</ele><time>2024-06-08T02:31:53Z</time></trkpt><trkpt lat="35.7810179" lon="139.0864635"><ele>828.4</ele><time>2024-06-08T02:33:17Z</time></trkpt><trkpt lat="35.7811681" lon="139.0862935"><ele>825.07</ele><time>2024-06-08T02:33:26Z</time></trkpt><trkpt lat="35.7813383" lon="139.0861079"><ele>816.7600000000001</ele><time>2024-06-08T02:33:41Z</time></trkpt><trkpt lat="35.7815339" lon="139.0860445"><ele>805.6366666666667</ele><time>2024-06-08T02:33:56Z</time></trkpt><trkpt lat="35.7817097" lon="139.0858988"><ele>797.82</ele><time>2024-06-08T02:34:14Z</time></trkpt><trkpt lat="35.7818903" lon="139.0857987"><ele>793.82</ele><time>2024-06-08T02:34:38Z</time></trkpt><trkpt lat="35.7820844" lon="139.0857073"><ele>790.7800000000001</ele><time>2024-06-08T02:34:59Z</time></trkpt><trkpt lat="35.7822751" lon="139.0856909"><ele>786.25</ele><time>2024-06-08T02:35:11Z</time></trkpt><trkpt lat="35.7824697" lon="139.0855799"><ele>782.9</ele><time>2024-06-08T02:35:23Z</time></trkpt><trkpt lat="35.782609" lon="139.0854162"><ele>785.6933333333333</ele><time>2024-06-08T02:35:44Z</time></trkpt><trkpt lat="35.7828159" lon="139.0853928"><ele>793.6866666666666</ele><time>2024-06-08T02:36:05Z</time></trkpt><trkpt lat="35.7829871" lon="139.0855348"><ele>798.8433333333332</ele><time>2024-06-08T02:36:23Z</time></trkpt><trkpt lat="35.7831882" lon="139.0855304"><ele>798.42</ele><time>2024-06-08T02:36:41Z</time></trkpt><trkpt lat="35.7833816" lon="139.0855178"><ele>796.73</ele><time>2024-06-08T02:36:56Z</time></trkpt><trkpt lat="35.7834615" lon="139.0853181"><ele>796.3666666666667</ele><time>2024-06-08T02:37:20Z</time></trkpt><trkpt lat="35.783517" lon="139.0850756"><ele>789.94</ele><time>2024-06-08T02:37:53Z</time></trkpt><trkpt lat="35.7834392" lon="139.084832"><ele>780.1066666666667</ele><time>2024-06-08T02:38:05Z</time></trkpt><trkpt lat="35.7833375" lon="139.0846343"><ele>772.2366666666667</ele><time>2024-06-08T02:38:23Z</time></trkpt><trkpt lat="35.7832663" lon="139.0844049"><ele>770.7033333333333</ele><time>2024-06-08T02:38:35Z</time></trkpt><trkpt lat="35.7833812" lon="139.0842227"><ele>770.0600000000001</ele><time>2024-06-08T02:38:47Z</time></trkpt><trkpt lat="35.7835196" lon="139.0840265"><ele>767.3166666666666</ele><time>2024-06-08T02:39:08Z</time></trkpt><trkpt lat="35.7837368" lon="139.0838942"><ele>762.3866666666667</ele><time>2024-06-08T02:39:23Z</time></trkpt><trkpt lat="35.7838503" lon="139.083698"><ele>758.1533333333333</ele><time>2024-06-08T02:39:35Z</time></trkpt><trkpt lat="35.7838745" lon="139.0834322"><ele>757.1133333333333</ele><time>2024-06-08T02:39:52Z</time></trkpt><trkpt lat="35.7837518" lon="139.0832159"><ele>759.2599999999999</ele><time>2024-06-08T02:40:07Z</time></trkpt><trkpt lat="35.7836944" lon="139.0829933"><ele>762.1266666666667</ele><time>2024-06-08T02:40:20Z</time></trkpt><trkpt lat="35.7836322" lon="139.0827525"><ele>760.1366666666667</ele><time>2024-06-08T02:40:34Z</time></trkpt><trkpt lat="35.7835108" lon="139.0825703"><ele>756.4966666666666</ele><time>2024-06-08T02:40:46Z</time></trkpt><trkpt lat="35.7834008" lon="139.0823664"><ele>753.9133333333333</ele><time>2024-06-08T02:40:58Z</time></trkpt><trkpt lat="35.7834565" lon="139.0821414"><ele>751.48</ele><time>2024-06-08T02:41:19Z</time></trkpt><trkpt lat="35.7836209" lon="139.0820161"><ele>749.2633333333333</ele><time>2024-06-08T02:41:44Z</time></trkpt><trkpt lat="35.7837502" lon="139.0818111"><ele>749.73</ele><time>2024-06-08T02:42:00Z</time></trkpt><trkpt lat="35.7839291" lon="139.0818604"><ele>746.9833333333332</ele><time>2024-06-08T02:42:18Z</time></trkpt><trkpt lat="35.7841278" lon="139.0817525"><ele>742.04</ele><time>2024-06-08T02:42:33Z</time></trkpt><trkpt lat="35.7841466" lon="139.0815075"><ele>735.3533333333334</ele><time>2024-06-08T02:42:48Z</time></trkpt><trkpt lat="35.7840763" lon="139.0812238"><ele>737.1266666666667</ele><time>2024-06-08T02:43:09Z</time></trkpt><trkpt lat="35.7840985" lon="139.0809782"><ele>741.1233333333333</ele><time>2024-06-08T02:43:24Z</time></trkpt><trkpt lat="35.7841614" lon="139.0807537"><ele>742.5266666666666</ele><time>2024-06-08T02:43:33Z</time></trkpt><trkpt lat="35.7841142" lon="139.0804915"><ele>741.9533333333334</ele><time>2024-06-08T02:43:54Z</time></trkpt><trkpt lat="35.7842218" lon="139.0802907"><ele>739.3666666666668</ele><time>2024-06-08T02:44:12Z</time></trkpt><trkpt lat="35.7843189" lon="139.0800594"><ele>737.89</ele><time>2024-06-08T02:44:24Z</time></trkpt><trkpt lat="35.7844512" lon="139.0798446"><ele>735.2066666666666</ele><time>2024-06-08T02:44:39Z</time></trkpt><trkpt lat="35.7845651" lon="139.0796611"><ele>733.8033333333334</ele><time>2024-06-08T02:44:54Z</time></trkpt><trkpt lat="35.7847263" lon="139.079523"><ele>732.23</ele><time>2024-06-08T02:45:08Z</time></trkpt><trkpt lat="35.78496" lon="139.0795238"><ele>727.8866666666667</ele><time>2024-06-08T02:45:23Z</time></trkpt><trkpt lat="35.7851683" lon="139.0795832"><ele>723.71</ele><time>2024-06-08T02:45:38Z</time></trkpt><trkpt lat="35.7852931" lon="139.0797672"><ele>720.25</ele><time>2024-06-08T02:45:53Z</time></trkpt><trkpt lat="35.785455" lon="139.0798968"><ele>717.2333333333332</ele><time>2024-06-08T02:46:07Z</time></trkpt><trkpt lat="35.7853732" lon="139.0800977"><ele>715.7233333333334</ele><time>2024-06-08T02:46:24Z</time></trkpt><trkpt lat="35.785247" lon="139.0803016"><ele>712.9499999999999</ele><time>2024-06-08T02:46:39Z</time></trkpt><trkpt lat="35.7851529" lon="139.0805106"><ele>712.3233333333334</ele><time>2024-06-08T02:46:54Z</time></trkpt><trkpt lat="35.7850151" lon="139.0807079"><ele>709.8266666666667</ele><time>2024-06-08T02:47:06Z</time></trkpt><trkpt lat="35.7851863" lon="139.0807953"><ele>706.7266666666666</ele><time>2024-06-08T02:47:21Z</time></trkpt><trkpt lat="35.7852828" lon="139.0805909"><ele>703.9766666666666</ele><time>2024-06-08T02:47:33Z</time></trkpt><trkpt lat="35.7853685" lon="139.0803721"><ele>703.5766666666667</ele><time>2024-06-08T02:47:45Z</time></trkpt><trkpt lat="35.7855536" lon="139.0802605"><ele>702.7433333333333</ele><time>2024-06-08T02:47:57Z</time></trkpt><trkpt lat="35.7857706" lon="139.0802091"><ele>700.21</ele><time>2024-06-08T02:48:12Z</time></trkpt><trkpt lat="35.7858327" lon="139.0799917"><ele>696.4633333333333</ele><time>2024-06-08T02:48:33Z</time></trkpt><trkpt lat="35.7859233" lon="139.0797662"><ele>693.7866666666667</ele><time>2024-06-08T02:48:45Z</time></trkpt><trkpt lat="35.785871" lon="139.079523"><ele>691.5300000000001</ele><time>2024-06-08T02:48:59Z</time></trkpt><trkpt lat="35.7857804" lon="139.0793282"><ele>689.0300000000001</ele><time>2024-06-08T02:49:08Z</time></trkpt><trkpt lat="35.7856005" lon="139.079257"><ele>687.2433333333333</ele><time>2024-06-08T02:49:26Z</time></trkpt><trkpt lat="35.7855846" lon="139.0790273"><ele>684.9266666666666</ele><time>2024-06-08T02:49:41Z</time></trkpt><trkpt lat="35.7855737" lon="139.0787718"><ele>681.9</ele><time>2024-06-08T02:49:56Z</time></trkpt><trkpt lat="35.7853871" lon="139.0786569"><ele>679.4233333333333</ele><time>2024-06-08T02:50:08Z</time></trkpt><trkpt lat="35.7852543" lon="139.0784411"><ele>679.5566666666667</ele><time>2024-06-08T02:50:24Z</time></trkpt><trkpt lat="35.7851814" lon="139.0782029"><ele>679.7466666666668</ele><time>2024-06-08T02:50:38Z</time></trkpt><trkpt lat="35.7851327" lon="139.0779831"><ele>679.13</ele><time>2024-06-08T02:51:03Z</time></trkpt><trkpt lat="35.7851978" lon="139.0777534"><ele>677.6266666666667</ele><time>2024-06-08T02:51:21Z</time></trkpt><trkpt lat="35.7853788" lon="139.077718"><ele>676.76</ele><time>2024-06-08T02:51:33Z</time></trkpt><trkpt lat="35.7855767" lon="139.0777494"><ele>674.92</ele><time>2024-06-08T02:51:45Z</time></trkpt><trkpt lat="35.7857946" lon="139.0777245"><ele>670.1700000000001</ele><time>2024-06-08T02:52:03Z</time></trkpt><trkpt lat="35.786007" lon="139.0777707"><ele>661.32</ele><time>2024-06-08T02:52:18Z</time></trkpt><trkpt lat="35.7861819" lon="139.0776738"><ele>654.3066666666667</ele><time>2024-06-08T02:52:33Z</time></trkpt><trkpt lat="35.7862673" lon="139.0774576"><ele>654.6366666666667</ele><time>2024-06-08T02:52:44Z</time></trkpt><trkpt lat="35.7863643" lon="139.0772534"><ele>659.5133333333333</ele><time>2024-06-08T02:52:56Z</time></trkpt><trkpt lat="35.7865419" lon="139.0771266"><ele>663.8833333333333</ele><time>2024-06-08T02:53:11Z</time></trkpt><trkpt lat="35.7867017" lon="139.0770234"><ele>662.6733333333333</ele><time>2024-06-08T02:53:23Z</time></trkpt><trkpt lat="35.7869435" lon="139.0769238"><ele>659.7266666666667</ele><time>2024-06-08T02:53:37Z</time></trkpt><trkpt lat="35.7870852" lon="139.0767057"><ele>657.1133333333333</ele><time>2024-06-08T02:53:48Z</time></trkpt><trkpt lat="35.7872158" lon="139.076549"><ele>656.12</ele><time>2024-06-08T02:53:57Z</time></trkpt><trkpt lat="35.7874231" lon="139.0764792"><ele>656.1066666666667</ele><time>2024-06-08T02:54:18Z</time></trkpt><trkpt lat="35.7876148" lon="139.0765299"><ele>653.11</ele><time>2024-06-08T02:54:30Z</time></trkpt><trkpt lat="35.7875384" lon="139.0767821"><ele>650.0533333333334</ele><time>2024-06-08T02:54:45Z</time></trkpt><trkpt lat="35.7875754" lon="139.0770322"><ele>645.83</ele><time>2024-06-08T02:55:00Z</time></trkpt><trkpt lat="35.7874032" lon="139.077112"><ele>643.8966666666666</ele><time>2024-06-08T02:55:15Z</time></trkpt><trkpt lat="35.7872495" lon="139.0773109"><ele>640.37</ele><time>2024-06-08T02:55:30Z</time></trkpt><trkpt lat="35.7871648" lon="139.077522"><ele>638.0600000000001</ele><time>2024-06-08T02:55:42Z</time></trkpt><trkpt lat="35.787176" lon="139.0777454"><ele>634.9266666666666</ele><time>2024-06-08T02:56:09Z</time></trkpt><trkpt lat="35.7870098" lon="139.0778926"><ele>632.7266666666666</ele><time>2024-06-08T02:56:21Z</time></trkpt><trkpt lat="35.7868487" lon="139.0777708"><ele>631.2933333333334</ele><time>2024-06-08T02:56:33Z</time></trkpt><trkpt lat="35.7866732" lon="139.0776329"><ele>633.3733333333333</ele><time>2024-06-08T02:56:51Z</time></trkpt><trkpt lat="35.7867857" lon="139.0778477"><ele>632.7766666666666</ele><time>2024-06-08T02:57:03Z</time></trkpt><trkpt lat="35.7869756" lon="139.0779474"><ele>631.82</ele><time>2024-06-08T02:57:18Z</time></trkpt><trkpt lat="35.7871262" lon="139.0780716"><ele>627.87</ele><time>2024-06-08T02:57:30Z</time></trkpt><trkpt lat="35.7873135" lon="139.078087"><ele>625.5533333333333</ele><time>2024-06-08T02:57:45Z</time></trkpt><trkpt lat="35.7874794" lon="139.077912"><ele>622.4533333333334</ele><time>2024-06-08T02:58:00Z</time></trkpt><trkpt lat="35.787627" lon="139.0777237"><ele>621.0933333333334</ele><time>2024-06-08T02:58:18Z</time></trkpt><trkpt lat="35.787579" lon="139.0779731"><ele>619.96</ele><time>2024-06-08T02:58:36Z</time></trkpt><trkpt lat="35.7873934" lon="139.0780831"><ele>619.6500000000001</ele><time>2024-06-08T02:59:06Z</time></trkpt><trkpt lat="35.7872262" lon="139.0781747"><ele>619.1700000000001</ele><time>2024-06-08T02:59:21Z</time></trkpt><trkpt lat="35.787197" lon="139.0779525"><ele>622.1833333333333</ele><time>2024-06-08T02:59:36Z</time></trkpt><trkpt lat="35.7872169" lon="139.0783785"><ele>621.2466666666668</ele><time>2024-06-08T02:59:39Z</time></trkpt><trkpt lat="35.7870199" lon="139.0784335"><ele>617.0033333333334</ele><time>2024-06-08T02:59:51Z</time></trkpt><trkpt lat="35.7868311" lon="139.0783235"><ele>611.25</ele><time>2024-06-08T03:00:03Z</time></trkpt><trkpt lat="35.7867164" lon="139.078505"><ele>609.8033333333333</ele><time>2024-06-08T03:00:39Z</time></trkpt><trkpt lat="35.7867605" lon="139.078772"><ele>612.89</ele><time>2024-06-08T03:01:06Z</time></trkpt><trkpt lat="35.786873" lon="139.0789897"><ele>612.29</ele><time>2024-06-08T03:01:15Z</time></trkpt><trkpt lat="35.7869884" lon="139.079183"><ele>608.5633333333334</ele><time>2024-06-08T03:01:33Z</time></trkpt><trkpt lat="35.7871262" lon="139.0793652"><ele>600.5133333333334</ele><time>2024-06-08T03:01:47Z</time></trkpt><trkpt lat="35.7871645" lon="139.079603"><ele>592.6899999999999</ele><time>2024-06-08T03:02:02Z</time></trkpt><trkpt lat="35.7870665" lon="139.0798332"><ele>586.0500000000001</ele><time>2024-06-08T03:02:22Z</time></trkpt><trkpt lat="35.7870118" lon="139.0801056"><ele>580.5766666666667</ele><time>2024-06-08T03:02:40Z</time></trkpt><trkpt lat="35.7869986" lon="139.0803389"><ele>576.5033333333333</ele><time>2024-06-08T03:02:51Z</time></trkpt><trkpt lat="35.7870225" lon="139.0805924"><ele>571.8933333333334</ele><time>2024-06-08T03:03:06Z</time></trkpt><trkpt lat="35.7871035" lon="139.0803651"><ele>568.5433333333334</ele><time>2024-06-08T03:03:27Z</time></trkpt><trkpt lat="35.7871394" lon="139.0801481"><ele>566.0033333333334</ele><time>2024-06-08T03:03:42Z</time></trkpt><trkpt lat="35.7872648" lon="139.0799309"><ele>564.87</ele><time>2024-06-08T03:03:57Z</time></trkpt><trkpt lat="35.7873341" lon="139.0797229"><ele>563.4266666666666</ele><time>2024-06-08T03:04:12Z</time></trkpt><trkpt lat="35.787479" lon="139.0795765"><ele>561.84</ele><time>2024-06-08T03:04:21Z</time></trkpt><trkpt lat="35.7874221" lon="139.0797887"><ele>560.8233333333333</ele><time>2024-06-08T03:05:14Z</time></trkpt><trkpt lat="35.7874011" lon="139.0800127"><ele>559.1066666666667</ele><time>2024-06-08T03:05:26Z</time></trkpt><trkpt lat="35.7875447" lon="139.0801841"><ele>556.29</ele><time>2024-06-08T03:05:38Z</time></trkpt><trkpt lat="35.7877243" lon="139.080037"><ele>552.71</ele><time>2024-06-08T03:05:55Z</time></trkpt><trkpt lat="35.7878588" lon="139.0798075"><ele>548.2966666666667</ele><time>2024-06-08T03:06:10Z</time></trkpt><trkpt lat="35.7880204" lon="139.079641"><ele>544.5999999999999</ele><time>2024-06-08T03:06:28Z</time></trkpt><trkpt lat="35.7882006" lon="139.0795302"><ele>542.4733333333334</ele><time>2024-06-08T03:06:40Z</time></trkpt><trkpt lat="35.7883618" lon="139.0793583"><ele>541.7133333333333</ele><time>2024-06-08T03:06:52Z</time></trkpt><trkpt lat="35.7885236" lon="139.0792595"><ele>540.0933333333334</ele><time>2024-06-08T03:07:10Z</time></trkpt><trkpt lat="35.7887048" lon="139.0791564"><ele>537.6833333333333</ele><time>2024-06-08T03:07:25Z</time></trkpt><trkpt lat="35.7888909" lon="139.0791582"><ele>533.5733333333334</ele><time>2024-06-08T03:07:40Z</time></trkpt><trkpt lat="35.7890928" lon="139.0790719"><ele>530.3733333333333</ele><time>2024-06-08T03:07:58Z</time></trkpt><trkpt lat="35.7892425" lon="139.0789305"><ele>528.8533333333334</ele><time>2024-06-08T03:08:10Z</time></trkpt><trkpt lat="35.78941" lon="139.0788373"><ele>528.87</ele><time>2024-06-08T03:08:21Z</time></trkpt><trkpt lat="35.7895858" lon="139.0789011"><ele>527.7766666666666</ele><time>2024-06-08T03:08:36Z</time></trkpt><trkpt lat="35.7897675" lon="139.0789486"><ele>521.12</ele><time>2024-06-08T03:08:57Z</time></trkpt><trkpt lat="35.7896108" lon="139.0788101"><ele>520.0799999999999</ele><time>2024-06-08T03:09:34Z</time></trkpt><trkpt lat="35.7894023" lon="139.0788983"><ele>521.1533333333333</ele><time>2024-06-08T03:09:49Z</time></trkpt><trkpt lat="35.78929" lon="139.0791171"><ele>521.35</ele><time>2024-06-08T03:10:06Z</time></trkpt><trkpt lat="35.7891433" lon="139.0792715"><ele>517.1266666666667</ele><time>2024-06-08T03:10:21Z</time></trkpt><trkpt lat="35.7890389" lon="139.07948"><ele>510.98333333333335</ele><time>2024-06-08T03:10:47Z</time></trkpt><trkpt lat="35.7888794" lon="139.0796273"><ele>510.1466666666667</ele><time>2024-06-08T03:11:52Z</time></trkpt><trkpt lat="35.7890084" lon="139.0798272"><ele>509.30333333333334</ele><time>2024-06-08T03:13:02Z</time></trkpt><trkpt lat="35.7891994" lon="139.0797553"><ele>509.39000000000004</ele><time>2024-06-08T03:13:20Z</time></trkpt><trkpt lat="35.7893933" lon="139.0796693"><ele>507.4466666666667</ele><time>2024-06-08T03:13:35Z</time></trkpt><trkpt lat="35.7895969" lon="139.0796407"><ele>503.6233333333334</ele><time>2024-06-08T03:13:50Z</time></trkpt><trkpt lat="35.789791" lon="139.0796601"><ele>500.87000000000006</ele><time>2024-06-08T03:14:05Z</time></trkpt><trkpt lat="35.7899753" lon="139.0796829"><ele>499.8666666666666</ele><time>2024-06-08T03:14:20Z</time></trkpt><trkpt lat="35.7901741" lon="139.0797159"><ele>501.7033333333334</ele><time>2024-06-08T03:14:35Z</time></trkpt><trkpt lat="35.790364" lon="139.0796197"><ele>501.49666666666667</ele><time>2024-06-08T03:14:50Z</time></trkpt><trkpt lat="35.7905422" lon="139.0795318"><ele>499.3233333333333</ele><time>2024-06-08T03:15:02Z</time></trkpt><trkpt lat="35.7907109" lon="139.0793868"><ele>494.07666666666665</ele><time>2024-06-08T03:15:14Z</time></trkpt><trkpt lat="35.7909229" lon="139.0793651"><ele>489.7066666666667</ele><time>2024-06-08T03:15:29Z</time></trkpt><trkpt lat="35.7911404" lon="139.0793628"><ele>487.91</ele><time>2024-06-08T03:15:47Z</time></trkpt><trkpt lat="35.7912956" lon="139.079192"><ele>487.1466666666667</ele><time>2024-06-08T03:15:59Z</time></trkpt><trkpt lat="35.7914919" lon="139.0792069"><ele>488.25666666666666</ele><time>2024-06-08T03:16:14Z</time></trkpt><trkpt lat="35.7916928" lon="139.0791759"><ele>489.01</ele><time>2024-06-08T03:16:29Z</time></trkpt><trkpt lat="35.7918237" lon="139.0790058"><ele>486.86999999999995</ele><time>2024-06-08T03:16:40Z</time></trkpt><trkpt lat="35.7919987" lon="139.078897"><ele>485.01666666666665</ele><time>2024-06-08T03:16:58Z</time></trkpt><trkpt lat="35.7921548" lon="139.0787708"><ele>481.68333333333334</ele><time>2024-06-08T03:17:13Z</time></trkpt><trkpt lat="35.792297" lon="139.0786332"><ele>479.3066666666667</ele><time>2024-06-08T03:17:25Z</time></trkpt><trkpt lat="35.7924507" lon="139.0784852"><ele>475.04</ele><time>2024-06-08T03:17:37Z</time></trkpt><trkpt lat="35.7925929" lon="139.0783128"><ele>469.60999999999996</ele><time>2024-06-08T03:17:52Z</time></trkpt><trkpt lat="35.7927205" lon="139.0781325"><ele>463.68666666666667</ele><time>2024-06-08T03:18:08Z</time></trkpt><trkpt lat="35.7929142" lon="139.0781761"><ele>460.8066666666667</ele><time>2024-06-08T03:18:20Z</time></trkpt><trkpt lat="35.7930789" lon="139.0780559"><ele>457.34999999999997</ele><time>2024-06-08T03:18:36Z</time></trkpt><trkpt lat="35.7932582" lon="139.0779681"><ele>454.18666666666667</ele><time>2024-06-08T03:18:48Z</time></trkpt><trkpt lat="35.7934446" lon="139.0779544"><ele>449.42333333333335</ele><time>2024-06-08T03:18:59Z</time></trkpt><trkpt lat="35.793652" lon="139.077863"><ele>447.58666666666664</ele><time>2024-06-08T03:19:14Z</time></trkpt><trkpt lat="35.7938411" lon="139.077866"><ele>449.86000000000007</ele><time>2024-06-08T03:19:32Z</time></trkpt><trkpt lat="35.794007" lon="139.0776907"><ele>449.12000000000006</ele><time>2024-06-08T03:19:44Z</time></trkpt><trkpt lat="35.794138" lon="139.0775029"><ele>446.08</ele><time>2024-06-08T03:19:55Z</time></trkpt><trkpt lat="35.7943425" lon="139.0773855"><ele>439.59</ele><time>2024-06-08T03:20:10Z</time></trkpt><trkpt lat="35.7945447" lon="139.0773296"><ele>434.3666666666666</ele><time>2024-06-08T03:20:24Z</time></trkpt><trkpt lat="35.7947092" lon="139.077469"><ele>430.0</ele><time>2024-06-08T03:20:50Z</time></trkpt><trkpt lat="35.7948566" lon="139.0776668"><ele>427.8966666666667</ele><time>2024-06-08T03:21:05Z</time></trkpt><trkpt lat="35.7949724" lon="139.077893"><ele>426.92</ele><time>2024-06-08T03:21:19Z</time></trkpt><trkpt lat="35.7950982" lon="139.0780601"><ele>425.5466666666667</ele><time>2024-06-08T03:21:30Z</time></trkpt><trkpt lat="35.7952645" lon="139.0782114"><ele>421.47</ele><time>2024-06-08T03:21:42Z</time></trkpt><trkpt lat="35.795372" lon="139.0784361"><ele>419.58666666666664</ele><time>2024-06-08T03:22:00Z</time></trkpt><trkpt lat="35.7955013" lon="139.0786118"><ele>419.8866666666667</ele><time>2024-06-08T03:22:14Z</time></trkpt><trkpt lat="35.7957506" lon="139.0786884"><ele>416.3966666666667</ele><time>2024-06-08T03:22:32Z</time></trkpt><trkpt lat="35.7959417" lon="139.0788002"><ele>409.8933333333334</ele><time>2024-06-08T03:22:47Z</time></trkpt><trkpt lat="35.7960655" lon="139.0789867"><ele>402.2866666666667</ele><time>2024-06-08T03:22:59Z</time></trkpt><trkpt lat="35.7962633" lon="139.0790636"><ele>398.46333333333337</ele><time>2024-06-08T03:23:22Z</time></trkpt><trkpt lat="35.7965297" lon="139.07924"><ele>397.0566666666667</ele><time>2024-06-08T03:24:01Z</time></trkpt><trkpt lat="35.7967502" lon="139.0792723"><ele>396.3833333333334</ele><time>2024-06-08T03:24:15Z</time></trkpt><trkpt lat="35.7969459" lon="139.0793894"><ele>402.09</ele><time>2024-06-08T03:24:33Z</time></trkpt><trkpt lat="35.7971681" lon="139.0793068"><ele>407.07666666666665</ele><time>2024-06-08T03:24:45Z</time></trkpt><trkpt lat="35.7973168" lon="139.0791393"><ele>407.74333333333334</ele><time>2024-06-08T03:24:59Z</time></trkpt><trkpt lat="35.7975191" lon="139.0790812"><ele>403.68666666666667</ele><time>2024-06-08T03:25:14Z</time></trkpt><trkpt lat="35.7977241" lon="139.0790476"><ele>398.84</ele><time>2024-06-08T03:25:28Z</time></trkpt><trkpt lat="35.7979102" lon="139.0790753"><ele>400.32</ele><time>2024-06-08T03:25:43Z</time></trkpt><trkpt lat="35.7980863" lon="139.0789235"><ele>399.2166666666667</ele><time>2024-06-08T03:26:17Z</time></trkpt><trkpt lat="35.7979852" lon="139.078692"><ele>394.9666666666667</ele><time>2024-06-08T03:26:23Z</time></trkpt><trkpt lat="35.797895" lon="139.0784485"><ele>380.52</ele><time>2024-06-08T03:26:35Z</time></trkpt><trkpt lat="35.7978609" lon="139.0781982"><ele>367.7166666666667</ele><time>2024-06-08T03:26:46Z</time></trkpt><trkpt lat="35.7978389" lon="139.0779479"><ele>364.6466666666667</ele><time>2024-06-08T03:27:01Z</time></trkpt><trkpt lat="35.7979737" lon="139.0777875"><ele>372.51</ele><time>2024-06-08T03:27:37Z</time></trkpt><trkpt lat="35.7981593" lon="139.0778129"><ele>381.9633333333333</ele><time>2024-06-08T03:27:52Z</time></trkpt><trkpt lat="35.7983742" lon="139.0778665"><ele>384.0233333333333</ele><time>2024-06-08T03:28:03Z</time></trkpt><trkpt lat="35.7985861" lon="139.077923"><ele>381.3966666666667</ele><time>2024-06-08T03:28:18Z</time></trkpt><trkpt lat="35.798775" lon="139.0778951"><ele>382.5</ele><time>2024-06-08T03:28:33Z</time></trkpt><trkpt lat="35.7989884" lon="139.0778583"><ele>384.75666666666666</ele><time>2024-06-08T03:29:00Z</time></trkpt><trkpt lat="35.7991615" lon="139.077731"><ele>389.6499999999999</ele><time>2024-06-08T03:29:15Z</time></trkpt><trkpt lat="35.799298" lon="139.07754"><ele>394.17</ele><time>2024-06-08T03:29:37Z</time></trkpt><trkpt lat="35.7993914" lon="139.0773244"><ele>398.5233333333333</ele><time>2024-06-08T03:30:10Z</time></trkpt><trkpt lat="35.7995437" lon="139.0771939"><ele>401.92333333333335</ele><time>2024-06-08T03:31:37Z</time></trkpt><trkpt lat="35.7997437" lon="139.077296"><ele>402.74333333333334</ele><time>2024-06-08T03:32:01Z</time></trkpt><trkpt lat="35.7998506" lon="139.0775233"><ele>399.3433333333333</ele><time>2024-06-08T03:32:19Z</time></trkpt><trkpt lat="35.8000746" lon="139.0776201"><ele>396.48333333333335</ele><time>2024-06-08T03:32:43Z</time></trkpt><trkpt lat="35.8002635" lon="139.0776095"><ele>392.49333333333334</ele><time>2024-06-08T03:32:55Z</time></trkpt><trkpt lat="35.8004771" lon="139.0775825"><ele>393.16</ele><time>2024-06-08T03:33:10Z</time></trkpt><trkpt lat="35.8006857" lon="139.0775515"><ele>397.68666666666667</ele><time>2024-06-08T03:33:28Z</time></trkpt><trkpt lat="35.8008705" lon="139.077659"><ele>400.68333333333334</ele><time>2024-06-08T03:33:46Z</time></trkpt><trkpt lat="35.8010451" lon="139.0777473"><ele>401.9533333333334</ele><time>2024-06-08T03:34:01Z</time></trkpt><trkpt lat="35.8012498" lon="139.0777088"><ele>401.21000000000004</ele><time>2024-06-08T03:34:19Z</time></trkpt><trkpt lat="35.8014083" lon="139.0778177"><ele>400.8</ele><time>2024-06-08T03:34:37Z</time></trkpt><trkpt lat="35.8015641" lon="139.0779878"><ele>403.2633333333333</ele><time>2024-06-08T03:34:49Z</time></trkpt><trkpt lat="35.8016853" lon="139.0781726"><ele>406.40333333333336</ele><time>2024-06-08T03:35:01Z</time></trkpt><trkpt lat="35.8017875" lon="139.0784084"><ele>407.7166666666667</ele><time>2024-06-08T03:35:16Z</time></trkpt><trkpt lat="35.8019678" lon="139.0785474"><ele>404.3833333333334</ele><time>2024-06-08T03:35:36Z</time></trkpt><trkpt lat="35.802162" lon="139.0785818"><ele>394.2366666666667</ele><time>2024-06-08T03:35:51Z</time></trkpt><trkpt lat="35.8023396" lon="139.0785034"><ele>386.04999999999995</ele><time>2024-06-08T03:36:03Z</time></trkpt><trkpt lat="35.8025296" lon="139.0784013"><ele>382.00333333333333</ele><time>2024-06-08T03:36:17Z</time></trkpt><trkpt lat="35.8026942" lon="139.0782882"><ele>383.44000000000005</ele><time>2024-06-08T03:36:35Z</time></trkpt><trkpt lat="35.8028664" lon="139.0784455"><ele>386.2166666666667</ele><time>2024-06-08T03:37:01Z</time></trkpt><trkpt lat="35.802667" lon="139.0784833"><ele>387.04333333333335</ele><time>2024-06-08T03:37:28Z</time></trkpt><trkpt lat="35.8024412" lon="139.0783923"><ele>385.84666666666664</ele><time>2024-06-08T03:37:39Z</time></trkpt><trkpt lat="35.8022747" lon="139.0782993"><ele>389.5</ele><time>2024-06-08T03:37:48Z</time></trkpt><trkpt lat="35.8021612" lon="139.0785124"><ele>388.66</ele><time>2024-06-08T03:37:56Z</time></trkpt><trkpt lat="35.8021337" lon="139.0787657"><ele>385.18</ele><time>2024-06-08T03:38:03Z</time></trkpt><trkpt lat="35.8021613" lon="139.0790196"><ele>378.27</ele><time>2024-06-08T03:38:13Z</time></trkpt><trkpt lat="35.8021229" lon="139.0792476"><ele>376.17333333333335</ele><time>2024-06-08T03:38:22Z</time></trkpt><trkpt lat="35.8021186" lon="139.0795019"><ele>379.24</ele><time>2024-06-08T03:38:33Z</time></trkpt><trkpt lat="35.8020477" lon="139.079707"><ele>381.0933333333333</ele><time>2024-06-08T03:38:45Z</time></trkpt><trkpt lat="35.8020639" lon="139.0799494"><ele>383.9866666666667</ele><time>2024-06-08T03:39:00Z</time></trkpt><trkpt lat="35.8020363" lon="139.080176"><ele>385.8766666666667</ele><time>2024-06-08T03:39:09Z</time></trkpt><trkpt lat="35.8019572" lon="139.0804179"><ele>387.4566666666667</ele><time>2024-06-08T03:39:25Z</time></trkpt><trkpt lat="35.8019391" lon="139.0806817"><ele>387.59666666666664</ele><time>2024-06-08T03:39:42Z</time></trkpt><trkpt lat="35.8018096" lon="139.0808766"><ele>386.34666666666664</ele><time>2024-06-08T03:39:54Z</time></trkpt><trkpt lat="35.8016351" lon="139.081103"><ele>384.72333333333336</ele><time>2024-06-08T03:40:10Z</time></trkpt><trkpt lat="35.8016382" lon="139.0813484"><ele>384.8733333333333</ele><time>2024-06-08T03:40:25Z</time></trkpt><trkpt lat="35.8014779" lon="139.0815144"><ele>384.66</ele><time>2024-06-08T03:40:40Z</time></trkpt><trkpt lat="35.8013626" lon="139.0817522"><ele>383.5133333333333</ele><time>2024-06-08T03:40:51Z</time></trkpt><trkpt lat="35.8014058" lon="139.0819964"><ele>384.21000000000004</ele><time>2024-06-08T03:41:04Z</time></trkpt><trkpt lat="35.8012294" lon="139.0821347"><ele>384.89000000000004</ele><time>2024-06-08T03:41:19Z</time></trkpt><trkpt lat="35.8010755" lon="139.0823205"><ele>387.91</ele><time>2024-06-08T03:41:37Z</time></trkpt><trkpt lat="35.8009107" lon="139.0824375"><ele>387.90333333333336</ele><time>2024-06-08T03:41:52Z</time></trkpt><trkpt lat="35.8007264" lon="139.082525"><ele>387.81333333333333</ele><time>2024-06-08T03:42:04Z</time></trkpt><trkpt lat="35.8005274" lon="139.082648"><ele>384.81666666666666</ele><time>2024-06-08T03:42:19Z</time></trkpt><trkpt lat="35.8003176" lon="139.0826878"><ele>380.45666666666665</ele><time>2024-06-08T03:42:34Z</time></trkpt><trkpt lat="35.8001411" lon="139.082739"><ele>377.28</ele><time>2024-06-08T03:42:45Z</time></trkpt><trkpt lat="35.7999533" lon="139.0827872"><ele>375.16</ele><time>2024-06-08T03:43:00Z</time></trkpt><trkpt lat="35.7997733" lon="139.0828491"><ele>374.04</ele><time>2024-06-08T03:43:11Z</time></trkpt><trkpt lat="35.7996005" lon="139.0829143"><ele>372.93333333333334</ele><time>2024-06-08T03:43:23Z</time></trkpt><trkpt lat="35.7994259" lon="139.0830391"><ele>372.8866666666667</ele><time>2024-06-08T03:43:42Z</time></trkpt><trkpt lat="35.7992345" lon="139.0830504"><ele>371.77666666666664</ele><time>2024-06-08T03:43:57Z</time></trkpt><trkpt lat="35.7993707" lon="139.0832039"><ele>374.18666666666667</ele><time>2024-06-08T03:44:37Z</time></trkpt><trkpt lat="35.7992937" lon="139.083414"><ele>376.93</ele><time>2024-06-08T03:45:31Z</time></trkpt><trkpt lat="35.7991917" lon="139.0836071"><ele>380.0933333333334</ele><time>2024-06-08T03:45:46Z</time></trkpt><trkpt lat="35.7990794" lon="139.0838071"><ele>378.1266666666666</ele><time>2024-06-08T03:46:01Z</time></trkpt><trkpt lat="35.7991694" lon="139.0840223"><ele>375.4166666666667</ele><time>2024-06-08T03:46:22Z</time></trkpt><trkpt lat="35.7992223" lon="139.0842407"><ele>373.07</ele><time>2024-06-08T03:46:34Z</time></trkpt><trkpt lat="35.7992421" lon="139.0844843"><ele>370.72333333333336</ele><time>2024-06-08T03:46:49Z</time></trkpt><trkpt lat="35.7994147" lon="139.0846118"><ele>367.65000000000003</ele><time>2024-06-08T03:47:01Z</time></trkpt><trkpt lat="35.7996144" lon="139.0845746"><ele>365.67</ele><time>2024-06-08T03:47:13Z</time></trkpt><trkpt lat="35.7997968" lon="139.084619"><ele>364.06333333333333</ele><time>2024-06-08T03:47:25Z</time></trkpt><trkpt lat="35.7999724" lon="139.0846764"><ele>362.62000000000006</ele><time>2024-06-08T03:47:37Z</time></trkpt><trkpt lat="35.8002167" lon="139.0847103"><ele>358.59</ele><time>2024-06-08T03:47:54Z</time></trkpt><trkpt lat="35.800441" lon="139.0846954"><ele>355.01</ele><time>2024-06-08T03:48:09Z</time></trkpt><trkpt lat="35.8006275" lon="139.084644"><ele>352.4766666666667</ele><time>2024-06-08T03:48:21Z</time></trkpt><trkpt lat="35.8008469" lon="139.0846016"><ele>351.73</ele><time>2024-06-08T03:48:45Z</time></trkpt><trkpt lat="35.8006972" lon="139.0844595"><ele>353.28000000000003</ele><time>2024-06-08T03:49:10Z</time></trkpt><trkpt lat="35.8005485" lon="139.0843269"><ele>356.58</ele><time>2024-06-08T03:49:27Z</time></trkpt><trkpt lat="35.8003666" lon="139.0843096"><ele>360.41333333333336</ele><time>2024-06-08T03:49:45Z</time></trkpt><trkpt lat="35.8001994" lon="139.0841637"><ele>364.90333333333336</ele><time>2024-06-08T03:50:06Z</time></trkpt><trkpt lat="35.8004055" lon="139.0841158"><ele>367.11666666666673</ele><time>2024-06-08T03:50:33Z</time></trkpt><trkpt lat="35.8005756" lon="139.0842142"><ele>368.12999999999994</ele><time>2024-06-08T03:50:45Z</time></trkpt><trkpt lat="35.800761" lon="139.0842021"><ele>366.5</ele><time>2024-06-08T03:50:57Z</time></trkpt><trkpt lat="35.8009504" lon="139.0841394"><ele>366.75333333333333</ele><time>2024-06-08T03:51:18Z</time></trkpt><trkpt lat="35.8011798" lon="139.0841135"><ele>367.6466666666667</ele><time>2024-06-08T03:51:33Z</time></trkpt><trkpt lat="35.8013825" lon="139.0841653"><ele>368.22</ele><time>2024-06-08T03:51:45Z</time></trkpt><trkpt lat="35.8016097" lon="139.0841764"><ele>364.3966666666667</ele><time>2024-06-08T03:52:00Z</time></trkpt><trkpt lat="35.8018038" lon="139.0842582"><ele>359.06666666666666</ele><time>2024-06-08T03:52:16Z</time></trkpt><trkpt lat="35.8020228" lon="139.0842544"><ele>355.21999999999997</ele><time>2024-06-08T03:52:34Z</time></trkpt><trkpt lat="35.8022049" lon="139.0842069"><ele>356.32666666666665</ele><time>2024-06-08T03:52:49Z</time></trkpt><trkpt lat="35.8022677" lon="139.0844409"><ele>358.4866666666667</ele><time>2024-06-08T03:53:06Z</time></trkpt><trkpt lat="35.8023925" lon="139.0846242"><ele>361.38333333333327</ele><time>2024-06-08T03:53:27Z</time></trkpt><trkpt lat="35.802507" lon="139.0848138"><ele>363.60999999999996</ele><time>2024-06-08T03:53:42Z</time></trkpt><trkpt lat="35.8026597" lon="139.0849644"><ele>367.51</ele><time>2024-06-08T03:53:57Z</time></trkpt><trkpt lat="35.8028085" lon="139.0851052"><ele>371.3733333333334</ele><time>2024-06-08T03:54:13Z</time></trkpt><trkpt lat="35.802997" lon="139.0852226"><ele>373.6133333333334</ele><time>2024-06-08T03:54:28Z</time></trkpt><trkpt lat="35.8031921" lon="139.0853069"><ele>374.76666666666665</ele><time>2024-06-08T03:54:43Z</time></trkpt><trkpt lat="35.8032963" lon="139.085493"><ele>374.94</ele><time>2024-06-08T03:55:19Z</time></trkpt><trkpt lat="35.8033073" lon="139.0857225"><ele>373.51</ele><time>2024-06-08T03:55:37Z</time></trkpt><trkpt lat="35.8035081" lon="139.0858289"><ele>374.50333333333333</ele><time>2024-06-08T03:55:52Z</time></trkpt><trkpt lat="35.803702" lon="139.0859306"><ele>377.4866666666667</ele><time>2024-06-08T03:56:07Z</time></trkpt><trkpt lat="35.8036541" lon="139.0861815"><ele>380.25666666666666</ele><time>2024-06-08T03:56:34Z</time></trkpt><trkpt lat="35.8036909" lon="139.0864031"><ele>382.31</ele><time>2024-06-08T03:56:46Z</time></trkpt><trkpt lat="35.8038" lon="139.0865938"><ele>382.10999999999996</ele><time>2024-06-08T03:56:58Z</time></trkpt><trkpt lat="35.8037744" lon="139.0868283"><ele>384.3666666666666</ele><time>2024-06-08T03:57:19Z</time></trkpt><trkpt lat="35.8036633" lon="139.0870442"><ele>382.95</ele><time>2024-06-08T03:57:37Z</time></trkpt><trkpt lat="35.8037061" lon="139.0872991"><ele>382.52666666666664</ele><time>2024-06-08T03:57:52Z</time></trkpt><trkpt lat="35.8036809" lon="139.0875379"><ele>381.36999999999995</ele><time>2024-06-08T03:58:10Z</time></trkpt><trkpt lat="35.8035967" lon="139.0877446"><ele>383.68666666666667</ele><time>2024-06-08T03:58:40Z</time></trkpt><trkpt lat="35.8034715" lon="139.0879509"><ele>386.75666666666666</ele><time>2024-06-08T03:58:55Z</time></trkpt><trkpt lat="35.8033144" lon="139.0880876"><ele>389.1133333333334</ele><time>2024-06-08T03:59:22Z</time></trkpt><trkpt lat="35.803235" lon="139.0883358"><ele>392.6566666666667</ele><time>2024-06-08T03:59:37Z</time></trkpt><trkpt lat="35.8031506" lon="139.0885541"><ele>396.30333333333334</ele><time>2024-06-08T03:59:52Z</time></trkpt><trkpt lat="35.8029929" lon="139.0887404"><ele>400.77333333333337</ele><time>2024-06-08T04:00:07Z</time></trkpt><trkpt lat="35.8028427" lon="139.0889364"><ele>401.02333333333337</ele><time>2024-06-08T04:00:21Z</time></trkpt><trkpt lat="35.8027543" lon="139.0891316"><ele>399.29</ele><time>2024-06-08T04:00:33Z</time></trkpt><trkpt lat="35.802669" lon="139.0893697"><ele>399.36666666666673</ele><time>2024-06-08T04:01:10Z</time></trkpt><trkpt lat="35.8025308" lon="139.089579"><ele>402.47</ele><time>2024-06-08T04:01:25Z</time></trkpt><trkpt lat="35.8024129" lon="139.0897481"><ele>405.31333333333333</ele><time>2024-06-08T04:01:40Z</time></trkpt><trkpt lat="35.8023747" lon="139.08998"><ele>406.00666666666666</ele><time>2024-06-08T04:02:01Z</time></trkpt><trkpt lat="35.8025671" lon="139.0899443"><ele>406.98</ele><time>2024-06-08T04:22:55Z</time></trkpt><trkpt lat="35.8027369" lon="139.0900725"><ele>409.92</ele><time>2024-06-08T04:23:10Z</time></trkpt><trkpt lat="35.8028691" lon="139.0902443"><ele>412.66</ele><time>2024-06-08T04:23:31Z</time></trkpt><trkpt lat="35.8030781" lon="139.0903467"><ele>413.23</ele><time>2024-06-08T04:23:49Z</time></trkpt><trkpt lat="35.8032437" lon="139.0905259"><ele>404.9200000000001</ele><time>2024-06-08T04:24:01Z</time></trkpt><trkpt lat="35.8034449" lon="139.0904996"><ele>400.92</ele><time>2024-06-08T04:24:16Z</time></trkpt><trkpt lat="35.8036263" lon="139.0904475"><ele>396.5266666666667</ele><time>2024-06-08T04:24:34Z</time></trkpt><trkpt lat="35.8038043" lon="139.0903295"><ele>399.1466666666667</ele><time>2024-06-08T04:24:55Z</time></trkpt><trkpt lat="35.8039486" lon="139.0901398"><ele>396.68</ele><time>2024-06-08T04:25:10Z</time></trkpt><trkpt lat="35.8040745" lon="139.0899668"><ele>394.25</ele><time>2024-06-08T04:25:25Z</time></trkpt><trkpt lat="35.8042543" lon="139.0897981"><ele>391.2</ele><time>2024-06-08T04:25:43Z</time></trkpt><trkpt lat="35.8044321" lon="139.0897015"><ele>389.6366666666667</ele><time>2024-06-08T04:26:19Z</time></trkpt><trkpt lat="35.8042336" lon="139.0897769"><ele>390.34</ele><time>2024-06-08T04:27:13Z</time></trkpt><trkpt lat="35.8044238" lon="139.0897331"><ele>390.37000000000006</ele><time>2024-06-08T04:28:01Z</time></trkpt><trkpt lat="35.8046148" lon="139.0896713"><ele>389.33</ele><time>2024-06-08T04:28:19Z</time></trkpt><trkpt lat="35.8046545" lon="139.0899243"><ele>388.47333333333336</ele><time>2024-06-08T04:30:19Z</time></trkpt><trkpt lat="35.8044898" lon="139.0900625"><ele>387.0366666666667</ele><time>2024-06-08T04:31:16Z</time></trkpt><trkpt lat="35.8043633" lon="139.0902272"><ele>386.22333333333336</ele><time>2024-06-08T04:31:37Z</time></trkpt><trkpt lat="35.8044359" lon="139.0904374"><ele>385.87999999999994</ele><time>2024-06-08T04:32:03Z</time></trkpt><trkpt lat="35.8045421" lon="139.0906685"><ele>388.23</ele><time>2024-06-08T04:32:22Z</time></trkpt><trkpt lat="35.8046891" lon="139.0908005"><ele>390.71</ele><time>2024-06-08T04:32:37Z</time></trkpt><trkpt lat="35.8047675" lon="139.091026"><ele>389.34999999999997</ele><time>2024-06-08T04:33:13Z</time></trkpt><trkpt lat="35.8049081" lon="139.0911938"><ele>388.8233333333333</ele><time>2024-06-08T04:33:34Z</time></trkpt><trkpt lat="35.8049828" lon="139.0914417"><ele>387.08666666666676</ele><time>2024-06-08T04:33:55Z</time></trkpt><trkpt lat="35.805131" lon="139.0916069"><ele>387.8066666666667</ele><time>2024-06-08T04:34:16Z</time></trkpt><trkpt lat="35.8051654" lon="139.0918505"><ele>382.77</ele><time>2024-06-08T04:35:10Z</time></trkpt><trkpt lat="35.8052828" lon="139.0920439"><ele>378.77</ele><time>2024-06-08T04:35:25Z</time></trkpt><trkpt lat="35.8053813" lon="139.0922369"><ele>375.99666666666667</ele><time>2024-06-08T04:35:43Z</time></trkpt><trkpt lat="35.8054471" lon="139.0924666"><ele>377.68333333333334</ele><time>2024-06-08T04:36:04Z</time></trkpt><trkpt lat="35.8055536" lon="139.0926865"><ele>380.00333333333333</ele><time>2024-06-08T04:37:28Z</time></trkpt><trkpt lat="35.8056616" lon="139.0928865"><ele>381.9766666666667</ele><time>2024-06-08T04:37:49Z</time></trkpt><trkpt lat="35.8057794" lon="139.0931245"><ele>385.12999999999994</ele><time>2024-06-08T04:38:08Z</time></trkpt><trkpt lat="35.8056618" lon="139.092924"><ele>386.08666666666664</ele><time>2024-06-08T04:38:38Z</time></trkpt><trkpt lat="35.8064087" lon="139.09365"><ele>386.98</ele><time>2024-06-08T04:38:57Z</time></trkpt><trkpt lat="35.8066254" lon="139.0937929"><ele>380.1566666666667</ele><time>2024-06-08T04:39:01Z</time></trkpt><trkpt lat="35.8068136" lon="139.0939505"><ele>375.09999999999997</ele><time>2024-06-08T04:39:31Z</time></trkpt><trkpt lat="35.8069971" lon="139.0939904"><ele>369.4266666666667</ele><time>2024-06-08T04:39:49Z</time></trkpt><trkpt lat="35.8071601" lon="139.0940909"><ele>369.9266666666667</ele><time>2024-06-08T04:40:01Z</time></trkpt><trkpt lat="35.8073045" lon="139.0942595"><ele>370.77</ele><time>2024-06-08T04:40:16Z</time></trkpt><trkpt lat="35.8075063" lon="139.0941881"><ele>372.75666666666666</ele><time>2024-06-08T04:40:31Z</time></trkpt><trkpt lat="35.8076833" lon="139.094385"><ele>372.3066666666667</ele><time>2024-06-08T04:40:49Z</time></trkpt><trkpt lat="35.8078824" lon="139.0943298"><ele>373.4633333333333</ele><time>2024-06-08T04:41:03Z</time></trkpt><trkpt lat="35.8077187" lon="139.0944861"><ele>370.08</ele><time>2024-06-08T04:41:21Z</time></trkpt><trkpt lat="35.8075031" lon="139.094546"><ele>368.22333333333336</ele><time>2024-06-08T04:41:33Z</time></trkpt><trkpt lat="35.8073109" lon="139.0946905"><ele>362.6966666666667</ele><time>2024-06-08T04:41:47Z</time></trkpt><trkpt lat="35.8071685" lon="139.0948823"><ele>358.7366666666667</ele><time>2024-06-08T04:42:05Z</time></trkpt><trkpt lat="35.807117" lon="139.0951457"><ele>353.76666666666665</ele><time>2024-06-08T04:42:26Z</time></trkpt><trkpt lat="35.8071822" lon="139.0953822"><ele>348.6033333333333</ele><time>2024-06-08T04:42:46Z</time></trkpt><trkpt lat="35.8071492" lon="139.0956322"><ele>343.1366666666666</ele><time>2024-06-08T04:43:01Z</time></trkpt><trkpt lat="35.8073235" lon="139.0957294"><ele>338.72</ele><time>2024-06-08T04:43:43Z</time></trkpt><trkpt lat="35.8075082" lon="139.0958476"><ele>335.21333333333337</ele><time>2024-06-08T04:43:55Z</time></trkpt><trkpt lat="35.8076898" lon="139.0959503"><ele>330.2033333333333</ele><time>2024-06-08T04:44:07Z</time></trkpt><trkpt lat="35.807713" lon="139.0961898"><ele>321.21333333333337</ele><time>2024-06-08T04:44:18Z</time></trkpt><trkpt lat="35.8078627" lon="139.0963406"><ele>313.5933333333333</ele><time>2024-06-08T04:44:33Z</time></trkpt><trkpt lat="35.8079435" lon="139.09654"><ele>316.26666666666665</ele><time>2024-06-08T04:44:45Z</time></trkpt><trkpt lat="35.8081235" lon="139.0966621"><ele>327.09999999999997</ele><time>2024-06-08T04:44:56Z</time></trkpt><trkpt lat="35.8081588" lon="139.096898"><ele>338.2166666666667</ele><time>2024-06-08T04:45:11Z</time></trkpt><trkpt lat="35.8082534" lon="139.0971042"><ele>342.23333333333335</ele><time>2024-06-08T04:45:23Z</time></trkpt><trkpt lat="35.808394" lon="139.0972527"><ele>343.18666666666667</ele><time>2024-06-08T04:45:34Z</time></trkpt><trkpt lat="35.8085335" lon="139.0970396"><ele>343.56</ele><time>2024-06-08T04:45:57Z</time></trkpt><trkpt lat="35.8087079" lon="139.0969085"><ele>343.6933333333334</ele><time>2024-06-08T04:46:08Z</time></trkpt><trkpt lat="35.8088483" lon="139.0967406"><ele>343.24666666666667</ele><time>2024-06-08T04:46:20Z</time></trkpt></trkseg></trk></gpx>