<?xml version='1.0' encoding='UTF-8'?><gpx creator="YAMAP - https://yamap.com" xsi:schemaLocation="http://www.topografix.com/GPX/1/1 http://www.topografix.com/GPX/1/1/gpx.xsd" version="1.1" xmlns="http://www.topografix.com/GPX/1/1" xmlns:xsi="http://www.w3.org/2001/XMLSchema-instance"><metadata><bounds maxlat="35.6642688" maxlon="139.2703884" minlat="35.6220292" minlon="139.1664633"/></metadata><trk><name>陣馬山・南郷山・富士小屋山・赤岩山・景信山・城山（小仏城山）・高尾山</name><number>1</number><trkseg><trkpt lat="35.6634561" lon="139.1893143"><ele>328.37</ele><time>2023-01-20T23:48:37Z</time></trkpt><trkpt lat="35.6634198" lon="139.1890885"><ele>328.53</ele><time>2023-01-20T23:49:48Z</time></trkpt><trkpt lat="35.663513" lon="139.188894"><ele>328.24666666666667</ele><time>2023-01-20T23:50:03Z</time></trkpt><trkpt lat="35.6635477" lon="139.1886742"><ele>328.37333333333333</ele><time>2023-01-20T23:50:17Z</time></trkpt><trkpt lat="35.6635539" lon="139.1884525"><ele>328.5266666666667</ele><time>2023-01-20T23:50:33Z</time></trkpt><trkpt lat="35.6636503" lon="139.1882498"><ele>331.09333333333336</ele><time>2023-01-20T23:50:45Z</time></trkpt><trkpt lat="35.6637186" lon="139.1880403"><ele>334.21999999999997</ele><time>2023-01-20T23:51:03Z</time></trkpt><trkpt lat="35.663776" lon="139.1878215"><ele>336.4166666666667</ele><time>2023-01-20T23:51:15Z</time></trkpt><trkpt lat="35.6638481" lon="139.1875925"><ele>336.8433333333333</ele><time>2023-01-20T23:51:27Z</time></trkpt><trkpt lat="35.6638697" lon="139.1873723"><ele>336.84333333333336</ele><time>2023-01-20T23:51:42Z</time></trkpt><trkpt lat="35.6640511" lon="139.1874468"><ele>339.4066666666667</ele><time>2023-01-20T23:51:51Z</time></trkpt><trkpt lat="35.6641352" lon="139.1872496"><ele>343.0466666666666</ele><time>2023-01-20T23:52:06Z</time></trkpt><trkpt lat="35.6640673" lon="139.1870419"><ele>344.74333333333334</ele><time>2023-01-20T23:52:13Z</time></trkpt><trkpt lat="35.6640636" lon="139.1867962"><ele>344.28666666666663</ele><time>2023-01-20T23:52:26Z</time></trkpt><trkpt lat="35.6641158" lon="139.1865769"><ele>342.64000000000004</ele><time>2023-01-20T23:52:41Z</time></trkpt><trkpt lat="35.6642688" lon="139.1864527"><ele>344.09</ele><time>2023-01-20T23:52:57Z</time></trkpt><trkpt lat="35.664203" lon="139.1862339"><ele>346.23</ele><time>2023-01-20T23:53:14Z</time></trkpt><trkpt lat="35.6640921" lon="139.1860338"><ele>348.3733333333333</ele><time>2023-01-20T23:53:32Z</time></trkpt><trkpt lat="35.6640415" lon="139.1858146"><ele>349.37999999999994</ele><time>2023-01-20T23:53:39Z</time></trkpt><trkpt lat="35.6639788" lon="139.1855974"><ele>351.9333333333334</ele><time>2023-01-20T23:53:56Z</time></trkpt><trkpt lat="35.6638981" lon="139.1853904"><ele>354.72333333333336</ele><time>2023-01-20T23:54:10Z</time></trkpt><trkpt lat="35.6638547" lon="139.1851735"><ele>359.0233333333333</ele><time>2023-01-20T23:54:27Z</time></trkpt><trkpt lat="35.6638301" lon="139.1849403"><ele>361.9533333333334</ele><time>2023-01-20T23:54:48Z</time></trkpt><trkpt lat="35.6637202" lon="139.1847595"><ele>368.22333333333336</ele><time>2023-01-20T23:55:00Z</time></trkpt><trkpt lat="35.6635389" lon="139.1847281"><ele>369.8966666666667</ele><time>2023-01-20T23:55:12Z</time></trkpt><trkpt lat="35.6633614" lon="139.184646"><ele>370.85999999999996</ele><time>2023-01-20T23:55:25Z</time></trkpt><trkpt lat="35.6631759" lon="139.1845684"><ele>368.0933333333333</ele><time>2023-01-20T23:55:40Z</time></trkpt><trkpt lat="35.6630374" lon="139.1844259"><ele>367.56666666666666</ele><time>2023-01-20T23:55:55Z</time></trkpt><trkpt lat="35.6628846" lon="139.1843"><ele>367.3</ele><time>2023-01-20T23:56:16Z</time></trkpt><trkpt lat="35.6628154" lon="139.1840922"><ele>367.3</ele><time>2023-01-20T23:56:35Z</time></trkpt><trkpt lat="35.6628083" lon="139.183863"><ele>368.77</ele><time>2023-01-20T23:56:46Z</time></trkpt><trkpt lat="35.6627487" lon="139.1836438"><ele>371.2633333333333</ele><time>2023-01-20T23:56:56Z</time></trkpt><trkpt lat="35.6626721" lon="139.183443"><ele>374.5366666666667</ele><time>2023-01-20T23:57:08Z</time></trkpt><trkpt lat="35.6625706" lon="139.1832472"><ele>376.96000000000004</ele><time>2023-01-20T23:57:21Z</time></trkpt><trkpt lat="35.6624429" lon="139.1830902"><ele>378.48333333333335</ele><time>2023-01-20T23:57:44Z</time></trkpt><trkpt lat="35.6623017" lon="139.182933"><ele>379.67</ele><time>2023-01-20T23:57:56Z</time></trkpt><trkpt lat="35.6622818" lon="139.1826992"><ele>382.1233333333333</ele><time>2023-01-20T23:58:11Z</time></trkpt><trkpt lat="35.6622939" lon="139.1824756"><ele>384.59999999999997</ele><time>2023-01-20T23:58:27Z</time></trkpt><trkpt lat="35.6622385" lon="139.1822595"><ele>387.3733333333334</ele><time>2023-01-20T23:58:47Z</time></trkpt><trkpt lat="35.662093" lon="139.1821227"><ele>388.0</ele><time>2023-01-20T23:59:05Z</time></trkpt><trkpt lat="35.6619637" lon="139.1819526"><ele>389.48333333333335</ele><time>2023-01-20T23:59:25Z</time></trkpt><trkpt lat="35.6618641" lon="139.1817621"><ele>392.8666666666666</ele><time>2023-01-20T23:59:40Z</time></trkpt><trkpt lat="35.66172" lon="139.1816268"><ele>398.8233333333333</ele><time>2023-01-21T00:00:02Z</time></trkpt><trkpt lat="35.6615605" lon="139.1815197"><ele>403.27666666666664</ele><time>2023-01-21T00:00:16Z</time></trkpt><trkpt lat="35.6614315" lon="139.1813418"><ele>404.78</ele><time>2023-01-21T00:00:33Z</time></trkpt><trkpt lat="35.661289" lon="139.1811692"><ele>403.1433333333334</ele><time>2023-01-21T00:00:47Z</time></trkpt><trkpt lat="35.6612236" lon="139.1809577"><ele>401.7133333333333</ele><time>2023-01-21T00:01:01Z</time></trkpt><trkpt lat="35.6612732" lon="139.1807424"><ele>401.07666666666665</ele><time>2023-01-21T00:01:22Z</time></trkpt><trkpt lat="35.6611577" lon="139.1805659"><ele>400.34666666666664</ele><time>2023-01-21T00:01:37Z</time></trkpt><trkpt lat="35.661058" lon="139.1803646"><ele>399.96999999999997</ele><time>2023-01-21T00:01:53Z</time></trkpt><trkpt lat="35.6608731" lon="139.1802869"><ele>399.2033333333334</ele><time>2023-01-21T00:02:14Z</time></trkpt><trkpt lat="35.6607091" lon="139.1803974"><ele>399.38000000000005</ele><time>2023-01-21T00:02:33Z</time></trkpt><trkpt lat="35.6605235" lon="139.1804417"><ele>400.2166666666667</ele><time>2023-01-21T00:02:49Z</time></trkpt><trkpt lat="35.6603434" lon="139.180453"><ele>402.25666666666666</ele><time>2023-01-21T00:03:00Z</time></trkpt><trkpt lat="35.66019" lon="139.1805861"><ele>403.56666666666666</ele><time>2023-01-21T00:03:15Z</time></trkpt><trkpt lat="35.6600054" lon="139.1805751"><ele>404.93666666666667</ele><time>2023-01-21T00:03:29Z</time></trkpt><trkpt lat="35.6598247" lon="139.1805117"><ele>404.57</ele><time>2023-01-21T00:03:52Z</time></trkpt><trkpt lat="35.6597011" lon="139.1803433"><ele>405.7266666666667</ele><time>2023-01-21T00:04:04Z</time></trkpt><trkpt lat="35.6595783" lon="139.1801585"><ele>406.32666666666665</ele><time>2023-01-21T00:04:18Z</time></trkpt><trkpt lat="35.6595597" lon="139.1799318"><ele>407.4166666666667</ele><time>2023-01-21T00:04:32Z</time></trkpt><trkpt lat="35.6595686" lon="139.1796977"><ele>408.22</ele><time>2023-01-21T00:04:54Z</time></trkpt><trkpt lat="35.6596001" lon="139.1794726"><ele>409.6033333333333</ele><time>2023-01-21T00:05:24Z</time></trkpt><trkpt lat="35.6597518" lon="139.1793531"><ele>420.0566666666667</ele><time>2023-01-21T00:05:43Z</time></trkpt><trkpt lat="35.6597419" lon="139.1791324"><ele>434.78000000000003</ele><time>2023-01-21T00:05:52Z</time></trkpt><trkpt lat="35.6595798" lon="139.1790183"><ele>438.31666666666666</ele><time>2023-01-21T00:06:03Z</time></trkpt><trkpt lat="35.6594652" lon="139.1788303"><ele>432.1366666666667</ele><time>2023-01-21T00:06:16Z</time></trkpt><trkpt lat="35.6594455" lon="139.178605"><ele>421.9533333333333</ele><time>2023-01-21T00:06:34Z</time></trkpt><trkpt lat="35.6594579" lon="139.1783823"><ele>427.2966666666666</ele><time>2023-01-21T00:06:47Z</time></trkpt><trkpt lat="35.6592772" lon="139.1783112"><ele>428.5266666666667</ele><time>2023-01-21T00:08:31Z</time></trkpt><trkpt lat="35.6591752" lon="139.1781265"><ele>431.6966666666667</ele><time>2023-01-21T00:08:48Z</time></trkpt><trkpt lat="35.6589801" lon="139.1781312"><ele>429.05333333333334</ele><time>2023-01-21T00:09:13Z</time></trkpt><trkpt lat="35.6588392" lon="139.1779516"><ele>431.83666666666664</ele><time>2023-01-21T00:09:23Z</time></trkpt><trkpt lat="35.6587266" lon="139.1777665"><ele>432.97333333333336</ele><time>2023-01-21T00:09:31Z</time></trkpt><trkpt lat="35.6585467" lon="139.1777354"><ele>436.33666666666664</ele><time>2023-01-21T00:09:59Z</time></trkpt><trkpt lat="35.658689" lon="139.1775939"><ele>438.25</ele><time>2023-01-21T00:10:31Z</time></trkpt><trkpt lat="35.6587076" lon="139.1773353"><ele>439.8</ele><time>2023-01-21T00:10:34Z</time></trkpt><trkpt lat="35.6585816" lon="139.1771671"><ele>441.1566666666667</ele><time>2023-01-21T00:10:44Z</time></trkpt><trkpt lat="35.6584243" lon="139.1770202"><ele>444.62000000000006</ele><time>2023-01-21T00:11:16Z</time></trkpt><trkpt lat="35.6583507" lon="139.1768045"><ele>447.65000000000003</ele><time>2023-01-21T00:11:21Z</time></trkpt><trkpt lat="35.6583036" lon="139.1765905"><ele>450.35999999999996</ele><time>2023-01-21T00:11:31Z</time></trkpt><trkpt lat="35.6581549" lon="139.1764571"><ele>454.1033333333333</ele><time>2023-01-21T00:11:52Z</time></trkpt><trkpt lat="35.6583285" lon="139.1763756"><ele>457.0566666666667</ele><time>2023-01-21T00:12:20Z</time></trkpt><trkpt lat="35.6582891" lon="139.1761589"><ele>460.83666666666664</ele><time>2023-01-21T00:12:35Z</time></trkpt><trkpt lat="35.6583249" lon="139.1759338"><ele>462.86666666666673</ele><time>2023-01-21T00:13:15Z</time></trkpt><trkpt lat="35.6582691" lon="139.1757202"><ele>468.4466666666667</ele><time>2023-01-21T00:13:52Z</time></trkpt><trkpt lat="35.6581587" lon="139.1755393"><ele>474.65000000000003</ele><time>2023-01-21T00:15:04Z</time></trkpt><trkpt lat="35.6581246" lon="139.1753214"><ele>482.54333333333335</ele><time>2023-01-21T00:15:50Z</time></trkpt><trkpt lat="35.6581059" lon="139.1750992"><ele>491.72333333333336</ele><time>2023-01-21T00:16:48Z</time></trkpt><trkpt lat="35.6580377" lon="139.1748922"><ele>500.06</ele><time>2023-01-21T00:17:25Z</time></trkpt><trkpt lat="35.658043" lon="139.1746654"><ele>508.5133333333333</ele><time>2023-01-21T00:18:24Z</time></trkpt><trkpt lat="35.6579232" lon="139.174492"><ele>515.0666666666667</ele><time>2023-01-21T00:19:21Z</time></trkpt><trkpt lat="35.6578131" lon="139.1743164"><ele>522.5166666666667</ele><time>2023-01-21T00:19:52Z</time></trkpt><trkpt lat="35.6576692" lon="139.1741668"><ele>530.07</ele><time>2023-01-21T00:20:53Z</time></trkpt><trkpt lat="35.6575785" lon="139.173969"><ele>537.85</ele><time>2023-01-21T00:21:07Z</time></trkpt><trkpt lat="35.6574487" lon="139.1738075"><ele>546.6866666666666</ele><time>2023-01-21T00:22:09Z</time></trkpt><trkpt lat="35.6573322" lon="139.1736386"><ele>555.9266666666666</ele><time>2023-01-21T00:23:24Z</time></trkpt><trkpt lat="35.6572151" lon="139.1734666"><ele>564.8266666666667</ele><time>2023-01-21T00:24:17Z</time></trkpt><trkpt lat="35.6572087" lon="139.1732357"><ele>572.9133333333333</ele><time>2023-01-21T00:25:56Z</time></trkpt><trkpt lat="35.6572179" lon="139.1730146"><ele>580.6733333333333</ele><time>2023-01-21T00:26:18Z</time></trkpt><trkpt lat="35.6572978" lon="139.1728067"><ele>586.9633333333334</ele><time>2023-01-21T00:26:46Z</time></trkpt><trkpt lat="35.6571895" lon="139.1726285"><ele>592.8966666666666</ele><time>2023-01-21T00:27:31Z</time></trkpt><trkpt lat="35.6570081" lon="139.1726556"><ele>598.5433333333334</ele><time>2023-01-21T00:28:19Z</time></trkpt><trkpt lat="35.6568327" lon="139.1725929"><ele>605.0433333333334</ele><time>2023-01-21T00:28:43Z</time></trkpt><trkpt lat="35.6567313" lon="139.1724061"><ele>611.9233333333333</ele><time>2023-01-21T00:29:58Z</time></trkpt><trkpt lat="35.6565529" lon="139.1723087"><ele>617.61</ele><time>2023-01-21T00:30:12Z</time></trkpt><trkpt lat="35.6563966" lon="139.1721881"><ele>623.1366666666667</ele><time>2023-01-21T00:30:30Z</time></trkpt><trkpt lat="35.6562535" lon="139.1720497"><ele>627.13</ele><time>2023-01-21T00:31:07Z</time></trkpt><trkpt lat="35.6562" lon="139.1718286"><ele>629.5466666666666</ele><time>2023-01-21T00:31:40Z</time></trkpt><trkpt lat="35.6560517" lon="139.1716897"><ele>631.6500000000001</ele><time>2023-01-21T00:31:48Z</time></trkpt><trkpt lat="35.6558954" lon="139.1715719"><ele>634.7366666666667</ele><time>2023-01-21T00:32:22Z</time></trkpt><trkpt lat="35.6557256" lon="139.1714975"><ele>638.9899999999999</ele><time>2023-01-21T00:32:47Z</time></trkpt><trkpt lat="35.6555317" lon="139.171471"><ele>643.9966666666668</ele><time>2023-01-21T00:33:21Z</time></trkpt><trkpt lat="35.6553533" lon="139.1715189"><ele>647.0966666666667</ele><time>2023-01-21T00:33:50Z</time></trkpt><trkpt lat="35.6551654" lon="139.1715186"><ele>650.6166666666667</ele><time>2023-01-21T00:34:06Z</time></trkpt><trkpt lat="35.6549824" lon="139.1714937"><ele>654.8066666666667</ele><time>2023-01-21T00:35:17Z</time></trkpt><trkpt lat="35.6548144" lon="139.171412"><ele>659.7966666666667</ele><time>2023-01-21T00:35:45Z</time></trkpt><trkpt lat="35.6546667" lon="139.1712806"><ele>663.9166666666666</ele><time>2023-01-21T00:36:26Z</time></trkpt><trkpt lat="35.654498" lon="139.1712013"><ele>669.94</ele><time>2023-01-21T00:37:26Z</time></trkpt><trkpt lat="35.6543343" lon="139.1711021"><ele>677.0233333333333</ele><time>2023-01-21T00:38:11Z</time></trkpt><trkpt lat="35.6542487" lon="139.1709046"><ele>684.62</ele><time>2023-01-21T00:38:58Z</time></trkpt><trkpt lat="35.6540997" lon="139.1707672"><ele>689.1266666666667</ele><time>2023-01-21T00:39:31Z</time></trkpt><trkpt lat="35.6539407" lon="139.1706624"><ele>694.39</ele><time>2023-01-21T00:40:13Z</time></trkpt><trkpt lat="35.6537801" lon="139.1705521"><ele>699.9166666666666</ele><time>2023-01-21T00:40:58Z</time></trkpt><trkpt lat="35.6536076" lon="139.1704849"><ele>705.7833333333333</ele><time>2023-01-21T00:41:40Z</time></trkpt><trkpt lat="35.6534394" lon="139.1703667"><ele>712.3366666666667</ele><time>2023-01-21T00:42:14Z</time></trkpt><trkpt lat="35.6532955" lon="139.1702279"><ele>718.4233333333333</ele><time>2023-01-21T00:42:55Z</time></trkpt><trkpt lat="35.6531511" lon="139.1700925"><ele>726.32</ele><time>2023-01-21T00:43:57Z</time></trkpt><trkpt lat="35.6529815" lon="139.1700109"><ele>733.5333333333333</ele><time>2023-01-21T00:44:30Z</time></trkpt><trkpt lat="35.6527999" lon="139.1700247"><ele>741.54</ele><time>2023-01-21T00:45:11Z</time></trkpt><trkpt lat="35.6526369" lon="139.1699276"><ele>747.1</ele><time>2023-01-21T00:45:34Z</time></trkpt><trkpt lat="35.6524722" lon="139.1698031"><ele>750.1866666666666</ele><time>2023-01-21T00:45:46Z</time></trkpt><trkpt lat="35.6524187" lon="139.1695887"><ele>749.8766666666667</ele><time>2023-01-21T00:45:59Z</time></trkpt><trkpt lat="35.6524433" lon="139.1693686"><ele>747.2199999999999</ele><time>2023-01-21T00:46:20Z</time></trkpt><trkpt lat="35.6523083" lon="139.1692123"><ele>747.2333333333335</ele><time>2023-01-21T00:46:53Z</time></trkpt><trkpt lat="35.6522283" lon="139.1689914"><ele>752.8833333333333</ele><time>2023-01-21T00:47:06Z</time></trkpt><trkpt lat="35.652187" lon="139.1687751"><ele>765.0333333333334</ele><time>2023-01-21T00:47:55Z</time></trkpt><trkpt lat="35.6520691" lon="139.1686051"><ele>776.9566666666666</ele><time>2023-01-21T00:48:10Z</time></trkpt><trkpt lat="35.6519337" lon="139.1684517"><ele>786.52</ele><time>2023-01-21T00:48:38Z</time></trkpt><trkpt lat="35.6520104" lon="139.1686529"><ele>787.7033333333334</ele><time>2023-01-21T00:49:32Z</time></trkpt><trkpt lat="35.6521786" lon="139.1687448"><ele>784.7266666666668</ele><time>2023-01-21T00:49:55Z</time></trkpt><trkpt lat="35.6523362" lon="139.1686246"><ele>783.5600000000001</ele><time>2023-01-21T00:50:09Z</time></trkpt><trkpt lat="35.6525131" lon="139.1685742"><ele>785.4666666666667</ele><time>2023-01-21T00:50:27Z</time></trkpt><trkpt lat="35.6526605" lon="139.1684428"><ele>791.1666666666666</ele><time>2023-01-21T00:51:02Z</time></trkpt><trkpt lat="35.6527899" lon="139.1682809"><ele>794.4899999999999</ele><time>2023-01-21T00:51:24Z</time></trkpt><trkpt lat="35.6529131" lon="139.1681106"><ele>796.9633333333333</ele><time>2023-01-21T00:51:51Z</time></trkpt><trkpt lat="35.6529471" lon="139.1678902"><ele>798.9499999999999</ele><time>2023-01-21T00:52:10Z</time></trkpt><trkpt lat="35.6529597" lon="139.1676586"><ele>802.7433333333333</ele><time>2023-01-21T00:52:28Z</time></trkpt><trkpt lat="35.6530692" lon="139.1674805"><ele>810.7266666666666</ele><time>2023-01-21T00:53:15Z</time></trkpt><trkpt lat="35.6532145" lon="139.1673068"><ele>819.0833333333334</ele><time>2023-01-21T00:53:58Z</time></trkpt><trkpt lat="35.6532563" lon="139.1670911"><ele>826.0</ele><time>2023-01-21T00:54:34Z</time></trkpt><trkpt lat="35.653135" lon="139.1669253"><ele>831.1733333333333</ele><time>2023-01-21T00:55:04Z</time></trkpt><trkpt lat="35.6529899" lon="139.1667911"><ele>834.9699999999999</ele><time>2023-01-21T00:55:15Z</time></trkpt><trkpt lat="35.6528151" lon="139.1667273"><ele>838.8333333333334</ele><time>2023-01-21T00:55:34Z</time></trkpt><trkpt lat="35.6526424" lon="139.1666319"><ele>842.1199999999999</ele><time>2023-01-21T00:55:57Z</time></trkpt><trkpt lat="35.6525846" lon="139.1668425"><ele>843.7733333333332</ele><time>2023-01-21T00:56:15Z</time></trkpt><trkpt lat="35.6524487" lon="139.1666853"><ele>845.8033333333333</ele><time>2023-01-21T00:59:00Z</time></trkpt><trkpt lat="35.6522758" lon="139.1666045"><ele>847.9033333333333</ele><time>2023-01-21T00:59:57Z</time></trkpt><trkpt lat="35.6521053" lon="139.1665128"><ele>851.2133333333333</ele><time>2023-01-21T01:00:36Z</time></trkpt><trkpt lat="35.6522748" lon="139.1666431"><ele>852.3566666666667</ele><time>2023-01-21T01:01:39Z</time></trkpt><trkpt lat="35.6521101" lon="139.1665461"><ele>853.0533333333333</ele><time>2023-01-21T01:02:30Z</time></trkpt><trkpt lat="35.6519418" lon="139.1664633"><ele>852.3366666666667</ele><time>2023-01-21T01:05:24Z</time></trkpt><trkpt lat="35.6517667" lon="139.1665339"><ele>851.2600000000001</ele><time>2023-01-21T01:06:59Z</time></trkpt><trkpt lat="35.6515804" lon="139.1665804"><ele>848.5600000000001</ele><time>2023-01-21T01:07:13Z</time></trkpt><trkpt lat="35.6513987" lon="139.166603"><ele>845.65</ele><time>2023-01-21T01:07:27Z</time></trkpt><trkpt lat="35.6512119" lon="139.1666128"><ele>841.8033333333333</ele><time>2023-01-21T01:07:51Z</time></trkpt><trkpt lat="35.6510644" lon="139.1667429"><ele>838.4900000000001</ele><time>2023-01-21T01:08:08Z</time></trkpt><trkpt lat="35.6510186" lon="139.1669567"><ele>834.7366666666667</ele><time>2023-01-21T01:08:22Z</time></trkpt><trkpt lat="35.6509743" lon="139.1671738"><ele>830.32</ele><time>2023-01-21T01:08:39Z</time></trkpt><trkpt lat="35.6509498" lon="139.1674045"><ele>825.8699999999999</ele><time>2023-01-21T01:08:56Z</time></trkpt><trkpt lat="35.6510035" lon="139.1676238"><ele>823.39</ele><time>2023-01-21T01:09:11Z</time></trkpt><trkpt lat="35.6510891" lon="139.1678336"><ele>822.59</ele><time>2023-01-21T01:09:26Z</time></trkpt><trkpt lat="35.6511769" lon="139.1680397"><ele>821.1300000000001</ele><time>2023-01-21T01:09:40Z</time></trkpt><trkpt lat="35.6512595" lon="139.1682413"><ele>817.6633333333334</ele><time>2023-01-21T01:09:54Z</time></trkpt><trkpt lat="35.6512246" lon="139.168461"><ele>814.7933333333334</ele><time>2023-01-21T01:10:11Z</time></trkpt><trkpt lat="35.6512067" lon="139.1686838"><ele>812.6166666666667</ele><time>2023-01-21T01:10:25Z</time></trkpt><trkpt lat="35.6512073" lon="139.1689085"><ele>810.71</ele><time>2023-01-21T01:10:40Z</time></trkpt><trkpt lat="35.6513031" lon="139.1691004"><ele>808.0933333333334</ele><time>2023-01-21T01:10:54Z</time></trkpt><trkpt lat="35.651396" lon="139.1693023"><ele>805.8366666666667</ele><time>2023-01-21T01:11:06Z</time></trkpt><trkpt lat="35.6514764" lon="139.169514"><ele>804.4499999999999</ele><time>2023-01-21T01:11:18Z</time></trkpt><trkpt lat="35.6514985" lon="139.1697458"><ele>803.4866666666667</ele><time>2023-01-21T01:11:32Z</time></trkpt><trkpt lat="35.6513558" lon="139.1698874"><ele>802.7033333333334</ele><time>2023-01-21T01:11:47Z</time></trkpt><trkpt lat="35.6511728" lon="139.1699179"><ele>801.8166666666667</ele><time>2023-01-21T01:12:03Z</time></trkpt><trkpt lat="35.6510513" lon="139.1700936"><ele>800.1133333333333</ele><time>2023-01-21T01:12:29Z</time></trkpt><trkpt lat="35.6510024" lon="139.1703139"><ele>797.6466666666666</ele><time>2023-01-21T01:12:41Z</time></trkpt><trkpt lat="35.6508713" lon="139.1704814"><ele>795.4</ele><time>2023-01-21T01:12:57Z</time></trkpt><trkpt lat="35.6507521" lon="139.1706637"><ele>793.6266666666667</ele><time>2023-01-21T01:13:09Z</time></trkpt><trkpt lat="35.6506323" lon="139.170832"><ele>792.9666666666667</ele><time>2023-01-21T01:13:22Z</time></trkpt><trkpt lat="35.6505445" lon="139.1710268"><ele>792.1</ele><time>2023-01-21T01:13:34Z</time></trkpt><trkpt lat="35.6505109" lon="139.171259"><ele>791.9566666666666</ele><time>2023-01-21T01:13:48Z</time></trkpt><trkpt lat="35.6504416" lon="139.1714659"><ele>791.3966666666666</ele><time>2023-01-21T01:14:02Z</time></trkpt><trkpt lat="35.6503701" lon="139.1716828"><ele>791.0866666666667</ele><time>2023-01-21T01:14:13Z</time></trkpt><trkpt lat="35.6503253" lon="139.1719066"><ele>789.6433333333334</ele><time>2023-01-21T01:14:27Z</time></trkpt><trkpt lat="35.6503268" lon="139.1721365"><ele>787.6100000000001</ele><time>2023-01-21T01:14:39Z</time></trkpt><trkpt lat="35.6503287" lon="139.172366"><ele>784.8600000000001</ele><time>2023-01-21T01:14:53Z</time></trkpt><trkpt lat="35.6504047" lon="139.1725722"><ele>782.3133333333334</ele><time>2023-01-21T01:15:10Z</time></trkpt><trkpt lat="35.6504393" lon="139.1727979"><ele>780.0600000000001</ele><time>2023-01-21T01:15:21Z</time></trkpt><trkpt lat="35.6504391" lon="139.1730245"><ele>778.3233333333334</ele><time>2023-01-21T01:15:35Z</time></trkpt><trkpt lat="35.6504598" lon="139.1732513"><ele>777.2800000000001</ele><time>2023-01-21T01:15:47Z</time></trkpt><trkpt lat="35.6503968" lon="139.1734657"><ele>777.2533333333334</ele><time>2023-01-21T01:16:05Z</time></trkpt><trkpt lat="35.650313" lon="139.1736743"><ele>774.7966666666667</ele><time>2023-01-21T01:16:24Z</time></trkpt><trkpt lat="35.6502304" lon="139.1738763"><ele>773.2866666666667</ele><time>2023-01-21T01:16:38Z</time></trkpt><trkpt lat="35.6501291" lon="139.1740608"><ele>771.0366666666667</ele><time>2023-01-21T01:16:56Z</time></trkpt><trkpt lat="35.6500328" lon="139.1742605"><ele>769.3766666666667</ele><time>2023-01-21T01:17:14Z</time></trkpt><trkpt lat="35.6499982" lon="139.1744971"><ele>766.4566666666666</ele><time>2023-01-21T01:17:26Z</time></trkpt><trkpt lat="35.6499925" lon="139.17472"><ele>762.3066666666667</ele><time>2023-01-21T01:17:38Z</time></trkpt><trkpt lat="35.649956" lon="139.1749365"><ele>758.1866666666666</ele><time>2023-01-21T01:17:52Z</time></trkpt><trkpt lat="35.6498326" lon="139.1750976"><ele>754.1633333333333</ele><time>2023-01-21T01:18:06Z</time></trkpt><trkpt lat="35.6498122" lon="139.1753263"><ele>751.3233333333334</ele><time>2023-01-21T01:18:27Z</time></trkpt><trkpt lat="35.6496188" lon="139.1753778"><ele>752.0333333333334</ele><time>2023-01-21T01:18:36Z</time></trkpt><trkpt lat="35.6494396" lon="139.1753347"><ele>751.7166666666667</ele><time>2023-01-21T01:18:47Z</time></trkpt><trkpt lat="35.649277" lon="139.1754422"><ele>750.2266666666668</ele><time>2023-01-21T01:18:59Z</time></trkpt><trkpt lat="35.6490921" lon="139.1754151"><ele>743.58</ele><time>2023-01-21T01:19:22Z</time></trkpt><trkpt lat="35.6489954" lon="139.1756233"><ele>740.3933333333334</ele><time>2023-01-21T01:19:32Z</time></trkpt><trkpt lat="35.6488579" lon="139.1758066"><ele>741.7600000000001</ele><time>2023-01-21T01:19:39Z</time></trkpt><trkpt lat="35.6486911" lon="139.1759524"><ele>747.79</ele><time>2023-01-21T01:19:50Z</time></trkpt><trkpt lat="35.6485068" lon="139.1759317"><ele>751.8400000000001</ele><time>2023-01-21T01:20:04Z</time></trkpt><trkpt lat="35.6483275" lon="139.1760099"><ele>752.5766666666667</ele><time>2023-01-21T01:20:20Z</time></trkpt><trkpt lat="35.6481705" lon="139.1761294"><ele>752.4433333333335</ele><time>2023-01-21T01:20:43Z</time></trkpt><trkpt lat="35.6480111" lon="139.1762453"><ele>752.5300000000001</ele><time>2023-01-21T01:20:55Z</time></trkpt><trkpt lat="35.6478561" lon="139.1763788"><ele>752.83</ele><time>2023-01-21T01:21:07Z</time></trkpt><trkpt lat="35.6477515" lon="139.176563"><ele>753.2733333333334</ele><time>2023-01-21T01:21:21Z</time></trkpt><trkpt lat="35.64766" lon="139.1767676"><ele>754.41</ele><time>2023-01-21T01:21:38Z</time></trkpt><trkpt lat="35.6475254" lon="139.1769156"><ele>756.9133333333333</ele><time>2023-01-21T01:21:56Z</time></trkpt><trkpt lat="35.6473704" lon="139.1770472"><ele>759.5833333333334</ele><time>2023-01-21T01:22:16Z</time></trkpt><trkpt lat="35.6471831" lon="139.1771257"><ele>761.1133333333333</ele><time>2023-01-21T01:22:29Z</time></trkpt><trkpt lat="35.6470018" lon="139.1771318"><ele>760.9566666666666</ele><time>2023-01-21T01:22:42Z</time></trkpt><trkpt lat="35.6468504" lon="139.1772591"><ele>759.5</ele><time>2023-01-21T01:23:09Z</time></trkpt><trkpt lat="35.6468044" lon="139.1774728"><ele>755.48</ele><time>2023-01-21T01:23:21Z</time></trkpt><trkpt lat="35.6467036" lon="139.1776568"><ele>749.68</ele><time>2023-01-21T01:23:36Z</time></trkpt><trkpt lat="35.6466311" lon="139.1778628"><ele>742.9066666666668</ele><time>2023-01-21T01:24:01Z</time></trkpt><trkpt lat="35.6464555" lon="139.1779172"><ele>738.5933333333334</ele><time>2023-01-21T01:24:21Z</time></trkpt><trkpt lat="35.6463008" lon="139.1780358"><ele>736.1866666666666</ele><time>2023-01-21T01:24:36Z</time></trkpt><trkpt lat="35.6461562" lon="139.1781733"><ele>735.5033333333334</ele><time>2023-01-21T01:24:52Z</time></trkpt><trkpt lat="35.6460367" lon="139.1783406"><ele>734.88</ele><time>2023-01-21T01:25:16Z</time></trkpt><trkpt lat="35.6458775" lon="139.1784978"><ele>734.21</ele><time>2023-01-21T01:25:26Z</time></trkpt><trkpt lat="35.6457266" lon="139.1786332"><ele>733.4166666666666</ele><time>2023-01-21T01:25:42Z</time></trkpt><trkpt lat="35.6456153" lon="139.1788157"><ele>732.5033333333332</ele><time>2023-01-21T01:25:57Z</time></trkpt><trkpt lat="35.6455663" lon="139.1790379"><ele>731.4366666666666</ele><time>2023-01-21T01:26:09Z</time></trkpt><trkpt lat="35.6456183" lon="139.1792627"><ele>728.7833333333333</ele><time>2023-01-21T01:26:21Z</time></trkpt><trkpt lat="35.6455875" lon="139.1794846"><ele>725.3433333333332</ele><time>2023-01-21T01:26:39Z</time></trkpt><trkpt lat="35.6456322" lon="139.1797187"><ele>722.6</ele><time>2023-01-21T01:26:52Z</time></trkpt><trkpt lat="35.6456646" lon="139.1799459"><ele>721.4133333333333</ele><time>2023-01-21T01:27:06Z</time></trkpt><trkpt lat="35.6457063" lon="139.1801819"><ele>721.6433333333334</ele><time>2023-01-21T01:27:20Z</time></trkpt><trkpt lat="35.6456534" lon="139.180398"><ele>721.8866666666667</ele><time>2023-01-21T01:27:34Z</time></trkpt><trkpt lat="35.6456645" lon="139.1806296"><ele>722.8466666666667</ele><time>2023-01-21T01:27:47Z</time></trkpt><trkpt lat="35.6457496" lon="139.1808297"><ele>724.2566666666668</ele><time>2023-01-21T01:27:58Z</time></trkpt><trkpt lat="35.6457535" lon="139.1810598"><ele>726.0</ele><time>2023-01-21T01:28:14Z</time></trkpt><trkpt lat="35.6457306" lon="139.1812832"><ele>728.1</ele><time>2023-01-21T01:28:30Z</time></trkpt><trkpt lat="35.6457309" lon="139.1815165"><ele>730.81</ele><time>2023-01-21T01:28:49Z</time></trkpt><trkpt lat="35.6456764" lon="139.181727"><ele>734.5533333333334</ele><time>2023-01-21T01:29:09Z</time></trkpt><trkpt lat="35.6455969" lon="139.1819267"><ele>738.1666666666666</ele><time>2023-01-21T01:29:32Z</time></trkpt><trkpt lat="35.6454969" lon="139.1821152"><ele>741.0166666666668</ele><time>2023-01-21T01:29:45Z</time></trkpt><trkpt lat="35.6454299" lon="139.1823275"><ele>742.4000000000001</ele><time>2023-01-21T01:29:59Z</time></trkpt><trkpt lat="35.6454249" lon="139.1825568"><ele>742.3733333333333</ele><time>2023-01-21T01:30:11Z</time></trkpt><trkpt lat="35.6454382" lon="139.1827839"><ele>740.9766666666668</ele><time>2023-01-21T01:30:26Z</time></trkpt><trkpt lat="35.6454488" lon="139.1830089"><ele>737.4466666666667</ele><time>2023-01-21T01:30:42Z</time></trkpt><trkpt lat="35.6453337" lon="139.1832005"><ele>735.4533333333334</ele><time>2023-01-21T01:31:02Z</time></trkpt><trkpt lat="35.6452489" lon="139.183408"><ele>734.1566666666668</ele><time>2023-01-21T01:31:14Z</time></trkpt><trkpt lat="35.6451702" lon="139.1836146"><ele>734.8000000000001</ele><time>2023-01-21T01:31:29Z</time></trkpt><trkpt lat="35.6450794" lon="139.1838145"><ele>734.1333333333333</ele><time>2023-01-21T01:31:46Z</time></trkpt><trkpt lat="35.6450311" lon="139.1840316"><ele>733.7233333333334</ele><time>2023-01-21T01:32:06Z</time></trkpt><trkpt lat="35.6448677" lon="139.1841496"><ele>732.62</ele><time>2023-01-21T01:32:37Z</time></trkpt><trkpt lat="35.6450041" lon="139.1842946"><ele>732.4833333333335</ele><time>2023-01-21T01:33:07Z</time></trkpt><trkpt lat="35.6451377" lon="139.1844432"><ele>731.9266666666667</ele><time>2023-01-21T01:33:21Z</time></trkpt><trkpt lat="35.6452918" lon="139.1845821"><ele>731.9633333333335</ele><time>2023-01-21T01:33:32Z</time></trkpt><trkpt lat="35.6454204" lon="139.1847428"><ele>731.3400000000001</ele><time>2023-01-21T01:33:45Z</time></trkpt><trkpt lat="35.6454299" lon="139.1849715"><ele>730.5066666666667</ele><time>2023-01-21T01:34:01Z</time></trkpt><trkpt lat="35.64551" lon="139.1851726"><ele>729.0433333333334</ele><time>2023-01-21T01:34:20Z</time></trkpt><trkpt lat="35.6456423" lon="139.1853311"><ele>726.9133333333333</ele><time>2023-01-21T01:34:32Z</time></trkpt><trkpt lat="35.6457551" lon="139.1855147"><ele>724.6500000000001</ele><time>2023-01-21T01:34:44Z</time></trkpt><trkpt lat="35.6457967" lon="139.1857335"><ele>722.25</ele><time>2023-01-21T01:34:57Z</time></trkpt><trkpt lat="35.6458699" lon="139.1859377"><ele>718.7533333333334</ele><time>2023-01-21T01:35:11Z</time></trkpt><trkpt lat="35.6459816" lon="139.1861196"><ele>715.29</ele><time>2023-01-21T01:35:31Z</time></trkpt><trkpt lat="35.646066" lon="139.1863182"><ele>713.1033333333334</ele><time>2023-01-21T01:35:44Z</time></trkpt><trkpt lat="35.6461052" lon="139.1865523"><ele>712.8733333333333</ele><time>2023-01-21T01:35:58Z</time></trkpt><trkpt lat="35.6461505" lon="139.1867687"><ele>713.2400000000001</ele><time>2023-01-21T01:36:14Z</time></trkpt><trkpt lat="35.6461676" lon="139.1869913"><ele>713.25</ele><time>2023-01-21T01:36:30Z</time></trkpt><trkpt lat="35.646177" lon="139.1872184"><ele>713.4366666666666</ele><time>2023-01-21T01:36:45Z</time></trkpt><trkpt lat="35.6462589" lon="139.1874347"><ele>713.6233333333333</ele><time>2023-01-21T01:36:58Z</time></trkpt><trkpt lat="35.6463508" lon="139.1876371"><ele>713.77</ele><time>2023-01-21T01:37:11Z</time></trkpt><trkpt lat="35.6464744" lon="139.1878015"><ele>713.8299999999999</ele><time>2023-01-21T01:37:23Z</time></trkpt><trkpt lat="35.6466018" lon="139.1879587"><ele>713.7633333333333</ele><time>2023-01-21T01:37:35Z</time></trkpt><trkpt lat="35.6466217" lon="139.1881831"><ele>713.7866666666667</ele><time>2023-01-21T01:37:48Z</time></trkpt><trkpt lat="35.646514" lon="139.1883652"><ele>713.4033333333333</ele><time>2023-01-21T01:38:04Z</time></trkpt><trkpt lat="35.6464873" lon="139.1885855"><ele>713.3400000000001</ele><time>2023-01-21T01:38:20Z</time></trkpt><trkpt lat="35.6464495" lon="139.1888015"><ele>713.1166666666667</ele><time>2023-01-21T01:38:34Z</time></trkpt><trkpt lat="35.6464725" lon="139.1890483"><ele>713.2400000000001</ele><time>2023-01-21T01:38:46Z</time></trkpt><trkpt lat="35.6466059" lon="139.1892"><ele>711.89</ele><time>2023-01-21T01:38:59Z</time></trkpt><trkpt lat="35.6465884" lon="139.1894241"><ele>711.4133333333334</ele><time>2023-01-21T01:39:19Z</time></trkpt><trkpt lat="35.6465508" lon="139.1896505"><ele>712.7066666666666</ele><time>2023-01-21T01:39:30Z</time></trkpt><trkpt lat="35.646628" lon="139.1898704"><ele>714.5766666666667</ele><time>2023-01-21T01:39:43Z</time></trkpt><trkpt lat="35.6466728" lon="139.1900915"><ele>717.1266666666667</ele><time>2023-01-21T01:40:00Z</time></trkpt><trkpt lat="35.6467576" lon="139.1902965"><ele>718.1866666666666</ele><time>2023-01-21T01:40:15Z</time></trkpt><trkpt lat="35.6468425" lon="139.1904957"><ele>719.8566666666667</ele><time>2023-01-21T01:40:31Z</time></trkpt><trkpt lat="35.6469339" lon="139.1906935"><ele>719.54</ele><time>2023-01-21T01:40:44Z</time></trkpt><trkpt lat="35.6470764" lon="139.1908629"><ele>718.85</ele><time>2023-01-21T01:40:58Z</time></trkpt><trkpt lat="35.6471678" lon="139.1910591"><ele>718.8466666666668</ele><time>2023-01-21T01:41:13Z</time></trkpt><trkpt lat="35.6472366" lon="139.1912654"><ele>719.7400000000001</ele><time>2023-01-21T01:41:27Z</time></trkpt><trkpt lat="35.6472705" lon="139.1914949"><ele>720.7533333333334</ele><time>2023-01-21T01:41:41Z</time></trkpt><trkpt lat="35.6473565" lon="139.1917095"><ele>721.0133333333333</ele><time>2023-01-21T01:41:58Z</time></trkpt><trkpt lat="35.6475379" lon="139.1917883"><ele>719.5466666666667</ele><time>2023-01-21T01:42:06Z</time></trkpt><trkpt lat="35.6476947" lon="139.191913"><ele>717.5366666666667</ele><time>2023-01-21T01:42:32Z</time></trkpt><trkpt lat="35.6478584" lon="139.1920091"><ele>715.2833333333334</ele><time>2023-01-21T01:42:52Z</time></trkpt><trkpt lat="35.6480277" lon="139.1921067"><ele>713.5300000000001</ele><time>2023-01-21T01:43:19Z</time></trkpt><trkpt lat="35.6481722" lon="139.1922484"><ele>711.0066666666667</ele><time>2023-01-21T01:43:37Z</time></trkpt><trkpt lat="35.6483468" lon="139.1923113"><ele>707.6533333333333</ele><time>2023-01-21T01:43:54Z</time></trkpt><trkpt lat="35.6485194" lon="139.1923954"><ele>702.5933333333332</ele><time>2023-01-21T01:44:20Z</time></trkpt><trkpt lat="35.6487" lon="139.1924083"><ele>696.2400000000001</ele><time>2023-01-21T01:44:45Z</time></trkpt><trkpt lat="35.6488653" lon="139.1923134"><ele>692.3733333333333</ele><time>2023-01-21T01:45:07Z</time></trkpt><trkpt lat="35.6490479" lon="139.1922562"><ele>690.9833333333332</ele><time>2023-01-21T01:45:19Z</time></trkpt><trkpt lat="35.6492214" lon="139.1923244"><ele>692.5366666666667</ele><time>2023-01-21T01:45:33Z</time></trkpt><trkpt lat="35.6494053" lon="139.1923304"><ele>692.68</ele><time>2023-01-21T01:45:54Z</time></trkpt><trkpt lat="35.6495889" lon="139.1923941"><ele>692.82</ele><time>2023-01-21T01:46:07Z</time></trkpt><trkpt lat="35.6497686" lon="139.1923509"><ele>692.7400000000001</ele><time>2023-01-21T01:46:21Z</time></trkpt><trkpt lat="35.6499331" lon="139.1924804"><ele>694.0133333333333</ele><time>2023-01-21T01:46:54Z</time></trkpt><trkpt lat="35.6500269" lon="139.1926728"><ele>695.3966666666666</ele><time>2023-01-21T01:47:04Z</time></trkpt><trkpt lat="35.6501414" lon="139.1928454"><ele>696.5833333333334</ele><time>2023-01-21T01:47:13Z</time></trkpt><trkpt lat="35.6502816" lon="139.1929946"><ele>697.4266666666666</ele><time>2023-01-21T01:47:21Z</time></trkpt><trkpt lat="35.6503775" lon="139.193187"><ele>697.5766666666667</ele><time>2023-01-21T01:47:29Z</time></trkpt><trkpt lat="35.6505025" lon="139.1933485"><ele>700.0266666666666</ele><time>2023-01-21T01:47:43Z</time></trkpt><trkpt lat="35.6504992" lon="139.1935696"><ele>699.9933333333333</ele><time>2023-01-21T01:47:59Z</time></trkpt><trkpt lat="35.6505726" lon="139.1937907"><ele>699.0300000000001</ele><time>2023-01-21T01:48:18Z</time></trkpt><trkpt lat="35.650708" lon="139.1939445"><ele>697.6133333333333</ele><time>2023-01-21T01:48:31Z</time></trkpt><trkpt lat="35.6508421" lon="139.194114"><ele>698.3299999999999</ele><time>2023-01-21T01:48:47Z</time></trkpt><trkpt lat="35.6510143" lon="139.194196"><ele>702.0500000000001</ele><time>2023-01-21T01:49:02Z</time></trkpt><trkpt lat="35.651038" lon="139.1944197"><ele>702.7633333333333</ele><time>2023-01-21T01:49:25Z</time></trkpt><trkpt lat="35.6511188" lon="139.1946204"><ele>703.27</ele><time>2023-01-21T01:49:36Z</time></trkpt><trkpt lat="35.6510574" lon="139.1948379"><ele>699.4833333333332</ele><time>2023-01-21T01:49:50Z</time></trkpt><trkpt lat="35.6511718" lon="139.1950105"><ele>697.1833333333334</ele><time>2023-01-21T01:50:00Z</time></trkpt><trkpt lat="35.6512734" lon="139.1952158"><ele>693.7033333333334</ele><time>2023-01-21T01:50:25Z</time></trkpt><trkpt lat="35.651301" lon="139.1954463"><ele>693.1466666666666</ele><time>2023-01-21T01:50:40Z</time></trkpt><trkpt lat="35.6512576" lon="139.1956612"><ele>693.8933333333334</ele><time>2023-01-21T01:51:21Z</time></trkpt><trkpt lat="35.6513446" lon="139.1958661"><ele>696.8666666666668</ele><time>2023-01-21T01:51:37Z</time></trkpt><trkpt lat="35.6513935" lon="139.1960967"><ele>700.2566666666667</ele><time>2023-01-21T01:51:49Z</time></trkpt><trkpt lat="35.6515188" lon="139.196259"><ele>701.8566666666667</ele><time>2023-01-21T01:52:02Z</time></trkpt><trkpt lat="35.6516844" lon="139.1963575"><ele>701.65</ele><time>2023-01-21T01:52:16Z</time></trkpt><trkpt lat="35.65185" lon="139.1964729"><ele>699.5633333333334</ele><time>2023-01-21T01:52:29Z</time></trkpt><trkpt lat="35.6518881" lon="139.1966986"><ele>696.3933333333333</ele><time>2023-01-21T01:52:44Z</time></trkpt><trkpt lat="35.6519964" lon="139.196879"><ele>693.6266666666667</ele><time>2023-01-21T01:53:01Z</time></trkpt><trkpt lat="35.6521895" lon="139.1969035"><ele>692.9566666666666</ele><time>2023-01-21T01:53:19Z</time></trkpt><trkpt lat="35.6523434" lon="139.1970266"><ele>695.0333333333333</ele><time>2023-01-21T01:53:41Z</time></trkpt><trkpt lat="35.6525014" lon="139.197137"><ele>697.0133333333333</ele><time>2023-01-21T01:53:59Z</time></trkpt><trkpt lat="35.6526398" lon="139.197294"><ele>696.8000000000001</ele><time>2023-01-21T01:54:12Z</time></trkpt><trkpt lat="35.6526909" lon="139.1975078"><ele>696.0233333333334</ele><time>2023-01-21T01:54:23Z</time></trkpt><trkpt lat="35.6528019" lon="139.1976922"><ele>694.9066666666666</ele><time>2023-01-21T01:54:41Z</time></trkpt><trkpt lat="35.6529838" lon="139.1977205"><ele>694.0833333333334</ele><time>2023-01-21T01:54:55Z</time></trkpt><trkpt lat="35.6531154" lon="139.1978764"><ele>690.2266666666666</ele><time>2023-01-21T01:55:10Z</time></trkpt><trkpt lat="35.6531172" lon="139.198118"><ele>687.85</ele><time>2023-01-21T01:55:25Z</time></trkpt><trkpt lat="35.6530841" lon="139.1983423"><ele>687.9666666666667</ele><time>2023-01-21T01:55:38Z</time></trkpt><trkpt lat="35.6530479" lon="139.198559"><ele>689.9066666666668</ele><time>2023-01-21T01:55:53Z</time></trkpt><trkpt lat="35.6529806" lon="139.1987732"><ele>688.0133333333333</ele><time>2023-01-21T01:56:33Z</time></trkpt><trkpt lat="35.6529227" lon="139.19899"><ele>683.5666666666666</ele><time>2023-01-21T01:56:54Z</time></trkpt><trkpt lat="35.6528999" lon="139.1992105"><ele>678.6566666666666</ele><time>2023-01-21T01:57:08Z</time></trkpt><trkpt lat="35.6529425" lon="139.1994395"><ele>675.53</ele><time>2023-01-21T01:57:23Z</time></trkpt><trkpt lat="35.6529995" lon="139.1996504"><ele>673.3566666666667</ele><time>2023-01-21T01:57:39Z</time></trkpt><trkpt lat="35.6528597" lon="139.1998"><ele>671.16</ele><time>2023-01-21T01:58:33Z</time></trkpt><trkpt lat="35.6527017" lon="139.1999092"><ele>668.4633333333333</ele><time>2023-01-21T01:58:49Z</time></trkpt><trkpt lat="35.6526365" lon="139.2001331"><ele>663.4466666666667</ele><time>2023-01-21T01:59:02Z</time></trkpt><trkpt lat="35.6525998" lon="139.2003735"><ele>660.1933333333333</ele><time>2023-01-21T01:59:13Z</time></trkpt><trkpt lat="35.6525828" lon="139.2006067"><ele>658.7033333333334</ele><time>2023-01-21T01:59:24Z</time></trkpt><trkpt lat="35.6526221" lon="139.2008381"><ele>660.0133333333333</ele><time>2023-01-21T01:59:36Z</time></trkpt><trkpt lat="35.6526447" lon="139.2010667"><ele>659.27</ele><time>2023-01-21T01:59:55Z</time></trkpt><trkpt lat="35.6526111" lon="139.201284"><ele>659.4233333333333</ele><time>2023-01-21T02:00:10Z</time></trkpt><trkpt lat="35.6525335" lon="139.2014987"><ele>660.32</ele><time>2023-01-21T02:00:22Z</time></trkpt><trkpt lat="35.652552" lon="139.2017253"><ele>662.2833333333333</ele><time>2023-01-21T02:00:33Z</time></trkpt><trkpt lat="35.652732" lon="139.2018292"><ele>663.24</ele><time>2023-01-21T02:00:44Z</time></trkpt><trkpt lat="35.6528855" lon="139.2019692"><ele>665.3866666666667</ele><time>2023-01-21T02:00:59Z</time></trkpt><trkpt lat="35.6530646" lon="139.2020161"><ele>667.5999999999999</ele><time>2023-01-21T02:01:19Z</time></trkpt><trkpt lat="35.6531432" lon="139.2022227"><ele>669.9933333333333</ele><time>2023-01-21T02:01:35Z</time></trkpt><trkpt lat="35.652981" lon="139.2023471"><ele>670.7199999999999</ele><time>2023-01-21T02:01:48Z</time></trkpt><trkpt lat="35.6527927" lon="139.2023739"><ele>671.0633333333334</ele><time>2023-01-21T02:02:03Z</time></trkpt><trkpt lat="35.652744" lon="139.2025916"><ele>670.63</ele><time>2023-01-21T02:02:21Z</time></trkpt><trkpt lat="35.6527133" lon="139.202817"><ele>667.3233333333333</ele><time>2023-01-21T02:02:33Z</time></trkpt><trkpt lat="35.6526415" lon="139.2030298"><ele>664.29</ele><time>2023-01-21T02:02:45Z</time></trkpt><trkpt lat="35.6525922" lon="139.2032579"><ele>661.6</ele><time>2023-01-21T02:03:00Z</time></trkpt><trkpt lat="35.6524275" lon="139.2033496"><ele>660.8966666666666</ele><time>2023-01-21T02:03:15Z</time></trkpt><trkpt lat="35.6522429" lon="139.2033383"><ele>658.5133333333334</ele><time>2023-01-21T02:03:39Z</time></trkpt><trkpt lat="35.6520751" lon="139.2034309"><ele>654.4500000000002</ele><time>2023-01-21T02:04:00Z</time></trkpt><trkpt lat="35.6519679" lon="139.2036134"><ele>648.61</ele><time>2023-01-21T02:04:15Z</time></trkpt><trkpt lat="35.6519519" lon="139.2038384"><ele>643.4499999999999</ele><time>2023-01-21T02:04:26Z</time></trkpt><trkpt lat="35.6518593" lon="139.2040349"><ele>640.8333333333334</ele><time>2023-01-21T02:04:36Z</time></trkpt><trkpt lat="35.6518142" lon="139.2042541"><ele>641.9133333333333</ele><time>2023-01-21T02:04:50Z</time></trkpt><trkpt lat="35.6518367" lon="139.2044784"><ele>644.85</ele><time>2023-01-21T02:05:01Z</time></trkpt><trkpt lat="35.6518833" lon="139.2047074"><ele>647.0300000000001</ele><time>2023-01-21T02:05:17Z</time></trkpt><trkpt lat="35.6519274" lon="139.2049339"><ele>649.1166666666667</ele><time>2023-01-21T02:05:41Z</time></trkpt><trkpt lat="35.6519119" lon="139.2051543"><ele>652.3333333333334</ele><time>2023-01-21T02:05:55Z</time></trkpt><trkpt lat="35.6519003" lon="139.2053747"><ele>655.8433333333332</ele><time>2023-01-21T02:06:17Z</time></trkpt><trkpt lat="35.6518103" lon="139.2055688"><ele>658.0966666666667</ele><time>2023-01-21T02:06:36Z</time></trkpt><trkpt lat="35.6516378" lon="139.2056477"><ele>658.66</ele><time>2023-01-21T02:06:50Z</time></trkpt><trkpt lat="35.6514575" lon="139.2056953"><ele>658.7066666666667</ele><time>2023-01-21T02:07:06Z</time></trkpt><trkpt lat="35.6513179" lon="139.2058403"><ele>656.96</ele><time>2023-01-21T02:07:21Z</time></trkpt><trkpt lat="35.6511778" lon="139.2059949"><ele>655.8633333333333</ele><time>2023-01-21T02:07:34Z</time></trkpt><trkpt lat="35.6510778" lon="139.2061791"><ele>656.3100000000001</ele><time>2023-01-21T02:07:49Z</time></trkpt><trkpt lat="35.6509397" lon="139.2063291"><ele>658.9833333333335</ele><time>2023-01-21T02:08:08Z</time></trkpt><trkpt lat="35.6508077" lon="139.2064939"><ele>661.3133333333334</ele><time>2023-01-21T02:08:25Z</time></trkpt><trkpt lat="35.65063" lon="139.2065576"><ele>662.6866666666667</ele><time>2023-01-21T02:08:40Z</time></trkpt><trkpt lat="35.6504396" lon="139.2065961"><ele>663.69</ele><time>2023-01-21T02:08:53Z</time></trkpt><trkpt lat="35.6502577" lon="139.2066711"><ele>664.7966666666667</ele><time>2023-01-21T02:09:11Z</time></trkpt><trkpt lat="35.6502102" lon="139.2068845"><ele>666.0533333333334</ele><time>2023-01-21T02:09:27Z</time></trkpt><trkpt lat="35.6501166" lon="139.2070756"><ele>668.2466666666666</ele><time>2023-01-21T02:09:46Z</time></trkpt><trkpt lat="35.6500124" lon="139.2072643"><ele>673.2800000000001</ele><time>2023-01-21T02:10:41Z</time></trkpt><trkpt lat="35.6499243" lon="139.2074649"><ele>678.4666666666666</ele><time>2023-01-21T02:10:54Z</time></trkpt><trkpt lat="35.6498387" lon="139.2076595"><ele>683.85</ele><time>2023-01-21T02:11:14Z</time></trkpt><trkpt lat="35.6497655" lon="139.2078673"><ele>686.87</ele><time>2023-01-21T02:11:32Z</time></trkpt><trkpt lat="35.6497947" lon="139.2080917"><ele>689.3166666666666</ele><time>2023-01-21T02:11:42Z</time></trkpt><trkpt lat="35.6498039" lon="139.2083304"><ele>690.91</ele><time>2023-01-21T02:11:52Z</time></trkpt><trkpt lat="35.6498689" lon="139.208546"><ele>691.1633333333334</ele><time>2023-01-21T02:12:13Z</time></trkpt><trkpt lat="35.6498746" lon="139.2087677"><ele>691.3033333333333</ele><time>2023-01-21T02:12:22Z</time></trkpt><trkpt lat="35.649884" lon="139.2089951"><ele>691.2133333333335</ele><time>2023-01-21T02:12:33Z</time></trkpt><trkpt lat="35.6499059" lon="139.2092171"><ele>690.9200000000001</ele><time>2023-01-21T02:12:51Z</time></trkpt><trkpt lat="35.6497206" lon="139.2092828"><ele>691.1666666666666</ele><time>2023-01-21T02:13:42Z</time></trkpt><trkpt lat="35.6495705" lon="139.2094678"><ele>689.6333333333332</ele><time>2023-01-21T02:13:54Z</time></trkpt><trkpt lat="35.6495406" lon="139.2097522"><ele>685.9900000000001</ele><time>2023-01-21T02:14:00Z</time></trkpt><trkpt lat="35.6494941" lon="139.2099764"><ele>681.8100000000001</ele><time>2023-01-21T02:14:22Z</time></trkpt><trkpt lat="35.6493963" lon="139.2101737"><ele>681.2966666666667</ele><time>2023-01-21T02:14:34Z</time></trkpt><trkpt lat="35.6493545" lon="139.2103927"><ele>684.3833333333333</ele><time>2023-01-21T02:14:48Z</time></trkpt><trkpt lat="35.6494096" lon="139.2106035"><ele>688.7333333333332</ele><time>2023-01-21T02:15:03Z</time></trkpt><trkpt lat="35.6494078" lon="139.2108366"><ele>692.1833333333334</ele><time>2023-01-21T02:15:24Z</time></trkpt><trkpt lat="35.6493949" lon="139.2110608"><ele>695.9633333333333</ele><time>2023-01-21T02:15:38Z</time></trkpt><trkpt lat="35.649403" lon="139.2112893"><ele>697.86</ele><time>2023-01-21T02:15:54Z</time></trkpt><trkpt lat="35.6492522" lon="139.2114359"><ele>697.7700000000001</ele><time>2023-01-21T02:16:29Z</time></trkpt><trkpt lat="35.6491179" lon="139.2116036"><ele>693.9</ele><time>2023-01-21T02:16:48Z</time></trkpt><trkpt lat="35.6490552" lon="139.2118116"><ele>688.2366666666667</ele><time>2023-01-21T02:17:04Z</time></trkpt><trkpt lat="35.6489143" lon="139.2119635"><ele>683.4499999999999</ele><time>2023-01-21T02:17:24Z</time></trkpt><trkpt lat="35.648733" lon="139.211963"><ele>680.6733333333333</ele><time>2023-01-21T02:17:42Z</time></trkpt><trkpt lat="35.6485559" lon="139.2120458"><ele>678.6866666666666</ele><time>2023-01-21T02:17:55Z</time></trkpt><trkpt lat="35.6485505" lon="139.2122719"><ele>676.06</ele><time>2023-01-21T02:18:10Z</time></trkpt><trkpt lat="35.6484768" lon="139.2124855"><ele>673.6233333333333</ele><time>2023-01-21T02:18:21Z</time></trkpt><trkpt lat="35.6483442" lon="139.2126398"><ele>673.0266666666668</ele><time>2023-01-21T02:18:32Z</time></trkpt><trkpt lat="35.6482202" lon="139.2128242"><ele>672.9333333333333</ele><time>2023-01-21T02:18:52Z</time></trkpt><trkpt lat="35.6481327" lon="139.2130312"><ele>672.8366666666667</ele><time>2023-01-21T02:19:06Z</time></trkpt><trkpt lat="35.6480899" lon="139.2132558"><ele>672.92</ele><time>2023-01-21T02:19:19Z</time></trkpt><trkpt lat="35.6481202" lon="139.2134799"><ele>673.0066666666667</ele><time>2023-01-21T02:19:33Z</time></trkpt><trkpt lat="35.6480265" lon="139.2136746"><ele>674.6033333333334</ele><time>2023-01-21T02:19:51Z</time></trkpt><trkpt lat="35.6478623" lon="139.2137842"><ele>676.9133333333334</ele><time>2023-01-21T02:20:06Z</time></trkpt><trkpt lat="35.6476928" lon="139.2138735"><ele>679.33</ele><time>2023-01-21T02:20:22Z</time></trkpt><trkpt lat="35.6475567" lon="139.2140278"><ele>680.84</ele><time>2023-01-21T02:20:35Z</time></trkpt><trkpt lat="35.6474376" lon="139.2141943"><ele>682.09</ele><time>2023-01-21T02:20:52Z</time></trkpt><trkpt lat="35.6472669" lon="139.2142786"><ele>685.5500000000001</ele><time>2023-01-21T02:21:21Z</time></trkpt><trkpt lat="35.6473039" lon="139.2144975"><ele>690.0500000000001</ele><time>2023-01-21T02:21:45Z</time></trkpt><trkpt lat="35.647268" lon="139.2147155"><ele>695.15</ele><time>2023-01-21T02:21:56Z</time></trkpt><trkpt lat="35.6471547" lon="139.2148928"><ele>696.8866666666668</ele><time>2023-01-21T02:22:09Z</time></trkpt><trkpt lat="35.6469711" lon="139.2148944"><ele>696.7866666666667</ele><time>2023-01-21T02:22:20Z</time></trkpt><trkpt lat="35.646795" lon="139.2148389"><ele>696.0533333333333</ele><time>2023-01-21T02:22:32Z</time></trkpt><trkpt lat="35.6466092" lon="139.2147778"><ele>696.3166666666667</ele><time>2023-01-21T02:22:47Z</time></trkpt><trkpt lat="35.6464626" lon="139.2149094"><ele>699.0633333333334</ele><time>2023-01-21T02:23:26Z</time></trkpt><trkpt lat="35.6463947" lon="139.2151344"><ele>702.69</ele><time>2023-01-21T02:23:36Z</time></trkpt><trkpt lat="35.6463327" lon="139.2153422"><ele>708.7333333333332</ele><time>2023-01-21T02:23:46Z</time></trkpt><trkpt lat="35.6462875" lon="139.2155568"><ele>713.7166666666666</ele><time>2023-01-21T02:24:04Z</time></trkpt><trkpt lat="35.6461402" lon="139.2156897"><ele>718.1</ele><time>2023-01-21T02:24:26Z</time></trkpt><trkpt lat="35.6460224" lon="139.2158633"><ele>720.4733333333334</ele><time>2023-01-21T02:24:45Z</time></trkpt><trkpt lat="35.6459878" lon="139.2161544"><ele>720.77</ele><time>2023-01-21T02:25:51Z</time></trkpt><trkpt lat="35.6461276" lon="139.2160117"><ele>719.1633333333333</ele><time>2023-01-21T02:27:04Z</time></trkpt><trkpt lat="35.6459977" lon="139.2158564"><ele>719.5333333333334</ele><time>2023-01-21T02:27:37Z</time></trkpt><trkpt lat="35.6458583" lon="139.216031"><ele>720.43</ele><time>2023-01-21T02:27:54Z</time></trkpt><trkpt lat="35.6456972" lon="139.2159054"><ele>722.2366666666667</ele><time>2023-01-21T02:39:03Z</time></trkpt><trkpt lat="35.6455277" lon="139.2159853"><ele>721.4499999999999</ele><time>2023-01-21T02:39:58Z</time></trkpt><trkpt lat="35.6453685" lon="139.2158795"><ele>719.8466666666667</ele><time>2023-01-21T02:41:18Z</time></trkpt><trkpt lat="35.6451924" lon="139.2159432"><ele>716.66</ele><time>2023-01-21T02:44:49Z</time></trkpt><trkpt lat="35.6451696" lon="139.2157231"><ele>712.4733333333334</ele><time>2023-01-21T02:45:14Z</time></trkpt><trkpt lat="35.6450005" lon="139.2158208"><ele>707.3266666666667</ele><time>2023-01-21T02:45:40Z</time></trkpt><trkpt lat="35.6449374" lon="139.2156094"><ele>701.3033333333333</ele><time>2023-01-21T02:46:03Z</time></trkpt><trkpt lat="35.6448126" lon="139.215448"><ele>693.8966666666666</ele><time>2023-01-21T02:46:18Z</time></trkpt><trkpt lat="35.644634" lon="139.2153979"><ele>686.25</ele><time>2023-01-21T02:46:38Z</time></trkpt><trkpt lat="35.6444675" lon="139.2153068"><ele>680.1966666666667</ele><time>2023-01-21T02:46:49Z</time></trkpt><trkpt lat="35.6443299" lon="139.215152"><ele>676.3000000000001</ele><time>2023-01-21T02:47:01Z</time></trkpt><trkpt lat="35.6442155" lon="139.2149709"><ele>673.7333333333333</ele><time>2023-01-21T02:47:15Z</time></trkpt><trkpt lat="35.6440318" lon="139.214974"><ele>672.3033333333334</ele><time>2023-01-21T02:47:37Z</time></trkpt><trkpt lat="35.6438562" lon="139.214887"><ele>670.6466666666666</ele><time>2023-01-21T02:47:48Z</time></trkpt><trkpt lat="35.6436828" lon="139.2148143"><ele>669.0366666666667</ele><time>2023-01-21T02:48:05Z</time></trkpt><trkpt lat="35.6435233" lon="139.2149469"><ele>666.41</ele><time>2023-01-21T02:48:34Z</time></trkpt><trkpt lat="35.6433554" lon="139.2150555"><ele>663.5466666666666</ele><time>2023-01-21T02:48:43Z</time></trkpt><trkpt lat="35.6431966" lon="139.214942"><ele>660.21</ele><time>2023-01-21T02:49:08Z</time></trkpt><trkpt lat="35.6430189" lon="139.2149897"><ele>656.5366666666667</ele><time>2023-01-21T02:49:37Z</time></trkpt><trkpt lat="35.6427905" lon="139.2149509"><ele>652.88</ele><time>2023-01-21T02:49:43Z</time></trkpt><trkpt lat="35.6425731" lon="139.214803"><ele>650.7166666666667</ele><time>2023-01-21T02:49:46Z</time></trkpt><trkpt lat="35.6424265" lon="139.2145966"><ele>646.8833333333333</ele><time>2023-01-21T02:49:49Z</time></trkpt><trkpt lat="35.6426413" lon="139.2149005"><ele>647.33</ele><time>2023-01-21T02:49:56Z</time></trkpt><trkpt lat="35.6423921" lon="139.2150202"><ele>649.2099999999999</ele><time>2023-01-21T02:50:07Z</time></trkpt><trkpt lat="35.6423923" lon="139.2147914"><ele>651.58</ele><time>2023-01-21T02:50:27Z</time></trkpt><trkpt lat="35.64221" lon="139.2147657"><ele>653.7766666666666</ele><time>2023-01-21T02:50:43Z</time></trkpt><trkpt lat="35.6420407" lon="139.2146769"><ele>655.2600000000001</ele><time>2023-01-21T02:51:01Z</time></trkpt><trkpt lat="35.6418778" lon="139.214577"><ele>659.88</ele><time>2023-01-21T02:51:19Z</time></trkpt><trkpt lat="35.6416928" lon="139.2145481"><ele>662.1966666666666</ele><time>2023-01-21T02:51:35Z</time></trkpt><trkpt lat="35.6415116" lon="139.2145052"><ele>664.0166666666668</ele><time>2023-01-21T02:51:49Z</time></trkpt><trkpt lat="35.6413477" lon="139.2146"><ele>666.1333333333333</ele><time>2023-01-21T02:52:03Z</time></trkpt><trkpt lat="35.6411674" lon="139.2146788"><ele>666.78</ele><time>2023-01-21T02:52:15Z</time></trkpt><trkpt lat="35.6410542" lon="139.2148558"><ele>667.3233333333334</ele><time>2023-01-21T02:52:34Z</time></trkpt><trkpt lat="35.6409295" lon="139.2150299"><ele>663.7966666666666</ele><time>2023-01-21T02:52:47Z</time></trkpt><trkpt lat="35.6408044" lon="139.2151945"><ele>658.4366666666666</ele><time>2023-01-21T02:53:00Z</time></trkpt><trkpt lat="35.640624" lon="139.215233"><ele>652.3766666666667</ele><time>2023-01-21T02:53:11Z</time></trkpt><trkpt lat="35.640439" lon="139.2152438"><ele>649.0833333333334</ele><time>2023-01-21T02:53:19Z</time></trkpt><trkpt lat="35.6402528" lon="139.2151842"><ele>646.7</ele><time>2023-01-21T02:53:34Z</time></trkpt><trkpt lat="35.6400696" lon="139.2152299"><ele>644.75</ele><time>2023-01-21T02:53:45Z</time></trkpt><trkpt lat="35.6398833" lon="139.215244"><ele>643.07</ele><time>2023-01-21T02:53:57Z</time></trkpt><trkpt lat="35.6397302" lon="139.2153737"><ele>643.2033333333334</ele><time>2023-01-21T02:54:08Z</time></trkpt><trkpt lat="35.6395681" lon="139.2154723"><ele>643.4166666666666</ele><time>2023-01-21T02:54:19Z</time></trkpt><trkpt lat="35.6393971" lon="139.2155447"><ele>643.1666666666666</ele><time>2023-01-21T02:54:36Z</time></trkpt><trkpt lat="35.6392242" lon="139.2156364"><ele>642.36</ele><time>2023-01-21T02:54:53Z</time></trkpt><trkpt lat="35.6390745" lon="139.2155133"><ele>641.4266666666667</ele><time>2023-01-21T02:55:02Z</time></trkpt><trkpt lat="35.6388929" lon="139.2154713"><ele>639.1899999999999</ele><time>2023-01-21T02:55:19Z</time></trkpt><trkpt lat="35.6387236" lon="139.2153724"><ele>633.4933333333333</ele><time>2023-01-21T02:55:47Z</time></trkpt><trkpt lat="35.6385393" lon="139.215433"><ele>626.9666666666666</ele><time>2023-01-21T02:56:09Z</time></trkpt><trkpt lat="35.6383572" lon="139.2154242"><ele>619.84</ele><time>2023-01-21T02:56:23Z</time></trkpt><trkpt lat="35.6381668" lon="139.2154065"><ele>615.4133333333333</ele><time>2023-01-21T02:56:36Z</time></trkpt><trkpt lat="35.6379822" lon="139.2153946"><ele>611.8133333333334</ele><time>2023-01-21T02:56:49Z</time></trkpt><trkpt lat="35.637797" lon="139.2154455"><ele>608.86</ele><time>2023-01-21T02:57:03Z</time></trkpt><trkpt lat="35.6376147" lon="139.2154422"><ele>605.6733333333333</ele><time>2023-01-21T02:57:18Z</time></trkpt><trkpt lat="35.6374735" lon="139.2155889"><ele>601.5566666666667</ele><time>2023-01-21T02:57:36Z</time></trkpt><trkpt lat="35.637293" lon="139.2156445"><ele>597.6333333333333</ele><time>2023-01-21T02:57:54Z</time></trkpt><trkpt lat="35.6371086" lon="139.2156707"><ele>593.3066666666667</ele><time>2023-01-21T02:58:31Z</time></trkpt><trkpt lat="35.6369377" lon="139.2157477"><ele>589.23</ele><time>2023-01-21T02:58:41Z</time></trkpt><trkpt lat="35.6368361" lon="139.2159304"><ele>584.9499999999999</ele><time>2023-01-21T02:59:00Z</time></trkpt><trkpt lat="35.6367599" lon="139.216135"><ele>580.9633333333333</ele><time>2023-01-21T02:59:29Z</time></trkpt><trkpt lat="35.6365794" lon="139.2161647"><ele>575.98</ele><time>2023-01-21T02:59:49Z</time></trkpt><trkpt lat="35.6365419" lon="139.2163808"><ele>571.0333333333334</ele><time>2023-01-21T03:00:21Z</time></trkpt><trkpt lat="35.6363773" lon="139.2164977"><ele>565.2933333333334</ele><time>2023-01-21T03:00:56Z</time></trkpt><trkpt lat="35.6361921" lon="139.2165562"><ele>559.66</ele><time>2023-01-21T03:01:24Z</time></trkpt><trkpt lat="35.6360133" lon="139.2166097"><ele>553.9733333333334</ele><time>2023-01-21T03:01:49Z</time></trkpt><trkpt lat="35.6358186" lon="139.2166145"><ele>550.06</ele><time>2023-01-21T03:02:13Z</time></trkpt><trkpt lat="35.6356405" lon="139.216679"><ele>548.1966666666667</ele><time>2023-01-21T03:02:20Z</time></trkpt><trkpt lat="35.6354761" lon="139.2168235"><ele>549.1899999999999</ele><time>2023-01-21T03:02:30Z</time></trkpt><trkpt lat="35.6354079" lon="139.2170343"><ele>550.5933333333334</ele><time>2023-01-21T03:04:37Z</time></trkpt><trkpt lat="35.6352272" lon="139.2171056"><ele>554.3566666666667</ele><time>2023-01-21T03:04:51Z</time></trkpt><trkpt lat="35.6351067" lon="139.2169272"><ele>559.4166666666666</ele><time>2023-01-21T03:05:19Z</time></trkpt><trkpt lat="35.6349429" lon="139.2170441"><ele>564.2233333333334</ele><time>2023-01-21T03:05:54Z</time></trkpt><trkpt lat="35.6347724" lon="139.2171208"><ele>567.1566666666668</ele><time>2023-01-21T03:06:30Z</time></trkpt><trkpt lat="35.6345761" lon="139.2171356"><ele>569.5433333333334</ele><time>2023-01-21T03:06:42Z</time></trkpt><trkpt lat="35.6344622" lon="139.2173087"><ele>573.9666666666667</ele><time>2023-01-21T03:07:03Z</time></trkpt><trkpt lat="35.63456" lon="139.2171223"><ele>576.06</ele><time>2023-01-21T03:07:58Z</time></trkpt><trkpt lat="35.634576" lon="139.2168891"><ele>576.3233333333333</ele><time>2023-01-21T03:08:24Z</time></trkpt><trkpt lat="35.6344906" lon="139.2170931"><ele>575.41</ele><time>2023-01-21T03:09:54Z</time></trkpt><trkpt lat="35.6344187" lon="139.2173115"><ele>577.14</ele><time>2023-01-21T03:10:12Z</time></trkpt><trkpt lat="35.6343252" lon="139.2175032"><ele>579.68</ele><time>2023-01-21T03:10:26Z</time></trkpt><trkpt lat="35.6341725" lon="139.2176285"><ele>582.0300000000001</ele><time>2023-01-21T03:10:40Z</time></trkpt><trkpt lat="35.6340142" lon="139.2177426"><ele>584.4900000000001</ele><time>2023-01-21T03:10:56Z</time></trkpt><trkpt lat="35.6339055" lon="139.2179263"><ele>587.0300000000001</ele><time>2023-01-21T03:11:12Z</time></trkpt><trkpt lat="35.6338039" lon="139.2181135"><ele>590.0</ele><time>2023-01-21T03:11:33Z</time></trkpt><trkpt lat="35.6337107" lon="139.2183117"><ele>592.36</ele><time>2023-01-21T03:12:04Z</time></trkpt><trkpt lat="35.6335423" lon="139.2184142"><ele>594.89</ele><time>2023-01-21T03:12:19Z</time></trkpt><trkpt lat="35.6333915" lon="139.2185495"><ele>597.4733333333334</ele><time>2023-01-21T03:12:36Z</time></trkpt><trkpt lat="35.6332416" lon="139.218679"><ele>602.6733333333333</ele><time>2023-01-21T03:12:58Z</time></trkpt><trkpt lat="35.6330681" lon="139.2187529"><ele>607.2166666666667</ele><time>2023-01-21T03:13:11Z</time></trkpt><trkpt lat="35.6328787" lon="139.2187984"><ele>611.32</ele><time>2023-01-21T03:13:27Z</time></trkpt><trkpt lat="35.6326953" lon="139.2187887"><ele>612.72</ele><time>2023-01-21T03:13:48Z</time></trkpt><trkpt lat="35.6325018" lon="139.2188237"><ele>612.87</ele><time>2023-01-21T03:14:07Z</time></trkpt><trkpt lat="35.6323311" lon="139.218917"><ele>613.14</ele><time>2023-01-21T03:14:27Z</time></trkpt><trkpt lat="35.6321687" lon="139.219021"><ele>614.2233333333332</ele><time>2023-01-21T03:15:10Z</time></trkpt><trkpt lat="35.6320226" lon="139.219163"><ele>616.9266666666666</ele><time>2023-01-21T03:15:42Z</time></trkpt><trkpt lat="35.6318805" lon="139.2193015"><ele>621.7800000000001</ele><time>2023-01-21T03:16:08Z</time></trkpt><trkpt lat="35.6317576" lon="139.2194768"><ele>627.6166666666667</ele><time>2023-01-21T03:16:43Z</time></trkpt><trkpt lat="35.6316219" lon="139.2196263"><ele>634.1366666666667</ele><time>2023-01-21T03:17:21Z</time></trkpt><trkpt lat="35.6314698" lon="139.2197458"><ele>639.73</ele><time>2023-01-21T03:17:56Z</time></trkpt><trkpt lat="35.6313238" lon="139.2199059"><ele>645.2566666666667</ele><time>2023-01-21T03:18:29Z</time></trkpt><trkpt lat="35.6311447" lon="139.2199468"><ele>650.23</ele><time>2023-01-21T03:18:42Z</time></trkpt><trkpt lat="35.6310307" lon="139.2201221"><ele>655.0666666666667</ele><time>2023-01-21T03:19:06Z</time></trkpt><trkpt lat="35.6309906" lon="139.2203404"><ele>658.2933333333334</ele><time>2023-01-21T03:19:25Z</time></trkpt><trkpt lat="35.6309264" lon="139.220565"><ele>660.7800000000001</ele><time>2023-01-21T03:19:38Z</time></trkpt><trkpt lat="35.6307823" lon="139.220719"><ele>661.7166666666667</ele><time>2023-01-21T03:20:05Z</time></trkpt><trkpt lat="35.6306071" lon="139.2208384"><ele>663.2433333333333</ele><time>2023-01-21T03:20:29Z</time></trkpt><trkpt lat="35.6304299" lon="139.220914"><ele>665.3766666666667</ele><time>2023-01-21T03:20:42Z</time></trkpt><trkpt lat="35.6302416" lon="139.2208974"><ele>667.8866666666668</ele><time>2023-01-21T03:20:56Z</time></trkpt><trkpt lat="35.6301014" lon="139.2210526"><ele>669.4366666666667</ele><time>2023-01-21T03:21:26Z</time></trkpt><trkpt lat="35.6300954" lon="139.2212761"><ele>669.9</ele><time>2023-01-21T03:22:18Z</time></trkpt><trkpt lat="35.6299125" lon="139.2212763"><ele>670.0</ele><time>2023-01-21T03:22:48Z</time></trkpt><trkpt lat="35.6298122" lon="139.2214651"><ele>669.09</ele><time>2023-01-21T03:23:14Z</time></trkpt><trkpt lat="35.6298859" lon="139.2212548"><ele>669.1666666666666</ele><time>2023-01-21T03:24:11Z</time></trkpt><trkpt lat="35.6297344" lon="139.2211232"><ele>669.1233333333333</ele><time>2023-01-21T03:25:05Z</time></trkpt><trkpt lat="35.6296726" lon="139.2213399"><ele>669.8033333333334</ele><time>2023-01-21T03:25:24Z</time></trkpt><trkpt lat="35.6295596" lon="139.2215167"><ele>666.96</ele><time>2023-01-21T03:25:40Z</time></trkpt><trkpt lat="35.6293824" lon="139.2214164"><ele>664.36</ele><time>2023-01-21T03:26:06Z</time></trkpt><trkpt lat="35.6292466" lon="139.2215774"><ele>660.92</ele><time>2023-01-21T03:26:18Z</time></trkpt><trkpt lat="35.6291659" lon="139.221787"><ele>658.8100000000001</ele><time>2023-01-21T03:27:00Z</time></trkpt><trkpt lat="35.629087" lon="139.2219894"><ele>655.6566666666666</ele><time>2023-01-21T03:27:13Z</time></trkpt><trkpt lat="35.6289515" lon="139.2221444"><ele>652.4499999999999</ele><time>2023-01-21T03:27:37Z</time></trkpt><trkpt lat="35.6288008" lon="139.2222748"><ele>648.62</ele><time>2023-01-21T03:27:48Z</time></trkpt><trkpt lat="35.6286294" lon="139.2223789"><ele>644.1366666666667</ele><time>2023-01-21T03:28:04Z</time></trkpt><trkpt lat="35.6284383" lon="139.2223568"><ele>639.6766666666666</ele><time>2023-01-21T03:28:20Z</time></trkpt><trkpt lat="35.6282479" lon="139.2224312"><ele>636.4333333333333</ele><time>2023-01-21T03:28:42Z</time></trkpt><trkpt lat="35.6282935" lon="139.2226475"><ele>633.2333333333332</ele><time>2023-01-21T03:29:04Z</time></trkpt><trkpt lat="35.6282458" lon="139.2228636"><ele>630.6533333333333</ele><time>2023-01-21T03:29:22Z</time></trkpt><trkpt lat="35.6281638" lon="139.223071"><ele>627.5133333333333</ele><time>2023-01-21T03:29:33Z</time></trkpt><trkpt lat="35.6281459" lon="139.2233033"><ele>624.7166666666667</ele><time>2023-01-21T03:29:48Z</time></trkpt><trkpt lat="35.6281487" lon="139.2235268"><ele>622.0933333333332</ele><time>2023-01-21T03:30:01Z</time></trkpt><trkpt lat="35.6279731" lon="139.2236162"><ele>618.5833333333334</ele><time>2023-01-21T03:30:30Z</time></trkpt><trkpt lat="35.6278635" lon="139.2237991"><ele>616.0933333333334</ele><time>2023-01-21T03:30:40Z</time></trkpt><trkpt lat="35.6277495" lon="139.2239738"><ele>613.2566666666667</ele><time>2023-01-21T03:30:52Z</time></trkpt><trkpt lat="35.6277299" lon="139.2241952"><ele>612.93</ele><time>2023-01-21T03:31:02Z</time></trkpt><trkpt lat="35.6277539" lon="139.2244219"><ele>612.4633333333333</ele><time>2023-01-21T03:31:14Z</time></trkpt><trkpt lat="35.6277252" lon="139.2246532"><ele>612.42</ele><time>2023-01-21T03:31:24Z</time></trkpt><trkpt lat="35.6276419" lon="139.2248591"><ele>611.0133333333333</ele><time>2023-01-21T03:31:38Z</time></trkpt><trkpt lat="35.6274941" lon="139.2249923"><ele>608.5533333333333</ele><time>2023-01-21T03:31:52Z</time></trkpt><trkpt lat="35.6273517" lon="139.2251374"><ele>604.2199999999999</ele><time>2023-01-21T03:32:07Z</time></trkpt><trkpt lat="35.6273342" lon="139.225362"><ele>599.6433333333333</ele><time>2023-01-21T03:32:26Z</time></trkpt><trkpt lat="35.6274051" lon="139.2255737"><ele>596.4033333333333</ele><time>2023-01-21T03:32:41Z</time></trkpt><trkpt lat="35.6274474" lon="139.2257886"><ele>593.94</ele><time>2023-01-21T03:33:01Z</time></trkpt><trkpt lat="35.6273055" lon="139.2259256"><ele>592.6033333333334</ele><time>2023-01-21T03:34:15Z</time></trkpt><trkpt lat="35.627352" lon="139.2257001"><ele>591.9699999999999</ele><time>2023-01-21T03:34:52Z</time></trkpt><trkpt lat="35.6274043" lon="139.2254872"><ele>593.4966666666667</ele><time>2023-01-21T03:35:07Z</time></trkpt><trkpt lat="35.6272692" lon="139.2256415"><ele>593.58</ele><time>2023-01-21T03:35:28Z</time></trkpt><trkpt lat="35.6271934" lon="139.2258442"><ele>592.6800000000001</ele><time>2023-01-21T03:35:35Z</time></trkpt><trkpt lat="35.6270664" lon="139.2260158"><ele>590.23</ele><time>2023-01-21T03:35:47Z</time></trkpt><trkpt lat="35.6268889" lon="139.2260706"><ele>588.6</ele><time>2023-01-21T03:36:03Z</time></trkpt><trkpt lat="35.6267417" lon="139.2262006"><ele>586.1633333333333</ele><time>2023-01-21T03:36:14Z</time></trkpt><trkpt lat="35.6266145" lon="139.2263655"><ele>584.22</ele><time>2023-01-21T03:36:28Z</time></trkpt><trkpt lat="35.6265342" lon="139.2265735"><ele>582.1</ele><time>2023-01-21T03:36:41Z</time></trkpt><trkpt lat="35.6265449" lon="139.2267986"><ele>580.1999999999999</ele><time>2023-01-21T03:37:07Z</time></trkpt><trkpt lat="35.6265116" lon="139.2270264"><ele>576.5366666666667</ele><time>2023-01-21T03:37:21Z</time></trkpt><trkpt lat="35.6264964" lon="139.2272481"><ele>574.0733333333334</ele><time>2023-01-21T03:37:35Z</time></trkpt><trkpt lat="35.6263852" lon="139.2274293"><ele>573.35</ele><time>2023-01-21T03:37:56Z</time></trkpt><trkpt lat="35.6262839" lon="139.2276299"><ele>576.01</ele><time>2023-01-21T03:38:09Z</time></trkpt><trkpt lat="35.6261807" lon="139.227811"><ele>577.5133333333333</ele><time>2023-01-21T03:38:24Z</time></trkpt><trkpt lat="35.6259854" lon="139.2278341"><ele>576.0566666666667</ele><time>2023-01-21T03:38:35Z</time></trkpt><trkpt lat="35.6261702" lon="139.2278319"><ele>575.2166666666667</ele><time>2023-01-21T03:39:09Z</time></trkpt><trkpt lat="35.6263107" lon="139.227994"><ele>575.7266666666667</ele><time>2023-01-21T03:39:27Z</time></trkpt><trkpt lat="35.6263677" lon="139.2282053"><ele>575.8033333333333</ele><time>2023-01-21T03:39:37Z</time></trkpt><trkpt lat="35.6264371" lon="139.2284117"><ele>572.8499999999999</ele><time>2023-01-21T03:39:57Z</time></trkpt><trkpt lat="35.626478" lon="139.2286297"><ele>568.17</ele><time>2023-01-21T03:40:18Z</time></trkpt><trkpt lat="35.6263591" lon="139.2288041"><ele>564.5766666666667</ele><time>2023-01-21T03:40:40Z</time></trkpt><trkpt lat="35.6264019" lon="139.2290266"><ele>561.6866666666667</ele><time>2023-01-21T03:40:52Z</time></trkpt><trkpt lat="35.6263504" lon="139.2292442"><ele>559.0200000000001</ele><time>2023-01-21T03:41:09Z</time></trkpt><trkpt lat="35.6263064" lon="139.2294612"><ele>556.9</ele><time>2023-01-21T03:41:34Z</time></trkpt><trkpt lat="35.6262824" lon="139.2296887"><ele>554.4766666666667</ele><time>2023-01-21T03:41:47Z</time></trkpt><trkpt lat="35.6263324" lon="139.229904"><ele>552.3966666666666</ele><time>2023-01-21T03:42:02Z</time></trkpt><trkpt lat="35.6263472" lon="139.23014"><ele>548.86</ele><time>2023-01-21T03:42:18Z</time></trkpt><trkpt lat="35.6262707" lon="139.2303472"><ele>544.6066666666667</ele><time>2023-01-21T03:42:31Z</time></trkpt><trkpt lat="35.626228" lon="139.2305682"><ele>540.1233333333333</ele><time>2023-01-21T03:42:49Z</time></trkpt><trkpt lat="35.626273" lon="139.2307857"><ele>536.8933333333333</ele><time>2023-01-21T03:43:08Z</time></trkpt><trkpt lat="35.6263313" lon="139.2309971"><ele>534.0366666666667</ele><time>2023-01-21T03:43:24Z</time></trkpt><trkpt lat="35.6262472" lon="139.2311928"><ele>531.2666666666667</ele><time>2023-01-21T03:43:49Z</time></trkpt><trkpt lat="35.6262529" lon="139.2314162"><ele>526.9933333333333</ele><time>2023-01-21T03:44:03Z</time></trkpt><trkpt lat="35.6262937" lon="139.2316501"><ele>523.9766666666668</ele><time>2023-01-21T03:44:24Z</time></trkpt><trkpt lat="35.6262379" lon="139.2318631"><ele>521.62</ele><time>2023-01-21T03:44:40Z</time></trkpt><trkpt lat="35.6261927" lon="139.2320848"><ele>522.37</ele><time>2023-01-21T03:44:58Z</time></trkpt><trkpt lat="35.6261274" lon="139.2323006"><ele>522.5233333333333</ele><time>2023-01-21T03:45:22Z</time></trkpt><trkpt lat="35.6261084" lon="139.2325208"><ele>521.0300000000001</ele><time>2023-01-21T03:45:41Z</time></trkpt><trkpt lat="35.6261242" lon="139.2327487"><ele>516.9733333333334</ele><time>2023-01-21T03:46:01Z</time></trkpt><trkpt lat="35.6261915" lon="139.2329546"><ele>512.2833333333334</ele><time>2023-01-21T03:46:11Z</time></trkpt><trkpt lat="35.626217" lon="139.2331736"><ele>508.55333333333334</ele><time>2023-01-21T03:46:23Z</time></trkpt><trkpt lat="35.6261987" lon="139.2333935"><ele>505.77666666666664</ele><time>2023-01-21T03:46:36Z</time></trkpt><trkpt lat="35.6262455" lon="139.2336193"><ele>502.40333333333336</ele><time>2023-01-21T03:46:47Z</time></trkpt><trkpt lat="35.6262926" lon="139.2338618"><ele>498.02</ele><time>2023-01-21T03:47:01Z</time></trkpt><trkpt lat="35.6262648" lon="139.2340851"><ele>493.63000000000005</ele><time>2023-01-21T03:47:16Z</time></trkpt><trkpt lat="35.6261704" lon="139.234274"><ele>488.0733333333333</ele><time>2023-01-21T03:47:29Z</time></trkpt><trkpt lat="35.6261616" lon="139.2345004"><ele>483.91333333333336</ele><time>2023-01-21T03:47:43Z</time></trkpt><trkpt lat="35.6261556" lon="139.2347247"><ele>478.52</ele><time>2023-01-21T03:47:58Z</time></trkpt><trkpt lat="35.6261136" lon="139.2349428"><ele>475.25666666666666</ele><time>2023-01-21T03:48:15Z</time></trkpt><trkpt lat="35.6260872" lon="139.2351643"><ele>472.3333333333333</ele><time>2023-01-21T03:48:24Z</time></trkpt><trkpt lat="35.6259898" lon="139.2353522"><ele>473.83</ele><time>2023-01-21T03:48:57Z</time></trkpt><trkpt lat="35.6258788" lon="139.2355356"><ele>476.97333333333336</ele><time>2023-01-21T03:49:11Z</time></trkpt><trkpt lat="35.6258142" lon="139.2357466"><ele>481.1566666666667</ele><time>2023-01-21T03:49:28Z</time></trkpt><trkpt lat="35.6257649" lon="139.235964"><ele>483.7166666666667</ele><time>2023-01-21T03:49:53Z</time></trkpt><trkpt lat="35.6257556" lon="139.2361888"><ele>486.50666666666666</ele><time>2023-01-21T03:50:12Z</time></trkpt><trkpt lat="35.6257932" lon="139.2364148"><ele>489.14000000000004</ele><time>2023-01-21T03:50:30Z</time></trkpt><trkpt lat="35.6259116" lon="139.2365854"><ele>491.26</ele><time>2023-01-21T03:50:42Z</time></trkpt><trkpt lat="35.6258221" lon="139.2367821"><ele>493.02333333333337</ele><time>2023-01-21T03:51:03Z</time></trkpt><trkpt lat="35.6258152" lon="139.2370092"><ele>494.22333333333336</ele><time>2023-01-21T03:51:13Z</time></trkpt><trkpt lat="35.6258391" lon="139.2372357"><ele>496.97</ele><time>2023-01-21T03:51:52Z</time></trkpt><trkpt lat="35.6258735" lon="139.2374601"><ele>499.5833333333333</ele><time>2023-01-21T03:52:07Z</time></trkpt><trkpt lat="35.6258073" lon="139.2376669"><ele>503.4533333333334</ele><time>2023-01-21T03:52:25Z</time></trkpt><trkpt lat="35.6257401" lon="139.2378908"><ele>507.5233333333333</ele><time>2023-01-21T03:52:45Z</time></trkpt><trkpt lat="35.6256182" lon="139.2380614"><ele>510.1333333333334</ele><time>2023-01-21T03:53:09Z</time></trkpt><trkpt lat="35.6256289" lon="139.2382998"><ele>514.26</ele><time>2023-01-21T03:53:43Z</time></trkpt><trkpt lat="35.6255156" lon="139.2384728"><ele>519.61</ele><time>2023-01-21T03:54:30Z</time></trkpt><trkpt lat="35.6253956" lon="139.2386438"><ele>527.1133333333333</ele><time>2023-01-21T03:54:59Z</time></trkpt><trkpt lat="35.6252388" lon="139.238775"><ele>533.3866666666667</ele><time>2023-01-21T03:55:24Z</time></trkpt><trkpt lat="35.6251031" lon="139.2389251"><ele>538.6833333333334</ele><time>2023-01-21T03:55:42Z</time></trkpt><trkpt lat="35.6249443" lon="139.2390341"><ele>543.7533333333334</ele><time>2023-01-21T03:56:03Z</time></trkpt><trkpt lat="35.624937" lon="139.2392547"><ele>547.6566666666668</ele><time>2023-01-21T03:56:45Z</time></trkpt><trkpt lat="35.624996" lon="139.2394684"><ele>549.7733333333333</ele><time>2023-01-21T03:56:55Z</time></trkpt><trkpt lat="35.6250297" lon="139.2396857"><ele>550.4933333333333</ele><time>2023-01-21T03:57:05Z</time></trkpt><trkpt lat="35.6249414" lon="139.2398854"><ele>551.1166666666667</ele><time>2023-01-21T03:57:20Z</time></trkpt><trkpt lat="35.6248707" lon="139.2400894"><ele>551.53</ele><time>2023-01-21T03:57:43Z</time></trkpt><trkpt lat="35.6248669" lon="139.240318"><ele>552.23</ele><time>2023-01-21T03:57:58Z</time></trkpt><trkpt lat="35.6248899" lon="139.2405399"><ele>552.6433333333333</ele><time>2023-01-21T03:58:12Z</time></trkpt><trkpt lat="35.6249021" lon="139.2407652"><ele>553.3866666666667</ele><time>2023-01-21T03:58:25Z</time></trkpt><trkpt lat="35.6248109" lon="139.2409691"><ele>553.7966666666666</ele><time>2023-01-21T03:58:40Z</time></trkpt><trkpt lat="35.6248509" lon="139.2411909"><ele>554.5866666666667</ele><time>2023-01-21T03:58:58Z</time></trkpt><trkpt lat="35.6247222" lon="139.241346"><ele>554.74</ele><time>2023-01-21T03:59:11Z</time></trkpt><trkpt lat="35.6247076" lon="139.2415711"><ele>554.5099999999999</ele><time>2023-01-21T03:59:36Z</time></trkpt><trkpt lat="35.6246467" lon="139.241784"><ele>554.2600000000001</ele><time>2023-01-21T04:00:37Z</time></trkpt><trkpt lat="35.6247307" lon="139.2419857"><ele>556.2399999999999</ele><time>2023-01-21T04:00:59Z</time></trkpt><trkpt lat="35.6248646" lon="139.242142"><ele>560.3633333333333</ele><time>2023-01-21T04:01:14Z</time></trkpt><trkpt lat="35.6248607" lon="139.2423643"><ele>567.9033333333333</ele><time>2023-01-21T04:02:58Z</time></trkpt><trkpt lat="35.6248968" lon="139.242597"><ele>575.26</ele><time>2023-01-21T04:03:19Z</time></trkpt><trkpt lat="35.6248462" lon="139.2428171"><ele>583.11</ele><time>2023-01-21T04:03:32Z</time></trkpt><trkpt lat="35.6247472" lon="139.2430026"><ele>587.61</ele><time>2023-01-21T04:03:46Z</time></trkpt><trkpt lat="35.6246448" lon="139.2431867"><ele>590.2133333333333</ele><time>2023-01-21T04:04:05Z</time></trkpt><trkpt lat="35.624798" lon="139.2433173"><ele>591.0766666666667</ele><time>2023-01-21T04:06:51Z</time></trkpt><trkpt lat="35.6249754" lon="139.2433646"><ele>592.1533333333333</ele><time>2023-01-21T04:07:00Z</time></trkpt><trkpt lat="35.6250522" lon="139.2435735"><ele>593.3933333333333</ele><time>2023-01-21T04:07:15Z</time></trkpt><trkpt lat="35.6251809" lon="139.2437442"><ele>594.3233333333334</ele><time>2023-01-21T04:07:40Z</time></trkpt><trkpt lat="35.6252748" lon="139.2439349"><ele>592.83</ele><time>2023-01-21T04:08:07Z</time></trkpt><trkpt lat="35.6254032" lon="139.2440939"><ele>590.3733333333333</ele><time>2023-01-21T04:08:16Z</time></trkpt><trkpt lat="35.6255367" lon="139.2442563"><ele>586.7099999999999</ele><time>2023-01-21T04:08:29Z</time></trkpt><trkpt lat="35.6256734" lon="139.2444087"><ele>585.3233333333334</ele><time>2023-01-21T04:08:39Z</time></trkpt><trkpt lat="35.6255043" lon="139.2443162"><ele>584.1833333333333</ele><time>2023-01-21T04:08:58Z</time></trkpt><trkpt lat="35.6253378" lon="139.2442248"><ele>583.43</ele><time>2023-01-21T04:09:09Z</time></trkpt><trkpt lat="35.6251578" lon="139.2441603"><ele>581.2633333333333</ele><time>2023-01-21T04:09:23Z</time></trkpt><trkpt lat="35.6249903" lon="139.2442512"><ele>579.0566666666667</ele><time>2023-01-21T04:09:36Z</time></trkpt><trkpt lat="35.624891" lon="139.244447"><ele>574.5833333333334</ele><time>2023-01-21T04:09:48Z</time></trkpt><trkpt lat="35.6247561" lon="139.2445987"><ele>566.5</ele><time>2023-01-21T04:10:02Z</time></trkpt><trkpt lat="35.6245739" lon="139.2445339"><ele>562.4966666666668</ele><time>2023-01-21T04:10:10Z</time></trkpt><trkpt lat="35.6244028" lon="139.2444458"><ele>562.6999999999999</ele><time>2023-01-21T04:10:23Z</time></trkpt><trkpt lat="35.6242268" lon="139.244538"><ele>564.9366666666666</ele><time>2023-01-21T04:10:36Z</time></trkpt><trkpt lat="35.6240815" lon="139.2446855"><ele>563.2466666666667</ele><time>2023-01-21T04:10:48Z</time></trkpt><trkpt lat="35.623963" lon="139.2448562"><ele>559.6066666666667</ele><time>2023-01-21T04:11:07Z</time></trkpt><trkpt lat="35.6238335" lon="139.2450149"><ele>556.2666666666668</ele><time>2023-01-21T04:11:43Z</time></trkpt><trkpt lat="35.62369" lon="139.2451515"><ele>552.3066666666667</ele><time>2023-01-21T04:12:00Z</time></trkpt><trkpt lat="35.6235226" lon="139.245238"><ele>545.34</ele><time>2023-01-21T04:12:28Z</time></trkpt><trkpt lat="35.6233454" lon="139.245299"><ele>538.2533333333333</ele><time>2023-01-21T04:12:56Z</time></trkpt><trkpt lat="35.6232162" lon="139.2454654"><ele>529.6733333333333</ele><time>2023-01-21T04:13:39Z</time></trkpt><trkpt lat="35.6230545" lon="139.2455864"><ele>523.4866666666667</ele><time>2023-01-21T04:13:55Z</time></trkpt><trkpt lat="35.6228976" lon="139.2457008"><ele>517.65</ele><time>2023-01-21T04:14:13Z</time></trkpt><trkpt lat="35.6228041" lon="139.2458909"><ele>513.62</ele><time>2023-01-21T04:14:55Z</time></trkpt><trkpt lat="35.6226956" lon="139.2460724"><ele>507.84666666666664</ele><time>2023-01-21T04:15:23Z</time></trkpt><trkpt lat="35.6225567" lon="139.2462174"><ele>497.6766666666667</ele><time>2023-01-21T04:15:38Z</time></trkpt><trkpt lat="35.622548" lon="139.2459879"><ele>490.82</ele><time>2023-01-21T04:16:04Z</time></trkpt><trkpt lat="35.6225639" lon="139.245756"><ele>490.60999999999996</ele><time>2023-01-21T04:16:24Z</time></trkpt><trkpt lat="35.6226158" lon="139.2455444"><ele>496.00666666666666</ele><time>2023-01-21T04:16:43Z</time></trkpt><trkpt lat="35.6227291" lon="139.2453607"><ele>499.82</ele><time>2023-01-21T04:16:55Z</time></trkpt><trkpt lat="35.6228358" lon="139.2451739"><ele>498.66</ele><time>2023-01-21T04:17:06Z</time></trkpt><trkpt lat="35.6226562" lon="139.245238"><ele>496.5</ele><time>2023-01-21T04:18:30Z</time></trkpt><trkpt lat="35.622473" lon="139.2452367"><ele>492.92333333333335</ele><time>2023-01-21T04:18:50Z</time></trkpt><trkpt lat="35.622446" lon="139.2454647"><ele>489.00666666666666</ele><time>2023-01-21T04:19:20Z</time></trkpt><trkpt lat="35.6223419" lon="139.2456614"><ele>485.46999999999997</ele><time>2023-01-21T04:19:33Z</time></trkpt><trkpt lat="35.6221537" lon="139.2457224"><ele>484.56</ele><time>2023-01-21T04:19:58Z</time></trkpt><trkpt lat="35.6220995" lon="139.2459383"><ele>485.78000000000003</ele><time>2023-01-21T04:20:14Z</time></trkpt><trkpt lat="35.6220292" lon="139.2461422"><ele>487.04333333333335</ele><time>2023-01-21T04:20:28Z</time></trkpt><trkpt lat="35.6220461" lon="139.246368"><ele>484.8733333333334</ele><time>2023-01-21T04:20:40Z</time></trkpt><trkpt lat="35.6220915" lon="139.2465887"><ele>477.79333333333335</ele><time>2023-01-21T04:20:48Z</time></trkpt><trkpt lat="35.6221852" lon="139.2467818"><ele>469.32666666666665</ele><time>2023-01-21T04:21:03Z</time></trkpt><trkpt lat="35.6223158" lon="139.2469398"><ele>461.33</ele><time>2023-01-21T04:21:25Z</time></trkpt><trkpt lat="35.6224999" lon="139.247002"><ele>460.7966666666667</ele><time>2023-01-21T04:21:39Z</time></trkpt><trkpt lat="35.6223272" lon="139.2469165"><ele>459.86666666666673</ele><time>2023-01-21T04:22:08Z</time></trkpt><trkpt lat="35.6223207" lon="139.2471383"><ele>458.1000000000001</ele><time>2023-01-21T04:22:31Z</time></trkpt><trkpt lat="35.6222549" lon="139.247347"><ele>453.2033333333334</ele><time>2023-01-21T04:22:48Z</time></trkpt><trkpt lat="35.6222697" lon="139.2475764"><ele>449.27333333333337</ele><time>2023-01-21T04:23:02Z</time></trkpt><trkpt lat="35.6223437" lon="139.2477875"><ele>444.47</ele><time>2023-01-21T04:23:11Z</time></trkpt><trkpt lat="35.6223134" lon="139.2480084"><ele>438.7966666666667</ele><time>2023-01-21T04:23:24Z</time></trkpt><trkpt lat="35.622344" lon="139.2482424"><ele>434.2</ele><time>2023-01-21T04:23:41Z</time></trkpt><trkpt lat="35.6224445" lon="139.2484361"><ele>430.76666666666665</ele><time>2023-01-21T04:24:04Z</time></trkpt><trkpt lat="35.6226319" lon="139.2484631"><ele>429.59999999999997</ele><time>2023-01-21T04:24:18Z</time></trkpt><trkpt lat="35.6228009" lon="139.2483696"><ele>431.6666666666667</ele><time>2023-01-21T04:24:32Z</time></trkpt><trkpt lat="35.6229353" lon="139.2485172"><ele>434.3833333333334</ele><time>2023-01-21T04:24:47Z</time></trkpt><trkpt lat="35.6227819" lon="139.2486624"><ele>434.51</ele><time>2023-01-21T04:25:04Z</time></trkpt><trkpt lat="35.6225969" lon="139.2486847"><ele>429.27666666666664</ele><time>2023-01-21T04:25:17Z</time></trkpt><trkpt lat="35.6224208" lon="139.2487366"><ele>424.83666666666664</ele><time>2023-01-21T04:25:32Z</time></trkpt><trkpt lat="35.6224445" lon="139.248959"><ele>420.9166666666667</ele><time>2023-01-21T04:25:45Z</time></trkpt><trkpt lat="35.6225234" lon="139.2491845"><ele>419.09666666666664</ele><time>2023-01-21T04:25:57Z</time></trkpt><trkpt lat="35.6223903" lon="139.2493667"><ele>415.24</ele><time>2023-01-21T04:26:12Z</time></trkpt><trkpt lat="35.6222166" lon="139.2494464"><ele>413.0833333333333</ele><time>2023-01-21T04:26:28Z</time></trkpt><trkpt lat="35.6221182" lon="139.2496339"><ele>413.91</ele><time>2023-01-21T04:26:45Z</time></trkpt><trkpt lat="35.6221579" lon="139.2498617"><ele>413.1666666666667</ele><time>2023-01-21T04:26:58Z</time></trkpt><trkpt lat="35.6222231" lon="139.2500829"><ele>411.07</ele><time>2023-01-21T04:27:12Z</time></trkpt><trkpt lat="35.6222565" lon="139.250312"><ele>407.48</ele><time>2023-01-21T04:27:25Z</time></trkpt><trkpt lat="35.6222543" lon="139.2505396"><ele>408.79333333333335</ele><time>2023-01-21T04:27:53Z</time></trkpt><trkpt lat="35.6223804" lon="139.2507006"><ele>408.8999999999999</ele><time>2023-01-21T04:28:06Z</time></trkpt><trkpt lat="35.6225151" lon="139.2508572"><ele>407.69666666666666</ele><time>2023-01-21T04:28:18Z</time></trkpt><trkpt lat="35.6226418" lon="139.2510165"><ele>404.23</ele><time>2023-01-21T04:28:29Z</time></trkpt><trkpt lat="35.6227582" lon="139.2511928"><ele>403.4766666666667</ele><time>2023-01-21T04:28:38Z</time></trkpt><trkpt lat="35.6229229" lon="139.2512949"><ele>401.04333333333335</ele><time>2023-01-21T04:28:50Z</time></trkpt><trkpt lat="35.6231099" lon="139.251256"><ele>396.70666666666665</ele><time>2023-01-21T04:29:01Z</time></trkpt><trkpt lat="35.6232155" lon="139.2514555"><ele>390.3766666666667</ele><time>2023-01-21T04:29:15Z</time></trkpt><trkpt lat="35.6232785" lon="139.2516797"><ele>384.78</ele><time>2023-01-21T04:29:27Z</time></trkpt><trkpt lat="35.6233498" lon="139.2518904"><ele>382.67</ele><time>2023-01-21T04:29:44Z</time></trkpt><trkpt lat="35.6234461" lon="139.2520859"><ele>383.3633333333334</ele><time>2023-01-21T04:29:57Z</time></trkpt><trkpt lat="35.6235678" lon="139.2522796"><ele>387.24</ele><time>2023-01-21T04:30:07Z</time></trkpt><trkpt lat="35.6237498" lon="139.2523203"><ele>388.3633333333333</ele><time>2023-01-21T04:30:18Z</time></trkpt><trkpt lat="35.6239362" lon="139.2523521"><ele>384.5466666666666</ele><time>2023-01-21T04:30:29Z</time></trkpt><trkpt lat="35.6240379" lon="139.2525366"><ele>379.90333333333336</ele><time>2023-01-21T04:30:40Z</time></trkpt><trkpt lat="35.6241671" lon="139.2527067"><ele>378.4066666666667</ele><time>2023-01-21T04:30:58Z</time></trkpt><trkpt lat="35.624346" lon="139.2527604"><ele>381.14000000000004</ele><time>2023-01-21T04:31:09Z</time></trkpt><trkpt lat="35.6245336" lon="139.2527996"><ele>380.9866666666667</ele><time>2023-01-21T04:31:19Z</time></trkpt><trkpt lat="35.6247019" lon="139.2528817"><ele>379.42333333333335</ele><time>2023-01-21T04:31:31Z</time></trkpt><trkpt lat="35.6248812" lon="139.2529476"><ele>374.2033333333333</ele><time>2023-01-21T04:31:43Z</time></trkpt><trkpt lat="35.6250639" lon="139.2529894"><ele>368.40000000000003</ele><time>2023-01-21T04:31:56Z</time></trkpt><trkpt lat="35.6252533" lon="139.2530101"><ele>361.33666666666664</ele><time>2023-01-21T04:32:07Z</time></trkpt><trkpt lat="35.6253908" lon="139.2531597"><ele>356.4766666666667</ele><time>2023-01-21T04:32:25Z</time></trkpt><trkpt lat="35.6253746" lon="139.2533808"><ele>355.72</ele><time>2023-01-21T04:32:37Z</time></trkpt><trkpt lat="35.6254413" lon="139.2535906"><ele>355.42</ele><time>2023-01-21T04:32:53Z</time></trkpt><trkpt lat="35.6254992" lon="139.2538074"><ele>354.46999999999997</ele><time>2023-01-21T04:33:08Z</time></trkpt><trkpt lat="35.6254964" lon="139.2540421"><ele>355.03333333333336</ele><time>2023-01-21T04:33:22Z</time></trkpt><trkpt lat="35.6256524" lon="139.2541569"><ele>354.72666666666663</ele><time>2023-01-21T04:33:35Z</time></trkpt><trkpt lat="35.6258358" lon="139.2541598"><ele>353.11999999999995</ele><time>2023-01-21T04:33:46Z</time></trkpt><trkpt lat="35.6259737" lon="139.2543222"><ele>350.16</ele><time>2023-01-21T04:33:55Z</time></trkpt><trkpt lat="35.6261361" lon="139.2544438"><ele>346.77</ele><time>2023-01-21T04:34:16Z</time></trkpt><trkpt lat="35.6262215" lon="139.2546553"><ele>348.89000000000004</ele><time>2023-01-21T04:34:22Z</time></trkpt><trkpt lat="35.6262419" lon="139.2548764"><ele>351.37000000000006</ele><time>2023-01-21T04:34:36Z</time></trkpt><trkpt lat="35.626402" lon="139.2550133"><ele>352.97</ele><time>2023-01-21T04:34:48Z</time></trkpt><trkpt lat="35.6265825" lon="139.2550822"><ele>348.51666666666665</ele><time>2023-01-21T04:34:56Z</time></trkpt><trkpt lat="35.6267417" lon="139.2551912"><ele>339.93333333333334</ele><time>2023-01-21T04:35:12Z</time></trkpt><trkpt lat="35.6266548" lon="139.2553964"><ele>340.46</ele><time>2023-01-21T04:35:24Z</time></trkpt><trkpt lat="35.6267346" lon="139.2555982"><ele>341.68333333333334</ele><time>2023-01-21T04:35:42Z</time></trkpt><trkpt lat="35.6267575" lon="139.2558272"><ele>341.47333333333336</ele><time>2023-01-21T04:35:57Z</time></trkpt><trkpt lat="35.6267316" lon="139.2560474"><ele>335.32666666666665</ele><time>2023-01-21T04:36:07Z</time></trkpt><trkpt lat="35.6267208" lon="139.2562728"><ele>332.8666666666667</ele><time>2023-01-21T04:36:20Z</time></trkpt><trkpt lat="35.626861" lon="139.2564223"><ele>331.49333333333334</ele><time>2023-01-21T04:36:32Z</time></trkpt><trkpt lat="35.6270323" lon="139.256533"><ele>328.7633333333333</ele><time>2023-01-21T04:36:43Z</time></trkpt><trkpt lat="35.6271517" lon="139.2567058"><ele>328.82</ele><time>2023-01-21T04:36:56Z</time></trkpt><trkpt lat="35.6272595" lon="139.2568874"><ele>334.44666666666666</ele><time>2023-01-21T04:37:12Z</time></trkpt><trkpt lat="35.6274061" lon="139.2570247"><ele>341.74</ele><time>2023-01-21T04:37:27Z</time></trkpt><trkpt lat="35.6275938" lon="139.2569744"><ele>343.56</ele><time>2023-01-21T04:37:39Z</time></trkpt><trkpt lat="35.6277788" lon="139.256932"><ele>339.68666666666667</ele><time>2023-01-21T04:37:53Z</time></trkpt><trkpt lat="35.6279662" lon="139.2569082"><ele>333.6766666666667</ele><time>2023-01-21T04:38:08Z</time></trkpt><trkpt lat="35.628135" lon="139.2570115"><ele>327.69</ele><time>2023-01-21T04:38:22Z</time></trkpt><trkpt lat="35.6282251" lon="139.2572092"><ele>321.0733333333333</ele><time>2023-01-21T04:38:45Z</time></trkpt><trkpt lat="35.6281829" lon="139.2574281"><ele>319.95000000000005</ele><time>2023-01-21T04:39:36Z</time></trkpt><trkpt lat="35.6281712" lon="139.2576524"><ele>319.7033333333333</ele><time>2023-01-21T04:39:53Z</time></trkpt><trkpt lat="35.6283469" lon="139.2577323"><ele>317.4433333333333</ele><time>2023-01-21T04:40:04Z</time></trkpt><trkpt lat="35.6284298" lon="139.2579332"><ele>308.2366666666667</ele><time>2023-01-21T04:40:34Z</time></trkpt><trkpt lat="35.628564" lon="139.2580944"><ele>298.3766666666667</ele><time>2023-01-21T04:40:50Z</time></trkpt><trkpt lat="35.628619" lon="139.2583082"><ele>292.95666666666665</ele><time>2023-01-21T04:41:15Z</time></trkpt><trkpt lat="35.6286973" lon="139.2585087"><ele>291.91</ele><time>2023-01-21T04:41:32Z</time></trkpt><trkpt lat="35.6286998" lon="139.2587305"><ele>292.41</ele><time>2023-01-21T04:41:59Z</time></trkpt><trkpt lat="35.6288331" lon="139.2588855"><ele>292.82</ele><time>2023-01-21T04:42:30Z</time></trkpt><trkpt lat="35.6288156" lon="139.2591293"><ele>291.24</ele><time>2023-01-21T04:42:45Z</time></trkpt><trkpt lat="35.6286773" lon="139.2592783"><ele>288.6166666666666</ele><time>2023-01-21T04:43:25Z</time></trkpt><trkpt lat="35.6286528" lon="139.2595039"><ele>283.73333333333335</ele><time>2023-01-21T04:43:43Z</time></trkpt><trkpt lat="35.6285877" lon="139.2597119"><ele>277.71999999999997</ele><time>2023-01-21T04:44:05Z</time></trkpt><trkpt lat="35.6284802" lon="139.2598903"><ele>274.7733333333333</ele><time>2023-01-21T04:44:41Z</time></trkpt><trkpt lat="35.6284481" lon="139.2601152"><ele>273.26</ele><time>2023-01-21T04:44:55Z</time></trkpt><trkpt lat="35.6283939" lon="139.2603267"><ele>273.06666666666666</ele><time>2023-01-21T04:45:09Z</time></trkpt><trkpt lat="35.6283181" lon="139.2605279"><ele>271.00666666666666</ele><time>2023-01-21T04:45:41Z</time></trkpt><trkpt lat="35.6283727" lon="139.2607414"><ele>267.5566666666667</ele><time>2023-01-21T04:45:54Z</time></trkpt><trkpt lat="35.6284044" lon="139.2609653"><ele>265.04333333333335</ele><time>2023-01-21T04:46:10Z</time></trkpt><trkpt lat="35.628404" lon="139.2612023"><ele>264.06333333333333</ele><time>2023-01-21T04:46:23Z</time></trkpt><trkpt lat="35.6284922" lon="139.2613966"><ele>265.4166666666667</ele><time>2023-01-21T04:46:37Z</time></trkpt><trkpt lat="35.6286737" lon="139.2614088"><ele>265.4766666666667</ele><time>2023-01-21T04:46:49Z</time></trkpt><trkpt lat="35.6288575" lon="139.2614055"><ele>259.06333333333333</ele><time>2023-01-21T04:46:59Z</time></trkpt><trkpt lat="35.6290279" lon="139.2613158"><ele>253.52666666666667</ele><time>2023-01-21T04:47:11Z</time></trkpt><trkpt lat="35.6292117" lon="139.2612957"><ele>248.97333333333333</ele><time>2023-01-21T04:47:26Z</time></trkpt><trkpt lat="35.6293229" lon="139.2611216"><ele>248.35</ele><time>2023-01-21T04:47:55Z</time></trkpt><trkpt lat="35.6295267" lon="139.2610559"><ele>246.57333333333335</ele><time>2023-01-21T04:48:09Z</time></trkpt><trkpt lat="35.6297065" lon="139.2610875"><ele>245.62</ele><time>2023-01-21T04:48:25Z</time></trkpt><trkpt lat="35.6298768" lon="139.2611677"><ele>248.36666666666667</ele><time>2023-01-21T04:48:41Z</time></trkpt><trkpt lat="35.6300478" lon="139.2610748"><ele>249.1966666666667</ele><time>2023-01-21T04:49:02Z</time></trkpt><trkpt lat="35.6302023" lon="139.261196"><ele>247.86666666666667</ele><time>2023-01-21T04:49:25Z</time></trkpt><trkpt lat="35.6302645" lon="139.2614164"><ele>243.28666666666666</ele><time>2023-01-21T04:49:42Z</time></trkpt><trkpt lat="35.6302819" lon="139.2616461"><ele>242.17666666666665</ele><time>2023-01-21T04:49:54Z</time></trkpt><trkpt lat="35.630334" lon="139.2618586"><ele>240.82333333333335</ele><time>2023-01-21T04:50:04Z</time></trkpt><trkpt lat="35.6304667" lon="139.2620228"><ele>237.0</ele><time>2023-01-21T04:50:25Z</time></trkpt><trkpt lat="35.6306066" lon="139.2621794"><ele>232.01333333333332</ele><time>2023-01-21T04:50:38Z</time></trkpt><trkpt lat="35.6307126" lon="139.2623633"><ele>228.70333333333335</ele><time>2023-01-21T04:50:47Z</time></trkpt><trkpt lat="35.6307539" lon="139.2625842"><ele>227.3766666666667</ele><time>2023-01-21T04:51:10Z</time></trkpt><trkpt lat="35.6307682" lon="139.2628176"><ele>227.08333333333334</ele><time>2023-01-21T04:51:30Z</time></trkpt><trkpt lat="35.6306847" lon="139.2630452"><ele>229.20333333333335</ele><time>2023-01-21T04:51:40Z</time></trkpt><trkpt lat="35.6306878" lon="139.2632964"><ele>229.90666666666667</ele><time>2023-01-21T04:51:50Z</time></trkpt><trkpt lat="35.6307198" lon="139.2635152"><ele>229.4</ele><time>2023-01-21T04:52:01Z</time></trkpt><trkpt lat="35.6307546" lon="139.2637504"><ele>224.59</ele><time>2023-01-21T04:52:09Z</time></trkpt><trkpt lat="35.6308752" lon="139.2639564"><ele>221.27333333333334</ele><time>2023-01-21T04:52:20Z</time></trkpt><trkpt lat="35.630847" lon="139.2641958"><ele>218.67</ele><time>2023-01-21T04:52:33Z</time></trkpt><trkpt lat="35.63083" lon="139.2644422"><ele>217.76999999999998</ele><time>2023-01-21T04:52:44Z</time></trkpt><trkpt lat="35.6306738" lon="139.2645608"><ele>216.89333333333335</ele><time>2023-01-21T04:52:55Z</time></trkpt><trkpt lat="35.6305836" lon="139.2647596"><ele>216.08666666666667</ele><time>2023-01-21T04:53:08Z</time></trkpt><trkpt lat="35.630627" lon="139.2649806"><ele>215.5466666666667</ele><time>2023-01-21T04:53:21Z</time></trkpt><trkpt lat="35.6306194" lon="139.2652218"><ele>215.01</ele><time>2023-01-21T04:53:33Z</time></trkpt><trkpt lat="35.6306414" lon="139.2654456"><ele>214.13666666666666</ele><time>2023-01-21T04:53:47Z</time></trkpt><trkpt lat="35.6306787" lon="139.2656764"><ele>213.29333333333332</ele><time>2023-01-21T04:54:03Z</time></trkpt><trkpt lat="35.630722" lon="139.2659034"><ele>212.04333333333332</ele><time>2023-01-21T04:54:15Z</time></trkpt><trkpt lat="35.6308403" lon="139.2660841"><ele>210.93666666666664</ele><time>2023-01-21T04:54:28Z</time></trkpt><trkpt lat="35.6307911" lon="139.2663104"><ele>209.47</ele><time>2023-01-21T04:54:41Z</time></trkpt><trkpt lat="35.6307752" lon="139.2665385"><ele>208.6966666666667</ele><time>2023-01-21T04:54:53Z</time></trkpt><trkpt lat="35.6308916" lon="139.2667348"><ele>207.64666666666665</ele><time>2023-01-21T04:55:03Z</time></trkpt><trkpt lat="35.6309963" lon="139.2669153"><ele>206.49</ele><time>2023-01-21T04:55:14Z</time></trkpt><trkpt lat="35.630988" lon="139.2671427"><ele>204.42666666666665</ele><time>2023-01-21T04:55:27Z</time></trkpt><trkpt lat="35.6311338" lon="139.2672804"><ele>202.37666666666667</ele><time>2023-01-21T04:55:38Z</time></trkpt><trkpt lat="35.6312146" lon="139.2674818"><ele>201.01333333333332</ele><time>2023-01-21T04:56:03Z</time></trkpt><trkpt lat="35.631298" lon="139.2676829"><ele>200.14666666666668</ele><time>2023-01-21T04:56:13Z</time></trkpt><trkpt lat="35.6313333" lon="139.2679138"><ele>199.9</ele><time>2023-01-21T04:56:26Z</time></trkpt><trkpt lat="35.6313169" lon="139.268136"><ele>199.58333333333334</ele><time>2023-01-21T04:56:40Z</time></trkpt><trkpt lat="35.6313848" lon="139.2683464"><ele>199.35999999999999</ele><time>2023-01-21T04:57:01Z</time></trkpt><trkpt lat="35.6314482" lon="139.2685626"><ele>198.66333333333333</ele><time>2023-01-21T04:57:16Z</time></trkpt><trkpt lat="35.6314214" lon="139.2687985"><ele>197.17</ele><time>2023-01-21T04:57:24Z</time></trkpt><trkpt lat="35.6314375" lon="139.2690252"><ele>195.41666666666666</ele><time>2023-01-21T04:57:36Z</time></trkpt><trkpt lat="35.631458" lon="139.2692528"><ele>193.5</ele><time>2023-01-21T04:57:55Z</time></trkpt><trkpt lat="35.6316197" lon="139.2693695"><ele>192.36333333333334</ele><time>2023-01-21T04:58:09Z</time></trkpt><trkpt lat="35.6317756" lon="139.2694965"><ele>191.60666666666668</ele><time>2023-01-21T04:58:24Z</time></trkpt><trkpt lat="35.6318279" lon="139.2697183"><ele>191.04666666666665</ele><time>2023-01-21T04:58:35Z</time></trkpt><trkpt lat="35.6320026" lon="139.2698127"><ele>190.72</ele><time>2023-01-21T04:58:53Z</time></trkpt><trkpt lat="35.6321097" lon="139.2700041"><ele>189.91666666666666</ele><time>2023-01-21T04:59:05Z</time></trkpt><trkpt lat="35.632131" lon="139.2702239"><ele>189.2266666666667</ele><time>2023-01-21T04:59:17Z</time></trkpt><trkpt lat="35.632312" lon="139.2702693"><ele>188.23666666666668</ele><time>2023-01-21T05:00:43Z</time></trkpt><trkpt lat="35.632468" lon="139.2703884"><ele>188.1966666666667</ele><time>2023-01-21T05:01:13Z</time></trkpt><trkpt lat="35.6324206" lon="139.2701486"><ele>189.32333333333335</ele><time>2023-01-21T05:01:44Z</time></trkpt></trkseg></trk></gpx>