<?xml version='1.0' encoding='UTF-8'?><gpx creator="YAMAP - https://yamap.com" xsi:schemaLocation="http://www.topografix.com/GPX/1/1 http://www.topografix.com/GPX/1/1/gpx.xsd" version="1.1" xmlns="http://www.topografix.com/GPX/1/1" xmlns:xsi="http://www.w3.org/2001/XMLSchema-instance"><metadata><bounds maxlat="35.9929425" maxlon="139.1705541" minlat="35.9746234" minlon="139.1332035"/></metadata><trk><name>横瀬丸山</name><number>1</number><trkseg><trkpt lat="35.9769483" lon="139.1368765"><ele>308.26</ele><time>2023-02-10T23:40:29Z</time></trkpt><trkpt lat="35.9771339" lon="139.1369351"><ele>307.53499999999997</ele><time>2023-02-10T23:42:02Z</time></trkpt><trkpt lat="35.9773127" lon="139.137005"><ele>306.8533333333333</ele><time>2023-02-10T23:42:48Z</time></trkpt><trkpt lat="35.9773665" lon="139.1372167"><ele>305.7633333333333</ele><time>2023-02-10T23:42:59Z</time></trkpt><trkpt lat="35.9775482" lon="139.1372569"><ele>305.20666666666665</ele><time>2023-02-10T23:43:23Z</time></trkpt><trkpt lat="35.9776626" lon="139.1370629"><ele>305.09999999999997</ele><time>2023-02-10T23:43:38Z</time></trkpt><trkpt lat="35.9777938" lon="139.1368833"><ele>305.06</ele><time>2023-02-10T23:43:53Z</time></trkpt><trkpt lat="35.9779077" lon="139.1367009"><ele>305.1766666666667</ele><time>2023-02-10T23:44:07Z</time></trkpt><trkpt lat="35.9779472" lon="139.1364719"><ele>305.2866666666667</ele><time>2023-02-10T23:44:25Z</time></trkpt><trkpt lat="35.9780078" lon="139.1362568"><ele>305.58</ele><time>2023-02-10T23:44:46Z</time></trkpt><trkpt lat="35.9780942" lon="139.1360601"><ele>305.94</ele><time>2023-02-10T23:45:04Z</time></trkpt><trkpt lat="35.9781629" lon="139.1358375"><ele>306.67</ele><time>2023-02-10T23:45:18Z</time></trkpt><trkpt lat="35.9782905" lon="139.135668"><ele>308.1466666666667</ele><time>2023-02-10T23:45:34Z</time></trkpt><trkpt lat="35.9783933" lon="139.1354765"><ele>311.36333333333334</ele><time>2023-02-10T23:45:49Z</time></trkpt><trkpt lat="35.978496" lon="139.1352938"><ele>315.8</ele><time>2023-02-10T23:46:18Z</time></trkpt><trkpt lat="35.9785877" lon="139.1350962"><ele>320.68333333333334</ele><time>2023-02-10T23:46:44Z</time></trkpt><trkpt lat="35.9785769" lon="139.1348634"><ele>324.6933333333333</ele><time>2023-02-10T23:47:02Z</time></trkpt><trkpt lat="35.9785094" lon="139.1346418"><ele>327.0533333333333</ele><time>2023-02-10T23:47:26Z</time></trkpt><trkpt lat="35.9785246" lon="139.1344154"><ele>328.45</ele><time>2023-02-10T23:47:58Z</time></trkpt><trkpt lat="35.9787149" lon="139.1344405"><ele>329.9133333333333</ele><time>2023-02-10T23:48:22Z</time></trkpt><trkpt lat="35.9788913" lon="139.134379"><ele>332.08666666666664</ele><time>2023-02-10T23:48:39Z</time></trkpt><trkpt lat="35.9790864" lon="139.1343674"><ele>335.0366666666667</ele><time>2023-02-10T23:49:02Z</time></trkpt><trkpt lat="35.9792635" lon="139.1343014"><ele>338.9866666666667</ele><time>2023-02-10T23:49:20Z</time></trkpt><trkpt lat="35.9794149" lon="139.1341737"><ele>343.4766666666667</ele><time>2023-02-10T23:49:41Z</time></trkpt><trkpt lat="35.9794148" lon="139.133949"><ele>346.3833333333334</ele><time>2023-02-10T23:49:55Z</time></trkpt><trkpt lat="35.9795496" lon="139.1341185"><ele>348.71000000000004</ele><time>2023-02-10T23:50:31Z</time></trkpt><trkpt lat="35.9795693" lon="139.1343425"><ele>351.0466666666667</ele><time>2023-02-10T23:50:38Z</time></trkpt><trkpt lat="35.9794767" lon="139.1345438"><ele>353.5</ele><time>2023-02-10T23:50:53Z</time></trkpt><trkpt lat="35.9795006" lon="139.1347691"><ele>354.14000000000004</ele><time>2023-02-10T23:51:05Z</time></trkpt><trkpt lat="35.9796445" lon="139.134919"><ele>352.5133333333333</ele><time>2023-02-10T23:51:55Z</time></trkpt><trkpt lat="35.9798242" lon="139.1349512"><ele>351.6766666666667</ele><time>2023-02-10T23:52:10Z</time></trkpt><trkpt lat="35.9798545" lon="139.1347236"><ele>354.19</ele><time>2023-02-10T23:52:28Z</time></trkpt><trkpt lat="35.9798411" lon="139.1344982"><ele>360.8766666666667</ele><time>2023-02-10T23:52:47Z</time></trkpt><trkpt lat="35.9799598" lon="139.1343229"><ele>368.6266666666667</ele><time>2023-02-10T23:53:16Z</time></trkpt><trkpt lat="35.9801224" lon="139.1344361"><ele>374.14000000000004</ele><time>2023-02-10T23:54:05Z</time></trkpt><trkpt lat="35.9802972" lon="139.1343784"><ele>377.82666666666665</ele><time>2023-02-10T23:55:45Z</time></trkpt><trkpt lat="35.9804304" lon="139.1342211"><ele>381.24</ele><time>2023-02-10T23:56:17Z</time></trkpt><trkpt lat="35.9806014" lon="139.134135"><ele>385.42</ele><time>2023-02-10T23:56:33Z</time></trkpt><trkpt lat="35.9807621" lon="139.1340212"><ele>389.2066666666667</ele><time>2023-02-10T23:56:48Z</time></trkpt><trkpt lat="35.9809118" lon="139.1338749"><ele>392.07</ele><time>2023-02-10T23:57:04Z</time></trkpt><trkpt lat="35.9810429" lon="139.1337194"><ele>393.73</ele><time>2023-02-10T23:57:17Z</time></trkpt><trkpt lat="35.9810632" lon="139.13349"><ele>395.24666666666667</ele><time>2023-02-10T23:57:37Z</time></trkpt><trkpt lat="35.9812046" lon="139.1333485"><ele>396.8</ele><time>2023-02-10T23:58:04Z</time></trkpt><trkpt lat="35.9813601" lon="139.1332333"><ele>398.77000000000004</ele><time>2023-02-10T23:58:22Z</time></trkpt><trkpt lat="35.981538" lon="139.1332756"><ele>400.00666666666666</ele><time>2023-02-10T23:58:49Z</time></trkpt><trkpt lat="35.981718" lon="139.1332035"><ele>401.78000000000003</ele><time>2023-02-10T23:59:21Z</time></trkpt><trkpt lat="35.9819027" lon="139.1332495"><ele>404.5366666666667</ele><time>2023-02-10T23:59:41Z</time></trkpt><trkpt lat="35.9819874" lon="139.133459"><ele>408.17333333333335</ele><time>2023-02-11T00:00:06Z</time></trkpt><trkpt lat="35.9820611" lon="139.1336648"><ele>411.78999999999996</ele><time>2023-02-11T00:00:26Z</time></trkpt><trkpt lat="35.9821992" lon="139.1338118"><ele>415.3733333333334</ele><time>2023-02-11T00:01:34Z</time></trkpt><trkpt lat="35.9821765" lon="139.1340394"><ele>417.8866666666666</ele><time>2023-02-11T00:01:46Z</time></trkpt><trkpt lat="35.9822934" lon="139.1342221"><ele>419.41333333333336</ele><time>2023-02-11T00:02:17Z</time></trkpt><trkpt lat="35.9824461" lon="139.1343697"><ele>419.8766666666666</ele><time>2023-02-11T00:02:33Z</time></trkpt><trkpt lat="35.9825487" lon="139.1345821"><ele>420.7366666666667</ele><time>2023-02-11T00:03:06Z</time></trkpt><trkpt lat="35.9827205" lon="139.1346958"><ele>422.21999999999997</ele><time>2023-02-11T00:03:27Z</time></trkpt><trkpt lat="35.9828545" lon="139.1348483"><ele>424.3633333333334</ele><time>2023-02-11T00:04:03Z</time></trkpt><trkpt lat="35.9829927" lon="139.1350012"><ele>427.68</ele><time>2023-02-11T00:04:14Z</time></trkpt><trkpt lat="35.983168" lon="139.1351171"><ele>433.0</ele><time>2023-02-11T00:04:24Z</time></trkpt><trkpt lat="35.9833398" lon="139.1351937"><ele>438.65333333333336</ele><time>2023-02-11T00:04:46Z</time></trkpt><trkpt lat="35.983525" lon="139.1352334"><ele>444.28</ele><time>2023-02-11T00:05:04Z</time></trkpt><trkpt lat="35.9836081" lon="139.1354312"><ele>449.53999999999996</ele><time>2023-02-11T00:05:25Z</time></trkpt><trkpt lat="35.983771" lon="139.1355366"><ele>453.04</ele><time>2023-02-11T00:05:47Z</time></trkpt><trkpt lat="35.9839491" lon="139.1355783"><ele>454.3233333333333</ele><time>2023-02-11T00:06:02Z</time></trkpt><trkpt lat="35.9840321" lon="139.1357791"><ele>456.3966666666667</ele><time>2023-02-11T00:06:25Z</time></trkpt><trkpt lat="35.983908" lon="139.1356044"><ele>456.95666666666665</ele><time>2023-02-11T00:06:44Z</time></trkpt><trkpt lat="35.9837594" lon="139.1354611"><ele>457.23333333333335</ele><time>2023-02-11T00:06:55Z</time></trkpt><trkpt lat="35.9835974" lon="139.1353549"><ele>454.56333333333333</ele><time>2023-02-11T00:07:09Z</time></trkpt><trkpt lat="35.9834526" lon="139.1354969"><ele>453.00333333333333</ele><time>2023-02-11T00:07:24Z</time></trkpt><trkpt lat="35.9834919" lon="139.1357402"><ele>453.0</ele><time>2023-02-11T00:07:35Z</time></trkpt><trkpt lat="35.9835802" lon="139.1359371"><ele>454.58</ele><time>2023-02-11T00:07:49Z</time></trkpt><trkpt lat="35.9837692" lon="139.1359629"><ele>457.56666666666666</ele><time>2023-02-11T00:09:04Z</time></trkpt><trkpt lat="35.983918" lon="139.1360883"><ele>461.4533333333334</ele><time>2023-02-11T00:09:29Z</time></trkpt><trkpt lat="35.9840698" lon="139.1362135"><ele>464.34999999999997</ele><time>2023-02-11T00:09:43Z</time></trkpt><trkpt lat="35.9842612" lon="139.1361697"><ele>468.5333333333333</ele><time>2023-02-11T00:10:02Z</time></trkpt><trkpt lat="35.9844325" lon="139.1360533"><ele>472.06333333333333</ele><time>2023-02-11T00:10:22Z</time></trkpt><trkpt lat="35.9845005" lon="139.1362656"><ele>476.2666666666667</ele><time>2023-02-11T00:10:35Z</time></trkpt><trkpt lat="35.9845048" lon="139.1364887"><ele>477.8933333333334</ele><time>2023-02-11T00:10:54Z</time></trkpt><trkpt lat="35.9845467" lon="139.1367165"><ele>479.0933333333333</ele><time>2023-02-11T00:11:10Z</time></trkpt><trkpt lat="35.9846875" lon="139.1368561"><ele>480.7766666666667</ele><time>2023-02-11T00:11:37Z</time></trkpt><trkpt lat="35.9848235" lon="139.1366905"><ele>485.0366666666667</ele><time>2023-02-11T00:11:50Z</time></trkpt><trkpt lat="35.9848344" lon="139.1364596"><ele>489.1666666666667</ele><time>2023-02-11T00:12:33Z</time></trkpt><trkpt lat="35.9850061" lon="139.136546"><ele>493.1933333333333</ele><time>2023-02-11T00:12:52Z</time></trkpt><trkpt lat="35.9851839" lon="139.1365924"><ele>497.07</ele><time>2023-02-11T00:13:22Z</time></trkpt><trkpt lat="35.9853528" lon="139.136673"><ele>502.3633333333334</ele><time>2023-02-11T00:18:56Z</time></trkpt><trkpt lat="35.9854235" lon="139.1368782"><ele>509.22</ele><time>2023-02-11T00:19:37Z</time></trkpt><trkpt lat="35.9854465" lon="139.137102"><ele>515.9</ele><time>2023-02-11T00:19:55Z</time></trkpt><trkpt lat="35.985445" lon="139.1373266"><ele>521.0433333333334</ele><time>2023-02-11T00:20:15Z</time></trkpt><trkpt lat="35.9855179" lon="139.1375344"><ele>524.0833333333334</ele><time>2023-02-11T00:20:44Z</time></trkpt><trkpt lat="35.985581" lon="139.1377467"><ele>526.3866666666667</ele><time>2023-02-11T00:21:13Z</time></trkpt><trkpt lat="35.9854902" lon="139.1379505"><ele>528.0433333333334</ele><time>2023-02-11T00:21:49Z</time></trkpt><trkpt lat="35.9856697" lon="139.137971"><ele>531.58</ele><time>2023-02-11T00:22:45Z</time></trkpt><trkpt lat="35.9858412" lon="139.1380423"><ele>535.9133333333333</ele><time>2023-02-11T00:23:37Z</time></trkpt><trkpt lat="35.9859079" lon="139.1382486"><ele>543.4733333333334</ele><time>2023-02-11T00:24:40Z</time></trkpt><trkpt lat="35.9859007" lon="139.1384731"><ele>549.7133333333333</ele><time>2023-02-11T00:25:20Z</time></trkpt><trkpt lat="35.9859253" lon="139.1386945"><ele>556.2366666666667</ele><time>2023-02-11T00:26:05Z</time></trkpt><trkpt lat="35.9860687" lon="139.1388307"><ele>561.81</ele><time>2023-02-11T00:26:46Z</time></trkpt><trkpt lat="35.9861813" lon="139.1390082"><ele>567.5333333333333</ele><time>2023-02-11T00:28:00Z</time></trkpt><trkpt lat="35.9863342" lon="139.1391338"><ele>572.91</ele><time>2023-02-11T00:28:44Z</time></trkpt><trkpt lat="35.9863943" lon="139.139343"><ele>578.6633333333334</ele><time>2023-02-11T00:29:14Z</time></trkpt><trkpt lat="35.986469" lon="139.1395504"><ele>585.6266666666667</ele><time>2023-02-11T00:31:11Z</time></trkpt><trkpt lat="35.986636" lon="139.1396791"><ele>590.6933333333333</ele><time>2023-02-11T00:31:43Z</time></trkpt><trkpt lat="35.9867682" lon="139.1398333"><ele>595.0866666666667</ele><time>2023-02-11T00:32:01Z</time></trkpt><trkpt lat="35.9868748" lon="139.1400159"><ele>598.3433333333334</ele><time>2023-02-11T00:33:34Z</time></trkpt><trkpt lat="35.986898" lon="139.1402362"><ele>605.1166666666667</ele><time>2023-02-11T00:34:04Z</time></trkpt><trkpt lat="35.9867321" lon="139.1403319"><ele>612.3466666666667</ele><time>2023-02-11T00:35:50Z</time></trkpt><trkpt lat="35.9865665" lon="139.1404344"><ele>619.37</ele><time>2023-02-11T00:36:15Z</time></trkpt><trkpt lat="35.9863936" lon="139.1405146"><ele>623.82</ele><time>2023-02-11T00:36:31Z</time></trkpt><trkpt lat="35.9864509" lon="139.1407302"><ele>629.6566666666666</ele><time>2023-02-11T00:37:34Z</time></trkpt><trkpt lat="35.9865443" lon="139.1409276"><ele>636.2233333333334</ele><time>2023-02-11T00:39:09Z</time></trkpt><trkpt lat="35.9865179" lon="139.1411556"><ele>643.9200000000001</ele><time>2023-02-11T00:39:38Z</time></trkpt><trkpt lat="35.9865547" lon="139.1413732"><ele>651.14</ele><time>2023-02-11T00:40:03Z</time></trkpt><trkpt lat="35.9866458" lon="139.1415813"><ele>658.4333333333334</ele><time>2023-02-11T00:41:13Z</time></trkpt><trkpt lat="35.9867936" lon="139.1417089"><ele>665.7066666666667</ele><time>2023-02-11T00:41:52Z</time></trkpt><trkpt lat="35.9868175" lon="139.14193"><ele>672.6633333333334</ele><time>2023-02-11T00:43:52Z</time></trkpt><trkpt lat="35.9866503" lon="139.1420264"><ele>679.1166666666668</ele><time>2023-02-11T00:44:28Z</time></trkpt><trkpt lat="35.9867169" lon="139.1422336"><ele>684.8966666666666</ele><time>2023-02-11T00:45:04Z</time></trkpt><trkpt lat="35.9867098" lon="139.1424611"><ele>690.9633333333335</ele><time>2023-02-11T00:46:04Z</time></trkpt><trkpt lat="35.9867176" lon="139.1426917"><ele>696.4699999999999</ele><time>2023-02-11T00:46:51Z</time></trkpt><trkpt lat="35.9868133" lon="139.1428851"><ele>701.52</ele><time>2023-02-11T00:47:16Z</time></trkpt><trkpt lat="35.9868088" lon="139.1431364"><ele>705.4466666666667</ele><time>2023-02-11T00:48:15Z</time></trkpt><trkpt lat="35.9869376" lon="139.1433148"><ele>707.94</ele><time>2023-02-11T00:48:22Z</time></trkpt><trkpt lat="35.9870975" lon="139.143442"><ele>708.85</ele><time>2023-02-11T00:48:37Z</time></trkpt><trkpt lat="35.987125" lon="139.1436632"><ele>708.3533333333334</ele><time>2023-02-11T00:48:51Z</time></trkpt><trkpt lat="35.9871649" lon="139.1438804"><ele>707.9733333333334</ele><time>2023-02-11T00:49:16Z</time></trkpt><trkpt lat="35.9873078" lon="139.1440159"><ele>709.1666666666666</ele><time>2023-02-11T00:50:20Z</time></trkpt><trkpt lat="35.987417" lon="139.1442034"><ele>710.84</ele><time>2023-02-11T00:50:32Z</time></trkpt><trkpt lat="35.9875987" lon="139.1441608"><ele>712.7700000000001</ele><time>2023-02-11T00:51:03Z</time></trkpt><trkpt lat="35.9877207" lon="139.1443279"><ele>714.5466666666666</ele><time>2023-02-11T00:51:17Z</time></trkpt><trkpt lat="35.9878732" lon="139.144467"><ele>716.8133333333334</ele><time>2023-02-11T00:51:40Z</time></trkpt><trkpt lat="35.9879608" lon="139.1446622"><ele>719.6366666666667</ele><time>2023-02-11T00:52:37Z</time></trkpt><trkpt lat="35.988111" lon="139.1448095"><ele>722.1566666666666</ele><time>2023-02-11T00:53:13Z</time></trkpt><trkpt lat="35.9880863" lon="139.1450323"><ele>724.3866666666667</ele><time>2023-02-11T00:53:21Z</time></trkpt><trkpt lat="35.9880795" lon="139.1452587"><ele>726.61</ele><time>2023-02-11T00:53:40Z</time></trkpt><trkpt lat="35.9882137" lon="139.1454201"><ele>729.4200000000001</ele><time>2023-02-11T00:54:01Z</time></trkpt><trkpt lat="35.9882201" lon="139.1456422"><ele>731.9233333333333</ele><time>2023-02-11T00:54:53Z</time></trkpt><trkpt lat="35.9881835" lon="139.1458673"><ele>735.1700000000001</ele><time>2023-02-11T00:55:38Z</time></trkpt><trkpt lat="35.9881709" lon="139.1460919"><ele>739.1866666666666</ele><time>2023-02-11T00:56:42Z</time></trkpt><trkpt lat="35.988094" lon="139.1463023"><ele>744.6066666666667</ele><time>2023-02-11T00:57:12Z</time></trkpt><trkpt lat="35.9881099" lon="139.1465322"><ele>750.66</ele><time>2023-02-11T00:58:13Z</time></trkpt><trkpt lat="35.9882025" lon="139.1467278"><ele>756.0366666666667</ele><time>2023-02-11T00:58:37Z</time></trkpt><trkpt lat="35.988317" lon="139.1469076"><ele>759.6433333333334</ele><time>2023-02-11T00:58:49Z</time></trkpt><trkpt lat="35.9884658" lon="139.1470338"><ele>761.5833333333334</ele><time>2023-02-11T00:59:22Z</time></trkpt><trkpt lat="35.9886098" lon="139.1471704"><ele>764.1</ele><time>2023-02-11T00:59:53Z</time></trkpt><trkpt lat="35.9887784" lon="139.1472867"><ele>767.77</ele><time>2023-02-11T01:00:39Z</time></trkpt><trkpt lat="35.9888584" lon="139.1474991"><ele>771.5833333333334</ele><time>2023-02-11T01:00:52Z</time></trkpt><trkpt lat="35.9889157" lon="139.1477241"><ele>774.3966666666666</ele><time>2023-02-11T01:01:27Z</time></trkpt><trkpt lat="35.9890429" lon="139.1478837"><ele>776.6333333333333</ele><time>2023-02-11T01:02:04Z</time></trkpt><trkpt lat="35.9891186" lon="139.1481087"><ele>778.91</ele><time>2023-02-11T01:02:45Z</time></trkpt><trkpt lat="35.9892355" lon="139.1483022"><ele>781.66</ele><time>2023-02-11T01:03:20Z</time></trkpt><trkpt lat="35.9892563" lon="139.1485337"><ele>784.3066666666667</ele><time>2023-02-11T01:03:35Z</time></trkpt><trkpt lat="35.9892682" lon="139.1487597"><ele>788.1533333333333</ele><time>2023-02-11T01:04:40Z</time></trkpt><trkpt lat="35.9893006" lon="139.1489803"><ele>792.83</ele><time>2023-02-11T01:05:08Z</time></trkpt><trkpt lat="35.9893386" lon="139.1492024"><ele>798.3533333333334</ele><time>2023-02-11T01:05:29Z</time></trkpt><trkpt lat="35.9893964" lon="139.149413"><ele>803.5500000000001</ele><time>2023-02-11T01:06:27Z</time></trkpt><trkpt lat="35.9895048" lon="139.1495939"><ele>808.2933333333334</ele><time>2023-02-11T01:06:54Z</time></trkpt><trkpt lat="35.9896092" lon="139.1497753"><ele>813.1333333333333</ele><time>2023-02-11T01:08:19Z</time></trkpt><trkpt lat="35.9895585" lon="139.1500041"><ele>816.0</ele><time>2023-02-11T01:08:40Z</time></trkpt><trkpt lat="35.989716" lon="139.1501191"><ele>818.7366666666667</ele><time>2023-02-11T01:08:55Z</time></trkpt><trkpt lat="35.9898386" lon="139.1502858"><ele>820.71</ele><time>2023-02-11T01:09:14Z</time></trkpt><trkpt lat="35.9899928" lon="139.1504325"><ele>824.4700000000001</ele><time>2023-02-11T01:11:13Z</time></trkpt><trkpt lat="35.990159" lon="139.1505338"><ele>827.9333333333334</ele><time>2023-02-11T01:11:40Z</time></trkpt><trkpt lat="35.9903759" lon="139.1506085"><ele>832.8366666666667</ele><time>2023-02-11T01:12:09Z</time></trkpt><trkpt lat="35.9904803" lon="139.15079"><ele>837.0733333333334</ele><time>2023-02-11T01:13:51Z</time></trkpt><trkpt lat="35.9905818" lon="139.1509818"><ele>841.3233333333333</ele><time>2023-02-11T01:14:02Z</time></trkpt><trkpt lat="35.9907604" lon="139.1510156"><ele>844.2233333333334</ele><time>2023-02-11T01:14:22Z</time></trkpt><trkpt lat="35.9909373" lon="139.1509659"><ele>847.2933333333334</ele><time>2023-02-11T01:14:56Z</time></trkpt><trkpt lat="35.9910889" lon="139.1510867"><ele>849.9466666666667</ele><time>2023-02-11T01:15:16Z</time></trkpt><trkpt lat="35.9912096" lon="139.1512531"><ele>853.1533333333333</ele><time>2023-02-11T01:16:34Z</time></trkpt><trkpt lat="35.9913254" lon="139.1514489"><ele>856.4433333333333</ele><time>2023-02-11T01:16:41Z</time></trkpt><trkpt lat="35.9915134" lon="139.1514589"><ele>860.2266666666666</ele><time>2023-02-11T01:17:00Z</time></trkpt><trkpt lat="35.9916603" lon="139.1516099"><ele>863.6366666666667</ele><time>2023-02-11T01:17:37Z</time></trkpt><trkpt lat="35.9918059" lon="139.1517482"><ele>867.44</ele><time>2023-02-11T01:18:37Z</time></trkpt><trkpt lat="35.9918896" lon="139.151946"><ele>870.9166666666666</ele><time>2023-02-11T01:19:16Z</time></trkpt><trkpt lat="35.9920149" lon="139.1521202"><ele>875.09</ele><time>2023-02-11T01:19:32Z</time></trkpt><trkpt lat="35.9921024" lon="139.1523158"><ele>879.2400000000001</ele><time>2023-02-11T01:20:25Z</time></trkpt><trkpt lat="35.9922076" lon="139.1524981"><ele>884.5633333333334</ele><time>2023-02-11T01:21:13Z</time></trkpt><trkpt lat="35.9923105" lon="139.1526807"><ele>888.8333333333334</ele><time>2023-02-11T01:22:48Z</time></trkpt><trkpt lat="35.9924073" lon="139.152873"><ele>892.6233333333333</ele><time>2023-02-11T01:24:08Z</time></trkpt><trkpt lat="35.99257" lon="139.1529694"><ele>894.64</ele><time>2023-02-11T01:25:01Z</time></trkpt><trkpt lat="35.9927035" lon="139.1531232"><ele>896.1700000000001</ele><time>2023-02-11T01:25:38Z</time></trkpt><trkpt lat="35.9926687" lon="139.1533424"><ele>897.4166666666666</ele><time>2023-02-11T01:25:59Z</time></trkpt><trkpt lat="35.9926057" lon="139.153558"><ele>899.1766666666666</ele><time>2023-02-11T01:26:17Z</time></trkpt><trkpt lat="35.992645" lon="139.1537909"><ele>901.7766666666666</ele><time>2023-02-11T01:26:56Z</time></trkpt><trkpt lat="35.9926915" lon="139.1540085"><ele>904.0433333333334</ele><time>2023-02-11T01:27:11Z</time></trkpt><trkpt lat="35.9927863" lon="139.1541986"><ele>906.1866666666668</ele><time>2023-02-11T01:27:28Z</time></trkpt><trkpt lat="35.9928677" lon="139.154403"><ele>908.4100000000002</ele><time>2023-02-11T01:28:11Z</time></trkpt><trkpt lat="35.9929407" lon="139.1546137"><ele>910.6966666666667</ele><time>2023-02-11T01:28:35Z</time></trkpt><trkpt lat="35.9929425" lon="139.1548366"><ele>911.6033333333334</ele><time>2023-02-11T01:28:59Z</time></trkpt><trkpt lat="35.9928134" lon="139.1549917"><ele>910.9433333333333</ele><time>2023-02-11T01:29:34Z</time></trkpt><trkpt lat="35.992675" lon="139.155143"><ele>909.5733333333334</ele><time>2023-02-11T01:29:49Z</time></trkpt><trkpt lat="35.9924934" lon="139.1551811"><ele>908.6833333333334</ele><time>2023-02-11T01:30:32Z</time></trkpt><trkpt lat="35.9923619" lon="139.1553408"><ele>909.1700000000001</ele><time>2023-02-11T01:31:46Z</time></trkpt><trkpt lat="35.9923298" lon="139.1555632"><ele>910.8833333333333</ele><time>2023-02-11T01:32:35Z</time></trkpt><trkpt lat="35.992266" lon="139.1557737"><ele>914.71</ele><time>2023-02-11T01:33:20Z</time></trkpt><trkpt lat="35.9922273" lon="139.1559972"><ele>918.1166666666668</ele><time>2023-02-11T01:34:00Z</time></trkpt><trkpt lat="35.9921829" lon="139.1562162"><ele>919.79</ele><time>2023-02-11T01:34:17Z</time></trkpt><trkpt lat="35.9920629" lon="139.1563878"><ele>919.82</ele><time>2023-02-11T01:34:30Z</time></trkpt><trkpt lat="35.991932" lon="139.1565434"><ele>917.6466666666666</ele><time>2023-02-11T01:35:58Z</time></trkpt><trkpt lat="35.991773" lon="139.1566483"><ele>915.3633333333333</ele><time>2023-02-11T01:36:30Z</time></trkpt><trkpt lat="35.9916324" lon="139.1568065"><ele>910.25</ele><time>2023-02-11T01:36:57Z</time></trkpt><trkpt lat="35.9914722" lon="139.1569272"><ele>905.96</ele><time>2023-02-11T01:37:10Z</time></trkpt><trkpt lat="35.9913009" lon="139.1570146"><ele>902.2400000000001</ele><time>2023-02-11T01:37:29Z</time></trkpt><trkpt lat="35.9911591" lon="139.1571548"><ele>899.3333333333334</ele><time>2023-02-11T01:37:41Z</time></trkpt><trkpt lat="35.9910334" lon="139.1573271"><ele>896.1866666666666</ele><time>2023-02-11T01:37:55Z</time></trkpt><trkpt lat="35.9909863" lon="139.1575413"><ele>892.5966666666667</ele><time>2023-02-11T01:38:11Z</time></trkpt><trkpt lat="35.9909956" lon="139.157768"><ele>888.23</ele><time>2023-02-11T01:39:53Z</time></trkpt><trkpt lat="35.9908162" lon="139.1578144"><ele>886.32</ele><time>2023-02-11T01:43:12Z</time></trkpt><trkpt lat="35.990655" lon="139.1579374"><ele>887.27</ele><time>2023-02-11T01:44:04Z</time></trkpt><trkpt lat="35.9905189" lon="139.1581044"><ele>890.14</ele><time>2023-02-11T01:44:20Z</time></trkpt><trkpt lat="35.9903536" lon="139.1581935"><ele>892.3633333333333</ele><time>2023-02-11T01:44:40Z</time></trkpt><trkpt lat="35.9902657" lon="139.1583875"><ele>893.3800000000001</ele><time>2023-02-11T01:45:22Z</time></trkpt><trkpt lat="35.9901609" lon="139.1585727"><ele>896.5</ele><time>2023-02-11T01:45:47Z</time></trkpt><trkpt lat="35.9901441" lon="139.1587978"><ele>901.1133333333333</ele><time>2023-02-11T01:46:38Z</time></trkpt><trkpt lat="35.9900397" lon="139.1589835"><ele>906.3133333333334</ele><time>2023-02-11T01:47:10Z</time></trkpt><trkpt lat="35.9898906" lon="139.159111"><ele>912.2199999999999</ele><time>2023-02-11T01:47:46Z</time></trkpt><trkpt lat="35.9897246" lon="139.1592145"><ele>918.4533333333334</ele><time>2023-02-11T01:48:32Z</time></trkpt><trkpt lat="35.9895695" lon="139.1593318"><ele>925.0633333333334</ele><time>2023-02-11T01:49:18Z</time></trkpt><trkpt lat="35.9893911" lon="139.1593672"><ele>931.7566666666668</ele><time>2023-02-11T01:50:23Z</time></trkpt><trkpt lat="35.9892097" lon="139.1593691"><ele>937.4566666666666</ele><time>2023-02-11T01:51:11Z</time></trkpt><trkpt lat="35.9890365" lon="139.1594368"><ele>943.5766666666667</ele><time>2023-02-11T01:52:36Z</time></trkpt><trkpt lat="35.9888524" lon="139.1594909"><ele>949.2033333333334</ele><time>2023-02-11T01:53:01Z</time></trkpt><trkpt lat="35.9886545" lon="139.1593939"><ele>954.83</ele><time>2023-02-11T01:55:20Z</time></trkpt><trkpt lat="35.9885866" lon="139.1596004"><ele>958.3666666666667</ele><time>2023-02-11T01:58:37Z</time></trkpt><trkpt lat="35.9887174" lon="139.1594396"><ele>959.7266666666668</ele><time>2023-02-11T02:02:13Z</time></trkpt><trkpt lat="35.9885903" lon="139.1595351"><ele>959.84</ele><time>2023-02-11T02:03:03Z</time></trkpt><trkpt lat="35.988774" lon="139.1594029"><ele>958.8000000000001</ele><time>2023-02-11T02:06:42Z</time></trkpt><trkpt lat="35.9885963" lon="139.1594406"><ele>958.9533333333333</ele><time>2023-02-11T02:07:12Z</time></trkpt><trkpt lat="35.9887831" lon="139.1595159"><ele>958.1300000000001</ele><time>2023-02-11T02:12:03Z</time></trkpt><trkpt lat="35.9886844" lon="139.1597114"><ele>958.7366666666667</ele><time>2023-02-11T02:21:12Z</time></trkpt><trkpt lat="35.9885836" lon="139.1599113"><ele>957.9033333333333</ele><time>2023-02-11T02:21:24Z</time></trkpt><trkpt lat="35.9885211" lon="139.1601239"><ele>957.4666666666667</ele><time>2023-02-11T02:21:36Z</time></trkpt><trkpt lat="35.9884997" lon="139.1603574"><ele>955.9133333333333</ele><time>2023-02-11T02:21:51Z</time></trkpt><trkpt lat="35.9884758" lon="139.1605904"><ele>954.9566666666666</ele><time>2023-02-11T02:22:06Z</time></trkpt><trkpt lat="35.9884737" lon="139.1608195"><ele>954.0200000000001</ele><time>2023-02-11T02:22:24Z</time></trkpt><trkpt lat="35.9885201" lon="139.1610377"><ele>953.6033333333335</ele><time>2023-02-11T02:22:39Z</time></trkpt><trkpt lat="35.9885757" lon="139.1612501"><ele>952.73</ele><time>2023-02-11T02:23:02Z</time></trkpt><trkpt lat="35.9884544" lon="139.1614153"><ele>951.4566666666666</ele><time>2023-02-11T02:23:24Z</time></trkpt><trkpt lat="35.9883025" lon="139.1615442"><ele>949.0666666666666</ele><time>2023-02-11T02:23:47Z</time></trkpt><trkpt lat="35.9881659" lon="139.1616979"><ele>945.11</ele><time>2023-02-11T02:24:31Z</time></trkpt><trkpt lat="35.9880955" lon="139.161905"><ele>940.3133333333334</ele><time>2023-02-11T02:24:43Z</time></trkpt><trkpt lat="35.9879786" lon="139.1620801"><ele>934.8966666666666</ele><time>2023-02-11T02:24:54Z</time></trkpt><trkpt lat="35.9878368" lon="139.1622226"><ele>929.5166666666668</ele><time>2023-02-11T02:25:07Z</time></trkpt><trkpt lat="35.9876745" lon="139.1623357"><ele>924.2033333333334</ele><time>2023-02-11T02:25:21Z</time></trkpt><trkpt lat="35.987556" lon="139.1625038"><ele>919.3566666666666</ele><time>2023-02-11T02:25:42Z</time></trkpt><trkpt lat="35.9874531" lon="139.1626906"><ele>915.3333333333334</ele><time>2023-02-11T02:26:08Z</time></trkpt><trkpt lat="35.9873442" lon="139.1628774"><ele>911.38</ele><time>2023-02-11T02:26:29Z</time></trkpt><trkpt lat="35.9872438" lon="139.1630635"><ele>908.2966666666667</ele><time>2023-02-11T02:26:43Z</time></trkpt><trkpt lat="35.9871655" lon="139.1632653"><ele>905.62</ele><time>2023-02-11T02:27:03Z</time></trkpt><trkpt lat="35.98704" lon="139.1634353"><ele>903.9066666666668</ele><time>2023-02-11T02:27:18Z</time></trkpt><trkpt lat="35.9868923" lon="139.1635681"><ele>902.3766666666667</ele><time>2023-02-11T02:27:33Z</time></trkpt><trkpt lat="35.9867893" lon="139.1637724"><ele>901.11</ele><time>2023-02-11T02:27:47Z</time></trkpt><trkpt lat="35.9866767" lon="139.1639458"><ele>898.6700000000001</ele><time>2023-02-11T02:28:03Z</time></trkpt><trkpt lat="35.9866126" lon="139.1641557"><ele>895.9233333333333</ele><time>2023-02-11T02:28:16Z</time></trkpt><trkpt lat="35.9864786" lon="139.1643096"><ele>892.0266666666666</ele><time>2023-02-11T02:28:37Z</time></trkpt><trkpt lat="35.9863771" lon="139.1644972"><ele>889.4466666666667</ele><time>2023-02-11T02:29:34Z</time></trkpt><trkpt lat="35.9863426" lon="139.1647272"><ele>888.44</ele><time>2023-02-11T02:29:51Z</time></trkpt><trkpt lat="35.9861872" lon="139.1648508"><ele>888.5933333333334</ele><time>2023-02-11T02:30:08Z</time></trkpt><trkpt lat="35.9860058" lon="139.1648308"><ele>888.3366666666667</ele><time>2023-02-11T02:30:24Z</time></trkpt><trkpt lat="35.9859735" lon="139.1650501"><ele>886.36</ele><time>2023-02-11T02:31:00Z</time></trkpt><trkpt lat="35.986021" lon="139.1652698"><ele>884.2366666666667</ele><time>2023-02-11T02:31:24Z</time></trkpt><trkpt lat="35.9860141" lon="139.1654916"><ele>880.5966666666667</ele><time>2023-02-11T02:32:18Z</time></trkpt><trkpt lat="35.9859676" lon="139.1657065"><ele>877.2233333333334</ele><time>2023-02-11T02:32:31Z</time></trkpt><trkpt lat="35.9859846" lon="139.165944"><ele>874.2466666666666</ele><time>2023-02-11T02:32:48Z</time></trkpt><trkpt lat="35.9860036" lon="139.16617"><ele>872.8800000000001</ele><time>2023-02-11T02:33:14Z</time></trkpt><trkpt lat="35.9860309" lon="139.1664002"><ele>871.8833333333333</ele><time>2023-02-11T02:33:30Z</time></trkpt><trkpt lat="35.9859927" lon="139.166619"><ele>871.4166666666666</ele><time>2023-02-11T02:33:48Z</time></trkpt><trkpt lat="35.9859076" lon="139.1668171"><ele>872.1633333333333</ele><time>2023-02-11T02:34:17Z</time></trkpt><trkpt lat="35.9858666" lon="139.1670378"><ele>874.9733333333334</ele><time>2023-02-11T02:35:06Z</time></trkpt><trkpt lat="35.9858597" lon="139.1672602"><ele>880.2833333333333</ele><time>2023-02-11T02:35:51Z</time></trkpt><trkpt lat="35.9858012" lon="139.1674774"><ele>885.9833333333332</ele><time>2023-02-11T02:36:14Z</time></trkpt><trkpt lat="35.9857864" lon="139.1677216"><ele>890.4066666666668</ele><time>2023-02-11T02:36:28Z</time></trkpt><trkpt lat="35.9858112" lon="139.1679446"><ele>891.9866666666667</ele><time>2023-02-11T02:36:44Z</time></trkpt><trkpt lat="35.9858034" lon="139.1681692"><ele>892.4566666666666</ele><time>2023-02-11T02:37:00Z</time></trkpt><trkpt lat="35.9857574" lon="139.1683846"><ele>892.0733333333334</ele><time>2023-02-11T02:37:14Z</time></trkpt><trkpt lat="35.9857892" lon="139.1686151"><ele>892.0600000000001</ele><time>2023-02-11T02:37:33Z</time></trkpt><trkpt lat="35.9856351" lon="139.1687513"><ele>890.8800000000001</ele><time>2023-02-11T02:37:57Z</time></trkpt><trkpt lat="35.9854622" lon="139.1688265"><ele>889.0799999999999</ele><time>2023-02-11T02:38:15Z</time></trkpt><trkpt lat="35.9853442" lon="139.1690018"><ele>887.2800000000001</ele><time>2023-02-11T02:38:37Z</time></trkpt><trkpt lat="35.9852457" lon="139.1691881"><ele>887.39</ele><time>2023-02-11T02:38:59Z</time></trkpt><trkpt lat="35.9852227" lon="139.1694118"><ele>888.8566666666667</ele><time>2023-02-11T02:39:29Z</time></trkpt><trkpt lat="35.9852035" lon="139.1696421"><ele>889.7833333333333</ele><time>2023-02-11T02:39:45Z</time></trkpt><trkpt lat="35.9851756" lon="139.1698668"><ele>889.3299999999999</ele><time>2023-02-11T02:40:01Z</time></trkpt><trkpt lat="35.9850677" lon="139.1700478"><ele>889.2133333333335</ele><time>2023-02-11T02:40:15Z</time></trkpt><trkpt lat="35.984886" lon="139.1700752"><ele>889.5566666666667</ele><time>2023-02-11T02:44:30Z</time></trkpt><trkpt lat="35.9847081" lon="139.1701505"><ele>888.41</ele><time>2023-02-11T02:45:48Z</time></trkpt><trkpt lat="35.9845304" lon="139.1701933"><ele>882.5566666666667</ele><time>2023-02-11T02:46:19Z</time></trkpt><trkpt lat="35.9843555" lon="139.1702497"><ele>873.6566666666668</ele><time>2023-02-11T02:46:33Z</time></trkpt><trkpt lat="35.9841974" lon="139.17036"><ele>865.5633333333334</ele><time>2023-02-11T02:46:49Z</time></trkpt><trkpt lat="35.9840441" lon="139.1704836"><ele>859.7966666666667</ele><time>2023-02-11T02:47:06Z</time></trkpt><trkpt lat="35.9838723" lon="139.1705541"><ele>856.5266666666666</ele><time>2023-02-11T02:48:31Z</time></trkpt><trkpt lat="35.9837362" lon="139.1704079"><ele>852.2400000000001</ele><time>2023-02-11T02:48:59Z</time></trkpt><trkpt lat="35.9838537" lon="139.1702349"><ele>849.0300000000001</ele><time>2023-02-11T02:49:34Z</time></trkpt><trkpt lat="35.9839376" lon="139.170026"><ele>845.6700000000001</ele><time>2023-02-11T02:49:50Z</time></trkpt><trkpt lat="35.984018" lon="139.1698247"><ele>844.44</ele><time>2023-02-11T02:50:30Z</time></trkpt><trkpt lat="35.9840443" lon="139.1696007"><ele>842.6433333333334</ele><time>2023-02-11T02:50:46Z</time></trkpt><trkpt lat="35.9840434" lon="139.1693755"><ele>839.1133333333333</ele><time>2023-02-11T02:51:06Z</time></trkpt><trkpt lat="35.9840482" lon="139.1691492"><ele>834.2733333333334</ele><time>2023-02-11T02:51:29Z</time></trkpt><trkpt lat="35.9839914" lon="139.1689364"><ele>828.2033333333334</ele><time>2023-02-11T02:52:04Z</time></trkpt><trkpt lat="35.9840905" lon="139.1687505"><ele>823.44</ele><time>2023-02-11T02:52:49Z</time></trkpt><trkpt lat="35.9842015" lon="139.1685668"><ele>820.8533333333335</ele><time>2023-02-11T02:53:10Z</time></trkpt><trkpt lat="35.9841863" lon="139.1683449"><ele>817.5566666666667</ele><time>2023-02-11T02:53:26Z</time></trkpt><trkpt lat="35.9841189" lon="139.1681382"><ele>815.0066666666667</ele><time>2023-02-11T02:53:51Z</time></trkpt><trkpt lat="35.983954" lon="139.1680272"><ele>807.85</ele><time>2023-02-11T02:54:10Z</time></trkpt><trkpt lat="35.9837831" lon="139.168102"><ele>800.8466666666667</ele><time>2023-02-11T02:54:46Z</time></trkpt><trkpt lat="35.9836183" lon="139.1682229"><ele>791.3133333333334</ele><time>2023-02-11T02:55:03Z</time></trkpt><trkpt lat="35.9836032" lon="139.1679943"><ele>784.6333333333333</ele><time>2023-02-11T02:55:27Z</time></trkpt><trkpt lat="35.9834465" lon="139.1678807"><ele>778.4266666666667</ele><time>2023-02-11T02:58:33Z</time></trkpt><trkpt lat="35.9832536" lon="139.1678317"><ele>771.3966666666666</ele><time>2023-02-11T02:59:24Z</time></trkpt><trkpt lat="35.983112" lon="139.1679705"><ele>763.0633333333334</ele><time>2023-02-11T02:59:43Z</time></trkpt><trkpt lat="35.9829484" lon="139.1678693"><ele>754.7166666666667</ele><time>2023-02-11T03:00:00Z</time></trkpt><trkpt lat="35.9827991" lon="139.1677134"><ele>746.1933333333333</ele><time>2023-02-11T03:00:20Z</time></trkpt><trkpt lat="35.9828941" lon="139.1675192"><ele>741.9399999999999</ele><time>2023-02-11T03:00:29Z</time></trkpt><trkpt lat="35.9827532" lon="139.1676612"><ele>736.5066666666667</ele><time>2023-02-11T03:01:31Z</time></trkpt><trkpt lat="35.9827016" lon="139.1674465"><ele>732.6266666666667</ele><time>2023-02-11T03:02:22Z</time></trkpt><trkpt lat="35.982561" lon="139.1675915"><ele>723.2566666666667</ele><time>2023-02-11T03:03:12Z</time></trkpt><trkpt lat="35.9824066" lon="139.1677062"><ele>718.08</ele><time>2023-02-11T03:04:10Z</time></trkpt><trkpt lat="35.9822344" lon="139.1676384"><ele>711.25</ele><time>2023-02-11T03:04:46Z</time></trkpt><trkpt lat="35.9820548" lon="139.1676172"><ele>707.1300000000001</ele><time>2023-02-11T03:06:00Z</time></trkpt><trkpt lat="35.9819086" lon="139.167471"><ele>698.82</ele><time>2023-02-11T03:06:27Z</time></trkpt><trkpt lat="35.9817587" lon="139.1673468"><ele>692.5966666666667</ele><time>2023-02-11T03:06:46Z</time></trkpt><trkpt lat="35.981597" lon="139.1672283"><ele>684.8566666666666</ele><time>2023-02-11T03:07:45Z</time></trkpt><trkpt lat="35.981464" lon="139.1670769"><ele>678.3333333333334</ele><time>2023-02-11T03:08:11Z</time></trkpt><trkpt lat="35.9813065" lon="139.1669675"><ele>673.26</ele><time>2023-02-11T03:08:29Z</time></trkpt><trkpt lat="35.9811783" lon="139.166809"><ele>668.8000000000001</ele><time>2023-02-11T03:08:49Z</time></trkpt><trkpt lat="35.981109" lon="139.1666031"><ele>664.4133333333333</ele><time>2023-02-11T03:09:03Z</time></trkpt><trkpt lat="35.9809472" lon="139.1664983"><ele>660.3666666666667</ele><time>2023-02-11T03:09:26Z</time></trkpt><trkpt lat="35.980784" lon="139.1663997"><ele>656.8166666666667</ele><time>2023-02-11T03:10:17Z</time></trkpt><trkpt lat="35.9807238" lon="139.1661892"><ele>652.1866666666666</ele><time>2023-02-11T03:11:54Z</time></trkpt><trkpt lat="35.9806299" lon="139.1659951"><ele>643.9133333333334</ele><time>2023-02-11T03:12:05Z</time></trkpt><trkpt lat="35.9804705" lon="139.1658912"><ele>634.8800000000001</ele><time>2023-02-11T03:12:41Z</time></trkpt><trkpt lat="35.9803403" lon="139.166046"><ele>627.7166666666667</ele><time>2023-02-11T03:15:08Z</time></trkpt><trkpt lat="35.9803569" lon="139.1662693"><ele>623.78</ele><time>2023-02-11T03:15:37Z</time></trkpt><trkpt lat="35.980184" lon="139.1663387"><ele>618.04</ele><time>2023-02-11T03:20:44Z</time></trkpt><trkpt lat="35.9801409" lon="139.1661215"><ele>612.91</ele><time>2023-02-11T03:21:51Z</time></trkpt><trkpt lat="35.9800804" lon="139.1659115"><ele>606.26</ele><time>2023-02-11T03:22:12Z</time></trkpt><trkpt lat="35.9800712" lon="139.1656871"><ele>602.9599999999999</ele><time>2023-02-11T03:22:49Z</time></trkpt><trkpt lat="35.9800494" lon="139.1654636"><ele>599.4033333333333</ele><time>2023-02-11T03:23:41Z</time></trkpt><trkpt lat="35.9800073" lon="139.165237"><ele>593.1366666666667</ele><time>2023-02-11T03:24:04Z</time></trkpt><trkpt lat="35.9799641" lon="139.1650164"><ele>585.3433333333334</ele><time>2023-02-11T03:24:23Z</time></trkpt><trkpt lat="35.9798295" lon="139.1648587"><ele>577.4833333333332</ele><time>2023-02-11T03:26:38Z</time></trkpt><trkpt lat="35.9796589" lon="139.1647698"><ele>572.8266666666667</ele><time>2023-02-11T03:27:03Z</time></trkpt><trkpt lat="35.9796361" lon="139.1645435"><ele>570.4366666666666</ele><time>2023-02-11T03:27:17Z</time></trkpt><trkpt lat="35.979534" lon="139.1643551"><ele>569.69</ele><time>2023-02-11T03:27:53Z</time></trkpt><trkpt lat="35.9794159" lon="139.1641582"><ele>572.2533333333333</ele><time>2023-02-11T03:28:08Z</time></trkpt><trkpt lat="35.9793839" lon="139.1639364"><ele>574.9200000000001</ele><time>2023-02-11T03:28:29Z</time></trkpt><trkpt lat="35.9792412" lon="139.163799"><ele>573.8033333333334</ele><time>2023-02-11T03:28:47Z</time></trkpt><trkpt lat="35.9792918" lon="139.1635819"><ele>573.2466666666666</ele><time>2023-02-11T03:29:28Z</time></trkpt><trkpt lat="35.97936" lon="139.1633681"><ele>573.54</ele><time>2023-02-11T03:29:43Z</time></trkpt><trkpt lat="35.9793579" lon="139.163143"><ele>575.73</ele><time>2023-02-11T03:30:02Z</time></trkpt><trkpt lat="35.9793084" lon="139.1629272"><ele>571.8233333333334</ele><time>2023-02-11T03:30:46Z</time></trkpt><trkpt lat="35.9792834" lon="139.1627017"><ele>566.89</ele><time>2023-02-11T03:30:59Z</time></trkpt><trkpt lat="35.979174" lon="139.1625169"><ele>560.2800000000001</ele><time>2023-02-11T03:31:14Z</time></trkpt><trkpt lat="35.9790598" lon="139.1623289"><ele>555.7966666666666</ele><time>2023-02-11T03:31:28Z</time></trkpt><trkpt lat="35.9791073" lon="139.1621143"><ele>551.4166666666666</ele><time>2023-02-11T03:31:41Z</time></trkpt><trkpt lat="35.979145" lon="139.1618896"><ele>551.8333333333334</ele><time>2023-02-11T03:32:28Z</time></trkpt><trkpt lat="35.9792184" lon="139.1616755"><ele>554.7400000000001</ele><time>2023-02-11T03:32:57Z</time></trkpt><trkpt lat="35.9792382" lon="139.1614542"><ele>554.1133333333333</ele><time>2023-02-11T03:33:34Z</time></trkpt><trkpt lat="35.9794134" lon="139.161388"><ele>551.0600000000001</ele><time>2023-02-11T03:34:17Z</time></trkpt><trkpt lat="35.9795942" lon="139.1613327"><ele>546.91</ele><time>2023-02-11T03:34:47Z</time></trkpt><trkpt lat="35.9797771" lon="139.1613131"><ele>545.2733333333334</ele><time>2023-02-11T03:35:00Z</time></trkpt><trkpt lat="35.9798552" lon="139.1611076"><ele>542.6533333333333</ele><time>2023-02-11T03:36:55Z</time></trkpt><trkpt lat="35.9797734" lon="139.1608904"><ele>541.4833333333335</ele><time>2023-02-11T03:37:08Z</time></trkpt><trkpt lat="35.97961" lon="139.1607854"><ele>539.7600000000001</ele><time>2023-02-11T03:37:17Z</time></trkpt><trkpt lat="35.9794833" lon="139.1606251"><ele>539.43</ele><time>2023-02-11T03:37:31Z</time></trkpt><trkpt lat="35.979416" lon="139.1604174"><ele>540.5966666666667</ele><time>2023-02-11T03:37:45Z</time></trkpt><trkpt lat="35.9792494" lon="139.1603293"><ele>540.8666666666667</ele><time>2023-02-11T03:38:11Z</time></trkpt><trkpt lat="35.9790887" lon="139.1602152"><ele>540.1766666666667</ele><time>2023-02-11T03:38:47Z</time></trkpt><trkpt lat="35.9789368" lon="139.1600935"><ele>536.68</ele><time>2023-02-11T03:39:01Z</time></trkpt><trkpt lat="35.97879" lon="139.1599589"><ele>534.1533333333333</ele><time>2023-02-11T03:39:13Z</time></trkpt><trkpt lat="35.9786552" lon="139.1598037"><ele>533.6</ele><time>2023-02-11T03:39:41Z</time></trkpt><trkpt lat="35.9785084" lon="139.159666"><ele>534.02</ele><time>2023-02-11T03:39:56Z</time></trkpt><trkpt lat="35.9783283" lon="139.1596102"><ele>534.7733333333332</ele><time>2023-02-11T03:40:23Z</time></trkpt><trkpt lat="35.978148" lon="139.159655"><ele>532.1366666666667</ele><time>2023-02-11T03:40:38Z</time></trkpt><trkpt lat="35.9780085" lon="139.1595114"><ele>527.3433333333334</ele><time>2023-02-11T03:40:53Z</time></trkpt><trkpt lat="35.9779932" lon="139.1592883"><ele>521.3866666666667</ele><time>2023-02-11T03:41:27Z</time></trkpt><trkpt lat="35.9780778" lon="139.1590907"><ele>520.3533333333334</ele><time>2023-02-11T03:41:48Z</time></trkpt><trkpt lat="35.9780685" lon="139.1588642"><ele>516.35</ele><time>2023-02-11T03:42:03Z</time></trkpt><trkpt lat="35.9782504" lon="139.1588092"><ele>517.49</ele><time>2023-02-11T03:42:31Z</time></trkpt><trkpt lat="35.9783166" lon="139.1586011"><ele>514.7733333333334</ele><time>2023-02-11T03:42:58Z</time></trkpt><trkpt lat="35.9781355" lon="139.1585701"><ele>511.77666666666664</ele><time>2023-02-11T03:43:29Z</time></trkpt><trkpt lat="35.9780005" lon="139.158416"><ele>503.42333333333335</ele><time>2023-02-11T03:43:42Z</time></trkpt><trkpt lat="35.9778321" lon="139.1583351"><ele>496.2533333333334</ele><time>2023-02-11T03:44:26Z</time></trkpt><trkpt lat="35.9776446" lon="139.1583509"><ele>493.03999999999996</ele><time>2023-02-11T03:45:15Z</time></trkpt><trkpt lat="35.9774673" lon="139.1584162"><ele>490.88000000000005</ele><time>2023-02-11T03:45:31Z</time></trkpt><trkpt lat="35.9772931" lon="139.1584923"><ele>491.4666666666667</ele><time>2023-02-11T03:45:57Z</time></trkpt><trkpt lat="35.9771414" lon="139.158357"><ele>495.5566666666667</ele><time>2023-02-11T03:46:28Z</time></trkpt><trkpt lat="35.976988" lon="139.1582312"><ele>503.7166666666667</ele><time>2023-02-11T03:46:44Z</time></trkpt><trkpt lat="35.9768643" lon="139.1580626"><ele>509.32666666666665</ele><time>2023-02-11T03:47:01Z</time></trkpt><trkpt lat="35.9768417" lon="139.1578319"><ele>513.5533333333333</ele><time>2023-02-11T03:47:23Z</time></trkpt><trkpt lat="35.976687" lon="139.1576965"><ele>511.81666666666666</ele><time>2023-02-11T03:47:34Z</time></trkpt><trkpt lat="35.9765472" lon="139.1575541"><ele>505.6366666666667</ele><time>2023-02-11T03:47:50Z</time></trkpt><trkpt lat="35.976362" lon="139.1574654"><ele>497.93</ele><time>2023-02-11T03:48:06Z</time></trkpt><trkpt lat="35.9761816" lon="139.1574888"><ele>490.8733333333334</ele><time>2023-02-11T03:48:28Z</time></trkpt><trkpt lat="35.9760265" lon="139.1573744"><ele>489.9333333333334</ele><time>2023-02-11T03:49:03Z</time></trkpt><trkpt lat="35.9758449" lon="139.1574239"><ele>483.4866666666667</ele><time>2023-02-11T03:49:17Z</time></trkpt><trkpt lat="35.9757209" lon="139.1572594"><ele>479.91</ele><time>2023-02-11T03:49:39Z</time></trkpt><trkpt lat="35.9755932" lon="139.1571017"><ele>473.5333333333333</ele><time>2023-02-11T03:49:57Z</time></trkpt><trkpt lat="35.9755395" lon="139.1568873"><ele>472.7033333333334</ele><time>2023-02-11T03:50:11Z</time></trkpt><trkpt lat="35.9753817" lon="139.1567794"><ele>469.50333333333333</ele><time>2023-02-11T03:50:46Z</time></trkpt><trkpt lat="35.9752204" lon="139.156678"><ele>462.84</ele><time>2023-02-11T03:51:05Z</time></trkpt><trkpt lat="35.9751812" lon="139.1564567"><ele>457.23333333333335</ele><time>2023-02-11T03:51:20Z</time></trkpt><trkpt lat="35.9751643" lon="139.1562341"><ele>456.93</ele><time>2023-02-11T03:51:33Z</time></trkpt><trkpt lat="35.9750902" lon="139.1560262"><ele>461.1366666666666</ele><time>2023-02-11T03:51:45Z</time></trkpt><trkpt lat="35.975008" lon="139.1558266"><ele>461.1233333333333</ele><time>2023-02-11T03:51:55Z</time></trkpt><trkpt lat="35.9749532" lon="139.1556136"><ele>456.6933333333333</ele><time>2023-02-11T03:52:09Z</time></trkpt><trkpt lat="35.9747716" lon="139.1556019"><ele>447.55</ele><time>2023-02-11T03:52:35Z</time></trkpt><trkpt lat="35.9746234" lon="139.1557364"><ele>437.9466666666667</ele><time>2023-02-11T03:52:50Z</time></trkpt><trkpt lat="35.9747501" lon="139.1555734"><ele>432.0</ele><time>2023-02-11T03:53:38Z</time></trkpt><trkpt lat="35.9747276" lon="139.155353"><ele>428.0166666666667</ele><time>2023-02-11T03:54:02Z</time></trkpt><trkpt lat="35.974793" lon="139.1551273"><ele>425.02666666666664</ele><time>2023-02-11T03:54:17Z</time></trkpt><trkpt lat="35.9749167" lon="139.1549647"><ele>418.8433333333333</ele><time>2023-02-11T03:54:33Z</time></trkpt><trkpt lat="35.9750548" lon="139.1548092"><ele>416.53</ele><time>2023-02-11T03:54:47Z</time></trkpt><trkpt lat="35.9751466" lon="139.15461"><ele>412.82666666666665</ele><time>2023-02-11T03:54:58Z</time></trkpt><trkpt lat="35.9752685" lon="139.1544411"><ele>409.3066666666667</ele><time>2023-02-11T03:55:11Z</time></trkpt><trkpt lat="35.975173" lon="139.154247"><ele>401.7633333333333</ele><time>2023-02-11T03:55:26Z</time></trkpt><trkpt lat="35.9751312" lon="139.1540284"><ele>394.19666666666666</ele><time>2023-02-11T03:55:37Z</time></trkpt><trkpt lat="35.9751965" lon="139.1538183"><ele>386.50333333333333</ele><time>2023-02-11T03:56:00Z</time></trkpt><trkpt lat="35.9752456" lon="139.1535993"><ele>382.42</ele><time>2023-02-11T03:56:14Z</time></trkpt><trkpt lat="35.9751833" lon="139.1533817"><ele>381.03999999999996</ele><time>2023-02-11T03:56:26Z</time></trkpt><trkpt lat="35.9751052" lon="139.1531798"><ele>379.30333333333334</ele><time>2023-02-11T03:56:37Z</time></trkpt><trkpt lat="35.9750174" lon="139.1529858"><ele>375.2</ele><time>2023-02-11T03:56:59Z</time></trkpt><trkpt lat="35.9751034" lon="139.1527832"><ele>372.86999999999995</ele><time>2023-02-11T03:58:09Z</time></trkpt><trkpt lat="35.97503" lon="139.1525747"><ele>370.1433333333334</ele><time>2023-02-11T03:58:20Z</time></trkpt><trkpt lat="35.9751404" lon="139.1523875"><ele>368.8833333333334</ele><time>2023-02-11T03:58:31Z</time></trkpt><trkpt lat="35.975235" lon="139.1521971"><ele>366.48333333333335</ele><time>2023-02-11T03:58:40Z</time></trkpt><trkpt lat="35.9753831" lon="139.1520641"><ele>365.93</ele><time>2023-02-11T03:58:53Z</time></trkpt><trkpt lat="35.9755499" lon="139.1519687"><ele>365.85999999999996</ele><time>2023-02-11T03:59:07Z</time></trkpt><trkpt lat="35.9755921" lon="139.151729"><ele>364.73333333333335</ele><time>2023-02-11T03:59:20Z</time></trkpt><trkpt lat="35.975731" lon="139.1515642"><ele>363.43666666666667</ele><time>2023-02-11T03:59:35Z</time></trkpt><trkpt lat="35.9758296" lon="139.151365"><ele>361.35666666666674</ele><time>2023-02-11T03:59:47Z</time></trkpt><trkpt lat="35.9759636" lon="139.1511988"><ele>361.9433333333333</ele><time>2023-02-11T04:00:00Z</time></trkpt><trkpt lat="35.976111" lon="139.1510499"><ele>365.9433333333333</ele><time>2023-02-11T04:00:14Z</time></trkpt><trkpt lat="35.9761438" lon="139.1508257"><ele>368.90333333333336</ele><time>2023-02-11T04:00:24Z</time></trkpt><trkpt lat="35.9760672" lon="139.1506173"><ele>368.2033333333334</ele><time>2023-02-11T04:00:35Z</time></trkpt><trkpt lat="35.9760489" lon="139.1503831"><ele>362.89000000000004</ele><time>2023-02-11T04:00:48Z</time></trkpt><trkpt lat="35.9759659" lon="139.150172"><ele>359.12000000000006</ele><time>2023-02-11T04:01:00Z</time></trkpt><trkpt lat="35.9760343" lon="139.1499639"><ele>360.19000000000005</ele><time>2023-02-11T04:01:09Z</time></trkpt><trkpt lat="35.9759822" lon="139.1497388"><ele>362.2866666666667</ele><time>2023-02-11T04:01:22Z</time></trkpt><trkpt lat="35.975816" lon="139.1496452"><ele>360.00666666666666</ele><time>2023-02-11T04:01:32Z</time></trkpt><trkpt lat="35.9756936" lon="139.1494767"><ele>354.2166666666667</ele><time>2023-02-11T04:01:45Z</time></trkpt><trkpt lat="35.9755828" lon="139.1492897"><ele>348.7</ele><time>2023-02-11T04:01:59Z</time></trkpt><trkpt lat="35.9754436" lon="139.1491408"><ele>347.3966666666667</ele><time>2023-02-11T04:02:13Z</time></trkpt><trkpt lat="35.9753217" lon="139.1489553"><ele>347.05333333333334</ele><time>2023-02-11T04:02:25Z</time></trkpt><trkpt lat="35.975235" lon="139.1487443"><ele>346.25333333333333</ele><time>2023-02-11T04:02:36Z</time></trkpt><trkpt lat="35.9751655" lon="139.1485257"><ele>346.04</ele><time>2023-02-11T04:02:50Z</time></trkpt><trkpt lat="35.9750167" lon="139.1483813"><ele>345.10666666666674</ele><time>2023-02-11T04:03:03Z</time></trkpt><trkpt lat="35.9749646" lon="139.148157"><ele>343.5266666666667</ele><time>2023-02-11T04:03:16Z</time></trkpt><trkpt lat="35.9750426" lon="139.1479455"><ele>340.8533333333333</ele><time>2023-02-11T04:03:28Z</time></trkpt><trkpt lat="35.9750343" lon="139.1477194"><ele>339.27333333333337</ele><time>2023-02-11T04:03:43Z</time></trkpt><trkpt lat="35.9749674" lon="139.1475066"><ele>337.7533333333334</ele><time>2023-02-11T04:03:57Z</time></trkpt><trkpt lat="35.9749956" lon="139.1472742"><ele>336.71</ele><time>2023-02-11T04:04:17Z</time></trkpt><trkpt lat="35.9751398" lon="139.1471314"><ele>335.98</ele><time>2023-02-11T04:04:28Z</time></trkpt><trkpt lat="35.9752264" lon="139.1469222"><ele>335.28</ele><time>2023-02-11T04:04:42Z</time></trkpt><trkpt lat="35.9753504" lon="139.1467441"><ele>334.8866666666667</ele><time>2023-02-11T04:04:55Z</time></trkpt><trkpt lat="35.9755052" lon="139.1466282"><ele>333.75</ele><time>2023-02-11T04:05:08Z</time></trkpt><trkpt lat="35.9756879" lon="139.1466483"><ele>334.1166666666667</ele><time>2023-02-11T04:05:20Z</time></trkpt><trkpt lat="35.9758022" lon="139.1464762"><ele>333.85666666666674</ele><time>2023-02-11T04:05:35Z</time></trkpt><trkpt lat="35.9759374" lon="139.1463139"><ele>333.39000000000004</ele><time>2023-02-11T04:05:47Z</time></trkpt><trkpt lat="35.9760797" lon="139.1461721"><ele>330.2966666666667</ele><time>2023-02-11T04:06:02Z</time></trkpt><trkpt lat="35.9762343" lon="139.1460456"><ele>326.65333333333336</ele><time>2023-02-11T04:06:22Z</time></trkpt><trkpt lat="35.9763972" lon="139.14592"><ele>323.03666666666663</ele><time>2023-02-11T04:06:34Z</time></trkpt><trkpt lat="35.9765272" lon="139.1457534"><ele>320.89</ele><time>2023-02-11T04:06:47Z</time></trkpt><trkpt lat="35.9765295" lon="139.145524"><ele>322.9766666666667</ele><time>2023-02-11T04:07:13Z</time></trkpt><trkpt lat="35.9765911" lon="139.1453074"><ele>324.2266666666667</ele><time>2023-02-11T04:07:28Z</time></trkpt><trkpt lat="35.9766553" lon="139.1450908"><ele>324.71</ele><time>2023-02-11T04:07:46Z</time></trkpt><trkpt lat="35.9766421" lon="139.1448503"><ele>321.71</ele><time>2023-02-11T04:08:03Z</time></trkpt><trkpt lat="35.9766773" lon="139.1446241"><ele>319.78</ele><time>2023-02-11T04:08:27Z</time></trkpt><trkpt lat="35.9766454" lon="139.1444028"><ele>320.08</ele><time>2023-02-11T04:08:39Z</time></trkpt><trkpt lat="35.976588" lon="139.1441852"><ele>321.21</ele><time>2023-02-11T04:08:52Z</time></trkpt><trkpt lat="35.9765614" lon="139.143949"><ele>322.68</ele><time>2023-02-11T04:09:13Z</time></trkpt><trkpt lat="35.9766059" lon="139.1437264"><ele>322.78666666666663</ele><time>2023-02-11T04:09:25Z</time></trkpt><trkpt lat="35.9766522" lon="139.1435003"><ele>323.26</ele><time>2023-02-11T04:09:41Z</time></trkpt><trkpt lat="35.9766921" lon="139.1432686"><ele>323.6466666666667</ele><time>2023-02-11T04:09:52Z</time></trkpt><trkpt lat="35.9767705" lon="139.1430567"><ele>324.1333333333333</ele><time>2023-02-11T04:10:05Z</time></trkpt><trkpt lat="35.9768315" lon="139.1428285"><ele>323.51</ele><time>2023-02-11T04:10:18Z</time></trkpt><trkpt lat="35.9768357" lon="139.1425936"><ele>321.91333333333336</ele><time>2023-02-11T04:10:30Z</time></trkpt><trkpt lat="35.9770054" lon="139.1425039"><ele>321.53000000000003</ele><time>2023-02-11T04:10:42Z</time></trkpt><trkpt lat="35.9770306" lon="139.142275"><ele>320.78000000000003</ele><time>2023-02-11T04:10:55Z</time></trkpt><trkpt lat="35.977151" lon="139.1420955"><ele>320.8566666666666</ele><time>2023-02-11T04:11:11Z</time></trkpt><trkpt lat="35.9772942" lon="139.1419545"><ele>320.81</ele><time>2023-02-11T04:11:22Z</time></trkpt><trkpt lat="35.9774238" lon="139.1417861"><ele>321.8333333333333</ele><time>2023-02-11T04:11:38Z</time></trkpt><trkpt lat="35.9775769" lon="139.1416153"><ele>321.1433333333334</ele><time>2023-02-11T04:11:52Z</time></trkpt><trkpt lat="35.9776906" lon="139.1414358"><ele>319.0733333333333</ele><time>2023-02-11T04:12:07Z</time></trkpt><trkpt lat="35.9776977" lon="139.1412049"><ele>316.0933333333333</ele><time>2023-02-11T04:12:19Z</time></trkpt><trkpt lat="35.9776516" lon="139.1409891"><ele>314.18666666666667</ele><time>2023-02-11T04:12:31Z</time></trkpt><trkpt lat="35.9776357" lon="139.140758"><ele>313.3766666666666</ele><time>2023-02-11T04:12:46Z</time></trkpt><trkpt lat="35.9775542" lon="139.1405532"><ele>313.74333333333334</ele><time>2023-02-11T04:12:56Z</time></trkpt><trkpt lat="35.9774902" lon="139.1403343"><ele>314.83666666666664</ele><time>2023-02-11T04:13:10Z</time></trkpt><trkpt lat="35.9773925" lon="139.1401388"><ele>314.87000000000006</ele><time>2023-02-11T04:13:22Z</time></trkpt><trkpt lat="35.9773666" lon="139.1399085"><ele>314.0566666666667</ele><time>2023-02-11T04:13:34Z</time></trkpt><trkpt lat="35.9773299" lon="139.1396772"><ele>313.34000000000003</ele><time>2023-02-11T04:13:51Z</time></trkpt><trkpt lat="35.9772943" lon="139.13945"><ele>311.99</ele><time>2023-02-11T04:14:05Z</time></trkpt><trkpt lat="35.9772434" lon="139.1392326"><ele>311.12333333333333</ele><time>2023-02-11T04:14:16Z</time></trkpt><trkpt lat="35.9771317" lon="139.1390353"><ele>309.43666666666667</ele><time>2023-02-11T04:14:26Z</time></trkpt><trkpt lat="35.9771794" lon="139.1388179"><ele>308.95000000000005</ele><time>2023-02-11T04:14:38Z</time></trkpt><trkpt lat="35.9771552" lon="139.138584"><ele>307.98333333333335</ele><time>2023-02-11T04:14:53Z</time></trkpt><trkpt lat="35.9771653" lon="139.1383574"><ele>307.61666666666673</ele><time>2023-02-11T04:15:08Z</time></trkpt><trkpt lat="35.9771697" lon="139.138131"><ele>306.79333333333335</ele><time>2023-02-11T04:15:20Z</time></trkpt><trkpt lat="35.9772653" lon="139.1379403"><ele>307.21666666666664</ele><time>2023-02-11T04:15:32Z</time></trkpt><trkpt lat="35.9773869" lon="139.1377738"><ele>307.61</ele><time>2023-02-11T04:15:44Z</time></trkpt><trkpt lat="35.9775651" lon="139.137683"><ele>308.25666666666666</ele><time>2023-02-11T04:15:53Z</time></trkpt><trkpt lat="35.9775539" lon="139.1374361"><ele>307.46</ele><time>2023-02-11T04:16:07Z</time></trkpt><trkpt lat="35.9773533" lon="139.1374576"><ele>306.4433333333333</ele><time>2023-02-11T04:16:33Z</time></trkpt><trkpt lat="35.9772877" lon="139.1372337"><ele>305.58</ele><time>2023-02-11T04:16:40Z</time></trkpt><trkpt lat="35.9772964" lon="139.136999"><ele>305.52666666666664</ele><time>2023-02-11T04:16:47Z</time></trkpt><trkpt lat="35.977271" lon="139.1367732"><ele>305.85999999999996</ele><time>2023-02-11T04:17:08Z</time></trkpt><trkpt lat="35.9772469" lon="139.136551"><ele>306.05333333333334</ele><time>2023-02-11T04:17:19Z</time></trkpt><trkpt lat="35.9772979" lon="139.1363358"><ele>305.93666666666667</ele><time>2023-02-11T04:17:32Z</time></trkpt><trkpt lat="35.9772197" lon="139.1361273"><ele>305.78000000000003</ele><time>2023-02-11T04:17:42Z</time></trkpt><trkpt lat="35.977029" lon="139.1360419"><ele>306.0</ele><time>2023-02-11T04:18:03Z</time></trkpt><trkpt lat="35.9769032" lon="139.1358615"><ele>306.38000000000005</ele><time>2023-02-11T04:20:46Z</time></trkpt><trkpt lat="35.9769012" lon="139.1356357"><ele>306.56333333333333</ele><time>2023-02-11T04:20:59Z</time></trkpt></trkseg></trk></gpx>