<?xml version='1.0' encoding='UTF-8'?><gpx creator="YAMAP - https://yamap.com" xsi:schemaLocation="http://www.topografix.com/GPX/1/1 http://www.topografix.com/GPX/1/1/gpx.xsd" version="1.1" xmlns="http://www.topografix.com/GPX/1/1" xmlns:xsi="http://www.w3.org/2001/XMLSchema-instance"><metadata><bounds maxlat="35.4543702" maxlon="139.1686482" minlat="35.4047293" minlon="139.1609223"/></metadata><trk><name>積雪の塔ノ岳</name><number>1</number><trkseg><trkpt lat="35.4047293" lon="139.1686482"><ele>287.82</ele><time>2024-02-10T00:03:10Z</time></trkpt><trkpt lat="35.4049025" lon="139.1685556"><ele>287.96500000000003</ele><time>2024-02-10T00:03:34Z</time></trkpt><trkpt lat="35.4050714" lon="139.1684665"><ele>288.31333333333333</ele><time>2024-02-10T00:03:49Z</time></trkpt><trkpt lat="35.4052048" lon="139.1683062"><ele>289.26</ele><time>2024-02-10T00:04:05Z</time></trkpt><trkpt lat="35.4053912" lon="139.1682421"><ele>290.72</ele><time>2024-02-10T00:04:19Z</time></trkpt><trkpt lat="35.4055647" lon="139.168154"><ele>292.4266666666667</ele><time>2024-02-10T00:04:33Z</time></trkpt><trkpt lat="35.4057473" lon="139.1680725"><ele>293.33</ele><time>2024-02-10T00:04:44Z</time></trkpt><trkpt lat="35.4058607" lon="139.1678829"><ele>293.27666666666664</ele><time>2024-02-10T00:05:06Z</time></trkpt><trkpt lat="35.4059547" lon="139.1676939"><ele>292.7166666666667</ele><time>2024-02-10T00:05:19Z</time></trkpt><trkpt lat="35.4059962" lon="139.1674697"><ele>292.5733333333333</ele><time>2024-02-10T00:05:31Z</time></trkpt><trkpt lat="35.4060175" lon="139.1672491"><ele>294.3</ele><time>2024-02-10T00:05:43Z</time></trkpt><trkpt lat="35.4059899" lon="139.167022"><ele>296.91333333333336</ele><time>2024-02-10T00:05:57Z</time></trkpt><trkpt lat="35.4059033" lon="139.1668275"><ele>299.8</ele><time>2024-02-10T00:06:09Z</time></trkpt><trkpt lat="35.4058184" lon="139.1666313"><ele>301.92333333333335</ele><time>2024-02-10T00:06:21Z</time></trkpt><trkpt lat="35.4058012" lon="139.1664067"><ele>303.7266666666667</ele><time>2024-02-10T00:06:34Z</time></trkpt><trkpt lat="35.4058929" lon="139.166206"><ele>306.06666666666666</ele><time>2024-02-10T00:06:51Z</time></trkpt><trkpt lat="35.405936" lon="139.1659843"><ele>308.6533333333333</ele><time>2024-02-10T00:07:06Z</time></trkpt><trkpt lat="35.4061067" lon="139.1658935"><ele>311.8833333333333</ele><time>2024-02-10T00:07:21Z</time></trkpt><trkpt lat="35.4062973" lon="139.1658588"><ele>316.00333333333333</ele><time>2024-02-10T00:07:48Z</time></trkpt><trkpt lat="35.4064823" lon="139.1658224"><ele>318.71</ele><time>2024-02-10T00:08:04Z</time></trkpt><trkpt lat="35.4066617" lon="139.1657471"><ele>320.25333333333333</ele><time>2024-02-10T00:08:21Z</time></trkpt><trkpt lat="35.4068365" lon="139.1656778"><ele>319.74333333333334</ele><time>2024-02-10T00:08:36Z</time></trkpt><trkpt lat="35.4069313" lon="139.1654729"><ele>320.7033333333333</ele><time>2024-02-10T00:08:55Z</time></trkpt><trkpt lat="35.4070865" lon="139.1653435"><ele>323.09666666666664</ele><time>2024-02-10T00:09:12Z</time></trkpt><trkpt lat="35.4072384" lon="139.1652132"><ele>326.31</ele><time>2024-02-10T00:09:29Z</time></trkpt><trkpt lat="35.4074259" lon="139.165137"><ele>329.56</ele><time>2024-02-10T00:09:45Z</time></trkpt><trkpt lat="35.4076053" lon="139.1650923"><ele>332.56666666666666</ele><time>2024-02-10T00:10:19Z</time></trkpt><trkpt lat="35.4077697" lon="139.1649405"><ele>336.09</ele><time>2024-02-10T00:10:35Z</time></trkpt><trkpt lat="35.4079493" lon="139.1648453"><ele>339.91333333333336</ele><time>2024-02-10T00:10:51Z</time></trkpt><trkpt lat="35.4081326" lon="139.1648537"><ele>342.3733333333333</ele><time>2024-02-10T00:11:06Z</time></trkpt><trkpt lat="35.4083132" lon="139.164796"><ele>344.16333333333336</ele><time>2024-02-10T00:11:22Z</time></trkpt><trkpt lat="35.4085019" lon="139.1647784"><ele>344.55</ele><time>2024-02-10T00:11:39Z</time></trkpt><trkpt lat="35.4085777" lon="139.1645653"><ele>346.5533333333333</ele><time>2024-02-10T00:11:52Z</time></trkpt><trkpt lat="35.4086078" lon="139.1643452"><ele>349.2266666666667</ele><time>2024-02-10T00:12:07Z</time></trkpt><trkpt lat="35.4086897" lon="139.1641464"><ele>353.5733333333333</ele><time>2024-02-10T00:12:23Z</time></trkpt><trkpt lat="35.4087144" lon="139.1639263"><ele>357.33666666666664</ele><time>2024-02-10T00:12:38Z</time></trkpt><trkpt lat="35.4088592" lon="139.1637746"><ele>360.7966666666667</ele><time>2024-02-10T00:12:55Z</time></trkpt><trkpt lat="35.4089847" lon="139.1635948"><ele>363.2966666666667</ele><time>2024-02-10T00:13:06Z</time></trkpt><trkpt lat="35.4091721" lon="139.1635605"><ele>366.93</ele><time>2024-02-10T00:13:25Z</time></trkpt><trkpt lat="35.4092908" lon="139.1637374"><ele>369.99666666666667</ele><time>2024-02-10T00:13:45Z</time></trkpt><trkpt lat="35.4094551" lon="139.1638502"><ele>372.71333333333337</ele><time>2024-02-10T00:14:05Z</time></trkpt><trkpt lat="35.409638" lon="139.1637798"><ele>374.1066666666666</ele><time>2024-02-10T00:14:18Z</time></trkpt><trkpt lat="35.4098046" lon="139.1636931"><ele>376.10999999999996</ele><time>2024-02-10T00:14:33Z</time></trkpt><trkpt lat="35.4099895" lon="139.1636559"><ele>378.24</ele><time>2024-02-10T00:14:49Z</time></trkpt><trkpt lat="35.4101516" lon="139.1635437"><ele>381.40000000000003</ele><time>2024-02-10T00:15:01Z</time></trkpt><trkpt lat="35.4102215" lon="139.1633292"><ele>384.9066666666667</ele><time>2024-02-10T00:15:25Z</time></trkpt><trkpt lat="35.4103638" lon="139.1631743"><ele>388.61000000000007</ele><time>2024-02-10T00:15:48Z</time></trkpt><trkpt lat="35.410518" lon="139.1630483"><ele>390.5900000000001</ele><time>2024-02-10T00:16:04Z</time></trkpt><trkpt lat="35.4106403" lon="139.1628817"><ele>392.6466666666667</ele><time>2024-02-10T00:16:22Z</time></trkpt><trkpt lat="35.4107486" lon="139.1626869"><ele>397.1566666666667</ele><time>2024-02-10T00:16:58Z</time></trkpt><trkpt lat="35.4108885" lon="139.1625471"><ele>402.47333333333336</ele><time>2024-02-10T00:17:13Z</time></trkpt><trkpt lat="35.4110477" lon="139.1624313"><ele>408.47</ele><time>2024-02-10T00:17:30Z</time></trkpt><trkpt lat="35.4111812" lon="139.1622692"><ele>413.71333333333337</ele><time>2024-02-10T00:17:47Z</time></trkpt><trkpt lat="35.4111916" lon="139.1620474"><ele>420.22333333333336</ele><time>2024-02-10T00:18:01Z</time></trkpt><trkpt lat="35.4113514" lon="139.1619134"><ele>426.90333333333336</ele><time>2024-02-10T00:18:16Z</time></trkpt><trkpt lat="35.41154" lon="139.1619255"><ele>431.41333333333336</ele><time>2024-02-10T00:18:49Z</time></trkpt><trkpt lat="35.41168" lon="139.1617635"><ele>436.3733333333333</ele><time>2024-02-10T00:19:09Z</time></trkpt><trkpt lat="35.4117912" lon="139.161941"><ele>438.64000000000004</ele><time>2024-02-10T00:20:04Z</time></trkpt><trkpt lat="35.4119271" lon="139.162092"><ele>440.31333333333333</ele><time>2024-02-10T00:20:21Z</time></trkpt><trkpt lat="35.4121077" lon="139.1621683"><ele>440.1233333333334</ele><time>2024-02-10T00:20:40Z</time></trkpt><trkpt lat="35.4122751" lon="139.1620611"><ele>441.71333333333337</ele><time>2024-02-10T00:20:54Z</time></trkpt><trkpt lat="35.4124404" lon="139.1619722"><ele>443.2033333333334</ele><time>2024-02-10T00:21:08Z</time></trkpt><trkpt lat="35.412592" lon="139.161848"><ele>444.66333333333336</ele><time>2024-02-10T00:21:22Z</time></trkpt><trkpt lat="35.4127632" lon="139.1617509"><ele>447.95</ele><time>2024-02-10T00:21:40Z</time></trkpt><trkpt lat="35.4129455" lon="139.1617199"><ele>452.44000000000005</ele><time>2024-02-10T00:21:51Z</time></trkpt><trkpt lat="35.4131552" lon="139.1616953"><ele>458.75666666666666</ele><time>2024-02-10T00:22:10Z</time></trkpt><trkpt lat="35.413323" lon="139.1617927"><ele>462.49333333333334</ele><time>2024-02-10T00:22:28Z</time></trkpt><trkpt lat="35.413454" lon="139.1619573"><ele>466.1333333333334</ele><time>2024-02-10T00:22:44Z</time></trkpt><trkpt lat="35.4131517" lon="139.1618892"><ele>463.50666666666666</ele><time>2024-02-10T00:22:59Z</time></trkpt><trkpt lat="35.4132676" lon="139.1620749"><ele>460.41</ele><time>2024-02-10T00:23:15Z</time></trkpt><trkpt lat="35.413401" lon="139.1622234"><ele>459.41</ele><time>2024-02-10T00:23:32Z</time></trkpt><trkpt lat="35.4134681" lon="139.1624281"><ele>462.6833333333334</ele><time>2024-02-10T00:24:04Z</time></trkpt><trkpt lat="35.4136395" lon="139.1623581"><ele>468.1966666666667</ele><time>2024-02-10T00:24:18Z</time></trkpt><trkpt lat="35.4138264" lon="139.1623926"><ele>470.9166666666667</ele><time>2024-02-10T00:25:33Z</time></trkpt><trkpt lat="35.4139969" lon="139.162305"><ele>474.2633333333333</ele><time>2024-02-10T00:25:56Z</time></trkpt><trkpt lat="35.4141822" lon="139.162254"><ele>477.6033333333333</ele><time>2024-02-10T00:26:13Z</time></trkpt><trkpt lat="35.4143055" lon="139.1620899"><ele>484.2166666666667</ele><time>2024-02-10T00:26:27Z</time></trkpt><trkpt lat="35.4144873" lon="139.1621324"><ele>488.7833333333333</ele><time>2024-02-10T00:26:44Z</time></trkpt><trkpt lat="35.4146054" lon="139.1623067"><ele>490.85999999999996</ele><time>2024-02-10T00:27:07Z</time></trkpt><trkpt lat="35.414791" lon="139.1623615"><ele>491.00666666666666</ele><time>2024-02-10T00:27:24Z</time></trkpt><trkpt lat="35.4149415" lon="139.1624865"><ele>495.01</ele><time>2024-02-10T00:27:43Z</time></trkpt><trkpt lat="35.4149893" lon="139.162272"><ele>500.33666666666664</ele><time>2024-02-10T00:28:43Z</time></trkpt><trkpt lat="35.4149452" lon="139.1620407"><ele>506.1133333333334</ele><time>2024-02-10T00:29:04Z</time></trkpt><trkpt lat="35.4151074" lon="139.1621537"><ele>510.40666666666675</ele><time>2024-02-10T00:29:39Z</time></trkpt><trkpt lat="35.4151842" lon="139.1623596"><ele>514.37</ele><time>2024-02-10T00:29:58Z</time></trkpt><trkpt lat="35.4150561" lon="139.1625214"><ele>513.09</ele><time>2024-02-10T00:30:16Z</time></trkpt><trkpt lat="35.4151089" lon="139.1627402"><ele>514.2900000000001</ele><time>2024-02-10T00:30:49Z</time></trkpt><trkpt lat="35.4152091" lon="139.1629261"><ele>516.1166666666667</ele><time>2024-02-10T00:31:11Z</time></trkpt><trkpt lat="35.415359" lon="139.1627783"><ele>525.6266666666667</ele><time>2024-02-10T00:31:26Z</time></trkpt><trkpt lat="35.4155457" lon="139.1628323"><ele>531.8933333333333</ele><time>2024-02-10T00:32:21Z</time></trkpt><trkpt lat="35.4157353" lon="139.1628624"><ele>537.6633333333333</ele><time>2024-02-10T00:32:45Z</time></trkpt><trkpt lat="35.4158834" lon="139.1627236"><ele>540.8566666666667</ele><time>2024-02-10T00:33:01Z</time></trkpt><trkpt lat="35.4160036" lon="139.162545"><ele>545.5266666666666</ele><time>2024-02-10T00:33:21Z</time></trkpt><trkpt lat="35.4161847" lon="139.1625519"><ele>549.3100000000001</ele><time>2024-02-10T00:34:15Z</time></trkpt><trkpt lat="35.416358" lon="139.1626145"><ele>553.9266666666666</ele><time>2024-02-10T00:34:39Z</time></trkpt><trkpt lat="35.4165397" lon="139.1625886"><ele>557.3233333333334</ele><time>2024-02-10T00:35:13Z</time></trkpt><trkpt lat="35.4167279" lon="139.1625818"><ele>562.6066666666667</ele><time>2024-02-10T00:35:37Z</time></trkpt><trkpt lat="35.4168964" lon="139.1626602"><ele>567.0233333333334</ele><time>2024-02-10T00:36:03Z</time></trkpt><trkpt lat="35.4170469" lon="139.1625288"><ele>574.4266666666667</ele><time>2024-02-10T00:36:35Z</time></trkpt><trkpt lat="35.4172286" lon="139.162497"><ele>579.5633333333334</ele><time>2024-02-10T00:36:53Z</time></trkpt><trkpt lat="35.4174171" lon="139.1624846"><ele>582.8133333333334</ele><time>2024-02-10T00:37:18Z</time></trkpt><trkpt lat="35.4175995" lon="139.1624382"><ele>584.07</ele><time>2024-02-10T00:37:46Z</time></trkpt><trkpt lat="35.4177674" lon="139.162344"><ele>587.2666666666668</ele><time>2024-02-10T00:38:01Z</time></trkpt><trkpt lat="35.4179525" lon="139.1623164"><ele>590.8866666666667</ele><time>2024-02-10T00:38:17Z</time></trkpt><trkpt lat="35.4181124" lon="139.162203"><ele>594.2800000000001</ele><time>2024-02-10T00:38:33Z</time></trkpt><trkpt lat="35.4182883" lon="139.1622653"><ele>596.2933333333334</ele><time>2024-02-10T00:38:54Z</time></trkpt><trkpt lat="35.418455" lon="139.1621811"><ele>599.1533333333333</ele><time>2024-02-10T00:39:15Z</time></trkpt><trkpt lat="35.4186318" lon="139.1622292"><ele>599.19</ele><time>2024-02-10T00:39:33Z</time></trkpt><trkpt lat="35.4188187" lon="139.1622069"><ele>599.21</ele><time>2024-02-10T00:39:49Z</time></trkpt><trkpt lat="35.4190062" lon="139.1621872"><ele>599.35</ele><time>2024-02-10T00:40:03Z</time></trkpt><trkpt lat="35.4191968" lon="139.1621552"><ele>600.37</ele><time>2024-02-10T00:40:19Z</time></trkpt><trkpt lat="35.4193674" lon="139.1620563"><ele>601.6466666666666</ele><time>2024-02-10T00:40:39Z</time></trkpt><trkpt lat="35.41955" lon="139.1620087"><ele>603.38</ele><time>2024-02-10T00:40:57Z</time></trkpt><trkpt lat="35.4197449" lon="139.1619699"><ele>607.2166666666666</ele><time>2024-02-10T00:41:19Z</time></trkpt><trkpt lat="35.4197686" lon="139.1621906"><ele>610.08</ele><time>2024-02-10T00:41:37Z</time></trkpt><trkpt lat="35.4199466" lon="139.1621355"><ele>613.3499999999999</ele><time>2024-02-10T00:41:57Z</time></trkpt><trkpt lat="35.4201002" lon="139.1622599"><ele>616.2966666666666</ele><time>2024-02-10T00:42:58Z</time></trkpt><trkpt lat="35.4202653" lon="139.1623735"><ele>624.32</ele><time>2024-02-10T00:43:58Z</time></trkpt><trkpt lat="35.4204477" lon="139.1623529"><ele>632.0100000000001</ele><time>2024-02-10T00:44:15Z</time></trkpt><trkpt lat="35.4206286" lon="139.1623437"><ele>642.2333333333333</ele><time>2024-02-10T00:44:55Z</time></trkpt><trkpt lat="35.4207871" lon="139.1624488"><ele>651.4066666666666</ele><time>2024-02-10T00:45:49Z</time></trkpt><trkpt lat="35.4209709" lon="139.162428"><ele>661.1366666666667</ele><time>2024-02-10T00:46:28Z</time></trkpt><trkpt lat="35.4210688" lon="139.1626132"><ele>668.4266666666666</ele><time>2024-02-10T00:47:18Z</time></trkpt><trkpt lat="35.4211895" lon="139.1627785"><ele>674.1266666666667</ele><time>2024-02-10T00:47:44Z</time></trkpt><trkpt lat="35.4213116" lon="139.1629501"><ele>679.5500000000001</ele><time>2024-02-10T00:48:07Z</time></trkpt><trkpt lat="35.421444" lon="139.1631062"><ele>684.98</ele><time>2024-02-10T00:48:37Z</time></trkpt><trkpt lat="35.4216152" lon="139.163179"><ele>689.8733333333333</ele><time>2024-02-10T00:49:05Z</time></trkpt><trkpt lat="35.4217767" lon="139.1632898"><ele>694.1466666666666</ele><time>2024-02-10T00:49:28Z</time></trkpt><trkpt lat="35.421912" lon="139.16346"><ele>698.3100000000001</ele><time>2024-02-10T00:50:03Z</time></trkpt><trkpt lat="35.4220646" lon="139.1635808"><ele>702.9733333333334</ele><time>2024-02-10T00:50:28Z</time></trkpt><trkpt lat="35.4222096" lon="139.1637187"><ele>707.8966666666666</ele><time>2024-02-10T00:50:58Z</time></trkpt><trkpt lat="35.4222721" lon="139.1639275"><ele>711.9566666666666</ele><time>2024-02-10T00:51:41Z</time></trkpt><trkpt lat="35.4223774" lon="139.1641105"><ele>716.3366666666667</ele><time>2024-02-10T00:52:13Z</time></trkpt><trkpt lat="35.4225208" lon="139.1642525"><ele>721.2966666666666</ele><time>2024-02-10T00:52:54Z</time></trkpt><trkpt lat="35.4226577" lon="139.1643963"><ele>727.6533333333333</ele><time>2024-02-10T00:53:33Z</time></trkpt><trkpt lat="35.4227808" lon="139.1645865"><ele>734.1566666666666</ele><time>2024-02-10T00:54:00Z</time></trkpt><trkpt lat="35.4228438" lon="139.1647938"><ele>740.5500000000001</ele><time>2024-02-10T00:54:33Z</time></trkpt><trkpt lat="35.4229682" lon="139.1649685"><ele>746.48</ele><time>2024-02-10T00:55:05Z</time></trkpt><trkpt lat="35.4231014" lon="139.1651281"><ele>752.4833333333335</ele><time>2024-02-10T00:55:48Z</time></trkpt><trkpt lat="35.4232615" lon="139.1652404"><ele>758.8766666666667</ele><time>2024-02-10T00:56:06Z</time></trkpt><trkpt lat="35.4234329" lon="139.165322"><ele>765.04</ele><time>2024-02-10T00:56:23Z</time></trkpt><trkpt lat="35.4235979" lon="139.1654258"><ele>770.0066666666667</ele><time>2024-02-10T00:57:06Z</time></trkpt><trkpt lat="35.4237573" lon="139.1655335"><ele>773.6833333333334</ele><time>2024-02-10T00:57:41Z</time></trkpt><trkpt lat="35.4239023" lon="139.1656764"><ele>777.2866666666665</ele><time>2024-02-10T00:57:59Z</time></trkpt><trkpt lat="35.4240511" lon="139.1658089"><ele>780.4566666666666</ele><time>2024-02-10T00:58:18Z</time></trkpt><trkpt lat="35.4242192" lon="139.1659"><ele>783.0466666666667</ele><time>2024-02-10T00:58:36Z</time></trkpt><trkpt lat="35.4243849" lon="139.1659936"><ele>784.57</ele><time>2024-02-10T00:58:52Z</time></trkpt><trkpt lat="35.424535" lon="139.1661327"><ele>785.7000000000002</ele><time>2024-02-10T00:59:11Z</time></trkpt><trkpt lat="35.4247082" lon="139.1661989"><ele>786.7666666666668</ele><time>2024-02-10T00:59:29Z</time></trkpt><trkpt lat="35.4248879" lon="139.166263"><ele>788.8166666666666</ele><time>2024-02-10T00:59:45Z</time></trkpt><trkpt lat="35.4250437" lon="139.1663751"><ele>791.0966666666667</ele><time>2024-02-10T01:00:03Z</time></trkpt><trkpt lat="35.4252101" lon="139.1664841"><ele>792.4766666666666</ele><time>2024-02-10T01:00:22Z</time></trkpt><trkpt lat="35.4253964" lon="139.16648"><ele>794.5666666666666</ele><time>2024-02-10T01:00:41Z</time></trkpt><trkpt lat="35.4255253" lon="139.1666433"><ele>795.8433333333332</ele><time>2024-02-10T01:00:55Z</time></trkpt><trkpt lat="35.425696" lon="139.1667242"><ele>797.3033333333333</ele><time>2024-02-10T01:01:12Z</time></trkpt><trkpt lat="35.4258946" lon="139.166667"><ele>797.3966666666666</ele><time>2024-02-10T01:01:32Z</time></trkpt><trkpt lat="35.4260482" lon="139.1667904"><ele>797.7966666666667</ele><time>2024-02-10T01:01:50Z</time></trkpt><trkpt lat="35.4262328" lon="139.1668399"><ele>799.3166666666667</ele><time>2024-02-10T01:02:08Z</time></trkpt><trkpt lat="35.4264042" lon="139.1667493"><ele>800.9033333333333</ele><time>2024-02-10T01:02:20Z</time></trkpt><trkpt lat="35.4265835" lon="139.1667963"><ele>803.64</ele><time>2024-02-10T01:02:38Z</time></trkpt><trkpt lat="35.4267607" lon="139.1667343"><ele>808.21</ele><time>2024-02-10T01:02:58Z</time></trkpt><trkpt lat="35.426943" lon="139.1667659"><ele>812.9899999999999</ele><time>2024-02-10T01:03:44Z</time></trkpt><trkpt lat="35.4271173" lon="139.1666926"><ele>819.6666666666666</ele><time>2024-02-10T01:03:58Z</time></trkpt><trkpt lat="35.427304" lon="139.1666461"><ele>825.9933333333333</ele><time>2024-02-10T01:04:29Z</time></trkpt><trkpt lat="35.4274799" lon="139.166711"><ele>831.9966666666666</ele><time>2024-02-10T01:05:24Z</time></trkpt><trkpt lat="35.4276615" lon="139.166716"><ele>836.67</ele><time>2024-02-10T01:05:54Z</time></trkpt><trkpt lat="35.4278444" lon="139.1666604"><ele>840.8000000000001</ele><time>2024-02-10T01:06:43Z</time></trkpt><trkpt lat="35.4279855" lon="139.1665018"><ele>847.7066666666666</ele><time>2024-02-10T01:07:13Z</time></trkpt><trkpt lat="35.4281676" lon="139.1663902"><ele>856.3133333333334</ele><time>2024-02-10T01:07:30Z</time></trkpt><trkpt lat="35.4284192" lon="139.1663331"><ele>861.63</ele><time>2024-02-10T01:07:32Z</time></trkpt><trkpt lat="35.4286482" lon="139.1663102"><ele>862.1433333333334</ele><time>2024-02-10T01:07:38Z</time></trkpt><trkpt lat="35.4283189" lon="139.1664474"><ele>859.9833333333335</ele><time>2024-02-10T01:07:44Z</time></trkpt><trkpt lat="35.4280364" lon="139.1665667"><ele>857.0466666666667</ele><time>2024-02-10T01:07:47Z</time></trkpt><trkpt lat="35.4281003" lon="139.1663604"><ele>859.9933333333335</ele><time>2024-02-10T01:07:57Z</time></trkpt><trkpt lat="35.4282204" lon="139.1661502"><ele>864.6266666666667</ele><time>2024-02-10T01:08:30Z</time></trkpt><trkpt lat="35.4283056" lon="139.166351"><ele>868.2533333333334</ele><time>2024-02-10T01:08:41Z</time></trkpt><trkpt lat="35.4282856" lon="139.1661245"><ele>871.6533333333333</ele><time>2024-02-10T01:08:59Z</time></trkpt><trkpt lat="35.4283484" lon="139.1659166"><ele>874.69</ele><time>2024-02-10T01:09:39Z</time></trkpt><trkpt lat="35.4284896" lon="139.1657755"><ele>883.3933333333334</ele><time>2024-02-10T01:10:07Z</time></trkpt><trkpt lat="35.4286044" lon="139.1656003"><ele>889.0133333333333</ele><time>2024-02-10T01:10:16Z</time></trkpt><trkpt lat="35.4286555" lon="139.1653823"><ele>894.0500000000001</ele><time>2024-02-10T01:11:11Z</time></trkpt><trkpt lat="35.4288249" lon="139.1652949"><ele>897.4933333333333</ele><time>2024-02-10T01:11:34Z</time></trkpt><trkpt lat="35.4290076" lon="139.165317"><ele>899.7199999999999</ele><time>2024-02-10T01:11:58Z</time></trkpt><trkpt lat="35.4292087" lon="139.1653655"><ele>897.89</ele><time>2024-02-10T01:12:01Z</time></trkpt><trkpt lat="35.4290131" lon="139.1653979"><ele>896.7466666666668</ele><time>2024-02-10T01:12:02Z</time></trkpt><trkpt lat="35.4290733" lon="139.1651889"><ele>897.4800000000001</ele><time>2024-02-10T01:12:26Z</time></trkpt><trkpt lat="35.429215" lon="139.1650475"><ele>901.23</ele><time>2024-02-10T01:12:52Z</time></trkpt><trkpt lat="35.4293875" lon="139.1649801"><ele>904.9200000000001</ele><time>2024-02-10T01:13:15Z</time></trkpt><trkpt lat="35.4295751" lon="139.1649044"><ele>907.77</ele><time>2024-02-10T01:13:35Z</time></trkpt><trkpt lat="35.429705" lon="139.1647448"><ele>911.0300000000001</ele><time>2024-02-10T01:13:53Z</time></trkpt><trkpt lat="35.4298744" lon="139.1646612"><ele>913.1366666666667</ele><time>2024-02-10T01:14:19Z</time></trkpt><trkpt lat="35.4300423" lon="139.1645541"><ele>914.8366666666667</ele><time>2024-02-10T01:14:40Z</time></trkpt><trkpt lat="35.4302213" lon="139.1644736"><ele>916.64</ele><time>2024-02-10T01:14:59Z</time></trkpt><trkpt lat="35.4303479" lon="139.1642983"><ele>918.9166666666666</ele><time>2024-02-10T01:15:24Z</time></trkpt><trkpt lat="35.4305182" lon="139.1642044"><ele>921.14</ele><time>2024-02-10T01:15:43Z</time></trkpt><trkpt lat="35.4306732" lon="139.1640799"><ele>922.8166666666666</ele><time>2024-02-10T01:15:59Z</time></trkpt><trkpt lat="35.430807" lon="139.1639304"><ele>924.8000000000001</ele><time>2024-02-10T01:16:14Z</time></trkpt><trkpt lat="35.4309848" lon="139.1638505"><ele>927.2700000000001</ele><time>2024-02-10T01:16:47Z</time></trkpt><trkpt lat="35.4311707" lon="139.1638348"><ele>929.1033333333334</ele><time>2024-02-10T01:17:04Z</time></trkpt><trkpt lat="35.4313508" lon="139.1638212"><ele>929.73</ele><time>2024-02-10T01:17:18Z</time></trkpt><trkpt lat="35.4315364" lon="139.1637672"><ele>930.2599999999999</ele><time>2024-02-10T01:17:38Z</time></trkpt><trkpt lat="35.4317241" lon="139.1637364"><ele>931.1133333333333</ele><time>2024-02-10T01:17:53Z</time></trkpt><trkpt lat="35.4319112" lon="139.1637299"><ele>932.7800000000001</ele><time>2024-02-10T01:18:22Z</time></trkpt><trkpt lat="35.4320958" lon="139.1637837"><ele>933.7133333333335</ele><time>2024-02-10T01:18:38Z</time></trkpt><trkpt lat="35.4322803" lon="139.1638289"><ele>934.66</ele><time>2024-02-10T01:18:56Z</time></trkpt><trkpt lat="35.4324308" lon="139.163972"><ele>936.1933333333335</ele><time>2024-02-10T01:19:13Z</time></trkpt><trkpt lat="35.4326" lon="139.1640502"><ele>938.08</ele><time>2024-02-10T01:19:33Z</time></trkpt><trkpt lat="35.4327898" lon="139.1640781"><ele>939.5266666666666</ele><time>2024-02-10T01:19:52Z</time></trkpt><trkpt lat="35.4329739" lon="139.1640647"><ele>940.0633333333334</ele><time>2024-02-10T01:20:14Z</time></trkpt><trkpt lat="35.4331116" lon="139.1639104"><ele>939.5799999999999</ele><time>2024-02-10T01:20:28Z</time></trkpt><trkpt lat="35.4332884" lon="139.1638143"><ele>937.4666666666667</ele><time>2024-02-10T01:20:56Z</time></trkpt><trkpt lat="35.4334775" lon="139.1637697"><ele>933.5966666666667</ele><time>2024-02-10T01:21:14Z</time></trkpt><trkpt lat="35.4336739" lon="139.1637694"><ele>929.4366666666668</ele><time>2024-02-10T01:21:37Z</time></trkpt><trkpt lat="35.4338543" lon="139.1637244"><ele>926.87</ele><time>2024-02-10T01:21:49Z</time></trkpt><trkpt lat="35.4340439" lon="139.1636797"><ele>925.35</ele><time>2024-02-10T01:22:07Z</time></trkpt><trkpt lat="35.434228" lon="139.1637032"><ele>924.3866666666667</ele><time>2024-02-10T01:22:26Z</time></trkpt><trkpt lat="35.4344102" lon="139.1637419"><ele>922.94</ele><time>2024-02-10T01:22:49Z</time></trkpt><trkpt lat="35.4345783" lon="139.1636498"><ele>921.9366666666666</ele><time>2024-02-10T01:23:07Z</time></trkpt><trkpt lat="35.4347592" lon="139.1636052"><ele>920.3833333333333</ele><time>2024-02-10T01:23:32Z</time></trkpt><trkpt lat="35.4349532" lon="139.1636127"><ele>917.8833333333333</ele><time>2024-02-10T01:23:48Z</time></trkpt><trkpt lat="35.4351293" lon="139.1636654"><ele>914.83</ele><time>2024-02-10T01:24:12Z</time></trkpt><trkpt lat="35.4353125" lon="139.1635769"><ele>913.11</ele><time>2024-02-10T01:24:22Z</time></trkpt><trkpt lat="35.4354803" lon="139.1634922"><ele>912.5133333333333</ele><time>2024-02-10T01:24:35Z</time></trkpt><trkpt lat="35.435671" lon="139.1634862"><ele>914.3466666666667</ele><time>2024-02-10T01:24:49Z</time></trkpt><trkpt lat="35.4358313" lon="139.1633695"><ele>917.8100000000001</ele><time>2024-02-10T01:25:02Z</time></trkpt><trkpt lat="35.4358366" lon="139.1631449"><ele>921.86</ele><time>2024-02-10T01:25:20Z</time></trkpt><trkpt lat="35.4360209" lon="139.1631328"><ele>926.4566666666666</ele><time>2024-02-10T01:25:46Z</time></trkpt><trkpt lat="35.4361822" lon="139.163034"><ele>929.9666666666666</ele><time>2024-02-10T01:26:06Z</time></trkpt><trkpt lat="35.4363567" lon="139.1629272"><ele>934.7466666666666</ele><time>2024-02-10T01:26:23Z</time></trkpt><trkpt lat="35.4363345" lon="139.1626946"><ele>939.68</ele><time>2024-02-10T01:27:16Z</time></trkpt><trkpt lat="35.4362829" lon="139.1624785"><ele>945.9833333333335</ele><time>2024-02-10T01:27:41Z</time></trkpt><trkpt lat="35.4361578" lon="139.162316"><ele>949.6666666666666</ele><time>2024-02-10T01:28:11Z</time></trkpt><trkpt lat="35.4362751" lon="139.1621409"><ele>950.8066666666667</ele><time>2024-02-10T01:29:11Z</time></trkpt><trkpt lat="35.4364086" lon="139.1622916"><ele>953.1</ele><time>2024-02-10T01:30:08Z</time></trkpt><trkpt lat="35.4365888" lon="139.1623621"><ele>958.0633333333334</ele><time>2024-02-10T01:30:39Z</time></trkpt><trkpt lat="35.4367773" lon="139.1623717"><ele>964.6366666666668</ele><time>2024-02-10T01:31:08Z</time></trkpt><trkpt lat="35.4369455" lon="139.1622776"><ele>969.2533333333334</ele><time>2024-02-10T01:31:29Z</time></trkpt><trkpt lat="35.437128" lon="139.1622582"><ele>975.5766666666667</ele><time>2024-02-10T01:32:34Z</time></trkpt><trkpt lat="35.4373089" lon="139.1622446"><ele>983.2666666666665</ele><time>2024-02-10T01:33:52Z</time></trkpt><trkpt lat="35.4374886" lon="139.1622013"><ele>992.9433333333333</ele><time>2024-02-10T01:34:40Z</time></trkpt><trkpt lat="35.4376564" lon="139.1622853"><ele>1001.1066666666667</ele><time>2024-02-10T01:35:31Z</time></trkpt><trkpt lat="35.4378298" lon="139.1623649"><ele>1008.48</ele><time>2024-02-10T01:35:57Z</time></trkpt><trkpt lat="35.4380133" lon="139.1623814"><ele>1014.36</ele><time>2024-02-10T01:36:23Z</time></trkpt><trkpt lat="35.4381939" lon="139.1624388"><ele>1021.2033333333333</ele><time>2024-02-10T01:37:13Z</time></trkpt><trkpt lat="35.438335" lon="139.162584"><ele>1028.3033333333333</ele><time>2024-02-10T01:37:59Z</time></trkpt><trkpt lat="35.4384838" lon="139.1627123"><ele>1035.7266666666667</ele><time>2024-02-10T01:38:59Z</time></trkpt><trkpt lat="35.4386266" lon="139.1628509"><ele>1042.51</ele><time>2024-02-10T01:39:49Z</time></trkpt><trkpt lat="35.438783" lon="139.1629615"><ele>1049.1933333333334</ele><time>2024-02-10T01:40:35Z</time></trkpt><trkpt lat="35.4389428" lon="139.1630735"><ele>1056.8033333333335</ele><time>2024-02-10T01:41:23Z</time></trkpt><trkpt lat="35.4391253" lon="139.1631071"><ele>1064.7833333333335</ele><time>2024-02-10T01:42:06Z</time></trkpt><trkpt lat="35.4392994" lon="139.1632035"><ele>1073.7866666666669</ele><time>2024-02-10T01:43:14Z</time></trkpt><trkpt lat="35.4394854" lon="139.1632561"><ele>1082.5033333333333</ele><time>2024-02-10T01:43:44Z</time></trkpt><trkpt lat="35.4396913" lon="139.1633295"><ele>1091.3066666666666</ele><time>2024-02-10T01:44:32Z</time></trkpt><trkpt lat="35.4398918" lon="139.1633108"><ele>1098.9099999999999</ele><time>2024-02-10T01:45:59Z</time></trkpt><trkpt lat="35.4400843" lon="139.1632562"><ele>1106.0833333333333</ele><time>2024-02-10T01:46:35Z</time></trkpt><trkpt lat="35.4402548" lon="139.163144"><ele>1113.2066666666667</ele><time>2024-02-10T01:47:02Z</time></trkpt><trkpt lat="35.4403916" lon="139.1629936"><ele>1118.7066666666667</ele><time>2024-02-10T01:47:22Z</time></trkpt><trkpt lat="35.4405705" lon="139.1628548"><ele>1122.3733333333332</ele><time>2024-02-10T01:52:44Z</time></trkpt><trkpt lat="35.440729" lon="139.1627418"><ele>1124.3133333333333</ele><time>2024-02-10T01:53:23Z</time></trkpt><trkpt lat="35.4409012" lon="139.1626597"><ele>1125.8033333333333</ele><time>2024-02-10T01:53:45Z</time></trkpt><trkpt lat="35.4410567" lon="139.1625424"><ele>1126.95</ele><time>2024-02-10T01:54:01Z</time></trkpt><trkpt lat="35.4412325" lon="139.1624793"><ele>1128.3066666666666</ele><time>2024-02-10T01:54:22Z</time></trkpt><trkpt lat="35.4413994" lon="139.1623773"><ele>1129.8500000000001</ele><time>2024-02-10T01:54:44Z</time></trkpt><trkpt lat="35.441576" lon="139.1622993"><ele>1130.5333333333333</ele><time>2024-02-10T01:55:02Z</time></trkpt><trkpt lat="35.4417601" lon="139.1622969"><ele>1132.57</ele><time>2024-02-10T01:55:24Z</time></trkpt><trkpt lat="35.4419352" lon="139.1623609"><ele>1136.9133333333332</ele><time>2024-02-10T01:55:55Z</time></trkpt><trkpt lat="35.4421159" lon="139.1623522"><ele>1143.2466666666667</ele><time>2024-02-10T01:56:43Z</time></trkpt><trkpt lat="35.4422954" lon="139.1623783"><ele>1149.2133333333334</ele><time>2024-02-10T01:57:31Z</time></trkpt><trkpt lat="35.4424768" lon="139.1623958"><ele>1153.23</ele><time>2024-02-10T01:58:04Z</time></trkpt><trkpt lat="35.4426417" lon="139.1624865"><ele>1157.9533333333334</ele><time>2024-02-10T01:58:39Z</time></trkpt><trkpt lat="35.4427926" lon="139.1626097"><ele>1163.1766666666667</ele><time>2024-02-10T01:59:17Z</time></trkpt><trkpt lat="35.4429734" lon="139.1626198"><ele>1169.3999999999999</ele><time>2024-02-10T02:02:02Z</time></trkpt><trkpt lat="35.4431505" lon="139.1625754"><ele>1175.5833333333333</ele><time>2024-02-10T02:03:19Z</time></trkpt><trkpt lat="35.4433326" lon="139.1625852"><ele>1183.4533333333331</ele><time>2024-02-10T02:03:56Z</time></trkpt><trkpt lat="35.4435096" lon="139.1625385"><ele>1192.76</ele><time>2024-02-10T02:05:08Z</time></trkpt><trkpt lat="35.4436906" lon="139.1625472"><ele>1203.48</ele><time>2024-02-10T02:06:00Z</time></trkpt><trkpt lat="35.4438665" lon="139.1626066"><ele>1212.3600000000001</ele><time>2024-02-10T02:07:08Z</time></trkpt><trkpt lat="35.4440478" lon="139.1625792"><ele>1221.6033333333335</ele><time>2024-02-10T02:08:22Z</time></trkpt><trkpt lat="35.4442227" lon="139.1626354"><ele>1229.966666666667</ele><time>2024-02-10T02:09:35Z</time></trkpt><trkpt lat="35.4443867" lon="139.1627407"><ele>1239.0866666666668</ele><time>2024-02-10T02:10:23Z</time></trkpt><trkpt lat="35.4445662" lon="139.1627618"><ele>1247.1066666666666</ele><time>2024-02-10T02:11:25Z</time></trkpt><trkpt lat="35.4447471" lon="139.1627611"><ele>1256.5066666666667</ele><time>2024-02-10T02:13:05Z</time></trkpt><trkpt lat="35.4449291" lon="139.162787"><ele>1265.5766666666668</ele><time>2024-02-10T02:13:48Z</time></trkpt><trkpt lat="35.4451143" lon="139.162774"><ele>1275.8400000000001</ele><time>2024-02-10T02:15:02Z</time></trkpt><trkpt lat="35.4452846" lon="139.1627006"><ele>1284.2166666666667</ele><time>2024-02-10T02:16:10Z</time></trkpt><trkpt lat="35.4454667" lon="139.1626373"><ele>1292.3966666666668</ele><time>2024-02-10T02:16:24Z</time></trkpt><trkpt lat="35.445646" lon="139.1625801"><ele>1298.3400000000001</ele><time>2024-02-10T02:17:59Z</time></trkpt><trkpt lat="35.4454887" lon="139.1624526"><ele>1300.6900000000003</ele><time>2024-02-10T02:24:17Z</time></trkpt><trkpt lat="35.4456293" lon="139.1625953"><ele>1301.74</ele><time>2024-02-10T02:24:50Z</time></trkpt><trkpt lat="35.4454748" lon="139.1624817"><ele>1300.4233333333334</ele><time>2024-02-10T02:25:41Z</time></trkpt><trkpt lat="35.4455894" lon="139.1626528"><ele>1301.1366666666665</ele><time>2024-02-10T02:26:02Z</time></trkpt><trkpt lat="35.4457749" lon="139.1626539"><ele>1301.3566666666666</ele><time>2024-02-10T02:27:43Z</time></trkpt><trkpt lat="35.4459573" lon="139.1626172"><ele>1304.2466666666667</ele><time>2024-02-10T02:28:06Z</time></trkpt><trkpt lat="35.4461379" lon="139.1626068"><ele>1308.9866666666667</ele><time>2024-02-10T02:28:44Z</time></trkpt><trkpt lat="35.4463202" lon="139.1625734"><ele>1314.6733333333334</ele><time>2024-02-10T02:29:05Z</time></trkpt><trkpt lat="35.4464501" lon="139.1624181"><ele>1320.13</ele><time>2024-02-10T02:29:52Z</time></trkpt><trkpt lat="35.4466255" lon="139.1623649"><ele>1325.2500000000002</ele><time>2024-02-10T02:30:20Z</time></trkpt><trkpt lat="35.4467804" lon="139.1622499"><ele>1330.7933333333333</ele><time>2024-02-10T02:31:35Z</time></trkpt><trkpt lat="35.4469026" lon="139.1620846"><ele>1337.49</ele><time>2024-02-10T02:32:16Z</time></trkpt><trkpt lat="35.4470482" lon="139.1618838"><ele>1344.5166666666667</ele><time>2024-02-10T02:32:56Z</time></trkpt><trkpt lat="35.4472291" lon="139.1618944"><ele>1351.1366666666665</ele><time>2024-02-10T02:33:56Z</time></trkpt><trkpt lat="35.4473588" lon="139.1617229"><ele>1356.8500000000001</ele><time>2024-02-10T02:35:35Z</time></trkpt><trkpt lat="35.4475417" lon="139.1617511"><ele>1362.0266666666666</ele><time>2024-02-10T02:36:50Z</time></trkpt><trkpt lat="35.4477241" lon="139.1617403"><ele>1366.5633333333335</ele><time>2024-02-10T02:37:53Z</time></trkpt><trkpt lat="35.4479079" lon="139.1617071"><ele>1369.6466666666665</ele><time>2024-02-10T02:39:15Z</time></trkpt><trkpt lat="35.4480808" lon="139.1618063"><ele>1370.926666666667</ele><time>2024-02-10T02:40:07Z</time></trkpt><trkpt lat="35.4482292" lon="139.1616589"><ele>1370.8433333333335</ele><time>2024-02-10T02:40:26Z</time></trkpt><trkpt lat="35.4484012" lon="139.1617458"><ele>1370.2466666666667</ele><time>2024-02-10T02:40:46Z</time></trkpt><trkpt lat="35.4485804" lon="139.1617989"><ele>1368.2433333333336</ele><time>2024-02-10T02:41:22Z</time></trkpt><trkpt lat="35.4487653" lon="139.161849"><ele>1368.5233333333333</ele><time>2024-02-10T02:41:55Z</time></trkpt><trkpt lat="35.4489347" lon="139.1617479"><ele>1368.5199999999998</ele><time>2024-02-10T02:42:35Z</time></trkpt><trkpt lat="35.4491081" lon="139.1616667"><ele>1369.08</ele><time>2024-02-10T02:43:21Z</time></trkpt><trkpt lat="35.4492838" lon="139.1615911"><ele>1367.5766666666666</ele><time>2024-02-10T02:43:44Z</time></trkpt><trkpt lat="35.4494215" lon="139.1614396"><ele>1364.9866666666667</ele><time>2024-02-10T02:44:10Z</time></trkpt><trkpt lat="35.4495116" lon="139.1612416"><ele>1362.7766666666666</ele><time>2024-02-10T02:44:41Z</time></trkpt><trkpt lat="35.4496713" lon="139.1611188"><ele>1361.8433333333335</ele><time>2024-02-10T02:44:57Z</time></trkpt><trkpt lat="35.4498397" lon="139.1610365"><ele>1364.756666666667</ele><time>2024-02-10T02:46:03Z</time></trkpt><trkpt lat="35.4500124" lon="139.1609663"><ele>1367.9666666666665</ele><time>2024-02-10T02:46:28Z</time></trkpt><trkpt lat="35.450101" lon="139.161178"><ele>1370.0400000000002</ele><time>2024-02-10T02:46:40Z</time></trkpt><trkpt lat="35.4502862" lon="139.1611707"><ele>1371.8833333333332</ele><time>2024-02-10T02:46:56Z</time></trkpt><trkpt lat="35.450422" lon="139.1610193"><ele>1373.756666666667</ele><time>2024-02-10T02:47:23Z</time></trkpt><trkpt lat="35.4505826" lon="139.1611273"><ele>1378.3233333333335</ele><time>2024-02-10T02:47:46Z</time></trkpt><trkpt lat="35.4507549" lon="139.1610583"><ele>1381.7166666666665</ele><time>2024-02-10T02:48:19Z</time></trkpt><trkpt lat="35.4509162" lon="139.1611709"><ele>1387.6000000000001</ele><time>2024-02-10T02:49:23Z</time></trkpt><trkpt lat="35.4510678" lon="139.1613016"><ele>1391.9233333333334</ele><time>2024-02-10T02:49:40Z</time></trkpt><trkpt lat="35.4512186" lon="139.1614295"><ele>1396.9333333333334</ele><time>2024-02-10T02:50:23Z</time></trkpt><trkpt lat="35.4513525" lon="139.1615828"><ele>1399.956666666667</ele><time>2024-02-10T02:50:53Z</time></trkpt><trkpt lat="35.4514777" lon="139.1617575"><ele>1402.5566666666666</ele><time>2024-02-10T02:51:16Z</time></trkpt><trkpt lat="35.4516346" lon="139.1618824"><ele>1403.7600000000002</ele><time>2024-02-10T02:51:53Z</time></trkpt><trkpt lat="35.4518046" lon="139.1619596"><ele>1405.1733333333334</ele><time>2024-02-10T02:52:22Z</time></trkpt><trkpt lat="35.4519682" lon="139.1620648"><ele>1406.39</ele><time>2024-02-10T02:52:38Z</time></trkpt><trkpt lat="35.4521448" lon="139.1621366"><ele>1409.4000000000003</ele><time>2024-02-10T02:53:45Z</time></trkpt><trkpt lat="35.4523284" lon="139.1621529"><ele>1413.0</ele><time>2024-02-10T02:54:56Z</time></trkpt><trkpt lat="35.4525091" lon="139.1621744"><ele>1418.6133333333335</ele><time>2024-02-10T02:55:53Z</time></trkpt><trkpt lat="35.4526721" lon="139.1622747"><ele>1423.6833333333334</ele><time>2024-02-10T02:56:28Z</time></trkpt><trkpt lat="35.4528489" lon="139.1623593"><ele>1429.756666666667</ele><time>2024-02-10T02:56:57Z</time></trkpt><trkpt lat="35.4529596" lon="139.1625362"><ele>1434.7533333333333</ele><time>2024-02-10T02:57:43Z</time></trkpt><trkpt lat="35.453125" lon="139.1626311"><ele>1441.33</ele><time>2024-02-10T02:58:51Z</time></trkpt><trkpt lat="35.4532314" lon="139.1628195"><ele>1447.62</ele><time>2024-02-10T03:00:17Z</time></trkpt><trkpt lat="35.4533075" lon="139.1630249"><ele>1454.506666666667</ele><time>2024-02-10T03:00:46Z</time></trkpt><trkpt lat="35.4534793" lon="139.1630991"><ele>1460.5</ele><time>2024-02-10T03:01:32Z</time></trkpt><trkpt lat="35.4536255" lon="139.1632361"><ele>1468.07</ele><time>2024-02-10T03:02:35Z</time></trkpt><trkpt lat="35.4537997" lon="139.1633103"><ele>1476.6966666666667</ele><time>2024-02-10T03:03:23Z</time></trkpt><trkpt lat="35.4539893" lon="139.1633025"><ele>1484.5100000000002</ele><time>2024-02-10T03:04:00Z</time></trkpt><trkpt lat="35.4541827" lon="139.1632601"><ele>1488.8500000000001</ele><time>2024-02-10T03:05:52Z</time></trkpt><trkpt lat="35.4543702" lon="139.1632574"><ele>1490.21</ele><time>2024-02-10T03:12:23Z</time></trkpt><trkpt lat="35.4542005" lon="139.1633347"><ele>1490.4133333333332</ele><time>2024-02-10T03:18:16Z</time></trkpt><trkpt lat="35.4540284" lon="139.1634053"><ele>1490.3666666666668</ele><time>2024-02-10T03:24:07Z</time></trkpt><trkpt lat="35.4539388" lon="139.1632051"><ele>1488.4333333333334</ele><time>2024-02-10T03:27:16Z</time></trkpt><trkpt lat="35.4537649" lon="139.1632858"><ele>1486.2333333333333</ele><time>2024-02-10T03:30:17Z</time></trkpt><trkpt lat="35.453593" lon="139.1633584"><ele>1481.6166666666668</ele><time>2024-02-10T03:30:32Z</time></trkpt><trkpt lat="35.4535807" lon="139.1631382"><ele>1477.1933333333334</ele><time>2024-02-10T03:31:05Z</time></trkpt><trkpt lat="35.4534028" lon="139.1630966"><ele>1470.8933333333334</ele><time>2024-02-10T03:31:32Z</time></trkpt><trkpt lat="35.4532129" lon="139.163104"><ele>1463.8133333333333</ele><time>2024-02-10T03:31:52Z</time></trkpt><trkpt lat="35.4532023" lon="139.1628805"><ele>1458.72</ele><time>2024-02-10T03:32:20Z</time></trkpt><trkpt lat="35.4531936" lon="139.1626588"><ele>1453.4733333333334</ele><time>2024-02-10T03:33:28Z</time></trkpt><trkpt lat="35.4530149" lon="139.1627246"><ele>1450.03</ele><time>2024-02-10T03:34:15Z</time></trkpt><trkpt lat="35.4529417" lon="139.1625205"><ele>1444.346666666667</ele><time>2024-02-10T03:35:01Z</time></trkpt><trkpt lat="35.4528393" lon="139.1623232"><ele>1439.0100000000002</ele><time>2024-02-10T03:35:40Z</time></trkpt><trkpt lat="35.4526516" lon="139.1622546"><ele>1433.6033333333332</ele><time>2024-02-10T03:35:55Z</time></trkpt><trkpt lat="35.4524814" lon="139.1621657"><ele>1428.2133333333331</ele><time>2024-02-10T03:36:25Z</time></trkpt><trkpt lat="35.4522918" lon="139.1621813"><ele>1423.0233333333333</ele><time>2024-02-10T03:37:26Z</time></trkpt><trkpt lat="35.452107" lon="139.1621545"><ele>1417.3366666666668</ele><time>2024-02-10T03:37:43Z</time></trkpt><trkpt lat="35.4519487" lon="139.1620488"><ele>1412.3766666666668</ele><time>2024-02-10T03:38:17Z</time></trkpt><trkpt lat="35.4517616" lon="139.1620119"><ele>1408.3666666666668</ele><time>2024-02-10T03:38:36Z</time></trkpt><trkpt lat="35.4516541" lon="139.1618293"><ele>1406.3766666666668</ele><time>2024-02-10T03:39:18Z</time></trkpt><trkpt lat="35.451508" lon="139.1616836"><ele>1405.16</ele><time>2024-02-10T03:39:42Z</time></trkpt><trkpt lat="35.451341" lon="139.1615693"><ele>1404.1566666666668</ele><time>2024-02-10T03:40:06Z</time></trkpt><trkpt lat="35.4511876" lon="139.161434"><ele>1402.5566666666666</ele><time>2024-02-10T03:40:30Z</time></trkpt><trkpt lat="35.4510188" lon="139.1613425"><ele>1401.0100000000002</ele><time>2024-02-10T03:40:50Z</time></trkpt><trkpt lat="35.4509222" lon="139.1611416"><ele>1396.8566666666666</ele><time>2024-02-10T03:41:49Z</time></trkpt><trkpt lat="35.4507535" lon="139.1610231"><ele>1391.8466666666666</ele><time>2024-02-10T03:42:16Z</time></trkpt><trkpt lat="35.4505764" lon="139.1609711"><ele>1384.5233333333333</ele><time>2024-02-10T03:42:40Z</time></trkpt><trkpt lat="35.4503932" lon="139.160986"><ele>1379.7700000000002</ele><time>2024-02-10T03:43:02Z</time></trkpt><trkpt lat="35.4502273" lon="139.1610948"><ele>1375.5366666666669</ele><time>2024-02-10T03:43:22Z</time></trkpt><trkpt lat="35.4500907" lon="139.1612478"><ele>1370.5666666666668</ele><time>2024-02-10T03:43:38Z</time></trkpt><trkpt lat="35.449987" lon="139.161067"><ele>1369.25</ele><time>2024-02-10T03:43:49Z</time></trkpt><trkpt lat="35.4498474" lon="139.1609223"><ele>1368.3166666666666</ele><time>2024-02-10T03:44:10Z</time></trkpt><trkpt lat="35.4496775" lon="139.1610529"><ele>1368.8033333333333</ele><time>2024-02-10T03:45:37Z</time></trkpt><trkpt lat="35.4495548" lon="139.1612239"><ele>1365.57</ele><time>2024-02-10T03:45:51Z</time></trkpt><trkpt lat="35.4494418" lon="139.1614002"><ele>1362.5466666666669</ele><time>2024-02-10T03:46:16Z</time></trkpt><trkpt lat="35.4493132" lon="139.1615561"><ele>1362.4133333333332</ele><time>2024-02-10T03:46:42Z</time></trkpt><trkpt lat="35.4491233" lon="139.1615933"><ele>1364.09</ele><time>2024-02-10T03:47:37Z</time></trkpt><trkpt lat="35.4489426" lon="139.1616028"><ele>1364.6833333333334</ele><time>2024-02-10T03:47:51Z</time></trkpt><trkpt lat="35.4489148" lon="139.1618264"><ele>1366.9133333333332</ele><time>2024-02-10T03:48:09Z</time></trkpt><trkpt lat="35.4487304" lon="139.1617948"><ele>1366.4433333333334</ele><time>2024-02-10T03:48:27Z</time></trkpt><trkpt lat="35.4485454" lon="139.1617169"><ele>1365.82</ele><time>2024-02-10T03:48:54Z</time></trkpt><trkpt lat="35.4483419" lon="139.1616976"><ele>1365.93</ele><time>2024-02-10T03:49:14Z</time></trkpt><trkpt lat="35.4481692" lon="139.1616177"><ele>1367.3633333333335</ele><time>2024-02-10T03:50:19Z</time></trkpt><trkpt lat="35.447986" lon="139.1616806"><ele>1370.67</ele><time>2024-02-10T03:50:40Z</time></trkpt><trkpt lat="35.4478053" lon="139.1616838"><ele>1370.5833333333333</ele><time>2024-02-10T03:51:12Z</time></trkpt><trkpt lat="35.4476302" lon="139.1617438"><ele>1370.5333333333335</ele><time>2024-02-10T03:52:25Z</time></trkpt><trkpt lat="35.4474501" lon="139.1616644"><ele>1366.68</ele><time>2024-02-10T03:52:59Z</time></trkpt><trkpt lat="35.4472494" lon="139.161678"><ele>1363.0533333333333</ele><time>2024-02-10T03:53:44Z</time></trkpt><trkpt lat="35.4471161" lon="139.161895"><ele>1357.89</ele><time>2024-02-10T03:54:26Z</time></trkpt><trkpt lat="35.4469429" lon="139.1619602"><ele>1353.1433333333334</ele><time>2024-02-10T03:54:44Z</time></trkpt><trkpt lat="35.4468199" lon="139.1621222"><ele>1345.73</ele><time>2024-02-10T03:55:15Z</time></trkpt><trkpt lat="35.4468116" lon="139.1623492"><ele>1339.3866666666665</ele><time>2024-02-10T03:55:36Z</time></trkpt><trkpt lat="35.4466355" lon="139.16229"><ele>1334.7233333333334</ele><time>2024-02-10T03:55:58Z</time></trkpt><trkpt lat="35.4464573" lon="139.1623402"><ele>1329.83</ele><time>2024-02-10T03:56:25Z</time></trkpt><trkpt lat="35.4463687" lon="139.1625395"><ele>1325.25</ele><time>2024-02-10T03:56:57Z</time></trkpt><trkpt lat="35.4461787" lon="139.1625859"><ele>1320.08</ele><time>2024-02-10T03:57:14Z</time></trkpt><trkpt lat="35.44599" lon="139.1625428"><ele>1316.2533333333333</ele><time>2024-02-10T03:57:34Z</time></trkpt><trkpt lat="35.4458105" lon="139.1625778"><ele>1310.8400000000001</ele><time>2024-02-10T03:57:56Z</time></trkpt><trkpt lat="35.4456241" lon="139.1625756"><ele>1306.38</ele><time>2024-02-10T03:58:18Z</time></trkpt><trkpt lat="35.4454409" lon="139.1626204"><ele>1302.3933333333334</ele><time>2024-02-10T04:03:28Z</time></trkpt><trkpt lat="35.4453318" lon="139.1628163"><ele>1297.9333333333334</ele><time>2024-02-10T04:03:52Z</time></trkpt><trkpt lat="35.4451164" lon="139.1627658"><ele>1292.3133333333335</ele><time>2024-02-10T04:04:54Z</time></trkpt><trkpt lat="35.4449295" lon="139.16272"><ele>1284.1333333333334</ele><time>2024-02-10T04:05:11Z</time></trkpt><trkpt lat="35.4447282" lon="139.1626729"><ele>1274.39</ele><time>2024-02-10T04:06:25Z</time></trkpt><trkpt lat="35.4445618" lon="139.1627742"><ele>1264.1266666666668</ele><time>2024-02-10T04:06:49Z</time></trkpt><trkpt lat="35.4443704" lon="139.1627124"><ele>1254.24</ele><time>2024-02-10T04:07:22Z</time></trkpt><trkpt lat="35.4442426" lon="139.1625513"><ele>1246.8833333333332</ele><time>2024-02-10T04:07:37Z</time></trkpt><trkpt lat="35.444104" lon="139.1624051"><ele>1238.0533333333333</ele><time>2024-02-10T04:08:32Z</time></trkpt><trkpt lat="35.4439762" lon="139.1625618"><ele>1232.0933333333332</ele><time>2024-02-10T04:09:16Z</time></trkpt><trkpt lat="35.443796" lon="139.1625913"><ele>1224.1466666666665</ele><time>2024-02-10T04:10:30Z</time></trkpt><trkpt lat="35.4436308" lon="139.1625007"><ele>1218.1066666666668</ele><time>2024-02-10T04:11:04Z</time></trkpt><trkpt lat="35.443444" lon="139.162502"><ele>1207.5000000000002</ele><time>2024-02-10T04:12:49Z</time></trkpt><trkpt lat="35.4432473" lon="139.1624776"><ele>1195.8000000000002</ele><time>2024-02-10T04:16:22Z</time></trkpt><trkpt lat="35.4430529" lon="139.1625186"><ele>1184.6000000000001</ele><time>2024-02-10T04:16:52Z</time></trkpt><trkpt lat="35.442886" lon="139.1624228"><ele>1174.8</ele><time>2024-02-10T04:17:33Z</time></trkpt><trkpt lat="35.4427004" lon="139.1624223"><ele>1167.5533333333335</ele><time>2024-02-10T04:17:52Z</time></trkpt><trkpt lat="35.4425184" lon="139.1624068"><ele>1161.2133333333334</ele><time>2024-02-10T04:18:12Z</time></trkpt><trkpt lat="35.442373" lon="139.1622539"><ele>1156.3333333333333</ele><time>2024-02-10T04:18:34Z</time></trkpt><trkpt lat="35.4421891" lon="139.1622"><ele>1152.92</ele><time>2024-02-10T04:19:12Z</time></trkpt><trkpt lat="35.442007" lon="139.1622078"><ele>1148.6433333333334</ele><time>2024-02-10T04:19:33Z</time></trkpt><trkpt lat="35.4418205" lon="139.1622096"><ele>1143.7533333333333</ele><time>2024-02-10T04:19:54Z</time></trkpt><trkpt lat="35.4416314" lon="139.1621887"><ele>1136.3600000000001</ele><time>2024-02-10T04:20:31Z</time></trkpt><trkpt lat="35.4414698" lon="139.1622921"><ele>1130.8933333333334</ele><time>2024-02-10T04:20:44Z</time></trkpt><trkpt lat="35.441286" lon="139.1623409"><ele>1126.9733333333334</ele><time>2024-02-10T04:21:00Z</time></trkpt><trkpt lat="35.4411044" lon="139.1623856"><ele>1126.64</ele><time>2024-02-10T04:21:14Z</time></trkpt><trkpt lat="35.4409352" lon="139.1624854"><ele>1125.1766666666665</ele><time>2024-02-10T04:21:30Z</time></trkpt><trkpt lat="35.440769" lon="139.1625743"><ele>1125.1633333333336</ele><time>2024-02-10T04:21:47Z</time></trkpt><trkpt lat="35.4406197" lon="139.1627032"><ele>1124.6933333333334</ele><time>2024-02-10T04:22:02Z</time></trkpt><trkpt lat="35.4404528" lon="139.1628009"><ele>1124.44</ele><time>2024-02-10T04:22:19Z</time></trkpt><trkpt lat="35.440349" lon="139.1629898"><ele>1123.5566666666666</ele><time>2024-02-10T04:22:34Z</time></trkpt><trkpt lat="35.4402002" lon="139.1631179"><ele>1121.8533333333335</ele><time>2024-02-10T04:23:02Z</time></trkpt><trkpt lat="35.4400165" lon="139.1631321"><ele>1117.9166666666667</ele><time>2024-02-10T04:23:27Z</time></trkpt><trkpt lat="35.4398604" lon="139.1632507"><ele>1112.4800000000002</ele><time>2024-02-10T04:23:51Z</time></trkpt><trkpt lat="35.43968" lon="139.1632167"><ele>1104.97</ele><time>2024-02-10T04:24:18Z</time></trkpt><trkpt lat="35.439496" lon="139.1632058"><ele>1098.1933333333334</ele><time>2024-02-10T04:24:38Z</time></trkpt><trkpt lat="35.4393093" lon="139.1631638"><ele>1090.5266666666666</ele><time>2024-02-10T04:25:22Z</time></trkpt><trkpt lat="35.4391636" lon="139.1630206"><ele>1082.6766666666667</ele><time>2024-02-10T04:25:49Z</time></trkpt><trkpt lat="35.4389777" lon="139.163043"><ele>1073.9433333333334</ele><time>2024-02-10T04:26:12Z</time></trkpt><trkpt lat="35.4388152" lon="139.1629187"><ele>1065.4633333333334</ele><time>2024-02-10T04:26:42Z</time></trkpt><trkpt lat="35.4387208" lon="139.1627292"><ele>1058.0500000000002</ele><time>2024-02-10T04:27:10Z</time></trkpt><trkpt lat="35.4385379" lon="139.1627345"><ele>1051.5266666666666</ele><time>2024-02-10T04:27:43Z</time></trkpt><trkpt lat="35.4385028" lon="139.1625137"><ele>1044.9033333333334</ele><time>2024-02-10T04:28:04Z</time></trkpt><trkpt lat="35.4383904" lon="139.1623392"><ele>1038.0199999999998</ele><time>2024-02-10T04:28:41Z</time></trkpt><trkpt lat="35.4382014" lon="139.1623604"><ele>1032.36</ele><time>2024-02-10T04:29:04Z</time></trkpt><trkpt lat="35.4381043" lon="139.162552"><ele>1028.86</ele><time>2024-02-10T04:29:40Z</time></trkpt><trkpt lat="35.4379716" lon="139.1623778"><ele>1025.3866666666668</ele><time>2024-02-10T04:30:07Z</time></trkpt><trkpt lat="35.4378778" lon="139.1621804"><ele>1020.4166666666666</ele><time>2024-02-10T04:30:30Z</time></trkpt><trkpt lat="35.4376932" lon="139.162178"><ele>1014.4</ele><time>2024-02-10T04:30:57Z</time></trkpt><trkpt lat="35.4375125" lon="139.1621701"><ele>1008.3266666666667</ele><time>2024-02-10T04:31:33Z</time></trkpt><trkpt lat="35.4373445" lon="139.162276"><ele>1002.6700000000001</ele><time>2024-02-10T04:32:54Z</time></trkpt><trkpt lat="35.4371619" lon="139.1622284"><ele>994.0733333333334</ele><time>2024-02-10T04:33:19Z</time></trkpt><trkpt lat="35.4370429" lon="139.1623942"><ele>986.7333333333332</ele><time>2024-02-10T04:34:04Z</time></trkpt><trkpt lat="35.436891" lon="139.1622675"><ele>977.6666666666666</ele><time>2024-02-10T04:34:26Z</time></trkpt><trkpt lat="35.4367017" lon="139.1622271"><ele>970.6433333333334</ele><time>2024-02-10T04:34:47Z</time></trkpt><trkpt lat="35.4365324" lon="139.1623037"><ele>964.32</ele><time>2024-02-10T04:35:06Z</time></trkpt><trkpt lat="35.4363498" lon="139.162314"><ele>960.8000000000001</ele><time>2024-02-10T04:35:25Z</time></trkpt><trkpt lat="35.4363687" lon="139.1620303"><ele>954.7166666666667</ele><time>2024-02-10T04:37:10Z</time></trkpt><trkpt lat="35.4362665" lon="139.1622127"><ele>951.4900000000001</ele><time>2024-02-10T04:37:22Z</time></trkpt><trkpt lat="35.4362242" lon="139.162428"><ele>949.18</ele><time>2024-02-10T04:38:55Z</time></trkpt><trkpt lat="35.4362712" lon="139.1626422"><ele>949.94</ele><time>2024-02-10T04:39:17Z</time></trkpt><trkpt lat="35.4362016" lon="139.1628506"><ele>945.1300000000001</ele><time>2024-02-10T04:39:43Z</time></trkpt><trkpt lat="35.4360533" lon="139.1630077"><ele>938.09</ele><time>2024-02-10T04:40:05Z</time></trkpt><trkpt lat="35.4358841" lon="139.163119"><ele>931.3333333333334</ele><time>2024-02-10T04:40:24Z</time></trkpt><trkpt lat="35.4357882" lon="139.163315"><ele>926.8266666666667</ele><time>2024-02-10T04:41:01Z</time></trkpt><trkpt lat="35.4356854" lon="139.1634982"><ele>922.5066666666667</ele><time>2024-02-10T04:41:13Z</time></trkpt><trkpt lat="35.435505" lon="139.1635756"><ele>918.4366666666668</ele><time>2024-02-10T04:41:40Z</time></trkpt><trkpt lat="35.435333" lon="139.1634767"><ele>914.16</ele><time>2024-02-10T04:41:52Z</time></trkpt><trkpt lat="35.4351508" lon="139.1635356"><ele>911.8833333333332</ele><time>2024-02-10T04:42:05Z</time></trkpt><trkpt lat="35.4349699" lon="139.1635191"><ele>911.4833333333332</ele><time>2024-02-10T04:42:18Z</time></trkpt><trkpt lat="35.4347876" lon="139.1635188"><ele>913.9566666666666</ele><time>2024-02-10T04:42:34Z</time></trkpt><trkpt lat="35.4346122" lon="139.1635755"><ele>917.36</ele><time>2024-02-10T04:42:49Z</time></trkpt><trkpt lat="35.4344642" lon="139.1637069"><ele>920.4233333333333</ele><time>2024-02-10T04:43:07Z</time></trkpt><trkpt lat="35.4342841" lon="139.1636545"><ele>921.7933333333334</ele><time>2024-02-10T04:43:31Z</time></trkpt><trkpt lat="35.4341044" lon="139.1635934"><ele>922.9733333333334</ele><time>2024-02-10T04:43:55Z</time></trkpt><trkpt lat="35.4339163" lon="139.1636037"><ele>924.0133333333333</ele><time>2024-02-10T04:44:13Z</time></trkpt><trkpt lat="35.4337218" lon="139.1636416"><ele>924.6666666666666</ele><time>2024-02-10T04:44:26Z</time></trkpt><trkpt lat="35.4335387" lon="139.1636692"><ele>926.1300000000001</ele><time>2024-02-10T04:44:39Z</time></trkpt><trkpt lat="35.4333603" lon="139.1637178"><ele>928.0233333333332</ele><time>2024-02-10T04:44:55Z</time></trkpt><trkpt lat="35.4332001" lon="139.1638232"><ele>931.54</ele><time>2024-02-10T04:45:10Z</time></trkpt><trkpt lat="35.4330293" lon="139.1638991"><ele>935.3866666666667</ele><time>2024-02-10T04:45:29Z</time></trkpt><trkpt lat="35.4328472" lon="139.1639818"><ele>939.0833333333334</ele><time>2024-02-10T04:45:46Z</time></trkpt><trkpt lat="35.4326533" lon="139.1640003"><ele>940.9333333333334</ele><time>2024-02-10T04:46:02Z</time></trkpt><trkpt lat="35.4324654" lon="139.1639853"><ele>940.3933333333334</ele><time>2024-02-10T04:46:18Z</time></trkpt><trkpt lat="35.4323368" lon="139.1638253"><ele>938.8933333333333</ele><time>2024-02-10T04:46:30Z</time></trkpt><trkpt lat="35.4321958" lon="139.1636741"><ele>936.9366666666666</ele><time>2024-02-10T04:46:46Z</time></trkpt><trkpt lat="35.4319923" lon="139.1636514"><ele>935.4</ele><time>2024-02-10T04:47:00Z</time></trkpt><trkpt lat="35.4318043" lon="139.1636685"><ele>934.4399999999999</ele><time>2024-02-10T04:47:13Z</time></trkpt><trkpt lat="35.4316181" lon="139.1636948"><ele>933.8566666666667</ele><time>2024-02-10T04:47:26Z</time></trkpt><trkpt lat="35.4314329" lon="139.1636906"><ele>933.3133333333334</ele><time>2024-02-10T04:47:40Z</time></trkpt><trkpt lat="35.4312497" lon="139.1637263"><ele>932.4966666666666</ele><time>2024-02-10T04:47:58Z</time></trkpt><trkpt lat="35.4310618" lon="139.1637621"><ele>931.7033333333333</ele><time>2024-02-10T04:48:09Z</time></trkpt><trkpt lat="35.4308858" lon="139.1638517"><ele>930.7933333333334</ele><time>2024-02-10T04:48:25Z</time></trkpt><trkpt lat="35.430714" lon="139.1639599"><ele>928.8800000000001</ele><time>2024-02-10T04:48:39Z</time></trkpt><trkpt lat="35.4305839" lon="139.1641157"><ele>926.5166666666668</ele><time>2024-02-10T04:49:03Z</time></trkpt><trkpt lat="35.4304143" lon="139.1642018"><ele>923.8333333333334</ele><time>2024-02-10T04:49:17Z</time></trkpt><trkpt lat="35.4302734" lon="139.1643406"><ele>922.0066666666667</ele><time>2024-02-10T04:49:29Z</time></trkpt><trkpt lat="35.4301537" lon="139.1645158"><ele>920.0233333333334</ele><time>2024-02-10T04:49:44Z</time></trkpt><trkpt lat="35.4299737" lon="139.1645694"><ele>918.1166666666667</ele><time>2024-02-10T04:49:58Z</time></trkpt><trkpt lat="35.4297886" lon="139.16461"><ele>915.7666666666668</ele><time>2024-02-10T04:50:13Z</time></trkpt><trkpt lat="35.4296246" lon="139.16472"><ele>914.2066666666666</ele><time>2024-02-10T04:50:29Z</time></trkpt><trkpt lat="35.4294609" lon="139.1648189"><ele>912.57</ele><time>2024-02-10T04:50:45Z</time></trkpt><trkpt lat="35.4293042" lon="139.1649335"><ele>911.1433333333334</ele><time>2024-02-10T04:50:59Z</time></trkpt><trkpt lat="35.4291282" lon="139.1650111"><ele>908.5</ele><time>2024-02-10T04:51:12Z</time></trkpt><trkpt lat="35.4289753" lon="139.1651618"><ele>905.64</ele><time>2024-02-10T04:51:25Z</time></trkpt><trkpt lat="35.4288006" lon="139.1652647"><ele>903.04</ele><time>2024-02-10T04:51:39Z</time></trkpt><trkpt lat="35.4286474" lon="139.1654108"><ele>900.7733333333334</ele><time>2024-02-10T04:51:55Z</time></trkpt><trkpt lat="35.42858" lon="139.1656222"><ele>897.1033333333334</ele><time>2024-02-10T04:52:12Z</time></trkpt><trkpt lat="35.4284688" lon="139.1658075"><ele>892.3699999999999</ele><time>2024-02-10T04:52:30Z</time></trkpt><trkpt lat="35.428286" lon="139.1657928"><ele>887.82</ele><time>2024-02-10T04:52:46Z</time></trkpt><trkpt lat="35.4281925" lon="139.1659926"><ele>883.98</ele><time>2024-02-10T04:53:03Z</time></trkpt><trkpt lat="35.4280602" lon="139.1661468"><ele>879.0033333333334</ele><time>2024-02-10T04:53:28Z</time></trkpt><trkpt lat="35.4280291" lon="139.1663708"><ele>872.7133333333333</ele><time>2024-02-10T04:53:48Z</time></trkpt><trkpt lat="35.4279139" lon="139.166547"><ele>864.2333333333332</ele><time>2024-02-10T04:54:12Z</time></trkpt><trkpt lat="35.427731" lon="139.1665603"><ele>856.5566666666667</ele><time>2024-02-10T04:54:34Z</time></trkpt><trkpt lat="35.4275804" lon="139.1666894"><ele>847.3533333333334</ele><time>2024-02-10T04:55:18Z</time></trkpt><trkpt lat="35.4274463" lon="139.1665277"><ele>842.9166666666666</ele><time>2024-02-10T04:55:37Z</time></trkpt><trkpt lat="35.4272708" lon="139.1666226"><ele>837.7533333333334</ele><time>2024-02-10T04:55:53Z</time></trkpt><trkpt lat="35.4270899" lon="139.1666206"><ele>834.34</ele><time>2024-02-10T04:56:09Z</time></trkpt><trkpt lat="35.4268932" lon="139.1666351"><ele>826.66</ele><time>2024-02-10T04:56:28Z</time></trkpt><trkpt lat="35.426708" lon="139.1666748"><ele>819.4333333333334</ele><time>2024-02-10T04:56:45Z</time></trkpt><trkpt lat="35.4265324" lon="139.1667357"><ele>811.8966666666666</ele><time>2024-02-10T04:57:00Z</time></trkpt><trkpt lat="35.4263382" lon="139.1667827"><ele>806.82</ele><time>2024-02-10T04:57:17Z</time></trkpt><trkpt lat="35.4261434" lon="139.1667406"><ele>803.0766666666667</ele><time>2024-02-10T04:57:29Z</time></trkpt><trkpt lat="35.4259749" lon="139.1666228"><ele>800.1</ele><time>2024-02-10T04:57:44Z</time></trkpt><trkpt lat="35.4257841" lon="139.1666104"><ele>798.6266666666667</ele><time>2024-02-10T04:58:01Z</time></trkpt><trkpt lat="35.4256125" lon="139.1665158"><ele>798.1966666666667</ele><time>2024-02-10T04:58:15Z</time></trkpt><trkpt lat="35.425444" lon="139.1664305"><ele>799.5500000000001</ele><time>2024-02-10T04:58:29Z</time></trkpt><trkpt lat="35.4252773" lon="139.1663449"><ele>799.7700000000001</ele><time>2024-02-10T04:58:42Z</time></trkpt><trkpt lat="35.4251171" lon="139.166235"><ele>798.9200000000001</ele><time>2024-02-10T04:58:54Z</time></trkpt><trkpt lat="35.4249316" lon="139.1662276"><ele>796.0233333333334</ele><time>2024-02-10T04:59:12Z</time></trkpt><trkpt lat="35.4247431" lon="139.1661894"><ele>792.85</ele><time>2024-02-10T04:59:27Z</time></trkpt><trkpt lat="35.4246424" lon="139.1659738"><ele>789.4166666666666</ele><time>2024-02-10T04:59:33Z</time></trkpt><trkpt lat="35.4244674" lon="139.1659154"><ele>787.1966666666667</ele><time>2024-02-10T04:59:46Z</time></trkpt><trkpt lat="35.424288" lon="139.1658749"><ele>785.12</ele><time>2024-02-10T04:59:58Z</time></trkpt><trkpt lat="35.4241521" lon="139.1657258"><ele>783.6366666666667</ele><time>2024-02-10T05:00:09Z</time></trkpt><trkpt lat="35.4240029" lon="139.1655781"><ele>781.6500000000001</ele><time>2024-02-10T05:00:23Z</time></trkpt><trkpt lat="35.4238282" lon="139.1654606"><ele>779.4200000000001</ele><time>2024-02-10T05:00:38Z</time></trkpt><trkpt lat="35.4236991" lon="139.1653018"><ele>775.8733333333333</ele><time>2024-02-10T05:00:51Z</time></trkpt><trkpt lat="35.4235375" lon="139.1651872"><ele>770.8433333333332</ele><time>2024-02-10T05:01:07Z</time></trkpt><trkpt lat="35.4233864" lon="139.1650605"><ele>765.5533333333333</ele><time>2024-02-10T05:01:17Z</time></trkpt><trkpt lat="35.4232164" lon="139.1651571"><ele>762.6033333333334</ele><time>2024-02-10T05:01:30Z</time></trkpt><trkpt lat="35.423108" lon="139.1649718"><ele>760.0833333333334</ele><time>2024-02-10T05:01:46Z</time></trkpt><trkpt lat="35.4230415" lon="139.164757"><ele>756.1700000000001</ele><time>2024-02-10T05:01:59Z</time></trkpt><trkpt lat="35.4228946" lon="139.164622"><ele>749.9499999999999</ele><time>2024-02-10T05:02:12Z</time></trkpt><trkpt lat="35.4228065" lon="139.1644256"><ele>744.2566666666667</ele><time>2024-02-10T05:02:27Z</time></trkpt><trkpt lat="35.4226935" lon="139.1642448"><ele>738.4699999999999</ele><time>2024-02-10T05:02:44Z</time></trkpt><trkpt lat="35.422529" lon="139.1641062"><ele>732.7633333333333</ele><time>2024-02-10T05:03:02Z</time></trkpt><trkpt lat="35.4224593" lon="139.1638993"><ele>727.0799999999999</ele><time>2024-02-10T05:03:28Z</time></trkpt><trkpt lat="35.4223421" lon="139.1637238"><ele>722.1266666666667</ele><time>2024-02-10T05:03:41Z</time></trkpt><trkpt lat="35.4222371" lon="139.1635386"><ele>717.8733333333333</ele><time>2024-02-10T05:03:55Z</time></trkpt><trkpt lat="35.4220631" lon="139.1634206"><ele>713.1933333333333</ele><time>2024-02-10T05:04:12Z</time></trkpt><trkpt lat="35.4219004" lon="139.1633046"><ele>708.3533333333335</ele><time>2024-02-10T05:04:30Z</time></trkpt><trkpt lat="35.4217624" lon="139.1631487"><ele>702.7600000000001</ele><time>2024-02-10T05:04:44Z</time></trkpt><trkpt lat="35.4215942" lon="139.1630469"><ele>697.8966666666666</ele><time>2024-02-10T05:05:02Z</time></trkpt><trkpt lat="35.4214574" lon="139.1628965"><ele>693.3533333333334</ele><time>2024-02-10T05:05:17Z</time></trkpt><trkpt lat="35.4213037" lon="139.1627679"><ele>688.3066666666667</ele><time>2024-02-10T05:05:31Z</time></trkpt><trkpt lat="35.4211843" lon="139.1625984"><ele>682.48</ele><time>2024-02-10T05:05:44Z</time></trkpt><trkpt lat="35.4210546" lon="139.1624327"><ele>676.3266666666667</ele><time>2024-02-10T05:06:02Z</time></trkpt><trkpt lat="35.4208872" lon="139.1623318"><ele>670.3266666666667</ele><time>2024-02-10T05:06:26Z</time></trkpt><trkpt lat="35.420759" lon="139.1621512"><ele>662.2033333333334</ele><time>2024-02-10T05:06:51Z</time></trkpt><trkpt lat="35.4205892" lon="139.1622523"><ele>653.3633333333333</ele><time>2024-02-10T05:07:07Z</time></trkpt><trkpt lat="35.4204115" lon="139.1622049"><ele>643.6433333333333</ele><time>2024-02-10T05:07:23Z</time></trkpt><trkpt lat="35.4202356" lon="139.1621319"><ele>634.0466666666666</ele><time>2024-02-10T05:07:41Z</time></trkpt><trkpt lat="35.4200377" lon="139.1621274"><ele>625.4266666666666</ele><time>2024-02-10T05:08:08Z</time></trkpt><trkpt lat="35.4198709" lon="139.1620393"><ele>618.6733333333333</ele><time>2024-02-10T05:08:24Z</time></trkpt><trkpt lat="35.4196995" lon="139.1619565"><ele>615.1566666666666</ele><time>2024-02-10T05:08:41Z</time></trkpt><trkpt lat="35.4195507" lon="139.1620965"><ele>610.6566666666666</ele><time>2024-02-10T05:08:56Z</time></trkpt><trkpt lat="35.4199372" lon="139.1621445"><ele>611.2366666666667</ele><time>2024-02-10T05:09:03Z</time></trkpt><trkpt lat="35.4197459" lon="139.1621135"><ele>610.6366666666667</ele><time>2024-02-10T05:09:37Z</time></trkpt><trkpt lat="35.4195935" lon="139.1619946"><ele>612.2833333333333</ele><time>2024-02-10T05:09:52Z</time></trkpt><trkpt lat="35.4193673" lon="139.1619711"><ele>607.7366666666667</ele><time>2024-02-10T05:10:54Z</time></trkpt><trkpt lat="35.4191949" lon="139.1620415"><ele>605.2733333333334</ele><time>2024-02-10T05:11:08Z</time></trkpt><trkpt lat="35.4189859" lon="139.162092"><ele>602.8533333333334</ele><time>2024-02-10T05:11:28Z</time></trkpt><trkpt lat="35.4187978" lon="139.1621281"><ele>602.3766666666667</ele><time>2024-02-10T05:11:38Z</time></trkpt><trkpt lat="35.4186089" lon="139.1620921"><ele>602.0833333333334</ele><time>2024-02-10T05:11:50Z</time></trkpt><trkpt lat="35.4184231" lon="139.1620917"><ele>602.2533333333334</ele><time>2024-02-10T05:12:01Z</time></trkpt><trkpt lat="35.4182763" lon="139.1622268"><ele>601.1966666666667</ele><time>2024-02-10T05:12:16Z</time></trkpt><trkpt lat="35.4180949" lon="139.1621946"><ele>599.66</ele><time>2024-02-10T05:12:30Z</time></trkpt><trkpt lat="35.4179163" lon="139.1622622"><ele>597.7833333333333</ele><time>2024-02-10T05:12:43Z</time></trkpt><trkpt lat="35.4177342" lon="139.1622813"><ele>595.77</ele><time>2024-02-10T05:12:57Z</time></trkpt><trkpt lat="35.417549" lon="139.1622424"><ele>595.14</ele><time>2024-02-10T05:13:12Z</time></trkpt><trkpt lat="35.4173699" lon="139.1622916"><ele>592.98</ele><time>2024-02-10T05:13:24Z</time></trkpt><trkpt lat="35.4171937" lon="139.162356"><ele>592.6833333333333</ele><time>2024-02-10T05:13:36Z</time></trkpt><trkpt lat="35.4171172" lon="139.1625559"><ele>586.8533333333334</ele><time>2024-02-10T05:13:50Z</time></trkpt><trkpt lat="35.4169353" lon="139.1625059"><ele>584.1166666666667</ele><time>2024-02-10T05:14:11Z</time></trkpt><trkpt lat="35.4167808" lon="139.1623883"><ele>581.1766666666667</ele><time>2024-02-10T05:14:28Z</time></trkpt><trkpt lat="35.4165906" lon="139.1624372"><ele>579.31</ele><time>2024-02-10T05:14:44Z</time></trkpt><trkpt lat="35.4164321" lon="139.1625528"><ele>571.9866666666667</ele><time>2024-02-10T05:14:57Z</time></trkpt><trkpt lat="35.4162509" lon="139.1626226"><ele>560.1666666666666</ele><time>2024-02-10T05:15:15Z</time></trkpt><trkpt lat="35.4160856" lon="139.162527"><ele>554.82</ele><time>2024-02-10T05:15:31Z</time></trkpt><trkpt lat="35.4159022" lon="139.1625277"><ele>554.1466666666666</ele><time>2024-02-10T05:15:46Z</time></trkpt><trkpt lat="35.4157926" lon="139.162738"><ele>553.5966666666667</ele><time>2024-02-10T05:16:02Z</time></trkpt><trkpt lat="35.4156495" lon="139.1628858"><ele>546.3266666666667</ele><time>2024-02-10T05:16:20Z</time></trkpt><trkpt lat="35.4154623" lon="139.1628462"><ele>538.8033333333333</ele><time>2024-02-10T05:16:33Z</time></trkpt><trkpt lat="35.4153961" lon="139.1626228"><ele>535.86</ele><time>2024-02-10T05:16:47Z</time></trkpt><trkpt lat="35.4153169" lon="139.162834"><ele>534.35</ele><time>2024-02-10T05:17:09Z</time></trkpt><trkpt lat="35.415296" lon="139.1626018"><ele>532.9033333333333</ele><time>2024-02-10T05:17:24Z</time></trkpt><trkpt lat="35.4152396" lon="139.1623877"><ele>528.6133333333333</ele><time>2024-02-10T05:17:40Z</time></trkpt><trkpt lat="35.4152293" lon="139.1621667"><ele>526.6133333333333</ele><time>2024-02-10T05:17:56Z</time></trkpt><trkpt lat="35.4151289" lon="139.1619696"><ele>523.2366666666667</ele><time>2024-02-10T05:18:12Z</time></trkpt><trkpt lat="35.4149548" lon="139.161864"><ele>521.4599999999999</ele><time>2024-02-10T05:18:28Z</time></trkpt><trkpt lat="35.414975" lon="139.1621053"><ele>515.9166666666666</ele><time>2024-02-10T05:18:45Z</time></trkpt><trkpt lat="35.4149719" lon="139.1623367"><ele>509.9266666666667</ele><time>2024-02-10T05:18:58Z</time></trkpt><trkpt lat="35.4148946" lon="139.1625424"><ele>503.73</ele><time>2024-02-10T05:19:18Z</time></trkpt><trkpt lat="35.4148264" lon="139.1623336"><ele>500.2666666666667</ele><time>2024-02-10T05:19:37Z</time></trkpt><trkpt lat="35.4146566" lon="139.1622067"><ele>497.31333333333333</ele><time>2024-02-10T05:19:53Z</time></trkpt><trkpt lat="35.4144877" lon="139.1621208"><ele>494.0733333333333</ele><time>2024-02-10T05:20:11Z</time></trkpt><trkpt lat="35.4143019" lon="139.162161"><ele>490.8766666666667</ele><time>2024-02-10T05:20:33Z</time></trkpt><trkpt lat="35.4141228" lon="139.162224"><ele>486.99666666666667</ele><time>2024-02-10T05:20:47Z</time></trkpt><trkpt lat="35.4139382" lon="139.1622523"><ele>483.75333333333333</ele><time>2024-02-10T05:20:55Z</time></trkpt><trkpt lat="35.4137573" lon="139.1622613"><ele>480.6700000000001</ele><time>2024-02-10T05:21:11Z</time></trkpt><trkpt lat="35.4136152" lon="139.1624255"><ele>476.92</ele><time>2024-02-10T05:21:26Z</time></trkpt><trkpt lat="35.4134632" lon="139.1623039"><ele>471.3833333333334</ele><time>2024-02-10T05:21:39Z</time></trkpt><trkpt lat="35.413371" lon="139.1621145"><ele>465.34666666666664</ele><time>2024-02-10T05:21:57Z</time></trkpt><trkpt lat="35.4133011" lon="139.1618923"><ele>462.26666666666665</ele><time>2024-02-10T05:22:15Z</time></trkpt><trkpt lat="35.4131457" lon="139.1617685"><ele>461.22333333333336</ele><time>2024-02-10T05:22:29Z</time></trkpt><trkpt lat="35.4129979" lon="139.1616415"><ele>462.23</ele><time>2024-02-10T05:22:42Z</time></trkpt><trkpt lat="35.4128188" lon="139.1616133"><ele>460.84</ele><time>2024-02-10T05:22:57Z</time></trkpt><trkpt lat="35.412692" lon="139.1617742"><ele>457.58</ele><time>2024-02-10T05:23:11Z</time></trkpt><trkpt lat="35.4125542" lon="139.1619285"><ele>452.2266666666667</ele><time>2024-02-10T05:23:35Z</time></trkpt><trkpt lat="35.4123823" lon="139.1620362"><ele>446.50666666666666</ele><time>2024-02-10T05:23:46Z</time></trkpt><trkpt lat="35.4122108" lon="139.1621222"><ele>443.27666666666664</ele><time>2024-02-10T05:24:00Z</time></trkpt><trkpt lat="35.4120181" lon="139.1621214"><ele>440.74333333333334</ele><time>2024-02-10T05:24:15Z</time></trkpt><trkpt lat="35.4119155" lon="139.1619259"><ele>442.78999999999996</ele><time>2024-02-10T05:24:29Z</time></trkpt><trkpt lat="35.411777" lon="139.1617582"><ele>445.08666666666664</ele><time>2024-02-10T05:24:45Z</time></trkpt><trkpt lat="35.4116183" lon="139.1616453"><ele>447.1233333333334</ele><time>2024-02-10T05:24:56Z</time></trkpt><trkpt lat="35.4115423" lon="139.1618474"><ele>442.71333333333337</ele><time>2024-02-10T05:25:07Z</time></trkpt><trkpt lat="35.4114183" lon="139.1620234"><ele>435.2733333333333</ele><time>2024-02-10T05:25:20Z</time></trkpt><trkpt lat="35.4112967" lon="139.1622054"><ele>426.5666666666666</ele><time>2024-02-10T05:25:36Z</time></trkpt><trkpt lat="35.4111488" lon="139.1623492"><ele>420.9333333333334</ele><time>2024-02-10T05:25:51Z</time></trkpt><trkpt lat="35.410977" lon="139.1624237"><ele>416.6933333333333</ele><time>2024-02-10T05:26:06Z</time></trkpt><trkpt lat="35.4108263" lon="139.1625727"><ele>412.53000000000003</ele><time>2024-02-10T05:26:25Z</time></trkpt><trkpt lat="35.4106655" lon="139.1626965"><ele>408.43666666666667</ele><time>2024-02-10T05:27:43Z</time></trkpt><trkpt lat="35.4105535" lon="139.1628773"><ele>402.75666666666666</ele><time>2024-02-10T05:28:00Z</time></trkpt><trkpt lat="35.4104361" lon="139.1630507"><ele>397.76666666666665</ele><time>2024-02-10T05:28:25Z</time></trkpt><trkpt lat="35.4103358" lon="139.1632478"><ele>392.5333333333333</ele><time>2024-02-10T05:28:48Z</time></trkpt><trkpt lat="35.4102137" lon="139.1634293"><ele>389.5566666666667</ele><time>2024-02-10T05:29:00Z</time></trkpt><trkpt lat="35.4100953" lon="139.1636032"><ele>386.41333333333336</ele><time>2024-02-10T05:29:16Z</time></trkpt><trkpt lat="35.4099486" lon="139.1637423"><ele>382.51666666666665</ele><time>2024-02-10T05:29:31Z</time></trkpt><trkpt lat="35.4097608" lon="139.163756"><ele>378.9866666666667</ele><time>2024-02-10T05:29:44Z</time></trkpt><trkpt lat="35.4095726" lon="139.1637539"><ele>376.6366666666667</ele><time>2024-02-10T05:29:59Z</time></trkpt><trkpt lat="35.4094124" lon="139.1636408"><ele>377.18666666666667</ele><time>2024-02-10T05:30:12Z</time></trkpt><trkpt lat="35.4092351" lon="139.1636914"><ele>375.67</ele><time>2024-02-10T05:30:24Z</time></trkpt><trkpt lat="35.4091448" lon="139.1635"><ele>374.2933333333333</ele><time>2024-02-10T05:30:38Z</time></trkpt><trkpt lat="35.4089579" lon="139.1634682"><ele>370.34666666666664</ele><time>2024-02-10T05:30:47Z</time></trkpt><trkpt lat="35.4088073" lon="139.1636045"><ele>366.98</ele><time>2024-02-10T05:31:02Z</time></trkpt><trkpt lat="35.4086904" lon="139.1637947"><ele>362.79</ele><time>2024-02-10T05:31:12Z</time></trkpt><trkpt lat="35.4085967" lon="139.1639933"><ele>359.7533333333334</ele><time>2024-02-10T05:31:24Z</time></trkpt><trkpt lat="35.4085581" lon="139.164214"><ele>357.32666666666665</ele><time>2024-02-10T05:31:38Z</time></trkpt><trkpt lat="35.4085264" lon="139.1644395"><ele>354.54333333333335</ele><time>2024-02-10T05:32:20Z</time></trkpt><trkpt lat="35.4084466" lon="139.1646459"><ele>351.24</ele><time>2024-02-10T05:32:34Z</time></trkpt><trkpt lat="35.408269" lon="139.1647152"><ele>348.50666666666666</ele><time>2024-02-10T05:32:51Z</time></trkpt><trkpt lat="35.408086" lon="139.1647503"><ele>346.87000000000006</ele><time>2024-02-10T05:33:04Z</time></trkpt><trkpt lat="35.407908" lon="139.164814"><ele>345.1000000000001</ele><time>2024-02-10T05:33:19Z</time></trkpt><trkpt lat="35.407724" lon="139.1648666"><ele>342.69000000000005</ele><time>2024-02-10T05:33:31Z</time></trkpt><trkpt lat="35.4075425" lon="139.1649271"><ele>339.6933333333333</ele><time>2024-02-10T05:33:43Z</time></trkpt><trkpt lat="35.4073823" lon="139.1650358"><ele>336.5366666666667</ele><time>2024-02-10T05:33:56Z</time></trkpt><trkpt lat="35.4072097" lon="139.1651239"><ele>333.67</ele><time>2024-02-10T05:34:08Z</time></trkpt><trkpt lat="35.4070387" lon="139.1652193"><ele>331.04</ele><time>2024-02-10T05:34:19Z</time></trkpt><trkpt lat="35.4068623" lon="139.1653627"><ele>328.83666666666664</ele><time>2024-02-10T05:34:30Z</time></trkpt><trkpt lat="35.4066909" lon="139.1654869"><ele>326.53333333333336</ele><time>2024-02-10T05:34:50Z</time></trkpt><trkpt lat="35.4065185" lon="139.1655644"><ele>324.8</ele><time>2024-02-10T05:35:00Z</time></trkpt><trkpt lat="35.4063543" lon="139.165684"><ele>323.43333333333334</ele><time>2024-02-10T05:35:11Z</time></trkpt><trkpt lat="35.4061775" lon="139.1657397"><ele>322.15000000000003</ele><time>2024-02-10T05:35:26Z</time></trkpt><trkpt lat="35.4060385" lon="139.1659006"><ele>318.8733333333333</ele><time>2024-02-10T05:35:38Z</time></trkpt><trkpt lat="35.4059319" lon="139.1660879"><ele>314.6566666666667</ele><time>2024-02-10T05:35:57Z</time></trkpt><trkpt lat="35.4058519" lon="139.1663025"><ele>310.6066666666666</ele><time>2024-02-10T05:36:07Z</time></trkpt><trkpt lat="35.4058339" lon="139.1665285"><ele>307.51666666666665</ele><time>2024-02-10T05:36:17Z</time></trkpt><trkpt lat="35.4059378" lon="139.166727"><ele>305.3433333333333</ele><time>2024-02-10T05:36:29Z</time></trkpt><trkpt lat="35.4059803" lon="139.166946"><ele>303.12</ele><time>2024-02-10T05:36:40Z</time></trkpt><trkpt lat="35.4060647" lon="139.1671446"><ele>301.1533333333333</ele><time>2024-02-10T05:36:55Z</time></trkpt><trkpt lat="35.406153" lon="139.1673381"><ele>297.53</ele><time>2024-02-10T05:37:08Z</time></trkpt><trkpt lat="35.4060519" lon="139.1675269"><ele>294.26</ele><time>2024-02-10T05:37:25Z</time></trkpt><trkpt lat="35.4059215" lon="139.1676958"><ele>292.1133333333333</ele><time>2024-02-10T05:37:39Z</time></trkpt><trkpt lat="35.4057655" lon="139.1678225"><ele>292.63666666666666</ele><time>2024-02-10T05:37:51Z</time></trkpt><trkpt lat="35.4056158" lon="139.1679626"><ele>293.81</ele><time>2024-02-10T05:38:02Z</time></trkpt><trkpt lat="35.4054342" lon="139.1679825"><ele>294.40000000000003</ele><time>2024-02-10T05:38:15Z</time></trkpt><trkpt lat="35.4053519" lon="139.1681891"><ele>293.79333333333335</ele><time>2024-02-10T05:38:28Z</time></trkpt><trkpt lat="35.4051622" lon="139.1682085"><ele>292.57</ele><time>2024-02-10T05:38:40Z</time></trkpt><trkpt lat="35.4049754" lon="139.1682892"><ele>290.9766666666667</ele><time>2024-02-10T05:38:49Z</time></trkpt><trkpt lat="35.4048168" lon="139.1685393"><ele>289.56333333333333</ele><time>2024-02-10T05:39:01Z</time></trkpt></trkseg></trk></gpx>