<?xml version='1.0' encoding='UTF-8'?><gpx creator="YAMAP - https://yamap.com" xsi:schemaLocation="http://www.topografix.com/GPX/1/1 http://www.topografix.com/GPX/1/1/gpx.xsd" version="1.1" xmlns="http://www.topografix.com/GPX/1/1" xmlns:xsi="http://www.w3.org/2001/XMLSchema-instance"><metadata><bounds maxlat="35.9772502" maxlon="139.1401581" minlat="35.9613852" minlon="139.1296847"/></metadata><trk><name>岩菅山・二子山(横瀬二子山雌岳)・二子山(横瀬二子山雄岳)</name><number>1</number><trkseg><trkpt lat="35.976991" lon="139.1368037"><ele>307.7</ele><time>2023-07-14T23:05:30Z</time></trkpt><trkpt lat="35.9768087" lon="139.1366998"><ele>308.40999999999997</ele><time>2023-07-14T23:05:41Z</time></trkpt><trkpt lat="35.9767806" lon="139.1364514"><ele>308.6133333333333</ele><time>2023-07-14T23:06:07Z</time></trkpt><trkpt lat="35.9767297" lon="139.1362226"><ele>309.1133333333333</ele><time>2023-07-14T23:06:22Z</time></trkpt><trkpt lat="35.9767814" lon="139.1359922"><ele>308.75333333333333</ele><time>2023-07-14T23:06:43Z</time></trkpt><trkpt lat="35.9767462" lon="139.1357629"><ele>308.52</ele><time>2023-07-14T23:06:55Z</time></trkpt><trkpt lat="35.9767032" lon="139.1355244"><ele>308.1433333333334</ele><time>2023-07-14T23:07:09Z</time></trkpt><trkpt lat="35.9766947" lon="139.1352935"><ele>307.8</ele><time>2023-07-14T23:07:26Z</time></trkpt><trkpt lat="35.9767635" lon="139.1350871"><ele>306.7366666666666</ele><time>2023-07-14T23:07:38Z</time></trkpt><trkpt lat="35.976822" lon="139.1348706"><ele>304.92333333333335</ele><time>2023-07-14T23:08:02Z</time></trkpt><trkpt lat="35.9768044" lon="139.1346488"><ele>302.92333333333335</ele><time>2023-07-14T23:08:13Z</time></trkpt><trkpt lat="35.9767104" lon="139.1344569"><ele>301.21666666666664</ele><time>2023-07-14T23:08:30Z</time></trkpt><trkpt lat="35.9765844" lon="139.134291"><ele>300.75666666666666</ele><time>2023-07-14T23:08:41Z</time></trkpt><trkpt lat="35.9764015" lon="139.1343013"><ele>303.25666666666666</ele><time>2023-07-14T23:08:55Z</time></trkpt><trkpt lat="35.976205" lon="139.1342731"><ele>307.19</ele><time>2023-07-14T23:09:11Z</time></trkpt><trkpt lat="35.976019" lon="139.1342827"><ele>312.15</ele><time>2023-07-14T23:09:27Z</time></trkpt><trkpt lat="35.9758855" lon="139.1344374"><ele>315.94</ele><time>2023-07-14T23:09:44Z</time></trkpt><trkpt lat="35.9759806" lon="139.1346505"><ele>318.2033333333333</ele><time>2023-07-14T23:09:54Z</time></trkpt><trkpt lat="35.9759106" lon="139.1348549"><ele>319.84666666666664</ele><time>2023-07-14T23:10:43Z</time></trkpt><trkpt lat="35.9758147" lon="139.1346629"><ele>321.2533333333334</ele><time>2023-07-14T23:12:25Z</time></trkpt><trkpt lat="35.9756649" lon="139.1345322"><ele>325.3833333333334</ele><time>2023-07-14T23:13:02Z</time></trkpt><trkpt lat="35.9756099" lon="139.1343126"><ele>329.72</ele><time>2023-07-14T23:13:31Z</time></trkpt><trkpt lat="35.9756385" lon="139.1340904"><ele>333.14666666666665</ele><time>2023-07-14T23:14:19Z</time></trkpt><trkpt lat="35.9755514" lon="139.133894"><ele>337.15000000000003</ele><time>2023-07-14T23:14:51Z</time></trkpt><trkpt lat="35.9753665" lon="139.1338847"><ele>345.1666666666667</ele><time>2023-07-14T23:15:16Z</time></trkpt><trkpt lat="35.9751793" lon="139.1338896"><ele>354.62999999999994</ele><time>2023-07-14T23:15:37Z</time></trkpt><trkpt lat="35.9749916" lon="139.1338997"><ele>360.5466666666666</ele><time>2023-07-14T23:16:02Z</time></trkpt><trkpt lat="35.9748173" lon="139.1339779"><ele>362.8566666666666</ele><time>2023-07-14T23:16:16Z</time></trkpt><trkpt lat="35.9746543" lon="139.1340805"><ele>364.08</ele><time>2023-07-14T23:16:33Z</time></trkpt><trkpt lat="35.9744914" lon="139.1341791"><ele>366.94</ele><time>2023-07-14T23:16:48Z</time></trkpt><trkpt lat="35.9743144" lon="139.1341351"><ele>367.51666666666665</ele><time>2023-07-14T23:17:05Z</time></trkpt><trkpt lat="35.9741684" lon="139.1339936"><ele>365.22</ele><time>2023-07-14T23:17:26Z</time></trkpt><trkpt lat="35.9739827" lon="139.13393"><ele>361.21000000000004</ele><time>2023-07-14T23:17:49Z</time></trkpt><trkpt lat="35.9738011" lon="139.1339487"><ele>358.90333333333336</ele><time>2023-07-14T23:18:19Z</time></trkpt><trkpt lat="35.9736281" lon="139.1338772"><ele>360.71000000000004</ele><time>2023-07-14T23:18:52Z</time></trkpt><trkpt lat="35.9734548" lon="139.1339548"><ele>365.27333333333337</ele><time>2023-07-14T23:19:19Z</time></trkpt><trkpt lat="35.9732727" lon="139.1339476"><ele>368.43666666666667</ele><time>2023-07-14T23:19:54Z</time></trkpt><trkpt lat="35.9731022" lon="139.1340294"><ele>370.9266666666667</ele><time>2023-07-14T23:20:15Z</time></trkpt><trkpt lat="35.9729208" lon="139.1340449"><ele>373.84666666666664</ele><time>2023-07-14T23:20:56Z</time></trkpt><trkpt lat="35.9727677" lon="139.1341713"><ele>379.85999999999996</ele><time>2023-07-14T23:21:38Z</time></trkpt><trkpt lat="35.9725822" lon="139.1341436"><ele>390.24666666666667</ele><time>2023-07-14T23:22:34Z</time></trkpt><trkpt lat="35.9724171" lon="139.1342398"><ele>399.2033333333334</ele><time>2023-07-14T23:23:19Z</time></trkpt><trkpt lat="35.9722406" lon="139.1341885"><ele>408.08</ele><time>2023-07-14T23:24:11Z</time></trkpt><trkpt lat="35.9720712" lon="139.1342673"><ele>410.7266666666667</ele><time>2023-07-14T23:24:40Z</time></trkpt><trkpt lat="35.9718847" lon="139.1342425"><ele>413.96999999999997</ele><time>2023-07-14T23:25:00Z</time></trkpt><trkpt lat="35.9716952" lon="139.1342793"><ele>415.7166666666667</ele><time>2023-07-14T23:25:29Z</time></trkpt><trkpt lat="35.9715157" lon="139.1343049"><ele>419.04333333333335</ele><time>2023-07-14T23:25:40Z</time></trkpt><trkpt lat="35.9713441" lon="139.1343729"><ele>422.1133333333333</ele><time>2023-07-14T23:25:58Z</time></trkpt><trkpt lat="35.9711627" lon="139.1343628"><ele>425.42333333333335</ele><time>2023-07-14T23:26:26Z</time></trkpt><trkpt lat="35.9709815" lon="139.1344033"><ele>426.89000000000004</ele><time>2023-07-14T23:26:51Z</time></trkpt><trkpt lat="35.9708431" lon="139.1345507"><ele>427.5566666666667</ele><time>2023-07-14T23:27:18Z</time></trkpt><trkpt lat="35.9706631" lon="139.1346002"><ele>428.65333333333336</ele><time>2023-07-14T23:28:25Z</time></trkpt><trkpt lat="35.9704855" lon="139.1346446"><ele>433.1666666666667</ele><time>2023-07-14T23:28:40Z</time></trkpt><trkpt lat="35.9703107" lon="139.1347084"><ele>439.37000000000006</ele><time>2023-07-14T23:29:07Z</time></trkpt><trkpt lat="35.9701318" lon="139.1347385"><ele>446.4333333333334</ele><time>2023-07-14T23:29:40Z</time></trkpt><trkpt lat="35.9699753" lon="139.1348494"><ele>452.0333333333333</ele><time>2023-07-14T23:30:24Z</time></trkpt><trkpt lat="35.9698943" lon="139.1350544"><ele>454.22333333333336</ele><time>2023-07-14T23:31:05Z</time></trkpt><trkpt lat="35.9697117" lon="139.1351255"><ele>456.4533333333334</ele><time>2023-07-14T23:31:29Z</time></trkpt><trkpt lat="35.9695377" lon="139.1352155"><ele>459.09666666666664</ele><time>2023-07-14T23:31:43Z</time></trkpt><trkpt lat="35.9693904" lon="139.1353605"><ele>465.08</ele><time>2023-07-14T23:33:16Z</time></trkpt><trkpt lat="35.9692925" lon="139.1355595"><ele>470.02</ele><time>2023-07-14T23:33:38Z</time></trkpt><trkpt lat="35.9691292" lon="139.1356601"><ele>475.33</ele><time>2023-07-14T23:34:24Z</time></trkpt><trkpt lat="35.9689893" lon="139.1358007"><ele>480.52</ele><time>2023-07-14T23:35:03Z</time></trkpt><trkpt lat="35.9688281" lon="139.1359134"><ele>488.32666666666665</ele><time>2023-07-14T23:35:28Z</time></trkpt><trkpt lat="35.9686468" lon="139.1359645"><ele>496.23</ele><time>2023-07-14T23:35:46Z</time></trkpt><trkpt lat="35.9686784" lon="139.1361834"><ele>502.6000000000001</ele><time>2023-07-14T23:36:20Z</time></trkpt><trkpt lat="35.9684962" lon="139.1361455"><ele>505.43666666666667</ele><time>2023-07-14T23:37:28Z</time></trkpt><trkpt lat="35.9683128" lon="139.1361307"><ele>509.10666666666674</ele><time>2023-07-14T23:37:55Z</time></trkpt><trkpt lat="35.9681422" lon="139.1362267"><ele>515.7266666666667</ele><time>2023-07-14T23:38:24Z</time></trkpt><trkpt lat="35.9679609" lon="139.1362503"><ele>522.8233333333334</ele><time>2023-07-14T23:39:58Z</time></trkpt><trkpt lat="35.9677961" lon="139.1363476"><ele>530.5933333333334</ele><time>2023-07-14T23:40:47Z</time></trkpt><trkpt lat="35.96768" lon="139.136518"><ele>537.7833333333333</ele><time>2023-07-14T23:42:06Z</time></trkpt><trkpt lat="35.9675275" lon="139.1366428"><ele>547.2800000000001</ele><time>2023-07-14T23:43:01Z</time></trkpt><trkpt lat="35.9673887" lon="139.1367955"><ele>557.4200000000001</ele><time>2023-07-14T23:43:44Z</time></trkpt><trkpt lat="35.9673142" lon="139.1370263"><ele>569.5266666666666</ele><time>2023-07-14T23:44:00Z</time></trkpt><trkpt lat="35.9672001" lon="139.1372028"><ele>581.4333333333334</ele><time>2023-07-14T23:45:24Z</time></trkpt><trkpt lat="35.9670079" lon="139.1371712"><ele>587.7133333333333</ele><time>2023-07-14T23:46:51Z</time></trkpt><trkpt lat="35.9668172" lon="139.1371271"><ele>592.82</ele><time>2023-07-14T23:47:15Z</time></trkpt><trkpt lat="35.9667409" lon="139.1373347"><ele>594.6899999999999</ele><time>2023-07-14T23:47:34Z</time></trkpt><trkpt lat="35.9666369" lon="139.1375273"><ele>599.3166666666667</ele><time>2023-07-14T23:48:28Z</time></trkpt><trkpt lat="35.9667425" lon="139.1377154"><ele>603.6733333333333</ele><time>2023-07-14T23:49:08Z</time></trkpt><trkpt lat="35.9668928" lon="139.137889"><ele>611.86</ele><time>2023-07-14T23:49:35Z</time></trkpt><trkpt lat="35.9670183" lon="139.1380506"><ele>621.54</ele><time>2023-07-14T23:50:09Z</time></trkpt><trkpt lat="35.9671934" lon="139.1379748"><ele>627.4366666666667</ele><time>2023-07-14T23:51:12Z</time></trkpt><trkpt lat="35.9672772" lon="139.1381713"><ele>633.6466666666666</ele><time>2023-07-14T23:53:21Z</time></trkpt><trkpt lat="35.9672588" lon="139.138395"><ele>640.2900000000001</ele><time>2023-07-14T23:54:04Z</time></trkpt><trkpt lat="35.9672166" lon="139.1386155"><ele>650.8366666666667</ele><time>2023-07-14T23:54:37Z</time></trkpt><trkpt lat="35.9672426" lon="139.1388403"><ele>657.8466666666667</ele><time>2023-07-14T23:55:23Z</time></trkpt><trkpt lat="35.9672444" lon="139.1390648"><ele>664.57</ele><time>2023-07-14T23:56:02Z</time></trkpt><trkpt lat="35.9673065" lon="139.1392758"><ele>672.14</ele><time>2023-07-14T23:56:57Z</time></trkpt><trkpt lat="35.9671314" lon="139.1392229"><ele>680.7166666666667</ele><time>2023-07-14T23:57:58Z</time></trkpt><trkpt lat="35.9669478" lon="139.1392607"><ele>689.0566666666667</ele><time>2023-07-14T23:58:49Z</time></trkpt><trkpt lat="35.9667684" lon="139.1392836"><ele>694.5433333333334</ele><time>2023-07-14T23:59:35Z</time></trkpt><trkpt lat="35.9668036" lon="139.1395046"><ele>701.9233333333333</ele><time>2023-07-15T00:00:24Z</time></trkpt><trkpt lat="35.9668722" lon="139.13971"><ele>710.5166666666668</ele><time>2023-07-15T00:00:56Z</time></trkpt><trkpt lat="35.966866" lon="139.1399318"><ele>719.5866666666667</ele><time>2023-07-15T00:01:41Z</time></trkpt><trkpt lat="35.9668865" lon="139.1401532"><ele>728.7666666666668</ele><time>2023-07-15T00:03:04Z</time></trkpt><trkpt lat="35.9667104" lon="139.1400948"><ele>733.8966666666666</ele><time>2023-07-15T00:03:40Z</time></trkpt><trkpt lat="35.9665374" lon="139.1401581"><ele>737.2566666666667</ele><time>2023-07-15T00:04:37Z</time></trkpt><trkpt lat="35.966353" lon="139.1401185"><ele>737.7133333333335</ele><time>2023-07-15T00:05:16Z</time></trkpt><trkpt lat="35.9662409" lon="139.1399242"><ele>739.7233333333334</ele><time>2023-07-15T00:05:30Z</time></trkpt><trkpt lat="35.9661347" lon="139.1397399"><ele>741.9666666666666</ele><time>2023-07-15T00:05:56Z</time></trkpt><trkpt lat="35.9660197" lon="139.1395634"><ele>744.5233333333332</ele><time>2023-07-15T00:06:24Z</time></trkpt><trkpt lat="35.965847" lon="139.1394996"><ele>746.9466666666667</ele><time>2023-07-15T00:06:59Z</time></trkpt><trkpt lat="35.965673" lon="139.1395676"><ele>747.0533333333333</ele><time>2023-07-15T00:07:24Z</time></trkpt><trkpt lat="35.9654893" lon="139.1395735"><ele>745.7533333333334</ele><time>2023-07-15T00:07:54Z</time></trkpt><trkpt lat="35.9653066" lon="139.1395373"><ele>743.3966666666666</ele><time>2023-07-15T00:08:20Z</time></trkpt><trkpt lat="35.9652006" lon="139.1393391"><ele>743.54</ele><time>2023-07-15T00:08:31Z</time></trkpt><trkpt lat="35.965079" lon="139.1391704"><ele>745.7833333333334</ele><time>2023-07-15T00:09:00Z</time></trkpt><trkpt lat="35.9649276" lon="139.1390419"><ele>749.7566666666667</ele><time>2023-07-15T00:09:56Z</time></trkpt><trkpt lat="35.964801" lon="139.1388818"><ele>755.5033333333334</ele><time>2023-07-15T00:10:26Z</time></trkpt><trkpt lat="35.9646237" lon="139.1388173"><ele>762.0866666666667</ele><time>2023-07-15T00:11:38Z</time></trkpt><trkpt lat="35.9644885" lon="139.1386664"><ele>769.1366666666667</ele><time>2023-07-15T00:12:42Z</time></trkpt><trkpt lat="35.9643082" lon="139.1385864"><ele>776.43</ele><time>2023-07-15T00:13:12Z</time></trkpt><trkpt lat="35.964129" lon="139.138559"><ele>783.3266666666667</ele><time>2023-07-15T00:14:26Z</time></trkpt><trkpt lat="35.963989" lon="139.1384088"><ele>791.5433333333334</ele><time>2023-07-15T00:16:36Z</time></trkpt><trkpt lat="35.9638018" lon="139.1383775"><ele>802.4266666666667</ele><time>2023-07-15T00:20:06Z</time></trkpt><trkpt lat="35.9636206" lon="139.1384068"><ele>816.9366666666668</ele><time>2023-07-15T00:21:32Z</time></trkpt><trkpt lat="35.963474" lon="139.1382733"><ele>833.1333333333333</ele><time>2023-07-15T00:22:41Z</time></trkpt><trkpt lat="35.9632888" lon="139.1382131"><ele>847.34</ele><time>2023-07-15T00:23:54Z</time></trkpt><trkpt lat="35.963163" lon="139.1380451"><ele>858.1866666666666</ele><time>2023-07-15T00:24:27Z</time></trkpt><trkpt lat="35.9629821" lon="139.1381124"><ele>863.7266666666668</ele><time>2023-07-15T00:27:10Z</time></trkpt><trkpt lat="35.9628985" lon="139.1383117"><ele>861.4566666666666</ele><time>2023-07-15T00:30:03Z</time></trkpt><trkpt lat="35.9627184" lon="139.138281"><ele>854.02</ele><time>2023-07-15T00:30:49Z</time></trkpt><trkpt lat="35.9625348" lon="139.1382647"><ele>846.3800000000001</ele><time>2023-07-15T00:32:06Z</time></trkpt><trkpt lat="35.9623714" lon="139.1381705"><ele>848.1733333333335</ele><time>2023-07-15T00:34:22Z</time></trkpt><trkpt lat="35.962188" lon="139.1381373"><ele>855.9</ele><time>2023-07-15T00:34:54Z</time></trkpt><trkpt lat="35.962011" lon="139.1380682"><ele>867.9166666666666</ele><time>2023-07-15T00:35:10Z</time></trkpt><trkpt lat="35.9618228" lon="139.1380484"><ele>875.9166666666666</ele><time>2023-07-15T00:36:00Z</time></trkpt><trkpt lat="35.9616916" lon="139.1378925"><ele>880.2533333333334</ele><time>2023-07-15T00:36:12Z</time></trkpt><trkpt lat="35.9615155" lon="139.1378319"><ele>880.0066666666667</ele><time>2023-07-15T00:36:38Z</time></trkpt><trkpt lat="35.9613852" lon="139.1379905"><ele>878.8466666666667</ele><time>2023-07-15T00:36:58Z</time></trkpt><trkpt lat="35.9615483" lon="139.1378882"><ele>878.7533333333334</ele><time>2023-07-15T00:39:02Z</time></trkpt><trkpt lat="35.9616958" lon="139.1380199"><ele>879.93</ele><time>2023-07-15T00:40:26Z</time></trkpt><trkpt lat="35.9618353" lon="139.1381784"><ele>880.5033333333334</ele><time>2023-07-15T00:40:50Z</time></trkpt><trkpt lat="35.9620177" lon="139.138216"><ele>879.5533333333333</ele><time>2023-07-15T00:41:10Z</time></trkpt><trkpt lat="35.9621873" lon="139.1382941"><ele>873.75</ele><time>2023-07-15T00:41:27Z</time></trkpt><trkpt lat="35.962366" lon="139.138262"><ele>865.64</ele><time>2023-07-15T00:42:54Z</time></trkpt><trkpt lat="35.9625539" lon="139.1382668"><ele>854.2666666666668</ele><time>2023-07-15T00:45:21Z</time></trkpt><trkpt lat="35.9626801" lon="139.1384297"><ele>843.5933333333332</ele><time>2023-07-15T00:46:23Z</time></trkpt><trkpt lat="35.962864" lon="139.1384237"><ele>838.8033333333333</ele><time>2023-07-15T00:46:52Z</time></trkpt><trkpt lat="35.9630482" lon="139.1384103"><ele>842.2800000000001</ele><time>2023-07-15T00:47:06Z</time></trkpt><trkpt lat="35.9631885" lon="139.1382618"><ele>851.7366666666667</ele><time>2023-07-15T00:47:22Z</time></trkpt><trkpt lat="35.9632707" lon="139.13806"><ele>859.09</ele><time>2023-07-15T00:48:31Z</time></trkpt><trkpt lat="35.9632563" lon="139.1378348"><ele>862.62</ele><time>2023-07-15T00:48:54Z</time></trkpt><trkpt lat="35.9633832" lon="139.1376766"><ele>861.82</ele><time>2023-07-15T00:49:10Z</time></trkpt><trkpt lat="35.9635463" lon="139.1375789"><ele>857.14</ele><time>2023-07-15T00:50:09Z</time></trkpt><trkpt lat="35.9636031" lon="139.1373644"><ele>848.9033333333333</ele><time>2023-07-15T00:50:59Z</time></trkpt><trkpt lat="35.9635992" lon="139.1371408"><ele>840.2566666666668</ele><time>2023-07-15T00:51:21Z</time></trkpt><trkpt lat="35.9635692" lon="139.1369193"><ele>830.85</ele><time>2023-07-15T00:53:25Z</time></trkpt><trkpt lat="35.9636405" lon="139.136709"><ele>821.4733333333334</ele><time>2023-07-15T00:54:53Z</time></trkpt><trkpt lat="35.9637145" lon="139.1365048"><ele>809.91</ele><time>2023-07-15T00:56:25Z</time></trkpt><trkpt lat="35.9636427" lon="139.1362967"><ele>801.9000000000001</ele><time>2023-07-15T00:57:13Z</time></trkpt><trkpt lat="35.9636254" lon="139.1360753"><ele>795.3866666666667</ele><time>2023-07-15T00:57:56Z</time></trkpt><trkpt lat="35.9637687" lon="139.1359378"><ele>792.2366666666667</ele><time>2023-07-15T00:58:13Z</time></trkpt><trkpt lat="35.9639325" lon="139.1358378"><ele>786.7033333333333</ele><time>2023-07-15T00:58:56Z</time></trkpt><trkpt lat="35.964042" lon="139.1356595"><ele>780.7133333333335</ele><time>2023-07-15T00:59:37Z</time></trkpt><trkpt lat="35.9641371" lon="139.1354703"><ele>773.0266666666666</ele><time>2023-07-15T00:59:58Z</time></trkpt><trkpt lat="35.964293" lon="139.1353364"><ele>767.5766666666667</ele><time>2023-07-15T01:00:15Z</time></trkpt><trkpt lat="35.9644563" lon="139.1352041"><ele>763.35</ele><time>2023-07-15T01:00:30Z</time></trkpt><trkpt lat="35.9645717" lon="139.1350296"><ele>760.37</ele><time>2023-07-15T01:01:07Z</time></trkpt><trkpt lat="35.9646589" lon="139.1348306"><ele>756.1633333333333</ele><time>2023-07-15T01:01:22Z</time></trkpt><trkpt lat="35.9647563" lon="139.1346319"><ele>749.2133333333333</ele><time>2023-07-15T01:01:40Z</time></trkpt><trkpt lat="35.9648526" lon="139.1344341"><ele>741.8000000000001</ele><time>2023-07-15T01:02:22Z</time></trkpt><trkpt lat="35.9649539" lon="139.1342419"><ele>732.5266666666666</ele><time>2023-07-15T01:02:35Z</time></trkpt><trkpt lat="35.9650271" lon="139.1340366"><ele>725.81</ele><time>2023-07-15T01:02:51Z</time></trkpt><trkpt lat="35.9650858" lon="139.1338172"><ele>721.9566666666666</ele><time>2023-07-15T01:03:07Z</time></trkpt><trkpt lat="35.9651796" lon="139.1336208"><ele>718.7666666666668</ele><time>2023-07-15T01:03:25Z</time></trkpt><trkpt lat="35.9652066" lon="139.1333952"><ele>718.1333333333333</ele><time>2023-07-15T01:03:42Z</time></trkpt><trkpt lat="35.9653237" lon="139.1332043"><ele>714.9733333333334</ele><time>2023-07-15T01:05:13Z</time></trkpt><trkpt lat="35.9655259" lon="139.1332049"><ele>711.8133333333334</ele><time>2023-07-15T01:05:17Z</time></trkpt><trkpt lat="35.9656621" lon="139.1330589"><ele>707.4166666666666</ele><time>2023-07-15T01:05:35Z</time></trkpt><trkpt lat="35.9658067" lon="139.1329259"><ele>701.7066666666666</ele><time>2023-07-15T01:06:19Z</time></trkpt><trkpt lat="35.9659407" lon="139.1327768"><ele>695.8466666666667</ele><time>2023-07-15T01:06:43Z</time></trkpt><trkpt lat="35.9660392" lon="139.132589"><ele>689.1266666666667</ele><time>2023-07-15T01:07:02Z</time></trkpt><trkpt lat="35.9661338" lon="139.1323904"><ele>684.35</ele><time>2023-07-15T01:07:23Z</time></trkpt><trkpt lat="35.9662537" lon="139.1322173"><ele>681.06</ele><time>2023-07-15T01:07:52Z</time></trkpt><trkpt lat="35.9663441" lon="139.1320164"><ele>676.8133333333334</ele><time>2023-07-15T01:08:05Z</time></trkpt><trkpt lat="35.9665026" lon="139.1318864"><ele>674.0766666666667</ele><time>2023-07-15T01:08:21Z</time></trkpt><trkpt lat="35.9666192" lon="139.1317108"><ele>674.7833333333334</ele><time>2023-07-15T01:09:29Z</time></trkpt><trkpt lat="35.9667868" lon="139.131625"><ele>678.0366666666667</ele><time>2023-07-15T01:09:46Z</time></trkpt><trkpt lat="35.9669725" lon="139.1316074"><ele>680.1</ele><time>2023-07-15T01:10:24Z</time></trkpt><trkpt lat="35.9671447" lon="139.1315342"><ele>680.9033333333333</ele><time>2023-07-15T01:10:41Z</time></trkpt><trkpt lat="35.9672839" lon="139.131392"><ele>682.0833333333334</ele><time>2023-07-15T01:11:04Z</time></trkpt><trkpt lat="35.9674631" lon="139.1313602"><ele>684.2866666666665</ele><time>2023-07-15T01:11:22Z</time></trkpt><trkpt lat="35.9676425" lon="139.1313886"><ele>681.8266666666667</ele><time>2023-07-15T01:11:38Z</time></trkpt><trkpt lat="35.9678195" lon="139.131321"><ele>679.6500000000001</ele><time>2023-07-15T01:11:53Z</time></trkpt><trkpt lat="35.9680119" lon="139.1312986"><ele>677.0333333333333</ele><time>2023-07-15T01:12:40Z</time></trkpt><trkpt lat="35.9681989" lon="139.1312934"><ele>678.04</ele><time>2023-07-15T01:12:54Z</time></trkpt><trkpt lat="35.9683849" lon="139.131282"><ele>678.6766666666666</ele><time>2023-07-15T01:13:06Z</time></trkpt><trkpt lat="35.9685681" lon="139.1313051"><ele>676.41</ele><time>2023-07-15T01:13:22Z</time></trkpt><trkpt lat="35.9687464" lon="139.1312539"><ele>675.0033333333334</ele><time>2023-07-15T01:13:46Z</time></trkpt><trkpt lat="35.9689156" lon="139.1313424"><ele>670.8033333333334</ele><time>2023-07-15T01:14:14Z</time></trkpt><trkpt lat="35.9690842" lon="139.1314376"><ele>666.7966666666667</ele><time>2023-07-15T01:14:36Z</time></trkpt><trkpt lat="35.9692344" lon="139.1313108"><ele>661.6100000000001</ele><time>2023-07-15T01:16:03Z</time></trkpt><trkpt lat="35.9693532" lon="139.1311429"><ele>656.1566666666668</ele><time>2023-07-15T01:18:00Z</time></trkpt><trkpt lat="35.9693894" lon="139.1308762"><ele>649.3266666666667</ele><time>2023-07-15T01:19:37Z</time></trkpt><trkpt lat="35.9695066" lon="139.1307033"><ele>638.7133333333334</ele><time>2023-07-15T01:19:57Z</time></trkpt><trkpt lat="35.9696232" lon="139.1305314"><ele>627.2733333333333</ele><time>2023-07-15T01:20:33Z</time></trkpt><trkpt lat="35.9697511" lon="139.1303701"><ele>619.7466666666667</ele><time>2023-07-15T01:20:49Z</time></trkpt><trkpt lat="35.9698997" lon="139.1302331"><ele>617.0833333333334</ele><time>2023-07-15T01:21:02Z</time></trkpt><trkpt lat="35.9699935" lon="139.1300389"><ele>620.0133333333333</ele><time>2023-07-15T01:21:18Z</time></trkpt><trkpt lat="35.9701345" lon="139.1298972"><ele>625.1733333333333</ele><time>2023-07-15T01:22:04Z</time></trkpt><trkpt lat="35.9703006" lon="139.1297917"><ele>627.6500000000001</ele><time>2023-07-15T01:22:41Z</time></trkpt><trkpt lat="35.9704803" lon="139.1297476"><ele>624.3666666666667</ele><time>2023-07-15T01:22:55Z</time></trkpt><trkpt lat="35.970661" lon="139.1296847"><ele>616.7266666666666</ele><time>2023-07-15T01:24:08Z</time></trkpt><trkpt lat="35.9708665" lon="139.1297225"><ele>608.8933333333334</ele><time>2023-07-15T01:24:40Z</time></trkpt><trkpt lat="35.9710138" lon="139.1298583"><ele>599.8333333333334</ele><time>2023-07-15T01:26:30Z</time></trkpt><trkpt lat="35.9711739" lon="139.1299628"><ele>591.1700000000001</ele><time>2023-07-15T01:28:25Z</time></trkpt><trkpt lat="35.9713522" lon="139.1298947"><ele>586.12</ele><time>2023-07-15T01:30:01Z</time></trkpt><trkpt lat="35.9715189" lon="139.1299926"><ele>583.4866666666667</ele><time>2023-07-15T01:31:00Z</time></trkpt><trkpt lat="35.9716958" lon="139.130044"><ele>579.42</ele><time>2023-07-15T01:31:21Z</time></trkpt><trkpt lat="35.9717774" lon="139.1302461"><ele>568.9366666666666</ele><time>2023-07-15T01:33:28Z</time></trkpt><trkpt lat="35.9719463" lon="139.1303467"><ele>554.2600000000001</ele><time>2023-07-15T01:34:19Z</time></trkpt><trkpt lat="35.9720386" lon="139.1305388"><ele>538.8000000000001</ele><time>2023-07-15T01:35:40Z</time></trkpt><trkpt lat="35.9719987" lon="139.1307587"><ele>524.4066666666666</ele><time>2023-07-15T01:36:27Z</time></trkpt><trkpt lat="35.9721653" lon="139.13086"><ele>514.3066666666667</ele><time>2023-07-15T01:36:58Z</time></trkpt><trkpt lat="35.9723227" lon="139.1309712"><ele>509.02333333333337</ele><time>2023-07-15T01:37:28Z</time></trkpt><trkpt lat="35.972409" lon="139.1311764"><ele>505.43666666666667</ele><time>2023-07-15T01:37:41Z</time></trkpt><trkpt lat="35.9725567" lon="139.1313099"><ele>499.5733333333333</ele><time>2023-07-15T01:38:28Z</time></trkpt><trkpt lat="35.9727372" lon="139.1313189"><ele>492.3833333333334</ele><time>2023-07-15T01:39:31Z</time></trkpt><trkpt lat="35.9728657" lon="139.1314952"><ele>485.3233333333333</ele><time>2023-07-15T01:39:50Z</time></trkpt><trkpt lat="35.9730201" lon="139.1316243"><ele>479.93666666666667</ele><time>2023-07-15T01:40:10Z</time></trkpt><trkpt lat="35.9731774" lon="139.1317333"><ele>472.33</ele><time>2023-07-15T01:40:47Z</time></trkpt><trkpt lat="35.9733067" lon="139.1315772"><ele>465.03999999999996</ele><time>2023-07-15T01:42:29Z</time></trkpt><trkpt lat="35.9733851" lon="139.131376"><ele>456.14333333333326</ele><time>2023-07-15T01:42:46Z</time></trkpt><trkpt lat="35.9734179" lon="139.1311577"><ele>446.7633333333333</ele><time>2023-07-15T01:43:26Z</time></trkpt><trkpt lat="35.973508" lon="139.1313503"><ele>437.51666666666665</ele><time>2023-07-15T01:45:01Z</time></trkpt><trkpt lat="35.973686" lon="139.1312805"><ele>427.6933333333333</ele><time>2023-07-15T01:45:18Z</time></trkpt><trkpt lat="35.9738592" lon="139.1313528"><ele>418.0</ele><time>2023-07-15T01:45:33Z</time></trkpt><trkpt lat="35.9740374" lon="139.1314233"><ele>408.08666666666664</ele><time>2023-07-15T01:45:51Z</time></trkpt><trkpt lat="35.9742133" lon="139.1314767"><ele>398.48333333333335</ele><time>2023-07-15T01:46:31Z</time></trkpt><trkpt lat="35.9743574" lon="139.131342"><ele>388.42</ele><time>2023-07-15T01:46:57Z</time></trkpt><trkpt lat="35.9744503" lon="139.1315349"><ele>379.0133333333333</ele><time>2023-07-15T01:47:22Z</time></trkpt><trkpt lat="35.9744202" lon="139.1317544"><ele>374.95</ele><time>2023-07-15T01:49:03Z</time></trkpt><trkpt lat="35.9745942" lon="139.1318193"><ele>371.2166666666667</ele><time>2023-07-15T01:49:27Z</time></trkpt><trkpt lat="35.9747702" lon="139.1318696"><ele>363.58</ele><time>2023-07-15T01:50:36Z</time></trkpt><trkpt lat="35.9749003" lon="139.1320269"><ele>351.41</ele><time>2023-07-15T01:51:01Z</time></trkpt><trkpt lat="35.9749488" lon="139.1322407"><ele>345.19</ele><time>2023-07-15T01:52:13Z</time></trkpt><trkpt lat="35.975156" lon="139.1321953"><ele>336.62666666666667</ele><time>2023-07-15T01:52:40Z</time></trkpt><trkpt lat="35.9753334" lon="139.1322372"><ele>330.5933333333333</ele><time>2023-07-15T01:52:51Z</time></trkpt><trkpt lat="35.9753797" lon="139.1320223"><ele>321.2633333333333</ele><time>2023-07-15T01:53:01Z</time></trkpt><trkpt lat="35.9754072" lon="139.1317991"><ele>323.28666666666663</ele><time>2023-07-15T01:53:52Z</time></trkpt><trkpt lat="35.9754912" lon="139.131999"><ele>322.22999999999996</ele><time>2023-07-15T01:54:36Z</time></trkpt><trkpt lat="35.9756728" lon="139.1319889"><ele>322.08</ele><time>2023-07-15T01:56:08Z</time></trkpt><trkpt lat="35.9758357" lon="139.1318888"><ele>316.60666666666674</ele><time>2023-07-15T01:56:21Z</time></trkpt><trkpt lat="35.9759779" lon="139.1317491"><ele>314.99333333333334</ele><time>2023-07-15T01:56:48Z</time></trkpt><trkpt lat="35.9760758" lon="139.13156"><ele>313.22333333333336</ele><time>2023-07-15T01:57:01Z</time></trkpt><trkpt lat="35.9762103" lon="139.1313953"><ele>312.21666666666664</ele><time>2023-07-15T01:57:17Z</time></trkpt><trkpt lat="35.9763992" lon="139.1313956"><ele>311.21666666666664</ele><time>2023-07-15T01:57:41Z</time></trkpt><trkpt lat="35.9765851" lon="139.1314385"><ele>310.49</ele><time>2023-07-15T01:57:51Z</time></trkpt><trkpt lat="35.9767673" lon="139.1315323"><ele>311.5733333333333</ele><time>2023-07-15T01:58:04Z</time></trkpt><trkpt lat="35.976928" lon="139.1316417"><ele>314.78000000000003</ele><time>2023-07-15T01:58:19Z</time></trkpt><trkpt lat="35.9771031" lon="139.1317575"><ele>317.75333333333333</ele><time>2023-07-15T01:58:34Z</time></trkpt><trkpt lat="35.9772429" lon="139.1318993"><ele>317.61333333333334</ele><time>2023-07-15T01:58:49Z</time></trkpt><trkpt lat="35.9772349" lon="139.1321274"><ele>317.60333333333335</ele><time>2023-07-15T01:59:08Z</time></trkpt><trkpt lat="35.9772502" lon="139.1323937"><ele>315.24333333333334</ele><time>2023-07-15T01:59:23Z</time></trkpt><trkpt lat="35.9772479" lon="139.1326208"><ele>312.8533333333333</ele><time>2023-07-15T01:59:37Z</time></trkpt><trkpt lat="35.9771802" lon="139.1328403"><ele>306.55333333333334</ele><time>2023-07-15T01:59:52Z</time></trkpt><trkpt lat="35.9770625" lon="139.1330097"><ele>302.4066666666667</ele><time>2023-07-15T02:00:05Z</time></trkpt><trkpt lat="35.9768833" lon="139.1330471"><ele>302.04</ele><time>2023-07-15T02:00:22Z</time></trkpt><trkpt lat="35.976718" lon="139.1331358"><ele>302.9433333333334</ele><time>2023-07-15T02:00:33Z</time></trkpt><trkpt lat="35.9765801" lon="139.1332816"><ele>303.77</ele><time>2023-07-15T02:00:50Z</time></trkpt><trkpt lat="35.9764051" lon="139.1333503"><ele>304.3933333333334</ele><time>2023-07-15T02:01:02Z</time></trkpt><trkpt lat="35.9763964" lon="139.1336018"><ele>305.33</ele><time>2023-07-15T02:01:19Z</time></trkpt><trkpt lat="35.9764498" lon="139.1338227"><ele>305.78666666666663</ele><time>2023-07-15T02:01:28Z</time></trkpt><trkpt lat="35.9765146" lon="139.134051"><ele>304.3066666666667</ele><time>2023-07-15T02:01:43Z</time></trkpt><trkpt lat="35.9765258" lon="139.1342855"><ele>303.3</ele><time>2023-07-15T02:01:58Z</time></trkpt></trkseg></trk></gpx>