<?xml version='1.0' encoding='UTF-8'?><gpx creator="YAMAP - https://yamap.com" xsi:schemaLocation="http://www.topografix.com/GPX/1/1 http://www.topografix.com/GPX/1/1/gpx.xsd" version="1.1" xmlns="http://www.topografix.com/GPX/1/1" xmlns:xsi="http://www.w3.org/2001/XMLSchema-instance"><metadata><bounds maxlat="35.6364944" maxlon="138.8843631" minlat="35.5947694" minlon="138.8269598"/></metadata><trk><name>滝子山</name><number>1</number><trkseg><trkpt lat="35.6042357" lon="138.8269598"><ele>599.86</ele><time>2025-08-08T23:43:14Z</time></trkpt><trkpt lat="35.6042936" lon="138.8271789"><ele>599.185</ele><time>2025-08-08T23:43:43Z</time></trkpt><trkpt lat="35.6043312" lon="138.8274074"><ele>598.6133333333333</ele><time>2025-08-08T23:44:33Z</time></trkpt><trkpt lat="35.6043205" lon="138.82767"><ele>597.5033333333333</ele><time>2025-08-08T23:45:00Z</time></trkpt><trkpt lat="35.6043024" lon="138.8279059"><ele>596.6533333333333</ele><time>2025-08-08T23:45:15Z</time></trkpt><trkpt lat="35.6043576" lon="138.8281442"><ele>595.5866666666667</ele><time>2025-08-08T23:45:42Z</time></trkpt><trkpt lat="35.6043458" lon="138.8283936"><ele>594.8966666666666</ele><time>2025-08-08T23:46:00Z</time></trkpt><trkpt lat="35.604292" lon="138.8286169"><ele>594.1533333333333</ele><time>2025-08-08T23:46:18Z</time></trkpt><trkpt lat="35.6042357" lon="138.82883"><ele>593.8266666666667</ele><time>2025-08-08T23:46:30Z</time></trkpt><trkpt lat="35.6042662" lon="138.8290883"><ele>592.8033333333333</ele><time>2025-08-08T23:46:42Z</time></trkpt><trkpt lat="35.6042397" lon="138.8293369"><ele>591.84</ele><time>2025-08-08T23:46:56Z</time></trkpt><trkpt lat="35.6042375" lon="138.8295618"><ele>591.04</ele><time>2025-08-08T23:47:08Z</time></trkpt><trkpt lat="35.6042268" lon="138.8297951"><ele>590.9433333333333</ele><time>2025-08-08T23:47:23Z</time></trkpt><trkpt lat="35.6042023" lon="138.8300417"><ele>591.2766666666666</ele><time>2025-08-08T23:47:38Z</time></trkpt><trkpt lat="35.6041821" lon="138.8302614"><ele>591.61</ele><time>2025-08-08T23:47:56Z</time></trkpt><trkpt lat="35.6042106" lon="138.8304825"><ele>591.2966666666666</ele><time>2025-08-08T23:48:08Z</time></trkpt><trkpt lat="35.604296" lon="138.8306938"><ele>589.78</ele><time>2025-08-08T23:48:23Z</time></trkpt><trkpt lat="35.6043343" lon="138.8309446"><ele>587.4799999999999</ele><time>2025-08-08T23:48:38Z</time></trkpt><trkpt lat="35.6043047" lon="138.8312006"><ele>585.6466666666666</ele><time>2025-08-08T23:48:53Z</time></trkpt><trkpt lat="35.6042727" lon="138.8314225"><ele>585.0433333333334</ele><time>2025-08-08T23:49:06Z</time></trkpt><trkpt lat="35.6043099" lon="138.8316624"><ele>585.0799999999999</ele><time>2025-08-08T23:49:22Z</time></trkpt><trkpt lat="35.6043741" lon="138.8318731"><ele>585.1633333333333</ele><time>2025-08-08T23:49:36Z</time></trkpt><trkpt lat="35.6044821" lon="138.8320683"><ele>584.8033333333333</ele><time>2025-08-08T23:49:54Z</time></trkpt><trkpt lat="35.6045689" lon="138.8322622"><ele>583.59</ele><time>2025-08-08T23:50:06Z</time></trkpt><trkpt lat="35.6046772" lon="138.832448"><ele>582.0766666666667</ele><time>2025-08-08T23:50:18Z</time></trkpt><trkpt lat="35.604767" lon="138.8326885"><ele>580.85</ele><time>2025-08-08T23:50:36Z</time></trkpt><trkpt lat="35.604872" lon="138.8328773"><ele>580.6300000000001</ele><time>2025-08-08T23:50:48Z</time></trkpt><trkpt lat="35.604958" lon="138.8330823"><ele>580.9266666666666</ele><time>2025-08-08T23:51:03Z</time></trkpt><trkpt lat="35.6050235" lon="138.8333125"><ele>581.0633333333334</ele><time>2025-08-08T23:51:17Z</time></trkpt><trkpt lat="35.6050042" lon="138.8335415"><ele>580.5966666666667</ele><time>2025-08-08T23:51:32Z</time></trkpt><trkpt lat="35.6050592" lon="138.8338134"><ele>579.7766666666666</ele><time>2025-08-08T23:51:47Z</time></trkpt><trkpt lat="35.6050386" lon="138.8340509"><ele>578.6566666666666</ele><time>2025-08-08T23:52:02Z</time></trkpt><trkpt lat="35.6050463" lon="138.8342887"><ele>578.1500000000001</ele><time>2025-08-08T23:52:16Z</time></trkpt><trkpt lat="35.6050568" lon="138.8345421"><ele>577.52</ele><time>2025-08-08T23:52:31Z</time></trkpt><trkpt lat="35.6050793" lon="138.8348056"><ele>576.9433333333333</ele><time>2025-08-08T23:52:46Z</time></trkpt><trkpt lat="35.6050811" lon="138.8350488"><ele>576.0699999999999</ele><time>2025-08-08T23:53:01Z</time></trkpt><trkpt lat="35.6051167" lon="138.835284"><ele>575.5433333333334</ele><time>2025-08-08T23:53:16Z</time></trkpt><trkpt lat="35.6051005" lon="138.8355359"><ele>574.7666666666668</ele><time>2025-08-08T23:53:34Z</time></trkpt><trkpt lat="35.6051188" lon="138.8358014"><ele>574.4933333333333</ele><time>2025-08-08T23:53:48Z</time></trkpt><trkpt lat="35.6051719" lon="138.8360479"><ele>574.1566666666668</ele><time>2025-08-08T23:54:03Z</time></trkpt><trkpt lat="35.6051525" lon="138.8362708"><ele>574.4500000000002</ele><time>2025-08-08T23:54:14Z</time></trkpt><trkpt lat="35.6051517" lon="138.8365054"><ele>574.5466666666667</ele><time>2025-08-08T23:54:26Z</time></trkpt><trkpt lat="35.6051559" lon="138.8367281"><ele>574.4900000000001</ele><time>2025-08-08T23:54:41Z</time></trkpt><trkpt lat="35.6051671" lon="138.8369534"><ele>573.7600000000001</ele><time>2025-08-08T23:54:52Z</time></trkpt><trkpt lat="35.6051629" lon="138.8372094"><ele>573.0333333333333</ele><time>2025-08-08T23:55:07Z</time></trkpt><trkpt lat="35.6051526" lon="138.8374624"><ele>572.6866666666666</ele><time>2025-08-08T23:55:21Z</time></trkpt><trkpt lat="35.6051038" lon="138.837736"><ele>572.7733333333334</ele><time>2025-08-08T23:55:36Z</time></trkpt><trkpt lat="35.6050679" lon="138.8379563"><ele>572.9733333333334</ele><time>2025-08-08T23:55:51Z</time></trkpt><trkpt lat="35.6050316" lon="138.8382263"><ele>572.57</ele><time>2025-08-08T23:56:06Z</time></trkpt><trkpt lat="35.6049472" lon="138.8384374"><ele>571.2966666666666</ele><time>2025-08-08T23:56:21Z</time></trkpt><trkpt lat="35.6049123" lon="138.8386781"><ele>569.7966666666666</ele><time>2025-08-08T23:56:36Z</time></trkpt><trkpt lat="35.6048969" lon="138.8389365"><ele>568.5366666666667</ele><time>2025-08-08T23:56:51Z</time></trkpt><trkpt lat="35.6048134" lon="138.8391723"><ele>568.0933333333334</ele><time>2025-08-08T23:57:05Z</time></trkpt><trkpt lat="35.6047114" lon="138.8393874"><ele>567.5400000000001</ele><time>2025-08-08T23:57:17Z</time></trkpt><trkpt lat="35.6046054" lon="138.8396171"><ele>566.51</ele><time>2025-08-08T23:57:32Z</time></trkpt><trkpt lat="35.6045033" lon="138.8398608"><ele>565.5733333333334</ele><time>2025-08-08T23:57:50Z</time></trkpt><trkpt lat="35.60436" lon="138.8400406"><ele>564.3333333333334</ele><time>2025-08-08T23:58:02Z</time></trkpt><trkpt lat="35.6042115" lon="138.8401936"><ele>563.2066666666666</ele><time>2025-08-08T23:58:17Z</time></trkpt><trkpt lat="35.6040898" lon="138.8403746"><ele>562.0366666666667</ele><time>2025-08-08T23:58:32Z</time></trkpt><trkpt lat="35.6041017" lon="138.8406073"><ele>562.1800000000001</ele><time>2025-08-08T23:59:03Z</time></trkpt><trkpt lat="35.6041748" lon="138.8408128"><ele>562.9966666666668</ele><time>2025-08-08T23:59:15Z</time></trkpt><trkpt lat="35.6042846" lon="138.8409917"><ele>564.3033333333334</ele><time>2025-08-08T23:59:30Z</time></trkpt><trkpt lat="35.6044321" lon="138.8411737"><ele>565.0966666666667</ele><time>2025-08-08T23:59:46Z</time></trkpt><trkpt lat="35.6045329" lon="138.8413758"><ele>566.22</ele><time>2025-08-09T00:00:01Z</time></trkpt><trkpt lat="35.6046082" lon="138.8415954"><ele>567.3933333333334</ele><time>2025-08-09T00:00:19Z</time></trkpt><trkpt lat="35.6044632" lon="138.8417875"><ele>568.3666666666667</ele><time>2025-08-09T00:00:36Z</time></trkpt><trkpt lat="35.6043115" lon="138.8419416"><ele>568.7766666666668</ele><time>2025-08-09T00:00:48Z</time></trkpt><trkpt lat="35.6041639" lon="138.8420848"><ele>568.8733333333333</ele><time>2025-08-09T00:01:03Z</time></trkpt><trkpt lat="35.6039494" lon="138.8421343"><ele>568.6966666666666</ele><time>2025-08-09T00:01:22Z</time></trkpt><trkpt lat="35.603763" lon="138.8422159"><ele>568.55</ele><time>2025-08-09T00:01:37Z</time></trkpt><trkpt lat="35.6036383" lon="138.8423995"><ele>568.5466666666666</ele><time>2025-08-09T00:01:52Z</time></trkpt><trkpt lat="35.6036039" lon="138.8426531"><ele>569.4366666666666</ele><time>2025-08-09T00:02:09Z</time></trkpt><trkpt lat="35.6035159" lon="138.8428584"><ele>570.8233333333333</ele><time>2025-08-09T00:02:27Z</time></trkpt><trkpt lat="35.6034004" lon="138.8430607"><ele>572.21</ele><time>2025-08-09T00:02:45Z</time></trkpt><trkpt lat="35.6033812" lon="138.8432911"><ele>573.54</ele><time>2025-08-09T00:02:58Z</time></trkpt><trkpt lat="35.6033871" lon="138.8435328"><ele>574.7333333333333</ele><time>2025-08-09T00:03:12Z</time></trkpt><trkpt lat="35.6033767" lon="138.8437694"><ele>576.0733333333334</ele><time>2025-08-09T00:03:28Z</time></trkpt><trkpt lat="35.6033733" lon="138.8440052"><ele>576.8566666666667</ele><time>2025-08-09T00:03:42Z</time></trkpt><trkpt lat="35.603385" lon="138.8442584"><ele>577.4266666666667</ele><time>2025-08-09T00:03:58Z</time></trkpt><trkpt lat="35.6034176" lon="138.8445082"><ele>577.77</ele><time>2025-08-09T00:04:16Z</time></trkpt><trkpt lat="35.6034993" lon="138.8447401"><ele>578.7466666666666</ele><time>2025-08-09T00:04:30Z</time></trkpt><trkpt lat="35.6036714" lon="138.844822"><ele>580.66</ele><time>2025-08-09T00:04:52Z</time></trkpt><trkpt lat="35.6038768" lon="138.8448121"><ele>583.2400000000001</ele><time>2025-08-09T00:05:09Z</time></trkpt><trkpt lat="35.6040727" lon="138.8448667"><ele>585.7766666666666</ele><time>2025-08-09T00:05:24Z</time></trkpt><trkpt lat="35.6042656" lon="138.844957"><ele>588.0033333333334</ele><time>2025-08-09T00:05:46Z</time></trkpt><trkpt lat="35.6044522" lon="138.8450162"><ele>590.33</ele><time>2025-08-09T00:06:07Z</time></trkpt><trkpt lat="35.6046369" lon="138.8451075"><ele>592.82</ele><time>2025-08-09T00:06:28Z</time></trkpt><trkpt lat="35.6048189" lon="138.8452179"><ele>595.51</ele><time>2025-08-09T00:06:45Z</time></trkpt><trkpt lat="35.6049732" lon="138.8453605"><ele>598.27</ele><time>2025-08-09T00:07:07Z</time></trkpt><trkpt lat="35.6051857" lon="138.8454055"><ele>600.23</ele><time>2025-08-09T00:07:27Z</time></trkpt><trkpt lat="35.6053802" lon="138.845417"><ele>600.6166666666667</ele><time>2025-08-09T00:07:43Z</time></trkpt><trkpt lat="35.6055703" lon="138.8454373"><ele>599.6466666666666</ele><time>2025-08-09T00:07:58Z</time></trkpt><trkpt lat="35.6057535" lon="138.8455056"><ele>600.0366666666667</ele><time>2025-08-09T00:08:15Z</time></trkpt><trkpt lat="35.6059117" lon="138.8456495"><ele>601.8166666666667</ele><time>2025-08-09T00:08:34Z</time></trkpt><trkpt lat="35.6061112" lon="138.8457245"><ele>606.1733333333333</ele><time>2025-08-09T00:08:54Z</time></trkpt><trkpt lat="35.6063244" lon="138.8456373"><ele>610.7266666666667</ele><time>2025-08-09T00:09:12Z</time></trkpt><trkpt lat="35.6065012" lon="138.8455344"><ele>615.75</ele><time>2025-08-09T00:09:28Z</time></trkpt><trkpt lat="35.6067218" lon="138.8455457"><ele>618.79</ele><time>2025-08-09T00:10:07Z</time></trkpt><trkpt lat="35.6069058" lon="138.8454801"><ele>620.2166666666667</ele><time>2025-08-09T00:10:34Z</time></trkpt><trkpt lat="35.6071115" lon="138.8454131"><ele>620.9333333333334</ele><time>2025-08-09T00:10:51Z</time></trkpt><trkpt lat="35.607283" lon="138.845301"><ele>622.0966666666667</ele><time>2025-08-09T00:11:12Z</time></trkpt><trkpt lat="35.6074361" lon="138.845159"><ele>623.92</ele><time>2025-08-09T00:11:31Z</time></trkpt><trkpt lat="35.6076051" lon="138.8450377"><ele>626.5633333333334</ele><time>2025-08-09T00:11:48Z</time></trkpt><trkpt lat="35.6078" lon="138.8451488"><ele>627.2966666666667</ele><time>2025-08-09T00:12:06Z</time></trkpt><trkpt lat="35.6079786" lon="138.8452211"><ele>629.6133333333333</ele><time>2025-08-09T00:12:21Z</time></trkpt><trkpt lat="35.6081779" lon="138.8451267"><ele>631.7966666666666</ele><time>2025-08-09T00:12:42Z</time></trkpt><trkpt lat="35.6083221" lon="138.8449731"><ele>636.26</ele><time>2025-08-09T00:13:00Z</time></trkpt><trkpt lat="35.6084753" lon="138.8448417"><ele>640.0833333333334</ele><time>2025-08-09T00:13:15Z</time></trkpt><trkpt lat="35.6086616" lon="138.84473"><ele>643.16</ele><time>2025-08-09T00:13:33Z</time></trkpt><trkpt lat="35.6088367" lon="138.8446396"><ele>646.2033333333334</ele><time>2025-08-09T00:17:22Z</time></trkpt><trkpt lat="35.6090185" lon="138.8446419"><ele>648.91</ele><time>2025-08-09T00:18:06Z</time></trkpt><trkpt lat="35.6091999" lon="138.8445661"><ele>651.0033333333332</ele><time>2025-08-09T00:18:27Z</time></trkpt><trkpt lat="35.6094086" lon="138.8445618"><ele>654.34</ele><time>2025-08-09T00:18:48Z</time></trkpt><trkpt lat="35.6095892" lon="138.844572"><ele>657.1066666666667</ele><time>2025-08-09T00:19:06Z</time></trkpt><trkpt lat="35.6097911" lon="138.844586"><ele>661.9466666666666</ele><time>2025-08-09T00:19:24Z</time></trkpt><trkpt lat="35.6099637" lon="138.8445179"><ele>666.2966666666666</ele><time>2025-08-09T00:19:41Z</time></trkpt><trkpt lat="35.6101004" lon="138.8443425"><ele>669.9699999999999</ele><time>2025-08-09T00:19:58Z</time></trkpt><trkpt lat="35.6102251" lon="138.8445106"><ele>673.0433333333334</ele><time>2025-08-09T00:20:19Z</time></trkpt><trkpt lat="35.6102269" lon="138.8447851"><ele>674.8933333333333</ele><time>2025-08-09T00:20:36Z</time></trkpt><trkpt lat="35.6102005" lon="138.8450175"><ele>675.9633333333333</ele><time>2025-08-09T00:20:57Z</time></trkpt><trkpt lat="35.6102627" lon="138.8452782"><ele>677.2133333333333</ele><time>2025-08-09T00:21:11Z</time></trkpt><trkpt lat="35.610465" lon="138.8452454"><ele>679.6066666666667</ele><time>2025-08-09T00:21:31Z</time></trkpt><trkpt lat="35.6105579" lon="138.845039"><ele>683.3666666666667</ele><time>2025-08-09T00:21:51Z</time></trkpt><trkpt lat="35.6106808" lon="138.8448677"><ele>686.0100000000001</ele><time>2025-08-09T00:22:05Z</time></trkpt><trkpt lat="35.6108531" lon="138.8447677"><ele>689.4333333333334</ele><time>2025-08-09T00:22:23Z</time></trkpt><trkpt lat="35.6110484" lon="138.8446995"><ele>692.7233333333334</ele><time>2025-08-09T00:22:40Z</time></trkpt><trkpt lat="35.6112235" lon="138.8445486"><ele>695.4</ele><time>2025-08-09T00:22:56Z</time></trkpt><trkpt lat="35.6113845" lon="138.8443986"><ele>695.5633333333334</ele><time>2025-08-09T00:23:08Z</time></trkpt><trkpt lat="35.6114928" lon="138.8442148"><ele>695.4466666666667</ele><time>2025-08-09T00:23:20Z</time></trkpt><trkpt lat="35.6114742" lon="138.8439706"><ele>695.0833333333334</ele><time>2025-08-09T00:23:32Z</time></trkpt><trkpt lat="35.6114813" lon="138.8437251"><ele>694.3966666666666</ele><time>2025-08-09T00:23:47Z</time></trkpt><trkpt lat="35.6115853" lon="138.843513"><ele>693.7033333333333</ele><time>2025-08-09T00:24:18Z</time></trkpt><trkpt lat="35.6115895" lon="138.8432875"><ele>693.16</ele><time>2025-08-09T00:24:27Z</time></trkpt><trkpt lat="35.6116558" lon="138.843043"><ele>692.5300000000001</ele><time>2025-08-09T00:24:46Z</time></trkpt><trkpt lat="35.611809" lon="138.842889"><ele>692.2933333333334</ele><time>2025-08-09T00:25:04Z</time></trkpt><trkpt lat="35.6119139" lon="138.8426888"><ele>693.5133333333333</ele><time>2025-08-09T00:25:24Z</time></trkpt><trkpt lat="35.6120492" lon="138.8425115"><ele>697.9633333333333</ele><time>2025-08-09T00:25:42Z</time></trkpt><trkpt lat="35.6121161" lon="138.8422806"><ele>702.1233333333333</ele><time>2025-08-09T00:25:57Z</time></trkpt><trkpt lat="35.6122498" lon="138.8420928"><ele>707.7800000000001</ele><time>2025-08-09T00:26:19Z</time></trkpt><trkpt lat="35.6123776" lon="138.8419326"><ele>712.34</ele><time>2025-08-09T00:26:37Z</time></trkpt><trkpt lat="35.6125271" lon="138.841757"><ele>716.9266666666666</ele><time>2025-08-09T00:26:58Z</time></trkpt><trkpt lat="35.6126778" lon="138.8415584"><ele>718.44</ele><time>2025-08-09T00:27:15Z</time></trkpt><trkpt lat="35.6127986" lon="138.8413675"><ele>718.66</ele><time>2025-08-09T00:27:36Z</time></trkpt><trkpt lat="35.6129125" lon="138.8411704"><ele>720.2866666666667</ele><time>2025-08-09T00:27:56Z</time></trkpt><trkpt lat="35.6130611" lon="138.8409659"><ele>723.5133333333333</ele><time>2025-08-09T00:28:12Z</time></trkpt><trkpt lat="35.6131112" lon="138.8407488"><ele>726.8233333333333</ele><time>2025-08-09T00:28:24Z</time></trkpt><trkpt lat="35.6131562" lon="138.8404799"><ele>729.4833333333335</ele><time>2025-08-09T00:28:41Z</time></trkpt><trkpt lat="35.6131914" lon="138.8402507"><ele>730.8033333333333</ele><time>2025-08-09T00:28:55Z</time></trkpt><trkpt lat="35.6132022" lon="138.8400189"><ele>731.2433333333333</ele><time>2025-08-09T00:29:10Z</time></trkpt><trkpt lat="35.613256" lon="138.8397923"><ele>732.2433333333333</ele><time>2025-08-09T00:29:27Z</time></trkpt><trkpt lat="35.6132277" lon="138.8395233"><ele>733.64</ele><time>2025-08-09T00:29:46Z</time></trkpt><trkpt lat="35.6131989" lon="138.8392645"><ele>733.3233333333334</ele><time>2025-08-09T00:30:04Z</time></trkpt><trkpt lat="35.6132127" lon="138.839035"><ele>732.1866666666668</ele><time>2025-08-09T00:30:28Z</time></trkpt><trkpt lat="35.6132103" lon="138.838806"><ele>731.4066666666668</ele><time>2025-08-09T00:30:44Z</time></trkpt><trkpt lat="35.6132483" lon="138.8385484"><ele>734.2566666666667</ele><time>2025-08-09T00:31:02Z</time></trkpt><trkpt lat="35.6133049" lon="138.8383335"><ele>738.3033333333334</ele><time>2025-08-09T00:31:17Z</time></trkpt><trkpt lat="35.613407" lon="138.838139"><ele>742.9200000000001</ele><time>2025-08-09T00:31:38Z</time></trkpt><trkpt lat="35.6135614" lon="138.8380132"><ele>744.0799999999999</ele><time>2025-08-09T00:31:52Z</time></trkpt><trkpt lat="35.6136782" lon="138.8378049"><ele>745.4200000000001</ele><time>2025-08-09T00:32:10Z</time></trkpt><trkpt lat="35.6138356" lon="138.8376301"><ele>746.3866666666668</ele><time>2025-08-09T00:32:27Z</time></trkpt><trkpt lat="35.6139439" lon="138.8374236"><ele>750.2066666666666</ele><time>2025-08-09T00:32:42Z</time></trkpt><trkpt lat="35.6140659" lon="138.8372443"><ele>752.7066666666668</ele><time>2025-08-09T00:32:58Z</time></trkpt><trkpt lat="35.6141621" lon="138.8370267"><ele>756.86</ele><time>2025-08-09T00:33:16Z</time></trkpt><trkpt lat="35.6143037" lon="138.8368269"><ele>760.96</ele><time>2025-08-09T00:33:34Z</time></trkpt><trkpt lat="35.6144338" lon="138.8366277"><ele>767.0133333333333</ele><time>2025-08-09T00:33:48Z</time></trkpt><trkpt lat="35.614584" lon="138.8364908"><ele>769.9233333333333</ele><time>2025-08-09T00:34:06Z</time></trkpt><trkpt lat="35.61479" lon="138.8364498"><ele>770.0866666666667</ele><time>2025-08-09T00:34:23Z</time></trkpt><trkpt lat="35.6149763" lon="138.8364207"><ele>765.5866666666667</ele><time>2025-08-09T00:34:40Z</time></trkpt><trkpt lat="35.6151313" lon="138.8362159"><ele>763.5866666666667</ele><time>2025-08-09T00:35:08Z</time></trkpt><trkpt lat="35.6152728" lon="138.8360356"><ele>765.57</ele><time>2025-08-09T00:35:31Z</time></trkpt><trkpt lat="35.615452" lon="138.8358992"><ele>771.0433333333334</ele><time>2025-08-09T00:35:46Z</time></trkpt><trkpt lat="35.6156677" lon="138.835828"><ele>775.2266666666668</ele><time>2025-08-09T00:36:23Z</time></trkpt><trkpt lat="35.615849" lon="138.8358204"><ele>776.9266666666666</ele><time>2025-08-09T00:36:38Z</time></trkpt><trkpt lat="35.6160263" lon="138.835686"><ele>778.98</ele><time>2025-08-09T00:37:02Z</time></trkpt><trkpt lat="35.6161817" lon="138.8355476"><ele>781.0366666666667</ele><time>2025-08-09T00:37:20Z</time></trkpt><trkpt lat="35.6163445" lon="138.8353839"><ele>784.9766666666666</ele><time>2025-08-09T00:37:41Z</time></trkpt><trkpt lat="35.6164832" lon="138.8352025"><ele>787.81</ele><time>2025-08-09T00:37:58Z</time></trkpt><trkpt lat="35.6166345" lon="138.8350659"><ele>790.0233333333334</ele><time>2025-08-09T00:38:16Z</time></trkpt><trkpt lat="35.6167603" lon="138.8348829"><ele>791.8366666666667</ele><time>2025-08-09T00:38:38Z</time></trkpt><trkpt lat="35.616859" lon="138.8346795"><ele>792.9433333333333</ele><time>2025-08-09T00:38:55Z</time></trkpt><trkpt lat="35.6169186" lon="138.8344586"><ele>795.6066666666667</ele><time>2025-08-09T00:39:17Z</time></trkpt><trkpt lat="35.6170946" lon="138.8344073"><ele>795.7266666666668</ele><time>2025-08-09T00:40:14Z</time></trkpt><trkpt lat="35.6172461" lon="138.8342326"><ele>795.4266666666666</ele><time>2025-08-09T00:40:35Z</time></trkpt><trkpt lat="35.6173857" lon="138.8340896"><ele>793.8333333333334</ele><time>2025-08-09T00:41:05Z</time></trkpt><trkpt lat="35.6175813" lon="138.8340155"><ele>794.0933333333332</ele><time>2025-08-09T00:42:04Z</time></trkpt><trkpt lat="35.6177642" lon="138.8340565"><ele>798.5466666666667</ele><time>2025-08-09T00:42:32Z</time></trkpt><trkpt lat="35.617965" lon="138.8342442"><ele>805.65</ele><time>2025-08-09T00:42:55Z</time></trkpt><trkpt lat="35.6179023" lon="138.834022"><ele>812.3466666666667</ele><time>2025-08-09T00:43:19Z</time></trkpt><trkpt lat="35.6179685" lon="138.8337841"><ele>816.6199999999999</ele><time>2025-08-09T00:43:45Z</time></trkpt><trkpt lat="35.6180854" lon="138.8336036"><ele>818.62</ele><time>2025-08-09T00:44:04Z</time></trkpt><trkpt lat="35.618214" lon="138.833424"><ele>822.3733333333333</ele><time>2025-08-09T00:44:29Z</time></trkpt><trkpt lat="35.6183488" lon="138.8332522"><ele>826.2166666666667</ele><time>2025-08-09T00:44:49Z</time></trkpt><trkpt lat="35.6184637" lon="138.8330503"><ele>830.86</ele><time>2025-08-09T00:45:18Z</time></trkpt><trkpt lat="35.6186212" lon="138.8328932"><ele>834.5600000000001</ele><time>2025-08-09T00:45:40Z</time></trkpt><trkpt lat="35.6187992" lon="138.8328165"><ele>840.9666666666667</ele><time>2025-08-09T00:46:04Z</time></trkpt><trkpt lat="35.6189405" lon="138.8326596"><ele>845.5233333333332</ele><time>2025-08-09T00:46:23Z</time></trkpt><trkpt lat="35.618924" lon="138.8324057"><ele>850.23</ele><time>2025-08-09T00:46:55Z</time></trkpt><trkpt lat="35.6189828" lon="138.8321846"><ele>852.71</ele><time>2025-08-09T00:47:23Z</time></trkpt><trkpt lat="35.6190827" lon="138.8319956"><ele>857.3733333333333</ele><time>2025-08-09T00:47:53Z</time></trkpt><trkpt lat="35.6192476" lon="138.8318638"><ele>863.1933333333333</ele><time>2025-08-09T00:48:26Z</time></trkpt><trkpt lat="35.6194203" lon="138.8317744"><ele>869.4699999999999</ele><time>2025-08-09T00:48:52Z</time></trkpt><trkpt lat="35.6195651" lon="138.8316369"><ele>874.9033333333333</ele><time>2025-08-09T00:49:38Z</time></trkpt><trkpt lat="35.619709" lon="138.8314852"><ele>879.88</ele><time>2025-08-09T00:50:02Z</time></trkpt><trkpt lat="35.6198953" lon="138.8313907"><ele>882.29</ele><time>2025-08-09T00:50:32Z</time></trkpt><trkpt lat="35.6200697" lon="138.8312805"><ele>885.1300000000001</ele><time>2025-08-09T00:51:01Z</time></trkpt><trkpt lat="35.620246" lon="138.8314021"><ele>889.5166666666668</ele><time>2025-08-09T00:51:31Z</time></trkpt><trkpt lat="35.6203395" lon="138.8315954"><ele>895.4533333333333</ele><time>2025-08-09T00:51:56Z</time></trkpt><trkpt lat="35.6205333" lon="138.8316927"><ele>899.6733333333333</ele><time>2025-08-09T00:52:14Z</time></trkpt><trkpt lat="35.6206903" lon="138.8318098"><ele>899.6533333333333</ele><time>2025-08-09T00:52:32Z</time></trkpt><trkpt lat="35.6208524" lon="138.831932"><ele>900.7933333333334</ele><time>2025-08-09T00:52:58Z</time></trkpt><trkpt lat="35.6210226" lon="138.8320233"><ele>903.44</ele><time>2025-08-09T00:53:17Z</time></trkpt><trkpt lat="35.6212161" lon="138.8320849"><ele>907.8766666666667</ele><time>2025-08-09T00:53:35Z</time></trkpt><trkpt lat="35.6213946" lon="138.832161"><ele>909.1833333333334</ele><time>2025-08-09T00:54:02Z</time></trkpt><trkpt lat="35.6215874" lon="138.8322118"><ele>910.2133333333335</ele><time>2025-08-09T00:54:20Z</time></trkpt><trkpt lat="35.6217888" lon="138.8322283"><ele>909.9366666666668</ele><time>2025-08-09T00:54:56Z</time></trkpt><trkpt lat="35.6219757" lon="138.832311"><ele>910.2266666666668</ele><time>2025-08-09T00:55:13Z</time></trkpt><trkpt lat="35.622131" lon="138.8324375"><ele>912.2533333333334</ele><time>2025-08-09T00:55:32Z</time></trkpt><trkpt lat="35.6223464" lon="138.8324936"><ele>912.63</ele><time>2025-08-09T00:55:53Z</time></trkpt><trkpt lat="35.6225356" lon="138.8325358"><ele>912.7000000000002</ele><time>2025-08-09T00:56:08Z</time></trkpt><trkpt lat="35.6226687" lon="138.8326919"><ele>912.5300000000001</ele><time>2025-08-09T00:56:23Z</time></trkpt><trkpt lat="35.6228934" lon="138.8328076"><ele>914.8066666666667</ele><time>2025-08-09T00:56:56Z</time></trkpt><trkpt lat="35.6230638" lon="138.8329059"><ele>918.9666666666667</ele><time>2025-08-09T00:57:35Z</time></trkpt><trkpt lat="35.6231535" lon="138.8331244"><ele>924.2700000000001</ele><time>2025-08-09T00:57:56Z</time></trkpt><trkpt lat="35.6233376" lon="138.8330945"><ele>929.3100000000001</ele><time>2025-08-09T00:58:17Z</time></trkpt><trkpt lat="35.6235047" lon="138.8329958"><ele>935.0966666666667</ele><time>2025-08-09T00:59:20Z</time></trkpt><trkpt lat="35.623696" lon="138.8330939"><ele>939.0</ele><time>2025-08-09T00:59:59Z</time></trkpt><trkpt lat="35.6238931" lon="138.8331267"><ele>944.4333333333333</ele><time>2025-08-09T01:00:25Z</time></trkpt><trkpt lat="35.6241563" lon="138.8331405"><ele>950.1866666666666</ele><time>2025-08-09T01:01:13Z</time></trkpt><trkpt lat="35.6243482" lon="138.8331835"><ele>956.7333333333335</ele><time>2025-08-09T01:01:37Z</time></trkpt><trkpt lat="35.624522" lon="138.8331228"><ele>963.79</ele><time>2025-08-09T01:02:02Z</time></trkpt><trkpt lat="35.6247268" lon="138.8331212"><ele>969.1300000000001</ele><time>2025-08-09T01:02:37Z</time></trkpt><trkpt lat="35.6249267" lon="138.8331373"><ele>973.0166666666668</ele><time>2025-08-09T01:03:04Z</time></trkpt><trkpt lat="35.6251128" lon="138.8331273"><ele>975.8733333333334</ele><time>2025-08-09T01:03:35Z</time></trkpt><trkpt lat="35.6253542" lon="138.8331293"><ele>978.2266666666668</ele><time>2025-08-09T01:04:05Z</time></trkpt><trkpt lat="35.6255537" lon="138.8329055"><ele>985.8033333333333</ele><time>2025-08-09T01:04:41Z</time></trkpt><trkpt lat="35.6257542" lon="138.8328571"><ele>992.9566666666668</ele><time>2025-08-09T01:05:20Z</time></trkpt><trkpt lat="35.6259532" lon="138.8329268"><ele>1000.3000000000001</ele><time>2025-08-09T01:05:53Z</time></trkpt><trkpt lat="35.6261621" lon="138.8329066"><ele>1003.0366666666667</ele><time>2025-08-09T01:06:38Z</time></trkpt><trkpt lat="35.6263858" lon="138.8329168"><ele>1007.8266666666667</ele><time>2025-08-09T01:08:08Z</time></trkpt><trkpt lat="35.6266868" lon="138.8329698"><ele>1019.8366666666667</ele><time>2025-08-09T01:09:10Z</time></trkpt><trkpt lat="35.6266689" lon="138.8331905"><ele>1023.9633333333335</ele><time>2025-08-09T01:09:32Z</time></trkpt><trkpt lat="35.6267684" lon="138.8334302"><ele>1028.8233333333335</ele><time>2025-08-09T01:09:58Z</time></trkpt><trkpt lat="35.6267938" lon="138.8336525"><ele>1025.4799999999998</ele><time>2025-08-09T01:10:23Z</time></trkpt><trkpt lat="35.6266906" lon="138.8338632"><ele>1028.7133333333334</ele><time>2025-08-09T01:10:50Z</time></trkpt><trkpt lat="35.6267659" lon="138.8340692"><ele>1032.9633333333334</ele><time>2025-08-09T01:11:23Z</time></trkpt><trkpt lat="35.6267846" lon="138.8343013"><ele>1037.43</ele><time>2025-08-09T01:11:44Z</time></trkpt><trkpt lat="35.6269292" lon="138.8344484"><ele>1044.1499999999999</ele><time>2025-08-09T01:12:36Z</time></trkpt><trkpt lat="35.6271479" lon="138.8346299"><ele>1051.3633333333335</ele><time>2025-08-09T01:14:01Z</time></trkpt><trkpt lat="35.6272899" lon="138.834793"><ele>1060.9633333333334</ele><time>2025-08-09T01:14:27Z</time></trkpt><trkpt lat="35.6275193" lon="138.834972"><ele>1070.71</ele><time>2025-08-09T01:15:36Z</time></trkpt><trkpt lat="35.6276859" lon="138.8348843"><ele>1079.7633333333333</ele><time>2025-08-09T01:16:55Z</time></trkpt><trkpt lat="35.6277523" lon="138.8346575"><ele>1091.9133333333334</ele><time>2025-08-09T01:17:46Z</time></trkpt><trkpt lat="35.627933" lon="138.8346425"><ele>1104.26</ele><time>2025-08-09T01:19:23Z</time></trkpt><trkpt lat="35.628083" lon="138.8347674"><ele>1115.7266666666667</ele><time>2025-08-09T01:19:53Z</time></trkpt><trkpt lat="35.6280789" lon="138.835044"><ele>1122.55</ele><time>2025-08-09T01:20:53Z</time></trkpt><trkpt lat="35.6282536" lon="138.8349704"><ele>1129.79</ele><time>2025-08-09T01:22:11Z</time></trkpt><trkpt lat="35.6283212" lon="138.8347541"><ele>1135.3666666666668</ele><time>2025-08-09T01:22:53Z</time></trkpt><trkpt lat="35.6285105" lon="138.8347509"><ele>1146.9566666666667</ele><time>2025-08-09T01:24:14Z</time></trkpt><trkpt lat="35.6286655" lon="138.8346237"><ele>1160.7766666666666</ele><time>2025-08-09T01:26:20Z</time></trkpt><trkpt lat="35.6286451" lon="138.8343991"><ele>1175.0366666666666</ele><time>2025-08-09T01:26:44Z</time></trkpt><trkpt lat="35.6286766" lon="138.8341652"><ele>1182.5166666666667</ele><time>2025-08-09T01:27:29Z</time></trkpt><trkpt lat="35.6288388" lon="138.8342687"><ele>1191.04</ele><time>2025-08-09T01:28:11Z</time></trkpt><trkpt lat="35.6289075" lon="138.8344739"><ele>1198.3733333333332</ele><time>2025-08-09T01:28:40Z</time></trkpt><trkpt lat="35.6289904" lon="138.8346998"><ele>1205.4633333333334</ele><time>2025-08-09T01:29:08Z</time></trkpt><trkpt lat="35.6290775" lon="138.8348975"><ele>1207.39</ele><time>2025-08-09T01:29:35Z</time></trkpt><trkpt lat="35.6291309" lon="138.8351106"><ele>1210.1866666666667</ele><time>2025-08-09T01:30:05Z</time></trkpt><trkpt lat="35.629174" lon="138.8348373"><ele>1213.0333333333335</ele><time>2025-08-09T01:31:29Z</time></trkpt><trkpt lat="35.6292144" lon="138.8345971"><ele>1216.8766666666668</ele><time>2025-08-09T01:31:56Z</time></trkpt><trkpt lat="35.6292891" lon="138.8343635"><ele>1222.1433333333332</ele><time>2025-08-09T01:32:25Z</time></trkpt><trkpt lat="35.6294943" lon="138.8343875"><ele>1232.01</ele><time>2025-08-09T01:33:19Z</time></trkpt><trkpt lat="35.6295457" lon="138.8346209"><ele>1241.6066666666668</ele><time>2025-08-09T01:33:50Z</time></trkpt><trkpt lat="35.6296305" lon="138.8348486"><ele>1248.8133333333333</ele><time>2025-08-09T01:34:21Z</time></trkpt><trkpt lat="35.6297726" lon="138.8350456"><ele>1252.5266666666666</ele><time>2025-08-09T01:34:49Z</time></trkpt><trkpt lat="35.6299414" lon="138.8351748"><ele>1254.7766666666666</ele><time>2025-08-09T01:35:14Z</time></trkpt><trkpt lat="35.6301471" lon="138.8353284"><ele>1258.0833333333333</ele><time>2025-08-09T01:35:49Z</time></trkpt><trkpt lat="35.6303268" lon="138.8353654"><ele>1262.17</ele><time>2025-08-09T01:36:08Z</time></trkpt><trkpt lat="35.6303923" lon="138.8355845"><ele>1266.6066666666666</ele><time>2025-08-09T01:36:44Z</time></trkpt><trkpt lat="35.6302618" lon="138.8357455"><ele>1269.03</ele><time>2025-08-09T01:37:18Z</time></trkpt><trkpt lat="35.6301775" lon="138.8359501"><ele>1270.52</ele><time>2025-08-09T01:37:35Z</time></trkpt><trkpt lat="35.6302158" lon="138.8361826"><ele>1270.88</ele><time>2025-08-09T01:37:54Z</time></trkpt><trkpt lat="35.6303091" lon="138.8363752"><ele>1272.5733333333335</ele><time>2025-08-09T01:38:12Z</time></trkpt><trkpt lat="35.6304055" lon="138.8365988"><ele>1274.0566666666666</ele><time>2025-08-09T01:38:31Z</time></trkpt><trkpt lat="35.6305023" lon="138.8368908"><ele>1276.7066666666667</ele><time>2025-08-09T01:39:01Z</time></trkpt><trkpt lat="35.6305434" lon="138.8371215"><ele>1279.7933333333333</ele><time>2025-08-09T01:39:15Z</time></trkpt><trkpt lat="35.6305783" lon="138.8373508"><ele>1281.4033333333334</ele><time>2025-08-09T01:39:33Z</time></trkpt><trkpt lat="35.6306349" lon="138.8375843"><ele>1281.4666666666665</ele><time>2025-08-09T01:39:52Z</time></trkpt><trkpt lat="35.6307585" lon="138.8377802"><ele>1280.0066666666667</ele><time>2025-08-09T01:40:12Z</time></trkpt><trkpt lat="35.6309067" lon="138.8379365"><ele>1277.5800000000002</ele><time>2025-08-09T01:40:34Z</time></trkpt><trkpt lat="35.6310822" lon="138.8380124"><ele>1275.1066666666668</ele><time>2025-08-09T01:41:13Z</time></trkpt><trkpt lat="35.6312401" lon="138.8381239"><ele>1271.9866666666667</ele><time>2025-08-09T01:41:55Z</time></trkpt><trkpt lat="35.6314282" lon="138.8381825"><ele>1270.3066666666666</ele><time>2025-08-09T01:42:25Z</time></trkpt><trkpt lat="35.6316068" lon="138.8382782"><ele>1269.1466666666668</ele><time>2025-08-09T01:42:55Z</time></trkpt><trkpt lat="35.6317949" lon="138.8383521"><ele>1269.8366666666668</ele><time>2025-08-09T01:43:25Z</time></trkpt><trkpt lat="35.6319412" lon="138.8384954"><ele>1272.36</ele><time>2025-08-09T01:43:45Z</time></trkpt><trkpt lat="35.6320424" lon="138.8387286"><ele>1272.1166666666668</ele><time>2025-08-09T01:44:16Z</time></trkpt><trkpt lat="35.6320497" lon="138.8389799"><ele>1274.256666666667</ele><time>2025-08-09T01:44:45Z</time></trkpt><trkpt lat="35.6320624" lon="138.8392234"><ele>1276.8966666666668</ele><time>2025-08-09T01:45:09Z</time></trkpt><trkpt lat="35.6320435" lon="138.8394554"><ele>1280.6533333333334</ele><time>2025-08-09T01:45:39Z</time></trkpt><trkpt lat="35.6320517" lon="138.8396881"><ele>1283.9466666666667</ele><time>2025-08-09T01:46:04Z</time></trkpt><trkpt lat="35.6321761" lon="138.8398751"><ele>1286.3033333333333</ele><time>2025-08-09T01:46:24Z</time></trkpt><trkpt lat="35.6323409" lon="138.8399856"><ele>1290.5400000000002</ele><time>2025-08-09T01:46:48Z</time></trkpt><trkpt lat="35.6325377" lon="138.8400615"><ele>1292.4966666666667</ele><time>2025-08-09T01:47:06Z</time></trkpt><trkpt lat="35.6327338" lon="138.8401311"><ele>1293.4833333333333</ele><time>2025-08-09T01:47:25Z</time></trkpt><trkpt lat="35.6329273" lon="138.8401719"><ele>1295.3866666666668</ele><time>2025-08-09T01:47:48Z</time></trkpt><trkpt lat="35.6330689" lon="138.8403257"><ele>1296.76</ele><time>2025-08-09T01:48:12Z</time></trkpt><trkpt lat="35.6332054" lon="138.840492"><ele>1299.0</ele><time>2025-08-09T01:48:43Z</time></trkpt><trkpt lat="35.633355" lon="138.8406585"><ele>1301.7433333333336</ele><time>2025-08-09T01:49:07Z</time></trkpt><trkpt lat="35.6335099" lon="138.8407967"><ele>1304.8433333333332</ele><time>2025-08-09T01:49:30Z</time></trkpt><trkpt lat="35.6336896" lon="138.8408689"><ele>1308.0633333333333</ele><time>2025-08-09T01:49:54Z</time></trkpt><trkpt lat="35.6338876" lon="138.8408778"><ele>1311.1133333333335</ele><time>2025-08-09T01:50:19Z</time></trkpt><trkpt lat="35.6340753" lon="138.8408722"><ele>1314.8266666666666</ele><time>2025-08-09T01:50:46Z</time></trkpt><trkpt lat="35.6342725" lon="138.84089"><ele>1318.3600000000001</ele><time>2025-08-09T01:51:10Z</time></trkpt><trkpt lat="35.6342292" lon="138.8411051"><ele>1324.5833333333333</ele><time>2025-08-09T01:51:49Z</time></trkpt><trkpt lat="35.6343974" lon="138.8412496"><ele>1329.6166666666668</ele><time>2025-08-09T01:52:27Z</time></trkpt><trkpt lat="35.6345758" lon="138.8413697"><ele>1333.7733333333333</ele><time>2025-08-09T01:52:48Z</time></trkpt><trkpt lat="35.6346979" lon="138.8415763"><ele>1334.39</ele><time>2025-08-09T01:53:07Z</time></trkpt><trkpt lat="35.6347904" lon="138.8418052"><ele>1334.1566666666668</ele><time>2025-08-09T01:53:37Z</time></trkpt><trkpt lat="35.635012" lon="138.8420313"><ele>1335.4399999999998</ele><time>2025-08-09T01:54:12Z</time></trkpt><trkpt lat="35.6350044" lon="138.8422737"><ele>1336.5600000000002</ele><time>2025-08-09T01:56:16Z</time></trkpt><trkpt lat="35.6350047" lon="138.8425"><ele>1341.04</ele><time>2025-08-09T01:57:01Z</time></trkpt><trkpt lat="35.6350235" lon="138.8427203"><ele>1345.7666666666667</ele><time>2025-08-09T01:57:25Z</time></trkpt><trkpt lat="35.6350462" lon="138.8429448"><ele>1352.14</ele><time>2025-08-09T01:57:55Z</time></trkpt><trkpt lat="35.6350849" lon="138.8431675"><ele>1358.0800000000002</ele><time>2025-08-09T01:58:13Z</time></trkpt><trkpt lat="35.6352277" lon="138.8433157"><ele>1363.5633333333335</ele><time>2025-08-09T01:58:31Z</time></trkpt><trkpt lat="35.635408" lon="138.8434189"><ele>1367.743333333333</ele><time>2025-08-09T01:58:55Z</time></trkpt><trkpt lat="35.6355133" lon="138.8436128"><ele>1370.61</ele><time>2025-08-09T01:59:13Z</time></trkpt><trkpt lat="35.635572" lon="138.8438621"><ele>1371.5433333333333</ele><time>2025-08-09T01:59:30Z</time></trkpt><trkpt lat="35.6357434" lon="138.8440049"><ele>1373.966666666667</ele><time>2025-08-09T01:59:54Z</time></trkpt><trkpt lat="35.6359136" lon="138.8442185"><ele>1375.2733333333333</ele><time>2025-08-09T02:01:18Z</time></trkpt><trkpt lat="35.6360744" lon="138.8443464"><ele>1378.1433333333334</ele><time>2025-08-09T02:02:03Z</time></trkpt><trkpt lat="35.6361904" lon="138.8445532"><ele>1377.8866666666665</ele><time>2025-08-09T02:02:18Z</time></trkpt><trkpt lat="35.6363555" lon="138.8446569"><ele>1377.71</ele><time>2025-08-09T02:02:39Z</time></trkpt><trkpt lat="35.6364585" lon="138.844859"><ele>1376.8333333333333</ele><time>2025-08-09T02:03:07Z</time></trkpt><trkpt lat="35.6364944" lon="138.8451054"><ele>1377.8500000000001</ele><time>2025-08-09T02:03:36Z</time></trkpt><trkpt lat="35.6364122" lon="138.8453286"><ele>1382.36</ele><time>2025-08-09T02:04:00Z</time></trkpt><trkpt lat="35.6363694" lon="138.8455484"><ele>1388.1299999999999</ele><time>2025-08-09T02:04:27Z</time></trkpt><trkpt lat="35.6362953" lon="138.8457524"><ele>1393.86</ele><time>2025-08-09T02:04:49Z</time></trkpt><trkpt lat="35.6361203" lon="138.8456945"><ele>1397.9366666666665</ele><time>2025-08-09T02:05:52Z</time></trkpt><trkpt lat="35.6360648" lon="138.8454519"><ele>1402.1466666666668</ele><time>2025-08-09T02:07:04Z</time></trkpt><trkpt lat="35.6360902" lon="138.845226"><ele>1405.4966666666667</ele><time>2025-08-09T02:07:40Z</time></trkpt><trkpt lat="35.6358858" lon="138.8452354"><ele>1409.63</ele><time>2025-08-09T02:08:10Z</time></trkpt><trkpt lat="35.6357992" lon="138.8454495"><ele>1414.4366666666665</ele><time>2025-08-09T02:08:37Z</time></trkpt><trkpt lat="35.635732" lon="138.8456709"><ele>1420.3333333333333</ele><time>2025-08-09T02:09:07Z</time></trkpt><trkpt lat="35.6357144" lon="138.8458937"><ele>1423.5366666666666</ele><time>2025-08-09T02:09:27Z</time></trkpt><trkpt lat="35.6357574" lon="138.8461147"><ele>1423.6433333333334</ele><time>2025-08-09T02:09:51Z</time></trkpt><trkpt lat="35.6357532" lon="138.8463696"><ele>1423.74</ele><time>2025-08-09T02:10:22Z</time></trkpt><trkpt lat="35.6357411" lon="138.8465977"><ele>1424.7866666666669</ele><time>2025-08-09T02:10:42Z</time></trkpt><trkpt lat="35.6356481" lon="138.8469088"><ele>1427.7900000000002</ele><time>2025-08-09T02:11:24Z</time></trkpt><trkpt lat="35.6356859" lon="138.8471538"><ele>1430.4866666666667</ele><time>2025-08-09T02:11:52Z</time></trkpt><trkpt lat="35.6356287" lon="138.8473958"><ele>1434.08</ele><time>2025-08-09T02:12:22Z</time></trkpt><trkpt lat="35.635535" lon="138.8476301"><ele>1436.8733333333332</ele><time>2025-08-09T02:12:44Z</time></trkpt><trkpt lat="35.6354229" lon="138.8478312"><ele>1440.46</ele><time>2025-08-09T02:13:12Z</time></trkpt><trkpt lat="35.6353285" lon="138.84804"><ele>1443.36</ele><time>2025-08-09T02:13:37Z</time></trkpt><trkpt lat="35.6351933" lon="138.8481905"><ele>1447.04</ele><time>2025-08-09T02:14:01Z</time></trkpt><trkpt lat="35.6350749" lon="138.8483794"><ele>1449.676666666667</ele><time>2025-08-09T02:14:24Z</time></trkpt><trkpt lat="35.6349605" lon="138.8485844"><ele>1452.7366666666667</ele><time>2025-08-09T02:14:48Z</time></trkpt><trkpt lat="35.6348497" lon="138.8488078"><ele>1455.9466666666667</ele><time>2025-08-09T02:15:09Z</time></trkpt><trkpt lat="35.6346817" lon="138.8489227"><ele>1459.9966666666667</ele><time>2025-08-09T02:15:34Z</time></trkpt><trkpt lat="35.6345176" lon="138.8490382"><ele>1463.33</ele><time>2025-08-09T02:16:00Z</time></trkpt><trkpt lat="35.6343988" lon="138.8492284"><ele>1466.256666666667</ele><time>2025-08-09T02:16:17Z</time></trkpt><trkpt lat="35.6342622" lon="138.8493931"><ele>1468.9866666666667</ele><time>2025-08-09T02:16:45Z</time></trkpt><trkpt lat="35.6341579" lon="138.8495846"><ele>1472.0</ele><time>2025-08-09T02:17:09Z</time></trkpt><trkpt lat="35.6339977" lon="138.8497299"><ele>1476.8000000000002</ele><time>2025-08-09T02:17:39Z</time></trkpt><trkpt lat="35.6339121" lon="138.849948"><ele>1482.3066666666666</ele><time>2025-08-09T02:18:00Z</time></trkpt><trkpt lat="35.6338707" lon="138.8501714"><ele>1486.8333333333333</ele><time>2025-08-09T02:18:24Z</time></trkpt><trkpt lat="35.6337878" lon="138.8503724"><ele>1490.1466666666665</ele><time>2025-08-09T02:18:45Z</time></trkpt><trkpt lat="35.6336669" lon="138.850571"><ele>1491.8933333333334</ele><time>2025-08-09T02:19:06Z</time></trkpt><trkpt lat="35.6335029" lon="138.8506937"><ele>1495.2733333333333</ele><time>2025-08-09T02:19:29Z</time></trkpt><trkpt lat="35.6333511" lon="138.8508236"><ele>1498.13</ele><time>2025-08-09T02:19:47Z</time></trkpt><trkpt lat="35.6331886" lon="138.8509445"><ele>1502.4566666666667</ele><time>2025-08-09T02:20:14Z</time></trkpt><trkpt lat="35.6330236" lon="138.8510776"><ele>1507.0566666666666</ele><time>2025-08-09T02:21:00Z</time></trkpt><trkpt lat="35.6328869" lon="138.8512427"><ele>1512.5633333333335</ele><time>2025-08-09T02:21:35Z</time></trkpt><trkpt lat="35.6327877" lon="138.8514438"><ele>1517.4433333333334</ele><time>2025-08-09T02:21:56Z</time></trkpt><trkpt lat="35.6325766" lon="138.8514714"><ele>1521.67</ele><time>2025-08-09T02:22:23Z</time></trkpt><trkpt lat="35.632374" lon="138.8514224"><ele>1525.1499999999999</ele><time>2025-08-09T02:22:44Z</time></trkpt><trkpt lat="35.6322226" lon="138.8516006"><ele>1527.9333333333334</ele><time>2025-08-09T02:23:14Z</time></trkpt><trkpt lat="35.632069" lon="138.8517433"><ele>1529.4466666666667</ele><time>2025-08-09T02:23:33Z</time></trkpt><trkpt lat="35.6318816" lon="138.8517825"><ele>1530.4533333333336</ele><time>2025-08-09T02:23:52Z</time></trkpt><trkpt lat="35.6316961" lon="138.8518019"><ele>1532.1800000000003</ele><time>2025-08-09T02:24:12Z</time></trkpt><trkpt lat="35.6315505" lon="138.8516715"><ele>1535.5266666666666</ele><time>2025-08-09T02:24:46Z</time></trkpt><trkpt lat="35.6313641" lon="138.8516907"><ele>1538.25</ele><time>2025-08-09T02:25:36Z</time></trkpt><trkpt lat="35.6311967" lon="138.8516063"><ele>1543.88</ele><time>2025-08-09T02:26:43Z</time></trkpt><trkpt lat="35.6311993" lon="138.8513508"><ele>1551.34</ele><time>2025-08-09T02:27:09Z</time></trkpt><trkpt lat="35.631041" lon="138.8512374"><ele>1560.8166666666666</ele><time>2025-08-09T02:27:58Z</time></trkpt><trkpt lat="35.6308937" lon="138.8513719"><ele>1567.14</ele><time>2025-08-09T02:28:19Z</time></trkpt><trkpt lat="35.6307502" lon="138.8515534"><ele>1569.8966666666668</ele><time>2025-08-09T02:28:40Z</time></trkpt><trkpt lat="35.6306081" lon="138.8517013"><ele>1570.46</ele><time>2025-08-09T02:29:07Z</time></trkpt><trkpt lat="35.6304676" lon="138.8518681"><ele>1571.4866666666667</ele><time>2025-08-09T02:29:34Z</time></trkpt><trkpt lat="35.6303878" lon="138.8515948"><ele>1577.8799999999999</ele><time>2025-08-09T02:31:37Z</time></trkpt><trkpt lat="35.6303692" lon="138.851283"><ele>1590.7133333333334</ele><time>2025-08-09T02:32:45Z</time></trkpt><trkpt lat="35.6303777" lon="138.8510584"><ele>1602.4400000000003</ele><time>2025-08-09T02:33:54Z</time></trkpt><trkpt lat="35.6303179" lon="138.8513418"><ele>1607.6166666666668</ele><time>2025-08-09T02:49:43Z</time></trkpt><trkpt lat="35.6303422" lon="138.8515622"><ele>1603.7066666666667</ele><time>2025-08-09T02:50:45Z</time></trkpt><trkpt lat="35.6303712" lon="138.8517993"><ele>1595.6499999999999</ele><time>2025-08-09T02:51:09Z</time></trkpt><trkpt lat="35.6302881" lon="138.8520318"><ele>1587.9366666666667</ele><time>2025-08-09T02:51:34Z</time></trkpt><trkpt lat="35.6302051" lon="138.8522441"><ele>1583.3999999999999</ele><time>2025-08-09T02:51:52Z</time></trkpt><trkpt lat="35.6301027" lon="138.8524344"><ele>1585.0100000000002</ele><time>2025-08-09T02:52:13Z</time></trkpt><trkpt lat="35.6299735" lon="138.8526306"><ele>1585.96</ele><time>2025-08-09T02:53:15Z</time></trkpt><trkpt lat="35.6297576" lon="138.852776"><ele>1579.1166666666668</ele><time>2025-08-09T02:54:36Z</time></trkpt><trkpt lat="35.6295524" lon="138.852811"><ele>1565.0600000000002</ele><time>2025-08-09T02:55:36Z</time></trkpt><trkpt lat="35.6293722" lon="138.8528925"><ele>1549.5200000000002</ele><time>2025-08-09T02:56:09Z</time></trkpt><trkpt lat="35.6292778" lon="138.8530814"><ele>1539.3833333333334</ele><time>2025-08-09T02:57:01Z</time></trkpt><trkpt lat="35.6291607" lon="138.8533054"><ele>1528.6333333333334</ele><time>2025-08-09T02:57:57Z</time></trkpt><trkpt lat="35.6291026" lon="138.8535154"><ele>1519.8066666666666</ele><time>2025-08-09T02:58:27Z</time></trkpt><trkpt lat="35.628935" lon="138.8536624"><ele>1510.67</ele><time>2025-08-09T02:58:55Z</time></trkpt><trkpt lat="35.6287952" lon="138.8538459"><ele>1505.0333333333335</ele><time>2025-08-09T02:59:15Z</time></trkpt><trkpt lat="35.6286715" lon="138.8540276"><ele>1499.6266666666668</ele><time>2025-08-09T02:59:31Z</time></trkpt><trkpt lat="35.6285467" lon="138.8541913"><ele>1495.79</ele><time>2025-08-09T02:59:49Z</time></trkpt><trkpt lat="35.6283677" lon="138.8543514"><ele>1493.7433333333336</ele><time>2025-08-09T03:00:10Z</time></trkpt><trkpt lat="35.6281913" lon="138.8544919"><ele>1491.4366666666665</ele><time>2025-08-09T03:00:27Z</time></trkpt><trkpt lat="35.6280676" lon="138.8547"><ele>1489.88</ele><time>2025-08-09T03:00:46Z</time></trkpt><trkpt lat="35.6279444" lon="138.8548696"><ele>1489.1899999999998</ele><time>2025-08-09T03:01:03Z</time></trkpt><trkpt lat="35.6277969" lon="138.85503"><ele>1489.5733333333335</ele><time>2025-08-09T03:01:21Z</time></trkpt><trkpt lat="35.6277029" lon="138.8552436"><ele>1489.61</ele><time>2025-08-09T03:01:37Z</time></trkpt><trkpt lat="35.627645" lon="138.8554691"><ele>1487.9966666666667</ele><time>2025-08-09T03:01:55Z</time></trkpt><trkpt lat="35.6276327" lon="138.8557238"><ele>1485.4800000000002</ele><time>2025-08-09T03:02:21Z</time></trkpt><trkpt lat="35.6276107" lon="138.8559471"><ele>1480.0633333333335</ele><time>2025-08-09T03:03:02Z</time></trkpt><trkpt lat="35.627527" lon="138.8562327"><ele>1470.88</ele><time>2025-08-09T03:04:15Z</time></trkpt><trkpt lat="35.6273916" lon="138.8565228"><ele>1457.746666666667</ele><time>2025-08-09T03:05:41Z</time></trkpt><trkpt lat="35.6272641" lon="138.8567027"><ele>1444.41</ele><time>2025-08-09T03:06:26Z</time></trkpt><trkpt lat="35.6271848" lon="138.8569185"><ele>1431.8533333333335</ele><time>2025-08-09T03:07:12Z</time></trkpt><trkpt lat="35.6270704" lon="138.8570958"><ele>1420.2600000000002</ele><time>2025-08-09T03:07:57Z</time></trkpt><trkpt lat="35.6269302" lon="138.8572547"><ele>1407.9733333333334</ele><time>2025-08-09T03:09:08Z</time></trkpt><trkpt lat="35.6268695" lon="138.8574858"><ele>1396.846666666667</ele><time>2025-08-09T03:10:09Z</time></trkpt><trkpt lat="35.6267507" lon="138.8577096"><ele>1386.4066666666668</ele><time>2025-08-09T03:11:09Z</time></trkpt><trkpt lat="35.6264978" lon="138.8578015"><ele>1373.5166666666667</ele><time>2025-08-09T03:12:41Z</time></trkpt><trkpt lat="35.6263576" lon="138.8579405"><ele>1360.8</ele><time>2025-08-09T03:13:06Z</time></trkpt><trkpt lat="35.6261638" lon="138.857954"><ele>1348.2833333333335</ele><time>2025-08-09T03:13:23Z</time></trkpt><trkpt lat="35.6259736" lon="138.8580896"><ele>1340.9733333333334</ele><time>2025-08-09T03:13:53Z</time></trkpt><trkpt lat="35.6257795" lon="138.8581477"><ele>1335.3933333333334</ele><time>2025-08-09T03:14:12Z</time></trkpt><trkpt lat="35.6255903" lon="138.8582623"><ele>1333.48</ele><time>2025-08-09T03:14:31Z</time></trkpt><trkpt lat="35.6254482" lon="138.8584031"><ele>1332.32</ele><time>2025-08-09T03:14:47Z</time></trkpt><trkpt lat="35.62544" lon="138.8586264"><ele>1330.8</ele><time>2025-08-09T03:15:13Z</time></trkpt><trkpt lat="35.6253415" lon="138.8588236"><ele>1325.3033333333333</ele><time>2025-08-09T03:15:55Z</time></trkpt><trkpt lat="35.625202" lon="138.8589687"><ele>1317.2933333333333</ele><time>2025-08-09T03:16:22Z</time></trkpt><trkpt lat="35.6251166" lon="138.8591901"><ele>1307.6233333333334</ele><time>2025-08-09T03:16:50Z</time></trkpt><trkpt lat="35.6249379" lon="138.8592313"><ele>1299.4733333333334</ele><time>2025-08-09T03:17:07Z</time></trkpt><trkpt lat="35.6247808" lon="138.8593834"><ele>1290.5966666666666</ele><time>2025-08-09T03:17:50Z</time></trkpt><trkpt lat="35.6246902" lon="138.8595861"><ele>1282.5833333333335</ele><time>2025-08-09T03:18:37Z</time></trkpt><trkpt lat="35.6245249" lon="138.8597576"><ele>1273.33</ele><time>2025-08-09T03:19:23Z</time></trkpt><trkpt lat="35.6244364" lon="138.8599841"><ele>1266.76</ele><time>2025-08-09T03:19:38Z</time></trkpt><trkpt lat="35.6242685" lon="138.8600836"><ele>1261.14</ele><time>2025-08-09T03:19:58Z</time></trkpt><trkpt lat="35.6241295" lon="138.8602365"><ele>1258.1899999999998</ele><time>2025-08-09T03:20:16Z</time></trkpt><trkpt lat="35.6239822" lon="138.8604145"><ele>1256.0066666666664</ele><time>2025-08-09T03:20:34Z</time></trkpt><trkpt lat="35.6238763" lon="138.8606185"><ele>1254.5633333333333</ele><time>2025-08-09T03:20:49Z</time></trkpt><trkpt lat="35.6237675" lon="138.8608211"><ele>1253.5766666666666</ele><time>2025-08-09T03:21:04Z</time></trkpt><trkpt lat="35.6237042" lon="138.8610706"><ele>1252.75</ele><time>2025-08-09T03:21:25Z</time></trkpt><trkpt lat="35.6236858" lon="138.8613092"><ele>1251.5833333333333</ele><time>2025-08-09T03:21:44Z</time></trkpt><trkpt lat="35.6236825" lon="138.8615481"><ele>1250.3533333333335</ele><time>2025-08-09T03:21:59Z</time></trkpt><trkpt lat="35.6235598" lon="138.8617462"><ele>1249.68</ele><time>2025-08-09T03:22:19Z</time></trkpt><trkpt lat="35.6234243" lon="138.8619242"><ele>1248.78</ele><time>2025-08-09T03:22:38Z</time></trkpt><trkpt lat="35.623237" lon="138.8620224"><ele>1246.4266666666665</ele><time>2025-08-09T03:22:55Z</time></trkpt><trkpt lat="35.6230327" lon="138.8620577"><ele>1242.9833333333333</ele><time>2025-08-09T03:23:13Z</time></trkpt><trkpt lat="35.6228346" lon="138.8621491"><ele>1239.3433333333332</ele><time>2025-08-09T03:23:28Z</time></trkpt><trkpt lat="35.6226278" lon="138.86216"><ele>1235.3866666666665</ele><time>2025-08-09T03:23:43Z</time></trkpt><trkpt lat="35.6224489" lon="138.8622634"><ele>1231.3933333333334</ele><time>2025-08-09T03:24:02Z</time></trkpt><trkpt lat="35.6223119" lon="138.8624542"><ele>1227.4466666666667</ele><time>2025-08-09T03:24:20Z</time></trkpt><trkpt lat="35.6221289" lon="138.8625308"><ele>1223.18</ele><time>2025-08-09T03:24:52Z</time></trkpt><trkpt lat="35.6219325" lon="138.8626112"><ele>1218.7633333333333</ele><time>2025-08-09T03:25:20Z</time></trkpt><trkpt lat="35.6217435" lon="138.8625856"><ele>1212.96</ele><time>2025-08-09T03:25:38Z</time></trkpt><trkpt lat="35.6215576" lon="138.8626609"><ele>1206.1166666666666</ele><time>2025-08-09T03:26:08Z</time></trkpt><trkpt lat="35.6213613" lon="138.8626872"><ele>1197.8866666666665</ele><time>2025-08-09T03:26:28Z</time></trkpt><trkpt lat="35.6211783" lon="138.8627827"><ele>1191.2966666666664</ele><time>2025-08-09T03:26:47Z</time></trkpt><trkpt lat="35.6209832" lon="138.8630097"><ele>1185.07</ele><time>2025-08-09T03:27:26Z</time></trkpt><trkpt lat="35.6208633" lon="138.8632065"><ele>1178.15</ele><time>2025-08-09T03:27:41Z</time></trkpt><trkpt lat="35.6208549" lon="138.8634429"><ele>1171.5433333333333</ele><time>2025-08-09T03:28:04Z</time></trkpt><trkpt lat="35.6208426" lon="138.8636811"><ele>1165.8100000000002</ele><time>2025-08-09T03:28:31Z</time></trkpt><trkpt lat="35.6208463" lon="138.8639153"><ele>1161.5833333333333</ele><time>2025-08-09T03:28:59Z</time></trkpt><trkpt lat="35.6207944" lon="138.8641286"><ele>1154.8433333333332</ele><time>2025-08-09T03:29:19Z</time></trkpt><trkpt lat="35.620696" lon="138.8643788"><ele>1148.39</ele><time>2025-08-09T03:29:38Z</time></trkpt><trkpt lat="35.6206181" lon="138.8646032"><ele>1141.6333333333332</ele><time>2025-08-09T03:30:05Z</time></trkpt><trkpt lat="35.6204887" lon="138.864787"><ele>1134.2366666666667</ele><time>2025-08-09T03:30:31Z</time></trkpt><trkpt lat="35.6203291" lon="138.8649022"><ele>1126.06</ele><time>2025-08-09T03:31:16Z</time></trkpt><trkpt lat="35.6201776" lon="138.8650345"><ele>1114.533333333333</ele><time>2025-08-09T03:32:20Z</time></trkpt><trkpt lat="35.6200304" lon="138.8652224"><ele>1103.8266666666668</ele><time>2025-08-09T03:32:41Z</time></trkpt><trkpt lat="35.6201953" lon="138.8653675"><ele>1094.97</ele><time>2025-08-09T03:33:46Z</time></trkpt><trkpt lat="35.6203478" lon="138.8655073"><ele>1089.6533333333334</ele><time>2025-08-09T03:34:05Z</time></trkpt><trkpt lat="35.6204888" lon="138.8656474"><ele>1085.4233333333332</ele><time>2025-08-09T03:34:19Z</time></trkpt><trkpt lat="35.6206561" lon="138.8657608"><ele>1080.83</ele><time>2025-08-09T03:34:37Z</time></trkpt><trkpt lat="35.6208191" lon="138.8658949"><ele>1075.2</ele><time>2025-08-09T03:35:02Z</time></trkpt><trkpt lat="35.6210529" lon="138.8660137"><ele>1066.8</ele><time>2025-08-09T03:35:50Z</time></trkpt><trkpt lat="35.6209248" lon="138.8661698"><ele>1057.5133333333333</ele><time>2025-08-09T03:36:13Z</time></trkpt><trkpt lat="35.6209335" lon="138.8664024"><ele>1047.56</ele><time>2025-08-09T03:37:28Z</time></trkpt><trkpt lat="35.6208256" lon="138.8665903"><ele>1036.3566666666666</ele><time>2025-08-09T03:37:48Z</time></trkpt><trkpt lat="35.6207519" lon="138.8667955"><ele>1023.4533333333334</ele><time>2025-08-09T03:38:12Z</time></trkpt><trkpt lat="35.6205691" lon="138.8667751"><ele>1013.5033333333334</ele><time>2025-08-09T03:38:37Z</time></trkpt><trkpt lat="35.6203687" lon="138.8668861"><ele>1008.1433333333333</ele><time>2025-08-09T03:38:57Z</time></trkpt><trkpt lat="35.6202763" lon="138.8671063"><ele>1004.0866666666667</ele><time>2025-08-09T03:39:18Z</time></trkpt><trkpt lat="35.6202151" lon="138.8673329"><ele>998.8333333333334</ele><time>2025-08-09T03:39:34Z</time></trkpt><trkpt lat="35.6203531" lon="138.8671684"><ele>995.0066666666667</ele><time>2025-08-09T03:40:16Z</time></trkpt><trkpt lat="35.6205403" lon="138.8671563"><ele>990.6300000000001</ele><time>2025-08-09T03:40:39Z</time></trkpt><trkpt lat="35.6207032" lon="138.8673"><ele>984.8633333333333</ele><time>2025-08-09T03:41:04Z</time></trkpt><trkpt lat="35.620868" lon="138.8674077"><ele>977.1</ele><time>2025-08-09T03:41:25Z</time></trkpt><trkpt lat="35.6209126" lon="138.867643"><ele>966.6266666666667</ele><time>2025-08-09T03:42:12Z</time></trkpt><trkpt lat="35.6209233" lon="138.8678634"><ele>955.71</ele><time>2025-08-09T03:43:06Z</time></trkpt><trkpt lat="35.6209881" lon="138.8680727"><ele>940.6166666666668</ele><time>2025-08-09T03:44:28Z</time></trkpt><trkpt lat="35.6210377" lon="138.8682916"><ele>928.0766666666667</ele><time>2025-08-09T03:44:54Z</time></trkpt><trkpt lat="35.6208864" lon="138.8684602"><ele>916.1066666666667</ele><time>2025-08-09T03:45:31Z</time></trkpt><trkpt lat="35.6210972" lon="138.8683911"><ele>911.5500000000001</ele><time>2025-08-09T03:46:19Z</time></trkpt><trkpt lat="35.6209218" lon="138.8684928"><ele>907.0166666666668</ele><time>2025-08-09T03:47:10Z</time></trkpt><trkpt lat="35.6207067" lon="138.8684917"><ele>907.6266666666667</ele><time>2025-08-09T03:50:32Z</time></trkpt><trkpt lat="35.6208371" lon="138.8688009"><ele>903.0</ele><time>2025-08-09T03:50:38Z</time></trkpt><trkpt lat="35.6206552" lon="138.8687651"><ele>900.9466666666667</ele><time>2025-08-09T03:51:14Z</time></trkpt><trkpt lat="35.6204958" lon="138.8688863"><ele>896.2633333333333</ele><time>2025-08-09T03:53:01Z</time></trkpt><trkpt lat="35.6203464" lon="138.8690309"><ele>892.5233333333332</ele><time>2025-08-09T03:53:19Z</time></trkpt><trkpt lat="35.6203012" lon="138.8692519"><ele>884.5733333333334</ele><time>2025-08-09T03:53:47Z</time></trkpt><trkpt lat="35.6201617" lon="138.8694448"><ele>875.0666666666666</ele><time>2025-08-09T03:54:32Z</time></trkpt><trkpt lat="35.6201374" lon="138.8696736"><ele>866.5233333333334</ele><time>2025-08-09T03:54:53Z</time></trkpt><trkpt lat="35.6200517" lon="138.8699318"><ele>860.3633333333333</ele><time>2025-08-09T03:55:26Z</time></trkpt><trkpt lat="35.6199354" lon="138.8701137"><ele>853.7800000000001</ele><time>2025-08-09T03:55:41Z</time></trkpt><trkpt lat="35.6197708" lon="138.8702237"><ele>847.8433333333334</ele><time>2025-08-09T03:56:05Z</time></trkpt><trkpt lat="35.6196087" lon="138.870431"><ele>841.9933333333333</ele><time>2025-08-09T03:56:50Z</time></trkpt><trkpt lat="35.6194609" lon="138.8705949"><ele>837.0133333333333</ele><time>2025-08-09T03:57:02Z</time></trkpt><trkpt lat="35.6193624" lon="138.8707884"><ele>832.5099999999999</ele><time>2025-08-09T03:57:38Z</time></trkpt><trkpt lat="35.6192271" lon="138.8709696"><ele>828.7599999999999</ele><time>2025-08-09T03:57:56Z</time></trkpt><trkpt lat="35.6190817" lon="138.8711133"><ele>824.0500000000001</ele><time>2025-08-09T03:58:14Z</time></trkpt><trkpt lat="35.6189143" lon="138.8712482"><ele>817.98</ele><time>2025-08-09T03:58:43Z</time></trkpt><trkpt lat="35.6187167" lon="138.8712718"><ele>812.14</ele><time>2025-08-09T03:59:02Z</time></trkpt><trkpt lat="35.618521" lon="138.8713423"><ele>808.0166666666668</ele><time>2025-08-09T03:59:20Z</time></trkpt><trkpt lat="35.6184127" lon="138.8715671"><ele>802.8033333333333</ele><time>2025-08-09T03:59:38Z</time></trkpt><trkpt lat="35.6182749" lon="138.8717355"><ele>797.9833333333332</ele><time>2025-08-09T03:59:53Z</time></trkpt><trkpt lat="35.6181071" lon="138.8718599"><ele>792.7800000000001</ele><time>2025-08-09T04:00:08Z</time></trkpt><trkpt lat="35.6179351" lon="138.8720049"><ele>787.7466666666668</ele><time>2025-08-09T04:00:29Z</time></trkpt><trkpt lat="35.6178265" lon="138.8722243"><ele>783.8333333333334</ele><time>2025-08-09T04:00:53Z</time></trkpt><trkpt lat="35.6177348" lon="138.8724537"><ele>778.8566666666667</ele><time>2025-08-09T04:01:20Z</time></trkpt><trkpt lat="35.6175679" lon="138.8725882"><ele>774.1233333333333</ele><time>2025-08-09T04:01:38Z</time></trkpt><trkpt lat="35.6174402" lon="138.8727483"><ele>767.1733333333333</ele><time>2025-08-09T04:01:56Z</time></trkpt><trkpt lat="35.6173171" lon="138.8729189"><ele>760.6866666666666</ele><time>2025-08-09T04:02:32Z</time></trkpt><trkpt lat="35.6172669" lon="138.8731376"><ele>757.6133333333333</ele><time>2025-08-09T04:02:52Z</time></trkpt><trkpt lat="35.6172143" lon="138.8733496"><ele>755.32</ele><time>2025-08-09T04:03:14Z</time></trkpt><trkpt lat="35.6171544" lon="138.8735587"><ele>753.6433333333334</ele><time>2025-08-09T04:03:32Z</time></trkpt><trkpt lat="35.6170856" lon="138.8738014"><ele>748.9233333333333</ele><time>2025-08-09T04:03:46Z</time></trkpt><trkpt lat="35.6169307" lon="138.8740611"><ele>741.4066666666666</ele><time>2025-08-09T04:04:58Z</time></trkpt><trkpt lat="35.6169091" lon="138.8743007"><ele>734.52</ele><time>2025-08-09T04:05:19Z</time></trkpt><trkpt lat="35.6168933" lon="138.8745321"><ele>726.4766666666666</ele><time>2025-08-09T04:05:34Z</time></trkpt><trkpt lat="35.6168588" lon="138.8747616"><ele>721.0466666666666</ele><time>2025-08-09T04:05:59Z</time></trkpt><trkpt lat="35.6167748" lon="138.8749579"><ele>714.6066666666666</ele><time>2025-08-09T04:06:25Z</time></trkpt><trkpt lat="35.6166619" lon="138.8751311"><ele>710.9466666666667</ele><time>2025-08-09T04:07:19Z</time></trkpt><trkpt lat="35.616494" lon="138.8753054"><ele>707.0766666666667</ele><time>2025-08-09T04:07:35Z</time></trkpt><trkpt lat="35.6163985" lon="138.8755066"><ele>703.25</ele><time>2025-08-09T04:07:55Z</time></trkpt><trkpt lat="35.6162628" lon="138.8756643"><ele>699.4233333333333</ele><time>2025-08-09T04:08:13Z</time></trkpt><trkpt lat="35.616157" lon="138.8758889"><ele>696.85</ele><time>2025-08-09T04:08:37Z</time></trkpt><trkpt lat="35.6160398" lon="138.8760943"><ele>694.64</ele><time>2025-08-09T04:08:55Z</time></trkpt><trkpt lat="35.6159526" lon="138.8763054"><ele>693.6366666666667</ele><time>2025-08-09T04:09:14Z</time></trkpt><trkpt lat="35.6158147" lon="138.8764503"><ele>689.7733333333332</ele><time>2025-08-09T04:09:35Z</time></trkpt><trkpt lat="35.6157195" lon="138.876644"><ele>685.5500000000001</ele><time>2025-08-09T04:09:53Z</time></trkpt><trkpt lat="35.6155527" lon="138.8768258"><ele>679.6466666666666</ele><time>2025-08-09T04:10:35Z</time></trkpt><trkpt lat="35.6153878" lon="138.8769189"><ele>675.3833333333333</ele><time>2025-08-09T04:11:02Z</time></trkpt><trkpt lat="35.6151906" lon="138.8768626"><ele>673.8666666666667</ele><time>2025-08-09T04:11:23Z</time></trkpt><trkpt lat="35.615005" lon="138.8768219"><ele>672.9266666666667</ele><time>2025-08-09T04:11:41Z</time></trkpt><trkpt lat="35.6148222" lon="138.8768162"><ele>672.61</ele><time>2025-08-09T04:11:56Z</time></trkpt><trkpt lat="35.6146173" lon="138.876877"><ele>669.2433333333333</ele><time>2025-08-09T04:12:13Z</time></trkpt><trkpt lat="35.6144046" lon="138.8768487"><ele>665.1999999999999</ele><time>2025-08-09T04:12:29Z</time></trkpt><trkpt lat="35.6142207" lon="138.876927"><ele>659.6233333333333</ele><time>2025-08-09T04:12:49Z</time></trkpt><trkpt lat="35.6140256" lon="138.876997"><ele>653.76</ele><time>2025-08-09T04:13:03Z</time></trkpt><trkpt lat="35.6138205" lon="138.8770164"><ele>648.1466666666666</ele><time>2025-08-09T04:13:34Z</time></trkpt><trkpt lat="35.6136102" lon="138.8769859"><ele>643.3533333333334</ele><time>2025-08-09T04:13:58Z</time></trkpt><trkpt lat="35.6133716" lon="138.8769596"><ele>639.4066666666668</ele><time>2025-08-09T04:14:22Z</time></trkpt><trkpt lat="35.6131763" lon="138.8769654"><ele>634.8433333333334</ele><time>2025-08-09T04:14:40Z</time></trkpt><trkpt lat="35.6129852" lon="138.8769325"><ele>630.9433333333333</ele><time>2025-08-09T04:15:00Z</time></trkpt><trkpt lat="35.6129223" lon="138.877149"><ele>628.4933333333333</ele><time>2025-08-09T04:16:33Z</time></trkpt><trkpt lat="35.6128242" lon="138.8773507"><ele>628.4633333333333</ele><time>2025-08-09T04:17:03Z</time></trkpt><trkpt lat="35.6126724" lon="138.8775035"><ele>628.4499999999999</ele><time>2025-08-09T04:17:30Z</time></trkpt><trkpt lat="35.6125532" lon="138.8777138"><ele>626.9066666666666</ele><time>2025-08-09T04:17:48Z</time></trkpt><trkpt lat="35.6123635" lon="138.8778866"><ele>622.5666666666667</ele><time>2025-08-09T04:18:07Z</time></trkpt><trkpt lat="35.6122591" lon="138.8780808"><ele>618.2766666666668</ele><time>2025-08-09T04:18:22Z</time></trkpt><trkpt lat="35.612095" lon="138.8782473"><ele>614.5099999999999</ele><time>2025-08-09T04:18:43Z</time></trkpt><trkpt lat="35.6119696" lon="138.8784435"><ele>613.5100000000001</ele><time>2025-08-09T04:18:58Z</time></trkpt><trkpt lat="35.6117866" lon="138.878555"><ele>611.7133333333333</ele><time>2025-08-09T04:19:13Z</time></trkpt><trkpt lat="35.6116879" lon="138.8787518"><ele>610.4566666666666</ele><time>2025-08-09T04:19:29Z</time></trkpt><trkpt lat="35.6115182" lon="138.8788947"><ele>607.5033333333333</ele><time>2025-08-09T04:19:50Z</time></trkpt><trkpt lat="35.6113944" lon="138.8790558"><ele>605.3266666666667</ele><time>2025-08-09T04:20:02Z</time></trkpt><trkpt lat="35.6112541" lon="138.879247"><ele>602.91</ele><time>2025-08-09T04:20:17Z</time></trkpt><trkpt lat="35.6111484" lon="138.8794288"><ele>601.69</ele><time>2025-08-09T04:20:29Z</time></trkpt><trkpt lat="35.6109748" lon="138.879588"><ele>599.6266666666667</ele><time>2025-08-09T04:20:49Z</time></trkpt><trkpt lat="35.6108162" lon="138.8797413"><ele>596.9533333333334</ele><time>2025-08-09T04:21:04Z</time></trkpt><trkpt lat="35.6106525" lon="138.87987"><ele>592.9066666666666</ele><time>2025-08-09T04:21:19Z</time></trkpt><trkpt lat="35.6104758" lon="138.8799561"><ele>589.19</ele><time>2025-08-09T04:21:35Z</time></trkpt><trkpt lat="35.6102578" lon="138.8800061"><ele>586.1633333333333</ele><time>2025-08-09T04:21:50Z</time></trkpt><trkpt lat="35.6100644" lon="138.8801263"><ele>583.9266666666666</ele><time>2025-08-09T04:22:08Z</time></trkpt><trkpt lat="35.6098361" lon="138.8801989"><ele>582.1</ele><time>2025-08-09T04:22:24Z</time></trkpt><trkpt lat="35.6096343" lon="138.8802026"><ele>578.6333333333333</ele><time>2025-08-09T04:22:35Z</time></trkpt><trkpt lat="35.6094336" lon="138.8802669"><ele>575.0266666666666</ele><time>2025-08-09T04:22:50Z</time></trkpt><trkpt lat="35.6092716" lon="138.8803731"><ele>571.98</ele><time>2025-08-09T04:23:02Z</time></trkpt><trkpt lat="35.6090612" lon="138.8804266"><ele>570.2800000000001</ele><time>2025-08-09T04:23:14Z</time></trkpt><trkpt lat="35.608864" lon="138.880469"><ele>568.4533333333334</ele><time>2025-08-09T04:23:26Z</time></trkpt><trkpt lat="35.6086559" lon="138.8806812"><ele>566.4833333333333</ele><time>2025-08-09T04:24:06Z</time></trkpt><trkpt lat="35.6084763" lon="138.8805555"><ele>564.2566666666667</ele><time>2025-08-09T04:24:33Z</time></trkpt><trkpt lat="35.608323" lon="138.8804111"><ele>561.9533333333334</ele><time>2025-08-09T04:24:48Z</time></trkpt><trkpt lat="35.608138" lon="138.8803023"><ele>559.73</ele><time>2025-08-09T04:25:02Z</time></trkpt><trkpt lat="35.607968" lon="138.8802199"><ele>557.56</ele><time>2025-08-09T04:25:18Z</time></trkpt><trkpt lat="35.6077919" lon="138.8801464"><ele>555.6566666666668</ele><time>2025-08-09T04:25:35Z</time></trkpt><trkpt lat="35.6076462" lon="138.8800151"><ele>553.6566666666666</ele><time>2025-08-09T04:26:11Z</time></trkpt><trkpt lat="35.6075198" lon="138.879821"><ele>551.7133333333333</ele><time>2025-08-09T04:26:23Z</time></trkpt><trkpt lat="35.6073533" lon="138.8797083"><ele>549.31</ele><time>2025-08-09T04:26:35Z</time></trkpt><trkpt lat="35.6071746" lon="138.8796422"><ele>546.0500000000001</ele><time>2025-08-09T04:26:53Z</time></trkpt><trkpt lat="35.6069933" lon="138.8795652"><ele>542.18</ele><time>2025-08-09T04:27:12Z</time></trkpt><trkpt lat="35.606802" lon="138.8795173"><ele>538.1966666666666</ele><time>2025-08-09T04:27:30Z</time></trkpt><trkpt lat="35.6065889" lon="138.8794394"><ele>534.8966666666666</ele><time>2025-08-09T04:27:45Z</time></trkpt><trkpt lat="35.6063782" lon="138.8793889"><ele>533.2333333333335</ele><time>2025-08-09T04:28:06Z</time></trkpt><trkpt lat="35.6062268" lon="138.8792511"><ele>531.49</ele><time>2025-08-09T04:28:21Z</time></trkpt><trkpt lat="35.606044" lon="138.8791746"><ele>529.8466666666667</ele><time>2025-08-09T04:28:42Z</time></trkpt><trkpt lat="35.605839" lon="138.8791639"><ele>527.84</ele><time>2025-08-09T04:29:39Z</time></trkpt><trkpt lat="35.6057766" lon="138.8793864"><ele>529.0500000000001</ele><time>2025-08-09T04:30:21Z</time></trkpt><trkpt lat="35.6055745" lon="138.8794404"><ele>530.1999999999999</ele><time>2025-08-09T04:32:10Z</time></trkpt><trkpt lat="35.6055912" lon="138.8791699"><ele>529.24</ele><time>2025-08-09T04:32:17Z</time></trkpt><trkpt lat="35.60542" lon="138.879241"><ele>526.5566666666666</ele><time>2025-08-09T04:33:00Z</time></trkpt><trkpt lat="35.6052644" lon="138.879117"><ele>523.2933333333334</ele><time>2025-08-09T04:33:17Z</time></trkpt><trkpt lat="35.6050845" lon="138.8789827"><ele>521.7433333333333</ele><time>2025-08-09T04:33:36Z</time></trkpt><trkpt lat="35.6049025" lon="138.8789626"><ele>519.61</ele><time>2025-08-09T04:33:48Z</time></trkpt><trkpt lat="35.6047124" lon="138.8788519"><ele>518.1833333333333</ele><time>2025-08-09T04:34:08Z</time></trkpt><trkpt lat="35.6045512" lon="138.8787226"><ele>516.7866666666665</ele><time>2025-08-09T04:34:19Z</time></trkpt><trkpt lat="35.6043572" lon="138.8787252"><ele>515.5166666666668</ele><time>2025-08-09T04:34:37Z</time></trkpt><trkpt lat="35.6042104" lon="138.8788588"><ele>514.9433333333333</ele><time>2025-08-09T04:34:52Z</time></trkpt><trkpt lat="35.6040239" lon="138.8789263"><ele>514.69</ele><time>2025-08-09T04:35:10Z</time></trkpt><trkpt lat="35.6038395" lon="138.8789575"><ele>513.9033333333333</ele><time>2025-08-09T04:35:25Z</time></trkpt><trkpt lat="35.603614" lon="138.8789313"><ele>512.1333333333333</ele><time>2025-08-09T04:35:39Z</time></trkpt><trkpt lat="35.6034213" lon="138.8788718"><ele>510.73</ele><time>2025-08-09T04:35:51Z</time></trkpt><trkpt lat="35.6032365" lon="138.8788379"><ele>509.64000000000004</ele><time>2025-08-09T04:36:03Z</time></trkpt><trkpt lat="35.6030719" lon="138.8787346"><ele>508.36666666666673</ele><time>2025-08-09T04:36:15Z</time></trkpt><trkpt lat="35.6029026" lon="138.8786552"><ele>506.11666666666673</ele><time>2025-08-09T04:36:27Z</time></trkpt><trkpt lat="35.6027347" lon="138.8785644"><ele>503.9666666666667</ele><time>2025-08-09T04:36:42Z</time></trkpt><trkpt lat="35.6025408" lon="138.8785139"><ele>502.62000000000006</ele><time>2025-08-09T04:36:57Z</time></trkpt><trkpt lat="35.6023497" lon="138.8784227"><ele>501.91333333333336</ele><time>2025-08-09T04:37:15Z</time></trkpt><trkpt lat="35.6021509" lon="138.8783107"><ele>501.27666666666664</ele><time>2025-08-09T04:37:30Z</time></trkpt><trkpt lat="35.6019594" lon="138.8782232"><ele>499.8</ele><time>2025-08-09T04:37:48Z</time></trkpt><trkpt lat="35.6017408" lon="138.8781489"><ele>496.96000000000004</ele><time>2025-08-09T04:38:05Z</time></trkpt><trkpt lat="35.6015473" lon="138.8781078"><ele>494.09666666666664</ele><time>2025-08-09T04:38:17Z</time></trkpt><trkpt lat="35.6013593" lon="138.8780968"><ele>492.1333333333334</ele><time>2025-08-09T04:38:32Z</time></trkpt><trkpt lat="35.6011631" lon="138.8781304"><ele>491.45666666666665</ele><time>2025-08-09T04:38:47Z</time></trkpt><trkpt lat="35.6009783" lon="138.8781613"><ele>489.52</ele><time>2025-08-09T04:39:04Z</time></trkpt><trkpt lat="35.6007977" lon="138.8782408"><ele>488.22333333333336</ele><time>2025-08-09T04:40:08Z</time></trkpt><trkpt lat="35.6005866" lon="138.8782296"><ele>486.8966666666667</ele><time>2025-08-09T04:40:23Z</time></trkpt><trkpt lat="35.6003864" lon="138.8781998"><ele>484.90333333333336</ele><time>2025-08-09T04:40:37Z</time></trkpt><trkpt lat="35.6001771" lon="138.8781787"><ele>481.3666666666666</ele><time>2025-08-09T04:40:53Z</time></trkpt><trkpt lat="35.5999997" lon="138.8781284"><ele>477.53333333333336</ele><time>2025-08-09T04:41:11Z</time></trkpt><trkpt lat="35.599813" lon="138.8781275"><ele>475.81666666666666</ele><time>2025-08-09T04:41:23Z</time></trkpt><trkpt lat="35.5996294" lon="138.8781185"><ele>475.05333333333334</ele><time>2025-08-09T04:41:35Z</time></trkpt><trkpt lat="35.5994746" lon="138.8782507"><ele>474.4433333333333</ele><time>2025-08-09T04:41:50Z</time></trkpt><trkpt lat="35.5993284" lon="138.8784108"><ele>473.79333333333335</ele><time>2025-08-09T04:42:07Z</time></trkpt><trkpt lat="35.5991591" lon="138.8785127"><ele>472.6333333333334</ele><time>2025-08-09T04:42:22Z</time></trkpt><trkpt lat="35.5989574" lon="138.8784974"><ele>471.15333333333336</ele><time>2025-08-09T04:42:40Z</time></trkpt><trkpt lat="35.5987691" lon="138.8784275"><ele>468.09999999999997</ele><time>2025-08-09T04:42:55Z</time></trkpt><trkpt lat="35.5985548" lon="138.8784295"><ele>464.8233333333333</ele><time>2025-08-09T04:43:10Z</time></trkpt><trkpt lat="35.598361" lon="138.8784324"><ele>461.7033333333334</ele><time>2025-08-09T04:43:22Z</time></trkpt><trkpt lat="35.5981537" lon="138.8785114"><ele>459.1233333333334</ele><time>2025-08-09T04:43:37Z</time></trkpt><trkpt lat="35.5979627" lon="138.8785271"><ele>456.4200000000001</ele><time>2025-08-09T04:43:54Z</time></trkpt><trkpt lat="35.5977886" lon="138.8785854"><ele>454.26666666666665</ele><time>2025-08-09T04:44:06Z</time></trkpt><trkpt lat="35.5976089" lon="138.8786604"><ele>453.6466666666667</ele><time>2025-08-09T04:44:21Z</time></trkpt><trkpt lat="35.5974442" lon="138.8788238"><ele>453.87999999999994</ele><time>2025-08-09T04:44:35Z</time></trkpt><trkpt lat="35.5973489" lon="138.8790719"><ele>453.93666666666667</ele><time>2025-08-09T04:44:50Z</time></trkpt><trkpt lat="35.5972595" lon="138.8793181"><ele>453.4766666666667</ele><time>2025-08-09T04:45:05Z</time></trkpt><trkpt lat="35.5972138" lon="138.8795627"><ele>453.2633333333333</ele><time>2025-08-09T04:45:20Z</time></trkpt><trkpt lat="35.5971262" lon="138.8798093"><ele>453.35666666666674</ele><time>2025-08-09T04:45:34Z</time></trkpt><trkpt lat="35.5970374" lon="138.8800303"><ele>454.18</ele><time>2025-08-09T04:45:48Z</time></trkpt><trkpt lat="35.5969708" lon="138.8802519"><ele>455.33666666666664</ele><time>2025-08-09T04:46:03Z</time></trkpt><trkpt lat="35.5969064" lon="138.8804791"><ele>456.79333333333335</ele><time>2025-08-09T04:46:18Z</time></trkpt><trkpt lat="35.5967726" lon="138.880686"><ele>457.3833333333334</ele><time>2025-08-09T04:46:36Z</time></trkpt><trkpt lat="35.5966441" lon="138.8809048"><ele>457.62000000000006</ele><time>2025-08-09T04:46:50Z</time></trkpt><trkpt lat="35.5965476" lon="138.881116"><ele>457.7366666666667</ele><time>2025-08-09T04:47:04Z</time></trkpt><trkpt lat="35.5963791" lon="138.8812912"><ele>457.9866666666667</ele><time>2025-08-09T04:47:16Z</time></trkpt><trkpt lat="35.5962453" lon="138.8814515"><ele>457.7966666666667</ele><time>2025-08-09T04:47:47Z</time></trkpt><trkpt lat="35.5960577" lon="138.8814844"><ele>457.42</ele><time>2025-08-09T04:48:05Z</time></trkpt><trkpt lat="35.5958399" lon="138.8814435"><ele>457.07</ele><time>2025-08-09T04:48:31Z</time></trkpt><trkpt lat="35.5956436" lon="138.8814845"><ele>456.9166666666667</ele><time>2025-08-09T04:48:46Z</time></trkpt><trkpt lat="35.5956164" lon="138.881757"><ele>456.64000000000004</ele><time>2025-08-09T04:49:02Z</time></trkpt><trkpt lat="35.5956011" lon="138.8819859"><ele>456.42333333333335</ele><time>2025-08-09T04:49:19Z</time></trkpt><trkpt lat="35.5955143" lon="138.8822173"><ele>456.3733333333334</ele><time>2025-08-09T04:49:35Z</time></trkpt><trkpt lat="35.5955851" lon="138.8824312"><ele>456.24333333333334</ele><time>2025-08-09T04:49:46Z</time></trkpt><trkpt lat="35.5956276" lon="138.8826627"><ele>456.19000000000005</ele><time>2025-08-09T04:49:58Z</time></trkpt><trkpt lat="35.5955726" lon="138.8829081"><ele>456.33666666666664</ele><time>2025-08-09T04:50:13Z</time></trkpt><trkpt lat="35.5955254" lon="138.8831413"><ele>456.6933333333333</ele><time>2025-08-09T04:50:25Z</time></trkpt><trkpt lat="35.5954647" lon="138.8833683"><ele>457.02666666666664</ele><time>2025-08-09T04:50:43Z</time></trkpt><trkpt lat="35.595373" lon="138.8835641"><ele>457.1333333333334</ele><time>2025-08-09T04:51:01Z</time></trkpt><trkpt lat="35.5952601" lon="138.8837851"><ele>457.26</ele><time>2025-08-09T04:51:13Z</time></trkpt><trkpt lat="35.595168" lon="138.8840224"><ele>457.3866666666667</ele><time>2025-08-09T04:51:30Z</time></trkpt><trkpt lat="35.5951364" lon="138.8842701"><ele>457.41</ele><time>2025-08-09T04:51:45Z</time></trkpt><trkpt lat="35.5949562" lon="138.8843631"><ele>457.6033333333333</ele><time>2025-08-09T04:52:03Z</time></trkpt><trkpt lat="35.5947694" lon="138.8843162"><ele>458.09</ele><time>2025-08-09T04:52:19Z</time></trkpt></trkseg></trk></gpx>