<?xml version='1.0' encoding='UTF-8'?><gpx creator="YAMAP - https://yamap.com" xsi:schemaLocation="http://www.topografix.com/GPX/1/1 http://www.topografix.com/GPX/1/1/gpx.xsd" version="1.1" xmlns="http://www.topografix.com/GPX/1/1" xmlns:xsi="http://www.w3.org/2001/XMLSchema-instance"><metadata><bounds maxlat="35.8307367" maxlon="139.2581502" minlat="35.7899926" minlon="139.1752543"/></metadata><trk><name>高水三山・青梅丘陵</name><number>1</number><trkseg><trkpt lat="35.8011248" lon="139.1832199"><ele>233.44</ele><time>2024-02-16T23:49:22Z</time></trkpt><trkpt lat="35.8012869" lon="139.1833362"><ele>235.68</ele><time>2024-02-16T23:49:38Z</time></trkpt><trkpt lat="35.801353" lon="139.1835496"><ele>236.12</ele><time>2024-02-16T23:49:50Z</time></trkpt><trkpt lat="35.801409" lon="139.1837747"><ele>236.69333333333336</ele><time>2024-02-16T23:50:04Z</time></trkpt><trkpt lat="35.8015761" lon="139.1838913"><ele>236.07666666666668</ele><time>2024-02-16T23:50:14Z</time></trkpt><trkpt lat="35.8016655" lon="139.1840887"><ele>235.85333333333335</ele><time>2024-02-16T23:50:24Z</time></trkpt><trkpt lat="35.8017097" lon="139.1843168"><ele>236.05666666666664</ele><time>2024-02-16T23:50:35Z</time></trkpt><trkpt lat="35.8017351" lon="139.1840888"><ele>236.38666666666668</ele><time>2024-02-16T23:50:51Z</time></trkpt><trkpt lat="35.8016975" lon="139.1838677"><ele>236.73666666666668</ele><time>2024-02-16T23:51:04Z</time></trkpt><trkpt lat="35.8016958" lon="139.183635"><ele>238.09666666666666</ele><time>2024-02-16T23:51:19Z</time></trkpt><trkpt lat="35.8017562" lon="139.1834238"><ele>240.27</ele><time>2024-02-16T23:51:27Z</time></trkpt><trkpt lat="35.8018446" lon="139.1832224"><ele>243.4466666666667</ele><time>2024-02-16T23:52:03Z</time></trkpt><trkpt lat="35.8019416" lon="139.1830277"><ele>247.01</ele><time>2024-02-16T23:52:56Z</time></trkpt><trkpt lat="35.8021312" lon="139.1830587"><ele>252.79333333333332</ele><time>2024-02-16T23:53:16Z</time></trkpt><trkpt lat="35.8023182" lon="139.1830824"><ele>263.08</ele><time>2024-02-16T23:53:33Z</time></trkpt><trkpt lat="35.8024721" lon="139.1832006"><ele>275.07</ele><time>2024-02-16T23:54:16Z</time></trkpt><trkpt lat="35.8026288" lon="139.1833121"><ele>284.67</ele><time>2024-02-16T23:54:40Z</time></trkpt><trkpt lat="35.8026339" lon="139.1830867"><ele>291.1666666666667</ele><time>2024-02-16T23:56:00Z</time></trkpt><trkpt lat="35.8025812" lon="139.1828744"><ele>296.28333333333336</ele><time>2024-02-16T23:57:07Z</time></trkpt><trkpt lat="35.8027249" lon="139.1827335"><ele>304.3566666666666</ele><time>2024-02-16T23:57:33Z</time></trkpt><trkpt lat="35.802906" lon="139.1828005"><ele>311.64666666666665</ele><time>2024-02-16T23:58:07Z</time></trkpt><trkpt lat="35.8029491" lon="139.1825797"><ele>322.0566666666667</ele><time>2024-02-16T23:59:35Z</time></trkpt><trkpt lat="35.8030895" lon="139.1824363"><ele>330.40333333333336</ele><time>2024-02-17T00:00:00Z</time></trkpt><trkpt lat="35.8032661" lon="139.1823606"><ele>339.1766666666667</ele><time>2024-02-17T00:01:10Z</time></trkpt><trkpt lat="35.8034449" lon="139.1823298"><ele>344.8066666666667</ele><time>2024-02-17T00:01:33Z</time></trkpt><trkpt lat="35.8035149" lon="139.1821258"><ele>348.99666666666667</ele><time>2024-02-17T00:02:19Z</time></trkpt><trkpt lat="35.8036241" lon="139.1819286"><ele>351.5566666666667</ele><time>2024-02-17T00:02:38Z</time></trkpt><trkpt lat="35.8037469" lon="139.1817597"><ele>352.4466666666667</ele><time>2024-02-17T00:02:56Z</time></trkpt><trkpt lat="35.8036927" lon="139.1815407"><ele>353.6166666666666</ele><time>2024-02-17T00:03:12Z</time></trkpt><trkpt lat="35.8035898" lon="139.1813573"><ele>355.7633333333333</ele><time>2024-02-17T00:03:48Z</time></trkpt><trkpt lat="35.803676" lon="139.1811619"><ele>360.15000000000003</ele><time>2024-02-17T00:04:34Z</time></trkpt><trkpt lat="35.8037197" lon="139.1809375"><ele>365.74333333333334</ele><time>2024-02-17T00:04:59Z</time></trkpt><trkpt lat="35.8037323" lon="139.1807165"><ele>372.1033333333334</ele><time>2024-02-17T00:06:12Z</time></trkpt><trkpt lat="35.8038145" lon="139.1805063"><ele>378.64000000000004</ele><time>2024-02-17T00:06:29Z</time></trkpt><trkpt lat="35.8039292" lon="139.1803305"><ele>387.0366666666667</ele><time>2024-02-17T00:06:48Z</time></trkpt><trkpt lat="35.8039891" lon="139.1801187"><ele>394.9466666666667</ele><time>2024-02-17T00:07:35Z</time></trkpt><trkpt lat="35.8041453" lon="139.1799919"><ele>402.9333333333334</ele><time>2024-02-17T00:08:49Z</time></trkpt><trkpt lat="35.8042786" lon="139.1798381"><ele>406.66</ele><time>2024-02-17T00:09:35Z</time></trkpt><trkpt lat="35.804466" lon="139.1798466"><ele>406.48</ele><time>2024-02-17T00:09:53Z</time></trkpt><trkpt lat="35.8046514" lon="139.1797757"><ele>399.3633333333334</ele><time>2024-02-17T00:10:11Z</time></trkpt><trkpt lat="35.8048217" lon="139.17985"><ele>394.25</ele><time>2024-02-17T00:10:36Z</time></trkpt><trkpt lat="35.8050331" lon="139.1799135"><ele>392.90333333333336</ele><time>2024-02-17T00:11:01Z</time></trkpt><trkpt lat="35.8052138" lon="139.1799375"><ele>395.8933333333334</ele><time>2024-02-17T00:11:16Z</time></trkpt><trkpt lat="35.8053735" lon="139.180045"><ele>399.02</ele><time>2024-02-17T00:11:30Z</time></trkpt><trkpt lat="35.8055605" lon="139.1801001"><ele>399.66</ele><time>2024-02-17T00:11:53Z</time></trkpt><trkpt lat="35.8057344" lon="139.1801893"><ele>399.27666666666664</ele><time>2024-02-17T00:12:05Z</time></trkpt><trkpt lat="35.8059134" lon="139.1802818"><ele>396.29333333333335</ele><time>2024-02-17T00:12:20Z</time></trkpt><trkpt lat="35.8060951" lon="139.1803344"><ele>394.53000000000003</ele><time>2024-02-17T00:12:37Z</time></trkpt><trkpt lat="35.8062663" lon="139.1804106"><ele>393.3433333333333</ele><time>2024-02-17T00:12:59Z</time></trkpt><trkpt lat="35.8064586" lon="139.1804562"><ele>391.4666666666667</ele><time>2024-02-17T00:13:14Z</time></trkpt><trkpt lat="35.8065755" lon="139.1806445"><ele>389.68666666666667</ele><time>2024-02-17T00:13:27Z</time></trkpt><trkpt lat="35.8067313" lon="139.1807644"><ele>386.9533333333334</ele><time>2024-02-17T00:13:46Z</time></trkpt><trkpt lat="35.8069171" lon="139.1808782"><ele>384.8733333333334</ele><time>2024-02-17T00:14:11Z</time></trkpt><trkpt lat="35.8070714" lon="139.1809978"><ele>383.34999999999997</ele><time>2024-02-17T00:14:29Z</time></trkpt><trkpt lat="35.8072154" lon="139.181131"><ele>384.6266666666667</ele><time>2024-02-17T00:14:57Z</time></trkpt><trkpt lat="35.8074123" lon="139.1811098"><ele>387.14000000000004</ele><time>2024-02-17T00:15:12Z</time></trkpt><trkpt lat="35.8075283" lon="139.1812805"><ele>388.9666666666667</ele><time>2024-02-17T00:15:33Z</time></trkpt><trkpt lat="35.8077101" lon="139.1813182"><ele>389.72333333333336</ele><time>2024-02-17T00:15:45Z</time></trkpt><trkpt lat="35.8078987" lon="139.1812928"><ele>389.90333333333336</ele><time>2024-02-17T00:15:59Z</time></trkpt><trkpt lat="35.8080537" lon="139.1814234"><ele>390.31</ele><time>2024-02-17T00:16:18Z</time></trkpt><trkpt lat="35.8082337" lon="139.1814392"><ele>391.15000000000003</ele><time>2024-02-17T00:16:46Z</time></trkpt><trkpt lat="35.8084216" lon="139.1814595"><ele>392.40333333333336</ele><time>2024-02-17T00:17:09Z</time></trkpt><trkpt lat="35.8086104" lon="139.1814626"><ele>392.90333333333336</ele><time>2024-02-17T00:17:23Z</time></trkpt><trkpt lat="35.8087942" lon="139.1814528"><ele>392.2133333333333</ele><time>2024-02-17T00:17:38Z</time></trkpt><trkpt lat="35.8089754" lon="139.1813925"><ele>389.24333333333334</ele><time>2024-02-17T00:18:01Z</time></trkpt><trkpt lat="35.8091403" lon="139.1812995"><ele>385.06333333333333</ele><time>2024-02-17T00:18:20Z</time></trkpt><trkpt lat="35.8093316" lon="139.1813045"><ele>381.6566666666667</ele><time>2024-02-17T00:19:08Z</time></trkpt><trkpt lat="35.8095269" lon="139.181317"><ele>380.75666666666666</ele><time>2024-02-17T00:19:55Z</time></trkpt><trkpt lat="35.8096982" lon="139.1812467"><ele>383.27333333333337</ele><time>2024-02-17T00:20:10Z</time></trkpt><trkpt lat="35.8098772" lon="139.1811821"><ele>388.02000000000004</ele><time>2024-02-17T00:20:33Z</time></trkpt><trkpt lat="35.8100508" lon="139.1810971"><ele>394.79333333333335</ele><time>2024-02-17T00:21:03Z</time></trkpt><trkpt lat="35.8102219" lon="139.1810189"><ele>400.34666666666664</ele><time>2024-02-17T00:21:36Z</time></trkpt><trkpt lat="35.8103889" lon="139.1809278"><ele>405.32666666666665</ele><time>2024-02-17T00:22:00Z</time></trkpt><trkpt lat="35.8105592" lon="139.1808435"><ele>408.76666666666665</ele><time>2024-02-17T00:22:18Z</time></trkpt><trkpt lat="35.8107233" lon="139.1807323"><ele>412.53333333333336</ele><time>2024-02-17T00:22:36Z</time></trkpt><trkpt lat="35.8108501" lon="139.1805725"><ele>414.10999999999996</ele><time>2024-02-17T00:22:52Z</time></trkpt><trkpt lat="35.8110214" lon="139.1805022"><ele>416.9666666666667</ele><time>2024-02-17T00:23:13Z</time></trkpt><trkpt lat="35.8112043" lon="139.1805467"><ele>422.12000000000006</ele><time>2024-02-17T00:23:37Z</time></trkpt><trkpt lat="35.8113841" lon="139.1805077"><ele>428.8966666666667</ele><time>2024-02-17T00:24:03Z</time></trkpt><trkpt lat="35.8115606" lon="139.1804431"><ele>434.9666666666667</ele><time>2024-02-17T00:24:45Z</time></trkpt><trkpt lat="35.8117094" lon="139.1803132"><ele>438.2366666666667</ele><time>2024-02-17T00:25:11Z</time></trkpt><trkpt lat="35.8118555" lon="139.1801786"><ele>442.59</ele><time>2024-02-17T00:26:12Z</time></trkpt><trkpt lat="35.8119945" lon="139.1800237"><ele>446.9066666666667</ele><time>2024-02-17T00:26:40Z</time></trkpt><trkpt lat="35.8121472" lon="139.1798915"><ele>450.92</ele><time>2024-02-17T00:27:02Z</time></trkpt><trkpt lat="35.8122889" lon="139.1797476"><ele>453.40000000000003</ele><time>2024-02-17T00:27:32Z</time></trkpt><trkpt lat="35.812464" lon="139.1796939"><ele>457.3233333333333</ele><time>2024-02-17T00:27:55Z</time></trkpt><trkpt lat="35.8126452" lon="139.1797148"><ele>462.59999999999997</ele><time>2024-02-17T00:28:28Z</time></trkpt><trkpt lat="35.8128053" lon="139.1795986"><ele>470.24</ele><time>2024-02-17T00:29:11Z</time></trkpt><trkpt lat="35.8129653" lon="139.1794886"><ele>478.53999999999996</ele><time>2024-02-17T00:29:25Z</time></trkpt><trkpt lat="35.812784" lon="139.1794721"><ele>480.7833333333333</ele><time>2024-02-17T00:30:14Z</time></trkpt><trkpt lat="35.8128967" lon="139.1792806"><ele>482.0833333333333</ele><time>2024-02-17T00:30:59Z</time></trkpt><trkpt lat="35.813067" lon="139.1791965"><ele>481.9266666666667</ele><time>2024-02-17T00:31:20Z</time></trkpt><trkpt lat="35.8132382" lon="139.1791216"><ele>489.51</ele><time>2024-02-17T00:32:14Z</time></trkpt><trkpt lat="35.8134091" lon="139.1790132"><ele>497.47333333333336</ele><time>2024-02-17T00:32:59Z</time></trkpt><trkpt lat="35.8134739" lon="139.178803"><ele>504.0166666666667</ele><time>2024-02-17T00:33:37Z</time></trkpt><trkpt lat="35.8135736" lon="139.1786138"><ele>511.2033333333334</ele><time>2024-02-17T00:34:04Z</time></trkpt><trkpt lat="35.8136199" lon="139.1783998"><ele>515.3433333333334</ele><time>2024-02-17T00:34:20Z</time></trkpt><trkpt lat="35.813574" lon="139.1781782"><ele>519.4166666666666</ele><time>2024-02-17T00:34:42Z</time></trkpt><trkpt lat="35.813677" lon="139.1779928"><ele>521.86</ele><time>2024-02-17T00:35:16Z</time></trkpt><trkpt lat="35.8137888" lon="139.1778191"><ele>527.5133333333333</ele><time>2024-02-17T00:35:46Z</time></trkpt><trkpt lat="35.8138989" lon="139.1776396"><ele>532.7066666666666</ele><time>2024-02-17T00:36:17Z</time></trkpt><trkpt lat="35.8139662" lon="139.1774283"><ele>532.7733333333334</ele><time>2024-02-17T00:36:39Z</time></trkpt><trkpt lat="35.8141185" lon="139.1775579"><ele>534.0066666666667</ele><time>2024-02-17T00:37:25Z</time></trkpt><trkpt lat="35.814162" lon="139.1777872"><ele>539.5466666666666</ele><time>2024-02-17T00:38:19Z</time></trkpt><trkpt lat="35.8140695" lon="139.1779864"><ele>549.9499999999999</ele><time>2024-02-17T00:38:35Z</time></trkpt><trkpt lat="35.8140451" lon="139.1782149"><ele>556.1166666666667</ele><time>2024-02-17T00:39:03Z</time></trkpt><trkpt lat="35.8141181" lon="139.1784218"><ele>559.7666666666667</ele><time>2024-02-17T00:39:43Z</time></trkpt><trkpt lat="35.8142315" lon="139.1782359"><ele>563.59</ele><time>2024-02-17T00:41:04Z</time></trkpt><trkpt lat="35.8143484" lon="139.1780647"><ele>568.1633333333334</ele><time>2024-02-17T00:41:40Z</time></trkpt><trkpt lat="35.8145208" lon="139.1779771"><ele>570.8000000000001</ele><time>2024-02-17T00:42:05Z</time></trkpt><trkpt lat="35.8146962" lon="139.1779218"><ele>573.68</ele><time>2024-02-17T00:42:27Z</time></trkpt><trkpt lat="35.8148696" lon="139.1778248"><ele>576.91</ele><time>2024-02-17T00:42:58Z</time></trkpt><trkpt lat="35.8150478" lon="139.1777864"><ele>579.5799999999999</ele><time>2024-02-17T00:43:23Z</time></trkpt><trkpt lat="35.8152237" lon="139.177721"><ele>579.63</ele><time>2024-02-17T00:43:59Z</time></trkpt><trkpt lat="35.8153966" lon="139.1776261"><ele>582.2833333333333</ele><time>2024-02-17T00:44:17Z</time></trkpt><trkpt lat="35.8155591" lon="139.1775178"><ele>586.52</ele><time>2024-02-17T00:45:19Z</time></trkpt><trkpt lat="35.8157109" lon="139.1773865"><ele>592.1966666666667</ele><time>2024-02-17T00:45:52Z</time></trkpt><trkpt lat="35.8158437" lon="139.177232"><ele>595.62</ele><time>2024-02-17T00:46:37Z</time></trkpt><trkpt lat="35.8160207" lon="139.1771682"><ele>601.2766666666666</ele><time>2024-02-17T00:47:10Z</time></trkpt><trkpt lat="35.8162017" lon="139.1771991"><ele>606.7366666666667</ele><time>2024-02-17T00:47:35Z</time></trkpt><trkpt lat="35.816376" lon="139.1772622"><ele>613.7833333333333</ele><time>2024-02-17T00:48:26Z</time></trkpt><trkpt lat="35.8165432" lon="139.1773577"><ele>619.2533333333333</ele><time>2024-02-17T00:48:57Z</time></trkpt><trkpt lat="35.8167123" lon="139.1774448"><ele>625.6566666666666</ele><time>2024-02-17T00:49:24Z</time></trkpt><trkpt lat="35.8168893" lon="139.1775195"><ele>630.1966666666667</ele><time>2024-02-17T00:49:42Z</time></trkpt><trkpt lat="35.8170544" lon="139.177628"><ele>634.4266666666667</ele><time>2024-02-17T00:50:10Z</time></trkpt><trkpt lat="35.8172316" lon="139.177698"><ele>637.4033333333333</ele><time>2024-02-17T00:50:37Z</time></trkpt><trkpt lat="35.8174062" lon="139.1777805"><ele>642.6633333333334</ele><time>2024-02-17T00:51:01Z</time></trkpt><trkpt lat="35.817522" lon="139.1779587"><ele>645.4566666666666</ele><time>2024-02-17T00:51:19Z</time></trkpt><trkpt lat="35.8176489" lon="139.1781239"><ele>648.62</ele><time>2024-02-17T00:51:42Z</time></trkpt><trkpt lat="35.8177386" lon="139.1783236"><ele>648.89</ele><time>2024-02-17T00:52:06Z</time></trkpt><trkpt lat="35.8178894" lon="139.178487"><ele>653.4599999999999</ele><time>2024-02-17T00:52:26Z</time></trkpt><trkpt lat="35.8180651" lon="139.1785516"><ele>661.0733333333334</ele><time>2024-02-17T00:52:43Z</time></trkpt><trkpt lat="35.8179017" lon="139.178729"><ele>662.87</ele><time>2024-02-17T00:52:54Z</time></trkpt><trkpt lat="35.8180813" lon="139.1787828"><ele>663.11</ele><time>2024-02-17T00:53:28Z</time></trkpt><trkpt lat="35.8180211" lon="139.178992"><ele>658.2199999999999</ele><time>2024-02-17T00:53:48Z</time></trkpt><trkpt lat="35.8180376" lon="139.1792163"><ele>662.89</ele><time>2024-02-17T00:54:08Z</time></trkpt><trkpt lat="35.8181861" lon="139.1790859"><ele>667.98</ele><time>2024-02-17T00:55:33Z</time></trkpt><trkpt lat="35.8183463" lon="139.1789494"><ele>675.57</ele><time>2024-02-17T00:56:12Z</time></trkpt><trkpt lat="35.8185384" lon="139.1789083"><ele>683.3766666666667</ele><time>2024-02-17T00:56:35Z</time></trkpt><trkpt lat="35.8186536" lon="139.1787362"><ele>693.7566666666667</ele><time>2024-02-17T00:58:42Z</time></trkpt><trkpt lat="35.8185512" lon="139.1785428"><ele>703.9166666666666</ele><time>2024-02-17T00:59:38Z</time></trkpt><trkpt lat="35.81858" lon="139.1783237"><ele>715.6233333333333</ele><time>2024-02-17T01:00:33Z</time></trkpt><trkpt lat="35.8185008" lon="139.1781204"><ele>720.8333333333334</ele><time>2024-02-17T01:01:20Z</time></trkpt><trkpt lat="35.8185282" lon="139.1778991"><ele>727.1533333333333</ele><time>2024-02-17T01:01:45Z</time></trkpt><trkpt lat="35.8186845" lon="139.1777856"><ele>729.84</ele><time>2024-02-17T01:03:10Z</time></trkpt><trkpt lat="35.8188684" lon="139.1778244"><ele>739.8333333333334</ele><time>2024-02-17T01:03:24Z</time></trkpt><trkpt lat="35.8190403" lon="139.1777523"><ele>747.4366666666666</ele><time>2024-02-17T01:04:11Z</time></trkpt><trkpt lat="35.8192205" lon="139.177677"><ele>752.1733333333333</ele><time>2024-02-17T01:04:43Z</time></trkpt><trkpt lat="35.8193177" lon="139.1774808"><ele>749.89</ele><time>2024-02-17T01:05:18Z</time></trkpt><trkpt lat="35.8195023" lon="139.1774434"><ele>743.5566666666667</ele><time>2024-02-17T01:06:13Z</time></trkpt><trkpt lat="35.8196784" lon="139.1774977"><ele>735.7766666666666</ele><time>2024-02-17T01:06:33Z</time></trkpt><trkpt lat="35.8198508" lon="139.1775627"><ele>726.85</ele><time>2024-02-17T01:07:14Z</time></trkpt><trkpt lat="35.8200392" lon="139.1775243"><ele>719.3533333333334</ele><time>2024-02-17T01:09:10Z</time></trkpt><trkpt lat="35.8202197" lon="139.177544"><ele>711.4733333333334</ele><time>2024-02-17T01:11:27Z</time></trkpt><trkpt lat="35.8203742" lon="139.177419"><ele>703.8333333333334</ele><time>2024-02-17T01:12:24Z</time></trkpt><trkpt lat="35.820559" lon="139.1774013"><ele>696.8266666666667</ele><time>2024-02-17T01:12:54Z</time></trkpt><trkpt lat="35.8207327" lon="139.1773348"><ele>691.1333333333333</ele><time>2024-02-17T01:13:11Z</time></trkpt><trkpt lat="35.8209013" lon="139.1772117"><ele>687.4</ele><time>2024-02-17T01:13:23Z</time></trkpt><trkpt lat="35.8210761" lon="139.1771325"><ele>685.1733333333333</ele><time>2024-02-17T01:13:46Z</time></trkpt><trkpt lat="35.821212" lon="139.1769691"><ele>683.8033333333333</ele><time>2024-02-17T01:14:00Z</time></trkpt><trkpt lat="35.8213958" lon="139.1769117"><ele>681.8166666666666</ele><time>2024-02-17T01:14:15Z</time></trkpt><trkpt lat="35.8215128" lon="139.1767372"><ele>680.0666666666666</ele><time>2024-02-17T01:14:35Z</time></trkpt><trkpt lat="35.8216955" lon="139.1767359"><ele>677.1</ele><time>2024-02-17T01:14:48Z</time></trkpt><trkpt lat="35.8218786" lon="139.1767792"><ele>674.8133333333334</ele><time>2024-02-17T01:15:03Z</time></trkpt><trkpt lat="35.822053" lon="139.176857"><ele>672.3833333333333</ele><time>2024-02-17T01:15:18Z</time></trkpt><trkpt lat="35.8222315" lon="139.1768086"><ele>672.1166666666667</ele><time>2024-02-17T01:15:35Z</time></trkpt><trkpt lat="35.8224022" lon="139.176711"><ele>672.1333333333333</ele><time>2024-02-17T01:15:53Z</time></trkpt><trkpt lat="35.8225828" lon="139.1767247"><ele>674.2166666666667</ele><time>2024-02-17T01:16:11Z</time></trkpt><trkpt lat="35.822771" lon="139.1767092"><ele>677.7366666666667</ele><time>2024-02-17T01:16:35Z</time></trkpt><trkpt lat="35.8229514" lon="139.1766845"><ele>682.25</ele><time>2024-02-17T01:17:08Z</time></trkpt><trkpt lat="35.8231368" lon="139.1766165"><ele>688.2966666666667</ele><time>2024-02-17T01:17:25Z</time></trkpt><trkpt lat="35.8233146" lon="139.1766669"><ele>694.1433333333333</ele><time>2024-02-17T01:17:46Z</time></trkpt><trkpt lat="35.823502" lon="139.1766711"><ele>698.7966666666666</ele><time>2024-02-17T01:18:16Z</time></trkpt><trkpt lat="35.8236818" lon="139.1766187"><ele>697.2966666666667</ele><time>2024-02-17T01:19:11Z</time></trkpt><trkpt lat="35.8238142" lon="139.176465"><ele>694.8933333333333</ele><time>2024-02-17T01:19:23Z</time></trkpt><trkpt lat="35.8239598" lon="139.1763108"><ele>694.8666666666667</ele><time>2024-02-17T01:19:39Z</time></trkpt><trkpt lat="35.8241458" lon="139.1762669"><ele>698.4</ele><time>2024-02-17T01:19:53Z</time></trkpt><trkpt lat="35.8243287" lon="139.1762822"><ele>702.0133333333333</ele><time>2024-02-17T01:20:06Z</time></trkpt><trkpt lat="35.824511" lon="139.176305"><ele>702.4866666666667</ele><time>2024-02-17T01:20:29Z</time></trkpt><trkpt lat="35.8246712" lon="139.1762"><ele>704.3699999999999</ele><time>2024-02-17T01:20:52Z</time></trkpt><trkpt lat="35.8248479" lon="139.1761527"><ele>706.3666666666667</ele><time>2024-02-17T01:21:13Z</time></trkpt><trkpt lat="35.8250255" lon="139.1762029"><ele>707.4966666666666</ele><time>2024-02-17T01:21:26Z</time></trkpt><trkpt lat="35.8251925" lon="139.1761151"><ele>703.6433333333334</ele><time>2024-02-17T01:21:45Z</time></trkpt><trkpt lat="35.8252978" lon="139.1759334"><ele>698.37</ele><time>2024-02-17T01:22:01Z</time></trkpt><trkpt lat="35.8254635" lon="139.1758219"><ele>694.4066666666668</ele><time>2024-02-17T01:22:22Z</time></trkpt><trkpt lat="35.8256498" lon="139.1758057"><ele>693.0933333333332</ele><time>2024-02-17T01:22:37Z</time></trkpt><trkpt lat="35.8257391" lon="139.1756132"><ele>689.91</ele><time>2024-02-17T01:22:49Z</time></trkpt><trkpt lat="35.8259264" lon="139.1755996"><ele>689.5866666666666</ele><time>2024-02-17T01:23:04Z</time></trkpt><trkpt lat="35.8261043" lon="139.1756599"><ele>691.3033333333333</ele><time>2024-02-17T01:23:21Z</time></trkpt><trkpt lat="35.8262762" lon="139.1757328"><ele>695.5333333333333</ele><time>2024-02-17T01:23:39Z</time></trkpt><trkpt lat="35.8264258" lon="139.1755838"><ele>696.0333333333333</ele><time>2024-02-17T01:24:06Z</time></trkpt><trkpt lat="35.8265483" lon="139.1754108"><ele>694.6866666666666</ele><time>2024-02-17T01:24:21Z</time></trkpt><trkpt lat="35.8267316" lon="139.1754097"><ele>695.0033333333334</ele><time>2024-02-17T01:24:38Z</time></trkpt><trkpt lat="35.8269206" lon="139.1753769"><ele>698.3733333333333</ele><time>2024-02-17T01:25:00Z</time></trkpt><trkpt lat="35.827079" lon="139.1752543"><ele>703.6266666666667</ele><time>2024-02-17T01:25:18Z</time></trkpt><trkpt lat="35.8272676" lon="139.1752617"><ele>707.4233333333333</ele><time>2024-02-17T01:25:37Z</time></trkpt><trkpt lat="35.8273884" lon="139.175429"><ele>709.07</ele><time>2024-02-17T01:25:57Z</time></trkpt><trkpt lat="35.827537" lon="139.1755686"><ele>709.9433333333333</ele><time>2024-02-17T01:26:14Z</time></trkpt><trkpt lat="35.827683" lon="139.1757023"><ele>711.0066666666667</ele><time>2024-02-17T01:26:29Z</time></trkpt><trkpt lat="35.8278475" lon="139.1758072"><ele>712.5066666666667</ele><time>2024-02-17T01:26:43Z</time></trkpt><trkpt lat="35.8280002" lon="139.175927"><ele>714.06</ele><time>2024-02-17T01:26:58Z</time></trkpt><trkpt lat="35.828147" lon="139.176061"><ele>715.2166666666667</ele><time>2024-02-17T01:27:39Z</time></trkpt><trkpt lat="35.8282664" lon="139.1762455"><ele>717.2666666666668</ele><time>2024-02-17T01:28:18Z</time></trkpt><trkpt lat="35.8283765" lon="139.1764252"><ele>718.66</ele><time>2024-02-17T01:28:38Z</time></trkpt><trkpt lat="35.8285036" lon="139.1765827"><ele>719.8433333333334</ele><time>2024-02-17T01:28:54Z</time></trkpt><trkpt lat="35.8286897" lon="139.176648"><ele>719.2933333333334</ele><time>2024-02-17T01:29:10Z</time></trkpt><trkpt lat="35.8288365" lon="139.176802"><ele>719.0766666666667</ele><time>2024-02-17T01:29:27Z</time></trkpt><trkpt lat="35.8290147" lon="139.1768864"><ele>718.6</ele><time>2024-02-17T01:29:48Z</time></trkpt><trkpt lat="35.8291697" lon="139.1770126"><ele>717.8800000000001</ele><time>2024-02-17T01:30:06Z</time></trkpt><trkpt lat="35.8292633" lon="139.177203"><ele>719.2533333333334</ele><time>2024-02-17T01:30:34Z</time></trkpt><trkpt lat="35.829383" lon="139.1773687"><ele>723.7200000000001</ele><time>2024-02-17T01:30:51Z</time></trkpt><trkpt lat="35.8294326" lon="139.1775934"><ele>728.5266666666666</ele><time>2024-02-17T01:31:10Z</time></trkpt><trkpt lat="35.8295922" lon="139.1777024"><ele>735.5633333333334</ele><time>2024-02-17T01:32:19Z</time></trkpt><trkpt lat="35.8296809" lon="139.1778966"><ele>740.2666666666668</ele><time>2024-02-17T01:32:46Z</time></trkpt><trkpt lat="35.8298661" lon="139.1779113"><ele>749.8166666666666</ele><time>2024-02-17T01:33:20Z</time></trkpt><trkpt lat="35.8300729" lon="139.1779432"><ele>757.3600000000001</ele><time>2024-02-17T01:34:19Z</time></trkpt><trkpt lat="35.8302527" lon="139.1778972"><ele>765.0866666666667</ele><time>2024-02-17T01:35:08Z</time></trkpt><trkpt lat="35.830377" lon="139.1780758"><ele>772.5466666666667</ele><time>2024-02-17T01:37:16Z</time></trkpt><trkpt lat="35.8305022" lon="139.1782401"><ele>779.9000000000001</ele><time>2024-02-17T01:38:15Z</time></trkpt><trkpt lat="35.8305634" lon="139.1784519"><ele>786.9066666666668</ele><time>2024-02-17T01:38:30Z</time></trkpt><trkpt lat="35.8306872" lon="139.1786169"><ele>790.4966666666666</ele><time>2024-02-17T01:38:44Z</time></trkpt><trkpt lat="35.8307367" lon="139.1788325"><ele>791.0633333333334</ele><time>2024-02-17T01:38:59Z</time></trkpt><trkpt lat="35.8305677" lon="139.1789146"><ele>791.4066666666668</ele><time>2024-02-17T01:40:39Z</time></trkpt><trkpt lat="35.8305051" lon="139.1791264"><ele>791.1600000000002</ele><time>2024-02-17T01:41:54Z</time></trkpt><trkpt lat="35.8304242" lon="139.1793377"><ele>789.6166666666668</ele><time>2024-02-17T01:42:10Z</time></trkpt><trkpt lat="35.8302836" lon="139.1794865"><ele>785.9866666666667</ele><time>2024-02-17T01:42:27Z</time></trkpt><trkpt lat="35.8301446" lon="139.1796309"><ele>779.65</ele><time>2024-02-17T01:42:42Z</time></trkpt><trkpt lat="35.8301841" lon="139.179852"><ele>771.4833333333332</ele><time>2024-02-17T01:43:54Z</time></trkpt><trkpt lat="35.8301254" lon="139.1800678"><ele>760.7233333333334</ele><time>2024-02-17T01:44:41Z</time></trkpt><trkpt lat="35.8299663" lon="139.1801891"><ele>752.4033333333333</ele><time>2024-02-17T01:45:15Z</time></trkpt><trkpt lat="35.8300347" lon="139.1804129"><ele>743.4833333333332</ele><time>2024-02-17T01:46:20Z</time></trkpt><trkpt lat="35.8300972" lon="139.1806262"><ele>736.8566666666667</ele><time>2024-02-17T01:46:49Z</time></trkpt><trkpt lat="35.830125" lon="139.1808576"><ele>730.0099999999999</ele><time>2024-02-17T01:46:57Z</time></trkpt><trkpt lat="35.8301469" lon="139.181078"><ele>726.5666666666667</ele><time>2024-02-17T01:47:11Z</time></trkpt><trkpt lat="35.8299867" lon="139.1811866"><ele>727.4633333333335</ele><time>2024-02-17T01:47:26Z</time></trkpt><trkpt lat="35.8300133" lon="139.1814291"><ele>728.8566666666667</ele><time>2024-02-17T01:47:42Z</time></trkpt><trkpt lat="35.8299133" lon="139.1816178"><ele>730.13</ele><time>2024-02-17T01:47:53Z</time></trkpt><trkpt lat="35.8298494" lon="139.1818275"><ele>728.15</ele><time>2024-02-17T01:48:05Z</time></trkpt><trkpt lat="35.829696" lon="139.1819542"><ele>724.1733333333333</ele><time>2024-02-17T01:48:16Z</time></trkpt><trkpt lat="35.8295865" lon="139.1821364"><ele>719.0266666666666</ele><time>2024-02-17T01:48:35Z</time></trkpt><trkpt lat="35.8294417" lon="139.1822918"><ele>714.9333333333334</ele><time>2024-02-17T01:48:50Z</time></trkpt><trkpt lat="35.8292857" lon="139.1824052"><ele>715.9200000000001</ele><time>2024-02-17T01:50:09Z</time></trkpt><trkpt lat="35.8292306" lon="139.1826201"><ele>718.12</ele><time>2024-02-17T01:50:25Z</time></trkpt><trkpt lat="35.8292404" lon="139.182842"><ele>720.3600000000001</ele><time>2024-02-17T01:50:39Z</time></trkpt><trkpt lat="35.8292107" lon="139.1830767"><ele>722.4866666666667</ele><time>2024-02-17T01:50:57Z</time></trkpt><trkpt lat="35.8292238" lon="139.1833081"><ele>725.5966666666667</ele><time>2024-02-17T01:51:11Z</time></trkpt><trkpt lat="35.8293254" lon="139.1834935"><ele>727.4666666666667</ele><time>2024-02-17T01:51:25Z</time></trkpt><trkpt lat="35.8293086" lon="139.1837145"><ele>727.93</ele><time>2024-02-17T01:51:42Z</time></trkpt><trkpt lat="35.8292972" lon="139.1839439"><ele>729.1933333333333</ele><time>2024-02-17T01:51:56Z</time></trkpt><trkpt lat="35.8294054" lon="139.1841366"><ele>731.0766666666667</ele><time>2024-02-17T01:52:07Z</time></trkpt><trkpt lat="35.8294609" lon="139.1843507"><ele>732.0066666666667</ele><time>2024-02-17T01:52:26Z</time></trkpt><trkpt lat="35.8294688" lon="139.1845752"><ele>731.7533333333334</ele><time>2024-02-17T01:52:47Z</time></trkpt><trkpt lat="35.8295238" lon="139.1847911"><ele>731.9766666666668</ele><time>2024-02-17T01:53:06Z</time></trkpt><trkpt lat="35.8297047" lon="139.1847959"><ele>730.8166666666666</ele><time>2024-02-17T01:53:13Z</time></trkpt><trkpt lat="35.8296044" lon="139.1850046"><ele>730.3166666666666</ele><time>2024-02-17T01:53:22Z</time></trkpt><trkpt lat="35.8296768" lon="139.1852154"><ele>729.3666666666667</ele><time>2024-02-17T01:53:38Z</time></trkpt><trkpt lat="35.8296127" lon="139.1854245"><ele>728.6366666666667</ele><time>2024-02-17T01:54:00Z</time></trkpt><trkpt lat="35.8295952" lon="139.1856581"><ele>726.6033333333334</ele><time>2024-02-17T01:54:20Z</time></trkpt><trkpt lat="35.8295982" lon="139.1858811"><ele>725.0533333333333</ele><time>2024-02-17T01:54:39Z</time></trkpt><trkpt lat="35.8295735" lon="139.1861027"><ele>723.4399999999999</ele><time>2024-02-17T01:54:54Z</time></trkpt><trkpt lat="35.8295342" lon="139.1863329"><ele>721.4266666666666</ele><time>2024-02-17T01:55:08Z</time></trkpt><trkpt lat="35.8294592" lon="139.1865627"><ele>718.1833333333334</ele><time>2024-02-17T01:55:26Z</time></trkpt><trkpt lat="35.8294375" lon="139.1867869"><ele>715.4699999999999</ele><time>2024-02-17T01:55:41Z</time></trkpt><trkpt lat="35.8294056" lon="139.1870085"><ele>715.8233333333333</ele><time>2024-02-17T01:55:53Z</time></trkpt><trkpt lat="35.8293873" lon="139.1872449"><ele>717.6766666666667</ele><time>2024-02-17T01:56:08Z</time></trkpt><trkpt lat="35.829352" lon="139.1874876"><ele>719.7866666666667</ele><time>2024-02-17T01:56:25Z</time></trkpt><trkpt lat="35.8292964" lon="139.1877082"><ele>717.8333333333334</ele><time>2024-02-17T01:56:38Z</time></trkpt><trkpt lat="35.8293393" lon="139.1879233"><ele>716.3800000000001</ele><time>2024-02-17T01:56:52Z</time></trkpt><trkpt lat="35.8294697" lon="139.1881003"><ele>712.77</ele><time>2024-02-17T01:57:14Z</time></trkpt><trkpt lat="35.8296384" lon="139.1882132"><ele>710.94</ele><time>2024-02-17T01:57:35Z</time></trkpt><trkpt lat="35.8296877" lon="139.1884284"><ele>708.6833333333334</ele><time>2024-02-17T01:58:00Z</time></trkpt><trkpt lat="35.8296955" lon="139.1886627"><ele>709.6933333333333</ele><time>2024-02-17T01:58:16Z</time></trkpt><trkpt lat="35.829656" lon="139.1888891"><ele>710.93</ele><time>2024-02-17T01:58:30Z</time></trkpt><trkpt lat="35.829563" lon="139.1890878"><ele>712.4000000000001</ele><time>2024-02-17T01:58:46Z</time></trkpt><trkpt lat="35.8294334" lon="139.1892538"><ele>714.61</ele><time>2024-02-17T01:59:05Z</time></trkpt><trkpt lat="35.8295185" lon="139.1894608"><ele>713.2666666666668</ele><time>2024-02-17T01:59:18Z</time></trkpt><trkpt lat="35.8294833" lon="139.1896789"><ele>712.96</ele><time>2024-02-17T01:59:36Z</time></trkpt><trkpt lat="35.829424" lon="139.1898885"><ele>711.9833333333335</ele><time>2024-02-17T01:59:56Z</time></trkpt><trkpt lat="35.8293046" lon="139.1900588"><ele>715.2533333333334</ele><time>2024-02-17T02:00:06Z</time></trkpt><trkpt lat="35.829145" lon="139.1901788"><ele>719.0366666666667</ele><time>2024-02-17T02:00:29Z</time></trkpt><trkpt lat="35.8289978" lon="139.1903656"><ele>722.0500000000001</ele><time>2024-02-17T02:00:50Z</time></trkpt><trkpt lat="35.8289626" lon="139.1906116"><ele>723.1233333333333</ele><time>2024-02-17T02:00:56Z</time></trkpt><trkpt lat="35.8287887" lon="139.1906758"><ele>721.2800000000001</ele><time>2024-02-17T02:01:10Z</time></trkpt><trkpt lat="35.8286062" lon="139.1907283"><ele>718.2566666666667</ele><time>2024-02-17T02:01:39Z</time></trkpt><trkpt lat="35.8285812" lon="139.1909568"><ele>715.3166666666666</ele><time>2024-02-17T02:02:31Z</time></trkpt><trkpt lat="35.8286247" lon="139.1911928"><ele>712.6066666666667</ele><time>2024-02-17T02:02:56Z</time></trkpt><trkpt lat="35.8284714" lon="139.1913165"><ele>708.2433333333333</ele><time>2024-02-17T02:03:38Z</time></trkpt><trkpt lat="35.8283064" lon="139.1914105"><ele>707.3466666666667</ele><time>2024-02-17T02:03:51Z</time></trkpt><trkpt lat="35.8282698" lon="139.1916303"><ele>706.6866666666666</ele><time>2024-02-17T02:04:04Z</time></trkpt><trkpt lat="35.8283157" lon="139.1918513"><ele>708.4133333333333</ele><time>2024-02-17T02:04:24Z</time></trkpt><trkpt lat="35.8283359" lon="139.1920736"><ele>706.3633333333333</ele><time>2024-02-17T02:04:44Z</time></trkpt><trkpt lat="35.8282486" lon="139.1922747"><ele>706.4066666666668</ele><time>2024-02-17T02:04:58Z</time></trkpt><trkpt lat="35.8282429" lon="139.1925006"><ele>705.9866666666667</ele><time>2024-02-17T02:05:13Z</time></trkpt><trkpt lat="35.8281657" lon="139.1927081"><ele>706.5966666666667</ele><time>2024-02-17T02:05:28Z</time></trkpt><trkpt lat="35.8280506" lon="139.1928856"><ele>704.8833333333333</ele><time>2024-02-17T02:05:42Z</time></trkpt><trkpt lat="35.8279084" lon="139.1930311"><ele>703.77</ele><time>2024-02-17T02:05:56Z</time></trkpt><trkpt lat="35.8278294" lon="139.193235"><ele>702.6133333333332</ele><time>2024-02-17T02:06:08Z</time></trkpt><trkpt lat="35.8276348" lon="139.1932386"><ele>702.2966666666666</ele><time>2024-02-17T02:06:26Z</time></trkpt><trkpt lat="35.827604" lon="139.1934679"><ele>700.2533333333332</ele><time>2024-02-17T02:06:42Z</time></trkpt><trkpt lat="35.8275137" lon="139.1936615"><ele>696.4933333333333</ele><time>2024-02-17T02:07:00Z</time></trkpt><trkpt lat="35.8273225" lon="139.1936612"><ele>692.1266666666667</ele><time>2024-02-17T02:07:22Z</time></trkpt><trkpt lat="35.827154" lon="139.1937546"><ele>687.8366666666667</ele><time>2024-02-17T02:07:35Z</time></trkpt><trkpt lat="35.8269809" lon="139.1938676"><ele>682.25</ele><time>2024-02-17T02:08:02Z</time></trkpt><trkpt lat="35.8268634" lon="139.1936961"><ele>675.56</ele><time>2024-02-17T02:08:21Z</time></trkpt><trkpt lat="35.8268489" lon="139.193474"><ele>667.8533333333334</ele><time>2024-02-17T02:08:43Z</time></trkpt><trkpt lat="35.8267646" lon="139.1936754"><ele>662.8833333333333</ele><time>2024-02-17T02:09:02Z</time></trkpt><trkpt lat="35.8265876" lon="139.1937183"><ele>657.5333333333334</ele><time>2024-02-17T02:09:35Z</time></trkpt><trkpt lat="35.8264592" lon="139.1938822"><ele>653.35</ele><time>2024-02-17T02:09:51Z</time></trkpt><trkpt lat="35.826278" lon="139.1939135"><ele>644.73</ele><time>2024-02-17T02:10:08Z</time></trkpt><trkpt lat="35.8262167" lon="139.1941345"><ele>638.21</ele><time>2024-02-17T02:10:31Z</time></trkpt><trkpt lat="35.8260767" lon="139.1942837"><ele>632.0266666666666</ele><time>2024-02-17T02:10:45Z</time></trkpt><trkpt lat="35.8259026" lon="139.1943873"><ele>630.5600000000001</ele><time>2024-02-17T02:11:00Z</time></trkpt><trkpt lat="35.8257988" lon="139.1945833"><ele>628.3766666666667</ele><time>2024-02-17T02:11:15Z</time></trkpt><trkpt lat="35.8256283" lon="139.1946591"><ele>626.0766666666667</ele><time>2024-02-17T02:11:30Z</time></trkpt><trkpt lat="35.8254996" lon="139.1948201"><ele>622.5933333333334</ele><time>2024-02-17T02:11:47Z</time></trkpt><trkpt lat="35.8253869" lon="139.194999"><ele>618.1833333333334</ele><time>2024-02-17T02:12:06Z</time></trkpt><trkpt lat="35.8252253" lon="139.1951145"><ele>613.5333333333334</ele><time>2024-02-17T02:12:24Z</time></trkpt><trkpt lat="35.8251728" lon="139.1953308"><ele>610.6066666666667</ele><time>2024-02-17T02:12:45Z</time></trkpt><trkpt lat="35.8250093" lon="139.1954287"><ele>607.5866666666667</ele><time>2024-02-17T02:13:01Z</time></trkpt><trkpt lat="35.8248427" lon="139.1955419"><ele>604.1033333333334</ele><time>2024-02-17T02:13:18Z</time></trkpt><trkpt lat="35.8246942" lon="139.1956888"><ele>597.3233333333334</ele><time>2024-02-17T02:13:39Z</time></trkpt><trkpt lat="35.8245272" lon="139.1957761"><ele>590.6966666666667</ele><time>2024-02-17T02:13:58Z</time></trkpt><trkpt lat="35.8243622" lon="139.1958783"><ele>585.2600000000001</ele><time>2024-02-17T02:14:24Z</time></trkpt><trkpt lat="35.8241804" lon="139.1959334"><ele>580.6366666666667</ele><time>2024-02-17T02:14:44Z</time></trkpt><trkpt lat="35.823998" lon="139.1958732"><ele>574.5533333333334</ele><time>2024-02-17T02:15:06Z</time></trkpt><trkpt lat="35.8238217" lon="139.1959298"><ele>568.1566666666666</ele><time>2024-02-17T02:15:29Z</time></trkpt><trkpt lat="35.8236737" lon="139.1960629"><ele>562.41</ele><time>2024-02-17T02:15:51Z</time></trkpt><trkpt lat="35.8238193" lon="139.1961961"><ele>559.98</ele><time>2024-02-17T02:16:08Z</time></trkpt><trkpt lat="35.8238656" lon="139.1964161"><ele>556.5833333333334</ele><time>2024-02-17T02:16:34Z</time></trkpt><trkpt lat="35.8237535" lon="139.1966004"><ele>552.16</ele><time>2024-02-17T02:16:51Z</time></trkpt><trkpt lat="35.8237297" lon="139.1968207"><ele>543.0</ele><time>2024-02-17T02:17:40Z</time></trkpt><trkpt lat="35.8237091" lon="139.197042"><ele>533.1933333333333</ele><time>2024-02-17T02:17:57Z</time></trkpt><trkpt lat="35.8238523" lon="139.1971867"><ele>522.9866666666667</ele><time>2024-02-17T02:18:23Z</time></trkpt><trkpt lat="35.8240283" lon="139.1971168"><ele>517.93</ele><time>2024-02-17T02:19:23Z</time></trkpt><trkpt lat="35.824054" lon="139.1973423"><ele>510.83666666666676</ele><time>2024-02-17T02:19:52Z</time></trkpt><trkpt lat="35.8241387" lon="139.1975445"><ele>502.9266666666667</ele><time>2024-02-17T02:20:41Z</time></trkpt><trkpt lat="35.8241764" lon="139.1977652"><ele>490.99</ele><time>2024-02-17T02:21:01Z</time></trkpt><trkpt lat="35.824201" lon="139.1979856"><ele>480.2866666666667</ele><time>2024-02-17T02:21:21Z</time></trkpt><trkpt lat="35.8243025" lon="139.1981713"><ele>471.46000000000004</ele><time>2024-02-17T02:21:44Z</time></trkpt><trkpt lat="35.8242608" lon="139.1983947"><ele>462.15333333333336</ele><time>2024-02-17T02:22:35Z</time></trkpt><trkpt lat="35.8243504" lon="139.1985903"><ele>460.22333333333336</ele><time>2024-02-17T02:23:33Z</time></trkpt><trkpt lat="35.8241922" lon="139.1987024"><ele>457.6966666666667</ele><time>2024-02-17T02:23:44Z</time></trkpt><trkpt lat="35.8241186" lon="139.198908"><ele>458.46333333333337</ele><time>2024-02-17T02:23:59Z</time></trkpt><trkpt lat="35.8239485" lon="139.1989965"><ele>452.4566666666667</ele><time>2024-02-17T02:24:21Z</time></trkpt><trkpt lat="35.823816" lon="139.1991587"><ele>448.16333333333336</ele><time>2024-02-17T02:24:45Z</time></trkpt><trkpt lat="35.823677" lon="139.1993076"><ele>442.88000000000005</ele><time>2024-02-17T02:25:04Z</time></trkpt><trkpt lat="35.8234958" lon="139.1993456"><ele>437.1033333333333</ele><time>2024-02-17T02:25:27Z</time></trkpt><trkpt lat="35.8233138" lon="139.1993724"><ele>431.39000000000004</ele><time>2024-02-17T02:25:50Z</time></trkpt><trkpt lat="35.8231597" lon="139.1995"><ele>426.6766666666667</ele><time>2024-02-17T02:26:05Z</time></trkpt><trkpt lat="35.8229995" lon="139.1996073"><ele>424.85999999999996</ele><time>2024-02-17T02:26:26Z</time></trkpt><trkpt lat="35.8228939" lon="139.1997974"><ele>420.32</ele><time>2024-02-17T02:26:48Z</time></trkpt><trkpt lat="35.8228374" lon="139.199581"><ele>420.2133333333333</ele><time>2024-02-17T02:27:02Z</time></trkpt><trkpt lat="35.8226755" lon="139.1994755"><ele>422.32666666666665</ele><time>2024-02-17T02:27:14Z</time></trkpt><trkpt lat="35.8225018" lon="139.1995961"><ele>426.56</ele><time>2024-02-17T02:27:33Z</time></trkpt><trkpt lat="35.8225614" lon="139.1998127"><ele>422.32666666666665</ele><time>2024-02-17T02:27:45Z</time></trkpt><trkpt lat="35.8225412" lon="139.2000458"><ele>412.9333333333334</ele><time>2024-02-17T02:28:02Z</time></trkpt><trkpt lat="35.8223795" lon="139.2001502"><ele>404.87000000000006</ele><time>2024-02-17T02:28:21Z</time></trkpt><trkpt lat="35.8222027" lon="139.2002185"><ele>401.16</ele><time>2024-02-17T02:28:40Z</time></trkpt><trkpt lat="35.8220185" lon="139.2002177"><ele>397.2866666666667</ele><time>2024-02-17T02:29:05Z</time></trkpt><trkpt lat="35.8218343" lon="139.2002268"><ele>390.1000000000001</ele><time>2024-02-17T02:29:24Z</time></trkpt><trkpt lat="35.8216964" lon="139.2003776"><ele>382.11666666666673</ele><time>2024-02-17T02:29:37Z</time></trkpt><trkpt lat="35.8215051" lon="139.2003918"><ele>376.9866666666667</ele><time>2024-02-17T02:29:53Z</time></trkpt><trkpt lat="35.8213235" lon="139.2004291"><ele>374.2366666666667</ele><time>2024-02-17T02:30:09Z</time></trkpt><trkpt lat="35.8211488" lon="139.2004841"><ele>371.75666666666666</ele><time>2024-02-17T02:30:25Z</time></trkpt><trkpt lat="35.8210034" lon="139.2006418"><ele>367.33</ele><time>2024-02-17T02:30:45Z</time></trkpt><trkpt lat="35.820856" lon="139.2007935"><ele>363.49666666666667</ele><time>2024-02-17T02:30:58Z</time></trkpt><trkpt lat="35.8206635" lon="139.2007765"><ele>361.56</ele><time>2024-02-17T02:31:11Z</time></trkpt><trkpt lat="35.8205828" lon="139.2009781"><ele>359.44000000000005</ele><time>2024-02-17T02:31:27Z</time></trkpt><trkpt lat="35.8204691" lon="139.2011631"><ele>356.2633333333333</ele><time>2024-02-17T02:31:41Z</time></trkpt><trkpt lat="35.8202805" lon="139.2012216"><ele>351.6133333333333</ele><time>2024-02-17T02:31:55Z</time></trkpt><trkpt lat="35.8200958" lon="139.201262"><ele>349.6933333333334</ele><time>2024-02-17T02:32:09Z</time></trkpt><trkpt lat="35.8199294" lon="139.201349"><ele>347.7366666666667</ele><time>2024-02-17T02:32:20Z</time></trkpt><trkpt lat="35.8197579" lon="139.2014261"><ele>344.46000000000004</ele><time>2024-02-17T02:32:34Z</time></trkpt><trkpt lat="35.8195826" lon="139.2015222"><ele>340.0</ele><time>2024-02-17T02:32:54Z</time></trkpt><trkpt lat="35.8193977" lon="139.2015321"><ele>336.75</ele><time>2024-02-17T02:33:26Z</time></trkpt><trkpt lat="35.8192068" lon="139.2014791"><ele>335.77</ele><time>2024-02-17T02:33:40Z</time></trkpt><trkpt lat="35.8190247" lon="139.2015616"><ele>335.4166666666667</ele><time>2024-02-17T02:34:22Z</time></trkpt><trkpt lat="35.8188533" lon="139.2016631"><ele>333.31333333333333</ele><time>2024-02-17T02:34:37Z</time></trkpt><trkpt lat="35.8187614" lon="139.2018742"><ele>327.2066666666667</ele><time>2024-02-17T02:34:50Z</time></trkpt><trkpt lat="35.8185848" lon="139.2019247"><ele>321.3</ele><time>2024-02-17T02:35:04Z</time></trkpt><trkpt lat="35.8184632" lon="139.2021046"><ele>315.51</ele><time>2024-02-17T02:35:28Z</time></trkpt><trkpt lat="35.8182695" lon="139.2021362"><ele>312.7</ele><time>2024-02-17T02:35:46Z</time></trkpt><trkpt lat="35.8181669" lon="139.202333"><ele>308.57</ele><time>2024-02-17T02:36:12Z</time></trkpt><trkpt lat="35.8180053" lon="139.2024371"><ele>304.67</ele><time>2024-02-17T02:36:25Z</time></trkpt><trkpt lat="35.817822" lon="139.2024697"><ele>299.91</ele><time>2024-02-17T02:36:44Z</time></trkpt><trkpt lat="35.8176349" lon="139.202517"><ele>297.22333333333336</ele><time>2024-02-17T02:36:57Z</time></trkpt><trkpt lat="35.8175781" lon="139.2027308"><ele>295.8933333333333</ele><time>2024-02-17T02:37:10Z</time></trkpt><trkpt lat="35.8176768" lon="139.2029284"><ele>294.9266666666667</ele><time>2024-02-17T02:37:22Z</time></trkpt><trkpt lat="35.8177452" lon="139.2031377"><ele>293.55333333333334</ele><time>2024-02-17T02:37:36Z</time></trkpt><trkpt lat="35.817727" lon="139.2033586"><ele>292.79333333333335</ele><time>2024-02-17T02:37:50Z</time></trkpt><trkpt lat="35.8178193" lon="139.2035497"><ele>291.5933333333333</ele><time>2024-02-17T02:38:01Z</time></trkpt><trkpt lat="35.8178687" lon="139.203779"><ele>290.3866666666667</ele><time>2024-02-17T02:38:17Z</time></trkpt><trkpt lat="35.8179474" lon="139.203994"><ele>288.36999999999995</ele><time>2024-02-17T02:38:31Z</time></trkpt><trkpt lat="35.8178848" lon="139.2042187"><ele>287.90000000000003</ele><time>2024-02-17T02:38:46Z</time></trkpt><trkpt lat="35.8177777" lon="139.2044198"><ele>287.20666666666665</ele><time>2024-02-17T02:38:59Z</time></trkpt><trkpt lat="35.817597" lon="139.204424"><ele>286.83666666666664</ele><time>2024-02-17T02:39:12Z</time></trkpt><trkpt lat="35.8174117" lon="139.2044124"><ele>286.58666666666664</ele><time>2024-02-17T02:39:23Z</time></trkpt><trkpt lat="35.8172339" lon="139.2044495"><ele>286.56333333333333</ele><time>2024-02-17T02:39:38Z</time></trkpt><trkpt lat="35.8170827" lon="139.2045918"><ele>285.87666666666667</ele><time>2024-02-17T02:39:54Z</time></trkpt><trkpt lat="35.8169831" lon="139.2047859"><ele>283.8333333333333</ele><time>2024-02-17T02:40:09Z</time></trkpt><trkpt lat="35.8168296" lon="139.2049161"><ele>281.52666666666664</ele><time>2024-02-17T02:40:20Z</time></trkpt><trkpt lat="35.8166776" lon="139.2050516"><ele>279.6933333333333</ele><time>2024-02-17T02:40:33Z</time></trkpt><trkpt lat="35.8165363" lon="139.205209"><ele>278.35999999999996</ele><time>2024-02-17T02:40:50Z</time></trkpt><trkpt lat="35.8163722" lon="139.2053141"><ele>277.42</ele><time>2024-02-17T02:41:02Z</time></trkpt><trkpt lat="35.8162233" lon="139.2054542"><ele>276.18666666666667</ele><time>2024-02-17T02:41:19Z</time></trkpt><trkpt lat="35.8160714" lon="139.2055978"><ele>274.87</ele><time>2024-02-17T02:41:29Z</time></trkpt><trkpt lat="35.8159007" lon="139.205671"><ele>272.84000000000003</ele><time>2024-02-17T02:41:40Z</time></trkpt><trkpt lat="35.8157247" lon="139.205749"><ele>271.05333333333334</ele><time>2024-02-17T02:41:54Z</time></trkpt><trkpt lat="35.8155717" lon="139.2058745"><ele>269.6933333333334</ele><time>2024-02-17T02:42:06Z</time></trkpt><trkpt lat="35.8155216" lon="139.2061039"><ele>268.82666666666665</ele><time>2024-02-17T02:42:15Z</time></trkpt><trkpt lat="35.8155356" lon="139.2063323"><ele>268.37000000000006</ele><time>2024-02-17T02:42:36Z</time></trkpt><trkpt lat="35.8155572" lon="139.2065618"><ele>267.9666666666667</ele><time>2024-02-17T02:42:53Z</time></trkpt><trkpt lat="35.8154574" lon="139.2067474"><ele>267.01</ele><time>2024-02-17T02:43:04Z</time></trkpt><trkpt lat="35.815396" lon="139.2069711"><ele>266.20666666666665</ele><time>2024-02-17T02:43:17Z</time></trkpt><trkpt lat="35.8153249" lon="139.2071888"><ele>264.93</ele><time>2024-02-17T02:43:29Z</time></trkpt><trkpt lat="35.8152537" lon="139.2074115"><ele>264.27333333333337</ele><time>2024-02-17T02:43:43Z</time></trkpt><trkpt lat="35.8152077" lon="139.2076279"><ele>262.7366666666667</ele><time>2024-02-17T02:43:56Z</time></trkpt><trkpt lat="35.8151562" lon="139.2078559"><ele>261.3666666666667</ele><time>2024-02-17T02:44:07Z</time></trkpt><trkpt lat="35.8150558" lon="139.2080581"><ele>262.77333333333337</ele><time>2024-02-17T02:44:22Z</time></trkpt><trkpt lat="35.8148703" lon="139.2080989"><ele>262.02</ele><time>2024-02-17T02:44:33Z</time></trkpt><trkpt lat="35.8146897" lon="139.208137"><ele>261.0733333333333</ele><time>2024-02-17T02:44:46Z</time></trkpt><trkpt lat="35.8145565" lon="139.2082875"><ele>258.25</ele><time>2024-02-17T02:44:57Z</time></trkpt><trkpt lat="35.8147421" lon="139.208356"><ele>260.18666666666667</ele><time>2024-02-17T02:45:49Z</time></trkpt><trkpt lat="35.8149209" lon="139.208412"><ele>266.4766666666667</ele><time>2024-02-17T02:46:03Z</time></trkpt><trkpt lat="35.8150937" lon="139.2083112"><ele>272.3833333333333</ele><time>2024-02-17T02:46:21Z</time></trkpt><trkpt lat="35.8152748" lon="139.2082814"><ele>278.64000000000004</ele><time>2024-02-17T02:46:37Z</time></trkpt><trkpt lat="35.8153211" lon="139.2080598"><ele>278.02</ele><time>2024-02-17T02:46:51Z</time></trkpt><trkpt lat="35.8154443" lon="139.2078941"><ele>276.04333333333335</ele><time>2024-02-17T02:47:06Z</time></trkpt><trkpt lat="35.8156064" lon="139.2077936"><ele>271.8566666666666</ele><time>2024-02-17T02:47:20Z</time></trkpt><trkpt lat="35.8157925" lon="139.2077883"><ele>271.6066666666666</ele><time>2024-02-17T02:47:35Z</time></trkpt><trkpt lat="35.8159858" lon="139.2077739"><ele>271.95666666666665</ele><time>2024-02-17T02:47:51Z</time></trkpt><trkpt lat="35.8161418" lon="139.2078992"><ele>273.9066666666667</ele><time>2024-02-17T02:48:07Z</time></trkpt><trkpt lat="35.8162774" lon="139.2080484"><ele>276.26666666666665</ele><time>2024-02-17T02:48:19Z</time></trkpt><trkpt lat="35.8164222" lon="139.2081972"><ele>279.83</ele><time>2024-02-17T02:48:35Z</time></trkpt><trkpt lat="35.8165703" lon="139.2083242"><ele>282.00666666666666</ele><time>2024-02-17T02:48:51Z</time></trkpt><trkpt lat="35.8167403" lon="139.2084184"><ele>284.91</ele><time>2024-02-17T02:49:10Z</time></trkpt><trkpt lat="35.8169293" lon="139.2084271"><ele>287.89</ele><time>2024-02-17T02:49:26Z</time></trkpt><trkpt lat="35.8171077" lon="139.2084666"><ele>291.3066666666667</ele><time>2024-02-17T02:49:37Z</time></trkpt><trkpt lat="35.8172955" lon="139.2084291"><ele>290.5266666666667</ele><time>2024-02-17T02:49:54Z</time></trkpt><trkpt lat="35.8174759" lon="139.2084722"><ele>289.88000000000005</ele><time>2024-02-17T02:50:12Z</time></trkpt><trkpt lat="35.8175588" lon="139.2086691"><ele>289.83</ele><time>2024-02-17T02:50:28Z</time></trkpt><trkpt lat="35.8177492" lon="139.2086201"><ele>291.3433333333333</ele><time>2024-02-17T02:50:43Z</time></trkpt><trkpt lat="35.8179342" lon="139.2087063"><ele>292.8066666666667</ele><time>2024-02-17T02:50:54Z</time></trkpt><trkpt lat="35.8180853" lon="139.2088324"><ele>295.60999999999996</ele><time>2024-02-17T02:51:11Z</time></trkpt><trkpt lat="35.8182659" lon="139.2088663"><ele>298.59999999999997</ele><time>2024-02-17T02:51:26Z</time></trkpt><trkpt lat="35.8184172" lon="139.2087437"><ele>300.4866666666667</ele><time>2024-02-17T02:51:41Z</time></trkpt><trkpt lat="35.8185882" lon="139.2086597"><ele>304.23333333333335</ele><time>2024-02-17T02:52:00Z</time></trkpt><trkpt lat="35.8187634" lon="139.2085995"><ele>311.33666666666664</ele><time>2024-02-17T02:52:17Z</time></trkpt><trkpt lat="35.8189361" lon="139.2086741"><ele>318.34666666666664</ele><time>2024-02-17T02:52:32Z</time></trkpt><trkpt lat="35.819029" lon="139.2088713"><ele>317.44666666666666</ele><time>2024-02-17T02:52:43Z</time></trkpt><trkpt lat="35.8191133" lon="139.2090719"><ele>313.25666666666666</ele><time>2024-02-17T02:52:56Z</time></trkpt><trkpt lat="35.8192769" lon="139.2091814"><ele>311.8666666666667</ele><time>2024-02-17T02:53:13Z</time></trkpt><trkpt lat="35.8194233" lon="139.2090458"><ele>313.6033333333333</ele><time>2024-02-17T02:53:28Z</time></trkpt><trkpt lat="35.8195425" lon="139.2088674"><ele>316.8766666666667</ele><time>2024-02-17T02:53:43Z</time></trkpt><trkpt lat="35.8196701" lon="139.2087042"><ele>321.6133333333333</ele><time>2024-02-17T02:54:02Z</time></trkpt><trkpt lat="35.8198064" lon="139.2088623"><ele>324.77666666666664</ele><time>2024-02-17T02:54:13Z</time></trkpt><trkpt lat="35.8198866" lon="139.2090609"><ele>326.09</ele><time>2024-02-17T02:54:26Z</time></trkpt><trkpt lat="35.8199496" lon="139.2092705"><ele>324.93</ele><time>2024-02-17T02:54:39Z</time></trkpt><trkpt lat="35.8201224" lon="139.2093378"><ele>326.03000000000003</ele><time>2024-02-17T02:54:54Z</time></trkpt><trkpt lat="35.8202453" lon="139.2091659"><ele>327.08</ele><time>2024-02-17T02:55:08Z</time></trkpt><trkpt lat="35.8203876" lon="139.2090212"><ele>327.10666666666674</ele><time>2024-02-17T02:55:28Z</time></trkpt><trkpt lat="35.8203142" lon="139.2092302"><ele>326.84</ele><time>2024-02-17T02:56:04Z</time></trkpt><trkpt lat="35.8204314" lon="139.2094062"><ele>329.6333333333334</ele><time>2024-02-17T02:56:56Z</time></trkpt><trkpt lat="35.8205909" lon="139.2095224"><ele>332.79</ele><time>2024-02-17T02:57:26Z</time></trkpt><trkpt lat="35.8206515" lon="139.2097375"><ele>337.20666666666665</ele><time>2024-02-17T02:58:20Z</time></trkpt><trkpt lat="35.8205255" lon="139.209906"><ele>342.06666666666666</ele><time>2024-02-17T02:58:37Z</time></trkpt><trkpt lat="35.8203903" lon="139.2100567"><ele>345.49333333333334</ele><time>2024-02-17T02:59:05Z</time></trkpt><trkpt lat="35.8202298" lon="139.2101755"><ele>349.70000000000005</ele><time>2024-02-17T02:59:38Z</time></trkpt><trkpt lat="35.8200898" lon="139.2103167"><ele>353.95</ele><time>2024-02-17T03:01:18Z</time></trkpt><trkpt lat="35.8199198" lon="139.2104124"><ele>361.68666666666667</ele><time>2024-02-17T03:01:48Z</time></trkpt><trkpt lat="35.8197545" lon="139.2105246"><ele>366.8066666666667</ele><time>2024-02-17T03:02:01Z</time></trkpt><trkpt lat="35.8195967" lon="139.2106447"><ele>369.06</ele><time>2024-02-17T03:02:27Z</time></trkpt><trkpt lat="35.8194209" lon="139.2107314"><ele>368.7633333333333</ele><time>2024-02-17T03:02:51Z</time></trkpt><trkpt lat="35.8192784" lon="139.2108713"><ele>369.67333333333335</ele><time>2024-02-17T03:03:10Z</time></trkpt><trkpt lat="35.819157" lon="139.211046"><ele>371.31</ele><time>2024-02-17T03:03:32Z</time></trkpt><trkpt lat="35.8190671" lon="139.2112454"><ele>371.9533333333334</ele><time>2024-02-17T03:03:44Z</time></trkpt><trkpt lat="35.8189573" lon="139.211431"><ele>373.6466666666667</ele><time>2024-02-17T03:03:58Z</time></trkpt><trkpt lat="35.8188338" lon="139.2116033"><ele>377.02666666666664</ele><time>2024-02-17T03:04:27Z</time></trkpt><trkpt lat="35.8187008" lon="139.211775"><ele>384.96000000000004</ele><time>2024-02-17T03:05:44Z</time></trkpt><trkpt lat="35.8185862" lon="139.2119587"><ele>393.18666666666667</ele><time>2024-02-17T03:07:17Z</time></trkpt><trkpt lat="35.8184308" lon="139.2120968"><ele>404.58666666666664</ele><time>2024-02-17T03:08:17Z</time></trkpt><trkpt lat="35.8182825" lon="139.21225"><ele>414.3233333333333</ele><time>2024-02-17T03:08:42Z</time></trkpt><trkpt lat="35.8181027" lon="139.2123416"><ele>423.39000000000004</ele><time>2024-02-17T03:10:00Z</time></trkpt><trkpt lat="35.8179664" lon="139.2124885"><ele>428.7866666666667</ele><time>2024-02-17T03:11:02Z</time></trkpt><trkpt lat="35.8178007" lon="139.2125995"><ele>434.5133333333333</ele><time>2024-02-17T03:11:27Z</time></trkpt><trkpt lat="35.8176544" lon="139.2127289"><ele>438.8866666666666</ele><time>2024-02-17T03:11:41Z</time></trkpt><trkpt lat="35.8175272" lon="139.2128979"><ele>440.40000000000003</ele><time>2024-02-17T03:11:56Z</time></trkpt><trkpt lat="35.8173775" lon="139.2130334"><ele>437.41</ele><time>2024-02-17T03:12:15Z</time></trkpt><trkpt lat="35.817252" lon="139.2132016"><ele>432.69</ele><time>2024-02-17T03:12:35Z</time></trkpt><trkpt lat="35.8170601" lon="139.2132102"><ele>430.21666666666664</ele><time>2024-02-17T03:13:01Z</time></trkpt><trkpt lat="35.8169379" lon="139.2133735"><ele>429.21999999999997</ele><time>2024-02-17T03:13:13Z</time></trkpt><trkpt lat="35.8167903" lon="139.2135235"><ele>429.9433333333333</ele><time>2024-02-17T03:13:31Z</time></trkpt><trkpt lat="35.8166235" lon="139.2136287"><ele>430.16333333333336</ele><time>2024-02-17T03:13:55Z</time></trkpt><trkpt lat="35.8165125" lon="139.2138107"><ele>431.2</ele><time>2024-02-17T03:14:12Z</time></trkpt><trkpt lat="35.8164065" lon="139.2139934"><ele>434.97333333333336</ele><time>2024-02-17T03:14:33Z</time></trkpt><trkpt lat="35.8163544" lon="139.2142105"><ele>441.55333333333334</ele><time>2024-02-17T03:15:11Z</time></trkpt><trkpt lat="35.8161817" lon="139.21433"><ele>448.89000000000004</ele><time>2024-02-17T03:16:18Z</time></trkpt><trkpt lat="35.8161984" lon="139.2145507"><ele>457.1666666666667</ele><time>2024-02-17T03:16:54Z</time></trkpt><trkpt lat="35.8159682" lon="139.2144715"><ele>460.8966666666667</ele><time>2024-02-17T03:18:15Z</time></trkpt><trkpt lat="35.8158011" lon="139.2143702"><ele>461.64000000000004</ele><time>2024-02-17T03:18:21Z</time></trkpt><trkpt lat="35.815986" lon="139.2145659"><ele>461.79</ele><time>2024-02-17T03:18:30Z</time></trkpt><trkpt lat="35.8160601" lon="139.2147838"><ele>466.2633333333333</ele><time>2024-02-17T03:20:18Z</time></trkpt><trkpt lat="35.8159606" lon="139.2150104"><ele>477.25</ele><time>2024-02-17T03:20:36Z</time></trkpt><trkpt lat="35.8158389" lon="139.2152134"><ele>485.41</ele><time>2024-02-17T03:20:54Z</time></trkpt><trkpt lat="35.8156714" lon="139.2153078"><ele>490.6933333333333</ele><time>2024-02-17T03:22:18Z</time></trkpt><trkpt lat="35.8158254" lon="139.2154548"><ele>489.62999999999994</ele><time>2024-02-17T03:32:20Z</time></trkpt><trkpt lat="35.8158961" lon="139.215685"><ele>487.0466666666667</ele><time>2024-02-17T03:32:41Z</time></trkpt><trkpt lat="35.8160751" lon="139.21581"><ele>482.92333333333335</ele><time>2024-02-17T03:32:53Z</time></trkpt><trkpt lat="35.8162177" lon="139.2159641"><ele>477.45</ele><time>2024-02-17T03:33:17Z</time></trkpt><trkpt lat="35.8160257" lon="139.2160562"><ele>472.2166666666667</ele><time>2024-02-17T03:34:38Z</time></trkpt><trkpt lat="35.8158402" lon="139.2160877"><ele>466.10666666666674</ele><time>2024-02-17T03:34:59Z</time></trkpt><trkpt lat="35.8156324" lon="139.2159907"><ele>462.96000000000004</ele><time>2024-02-17T03:35:26Z</time></trkpt><trkpt lat="35.8154815" lon="139.2158388"><ele>462.23</ele><time>2024-02-17T03:35:38Z</time></trkpt><trkpt lat="35.8152846" lon="139.215904"><ele>463.04333333333335</ele><time>2024-02-17T03:35:50Z</time></trkpt><trkpt lat="35.8151823" lon="139.2161143"><ele>457.06</ele><time>2024-02-17T03:36:14Z</time></trkpt><trkpt lat="35.8150284" lon="139.2162572"><ele>451.46000000000004</ele><time>2024-02-17T03:36:26Z</time></trkpt><trkpt lat="35.8148683" lon="139.216362"><ele>447.53000000000003</ele><time>2024-02-17T03:36:35Z</time></trkpt><trkpt lat="35.8147301" lon="139.2165644"><ele>450.42</ele><time>2024-02-17T03:36:47Z</time></trkpt><trkpt lat="35.8146578" lon="139.2168314"><ele>450.07666666666665</ele><time>2024-02-17T03:37:05Z</time></trkpt><trkpt lat="35.8146029" lon="139.2170562"><ele>448.77666666666664</ele><time>2024-02-17T03:37:20Z</time></trkpt><trkpt lat="35.8144431" lon="139.2172522"><ele>446.55</ele><time>2024-02-17T03:37:38Z</time></trkpt><trkpt lat="35.8142899" lon="139.2173717"><ele>444.7166666666667</ele><time>2024-02-17T03:37:50Z</time></trkpt><trkpt lat="35.814109" lon="139.2174772"><ele>442.5133333333333</ele><time>2024-02-17T03:38:05Z</time></trkpt><trkpt lat="35.8139446" lon="139.2175911"><ele>442.9466666666667</ele><time>2024-02-17T03:38:23Z</time></trkpt><trkpt lat="35.8137882" lon="139.2177393"><ele>445.02666666666664</ele><time>2024-02-17T03:38:53Z</time></trkpt><trkpt lat="35.8135802" lon="139.2178069"><ele>448.35999999999996</ele><time>2024-02-17T03:39:08Z</time></trkpt><trkpt lat="35.8133999" lon="139.2178852"><ele>450.2</ele><time>2024-02-17T03:39:23Z</time></trkpt><trkpt lat="35.8132216" lon="139.2179785"><ele>450.5733333333333</ele><time>2024-02-17T03:39:44Z</time></trkpt><trkpt lat="35.8130066" lon="139.2180754"><ele>442.91</ele><time>2024-02-17T03:40:26Z</time></trkpt><trkpt lat="35.8128236" lon="139.2180449"><ele>433.75</ele><time>2024-02-17T03:40:56Z</time></trkpt><trkpt lat="35.8128975" lon="139.2182804"><ele>423.1133333333334</ele><time>2024-02-17T03:41:17Z</time></trkpt><trkpt lat="35.8129821" lon="139.218479"><ele>418.6233333333334</ele><time>2024-02-17T03:41:53Z</time></trkpt><trkpt lat="35.8128878" lon="139.2187091"><ele>414.5833333333333</ele><time>2024-02-17T03:42:05Z</time></trkpt><trkpt lat="35.8128447" lon="139.2189603"><ele>410.63000000000005</ele><time>2024-02-17T03:42:20Z</time></trkpt><trkpt lat="35.8127691" lon="139.2191828"><ele>409.55333333333334</ele><time>2024-02-17T03:42:29Z</time></trkpt><trkpt lat="35.8126151" lon="139.2193278"><ele>409.6466666666667</ele><time>2024-02-17T03:42:41Z</time></trkpt><trkpt lat="35.8124277" lon="139.2194833"><ele>411.4666666666667</ele><time>2024-02-17T03:42:56Z</time></trkpt><trkpt lat="35.8122299" lon="139.2195478"><ele>409.7266666666667</ele><time>2024-02-17T03:43:23Z</time></trkpt><trkpt lat="35.8120223" lon="139.2195826"><ele>407.3666666666666</ele><time>2024-02-17T03:43:35Z</time></trkpt><trkpt lat="35.8118085" lon="139.2195683"><ele>406.0366666666667</ele><time>2024-02-17T03:43:50Z</time></trkpt><trkpt lat="35.8116148" lon="139.2195161"><ele>404.57</ele><time>2024-02-17T03:43:59Z</time></trkpt><trkpt lat="35.8114338" lon="139.2195273"><ele>403.6233333333333</ele><time>2024-02-17T03:44:11Z</time></trkpt><trkpt lat="35.8112858" lon="139.219655"><ele>400.1933333333333</ele><time>2024-02-17T03:44:29Z</time></trkpt><trkpt lat="35.8111894" lon="139.2198727"><ele>398.17</ele><time>2024-02-17T03:44:44Z</time></trkpt><trkpt lat="35.8110352" lon="139.2200499"><ele>396.15333333333336</ele><time>2024-02-17T03:44:56Z</time></trkpt><trkpt lat="35.8108672" lon="139.2201342"><ele>395.34666666666664</ele><time>2024-02-17T03:45:08Z</time></trkpt><trkpt lat="35.810754" lon="139.2203295"><ele>393.71</ele><time>2024-02-17T03:45:26Z</time></trkpt><trkpt lat="35.8107773" lon="139.2205572"><ele>391.65333333333336</ele><time>2024-02-17T03:45:47Z</time></trkpt><trkpt lat="35.8107821" lon="139.2207841"><ele>390.76666666666665</ele><time>2024-02-17T03:46:14Z</time></trkpt><trkpt lat="35.810843" lon="139.2209968"><ele>390.34999999999997</ele><time>2024-02-17T03:46:29Z</time></trkpt><trkpt lat="35.8109309" lon="139.2212318"><ele>391.18666666666667</ele><time>2024-02-17T03:46:47Z</time></trkpt><trkpt lat="35.8109642" lon="139.2214622"><ele>392.12000000000006</ele><time>2024-02-17T03:46:59Z</time></trkpt><trkpt lat="35.8108604" lon="139.2217093"><ele>394.1233333333333</ele><time>2024-02-17T03:47:14Z</time></trkpt><trkpt lat="35.8107623" lon="139.2219119"><ele>393.2866666666667</ele><time>2024-02-17T03:47:26Z</time></trkpt><trkpt lat="35.8106223" lon="139.2220701"><ele>390.31</ele><time>2024-02-17T03:47:38Z</time></trkpt><trkpt lat="35.8107456" lon="139.2222434"><ele>388.24</ele><time>2024-02-17T03:47:59Z</time></trkpt><trkpt lat="35.8108963" lon="139.2223937"><ele>389.6333333333334</ele><time>2024-02-17T03:48:17Z</time></trkpt><trkpt lat="35.8109674" lon="139.2226127"><ele>393.34999999999997</ele><time>2024-02-17T03:48:35Z</time></trkpt><trkpt lat="35.810955" lon="139.2228818"><ele>394.2866666666667</ele><time>2024-02-17T03:48:53Z</time></trkpt><trkpt lat="35.8109344" lon="139.2231223"><ele>392.42333333333335</ele><time>2024-02-17T03:49:11Z</time></trkpt><trkpt lat="35.8108251" lon="139.2233188"><ele>388.07</ele><time>2024-02-17T03:49:32Z</time></trkpt><trkpt lat="35.8106766" lon="139.2234955"><ele>384.59666666666664</ele><time>2024-02-17T03:49:41Z</time></trkpt><trkpt lat="35.8105991" lon="139.2237042"><ele>383.15333333333336</ele><time>2024-02-17T03:50:50Z</time></trkpt><trkpt lat="35.8105502" lon="139.2239215"><ele>386.8066666666667</ele><time>2024-02-17T03:51:02Z</time></trkpt><trkpt lat="35.8104559" lon="139.2241294"><ele>393.72333333333336</ele><time>2024-02-17T03:53:11Z</time></trkpt><trkpt lat="35.8103438" lon="139.2243302"><ele>402.55</ele><time>2024-02-17T03:54:02Z</time></trkpt><trkpt lat="35.8101708" lon="139.2244763"><ele>408.3666666666666</ele><time>2024-02-17T03:54:14Z</time></trkpt><trkpt lat="35.8100128" lon="139.2243506"><ele>408.68</ele><time>2024-02-17T03:54:23Z</time></trkpt><trkpt lat="35.8099243" lon="139.2245501"><ele>408.8233333333333</ele><time>2024-02-17T03:54:32Z</time></trkpt><trkpt lat="35.8097567" lon="139.2246913"><ele>409.75</ele><time>2024-02-17T03:54:47Z</time></trkpt><trkpt lat="35.8095732" lon="139.2246904"><ele>413.14333333333326</ele><time>2024-02-17T03:55:02Z</time></trkpt><trkpt lat="35.8095706" lon="139.2249471"><ele>414.4333333333334</ele><time>2024-02-17T03:55:11Z</time></trkpt><trkpt lat="35.8095541" lon="139.2252056"><ele>413.5833333333333</ele><time>2024-02-17T03:55:26Z</time></trkpt><trkpt lat="35.8094822" lon="139.2254132"><ele>412.85999999999996</ele><time>2024-02-17T03:56:20Z</time></trkpt><trkpt lat="35.8094825" lon="139.2256877"><ele>412.54333333333335</ele><time>2024-02-17T03:57:17Z</time></trkpt><trkpt lat="35.8095033" lon="139.2259276"><ele>415.24333333333334</ele><time>2024-02-17T03:57:29Z</time></trkpt><trkpt lat="35.8094832" lon="139.2261541"><ele>418.08666666666664</ele><time>2024-02-17T03:58:05Z</time></trkpt><trkpt lat="35.8094121" lon="139.2263922"><ele>419.77</ele><time>2024-02-17T03:58:32Z</time></trkpt><trkpt lat="35.8093286" lon="139.226625"><ele>419.15333333333336</ele><time>2024-02-17T03:58:50Z</time></trkpt><trkpt lat="35.8092628" lon="139.2269004"><ele>418.51</ele><time>2024-02-17T03:59:44Z</time></trkpt><trkpt lat="35.8092679" lon="139.2271534"><ele>421.1133333333333</ele><time>2024-02-17T04:00:11Z</time></trkpt><trkpt lat="35.8092014" lon="139.2273694"><ele>427.99666666666667</ele><time>2024-02-17T04:01:08Z</time></trkpt><trkpt lat="35.809057" lon="139.2275267"><ele>435.31333333333333</ele><time>2024-02-17T04:01:38Z</time></trkpt><trkpt lat="35.8088705" lon="139.2276173"><ele>438.7366666666667</ele><time>2024-02-17T04:02:02Z</time></trkpt><trkpt lat="35.8086876" lon="139.2277078"><ele>437.81666666666666</ele><time>2024-02-17T04:02:17Z</time></trkpt><trkpt lat="35.808511" lon="139.2278692"><ele>437.67</ele><time>2024-02-17T04:02:59Z</time></trkpt><trkpt lat="35.8083341" lon="139.2279272"><ele>438.7966666666667</ele><time>2024-02-17T04:03:17Z</time></trkpt><trkpt lat="35.808149" lon="139.227929"><ele>440.0</ele><time>2024-02-17T04:03:32Z</time></trkpt><trkpt lat="35.8080784" lon="139.2281413"><ele>437.56333333333333</ele><time>2024-02-17T04:03:50Z</time></trkpt><trkpt lat="35.8079368" lon="139.2283016"><ele>435.4166666666667</ele><time>2024-02-17T04:04:17Z</time></trkpt><trkpt lat="35.8079458" lon="139.2285274"><ele>435.28999999999996</ele><time>2024-02-17T04:04:38Z</time></trkpt><trkpt lat="35.8078562" lon="139.2287404"><ele>441.0933333333333</ele><time>2024-02-17T04:05:17Z</time></trkpt><trkpt lat="35.8078249" lon="139.2289873"><ele>446.40333333333336</ele><time>2024-02-17T04:05:41Z</time></trkpt><trkpt lat="35.8077583" lon="139.2291941"><ele>449.04999999999995</ele><time>2024-02-17T04:05:59Z</time></trkpt><trkpt lat="35.807738" lon="139.2294288"><ele>446.71000000000004</ele><time>2024-02-17T04:06:23Z</time></trkpt><trkpt lat="35.8077573" lon="139.2296709"><ele>442.81666666666666</ele><time>2024-02-17T04:06:44Z</time></trkpt><trkpt lat="35.807803" lon="139.2299036"><ele>438.1966666666667</ele><time>2024-02-17T04:06:59Z</time></trkpt><trkpt lat="35.8078159" lon="139.2302214"><ele>434.58</ele><time>2024-02-17T04:07:32Z</time></trkpt><trkpt lat="35.807711" lon="139.2304498"><ele>430.04333333333335</ele><time>2024-02-17T04:07:47Z</time></trkpt><trkpt lat="35.8077251" lon="139.2306709"><ele>430.46000000000004</ele><time>2024-02-17T04:08:02Z</time></trkpt><trkpt lat="35.8077515" lon="139.2309275"><ele>430.87000000000006</ele><time>2024-02-17T04:08:17Z</time></trkpt><trkpt lat="35.8076352" lon="139.2311447"><ele>430.18666666666667</ele><time>2024-02-17T04:08:38Z</time></trkpt><trkpt lat="35.8075051" lon="139.2313053"><ele>424.72333333333336</ele><time>2024-02-17T04:08:53Z</time></trkpt><trkpt lat="35.8073477" lon="139.2314181"><ele>419.3533333333333</ele><time>2024-02-17T04:09:08Z</time></trkpt><trkpt lat="35.8071721" lon="139.2315046"><ele>418.03999999999996</ele><time>2024-02-17T04:09:24Z</time></trkpt><trkpt lat="35.8070063" lon="139.2315964"><ele>418.95666666666665</ele><time>2024-02-17T04:10:11Z</time></trkpt><trkpt lat="35.8068479" lon="139.2317282"><ele>420.8433333333334</ele><time>2024-02-17T04:10:41Z</time></trkpt><trkpt lat="35.8067401" lon="139.231914"><ele>422.3500000000001</ele><time>2024-02-17T04:10:59Z</time></trkpt><trkpt lat="35.8066055" lon="139.2320707"><ele>423.37000000000006</ele><time>2024-02-17T04:11:23Z</time></trkpt><trkpt lat="35.80643" lon="139.2321635"><ele>424.44</ele><time>2024-02-17T04:11:53Z</time></trkpt><trkpt lat="35.8062963" lon="139.2323254"><ele>428.4666666666667</ele><time>2024-02-17T04:12:50Z</time></trkpt><trkpt lat="35.8062043" lon="139.2325237"><ele>434.1433333333334</ele><time>2024-02-17T04:13:05Z</time></trkpt><trkpt lat="35.8060378" lon="139.2326939"><ele>441.3</ele><time>2024-02-17T04:13:35Z</time></trkpt><trkpt lat="35.8059416" lon="139.2328835"><ele>442.27666666666664</ele><time>2024-02-17T04:14:11Z</time></trkpt><trkpt lat="35.8058544" lon="139.2330969"><ele>436.99666666666667</ele><time>2024-02-17T04:14:23Z</time></trkpt><trkpt lat="35.8056432" lon="139.2331978"><ele>430.49333333333334</ele><time>2024-02-17T04:14:44Z</time></trkpt><trkpt lat="35.8056013" lon="139.2334171"><ele>428.00333333333333</ele><time>2024-02-17T04:16:11Z</time></trkpt><trkpt lat="35.8056543" lon="139.2336536"><ele>427.17666666666673</ele><time>2024-02-17T04:16:32Z</time></trkpt><trkpt lat="35.8055828" lon="139.2339168"><ele>425.8433333333333</ele><time>2024-02-17T04:17:08Z</time></trkpt><trkpt lat="35.80554" lon="139.234149"><ele>423.1333333333334</ele><time>2024-02-17T04:17:23Z</time></trkpt><trkpt lat="35.8055551" lon="139.2343832"><ele>422.7633333333333</ele><time>2024-02-17T04:18:05Z</time></trkpt><trkpt lat="35.8056462" lon="139.2345871"><ele>421.67</ele><time>2024-02-17T04:19:38Z</time></trkpt><trkpt lat="35.8056379" lon="139.2348103"><ele>419.8433333333333</ele><time>2024-02-17T04:20:11Z</time></trkpt><trkpt lat="35.805664" lon="139.2350415"><ele>417.83</ele><time>2024-02-17T04:20:44Z</time></trkpt><trkpt lat="35.805478" lon="139.2351172"><ele>414.50333333333333</ele><time>2024-02-17T04:21:56Z</time></trkpt><trkpt lat="35.8052919" lon="139.2352052"><ele>410.6933333333333</ele><time>2024-02-17T04:22:26Z</time></trkpt><trkpt lat="35.8051715" lon="139.2354139"><ele>406.8933333333334</ele><time>2024-02-17T04:22:47Z</time></trkpt><trkpt lat="35.8050965" lon="139.2356403"><ele>402.59</ele><time>2024-02-17T04:23:32Z</time></trkpt><trkpt lat="35.805008" lon="139.2358494"><ele>397.42666666666673</ele><time>2024-02-17T04:23:47Z</time></trkpt><trkpt lat="35.8049824" lon="139.236071"><ele>393.2833333333333</ele><time>2024-02-17T04:24:02Z</time></trkpt><trkpt lat="35.8049338" lon="139.2362908"><ele>391.4166666666667</ele><time>2024-02-17T04:24:17Z</time></trkpt><trkpt lat="35.8048349" lon="139.2364823"><ele>391.45</ele><time>2024-02-17T04:24:32Z</time></trkpt><trkpt lat="35.8047895" lon="139.2367021"><ele>391.84</ele><time>2024-02-17T04:24:53Z</time></trkpt><trkpt lat="35.8046548" lon="139.2368617"><ele>392.52</ele><time>2024-02-17T04:25:05Z</time></trkpt><trkpt lat="35.8045693" lon="139.2370632"><ele>395.1133333333334</ele><time>2024-02-17T04:26:34Z</time></trkpt><trkpt lat="35.8044707" lon="139.2373147"><ele>398.3666666666666</ele><time>2024-02-17T04:26:52Z</time></trkpt><trkpt lat="35.8042918" lon="139.2374231"><ele>401.4066666666667</ele><time>2024-02-17T04:27:10Z</time></trkpt><trkpt lat="35.80415" lon="139.237591"><ele>402.7866666666667</ele><time>2024-02-17T04:27:28Z</time></trkpt><trkpt lat="35.8040121" lon="139.2377526"><ele>402.09666666666664</ele><time>2024-02-17T04:27:49Z</time></trkpt><trkpt lat="35.8039001" lon="139.2379461"><ele>400.08666666666676</ele><time>2024-02-17T04:28:04Z</time></trkpt><trkpt lat="35.8037097" lon="139.2380274"><ele>397.50666666666666</ele><time>2024-02-17T04:28:22Z</time></trkpt><trkpt lat="35.8035542" lon="139.2379014"><ele>394.69</ele><time>2024-02-17T04:28:40Z</time></trkpt><trkpt lat="35.8033489" lon="139.2378177"><ele>393.01</ele><time>2024-02-17T04:28:52Z</time></trkpt><trkpt lat="35.8032603" lon="139.2376071"><ele>393.99</ele><time>2024-02-17T04:29:10Z</time></trkpt><trkpt lat="35.8030367" lon="139.237489"><ele>396.99333333333334</ele><time>2024-02-17T04:29:55Z</time></trkpt><trkpt lat="35.8028561" lon="139.2374325"><ele>399.8066666666667</ele><time>2024-02-17T04:30:13Z</time></trkpt><trkpt lat="35.8026758" lon="139.2374228"><ele>400.34</ele><time>2024-02-17T04:30:46Z</time></trkpt><trkpt lat="35.8025265" lon="139.2372682"><ele>398.28999999999996</ele><time>2024-02-17T04:31:04Z</time></trkpt><trkpt lat="35.8023571" lon="139.2371629"><ele>395.18666666666667</ele><time>2024-02-17T04:31:34Z</time></trkpt><trkpt lat="35.8022272" lon="139.237003"><ele>392.5466666666667</ele><time>2024-02-17T04:31:40Z</time></trkpt><trkpt lat="35.802205" lon="139.2367086"><ele>390.7033333333334</ele><time>2024-02-17T04:31:56Z</time></trkpt><trkpt lat="35.8021522" lon="139.2364658"><ele>388.3633333333334</ele><time>2024-02-17T04:32:14Z</time></trkpt><trkpt lat="35.8020239" lon="139.236306"><ele>385.14333333333326</ele><time>2024-02-17T04:32:38Z</time></trkpt><trkpt lat="35.8018971" lon="139.2361375"><ele>381.1033333333333</ele><time>2024-02-17T04:32:59Z</time></trkpt><trkpt lat="35.8017468" lon="139.2359779"><ele>376.8966666666667</ele><time>2024-02-17T04:33:17Z</time></trkpt><trkpt lat="35.801563" lon="139.2358989"><ele>372.6366666666666</ele><time>2024-02-17T04:33:50Z</time></trkpt><trkpt lat="35.8013633" lon="139.2357614"><ele>367.8533333333333</ele><time>2024-02-17T04:34:11Z</time></trkpt><trkpt lat="35.8011941" lon="139.2356272"><ele>364.92</ele><time>2024-02-17T04:34:26Z</time></trkpt><trkpt lat="35.8010478" lon="139.2354955"><ele>362.8966666666667</ele><time>2024-02-17T04:34:47Z</time></trkpt><trkpt lat="35.8008443" lon="139.2354971"><ele>362.92333333333335</ele><time>2024-02-17T04:35:05Z</time></trkpt><trkpt lat="35.8006564" lon="139.2354977"><ele>363.1933333333333</ele><time>2024-02-17T04:35:20Z</time></trkpt><trkpt lat="35.8004515" lon="139.2353987"><ele>364.78999999999996</ele><time>2024-02-17T04:35:26Z</time></trkpt><trkpt lat="35.8002725" lon="139.2354533"><ele>367.7266666666667</ele><time>2024-02-17T04:36:05Z</time></trkpt><trkpt lat="35.8000499" lon="139.2354767"><ele>372.42</ele><time>2024-02-17T04:36:38Z</time></trkpt><trkpt lat="35.7998702" lon="139.2354582"><ele>377.18666666666667</ele><time>2024-02-17T04:37:05Z</time></trkpt><trkpt lat="35.7996853" lon="139.2354603"><ele>382.65000000000003</ele><time>2024-02-17T04:37:44Z</time></trkpt><trkpt lat="35.7994778" lon="139.2354463"><ele>386.65000000000003</ele><time>2024-02-17T04:38:32Z</time></trkpt><trkpt lat="35.7992924" lon="139.2354908"><ele>388.56</ele><time>2024-02-17T04:38:46Z</time></trkpt><trkpt lat="35.799113" lon="139.2355163"><ele>388.84666666666664</ele><time>2024-02-17T04:39:02Z</time></trkpt><trkpt lat="35.7989192" lon="139.2355286"><ele>391.7066666666667</ele><time>2024-02-17T04:39:23Z</time></trkpt><trkpt lat="35.7987927" lon="139.2356891"><ele>395.25</ele><time>2024-02-17T04:39:50Z</time></trkpt><trkpt lat="35.7986069" lon="139.235754"><ele>397.2366666666667</ele><time>2024-02-17T04:40:11Z</time></trkpt><trkpt lat="35.7985758" lon="139.2354808"><ele>397.74</ele><time>2024-02-17T04:40:26Z</time></trkpt><trkpt lat="35.7984609" lon="139.2352938"><ele>396.73</ele><time>2024-02-17T04:40:44Z</time></trkpt><trkpt lat="35.7982403" lon="139.2352321"><ele>396.47333333333336</ele><time>2024-02-17T04:40:59Z</time></trkpt><trkpt lat="35.7980587" lon="139.2351446"><ele>394.04</ele><time>2024-02-17T04:41:14Z</time></trkpt><trkpt lat="35.7979657" lon="139.2349443"><ele>392.3733333333334</ele><time>2024-02-17T04:41:29Z</time></trkpt><trkpt lat="35.7979127" lon="139.2347193"><ele>389.8766666666667</ele><time>2024-02-17T04:41:50Z</time></trkpt><trkpt lat="35.7978295" lon="139.234517"><ele>387.54</ele><time>2024-02-17T04:42:08Z</time></trkpt><trkpt lat="35.7976875" lon="139.2343673"><ele>385.5</ele><time>2024-02-17T04:42:23Z</time></trkpt><trkpt lat="35.7974988" lon="139.2342239"><ele>384.6433333333334</ele><time>2024-02-17T04:42:41Z</time></trkpt><trkpt lat="35.7973182" lon="139.2342069"><ele>383.81333333333333</ele><time>2024-02-17T04:42:56Z</time></trkpt><trkpt lat="35.7971148" lon="139.2341693"><ele>383.08666666666664</ele><time>2024-02-17T04:43:14Z</time></trkpt><trkpt lat="35.7969244" lon="139.2341754"><ele>382.06666666666666</ele><time>2024-02-17T04:43:26Z</time></trkpt><trkpt lat="35.7967524" lon="139.2340115"><ele>380.0</ele><time>2024-02-17T04:43:45Z</time></trkpt><trkpt lat="35.7965817" lon="139.2339202"><ele>376.84</ele><time>2024-02-17T04:44:00Z</time></trkpt><trkpt lat="35.7964011" lon="139.2338305"><ele>373.47333333333336</ele><time>2024-02-17T04:44:16Z</time></trkpt><trkpt lat="35.7962188" lon="139.2338621"><ele>373.49666666666667</ele><time>2024-02-17T04:44:28Z</time></trkpt><trkpt lat="35.7960621" lon="139.2337304"><ele>376.18666666666667</ele><time>2024-02-17T04:44:55Z</time></trkpt><trkpt lat="35.7959432" lon="139.2335299"><ele>379.69</ele><time>2024-02-17T04:45:07Z</time></trkpt><trkpt lat="35.7958314" lon="139.2333457"><ele>381.83</ele><time>2024-02-17T04:45:34Z</time></trkpt><trkpt lat="35.7957108" lon="139.2331589"><ele>384.0733333333333</ele><time>2024-02-17T04:45:58Z</time></trkpt><trkpt lat="35.7955429" lon="139.2330487"><ele>387.46333333333337</ele><time>2024-02-17T04:46:54Z</time></trkpt><trkpt lat="35.795469" lon="139.2328088"><ele>392.5366666666667</ele><time>2024-02-17T04:47:21Z</time></trkpt><trkpt lat="35.7954614" lon="139.2325873"><ele>396.72333333333336</ele><time>2024-02-17T04:47:54Z</time></trkpt><trkpt lat="35.7952894" lon="139.2325115"><ele>398.8066666666667</ele><time>2024-02-17T04:48:09Z</time></trkpt><trkpt lat="35.7951038" lon="139.2325018"><ele>397.38000000000005</ele><time>2024-02-17T04:48:24Z</time></trkpt><trkpt lat="35.7948835" lon="139.2325369"><ele>393.81666666666666</ele><time>2024-02-17T04:48:48Z</time></trkpt><trkpt lat="35.794669" lon="139.2325392"><ele>390.6933333333333</ele><time>2024-02-17T04:49:06Z</time></trkpt><trkpt lat="35.7944626" lon="139.2325651"><ele>388.9366666666667</ele><time>2024-02-17T04:49:39Z</time></trkpt><trkpt lat="35.7942692" lon="139.2326605"><ele>388.27666666666664</ele><time>2024-02-17T04:49:51Z</time></trkpt><trkpt lat="35.7940945" lon="139.2328072"><ele>387.5366666666667</ele><time>2024-02-17T04:50:06Z</time></trkpt><trkpt lat="35.7939446" lon="139.2329758"><ele>386.60999999999996</ele><time>2024-02-17T04:50:21Z</time></trkpt><trkpt lat="35.7938569" lon="139.2332236"><ele>386.41</ele><time>2024-02-17T04:50:39Z</time></trkpt><trkpt lat="35.7937383" lon="139.233485"><ele>384.70666666666665</ele><time>2024-02-17T04:50:57Z</time></trkpt><trkpt lat="35.7936767" lon="139.2337087"><ele>380.28000000000003</ele><time>2024-02-17T04:51:12Z</time></trkpt><trkpt lat="35.7936057" lon="139.2339601"><ele>375.9166666666667</ele><time>2024-02-17T04:51:33Z</time></trkpt><trkpt lat="35.7935427" lon="139.2342073"><ele>372.72333333333336</ele><time>2024-02-17T04:51:51Z</time></trkpt><trkpt lat="35.7934122" lon="139.2343701"><ele>372.04333333333335</ele><time>2024-02-17T04:52:06Z</time></trkpt><trkpt lat="35.7933607" lon="139.2346164"><ele>371.8933333333334</ele><time>2024-02-17T04:52:30Z</time></trkpt><trkpt lat="35.7933305" lon="139.2348854"><ele>373.75333333333333</ele><time>2024-02-17T04:52:45Z</time></trkpt><trkpt lat="35.7932908" lon="139.2351168"><ele>375.35999999999996</ele><time>2024-02-17T04:53:00Z</time></trkpt><trkpt lat="35.7931712" lon="139.2352839"><ele>375.1366666666667</ele><time>2024-02-17T04:56:21Z</time></trkpt><trkpt lat="35.7930921" lon="139.2354965"><ele>376.3733333333334</ele><time>2024-02-17T04:56:48Z</time></trkpt><trkpt lat="35.7931693" lon="139.2356989"><ele>377.5833333333333</ele><time>2024-02-17T04:57:34Z</time></trkpt><trkpt lat="35.7930574" lon="139.2358808"><ele>379.65000000000003</ele><time>2024-02-17T04:58:01Z</time></trkpt><trkpt lat="35.7930471" lon="139.2361026"><ele>377.32</ele><time>2024-02-17T04:58:19Z</time></trkpt><trkpt lat="35.7929381" lon="139.2362955"><ele>373.53000000000003</ele><time>2024-02-17T04:58:43Z</time></trkpt><trkpt lat="35.792864" lon="139.236504"><ele>367.93333333333334</ele><time>2024-02-17T04:59:01Z</time></trkpt><trkpt lat="35.7928892" lon="139.2367412"><ele>362.34666666666664</ele><time>2024-02-17T04:59:28Z</time></trkpt><trkpt lat="35.7929042" lon="139.2369664"><ele>355.79333333333335</ele><time>2024-02-17T04:59:46Z</time></trkpt><trkpt lat="35.7929234" lon="139.2372007"><ele>349.82666666666665</ele><time>2024-02-17T05:00:04Z</time></trkpt><trkpt lat="35.7929676" lon="139.2374492"><ele>343.8833333333334</ele><time>2024-02-17T05:00:19Z</time></trkpt><trkpt lat="35.7929841" lon="139.2376954"><ele>340.73333333333335</ele><time>2024-02-17T05:00:31Z</time></trkpt><trkpt lat="35.7928557" lon="139.2379089"><ele>337.7666666666667</ele><time>2024-02-17T05:00:46Z</time></trkpt><trkpt lat="35.7929383" lon="139.2381179"><ele>336.7866666666667</ele><time>2024-02-17T05:01:10Z</time></trkpt><trkpt lat="35.793008" lon="139.2383347"><ele>333.44666666666666</ele><time>2024-02-17T05:01:22Z</time></trkpt><trkpt lat="35.7930098" lon="139.2386341"><ele>330.99</ele><time>2024-02-17T05:01:34Z</time></trkpt><trkpt lat="35.7930093" lon="139.2388669"><ele>325.68666666666667</ele><time>2024-02-17T05:01:46Z</time></trkpt><trkpt lat="35.7931179" lon="139.2390445"><ele>323.99666666666667</ele><time>2024-02-17T05:02:01Z</time></trkpt><trkpt lat="35.7930884" lon="139.2392916"><ele>321.3233333333333</ele><time>2024-02-17T05:02:16Z</time></trkpt><trkpt lat="35.7930987" lon="139.2395281"><ele>321.3733333333334</ele><time>2024-02-17T05:02:28Z</time></trkpt><trkpt lat="35.793184" lon="139.2397284"><ele>320.3766666666667</ele><time>2024-02-17T05:02:43Z</time></trkpt><trkpt lat="35.7932943" lon="139.2399169"><ele>319.37</ele><time>2024-02-17T05:02:55Z</time></trkpt><trkpt lat="35.7934479" lon="139.2400505"><ele>319.2766666666667</ele><time>2024-02-17T05:03:09Z</time></trkpt><trkpt lat="35.7934672" lon="139.2402804"><ele>319.73</ele><time>2024-02-17T05:03:26Z</time></trkpt><trkpt lat="35.7934033" lon="139.2405731"><ele>319.44</ele><time>2024-02-17T05:03:35Z</time></trkpt><trkpt lat="35.7934263" lon="139.2407999"><ele>317.56333333333333</ele><time>2024-02-17T05:03:59Z</time></trkpt><trkpt lat="35.7933173" lon="139.2410063"><ele>314.56</ele><time>2024-02-17T05:04:14Z</time></trkpt><trkpt lat="35.7932264" lon="139.2412397"><ele>313.3633333333333</ele><time>2024-02-17T05:04:26Z</time></trkpt><trkpt lat="35.7931686" lon="139.2414629"><ele>312.3833333333334</ele><time>2024-02-17T05:04:44Z</time></trkpt><trkpt lat="35.7929882" lon="139.2415813"><ele>312.33666666666664</ele><time>2024-02-17T05:04:59Z</time></trkpt><trkpt lat="35.7928351" lon="139.2417172"><ele>311.84999999999997</ele><time>2024-02-17T05:05:17Z</time></trkpt><trkpt lat="35.79263" lon="139.2417903"><ele>310.22333333333336</ele><time>2024-02-17T05:05:32Z</time></trkpt><trkpt lat="35.792408" lon="139.2417429"><ele>305.98333333333335</ele><time>2024-02-17T05:05:47Z</time></trkpt><trkpt lat="35.7922341" lon="139.241915"><ele>303.4166666666667</ele><time>2024-02-17T05:06:02Z</time></trkpt><trkpt lat="35.792145" lon="139.2421179"><ele>302.33666666666664</ele><time>2024-02-17T05:06:20Z</time></trkpt><trkpt lat="35.7923258" lon="139.2421544"><ele>304.8566666666666</ele><time>2024-02-17T05:06:32Z</time></trkpt><trkpt lat="35.7924522" lon="139.2423506"><ele>305.92333333333335</ele><time>2024-02-17T05:06:50Z</time></trkpt><trkpt lat="35.7925118" lon="139.2426111"><ele>303.59</ele><time>2024-02-17T05:07:02Z</time></trkpt><trkpt lat="35.792474" lon="139.2428502"><ele>298.60999999999996</ele><time>2024-02-17T05:07:20Z</time></trkpt><trkpt lat="35.7924503" lon="139.2430868"><ele>293.69</ele><time>2024-02-17T05:07:32Z</time></trkpt><trkpt lat="35.7923628" lon="139.2433343"><ele>290.73</ele><time>2024-02-17T05:07:56Z</time></trkpt><trkpt lat="35.7923634" lon="139.2435728"><ele>287.35999999999996</ele><time>2024-02-17T05:08:17Z</time></trkpt><trkpt lat="35.7924353" lon="139.2438354"><ele>283.9266666666667</ele><time>2024-02-17T05:08:41Z</time></trkpt><trkpt lat="35.7924939" lon="139.2440926"><ele>281.1566666666667</ele><time>2024-02-17T05:08:53Z</time></trkpt><trkpt lat="35.7926165" lon="139.2442798"><ele>280.56333333333333</ele><time>2024-02-17T05:09:05Z</time></trkpt><trkpt lat="35.7927614" lon="139.2444614"><ele>279.5266666666667</ele><time>2024-02-17T05:09:23Z</time></trkpt><trkpt lat="35.7927863" lon="139.2446819"><ele>277.4433333333333</ele><time>2024-02-17T05:09:44Z</time></trkpt><trkpt lat="35.7928357" lon="139.2449128"><ele>276.47</ele><time>2024-02-17T05:09:53Z</time></trkpt><trkpt lat="35.7929341" lon="139.2451329"><ele>277.52666666666664</ele><time>2024-02-17T05:10:08Z</time></trkpt><trkpt lat="35.79301" lon="139.2453686"><ele>280.3233333333333</ele><time>2024-02-17T05:10:26Z</time></trkpt><trkpt lat="35.7930965" lon="139.245583"><ele>281.84</ele><time>2024-02-17T05:10:38Z</time></trkpt><trkpt lat="35.7930996" lon="139.2458244"><ele>281.9433333333333</ele><time>2024-02-17T05:10:56Z</time></trkpt><trkpt lat="35.7932534" lon="139.2460091"><ele>283.21333333333337</ele><time>2024-02-17T05:11:11Z</time></trkpt><trkpt lat="35.7933391" lon="139.246226"><ele>284.3233333333333</ele><time>2024-02-17T05:11:26Z</time></trkpt><trkpt lat="35.7933896" lon="139.2464641"><ele>286.4166666666667</ele><time>2024-02-17T05:11:41Z</time></trkpt><trkpt lat="35.7933801" lon="139.2466886"><ele>288.65333333333336</ele><time>2024-02-17T05:11:53Z</time></trkpt><trkpt lat="35.7933016" lon="139.2468977"><ele>288.9066666666667</ele><time>2024-02-17T05:12:05Z</time></trkpt><trkpt lat="35.7932754" lon="139.2471412"><ele>287.46666666666664</ele><time>2024-02-17T05:12:20Z</time></trkpt><trkpt lat="35.7933668" lon="139.247367"><ele>284.11333333333334</ele><time>2024-02-17T05:12:35Z</time></trkpt><trkpt lat="35.7933748" lon="139.2475964"><ele>283.61333333333334</ele><time>2024-02-17T05:12:50Z</time></trkpt><trkpt lat="35.7932839" lon="139.2478591"><ele>285.62</ele><time>2024-02-17T05:13:05Z</time></trkpt><trkpt lat="35.7932099" lon="139.2480616"><ele>287.2966666666667</ele><time>2024-02-17T05:13:20Z</time></trkpt><trkpt lat="35.793197" lon="139.2483007"><ele>288.1066666666666</ele><time>2024-02-17T05:13:38Z</time></trkpt><trkpt lat="35.7931228" lon="139.2485166"><ele>287.1933333333333</ele><time>2024-02-17T05:13:53Z</time></trkpt><trkpt lat="35.7930826" lon="139.2487361"><ele>286.72333333333336</ele><time>2024-02-17T05:14:08Z</time></trkpt><trkpt lat="35.7930509" lon="139.2489964"><ele>286.0733333333333</ele><time>2024-02-17T05:14:23Z</time></trkpt><trkpt lat="35.7930855" lon="139.2492601"><ele>285.87</ele><time>2024-02-17T05:14:38Z</time></trkpt><trkpt lat="35.7931625" lon="139.2494771"><ele>288.40000000000003</ele><time>2024-02-17T05:14:53Z</time></trkpt><trkpt lat="35.7930999" lon="139.2497335"><ele>289.9166666666667</ele><time>2024-02-17T05:15:08Z</time></trkpt><trkpt lat="35.792975" lon="139.2499453"><ele>292.47333333333336</ele><time>2024-02-17T05:15:23Z</time></trkpt><trkpt lat="35.7928457" lon="139.2501763"><ele>289.93666666666667</ele><time>2024-02-17T05:15:41Z</time></trkpt><trkpt lat="35.7929137" lon="139.2503928"><ele>287.31666666666666</ele><time>2024-02-17T05:15:59Z</time></trkpt><trkpt lat="35.7929753" lon="139.250615"><ele>283.12</ele><time>2024-02-17T05:16:11Z</time></trkpt><trkpt lat="35.7930246" lon="139.2508473"><ele>281.15000000000003</ele><time>2024-02-17T05:16:22Z</time></trkpt><trkpt lat="35.7930333" lon="139.2511226"><ele>281.8833333333334</ele><time>2024-02-17T05:16:41Z</time></trkpt><trkpt lat="35.7930092" lon="139.2513537"><ele>280.43333333333334</ele><time>2024-02-17T05:16:50Z</time></trkpt><trkpt lat="35.7931362" lon="139.2515471"><ele>279.01666666666665</ele><time>2024-02-17T05:17:05Z</time></trkpt><trkpt lat="35.7932021" lon="139.2517741"><ele>275.08666666666664</ele><time>2024-02-17T05:17:20Z</time></trkpt><trkpt lat="35.793299" lon="139.2519873"><ele>273.67333333333335</ele><time>2024-02-17T05:17:44Z</time></trkpt><trkpt lat="35.7933909" lon="139.2522043"><ele>272.9766666666667</ele><time>2024-02-17T05:17:59Z</time></trkpt><trkpt lat="35.7935585" lon="139.2523261"><ele>274.61333333333334</ele><time>2024-02-17T05:19:20Z</time></trkpt><trkpt lat="35.7936332" lon="139.2525872"><ele>277.19666666666666</ele><time>2024-02-17T05:19:38Z</time></trkpt><trkpt lat="35.7936756" lon="139.2528208"><ele>279.46666666666664</ele><time>2024-02-17T05:19:53Z</time></trkpt><trkpt lat="35.793695" lon="139.2530493"><ele>280.46666666666664</ele><time>2024-02-17T05:20:05Z</time></trkpt><trkpt lat="35.7938139" lon="139.2532364"><ele>280.71666666666664</ele><time>2024-02-17T05:20:17Z</time></trkpt><trkpt lat="35.793788" lon="139.253458"><ele>281.04333333333335</ele><time>2024-02-17T05:20:29Z</time></trkpt><trkpt lat="35.7939004" lon="139.2536517"><ele>281.8333333333333</ele><time>2024-02-17T05:20:50Z</time></trkpt><trkpt lat="35.7940461" lon="139.2538027"><ele>283.47</ele><time>2024-02-17T05:21:05Z</time></trkpt><trkpt lat="35.794099" lon="139.2540534"><ele>285.3233333333333</ele><time>2024-02-17T05:21:26Z</time></trkpt><trkpt lat="35.7939859" lon="139.2542403"><ele>286.2366666666667</ele><time>2024-02-17T05:21:42Z</time></trkpt><trkpt lat="35.793874" lon="139.2544171"><ele>287.94666666666666</ele><time>2024-02-17T05:21:56Z</time></trkpt><trkpt lat="35.7936139" lon="139.2545429"><ele>287.5566666666667</ele><time>2024-02-17T05:22:13Z</time></trkpt><trkpt lat="35.7935579" lon="139.2547659"><ele>288.8333333333333</ele><time>2024-02-17T05:22:28Z</time></trkpt><trkpt lat="35.7934265" lon="139.2549177"><ele>290.82</ele><time>2024-02-17T05:22:43Z</time></trkpt><trkpt lat="35.7932163" lon="139.2549337"><ele>294.32</ele><time>2024-02-17T05:23:01Z</time></trkpt><trkpt lat="35.7930607" lon="139.2548019"><ele>295.27666666666664</ele><time>2024-02-17T05:23:34Z</time></trkpt><trkpt lat="35.7929251" lon="139.2546228"><ele>292.93666666666667</ele><time>2024-02-17T05:23:55Z</time></trkpt><trkpt lat="35.7927496" lon="139.2544985"><ele>289.68666666666667</ele><time>2024-02-17T05:24:13Z</time></trkpt><trkpt lat="35.7925686" lon="139.2545075"><ele>286.79</ele><time>2024-02-17T05:24:37Z</time></trkpt><trkpt lat="35.7923506" lon="139.2545251"><ele>283.83666666666664</ele><time>2024-02-17T05:25:13Z</time></trkpt><trkpt lat="35.7921851" lon="139.2546202"><ele>280.34666666666664</ele><time>2024-02-17T05:25:28Z</time></trkpt><trkpt lat="35.7920334" lon="139.2547743"><ele>275.1233333333333</ele><time>2024-02-17T05:25:55Z</time></trkpt><trkpt lat="35.7918677" lon="139.2549091"><ele>268.28000000000003</ele><time>2024-02-17T05:26:25Z</time></trkpt><trkpt lat="35.7917067" lon="139.2550121"><ele>260.21000000000004</ele><time>2024-02-17T05:27:10Z</time></trkpt><trkpt lat="35.7915714" lon="139.2551647"><ele>251.5066666666667</ele><time>2024-02-17T05:29:07Z</time></trkpt><trkpt lat="35.791451" lon="139.2553744"><ele>240.23000000000002</ele><time>2024-02-17T05:30:07Z</time></trkpt><trkpt lat="35.7912914" lon="139.255244"><ele>226.94333333333336</ele><time>2024-02-17T05:30:43Z</time></trkpt><trkpt lat="35.7911437" lon="139.2550573"><ele>215.37</ele><time>2024-02-17T05:31:01Z</time></trkpt><trkpt lat="35.7911495" lon="139.255289"><ele>208.63666666666668</ele><time>2024-02-17T05:31:19Z</time></trkpt><trkpt lat="35.7910722" lon="139.2555209"><ele>205.93999999999997</ele><time>2024-02-17T05:31:37Z</time></trkpt><trkpt lat="35.791118" lon="139.2557501"><ele>204.72</ele><time>2024-02-17T05:31:55Z</time></trkpt><trkpt lat="35.7910593" lon="139.2559687"><ele>203.13666666666668</ele><time>2024-02-17T05:32:10Z</time></trkpt><trkpt lat="35.7908148" lon="139.2559806"><ele>201.84</ele><time>2024-02-17T05:32:28Z</time></trkpt><trkpt lat="35.7906329" lon="139.2559721"><ele>200.27333333333334</ele><time>2024-02-17T05:33:07Z</time></trkpt><trkpt lat="35.7904695" lon="139.2558653"><ele>199.24333333333334</ele><time>2024-02-17T05:34:43Z</time></trkpt><trkpt lat="35.7903478" lon="139.2561016"><ele>198.66666666666666</ele><time>2024-02-17T05:35:07Z</time></trkpt><trkpt lat="35.790289" lon="139.2563335"><ele>198.25666666666666</ele><time>2024-02-17T05:35:22Z</time></trkpt><trkpt lat="35.790286" lon="139.2565594"><ele>197.97</ele><time>2024-02-17T05:35:31Z</time></trkpt><trkpt lat="35.79033" lon="139.2567754"><ele>198.01999999999998</ele><time>2024-02-17T05:35:49Z</time></trkpt><trkpt lat="35.7902864" lon="139.2570042"><ele>198.07333333333335</ele><time>2024-02-17T05:36:09Z</time></trkpt><trkpt lat="35.7902091" lon="139.25721"><ele>198.0566666666667</ele><time>2024-02-17T05:36:24Z</time></trkpt><trkpt lat="35.7901658" lon="139.2574373"><ele>197.89</ele><time>2024-02-17T05:36:38Z</time></trkpt><trkpt lat="35.7900763" lon="139.2576597"><ele>197.79666666666665</ele><time>2024-02-17T05:36:52Z</time></trkpt><trkpt lat="35.7899926" lon="139.2578609"><ele>197.82666666666668</ele><time>2024-02-17T05:37:04Z</time></trkpt><trkpt lat="35.7901149" lon="139.2580341"><ele>197.98666666666668</ele><time>2024-02-17T05:37:13Z</time></trkpt><trkpt lat="35.790271" lon="139.2581502"><ele>198.25666666666666</ele><time>2024-02-17T05:37:30Z</time></trkpt></trkseg></trk></gpx>