<?xml version='1.0' encoding='UTF-8'?><gpx creator="YAMAP - https://yamap.com" xsi:schemaLocation="http://www.topografix.com/GPX/1/1 http://www.topografix.com/GPX/1/1/gpx.xsd" version="1.1" xmlns="http://www.topografix.com/GPX/1/1" xmlns:xsi="http://www.w3.org/2001/XMLSchema-instance"><metadata><bounds maxlat="36.0165682" maxlon="139.1921657" minlat="35.9769163" minlon="139.1323752"/></metadata><trk><name>堂平山でテント泊練習</name><number>1</number><trkseg><trkpt lat="35.9769163" lon="139.1368947"><ele>308.26</ele><time>2023-11-25T00:12:13Z</time></trkpt><trkpt lat="35.9771322" lon="139.1369288"><ele>307.53499999999997</ele><time>2023-11-25T00:12:48Z</time></trkpt><trkpt lat="35.9773137" lon="139.1370802"><ele>306.8066666666667</ele><time>2023-11-25T00:13:39Z</time></trkpt><trkpt lat="35.9774138" lon="139.1373023"><ele>305.68</ele><time>2023-11-25T00:13:54Z</time></trkpt><trkpt lat="35.9775854" lon="139.1374133"><ele>305.44666666666666</ele><time>2023-11-25T00:14:18Z</time></trkpt><trkpt lat="35.9776407" lon="139.137153"><ele>305.3866666666667</ele><time>2023-11-25T00:14:30Z</time></trkpt><trkpt lat="35.9777075" lon="139.1369179"><ele>305.23333333333335</ele><time>2023-11-25T00:14:42Z</time></trkpt><trkpt lat="35.9779057" lon="139.1367564"><ele>305.0266666666667</ele><time>2023-11-25T00:14:57Z</time></trkpt><trkpt lat="35.9779741" lon="139.136521"><ele>305.1366666666667</ele><time>2023-11-25T00:15:09Z</time></trkpt><trkpt lat="35.9779382" lon="139.1362791"><ele>305.3</ele><time>2023-11-25T00:15:21Z</time></trkpt><trkpt lat="35.9781596" lon="139.1362723"><ele>306.47333333333336</ele><time>2023-11-25T00:15:42Z</time></trkpt><trkpt lat="35.9781668" lon="139.1360061"><ele>307.22</ele><time>2023-11-25T00:15:51Z</time></trkpt><trkpt lat="35.9781657" lon="139.1357459"><ele>308.65000000000003</ele><time>2023-11-25T00:16:03Z</time></trkpt><trkpt lat="35.9783436" lon="139.1356789"><ele>309.04</ele><time>2023-11-25T00:16:30Z</time></trkpt><trkpt lat="35.9784701" lon="139.1355103"><ele>311.7266666666667</ele><time>2023-11-25T00:16:45Z</time></trkpt><trkpt lat="35.9784926" lon="139.1352891"><ele>315.66</ele><time>2023-11-25T00:16:53Z</time></trkpt><trkpt lat="35.9785404" lon="139.1350728"><ele>319.78666666666663</ele><time>2023-11-25T00:17:18Z</time></trkpt><trkpt lat="35.9785638" lon="139.1348498"><ele>323.93666666666667</ele><time>2023-11-25T00:17:40Z</time></trkpt><trkpt lat="35.9784928" lon="139.1346409"><ele>326.2966666666666</ele><time>2023-11-25T00:17:58Z</time></trkpt><trkpt lat="35.9784852" lon="139.1344152"><ele>327.67333333333335</ele><time>2023-11-25T00:18:12Z</time></trkpt><trkpt lat="35.978669" lon="139.1344248"><ele>328.87333333333333</ele><time>2023-11-25T00:18:34Z</time></trkpt><trkpt lat="35.9788593" lon="139.1344221"><ele>331.0466666666667</ele><time>2023-11-25T00:18:47Z</time></trkpt><trkpt lat="35.9790356" lon="139.1343686"><ele>334.19</ele><time>2023-11-25T00:19:14Z</time></trkpt><trkpt lat="35.9792143" lon="139.1343392"><ele>337.59999999999997</ele><time>2023-11-25T00:19:30Z</time></trkpt><trkpt lat="35.9792974" lon="139.1341336"><ele>340.56</ele><time>2023-11-25T00:21:16Z</time></trkpt><trkpt lat="35.97947" lon="139.1342006"><ele>345.27</ele><time>2023-11-25T00:21:50Z</time></trkpt><trkpt lat="35.9794723" lon="139.1344285"><ele>348.96000000000004</ele><time>2023-11-25T00:22:11Z</time></trkpt><trkpt lat="35.9794865" lon="139.1346544"><ele>352.67333333333335</ele><time>2023-11-25T00:22:30Z</time></trkpt><trkpt lat="35.9796201" lon="139.1348538"><ele>354.0366666666667</ele><time>2023-11-25T00:22:51Z</time></trkpt><trkpt lat="35.9797791" lon="139.134743"><ele>356.40333333333336</ele><time>2023-11-25T00:23:09Z</time></trkpt><trkpt lat="35.9797555" lon="139.1345189"><ele>360.46333333333337</ele><time>2023-11-25T00:23:43Z</time></trkpt><trkpt lat="35.9798881" lon="139.134364"><ele>366.44666666666666</ele><time>2023-11-25T00:24:26Z</time></trkpt><trkpt lat="35.9800687" lon="139.134411"><ele>371.74666666666667</ele><time>2023-11-25T00:24:48Z</time></trkpt><trkpt lat="35.9802496" lon="139.1343944"><ele>375.8766666666667</ele><time>2023-11-25T00:25:20Z</time></trkpt><trkpt lat="35.980436" lon="139.1343307"><ele>379.52333333333337</ele><time>2023-11-25T00:25:38Z</time></trkpt><trkpt lat="35.9806028" lon="139.1342249"><ele>383.6666666666667</ele><time>2023-11-25T00:25:48Z</time></trkpt><trkpt lat="35.980696" lon="139.1340309"><ele>388.01666666666665</ele><time>2023-11-25T00:26:13Z</time></trkpt><trkpt lat="35.9808513" lon="139.1339108"><ele>391.43666666666667</ele><time>2023-11-25T00:26:33Z</time></trkpt><trkpt lat="35.9809816" lon="139.1337503"><ele>393.57</ele><time>2023-11-25T00:26:49Z</time></trkpt><trkpt lat="35.9811562" lon="139.1336774"><ele>394.76</ele><time>2023-11-25T00:27:11Z</time></trkpt><trkpt lat="35.9812223" lon="139.1334385"><ele>396.08666666666664</ele><time>2023-11-25T00:27:23Z</time></trkpt><trkpt lat="35.9812891" lon="139.1332314"><ele>397.89000000000004</ele><time>2023-11-25T00:27:35Z</time></trkpt><trkpt lat="35.9814631" lon="139.1331672"><ele>400.3666666666666</ele><time>2023-11-25T00:28:01Z</time></trkpt><trkpt lat="35.9816456" lon="139.1332077"><ele>401.8833333333334</ele><time>2023-11-25T00:28:18Z</time></trkpt><trkpt lat="35.981824" lon="139.1332751"><ele>403.96000000000004</ele><time>2023-11-25T00:28:32Z</time></trkpt><trkpt lat="35.9820031" lon="139.1333234"><ele>406.7633333333333</ele><time>2023-11-25T00:28:46Z</time></trkpt><trkpt lat="35.9821014" lon="139.1335116"><ele>410.8433333333333</ele><time>2023-11-25T00:29:08Z</time></trkpt><trkpt lat="35.9821643" lon="139.1337217"><ele>414.54</ele><time>2023-11-25T00:29:26Z</time></trkpt><trkpt lat="35.9821797" lon="139.1339472"><ele>417.35666666666674</ele><time>2023-11-25T00:29:42Z</time></trkpt><trkpt lat="35.9821798" lon="139.1341772"><ele>418.65000000000003</ele><time>2023-11-25T00:29:57Z</time></trkpt><trkpt lat="35.9823371" lon="139.1342943"><ele>419.17333333333335</ele><time>2023-11-25T00:30:09Z</time></trkpt><trkpt lat="35.9825106" lon="139.1343656"><ele>420.0133333333333</ele><time>2023-11-25T00:30:45Z</time></trkpt><trkpt lat="35.9826036" lon="139.1345562"><ele>421.6566666666667</ele><time>2023-11-25T00:30:59Z</time></trkpt><trkpt lat="35.9827478" lon="139.1346981"><ele>423.8233333333333</ele><time>2023-11-25T00:31:13Z</time></trkpt><trkpt lat="35.9828962" lon="139.1348288"><ele>426.42333333333335</ele><time>2023-11-25T00:31:35Z</time></trkpt><trkpt lat="35.9830209" lon="139.1349916"><ele>430.15333333333336</ele><time>2023-11-25T00:31:52Z</time></trkpt><trkpt lat="35.9831782" lon="139.1351123"><ele>434.67333333333335</ele><time>2023-11-25T00:32:09Z</time></trkpt><trkpt lat="35.983359" lon="139.135123"><ele>439.1233333333333</ele><time>2023-11-25T00:32:28Z</time></trkpt><trkpt lat="35.9835399" lon="139.13517"><ele>443.97</ele><time>2023-11-25T00:32:50Z</time></trkpt><trkpt lat="35.9836661" lon="139.1353312"><ele>448.2333333333333</ele><time>2023-11-25T00:33:07Z</time></trkpt><trkpt lat="35.9838151" lon="139.1354576"><ele>450.91333333333336</ele><time>2023-11-25T00:33:22Z</time></trkpt><trkpt lat="35.9839311" lon="139.1356275"><ele>453.18666666666667</ele><time>2023-11-25T00:33:40Z</time></trkpt><trkpt lat="35.9841041" lon="139.1357002"><ele>455.49666666666667</ele><time>2023-11-25T00:33:57Z</time></trkpt><trkpt lat="35.9842427" lon="139.1355456"><ele>456.9466666666667</ele><time>2023-11-25T00:34:16Z</time></trkpt><trkpt lat="35.9843896" lon="139.1354147"><ele>457.4066666666667</ele><time>2023-11-25T00:34:37Z</time></trkpt><trkpt lat="35.9845557" lon="139.1353159"><ele>456.90333333333336</ele><time>2023-11-25T00:34:51Z</time></trkpt><trkpt lat="35.9847183" lon="139.1351969"><ele>458.1033333333333</ele><time>2023-11-25T00:35:04Z</time></trkpt><trkpt lat="35.9849052" lon="139.1351408"><ele>459.55999999999995</ele><time>2023-11-25T00:35:18Z</time></trkpt><trkpt lat="35.9850601" lon="139.135266"><ele>461.24333333333334</ele><time>2023-11-25T00:35:31Z</time></trkpt><trkpt lat="35.9852004" lon="139.1354147"><ele>463.08</ele><time>2023-11-25T00:35:45Z</time></trkpt><trkpt lat="35.9853665" lon="139.1355024"><ele>464.9166666666667</ele><time>2023-11-25T00:36:02Z</time></trkpt><trkpt lat="35.9855476" lon="139.1355032"><ele>466.27</ele><time>2023-11-25T00:36:16Z</time></trkpt><trkpt lat="35.9856993" lon="139.1353778"><ele>466.36999999999995</ele><time>2023-11-25T00:36:32Z</time></trkpt><trkpt lat="35.985878" lon="139.1352283"><ele>466.4166666666667</ele><time>2023-11-25T00:36:44Z</time></trkpt><trkpt lat="35.985917" lon="139.1350021"><ele>466.28666666666663</ele><time>2023-11-25T00:36:58Z</time></trkpt><trkpt lat="35.9859188" lon="139.1347615"><ele>465.8433333333333</ele><time>2023-11-25T00:37:14Z</time></trkpt><trkpt lat="35.9859914" lon="139.1345378"><ele>465.12999999999994</ele><time>2023-11-25T00:37:32Z</time></trkpt><trkpt lat="35.985982" lon="139.1343089"><ele>464.52</ele><time>2023-11-25T00:37:47Z</time></trkpt><trkpt lat="35.9860313" lon="139.1340909"><ele>465.68</ele><time>2023-11-25T00:37:53Z</time></trkpt><trkpt lat="35.9862119" lon="139.1341457"><ele>468.3833333333334</ele><time>2023-11-25T00:38:10Z</time></trkpt><trkpt lat="35.9863338" lon="139.1339617"><ele>471.95</ele><time>2023-11-25T00:38:22Z</time></trkpt><trkpt lat="35.9863226" lon="139.1337372"><ele>475.06666666666666</ele><time>2023-11-25T00:38:36Z</time></trkpt><trkpt lat="35.9861636" lon="139.1336182"><ele>475.59</ele><time>2023-11-25T00:38:47Z</time></trkpt><trkpt lat="35.9859814" lon="139.1335821"><ele>474.9066666666667</ele><time>2023-11-25T00:38:58Z</time></trkpt><trkpt lat="35.9858003" lon="139.1335517"><ele>473.3733333333334</ele><time>2023-11-25T00:39:11Z</time></trkpt><trkpt lat="35.9857818" lon="139.1333276"><ele>474.68666666666667</ele><time>2023-11-25T00:39:27Z</time></trkpt><trkpt lat="35.9858979" lon="139.1331458"><ele>477.7266666666667</ele><time>2023-11-25T00:39:38Z</time></trkpt><trkpt lat="35.9859881" lon="139.1329531"><ele>481.9266666666667</ele><time>2023-11-25T00:39:57Z</time></trkpt><trkpt lat="35.9861571" lon="139.1328572"><ele>484.50333333333333</ele><time>2023-11-25T00:40:17Z</time></trkpt><trkpt lat="35.9863376" lon="139.1328382"><ele>486.16333333333336</ele><time>2023-11-25T00:40:41Z</time></trkpt><trkpt lat="35.9864975" lon="139.1326697"><ele>488.30333333333334</ele><time>2023-11-25T00:40:54Z</time></trkpt><trkpt lat="35.9866551" lon="139.1325512"><ele>491.75666666666666</ele><time>2023-11-25T00:41:11Z</time></trkpt><trkpt lat="35.9867919" lon="139.1327179"><ele>495.0</ele><time>2023-11-25T00:41:21Z</time></trkpt><trkpt lat="35.986925" lon="139.1328691"><ele>498.0466666666666</ele><time>2023-11-25T00:41:39Z</time></trkpt><trkpt lat="35.9870788" lon="139.1327492"><ele>501.24666666666667</ele><time>2023-11-25T00:41:55Z</time></trkpt><trkpt lat="35.9869876" lon="139.1325547"><ele>504.50333333333333</ele><time>2023-11-25T00:42:14Z</time></trkpt><trkpt lat="35.9868436" lon="139.1324079"><ele>505.3733333333333</ele><time>2023-11-25T00:42:50Z</time></trkpt><trkpt lat="35.9870854" lon="139.1323752"><ele>507.68</ele><time>2023-11-25T00:43:15Z</time></trkpt><trkpt lat="35.9871852" lon="139.132565"><ele>510.39000000000004</ele><time>2023-11-25T00:43:32Z</time></trkpt><trkpt lat="35.98731" lon="139.1327355"><ele>514.4200000000001</ele><time>2023-11-25T00:43:51Z</time></trkpt><trkpt lat="35.9874642" lon="139.1328644"><ele>518.8833333333333</ele><time>2023-11-25T00:44:15Z</time></trkpt><trkpt lat="35.9875203" lon="139.1330902"><ele>522.3733333333333</ele><time>2023-11-25T00:44:27Z</time></trkpt><trkpt lat="35.9875998" lon="139.1332938"><ele>525.6866666666666</ele><time>2023-11-25T00:44:40Z</time></trkpt><trkpt lat="35.9877776" lon="139.1333354"><ele>526.32</ele><time>2023-11-25T00:44:59Z</time></trkpt><trkpt lat="35.9879372" lon="139.1334555"><ele>528.0366666666667</ele><time>2023-11-25T00:45:18Z</time></trkpt><trkpt lat="35.9878879" lon="139.1336858"><ele>530.1633333333334</ele><time>2023-11-25T00:45:42Z</time></trkpt><trkpt lat="35.9878662" lon="139.1339146"><ele>531.5566666666667</ele><time>2023-11-25T00:45:53Z</time></trkpt><trkpt lat="35.9880114" lon="139.1340693"><ele>534.07</ele><time>2023-11-25T00:46:03Z</time></trkpt><trkpt lat="35.9881434" lon="139.1342301"><ele>536.4833333333332</ele><time>2023-11-25T00:46:24Z</time></trkpt><trkpt lat="35.9882359" lon="139.1344337"><ele>541.2599999999999</ele><time>2023-11-25T00:46:38Z</time></trkpt><trkpt lat="35.9882582" lon="139.1346715"><ele>543.9033333333333</ele><time>2023-11-25T00:46:51Z</time></trkpt><trkpt lat="35.9881043" lon="139.134811"><ele>545.8533333333334</ele><time>2023-11-25T00:47:01Z</time></trkpt><trkpt lat="35.987975" lon="139.1349691"><ele>545.1866666666666</ele><time>2023-11-25T00:47:12Z</time></trkpt><trkpt lat="35.9878305" lon="139.1351203"><ele>544.5</ele><time>2023-11-25T00:47:25Z</time></trkpt><trkpt lat="35.9878093" lon="139.1353413"><ele>545.31</ele><time>2023-11-25T00:47:45Z</time></trkpt><trkpt lat="35.9876829" lon="139.1355317"><ele>544.89</ele><time>2023-11-25T00:48:00Z</time></trkpt><trkpt lat="35.9878478" lon="139.1356704"><ele>545.7733333333333</ele><time>2023-11-25T00:48:19Z</time></trkpt><trkpt lat="35.9879941" lon="139.1358065"><ele>546.9933333333333</ele><time>2023-11-25T00:48:25Z</time></trkpt><trkpt lat="35.9880818" lon="139.1360081"><ele>550.2233333333334</ele><time>2023-11-25T00:48:46Z</time></trkpt><trkpt lat="35.988087" lon="139.1362347"><ele>552.2733333333334</ele><time>2023-11-25T00:48:55Z</time></trkpt><trkpt lat="35.9880829" lon="139.1364632"><ele>553.4133333333333</ele><time>2023-11-25T00:49:07Z</time></trkpt><trkpt lat="35.9881011" lon="139.136693"><ele>554.0466666666667</ele><time>2023-11-25T00:49:20Z</time></trkpt><trkpt lat="35.9880287" lon="139.1369037"><ele>554.8833333333333</ele><time>2023-11-25T00:49:34Z</time></trkpt><trkpt lat="35.988123" lon="139.1370989"><ele>555.1266666666667</ele><time>2023-11-25T00:49:47Z</time></trkpt><trkpt lat="35.9881952" lon="139.1373082"><ele>554.3866666666667</ele><time>2023-11-25T00:50:02Z</time></trkpt><trkpt lat="35.9883485" lon="139.1374433"><ele>554.08</ele><time>2023-11-25T00:50:14Z</time></trkpt><trkpt lat="35.9884417" lon="139.137646"><ele>552.8866666666667</ele><time>2023-11-25T00:50:29Z</time></trkpt><trkpt lat="35.9884639" lon="139.13787"><ele>553.0766666666667</ele><time>2023-11-25T00:50:41Z</time></trkpt><trkpt lat="35.9883943" lon="139.1380775"><ele>555.1966666666667</ele><time>2023-11-25T00:50:54Z</time></trkpt><trkpt lat="35.9884388" lon="139.1382962"><ele>558.47</ele><time>2023-11-25T00:51:10Z</time></trkpt><trkpt lat="35.9885153" lon="139.1385075"><ele>560.3966666666666</ele><time>2023-11-25T00:51:19Z</time></trkpt><trkpt lat="35.9883843" lon="139.1386627"><ele>561.8566666666667</ele><time>2023-11-25T00:51:36Z</time></trkpt><trkpt lat="35.9883133" lon="139.1388686"><ele>565.0266666666666</ele><time>2023-11-25T00:51:52Z</time></trkpt><trkpt lat="35.9883851" lon="139.1390787"><ele>570.3266666666667</ele><time>2023-11-25T00:52:05Z</time></trkpt><trkpt lat="35.9884961" lon="139.1392604"><ele>575.0033333333333</ele><time>2023-11-25T00:52:23Z</time></trkpt><trkpt lat="35.9885698" lon="139.139483"><ele>578.8366666666667</ele><time>2023-11-25T00:52:44Z</time></trkpt><trkpt lat="35.9884287" lon="139.1396327"><ele>583.1166666666667</ele><time>2023-11-25T00:53:00Z</time></trkpt><trkpt lat="35.9882838" lon="139.1397789"><ele>587.3733333333333</ele><time>2023-11-25T00:53:33Z</time></trkpt><trkpt lat="35.9881335" lon="139.1399115"><ele>591.9899999999999</ele><time>2023-11-25T00:53:50Z</time></trkpt><trkpt lat="35.9880475" lon="139.1401089"><ele>596.0066666666667</ele><time>2023-11-25T00:54:11Z</time></trkpt><trkpt lat="35.9881707" lon="139.1402995"><ele>600.0833333333334</ele><time>2023-11-25T00:55:10Z</time></trkpt><trkpt lat="35.988204" lon="139.1405213"><ele>605.0933333333334</ele><time>2023-11-25T00:55:40Z</time></trkpt><trkpt lat="35.9881814" lon="139.1407467"><ele>610.5133333333333</ele><time>2023-11-25T00:56:03Z</time></trkpt><trkpt lat="35.9880446" lon="139.1408985"><ele>616.37</ele><time>2023-11-25T00:56:16Z</time></trkpt><trkpt lat="35.9880104" lon="139.1411227"><ele>621.4233333333333</ele><time>2023-11-25T00:56:31Z</time></trkpt><trkpt lat="35.9881439" lon="139.1412718"><ele>625.4933333333333</ele><time>2023-11-25T00:57:14Z</time></trkpt><trkpt lat="35.9881673" lon="139.1415008"><ele>629.4666666666667</ele><time>2023-11-25T00:57:37Z</time></trkpt><trkpt lat="35.9883425" lon="139.1415786"><ele>630.33</ele><time>2023-11-25T00:58:12Z</time></trkpt><trkpt lat="35.9883406" lon="139.141805"><ele>633.4933333333333</ele><time>2023-11-25T00:58:31Z</time></trkpt><trkpt lat="35.9883863" lon="139.1420212"><ele>636.4033333333333</ele><time>2023-11-25T00:58:55Z</time></trkpt><trkpt lat="35.9884731" lon="139.1422169"><ele>642.8266666666667</ele><time>2023-11-25T00:59:18Z</time></trkpt><trkpt lat="35.988549" lon="139.1424208"><ele>647.8766666666667</ele><time>2023-11-25T00:59:46Z</time></trkpt><trkpt lat="35.9886447" lon="139.1426225"><ele>651.5466666666667</ele><time>2023-11-25T01:00:17Z</time></trkpt><trkpt lat="35.9884798" lon="139.1427185"><ele>656.23</ele><time>2023-11-25T01:00:46Z</time></trkpt><trkpt lat="35.9883614" lon="139.1428913"><ele>661.4133333333334</ele><time>2023-11-25T01:01:12Z</time></trkpt><trkpt lat="35.9884154" lon="139.1431076"><ele>668.4</ele><time>2023-11-25T01:02:52Z</time></trkpt><trkpt lat="35.9883957" lon="139.1433322"><ele>674.4066666666666</ele><time>2023-11-25T01:03:18Z</time></trkpt><trkpt lat="35.9882246" lon="139.1434194"><ele>680.5466666666667</ele><time>2023-11-25T01:03:37Z</time></trkpt><trkpt lat="35.9880998" lon="139.1435838"><ele>687.9533333333334</ele><time>2023-11-25T01:04:31Z</time></trkpt><trkpt lat="35.988098" lon="139.1438068"><ele>695.02</ele><time>2023-11-25T01:05:35Z</time></trkpt><trkpt lat="35.9879173" lon="139.1437765"><ele>700.5366666666665</ele><time>2023-11-25T01:06:29Z</time></trkpt><trkpt lat="35.9878939" lon="139.1439983"><ele>705.0166666666668</ele><time>2023-11-25T01:07:17Z</time></trkpt><trkpt lat="35.9877198" lon="139.1440716"><ele>708.5866666666667</ele><time>2023-11-25T01:07:45Z</time></trkpt><trkpt lat="35.9878185" lon="139.1442596"><ele>712.69</ele><time>2023-11-25T01:08:14Z</time></trkpt><trkpt lat="35.9878524" lon="139.1444897"><ele>715.9466666666667</ele><time>2023-11-25T01:08:45Z</time></trkpt><trkpt lat="35.9879799" lon="139.1446534"><ele>719.4033333333333</ele><time>2023-11-25T01:09:13Z</time></trkpt><trkpt lat="35.9880447" lon="139.1448632"><ele>722.4466666666667</ele><time>2023-11-25T01:09:40Z</time></trkpt><trkpt lat="35.9881158" lon="139.1450713"><ele>724.7566666666667</ele><time>2023-11-25T01:09:55Z</time></trkpt><trkpt lat="35.9882258" lon="139.1452525"><ele>726.6999999999999</ele><time>2023-11-25T01:10:16Z</time></trkpt><trkpt lat="35.9882246" lon="139.1454805"><ele>729.1</ele><time>2023-11-25T01:10:35Z</time></trkpt><trkpt lat="35.9881548" lon="139.1456901"><ele>732.2900000000001</ele><time>2023-11-25T01:10:57Z</time></trkpt><trkpt lat="35.9881971" lon="139.1459065"><ele>736.46</ele><time>2023-11-25T01:11:37Z</time></trkpt><trkpt lat="35.9881055" lon="139.1461346"><ele>740.7233333333334</ele><time>2023-11-25T01:12:00Z</time></trkpt><trkpt lat="35.9881835" lon="139.1463474"><ele>745.9833333333332</ele><time>2023-11-25T01:13:07Z</time></trkpt><trkpt lat="35.9881626" lon="139.146568"><ele>751.8733333333333</ele><time>2023-11-25T01:14:19Z</time></trkpt><trkpt lat="35.9882108" lon="139.1467826"><ele>757.7033333333334</ele><time>2023-11-25T01:14:37Z</time></trkpt><trkpt lat="35.9882927" lon="139.1469813"><ele>760.9233333333333</ele><time>2023-11-25T01:14:52Z</time></trkpt><trkpt lat="35.9884619" lon="139.1470954"><ele>762.71</ele><time>2023-11-25T01:15:12Z</time></trkpt><trkpt lat="35.9886316" lon="139.1471806"><ele>764.5666666666666</ele><time>2023-11-25T01:16:05Z</time></trkpt><trkpt lat="35.9887636" lon="139.1473392"><ele>768.0633333333334</ele><time>2023-11-25T01:16:22Z</time></trkpt><trkpt lat="35.9888411" lon="139.1475516"><ele>771.69</ele><time>2023-11-25T01:16:40Z</time></trkpt><trkpt lat="35.9889341" lon="139.1477597"><ele>774.5033333333334</ele><time>2023-11-25T01:16:57Z</time></trkpt><trkpt lat="35.9890659" lon="139.1479393"><ele>777.1933333333333</ele><time>2023-11-25T01:17:13Z</time></trkpt><trkpt lat="35.9891314" lon="139.1481509"><ele>779.7966666666666</ele><time>2023-11-25T01:17:30Z</time></trkpt><trkpt lat="35.9891763" lon="139.1483708"><ele>782.4466666666667</ele><time>2023-11-25T01:17:48Z</time></trkpt><trkpt lat="35.9892295" lon="139.1485829"><ele>785.18</ele><time>2023-11-25T01:18:19Z</time></trkpt><trkpt lat="35.989236" lon="139.1488073"><ele>789.11</ele><time>2023-11-25T01:19:04Z</time></trkpt><trkpt lat="35.9892662" lon="139.1490303"><ele>793.8866666666667</ele><time>2023-11-25T01:19:18Z</time></trkpt><trkpt lat="35.9893406" lon="139.1492372"><ele>799.52</ele><time>2023-11-25T01:19:37Z</time></trkpt><trkpt lat="35.9894426" lon="139.1494227"><ele>804.5566666666667</ele><time>2023-11-25T01:20:22Z</time></trkpt><trkpt lat="35.9895071" lon="139.1496311"><ele>809.3000000000001</ele><time>2023-11-25T01:21:26Z</time></trkpt><trkpt lat="35.9895888" lon="139.1498309"><ele>813.2633333333333</ele><time>2023-11-25T01:22:08Z</time></trkpt><trkpt lat="35.9897005" lon="139.1500113"><ele>817.34</ele><time>2023-11-25T01:22:21Z</time></trkpt><trkpt lat="35.9897848" lon="139.1502087"><ele>820.4733333333334</ele><time>2023-11-25T01:22:33Z</time></trkpt><trkpt lat="35.9898964" lon="139.150387"><ele>823.3766666666667</ele><time>2023-11-25T01:22:48Z</time></trkpt><trkpt lat="35.9900815" lon="139.1503843"><ele>826.0866666666667</ele><time>2023-11-25T01:23:43Z</time></trkpt><trkpt lat="35.9902392" lon="139.1505007"><ele>829.9966666666668</ele><time>2023-11-25T01:24:16Z</time></trkpt><trkpt lat="35.9903932" lon="139.1506279"><ele>834.23</ele><time>2023-11-25T01:24:38Z</time></trkpt><trkpt lat="35.9905543" lon="139.1507394"><ele>838.2533333333332</ele><time>2023-11-25T01:25:31Z</time></trkpt><trkpt lat="35.9907116" lon="139.1508675"><ele>841.93</ele><time>2023-11-25T01:25:54Z</time></trkpt><trkpt lat="35.9908838" lon="139.1509564"><ele>845.5133333333333</ele><time>2023-11-25T01:26:19Z</time></trkpt><trkpt lat="35.9910652" lon="139.1510275"><ele>848.5500000000001</ele><time>2023-11-25T01:26:39Z</time></trkpt><trkpt lat="35.9911919" lon="139.1512239"><ele>852.09</ele><time>2023-11-25T01:26:59Z</time></trkpt><trkpt lat="35.9913576" lon="139.1513573"><ele>855.3666666666667</ele><time>2023-11-25T01:30:02Z</time></trkpt><trkpt lat="35.9915214" lon="139.1514502"><ele>859.0966666666667</ele><time>2023-11-25T01:30:35Z</time></trkpt><trkpt lat="35.9916837" lon="139.1515563"><ele>862.7866666666667</ele><time>2023-11-25T01:30:57Z</time></trkpt><trkpt lat="35.9918428" lon="139.1516726"><ele>866.93</ele><time>2023-11-25T01:31:16Z</time></trkpt><trkpt lat="35.9919391" lon="139.1518658"><ele>871.0833333333334</ele><time>2023-11-25T01:31:35Z</time></trkpt><trkpt lat="35.9920299" lon="139.152059"><ele>874.7933333333334</ele><time>2023-11-25T01:32:07Z</time></trkpt><trkpt lat="35.9921079" lon="139.1522612"><ele>879.1866666666668</ele><time>2023-11-25T01:32:32Z</time></trkpt><trkpt lat="35.9921922" lon="139.1524618"><ele>883.9433333333333</ele><time>2023-11-25T01:33:00Z</time></trkpt><trkpt lat="35.9921637" lon="139.1526871"><ele>887.6199999999999</ele><time>2023-11-25T01:33:51Z</time></trkpt><trkpt lat="35.9921824" lon="139.1529207"><ele>888.8966666666666</ele><time>2023-11-25T01:34:05Z</time></trkpt><trkpt lat="35.9923268" lon="139.1530792"><ele>890.4766666666666</ele><time>2023-11-25T01:34:20Z</time></trkpt><trkpt lat="35.9922852" lon="139.1533041"><ele>891.6166666666667</ele><time>2023-11-25T01:34:34Z</time></trkpt><trkpt lat="35.9922112" lon="139.153508"><ele>892.3066666666667</ele><time>2023-11-25T01:34:48Z</time></trkpt><trkpt lat="35.992144" lon="139.1537207"><ele>889.0333333333333</ele><time>2023-11-25T01:35:03Z</time></trkpt><trkpt lat="35.9922066" lon="139.1539469"><ele>887.87</ele><time>2023-11-25T01:35:23Z</time></trkpt><trkpt lat="35.9922094" lon="139.154176"><ele>887.9700000000001</ele><time>2023-11-25T01:35:39Z</time></trkpt><trkpt lat="35.992135" lon="139.154394"><ele>890.3966666666666</ele><time>2023-11-25T01:35:55Z</time></trkpt><trkpt lat="35.9920251" lon="139.154587"><ele>890.23</ele><time>2023-11-25T01:36:09Z</time></trkpt><trkpt lat="35.9919797" lon="139.154806"><ele>890.1999999999999</ele><time>2023-11-25T01:36:22Z</time></trkpt><trkpt lat="35.9920018" lon="139.1550301"><ele>891.5833333333334</ele><time>2023-11-25T01:36:40Z</time></trkpt><trkpt lat="35.9918558" lon="139.1552031"><ele>893.3000000000001</ele><time>2023-11-25T01:36:57Z</time></trkpt><trkpt lat="35.9917526" lon="139.1554024"><ele>893.6233333333334</ele><time>2023-11-25T01:37:13Z</time></trkpt><trkpt lat="35.9916264" lon="139.155566"><ele>893.21</ele><time>2023-11-25T01:37:29Z</time></trkpt><trkpt lat="35.9914724" lon="139.155698"><ele>891.7866666666667</ele><time>2023-11-25T01:37:43Z</time></trkpt><trkpt lat="35.9913835" lon="139.1558934"><ele>891.9966666666666</ele><time>2023-11-25T01:37:58Z</time></trkpt><trkpt lat="35.9912642" lon="139.1560612"><ele>891.1366666666667</ele><time>2023-11-25T01:38:19Z</time></trkpt><trkpt lat="35.9911463" lon="139.1562534"><ele>892.2033333333334</ele><time>2023-11-25T01:38:33Z</time></trkpt><trkpt lat="35.991079" lon="139.1564701"><ele>892.5666666666666</ele><time>2023-11-25T01:38:48Z</time></trkpt><trkpt lat="35.9909769" lon="139.1566712"><ele>891.9133333333333</ele><time>2023-11-25T01:39:04Z</time></trkpt><trkpt lat="35.9908425" lon="139.1568239"><ele>890.4833333333332</ele><time>2023-11-25T01:39:18Z</time></trkpt><trkpt lat="35.9907111" lon="139.1569859"><ele>887.7733333333334</ele><time>2023-11-25T01:39:33Z</time></trkpt><trkpt lat="35.9906949" lon="139.157219"><ele>887.5233333333332</ele><time>2023-11-25T01:39:49Z</time></trkpt><trkpt lat="35.990666" lon="139.1574386"><ele>888.0333333333334</ele><time>2023-11-25T01:40:10Z</time></trkpt><trkpt lat="35.990627" lon="139.1576634"><ele>890.3733333333333</ele><time>2023-11-25T01:40:25Z</time></trkpt><trkpt lat="35.9908054" lon="139.1577661"><ele>890.0466666666667</ele><time>2023-11-25T01:40:56Z</time></trkpt><trkpt lat="35.9907145" lon="139.1579611"><ele>890.9466666666667</ele><time>2023-11-25T01:41:36Z</time></trkpt><trkpt lat="35.9906498" lon="139.1581773"><ele>887.75</ele><time>2023-11-25T01:41:58Z</time></trkpt><trkpt lat="35.9904631" lon="139.1582823"><ele>888.3233333333334</ele><time>2023-11-25T01:42:30Z</time></trkpt><trkpt lat="35.9902935" lon="139.1583669"><ele>889.3400000000001</ele><time>2023-11-25T01:42:50Z</time></trkpt><trkpt lat="35.9902472" lon="139.1585899"><ele>894.6533333333333</ele><time>2023-11-25T01:43:23Z</time></trkpt><trkpt lat="35.9901134" lon="139.1587891"><ele>900.54</ele><time>2023-11-25T01:44:05Z</time></trkpt><trkpt lat="35.9901391" lon="139.1590149"><ele>904.5133333333333</ele><time>2023-11-25T01:44:51Z</time></trkpt><trkpt lat="35.9899592" lon="139.1590537"><ele>909.8833333333333</ele><time>2023-11-25T01:45:19Z</time></trkpt><trkpt lat="35.9898599" lon="139.1592417"><ele>914.4266666666666</ele><time>2023-11-25T01:46:11Z</time></trkpt><trkpt lat="35.9897707" lon="139.1594377"><ele>918.9899999999999</ele><time>2023-11-25T01:46:29Z</time></trkpt><trkpt lat="35.9895877" lon="139.1594849"><ele>923.46</ele><time>2023-11-25T01:47:26Z</time></trkpt><trkpt lat="35.9894083" lon="139.1595172"><ele>927.7633333333333</ele><time>2023-11-25T01:47:42Z</time></trkpt><trkpt lat="35.9892298" lon="139.1594779"><ele>934.4266666666667</ele><time>2023-11-25T01:48:06Z</time></trkpt><trkpt lat="35.9890383" lon="139.1594469"><ele>941.4066666666668</ele><time>2023-11-25T01:49:11Z</time></trkpt><trkpt lat="35.988917" lon="139.1596191"><ele>946.75</ele><time>2023-11-25T01:49:46Z</time></trkpt><trkpt lat="35.9887338" lon="139.1596833"><ele>952.57</ele><time>2023-11-25T01:50:57Z</time></trkpt><trkpt lat="35.9885433" lon="139.1596498"><ele>956.1333333333333</ele><time>2023-11-25T01:51:32Z</time></trkpt><trkpt lat="35.9886835" lon="139.1595093"><ele>959.5833333333334</ele><time>2023-11-25T01:52:38Z</time></trkpt><trkpt lat="35.9885719" lon="139.1597023"><ele>959.8733333333333</ele><time>2023-11-25T01:58:04Z</time></trkpt><trkpt lat="35.9885686" lon="139.1599276"><ele>958.9699999999999</ele><time>2023-11-25T01:58:26Z</time></trkpt><trkpt lat="35.9883738" lon="139.1599952"><ele>957.5533333333333</ele><time>2023-11-25T01:58:38Z</time></trkpt><trkpt lat="35.9884422" lon="139.1602048"><ele>956.3733333333333</ele><time>2023-11-25T01:58:42Z</time></trkpt><trkpt lat="35.9884867" lon="139.1604268"><ele>955.6133333333333</ele><time>2023-11-25T01:58:55Z</time></trkpt><trkpt lat="35.988518" lon="139.1606457"><ele>954.8166666666667</ele><time>2023-11-25T01:59:13Z</time></trkpt><trkpt lat="35.9885481" lon="139.1608686"><ele>953.9000000000001</ele><time>2023-11-25T01:59:26Z</time></trkpt><trkpt lat="35.9886082" lon="139.1610866"><ele>952.9499999999999</ele><time>2023-11-25T01:59:41Z</time></trkpt><trkpt lat="35.9885728" lon="139.1613104"><ele>952.3866666666667</ele><time>2023-11-25T01:59:53Z</time></trkpt><trkpt lat="35.9884297" lon="139.1614504"><ele>951.1700000000001</ele><time>2023-11-25T02:00:23Z</time></trkpt><trkpt lat="35.9883676" lon="139.161663"><ele>949.0633333333334</ele><time>2023-11-25T02:00:39Z</time></trkpt><trkpt lat="35.9882805" lon="139.1618624"><ele>944.5533333333333</ele><time>2023-11-25T02:00:55Z</time></trkpt><trkpt lat="35.9880992" lon="139.1618515"><ele>939.7566666666667</ele><time>2023-11-25T02:01:09Z</time></trkpt><trkpt lat="35.9879587" lon="139.1620069"><ele>934.81</ele><time>2023-11-25T02:01:28Z</time></trkpt><trkpt lat="35.9879163" lon="139.1622229"><ele>930.3566666666667</ele><time>2023-11-25T02:01:43Z</time></trkpt><trkpt lat="35.9877421" lon="139.1622893"><ele>925.54</ele><time>2023-11-25T02:02:22Z</time></trkpt><trkpt lat="35.9876233" lon="139.1624697"><ele>920.5300000000001</ele><time>2023-11-25T02:02:37Z</time></trkpt><trkpt lat="35.9874964" lon="139.1626368"><ele>916.1333333333333</ele><time>2023-11-25T02:02:53Z</time></trkpt><trkpt lat="35.9873602" lon="139.1627838"><ele>912.1466666666666</ele><time>2023-11-25T02:03:07Z</time></trkpt><trkpt lat="35.9872441" lon="139.1629647"><ele>909.0500000000001</ele><time>2023-11-25T02:03:21Z</time></trkpt><trkpt lat="35.9872053" lon="139.1631866"><ele>906.7133333333333</ele><time>2023-11-25T02:03:39Z</time></trkpt><trkpt lat="35.9871146" lon="139.1633886"><ele>904.5233333333334</ele><time>2023-11-25T02:03:53Z</time></trkpt><trkpt lat="35.986978" lon="139.163542"><ele>902.9466666666667</ele><time>2023-11-25T02:04:06Z</time></trkpt><trkpt lat="35.9868598" lon="139.1637112"><ele>901.66</ele><time>2023-11-25T02:04:32Z</time></trkpt><trkpt lat="35.9867965" lon="139.1639212"><ele>899.6666666666666</ele><time>2023-11-25T02:04:46Z</time></trkpt><trkpt lat="35.9866934" lon="139.1641143"><ele>896.7166666666666</ele><time>2023-11-25T02:05:02Z</time></trkpt><trkpt lat="35.9865853" lon="139.1642918"><ele>893.0799999999999</ele><time>2023-11-25T02:05:22Z</time></trkpt><trkpt lat="35.98646" lon="139.1644638"><ele>890.0333333333334</ele><time>2023-11-25T02:05:44Z</time></trkpt><trkpt lat="35.9863504" lon="139.1646427"><ele>888.7800000000001</ele><time>2023-11-25T02:06:00Z</time></trkpt><trkpt lat="35.9863259" lon="139.1648642"><ele>888.84</ele><time>2023-11-25T02:06:25Z</time></trkpt><trkpt lat="35.986154" lon="139.16494"><ele>888.9566666666666</ele><time>2023-11-25T02:06:43Z</time></trkpt><trkpt lat="35.9859969" lon="139.1650732"><ele>887.5033333333332</ele><time>2023-11-25T02:06:55Z</time></trkpt><trkpt lat="35.9858982" lon="139.1652784"><ele>884.19</ele><time>2023-11-25T02:07:20Z</time></trkpt><trkpt lat="35.9860276" lon="139.165448"><ele>881.0833333333334</ele><time>2023-11-25T02:07:38Z</time></trkpt><trkpt lat="35.9860166" lon="139.1656746"><ele>876.96</ele><time>2023-11-25T02:07:53Z</time></trkpt><trkpt lat="35.9859717" lon="139.1658968"><ele>874.6866666666666</ele><time>2023-11-25T02:08:10Z</time></trkpt><trkpt lat="35.9859755" lon="139.1661228"><ele>872.9900000000001</ele><time>2023-11-25T02:08:28Z</time></trkpt><trkpt lat="35.9860069" lon="139.1663558"><ele>872.54</ele><time>2023-11-25T02:08:44Z</time></trkpt><trkpt lat="35.9859887" lon="139.1665774"><ele>872.0733333333334</ele><time>2023-11-25T02:08:57Z</time></trkpt><trkpt lat="35.98594" lon="139.1667932"><ele>871.7033333333334</ele><time>2023-11-25T02:09:13Z</time></trkpt><trkpt lat="35.9859762" lon="139.1670229"><ele>874.1066666666667</ele><time>2023-11-25T02:09:28Z</time></trkpt><trkpt lat="35.9860416" lon="139.1672386"><ele>877.6933333333333</ele><time>2023-11-25T02:09:43Z</time></trkpt><trkpt lat="35.9858975" lon="139.167379"><ele>883.5133333333333</ele><time>2023-11-25T02:10:07Z</time></trkpt><trkpt lat="35.9858544" lon="139.1676064"><ele>888.0166666666665</ele><time>2023-11-25T02:11:13Z</time></trkpt><trkpt lat="35.9858374" lon="139.1678417"><ele>891.46</ele><time>2023-11-25T02:11:28Z</time></trkpt><trkpt lat="35.9858866" lon="139.1680595"><ele>892.7633333333333</ele><time>2023-11-25T02:11:45Z</time></trkpt><trkpt lat="35.9858528" lon="139.1682799"><ele>892.8966666666666</ele><time>2023-11-25T02:12:03Z</time></trkpt><trkpt lat="35.98583" lon="139.1685112"><ele>892.7600000000001</ele><time>2023-11-25T02:12:22Z</time></trkpt><trkpt lat="35.9857402" lon="139.1687057"><ele>892.0766666666667</ele><time>2023-11-25T02:12:35Z</time></trkpt><trkpt lat="35.9855578" lon="139.1687009"><ele>890.1999999999999</ele><time>2023-11-25T02:12:56Z</time></trkpt><trkpt lat="35.9854019" lon="139.1688171"><ele>887.6999999999999</ele><time>2023-11-25T02:13:11Z</time></trkpt><trkpt lat="35.985268" lon="139.1689699"><ele>886.2533333333334</ele><time>2023-11-25T02:13:23Z</time></trkpt><trkpt lat="35.9852773" lon="139.1691974"><ele>887.0633333333334</ele><time>2023-11-25T02:13:44Z</time></trkpt><trkpt lat="35.9851837" lon="139.1693904"><ele>888.82</ele><time>2023-11-25T02:14:18Z</time></trkpt><trkpt lat="35.9850711" lon="139.1695712"><ele>890.5966666666667</ele><time>2023-11-25T02:14:37Z</time></trkpt><trkpt lat="35.9849221" lon="139.1697132"><ele>891.5166666666668</ele><time>2023-11-25T02:14:56Z</time></trkpt><trkpt lat="35.9849425" lon="139.1699563"><ele>891.84</ele><time>2023-11-25T02:15:10Z</time></trkpt><trkpt lat="35.9850614" lon="139.1701343"><ele>890.5366666666665</ele><time>2023-11-25T02:16:17Z</time></trkpt><trkpt lat="35.9848713" lon="139.1700521"><ele>890.0099999999999</ele><time>2023-11-25T02:16:54Z</time></trkpt><trkpt lat="35.9850579" lon="139.1701069"><ele>889.07</ele><time>2023-11-25T02:19:48Z</time></trkpt><trkpt lat="35.9852368" lon="139.1700662"><ele>886.5333333333333</ele><time>2023-11-25T02:26:36Z</time></trkpt><trkpt lat="35.9850476" lon="139.1701255"><ele>885.9333333333334</ele><time>2023-11-25T02:26:54Z</time></trkpt><trkpt lat="35.9848673" lon="139.1701314"><ele>886.11</ele><time>2023-11-25T02:27:22Z</time></trkpt><trkpt lat="35.9847085" lon="139.1702414"><ele>886.73</ele><time>2023-11-25T02:28:07Z</time></trkpt><trkpt lat="35.9845535" lon="139.1703708"><ele>881.6166666666667</ele><time>2023-11-25T02:29:00Z</time></trkpt><trkpt lat="35.984375" lon="139.1704181"><ele>873.71</ele><time>2023-11-25T02:29:23Z</time></trkpt><trkpt lat="35.9842392" lon="139.1705756"><ele>866.3966666666665</ele><time>2023-11-25T02:29:51Z</time></trkpt><trkpt lat="35.9840582" lon="139.1706569"><ele>861.4699999999999</ele><time>2023-11-25T02:30:11Z</time></trkpt><trkpt lat="35.9839052" lon="139.1707926"><ele>858.2533333333334</ele><time>2023-11-25T02:30:29Z</time></trkpt><trkpt lat="35.9839769" lon="139.1709994"><ele>854.93</ele><time>2023-11-25T02:30:40Z</time></trkpt><trkpt lat="35.9841352" lon="139.1711157"><ele>851.75</ele><time>2023-11-25T02:30:53Z</time></trkpt><trkpt lat="35.984253" lon="139.1712844"><ele>849.5300000000001</ele><time>2023-11-25T02:31:13Z</time></trkpt><trkpt lat="35.9843188" lon="139.171502"><ele>847.96</ele><time>2023-11-25T02:31:46Z</time></trkpt><trkpt lat="35.9844507" lon="139.1716641"><ele>846.3866666666668</ele><time>2023-11-25T02:32:31Z</time></trkpt><trkpt lat="35.9845979" lon="139.1718134"><ele>843.8966666666666</ele><time>2023-11-25T02:32:46Z</time></trkpt><trkpt lat="35.9847474" lon="139.1719548"><ele>841.7666666666668</ele><time>2023-11-25T02:32:59Z</time></trkpt><trkpt lat="35.9849164" lon="139.171874"><ele>840.0866666666667</ele><time>2023-11-25T02:33:10Z</time></trkpt><trkpt lat="35.9850993" lon="139.1719434"><ele>837.0766666666668</ele><time>2023-11-25T02:33:24Z</time></trkpt><trkpt lat="35.985187" lon="139.1721438"><ele>833.2766666666666</ele><time>2023-11-25T02:33:41Z</time></trkpt><trkpt lat="35.9849969" lon="139.1722605"><ele>830.08</ele><time>2023-11-25T02:33:48Z</time></trkpt><trkpt lat="35.9848064" lon="139.17224"><ele>829.6566666666668</ele><time>2023-11-25T02:34:02Z</time></trkpt><trkpt lat="35.9846253" lon="139.1722773"><ele>830.8233333333334</ele><time>2023-11-25T02:34:14Z</time></trkpt><trkpt lat="35.9846426" lon="139.1725066"><ele>829.1733333333335</ele><time>2023-11-25T02:34:28Z</time></trkpt><trkpt lat="35.9848228" lon="139.1724647"><ele>827.3466666666667</ele><time>2023-11-25T02:34:39Z</time></trkpt><trkpt lat="35.9849927" lon="139.1723877"><ele>825.64</ele><time>2023-11-25T02:34:51Z</time></trkpt><trkpt lat="35.9851623" lon="139.172305"><ele>825.5566666666667</ele><time>2023-11-25T02:35:04Z</time></trkpt><trkpt lat="35.9852597" lon="139.172114"><ele>825.1999999999999</ele><time>2023-11-25T02:35:19Z</time></trkpt><trkpt lat="35.9853489" lon="139.1719146"><ele>824.4033333333333</ele><time>2023-11-25T02:35:32Z</time></trkpt><trkpt lat="35.9854885" lon="139.1717612"><ele>822.02</ele><time>2023-11-25T02:35:44Z</time></trkpt><trkpt lat="35.9856" lon="139.1715756"><ele>818.5733333333334</ele><time>2023-11-25T02:36:01Z</time></trkpt><trkpt lat="35.9857023" lon="139.1713851"><ele>815.9200000000001</ele><time>2023-11-25T02:36:12Z</time></trkpt><trkpt lat="35.9858849" lon="139.1713882"><ele>815.7400000000001</ele><time>2023-11-25T02:36:29Z</time></trkpt><trkpt lat="35.985993" lon="139.1715753"><ele>815.5100000000001</ele><time>2023-11-25T02:36:42Z</time></trkpt><trkpt lat="35.9861397" lon="139.1717117"><ele>814.79</ele><time>2023-11-25T02:36:50Z</time></trkpt><trkpt lat="35.9863156" lon="139.1717836"><ele>813.2033333333334</ele><time>2023-11-25T02:37:02Z</time></trkpt><trkpt lat="35.9865038" lon="139.1718201"><ele>810.7966666666667</ele><time>2023-11-25T02:37:14Z</time></trkpt><trkpt lat="35.9866877" lon="139.1717826"><ele>808.14</ele><time>2023-11-25T02:37:28Z</time></trkpt><trkpt lat="35.9868633" lon="139.1718346"><ele>805.64</ele><time>2023-11-25T02:37:42Z</time></trkpt><trkpt lat="35.987041" lon="139.1718904"><ele>804.3000000000001</ele><time>2023-11-25T02:37:59Z</time></trkpt><trkpt lat="35.9872266" lon="139.1719339"><ele>803.3233333333334</ele><time>2023-11-25T02:38:11Z</time></trkpt><trkpt lat="35.9874118" lon="139.1719269"><ele>803.8566666666666</ele><time>2023-11-25T02:38:23Z</time></trkpt><trkpt lat="35.9875894" lon="139.1719854"><ele>804.8966666666666</ele><time>2023-11-25T02:38:36Z</time></trkpt><trkpt lat="35.9877329" lon="139.172134"><ele>805.2666666666665</ele><time>2023-11-25T02:39:04Z</time></trkpt><trkpt lat="35.9879124" lon="139.172167"><ele>804.0300000000001</ele><time>2023-11-25T02:39:15Z</time></trkpt><trkpt lat="35.9880828" lon="139.1722617"><ele>801.7333333333335</ele><time>2023-11-25T02:39:32Z</time></trkpt><trkpt lat="35.988084" lon="139.1724992"><ele>798.5166666666668</ele><time>2023-11-25T02:39:53Z</time></trkpt><trkpt lat="35.9883434" lon="139.1725888"><ele>794.6566666666666</ele><time>2023-11-25T02:40:03Z</time></trkpt><trkpt lat="35.9881745" lon="139.1726814"><ele>792.5533333333334</ele><time>2023-11-25T02:40:17Z</time></trkpt><trkpt lat="35.9880064" lon="139.1726001"><ele>791.3166666666666</ele><time>2023-11-25T02:40:33Z</time></trkpt><trkpt lat="35.9878308" lon="139.1724952"><ele>791.7533333333334</ele><time>2023-11-25T02:40:43Z</time></trkpt><trkpt lat="35.9876379" lon="139.1724733"><ele>791.7566666666667</ele><time>2023-11-25T02:40:54Z</time></trkpt><trkpt lat="35.9874494" lon="139.1724727"><ele>791.9200000000001</ele><time>2023-11-25T02:41:08Z</time></trkpt><trkpt lat="35.9872577" lon="139.1725039"><ele>790.8366666666667</ele><time>2023-11-25T02:41:24Z</time></trkpt><trkpt lat="35.9870812" lon="139.1725556"><ele>788.5766666666667</ele><time>2023-11-25T02:41:38Z</time></trkpt><trkpt lat="35.9869036" lon="139.1726427"><ele>786.6966666666667</ele><time>2023-11-25T02:41:50Z</time></trkpt><trkpt lat="35.9867268" lon="139.1727261"><ele>785.09</ele><time>2023-11-25T02:42:02Z</time></trkpt><trkpt lat="35.9867387" lon="139.1729561"><ele>783.6666666666666</ele><time>2023-11-25T02:42:26Z</time></trkpt><trkpt lat="35.9869176" lon="139.1729276"><ele>782.2766666666666</ele><time>2023-11-25T02:42:38Z</time></trkpt><trkpt lat="35.9870832" lon="139.1728314"><ele>781.7133333333335</ele><time>2023-11-25T02:42:53Z</time></trkpt><trkpt lat="35.9872648" lon="139.1728411"><ele>780.5933333333334</ele><time>2023-11-25T02:43:05Z</time></trkpt><trkpt lat="35.9874557" lon="139.1728437"><ele>778.6866666666668</ele><time>2023-11-25T02:43:18Z</time></trkpt><trkpt lat="35.987636" lon="139.1728679"><ele>776.4333333333333</ele><time>2023-11-25T02:43:37Z</time></trkpt><trkpt lat="35.98779" lon="139.1729996"><ele>775.0333333333334</ele><time>2023-11-25T02:43:52Z</time></trkpt><trkpt lat="35.9879394" lon="139.1731467"><ele>773.9666666666667</ele><time>2023-11-25T02:44:06Z</time></trkpt><trkpt lat="35.9880668" lon="139.1733037"><ele>772.1866666666666</ele><time>2023-11-25T02:44:17Z</time></trkpt><trkpt lat="35.9882222" lon="139.1734365"><ele>771.2733333333334</ele><time>2023-11-25T02:44:28Z</time></trkpt><trkpt lat="35.9883833" lon="139.1735383"><ele>770.8800000000001</ele><time>2023-11-25T02:44:41Z</time></trkpt><trkpt lat="35.9885667" lon="139.1735822"><ele>771.64</ele><time>2023-11-25T02:45:04Z</time></trkpt><trkpt lat="35.9887473" lon="139.1735422"><ele>771.0300000000001</ele><time>2023-11-25T02:45:17Z</time></trkpt><trkpt lat="35.9888086" lon="139.1733149"><ele>768.5733333333334</ele><time>2023-11-25T02:45:36Z</time></trkpt><trkpt lat="35.9888481" lon="139.1730939"><ele>765.0933333333332</ele><time>2023-11-25T02:45:42Z</time></trkpt><trkpt lat="35.98889" lon="139.17287"><ele>762.8766666666667</ele><time>2023-11-25T02:45:52Z</time></trkpt><trkpt lat="35.9888462" lon="139.1726308"><ele>762.7399999999999</ele><time>2023-11-25T02:46:11Z</time></trkpt><trkpt lat="35.9889044" lon="139.1724138"><ele>764.5300000000001</ele><time>2023-11-25T02:46:21Z</time></trkpt><trkpt lat="35.9890891" lon="139.1724131"><ele>764.44</ele><time>2023-11-25T02:46:31Z</time></trkpt><trkpt lat="35.9891625" lon="139.1726439"><ele>762.0099999999999</ele><time>2023-11-25T02:46:46Z</time></trkpt><trkpt lat="35.9891478" lon="139.1728698"><ele>757.2599999999999</ele><time>2023-11-25T02:47:00Z</time></trkpt><trkpt lat="35.9891103" lon="139.1731038"><ele>754.5533333333333</ele><time>2023-11-25T02:47:15Z</time></trkpt><trkpt lat="35.9890163" lon="139.1733079"><ele>754.0866666666666</ele><time>2023-11-25T02:47:29Z</time></trkpt><trkpt lat="35.9890232" lon="139.1735332"><ele>754.0066666666667</ele><time>2023-11-25T02:47:42Z</time></trkpt><trkpt lat="35.9890471" lon="139.1738244"><ele>752.5966666666667</ele><time>2023-11-25T02:47:50Z</time></trkpt><trkpt lat="35.9890098" lon="139.1740488"><ele>749.58</ele><time>2023-11-25T02:47:58Z</time></trkpt><trkpt lat="35.9889892" lon="139.1742795"><ele>747.3866666666667</ele><time>2023-11-25T02:48:20Z</time></trkpt><trkpt lat="35.9890168" lon="139.1745009"><ele>746.6133333333333</ele><time>2023-11-25T02:48:32Z</time></trkpt><trkpt lat="35.989071" lon="139.1747155"><ele>747.4466666666667</ele><time>2023-11-25T02:48:46Z</time></trkpt><trkpt lat="35.9891351" lon="139.1749281"><ele>748.7833333333334</ele><time>2023-11-25T02:49:06Z</time></trkpt><trkpt lat="35.9893159" lon="139.1749598"><ele>751.0233333333332</ele><time>2023-11-25T02:49:28Z</time></trkpt><trkpt lat="35.9894417" lon="139.1751271"><ele>753.15</ele><time>2023-11-25T02:49:39Z</time></trkpt><trkpt lat="35.9895963" lon="139.1752522"><ele>754.7733333333334</ele><time>2023-11-25T02:49:52Z</time></trkpt><trkpt lat="35.9897762" lon="139.1752771"><ele>757.4133333333333</ele><time>2023-11-25T02:50:07Z</time></trkpt><trkpt lat="35.9899477" lon="139.1753799"><ele>760.6133333333333</ele><time>2023-11-25T02:50:18Z</time></trkpt><trkpt lat="35.9900819" lon="139.1755396"><ele>763.27</ele><time>2023-11-25T02:50:36Z</time></trkpt><trkpt lat="35.9902509" lon="139.1756321"><ele>764.5333333333334</ele><time>2023-11-25T02:50:53Z</time></trkpt><trkpt lat="35.9904037" lon="139.1757586"><ele>765.25</ele><time>2023-11-25T02:51:06Z</time></trkpt><trkpt lat="35.9905476" lon="139.1759163"><ele>766.7666666666668</ele><time>2023-11-25T02:51:19Z</time></trkpt><trkpt lat="35.9906753" lon="139.176079"><ele>766.7933333333334</ele><time>2023-11-25T02:51:35Z</time></trkpt><trkpt lat="35.9908276" lon="139.1762144"><ele>766.6866666666666</ele><time>2023-11-25T02:51:55Z</time></trkpt><trkpt lat="35.9909315" lon="139.1763999"><ele>767.6733333333333</ele><time>2023-11-25T02:52:16Z</time></trkpt><trkpt lat="35.9909226" lon="139.1766246"><ele>769.84</ele><time>2023-11-25T02:52:30Z</time></trkpt><trkpt lat="35.9909758" lon="139.17684"><ele>772.5966666666667</ele><time>2023-11-25T02:52:44Z</time></trkpt><trkpt lat="35.9910172" lon="139.1770643"><ele>774.9666666666668</ele><time>2023-11-25T02:52:57Z</time></trkpt><trkpt lat="35.9910002" lon="139.177294"><ele>775.4866666666667</ele><time>2023-11-25T02:53:07Z</time></trkpt><trkpt lat="35.9911146" lon="139.1774729"><ele>773.9433333333333</ele><time>2023-11-25T02:53:22Z</time></trkpt><trkpt lat="35.9912819" lon="139.1773685"><ele>771.7866666666667</ele><time>2023-11-25T02:53:36Z</time></trkpt><trkpt lat="35.9913759" lon="139.1771767"><ele>771.6166666666667</ele><time>2023-11-25T02:53:54Z</time></trkpt><trkpt lat="35.991532" lon="139.1770591"><ele>772.5566666666667</ele><time>2023-11-25T02:54:01Z</time></trkpt><trkpt lat="35.991708" lon="139.1771075"><ele>772.3266666666667</ele><time>2023-11-25T02:54:18Z</time></trkpt><trkpt lat="35.9918704" lon="139.1769875"><ele>771.58</ele><time>2023-11-25T02:54:32Z</time></trkpt><trkpt lat="35.9920351" lon="139.1768925"><ele>771.4733333333334</ele><time>2023-11-25T02:54:50Z</time></trkpt><trkpt lat="35.9922228" lon="139.1768465"><ele>774.4533333333334</ele><time>2023-11-25T02:55:04Z</time></trkpt><trkpt lat="35.9924033" lon="139.1768068"><ele>777.3533333333334</ele><time>2023-11-25T02:55:20Z</time></trkpt><trkpt lat="35.9925871" lon="139.1767873"><ele>780.2933333333334</ele><time>2023-11-25T02:55:34Z</time></trkpt><trkpt lat="35.9927673" lon="139.176822"><ele>782.0233333333334</ele><time>2023-11-25T02:55:48Z</time></trkpt><trkpt lat="35.9929481" lon="139.1768826"><ele>785.19</ele><time>2023-11-25T02:56:01Z</time></trkpt><trkpt lat="35.9931321" lon="139.1769009"><ele>788.3033333333333</ele><time>2023-11-25T02:56:15Z</time></trkpt><trkpt lat="35.9932763" lon="139.1767582"><ele>791.6666666666666</ele><time>2023-11-25T02:56:30Z</time></trkpt><trkpt lat="35.9933759" lon="139.1765716"><ele>794.0366666666667</ele><time>2023-11-25T02:56:43Z</time></trkpt><trkpt lat="35.9935484" lon="139.1765045"><ele>796.2966666666667</ele><time>2023-11-25T02:56:56Z</time></trkpt><trkpt lat="35.9937334" lon="139.1765183"><ele>797.2233333333334</ele><time>2023-11-25T02:57:09Z</time></trkpt><trkpt lat="35.9938882" lon="139.1766416"><ele>796.8333333333334</ele><time>2023-11-25T02:57:23Z</time></trkpt><trkpt lat="35.9940205" lon="139.1767965"><ele>795.5466666666666</ele><time>2023-11-25T02:57:36Z</time></trkpt><trkpt lat="35.9942005" lon="139.1768513"><ele>794.7399999999999</ele><time>2023-11-25T02:57:49Z</time></trkpt><trkpt lat="35.9943789" lon="139.1768135"><ele>794.5066666666667</ele><time>2023-11-25T02:58:04Z</time></trkpt><trkpt lat="35.994566" lon="139.1768046"><ele>794.8000000000001</ele><time>2023-11-25T02:58:19Z</time></trkpt><trkpt lat="35.9947449" lon="139.1767529"><ele>794.6433333333334</ele><time>2023-11-25T02:58:33Z</time></trkpt><trkpt lat="35.9949229" lon="139.176674"><ele>795.9733333333334</ele><time>2023-11-25T02:58:48Z</time></trkpt><trkpt lat="35.995044" lon="139.1765079"><ele>798.8966666666666</ele><time>2023-11-25T02:58:57Z</time></trkpt><trkpt lat="35.9952171" lon="139.176394"><ele>802.39</ele><time>2023-11-25T02:59:12Z</time></trkpt><trkpt lat="35.9953966" lon="139.1763487"><ele>805.6433333333334</ele><time>2023-11-25T02:59:33Z</time></trkpt><trkpt lat="35.9954137" lon="139.1765704"><ele>807.3633333333333</ele><time>2023-11-25T02:59:47Z</time></trkpt><trkpt lat="35.9953812" lon="139.1768231"><ele>807.9333333333334</ele><time>2023-11-25T02:59:57Z</time></trkpt><trkpt lat="35.9953286" lon="139.1770394"><ele>809.2599999999999</ele><time>2023-11-25T03:00:04Z</time></trkpt><trkpt lat="35.9952007" lon="139.1771957"><ele>806.7333333333332</ele><time>2023-11-25T03:00:18Z</time></trkpt><trkpt lat="35.9951319" lon="139.1774051"><ele>804.0566666666667</ele><time>2023-11-25T03:00:31Z</time></trkpt><trkpt lat="35.9951146" lon="139.1776303"><ele>801.4566666666666</ele><time>2023-11-25T03:00:44Z</time></trkpt><trkpt lat="35.9950748" lon="139.1778621"><ele>800.5433333333334</ele><time>2023-11-25T03:00:57Z</time></trkpt><trkpt lat="35.9950903" lon="139.1780864"><ele>797.8000000000001</ele><time>2023-11-25T03:01:10Z</time></trkpt><trkpt lat="35.9952757" lon="139.178065"><ele>794.8533333333334</ele><time>2023-11-25T03:01:24Z</time></trkpt><trkpt lat="35.9954621" lon="139.1780532"><ele>793.6366666666667</ele><time>2023-11-25T03:01:35Z</time></trkpt><trkpt lat="35.9956422" lon="139.1780285"><ele>794.6066666666666</ele><time>2023-11-25T03:01:45Z</time></trkpt><trkpt lat="35.9958237" lon="139.1780047"><ele>794.0666666666666</ele><time>2023-11-25T03:01:57Z</time></trkpt><trkpt lat="35.9960157" lon="139.1780385"><ele>794.2533333333334</ele><time>2023-11-25T03:02:12Z</time></trkpt><trkpt lat="35.9961867" lon="139.1781153"><ele>793.9266666666666</ele><time>2023-11-25T03:02:24Z</time></trkpt><trkpt lat="35.9963705" lon="139.1780907"><ele>792.2633333333333</ele><time>2023-11-25T03:02:39Z</time></trkpt><trkpt lat="35.9965411" lon="139.1780123"><ele>790.6066666666667</ele><time>2023-11-25T03:02:59Z</time></trkpt><trkpt lat="35.9967278" lon="139.1780156"><ele>788.93</ele><time>2023-11-25T03:03:15Z</time></trkpt><trkpt lat="35.9968101" lon="139.178219"><ele>788.2166666666667</ele><time>2023-11-25T03:03:30Z</time></trkpt><trkpt lat="35.996872" lon="139.1784358"><ele>788.07</ele><time>2023-11-25T03:03:38Z</time></trkpt><trkpt lat="35.9968532" lon="139.1786658"><ele>788.4433333333333</ele><time>2023-11-25T03:03:53Z</time></trkpt><trkpt lat="35.9968242" lon="139.1788892"><ele>786.5300000000001</ele><time>2023-11-25T03:04:06Z</time></trkpt><trkpt lat="35.9967339" lon="139.1790945"><ele>782.1666666666666</ele><time>2023-11-25T03:04:22Z</time></trkpt><trkpt lat="35.9967424" lon="139.1793182"><ele>777.3233333333334</ele><time>2023-11-25T03:04:33Z</time></trkpt><trkpt lat="35.9969192" lon="139.179414"><ele>773.6966666666667</ele><time>2023-11-25T03:04:45Z</time></trkpt><trkpt lat="35.9971103" lon="139.179381"><ele>771.5233333333334</ele><time>2023-11-25T03:04:56Z</time></trkpt><trkpt lat="35.9972921" lon="139.1794031"><ele>770.4233333333333</ele><time>2023-11-25T03:05:10Z</time></trkpt><trkpt lat="35.9974817" lon="139.1794276"><ele>769.1066666666667</ele><time>2023-11-25T03:05:22Z</time></trkpt><trkpt lat="35.997659" lon="139.1795019"><ele>767.3733333333334</ele><time>2023-11-25T03:05:41Z</time></trkpt><trkpt lat="35.9978379" lon="139.179557"><ele>764.6166666666668</ele><time>2023-11-25T03:05:55Z</time></trkpt><trkpt lat="35.9979025" lon="139.179776"><ele>762.5466666666667</ele><time>2023-11-25T03:06:17Z</time></trkpt><trkpt lat="35.9978739" lon="139.1800003"><ele>762.6566666666668</ele><time>2023-11-25T03:06:34Z</time></trkpt><trkpt lat="35.997688" lon="139.1800333"><ele>764.3766666666667</ele><time>2023-11-25T03:06:43Z</time></trkpt><trkpt lat="35.9975267" lon="139.1801509"><ele>767.8433333333332</ele><time>2023-11-25T03:06:59Z</time></trkpt><trkpt lat="35.9973886" lon="139.1803078"><ele>770.34</ele><time>2023-11-25T03:07:16Z</time></trkpt><trkpt lat="35.9973237" lon="139.1805187"><ele>772.64</ele><time>2023-11-25T03:07:29Z</time></trkpt><trkpt lat="35.9972809" lon="139.1807366"><ele>773.8933333333333</ele><time>2023-11-25T03:07:43Z</time></trkpt><trkpt lat="35.997369" lon="139.1809419"><ele>775.13</ele><time>2023-11-25T03:08:02Z</time></trkpt><trkpt lat="35.99743" lon="139.1811566"><ele>776.5500000000001</ele><time>2023-11-25T03:08:20Z</time></trkpt><trkpt lat="35.9974839" lon="139.1813704"><ele>780.1833333333334</ele><time>2023-11-25T03:08:33Z</time></trkpt><trkpt lat="35.9974912" lon="139.1815949"><ele>784.1</ele><time>2023-11-25T03:08:45Z</time></trkpt><trkpt lat="35.9975315" lon="139.1818116"><ele>787.68</ele><time>2023-11-25T03:09:15Z</time></trkpt><trkpt lat="35.997627" lon="139.1820045"><ele>789.1899999999999</ele><time>2023-11-25T03:09:29Z</time></trkpt><trkpt lat="35.9976553" lon="139.1822328"><ele>789.13</ele><time>2023-11-25T03:09:41Z</time></trkpt><trkpt lat="35.9976261" lon="139.1824536"><ele>788.5799999999999</ele><time>2023-11-25T03:09:54Z</time></trkpt><trkpt lat="35.997615" lon="139.1826792"><ele>787.8733333333333</ele><time>2023-11-25T03:10:09Z</time></trkpt><trkpt lat="35.9976584" lon="139.1828952"><ele>788.5333333333333</ele><time>2023-11-25T03:10:22Z</time></trkpt><trkpt lat="35.9977547" lon="139.1830876"><ele>791.0033333333334</ele><time>2023-11-25T03:11:02Z</time></trkpt><trkpt lat="35.9977931" lon="139.1833108"><ele>793.19</ele><time>2023-11-25T03:11:18Z</time></trkpt><trkpt lat="35.9978566" lon="139.1835348"><ele>796.02</ele><time>2023-11-25T03:11:29Z</time></trkpt><trkpt lat="35.9978773" lon="139.1837604"><ele>798.5366666666667</ele><time>2023-11-25T03:11:37Z</time></trkpt><trkpt lat="35.9978749" lon="139.183985"><ele>801.77</ele><time>2023-11-25T03:11:56Z</time></trkpt><trkpt lat="35.9977619" lon="139.1841706"><ele>803.1</ele><time>2023-11-25T03:12:11Z</time></trkpt><trkpt lat="35.9977145" lon="139.1843854"><ele>803.1166666666667</ele><time>2023-11-25T03:12:29Z</time></trkpt><trkpt lat="35.9977295" lon="139.1846111"><ele>804.9200000000001</ele><time>2023-11-25T03:12:49Z</time></trkpt><trkpt lat="35.9977443" lon="139.1848397"><ele>807.7933333333334</ele><time>2023-11-25T03:13:07Z</time></trkpt><trkpt lat="35.9977924" lon="139.1850645"><ele>810.0500000000001</ele><time>2023-11-25T03:13:22Z</time></trkpt><trkpt lat="35.997828" lon="139.1852901"><ele>810.7533333333334</ele><time>2023-11-25T03:13:40Z</time></trkpt><trkpt lat="35.997814" lon="139.1855141"><ele>811.8066666666667</ele><time>2023-11-25T03:13:54Z</time></trkpt><trkpt lat="35.9979219" lon="139.185697"><ele>814.1966666666667</ele><time>2023-11-25T03:14:09Z</time></trkpt><trkpt lat="35.9979036" lon="139.1859261"><ele>816.4566666666666</ele><time>2023-11-25T03:14:24Z</time></trkpt><trkpt lat="35.9978729" lon="139.1861579"><ele>818.61</ele><time>2023-11-25T03:14:38Z</time></trkpt><trkpt lat="35.9978024" lon="139.1863678"><ele>819.5433333333334</ele><time>2023-11-25T03:14:52Z</time></trkpt><trkpt lat="35.9978098" lon="139.1865953"><ele>819.3633333333333</ele><time>2023-11-25T03:15:09Z</time></trkpt><trkpt lat="35.9979269" lon="139.1867765"><ele>818.1633333333333</ele><time>2023-11-25T03:15:42Z</time></trkpt><trkpt lat="35.9979708" lon="139.1869924"><ele>817.6333333333333</ele><time>2023-11-25T03:15:56Z</time></trkpt><trkpt lat="35.9981276" lon="139.1871038"><ele>818.2666666666668</ele><time>2023-11-25T03:16:15Z</time></trkpt><trkpt lat="35.9982352" lon="139.1872898"><ele>820.4766666666668</ele><time>2023-11-25T03:16:30Z</time></trkpt><trkpt lat="35.9983033" lon="139.1875012"><ele>820.3733333333333</ele><time>2023-11-25T03:16:50Z</time></trkpt><trkpt lat="35.9984839" lon="139.1874681"><ele>817.9</ele><time>2023-11-25T03:17:14Z</time></trkpt><trkpt lat="35.9986107" lon="139.1873081"><ele>816.3400000000001</ele><time>2023-11-25T03:17:34Z</time></trkpt><trkpt lat="35.998768" lon="139.1871506"><ele>818.5600000000001</ele><time>2023-11-25T03:17:40Z</time></trkpt><trkpt lat="35.9989557" lon="139.187135"><ele>822.3933333333333</ele><time>2023-11-25T03:18:01Z</time></trkpt><trkpt lat="35.999138" lon="139.1870775"><ele>823.71</ele><time>2023-11-25T03:18:14Z</time></trkpt><trkpt lat="35.9993192" lon="139.1870328"><ele>822.0300000000001</ele><time>2023-11-25T03:18:30Z</time></trkpt><trkpt lat="35.9994025" lon="139.186835"><ele>820.2400000000001</ele><time>2023-11-25T03:18:45Z</time></trkpt><trkpt lat="35.9993808" lon="139.1866141"><ele>823.1733333333335</ele><time>2023-11-25T03:19:04Z</time></trkpt><trkpt lat="35.9994224" lon="139.1863965"><ele>826.4933333333333</ele><time>2023-11-25T03:19:17Z</time></trkpt><trkpt lat="35.9995674" lon="139.1862485"><ele>830.8000000000001</ele><time>2023-11-25T03:19:29Z</time></trkpt><trkpt lat="35.9997561" lon="139.1862292"><ele>830.9900000000001</ele><time>2023-11-25T03:19:42Z</time></trkpt><trkpt lat="35.999942" lon="139.1861691"><ele>832.48</ele><time>2023-11-25T03:19:54Z</time></trkpt><trkpt lat="36.0001261" lon="139.1862556"><ele>832.9433333333333</ele><time>2023-11-25T03:20:07Z</time></trkpt><trkpt lat="36.0002672" lon="139.1864034"><ele>832.9433333333333</ele><time>2023-11-25T03:20:22Z</time></trkpt><trkpt lat="36.000457" lon="139.1863955"><ele>832.16</ele><time>2023-11-25T03:20:39Z</time></trkpt><trkpt lat="36.000649" lon="139.1863735"><ele>832.69</ele><time>2023-11-25T03:20:48Z</time></trkpt><trkpt lat="36.0007956" lon="139.1865044"><ele>831.8433333333334</ele><time>2023-11-25T03:21:07Z</time></trkpt><trkpt lat="36.0009417" lon="139.1866481"><ele>831.9033333333333</ele><time>2023-11-25T03:21:18Z</time></trkpt><trkpt lat="36.0010698" lon="139.1868063"><ele>830.4133333333333</ele><time>2023-11-25T03:21:38Z</time></trkpt><trkpt lat="36.0012156" lon="139.1869479"><ele>829.8100000000001</ele><time>2023-11-25T03:21:48Z</time></trkpt><trkpt lat="36.0013455" lon="139.1871297"><ele>828.6999999999999</ele><time>2023-11-25T03:22:00Z</time></trkpt><trkpt lat="36.0014964" lon="139.1872584"><ele>829.25</ele><time>2023-11-25T03:22:10Z</time></trkpt><trkpt lat="36.0015878" lon="139.1874509"><ele>832.46</ele><time>2023-11-25T03:22:26Z</time></trkpt><trkpt lat="36.0016767" lon="139.1876581"><ele>836.3333333333334</ele><time>2023-11-25T03:22:39Z</time></trkpt><trkpt lat="36.0017136" lon="139.1878843"><ele>837.7133333333335</ele><time>2023-11-25T03:22:51Z</time></trkpt><trkpt lat="36.0018963" lon="139.1879386"><ele>836.5466666666667</ele><time>2023-11-25T03:23:15Z</time></trkpt><trkpt lat="36.0020944" lon="139.1879843"><ele>834.6833333333334</ele><time>2023-11-25T03:23:27Z</time></trkpt><trkpt lat="36.0022835" lon="139.1880113"><ele>834.5933333333334</ele><time>2023-11-25T03:23:43Z</time></trkpt><trkpt lat="36.0024664" lon="139.1880285"><ele>834.9699999999999</ele><time>2023-11-25T03:23:52Z</time></trkpt><trkpt lat="36.0026468" lon="139.1880988"><ele>835.3266666666667</ele><time>2023-11-25T03:24:08Z</time></trkpt><trkpt lat="36.0027825" lon="139.1882579"><ele>834.89</ele><time>2023-11-25T03:24:22Z</time></trkpt><trkpt lat="36.0027903" lon="139.1884909"><ele>835.9200000000001</ele><time>2023-11-25T03:24:36Z</time></trkpt><trkpt lat="36.0027972" lon="139.1887257"><ele>837.2166666666666</ele><time>2023-11-25T03:24:43Z</time></trkpt><trkpt lat="36.0029082" lon="139.188904"><ele>839.4933333333333</ele><time>2023-11-25T03:24:58Z</time></trkpt><trkpt lat="36.0030931" lon="139.1889211"><ele>840.82</ele><time>2023-11-25T03:25:12Z</time></trkpt><trkpt lat="36.0032737" lon="139.1889209"><ele>842.0566666666667</ele><time>2023-11-25T03:25:28Z</time></trkpt><trkpt lat="36.0034628" lon="139.1889444"><ele>843.2466666666666</ele><time>2023-11-25T03:25:40Z</time></trkpt><trkpt lat="36.0036432" lon="139.1889483"><ele>844.3633333333333</ele><time>2023-11-25T03:25:54Z</time></trkpt><trkpt lat="36.0038277" lon="139.1889536"><ele>845.2133333333333</ele><time>2023-11-25T03:26:08Z</time></trkpt><trkpt lat="36.0039985" lon="139.189034"><ele>846.2733333333332</ele><time>2023-11-25T03:26:22Z</time></trkpt><trkpt lat="36.0041796" lon="139.1890391"><ele>847.6533333333333</ele><time>2023-11-25T03:26:45Z</time></trkpt><trkpt lat="36.0043681" lon="139.189053"><ele>849.4533333333334</ele><time>2023-11-25T03:27:09Z</time></trkpt><trkpt lat="36.0044781" lon="139.1892316"><ele>850.6566666666668</ele><time>2023-11-25T03:27:23Z</time></trkpt><trkpt lat="36.0045998" lon="139.1894018"><ele>851.3000000000001</ele><time>2023-11-25T03:27:39Z</time></trkpt><trkpt lat="36.004761" lon="139.1895028"><ele>852.2533333333334</ele><time>2023-11-25T03:27:52Z</time></trkpt><trkpt lat="36.0048932" lon="139.18966"><ele>854.0466666666667</ele><time>2023-11-25T03:28:03Z</time></trkpt><trkpt lat="36.0050655" lon="139.1897262"><ele>856.7900000000001</ele><time>2023-11-25T03:28:17Z</time></trkpt><trkpt lat="36.0052392" lon="139.1898158"><ele>860.3033333333334</ele><time>2023-11-25T03:28:35Z</time></trkpt><trkpt lat="36.0053938" lon="139.1899341"><ele>864.4866666666667</ele><time>2023-11-25T03:29:07Z</time></trkpt><trkpt lat="36.0055749" lon="139.1900112"><ele>868.4166666666666</ele><time>2023-11-25T03:29:36Z</time></trkpt><trkpt lat="36.0057328" lon="139.1901309"><ele>871.5133333333333</ele><time>2023-11-25T03:29:54Z</time></trkpt><trkpt lat="36.0059139" lon="139.1901506"><ele>872.6033333333335</ele><time>2023-11-25T03:30:10Z</time></trkpt><trkpt lat="36.0060867" lon="139.1900658"><ele>872.1999999999999</ele><time>2023-11-25T03:30:21Z</time></trkpt><trkpt lat="36.0060391" lon="139.1902908"><ele>871.48</ele><time>2023-11-25T03:30:37Z</time></trkpt><trkpt lat="36.0059167" lon="139.190457"><ele>870.8800000000001</ele><time>2023-11-25T03:34:23Z</time></trkpt><trkpt lat="36.0060459" lon="139.1902934"><ele>871.21</ele><time>2023-11-25T03:41:46Z</time></trkpt><trkpt lat="36.0060561" lon="139.1900695"><ele>871.0433333333334</ele><time>2023-11-25T03:41:57Z</time></trkpt><trkpt lat="36.0062365" lon="139.1900544"><ele>870.3466666666667</ele><time>2023-11-25T03:42:11Z</time></trkpt><trkpt lat="36.0061517" lon="139.1902508"><ele>870.1166666666668</ele><time>2023-11-25T03:42:26Z</time></trkpt><trkpt lat="36.0059289" lon="139.1901349"><ele>870.4366666666668</ele><time>2023-11-25T03:42:47Z</time></trkpt><trkpt lat="36.005744" lon="139.1901323"><ele>872.1133333333333</ele><time>2023-11-25T03:43:42Z</time></trkpt><trkpt lat="36.0056896" lon="139.189904"><ele>872.0733333333333</ele><time>2023-11-25T03:44:05Z</time></trkpt><trkpt lat="36.0057627" lon="139.1901078"><ele>872.64</ele><time>2023-11-25T03:44:22Z</time></trkpt><trkpt lat="36.0059515" lon="139.1901011"><ele>872.0733333333334</ele><time>2023-11-25T03:44:55Z</time></trkpt><trkpt lat="36.0061325" lon="139.1901388"><ele>872.0666666666666</ele><time>2023-11-25T03:45:07Z</time></trkpt><trkpt lat="36.0063025" lon="139.1902145"><ele>870.69</ele><time>2023-11-25T03:45:26Z</time></trkpt><trkpt lat="36.0063339" lon="139.1904402"><ele>869.43</ele><time>2023-11-25T03:46:10Z</time></trkpt><trkpt lat="36.0062652" lon="139.1907338"><ele>867.8866666666667</ele><time>2023-11-25T03:46:20Z</time></trkpt><trkpt lat="36.0060865" lon="139.1908226"><ele>866.6066666666666</ele><time>2023-11-25T03:46:32Z</time></trkpt><trkpt lat="36.0059481" lon="139.1909715"><ele>864.1700000000001</ele><time>2023-11-25T03:46:45Z</time></trkpt><trkpt lat="36.0058923" lon="139.1911828"><ele>861.7166666666667</ele><time>2023-11-25T03:47:00Z</time></trkpt><trkpt lat="36.0058056" lon="139.1913833"><ele>858.6833333333334</ele><time>2023-11-25T03:47:16Z</time></trkpt><trkpt lat="36.0058839" lon="139.1915846"><ele>857.16</ele><time>2023-11-25T03:47:26Z</time></trkpt><trkpt lat="36.0059398" lon="139.1918359"><ele>855.5500000000001</ele><time>2023-11-25T03:48:00Z</time></trkpt><trkpt lat="36.0059414" lon="139.1920595"><ele>853.9233333333335</ele><time>2023-11-25T03:49:08Z</time></trkpt><trkpt lat="36.0058385" lon="139.1918738"><ele>853.39</ele><time>2023-11-25T03:49:37Z</time></trkpt><trkpt lat="36.0058603" lon="139.1916518"><ele>854.0266666666666</ele><time>2023-11-25T03:49:47Z</time></trkpt><trkpt lat="36.0058428" lon="139.1914175"><ele>855.6533333333333</ele><time>2023-11-25T03:51:20Z</time></trkpt><trkpt lat="36.0057479" lon="139.1912208"><ele>856.2666666666668</ele><time>2023-11-25T03:51:31Z</time></trkpt><trkpt lat="36.005782" lon="139.1909936"><ele>856.9633333333335</ele><time>2023-11-25T03:51:48Z</time></trkpt><trkpt lat="36.0056732" lon="139.1911795"><ele>856.7833333333333</ele><time>2023-11-25T03:55:32Z</time></trkpt><trkpt lat="36.0057981" lon="139.19135"><ele>856.9433333333333</ele><time>2023-11-25T03:55:45Z</time></trkpt><trkpt lat="36.0059222" lon="139.1915127"><ele>856.6066666666667</ele><time>2023-11-25T03:55:58Z</time></trkpt><trkpt lat="36.0059138" lon="139.1917437"><ele>856.3033333333334</ele><time>2023-11-25T03:56:26Z</time></trkpt><trkpt lat="36.0058386" lon="139.19195"><ele>855.2800000000001</ele><time>2023-11-25T03:56:52Z</time></trkpt><trkpt lat="36.0059417" lon="139.1921657"><ele>853.3933333333334</ele><time>2023-11-25T03:57:27Z</time></trkpt><trkpt lat="36.0046218" lon="139.1892037"><ele>847.38</ele><time>2023-11-25T22:05:21Z</time></trkpt><trkpt lat="36.0044385" lon="139.1891568"><ele>849.235</ele><time>2023-11-25T22:05:37Z</time></trkpt><trkpt lat="36.0042752" lon="139.1890475"><ele>849.6733333333333</ele><time>2023-11-25T22:05:47Z</time></trkpt><trkpt lat="36.004112" lon="139.1891443"><ele>849.2199999999999</ele><time>2023-11-25T22:06:03Z</time></trkpt><trkpt lat="36.0039015" lon="139.1890638"><ele>847.0600000000001</ele><time>2023-11-25T22:06:19Z</time></trkpt><trkpt lat="36.0037133" lon="139.1890263"><ele>845.25</ele><time>2023-11-25T22:06:34Z</time></trkpt><trkpt lat="36.0034906" lon="139.1890394"><ele>844.3299999999999</ele><time>2023-11-25T22:06:49Z</time></trkpt><trkpt lat="36.0032848" lon="139.1890599"><ele>843.2866666666667</ele><time>2023-11-25T22:07:04Z</time></trkpt><trkpt lat="36.0031017" lon="139.1889251"><ele>842.3299999999999</ele><time>2023-11-25T22:07:19Z</time></trkpt><trkpt lat="36.002934" lon="139.1888229"><ele>841.5933333333334</ele><time>2023-11-25T22:07:30Z</time></trkpt><trkpt lat="36.0027688" lon="139.1887305"><ele>840.86</ele><time>2023-11-25T22:07:44Z</time></trkpt><trkpt lat="36.0026988" lon="139.1885224"><ele>839.0466666666666</ele><time>2023-11-25T22:07:55Z</time></trkpt><trkpt lat="36.0027283" lon="139.1882984"><ele>837.1633333333334</ele><time>2023-11-25T22:08:07Z</time></trkpt><trkpt lat="36.002619" lon="139.1881172"><ele>835.4066666666668</ele><time>2023-11-25T22:08:24Z</time></trkpt><trkpt lat="36.0024377" lon="139.1881108"><ele>834.1333333333332</ele><time>2023-11-25T22:08:36Z</time></trkpt><trkpt lat="36.0022511" lon="139.188077"><ele>833.5266666666666</ele><time>2023-11-25T22:08:51Z</time></trkpt><trkpt lat="36.0020656" lon="139.1880732"><ele>832.9566666666668</ele><time>2023-11-25T22:09:04Z</time></trkpt><trkpt lat="36.0018852" lon="139.1880925"><ele>832.5166666666668</ele><time>2023-11-25T22:09:15Z</time></trkpt><trkpt lat="36.0016995" lon="139.1880749"><ele>831.6800000000002</ele><time>2023-11-25T22:09:28Z</time></trkpt><trkpt lat="36.0015774" lon="139.187907"><ele>832.07</ele><time>2023-11-25T22:09:41Z</time></trkpt><trkpt lat="36.0015499" lon="139.1876848"><ele>833.6899999999999</ele><time>2023-11-25T22:09:52Z</time></trkpt><trkpt lat="36.0015232" lon="139.1874459"><ele>833.2400000000001</ele><time>2023-11-25T22:10:06Z</time></trkpt><trkpt lat="36.0014727" lon="139.1872292"><ele>832.8033333333333</ele><time>2023-11-25T22:10:21Z</time></trkpt><trkpt lat="36.0013024" lon="139.1871209"><ele>829.2566666666667</ele><time>2023-11-25T22:10:35Z</time></trkpt><trkpt lat="36.0011301" lon="139.1870216"><ele>826.5466666666666</ele><time>2023-11-25T22:10:49Z</time></trkpt><trkpt lat="36.0009836" lon="139.1868665"><ele>823.63</ele><time>2023-11-25T22:10:59Z</time></trkpt><trkpt lat="36.0008189" lon="139.1867371"><ele>822.9366666666666</ele><time>2023-11-25T22:11:13Z</time></trkpt><trkpt lat="36.0007232" lon="139.1865491"><ele>825.9566666666666</ele><time>2023-11-25T22:11:23Z</time></trkpt><trkpt lat="36.0005547" lon="139.1864675"><ele>828.7666666666668</ele><time>2023-11-25T22:11:37Z</time></trkpt><trkpt lat="36.0003747" lon="139.1864486"><ele>831.3433333333332</ele><time>2023-11-25T22:11:49Z</time></trkpt><trkpt lat="36.0001966" lon="139.1864025"><ele>831.9333333333334</ele><time>2023-11-25T22:12:06Z</time></trkpt><trkpt lat="36.0000281" lon="139.1862977"><ele>832.2633333333333</ele><time>2023-11-25T22:12:17Z</time></trkpt><trkpt lat="35.9999059" lon="139.1861295"><ele>833.1133333333333</ele><time>2023-11-25T22:12:33Z</time></trkpt><trkpt lat="35.9997165" lon="139.1860839"><ele>834.8833333333333</ele><time>2023-11-25T22:12:58Z</time></trkpt><trkpt lat="35.9995706" lon="139.1859481"><ele>838.4333333333334</ele><time>2023-11-25T22:13:29Z</time></trkpt><trkpt lat="35.9993927" lon="139.1859862"><ele>842.93</ele><time>2023-11-25T22:14:13Z</time></trkpt><trkpt lat="35.9992125" lon="139.1860047"><ele>849.2466666666666</ele><time>2023-11-25T22:15:22Z</time></trkpt><trkpt lat="35.9990576" lon="139.185862"><ele>857.0866666666667</ele><time>2023-11-25T22:15:52Z</time></trkpt><trkpt lat="35.9990913" lon="139.1856364"><ele>861.8733333333333</ele><time>2023-11-25T22:16:32Z</time></trkpt><trkpt lat="35.9990733" lon="139.1854108"><ele>861.96</ele><time>2023-11-25T22:16:43Z</time></trkpt><trkpt lat="35.9989802" lon="139.1852177"><ele>859.4200000000001</ele><time>2023-11-25T22:16:57Z</time></trkpt><trkpt lat="35.9988612" lon="139.1850411"><ele>858.2633333333333</ele><time>2023-11-25T22:17:11Z</time></trkpt><trkpt lat="35.9987617" lon="139.1848492"><ele>856.3966666666666</ele><time>2023-11-25T22:17:43Z</time></trkpt><trkpt lat="35.9987286" lon="139.1846229"><ele>852.2833333333333</ele><time>2023-11-25T22:18:08Z</time></trkpt><trkpt lat="35.9986413" lon="139.1844234"><ele>847.0766666666667</ele><time>2023-11-25T22:18:23Z</time></trkpt><trkpt lat="35.9985753" lon="139.1842143"><ele>842.8466666666667</ele><time>2023-11-25T22:18:34Z</time></trkpt><trkpt lat="35.9985152" lon="139.1840049"><ele>838.8066666666667</ele><time>2023-11-25T22:18:47Z</time></trkpt><trkpt lat="35.9986081" lon="139.183802"><ele>835.2400000000001</ele><time>2023-11-25T22:19:17Z</time></trkpt><trkpt lat="35.9986402" lon="139.1835769"><ele>831.9000000000001</ele><time>2023-11-25T22:19:36Z</time></trkpt><trkpt lat="35.9985557" lon="139.183377"><ele>828.9200000000001</ele><time>2023-11-25T22:19:48Z</time></trkpt><trkpt lat="35.9984524" lon="139.183191"><ele>825.8666666666668</ele><time>2023-11-25T22:20:02Z</time></trkpt><trkpt lat="35.9983259" lon="139.1830246"><ele>822.6433333333334</ele><time>2023-11-25T22:20:18Z</time></trkpt><trkpt lat="35.9982128" lon="139.1828496"><ele>818.9966666666666</ele><time>2023-11-25T22:20:30Z</time></trkpt><trkpt lat="35.9981226" lon="139.1826563"><ele>815.7733333333334</ele><time>2023-11-25T22:20:45Z</time></trkpt><trkpt lat="35.9980202" lon="139.1824185"><ele>813.2466666666668</ele><time>2023-11-25T22:21:00Z</time></trkpt><trkpt lat="35.9980303" lon="139.1821928"><ele>811.3100000000001</ele><time>2023-11-25T22:21:12Z</time></trkpt><trkpt lat="35.9980363" lon="139.1819254"><ele>807.3866666666668</ele><time>2023-11-25T22:21:30Z</time></trkpt><trkpt lat="35.9979108" lon="139.1817575"><ele>804.7533333333334</ele><time>2023-11-25T22:21:40Z</time></trkpt><trkpt lat="35.9977598" lon="139.1816253"><ele>802.3066666666667</ele><time>2023-11-25T22:21:50Z</time></trkpt><trkpt lat="35.9976672" lon="139.1814273"><ele>801.64</ele><time>2023-11-25T22:22:10Z</time></trkpt><trkpt lat="35.9976785" lon="139.1812041"><ele>797.2833333333333</ele><time>2023-11-25T22:22:22Z</time></trkpt><trkpt lat="35.9976734" lon="139.1809799"><ele>792.1133333333333</ele><time>2023-11-25T22:22:53Z</time></trkpt><trkpt lat="35.9977485" lon="139.1807687"><ele>787.1266666666667</ele><time>2023-11-25T22:23:06Z</time></trkpt><trkpt lat="35.997758" lon="139.1805429"><ele>784.1566666666668</ele><time>2023-11-25T22:23:28Z</time></trkpt><trkpt lat="35.9977125" lon="139.1803245"><ele>781.4533333333334</ele><time>2023-11-25T22:23:43Z</time></trkpt><trkpt lat="35.9977746" lon="139.180107"><ele>776.3266666666667</ele><time>2023-11-25T22:23:57Z</time></trkpt><trkpt lat="35.9978336" lon="139.1798954"><ele>770.7233333333334</ele><time>2023-11-25T22:24:11Z</time></trkpt><trkpt lat="35.997799" lon="139.1796743"><ele>765.1766666666667</ele><time>2023-11-25T22:24:25Z</time></trkpt><trkpt lat="35.9978803" lon="139.1794682"><ele>763.5466666666667</ele><time>2023-11-25T22:24:45Z</time></trkpt><trkpt lat="35.9980407" lon="139.1795745"><ele>762.2933333333334</ele><time>2023-11-25T22:24:58Z</time></trkpt><trkpt lat="35.9980281" lon="139.1797972"><ele>760.9066666666668</ele><time>2023-11-25T22:25:16Z</time></trkpt><trkpt lat="35.9982022" lon="139.1798687"><ele>757.4699999999999</ele><time>2023-11-25T22:25:53Z</time></trkpt><trkpt lat="35.9983734" lon="139.1799541"><ele>751.5500000000001</ele><time>2023-11-25T22:26:05Z</time></trkpt><trkpt lat="35.9985587" lon="139.1799551"><ele>744.79</ele><time>2023-11-25T22:26:17Z</time></trkpt><trkpt lat="35.9986785" lon="139.1801224"><ele>738.0266666666666</ele><time>2023-11-25T22:26:31Z</time></trkpt><trkpt lat="35.998833" lon="139.180261"><ele>734.89</ele><time>2023-11-25T22:26:44Z</time></trkpt><trkpt lat="35.9989962" lon="139.180366"><ele>731.0566666666667</ele><time>2023-11-25T22:27:06Z</time></trkpt><trkpt lat="35.9991599" lon="139.1804633"><ele>727.2533333333334</ele><time>2023-11-25T22:27:18Z</time></trkpt><trkpt lat="35.9993461" lon="139.1804681"><ele>721.38</ele><time>2023-11-25T22:27:48Z</time></trkpt><trkpt lat="35.9995153" lon="139.1805511"><ele>717.6700000000001</ele><time>2023-11-25T22:28:03Z</time></trkpt><trkpt lat="35.9996935" lon="139.1806126"><ele>712.6166666666667</ele><time>2023-11-25T22:28:20Z</time></trkpt><trkpt lat="35.999852" lon="139.1807234"><ele>707.6300000000001</ele><time>2023-11-25T22:28:35Z</time></trkpt><trkpt lat="35.9999975" lon="139.1808596"><ele>702.6033333333334</ele><time>2023-11-25T22:28:52Z</time></trkpt><trkpt lat="36.000167" lon="139.1809357"><ele>699.5066666666667</ele><time>2023-11-25T22:29:12Z</time></trkpt><trkpt lat="36.0003467" lon="139.1808906"><ele>695.6300000000001</ele><time>2023-11-25T22:29:29Z</time></trkpt><trkpt lat="36.0004024" lon="139.1806773"><ele>689.5300000000001</ele><time>2023-11-25T22:29:58Z</time></trkpt><trkpt lat="36.0002688" lon="139.1805251"><ele>682.5100000000001</ele><time>2023-11-25T22:30:42Z</time></trkpt><trkpt lat="36.0004073" lon="139.1803775"><ele>675.62</ele><time>2023-11-25T22:31:07Z</time></trkpt><trkpt lat="36.000592" lon="139.1803386"><ele>669.2800000000001</ele><time>2023-11-25T22:31:33Z</time></trkpt><trkpt lat="36.0007541" lon="139.1804667"><ele>664.11</ele><time>2023-11-25T22:31:46Z</time></trkpt><trkpt lat="36.0009196" lon="139.180571"><ele>661.7166666666666</ele><time>2023-11-25T22:32:02Z</time></trkpt><trkpt lat="36.001102" lon="139.1805576"><ele>657.8233333333334</ele><time>2023-11-25T22:32:21Z</time></trkpt><trkpt lat="36.0012085" lon="139.1807487"><ele>653.5633333333334</ele><time>2023-11-25T22:32:45Z</time></trkpt><trkpt lat="36.0013884" lon="139.1807182"><ele>647.7533333333333</ele><time>2023-11-25T22:33:08Z</time></trkpt><trkpt lat="36.001498" lon="139.1805339"><ele>643.8466666666667</ele><time>2023-11-25T22:33:24Z</time></trkpt><trkpt lat="36.0016007" lon="139.180342"><ele>639.3233333333334</ele><time>2023-11-25T22:33:38Z</time></trkpt><trkpt lat="36.0017113" lon="139.1801574"><ele>634.9</ele><time>2023-11-25T22:33:53Z</time></trkpt><trkpt lat="36.0017836" lon="139.1799474"><ele>629.1866666666666</ele><time>2023-11-25T22:34:34Z</time></trkpt><trkpt lat="36.0019256" lon="139.1798038"><ele>622.3033333333333</ele><time>2023-11-25T22:35:11Z</time></trkpt><trkpt lat="36.0021073" lon="139.1797836"><ele>614.8266666666667</ele><time>2023-11-25T22:35:28Z</time></trkpt><trkpt lat="36.0022881" lon="139.1796919"><ele>607.36</ele><time>2023-11-25T22:35:41Z</time></trkpt><trkpt lat="36.002469" lon="139.1796655"><ele>600.2133333333333</ele><time>2023-11-25T22:36:13Z</time></trkpt><trkpt lat="36.0026268" lon="139.1795497"><ele>593.4266666666667</ele><time>2023-11-25T22:36:53Z</time></trkpt><trkpt lat="36.0027792" lon="139.1796708"><ele>588.7399999999999</ele><time>2023-11-25T22:37:20Z</time></trkpt><trkpt lat="36.0029416" lon="139.1797711"><ele>586.9733333333334</ele><time>2023-11-25T22:37:32Z</time></trkpt><trkpt lat="36.0030968" lon="139.1796454"><ele>584.9733333333334</ele><time>2023-11-25T22:37:45Z</time></trkpt><trkpt lat="36.0032714" lon="139.1797009"><ele>583.3066666666667</ele><time>2023-11-25T22:38:08Z</time></trkpt><trkpt lat="36.0034622" lon="139.1797559"><ele>577.8533333333334</ele><time>2023-11-25T22:38:47Z</time></trkpt><trkpt lat="36.0036401" lon="139.1797092"><ele>573.5633333333334</ele><time>2023-11-25T22:39:04Z</time></trkpt><trkpt lat="36.0038295" lon="139.1795972"><ele>566.6700000000001</ele><time>2023-11-25T22:39:17Z</time></trkpt><trkpt lat="36.0039576" lon="139.1794389"><ele>559.9133333333334</ele><time>2023-11-25T22:39:55Z</time></trkpt><trkpt lat="36.0041449" lon="139.1794193"><ele>555.0466666666667</ele><time>2023-11-25T22:40:09Z</time></trkpt><trkpt lat="36.0043313" lon="139.1794397"><ele>554.9599999999999</ele><time>2023-11-25T22:40:23Z</time></trkpt><trkpt lat="36.0044751" lon="139.1792724"><ele>555.5233333333334</ele><time>2023-11-25T22:40:40Z</time></trkpt><trkpt lat="36.004602" lon="139.1791049"><ele>551.51</ele><time>2023-11-25T22:40:51Z</time></trkpt><trkpt lat="36.0047856" lon="139.1790587"><ele>544.0333333333333</ele><time>2023-11-25T22:41:35Z</time></trkpt><trkpt lat="36.0049732" lon="139.1790373"><ele>537.8966666666666</ele><time>2023-11-25T22:41:40Z</time></trkpt><trkpt lat="36.005163" lon="139.178986"><ele>532.5466666666666</ele><time>2023-11-25T22:41:42Z</time></trkpt><trkpt lat="36.0052675" lon="139.1791695"><ele>531.63</ele><time>2023-11-25T22:41:50Z</time></trkpt><trkpt lat="36.0054424" lon="139.1791051"><ele>530.66</ele><time>2023-11-25T22:42:13Z</time></trkpt><trkpt lat="36.0054834" lon="139.1788765"><ele>528.16</ele><time>2023-11-25T22:42:27Z</time></trkpt><trkpt lat="36.0056657" lon="139.1787899"><ele>521.3433333333334</ele><time>2023-11-25T22:42:40Z</time></trkpt><trkpt lat="36.0058344" lon="139.1788805"><ele>515.15</ele><time>2023-11-25T22:42:53Z</time></trkpt><trkpt lat="36.005974" lon="139.1790343"><ele>512.23</ele><time>2023-11-25T22:43:07Z</time></trkpt><trkpt lat="36.0061443" lon="139.1791142"><ele>508.55</ele><time>2023-11-25T22:43:19Z</time></trkpt><trkpt lat="36.0063309" lon="139.1791587"><ele>504.41333333333336</ele><time>2023-11-25T22:43:30Z</time></trkpt><trkpt lat="36.0064819" lon="139.1790225"><ele>498.50666666666666</ele><time>2023-11-25T22:43:40Z</time></trkpt><trkpt lat="36.0066372" lon="139.1791368"><ele>496.00666666666666</ele><time>2023-11-25T22:43:49Z</time></trkpt><trkpt lat="36.0067604" lon="139.1789692"><ele>489.84999999999997</ele><time>2023-11-25T22:44:04Z</time></trkpt><trkpt lat="36.0069258" lon="139.1790612"><ele>486.19</ele><time>2023-11-25T22:44:23Z</time></trkpt><trkpt lat="36.0070954" lon="139.1791404"><ele>482.2633333333333</ele><time>2023-11-25T22:44:33Z</time></trkpt><trkpt lat="36.0072718" lon="139.1792163"><ele>483.63000000000005</ele><time>2023-11-25T22:44:43Z</time></trkpt><trkpt lat="36.0074044" lon="139.1790638"><ele>484.28333333333336</ele><time>2023-11-25T22:45:05Z</time></trkpt><trkpt lat="36.0075117" lon="139.1788849"><ele>483.9566666666667</ele><time>2023-11-25T22:45:19Z</time></trkpt><trkpt lat="36.0076196" lon="139.1787049"><ele>482.2266666666667</ele><time>2023-11-25T22:45:29Z</time></trkpt><trkpt lat="36.0077947" lon="139.1786463"><ele>479.6933333333333</ele><time>2023-11-25T22:45:40Z</time></trkpt><trkpt lat="36.007947" lon="139.1785273"><ele>476.16</ele><time>2023-11-25T22:45:57Z</time></trkpt><trkpt lat="36.0081288" lon="139.1785375"><ele>472.4166666666667</ele><time>2023-11-25T22:46:09Z</time></trkpt><trkpt lat="36.0083133" lon="139.1785563"><ele>467.72</ele><time>2023-11-25T22:46:21Z</time></trkpt><trkpt lat="36.0085043" lon="139.1785789"><ele>463.99</ele><time>2023-11-25T22:46:32Z</time></trkpt><trkpt lat="36.0086894" lon="139.1785645"><ele>459.8633333333334</ele><time>2023-11-25T22:46:43Z</time></trkpt><trkpt lat="36.0088591" lon="139.1784726"><ele>456.09999999999997</ele><time>2023-11-25T22:46:55Z</time></trkpt><trkpt lat="36.0090098" lon="139.1783485"><ele>450.71</ele><time>2023-11-25T22:47:02Z</time></trkpt><trkpt lat="36.0091867" lon="139.1783952"><ele>445.5333333333333</ele><time>2023-11-25T22:47:17Z</time></trkpt><trkpt lat="36.0093602" lon="139.1783136"><ele>441.4066666666667</ele><time>2023-11-25T22:47:29Z</time></trkpt><trkpt lat="36.0095298" lon="139.1784102"><ele>440.06666666666666</ele><time>2023-11-25T22:47:40Z</time></trkpt><trkpt lat="36.0095335" lon="139.1786354"><ele>441.26666666666665</ele><time>2023-11-25T22:47:48Z</time></trkpt><trkpt lat="36.0097066" lon="139.1787141"><ele>443.15333333333336</ele><time>2023-11-25T22:47:58Z</time></trkpt><trkpt lat="36.009912" lon="139.1785806"><ele>440.8</ele><time>2023-11-25T22:48:03Z</time></trkpt><trkpt lat="36.0101355" lon="139.1785684"><ele>435.2666666666667</ele><time>2023-11-25T22:48:11Z</time></trkpt><trkpt lat="36.0103472" lon="139.178583"><ele>430.0366666666667</ele><time>2023-11-25T22:48:20Z</time></trkpt><trkpt lat="36.0105147" lon="139.1786889"><ele>427.46000000000004</ele><time>2023-11-25T22:48:27Z</time></trkpt><trkpt lat="36.0106086" lon="139.1788797"><ele>426.57</ele><time>2023-11-25T22:48:33Z</time></trkpt><trkpt lat="36.0107492" lon="139.1790246"><ele>426.02333333333337</ele><time>2023-11-25T22:48:45Z</time></trkpt><trkpt lat="36.0109049" lon="139.179146"><ele>426.6933333333333</ele><time>2023-11-25T22:48:56Z</time></trkpt><trkpt lat="36.0110613" lon="139.1790329"><ele>427.14000000000004</ele><time>2023-11-25T22:49:06Z</time></trkpt><trkpt lat="36.0111319" lon="139.1788153"><ele>425.75</ele><time>2023-11-25T22:49:13Z</time></trkpt><trkpt lat="36.0112341" lon="139.1786262"><ele>422.57</ele><time>2023-11-25T22:49:24Z</time></trkpt><trkpt lat="36.0113712" lon="139.1784676"><ele>417.19000000000005</ele><time>2023-11-25T22:49:36Z</time></trkpt><trkpt lat="36.0115594" lon="139.1784315"><ele>412.73</ele><time>2023-11-25T22:49:46Z</time></trkpt><trkpt lat="36.0117246" lon="139.1785269"><ele>410.62000000000006</ele><time>2023-11-25T22:50:03Z</time></trkpt><trkpt lat="36.0119012" lon="139.1784438"><ele>407.97</ele><time>2023-11-25T22:50:11Z</time></trkpt><trkpt lat="36.0120833" lon="139.1783811"><ele>405.2866666666667</ele><time>2023-11-25T22:50:20Z</time></trkpt><trkpt lat="36.0122664" lon="139.1783091"><ele>401.65000000000003</ele><time>2023-11-25T22:50:33Z</time></trkpt><trkpt lat="36.0124739" lon="139.1782613"><ele>400.97333333333336</ele><time>2023-11-25T22:50:44Z</time></trkpt><trkpt lat="36.0126573" lon="139.1783377"><ele>401.65000000000003</ele><time>2023-11-25T22:50:53Z</time></trkpt><trkpt lat="36.0128382" lon="139.1783604"><ele>402.51</ele><time>2023-11-25T22:51:05Z</time></trkpt><trkpt lat="36.0130223" lon="139.178363"><ele>402.66</ele><time>2023-11-25T22:51:17Z</time></trkpt><trkpt lat="36.0131963" lon="139.1782597"><ele>400.90333333333336</ele><time>2023-11-25T22:51:28Z</time></trkpt><trkpt lat="36.0133783" lon="139.1782459"><ele>397.6266666666667</ele><time>2023-11-25T22:51:47Z</time></trkpt><trkpt lat="36.0135683" lon="139.1781645"><ele>394.7833333333333</ele><time>2023-11-25T22:51:58Z</time></trkpt><trkpt lat="36.0137482" lon="139.1780756"><ele>392.93666666666667</ele><time>2023-11-25T22:52:06Z</time></trkpt><trkpt lat="36.0138806" lon="139.1779101"><ele>390.8566666666666</ele><time>2023-11-25T22:52:16Z</time></trkpt><trkpt lat="36.0140647" lon="139.1779226"><ele>390.43333333333334</ele><time>2023-11-25T22:52:26Z</time></trkpt><trkpt lat="36.014242" lon="139.1778607"><ele>391.0533333333333</ele><time>2023-11-25T22:52:42Z</time></trkpt><trkpt lat="36.0143661" lon="139.1776729"><ele>393.6633333333334</ele><time>2023-11-25T22:52:53Z</time></trkpt><trkpt lat="36.0144182" lon="139.1774512"><ele>393.6466666666667</ele><time>2023-11-25T22:53:04Z</time></trkpt><trkpt lat="36.0145446" lon="139.1772716"><ele>391.98</ele><time>2023-11-25T22:53:13Z</time></trkpt><trkpt lat="36.0146936" lon="139.1771346"><ele>389.2633333333333</ele><time>2023-11-25T22:53:27Z</time></trkpt><trkpt lat="36.0147696" lon="139.1769281"><ele>385.57666666666665</ele><time>2023-11-25T22:53:39Z</time></trkpt><trkpt lat="36.0148178" lon="139.1767001"><ele>381.44</ele><time>2023-11-25T22:53:52Z</time></trkpt><trkpt lat="36.0147708" lon="139.1764697"><ele>376.19</ele><time>2023-11-25T22:54:00Z</time></trkpt><trkpt lat="36.0149145" lon="139.1763262"><ele>372.8333333333333</ele><time>2023-11-25T22:54:22Z</time></trkpt><trkpt lat="36.0150971" lon="139.176283"><ele>370.92333333333335</ele><time>2023-11-25T22:54:31Z</time></trkpt><trkpt lat="36.0152811" lon="139.1763054"><ele>371.1466666666667</ele><time>2023-11-25T22:54:44Z</time></trkpt><trkpt lat="36.0154053" lon="139.1761399"><ele>371.06333333333333</ele><time>2023-11-25T22:54:53Z</time></trkpt><trkpt lat="36.015549" lon="139.1759899"><ele>370.8766666666667</ele><time>2023-11-25T22:55:07Z</time></trkpt><trkpt lat="36.0157162" lon="139.1758866"><ele>371.4666666666667</ele><time>2023-11-25T22:55:22Z</time></trkpt><trkpt lat="36.0157825" lon="139.1756572"><ele>371.26666666666665</ele><time>2023-11-25T22:55:34Z</time></trkpt><trkpt lat="36.0159283" lon="139.1755118"><ele>371.4633333333333</ele><time>2023-11-25T22:55:43Z</time></trkpt><trkpt lat="36.0160474" lon="139.1753391"><ele>370.0333333333333</ele><time>2023-11-25T22:55:54Z</time></trkpt><trkpt lat="36.0161735" lon="139.1751713"><ele>369.1133333333334</ele><time>2023-11-25T22:56:03Z</time></trkpt><trkpt lat="36.0163601" lon="139.175201"><ele>367.38000000000005</ele><time>2023-11-25T22:56:16Z</time></trkpt><trkpt lat="36.0165422" lon="139.1751166"><ele>366.6066666666666</ele><time>2023-11-25T22:56:42Z</time></trkpt><trkpt lat="36.0165682" lon="139.1748802"><ele>368.2833333333333</ele><time>2023-11-25T22:56:50Z</time></trkpt><trkpt lat="36.0165072" lon="139.1746706"><ele>369.2033333333333</ele><time>2023-11-25T22:57:00Z</time></trkpt><trkpt lat="36.0164015" lon="139.1744793"><ele>366.65333333333336</ele><time>2023-11-25T22:57:13Z</time></trkpt><trkpt lat="36.0162918" lon="139.1742965"><ele>362.06666666666666</ele><time>2023-11-25T22:57:23Z</time></trkpt><trkpt lat="36.016209" lon="139.1740873"><ele>358.1633333333334</ele><time>2023-11-25T22:57:35Z</time></trkpt><trkpt lat="36.0163395" lon="139.1739206"><ele>357.2666666666667</ele><time>2023-11-25T22:57:47Z</time></trkpt><trkpt lat="36.0164803" lon="139.1737648"><ele>356.03</ele><time>2023-11-25T22:57:55Z</time></trkpt><trkpt lat="36.0165106" lon="139.1735192"><ele>354.5</ele><time>2023-11-25T22:58:05Z</time></trkpt></trkseg></trk></gpx>