<?xml version='1.0' encoding='UTF-8'?><gpx creator="YAMAP - https://yamap.com" xsi:schemaLocation="http://www.topografix.com/GPX/1/1 http://www.topografix.com/GPX/1/1/gpx.xsd" version="1.1" xmlns="http://www.topografix.com/GPX/1/1" xmlns:xsi="http://www.w3.org/2001/XMLSchema-instance"><metadata><bounds maxlat="35.474758" maxlon="139.1689512" minlat="35.4048275" minlon="139.1609361"/></metadata><trk><name>丹沢山</name><number>1</number><trkseg><trkpt lat="35.4048275" lon="139.1687796"><ele>287.1</ele><time>2024-05-10T22:06:45Z</time></trkpt><trkpt lat="35.4048706" lon="139.1685633"><ele>287.605</ele><time>2024-05-10T22:07:30Z</time></trkpt><trkpt lat="35.4050426" lon="139.1683972"><ele>288.19666666666666</ele><time>2024-05-10T22:07:45Z</time></trkpt><trkpt lat="35.4052367" lon="139.1682765"><ele>289.68</ele><time>2024-05-10T22:07:56Z</time></trkpt><trkpt lat="35.40542" lon="139.1682525"><ele>291.14000000000004</ele><time>2024-05-10T22:08:11Z</time></trkpt><trkpt lat="35.4055861" lon="139.1681219"><ele>292.7233333333333</ele><time>2024-05-10T22:08:23Z</time></trkpt><trkpt lat="35.4057863" lon="139.168047"><ele>293.1166666666667</ele><time>2024-05-10T22:08:38Z</time></trkpt><trkpt lat="35.4059457" lon="139.1678725"><ele>292.8333333333333</ele><time>2024-05-10T22:08:52Z</time></trkpt><trkpt lat="35.4060305" lon="139.1676232"><ele>292.12666666666667</ele><time>2024-05-10T22:09:03Z</time></trkpt><trkpt lat="35.4060235" lon="139.1673788"><ele>292.57666666666665</ele><time>2024-05-10T22:09:18Z</time></trkpt><trkpt lat="35.4059913" lon="139.1671205"><ele>295.04999999999995</ele><time>2024-05-10T22:09:33Z</time></trkpt><trkpt lat="35.4059219" lon="139.1668732"><ele>298.3333333333333</ele><time>2024-05-10T22:09:54Z</time></trkpt><trkpt lat="35.405803" lon="139.1666475"><ele>301.6</ele><time>2024-05-10T22:10:09Z</time></trkpt><trkpt lat="35.4058359" lon="139.166407"><ele>303.81333333333333</ele><time>2024-05-10T22:10:24Z</time></trkpt><trkpt lat="35.4058042" lon="139.1661645"><ele>306.00666666666666</ele><time>2024-05-10T22:10:38Z</time></trkpt><trkpt lat="35.4059244" lon="139.1659933"><ele>308.5933333333333</ele><time>2024-05-10T22:10:55Z</time></trkpt><trkpt lat="35.4060809" lon="139.1658621"><ele>312.3633333333333</ele><time>2024-05-10T22:11:13Z</time></trkpt><trkpt lat="35.4062847" lon="139.1658546"><ele>316.54333333333335</ele><time>2024-05-10T22:11:30Z</time></trkpt><trkpt lat="35.4064915" lon="139.1658132"><ele>319.25</ele><time>2024-05-10T22:11:48Z</time></trkpt><trkpt lat="35.4066394" lon="139.1656852"><ele>320.68666666666667</ele><time>2024-05-10T22:12:02Z</time></trkpt><trkpt lat="35.4068041" lon="139.1655273"><ele>321.4033333333333</ele><time>2024-05-10T22:12:16Z</time></trkpt><trkpt lat="35.4069339" lon="139.1653696"><ele>323.09</ele><time>2024-05-10T22:12:32Z</time></trkpt><trkpt lat="35.4071229" lon="139.1652625"><ele>325.6333333333334</ele><time>2024-05-10T22:13:01Z</time></trkpt><trkpt lat="35.407274" lon="139.1651348"><ele>328.18</ele><time>2024-05-10T22:13:20Z</time></trkpt><trkpt lat="35.4074496" lon="139.1650244"><ele>331.05333333333334</ele><time>2024-05-10T22:13:35Z</time></trkpt><trkpt lat="35.4076132" lon="139.1648918"><ele>334.07666666666665</ele><time>2024-05-10T22:13:56Z</time></trkpt><trkpt lat="35.4077949" lon="139.1648401"><ele>337.4533333333334</ele><time>2024-05-10T22:14:15Z</time></trkpt><trkpt lat="35.4079722" lon="139.1647827"><ele>340.9266666666667</ele><time>2024-05-10T22:14:33Z</time></trkpt><trkpt lat="35.408191" lon="139.1647473"><ele>343.69</ele><time>2024-05-10T22:14:51Z</time></trkpt><trkpt lat="35.4083892" lon="139.1647188"><ele>345.6000000000001</ele><time>2024-05-10T22:15:06Z</time></trkpt><trkpt lat="35.4085008" lon="139.1645196"><ele>347.52</ele><time>2024-05-10T22:15:21Z</time></trkpt><trkpt lat="35.4086052" lon="139.1643015"><ele>350.22333333333336</ele><time>2024-05-10T22:15:44Z</time></trkpt><trkpt lat="35.4087197" lon="139.1641072"><ele>354.3433333333333</ele><time>2024-05-10T22:15:59Z</time></trkpt><trkpt lat="35.4087473" lon="139.1638815"><ele>358.0133333333333</ele><time>2024-05-10T22:16:14Z</time></trkpt><trkpt lat="35.4088017" lon="139.1636522"><ele>360.45</ele><time>2024-05-10T22:16:36Z</time></trkpt><trkpt lat="35.4089813" lon="139.1635364"><ele>362.84</ele><time>2024-05-10T22:17:03Z</time></trkpt><trkpt lat="35.4091939" lon="139.163565"><ele>366.27000000000004</ele><time>2024-05-10T22:17:18Z</time></trkpt><trkpt lat="35.4093896" lon="139.1635553"><ele>372.0166666666667</ele><time>2024-05-10T22:17:36Z</time></trkpt><trkpt lat="35.4095392" lon="139.1637015"><ele>376.0133333333334</ele><time>2024-05-10T22:17:48Z</time></trkpt><trkpt lat="35.4097329" lon="139.1636519"><ele>378.4533333333334</ele><time>2024-05-10T22:18:03Z</time></trkpt><trkpt lat="35.4099135" lon="139.1636328"><ele>379.49333333333334</ele><time>2024-05-10T22:18:27Z</time></trkpt><trkpt lat="35.4100967" lon="139.1635191"><ele>381.9533333333334</ele><time>2024-05-10T22:18:54Z</time></trkpt><trkpt lat="35.4102347" lon="139.1633409"><ele>385.5933333333334</ele><time>2024-05-10T22:19:12Z</time></trkpt><trkpt lat="35.4103825" lon="139.1632028"><ele>388.6333333333334</ele><time>2024-05-10T22:19:33Z</time></trkpt><trkpt lat="35.4105112" lon="139.1630271"><ele>391.49000000000007</ele><time>2024-05-10T22:20:00Z</time></trkpt><trkpt lat="35.4106683" lon="139.1628583"><ele>394.7166666666667</ele><time>2024-05-10T22:20:26Z</time></trkpt><trkpt lat="35.4107313" lon="139.1626405"><ele>399.24</ele><time>2024-05-10T22:20:54Z</time></trkpt><trkpt lat="35.4108688" lon="139.1624645"><ele>404.5800000000001</ele><time>2024-05-10T22:21:11Z</time></trkpt><trkpt lat="35.4110364" lon="139.1623323"><ele>410.64000000000004</ele><time>2024-05-10T22:21:32Z</time></trkpt><trkpt lat="35.4111547" lon="139.1621562"><ele>416.9666666666667</ele><time>2024-05-10T22:22:15Z</time></trkpt><trkpt lat="35.4113057" lon="139.1620243"><ele>422.3533333333333</ele><time>2024-05-10T22:22:39Z</time></trkpt><trkpt lat="35.4114085" lon="139.1618181"><ele>428.90333333333336</ele><time>2024-05-10T22:23:00Z</time></trkpt><trkpt lat="35.411549" lon="139.1616576"><ele>436.08</ele><time>2024-05-10T22:23:21Z</time></trkpt><trkpt lat="35.4117493" lon="139.1617013"><ele>443.37000000000006</ele><time>2024-05-10T22:23:36Z</time></trkpt><trkpt lat="35.4119051" lon="139.1618758"><ele>446.89000000000004</ele><time>2024-05-10T22:23:57Z</time></trkpt><trkpt lat="35.4120516" lon="139.1620106"><ele>447.6466666666667</ele><time>2024-05-10T22:24:15Z</time></trkpt><trkpt lat="35.4122217" lon="139.1619182"><ele>449.66333333333336</ele><time>2024-05-10T22:24:48Z</time></trkpt><trkpt lat="35.412398" lon="139.1618474"><ele>451.1133333333333</ele><time>2024-05-10T22:25:08Z</time></trkpt><trkpt lat="35.4125671" lon="139.1617059"><ele>454.43333333333334</ele><time>2024-05-10T22:25:29Z</time></trkpt><trkpt lat="35.412769" lon="139.1616753"><ele>454.4866666666667</ele><time>2024-05-10T22:25:57Z</time></trkpt><trkpt lat="35.4129792" lon="139.1616975"><ele>457.1233333333333</ele><time>2024-05-10T22:26:24Z</time></trkpt><trkpt lat="35.4131651" lon="139.1618103"><ele>458.1933333333333</ele><time>2024-05-10T22:26:39Z</time></trkpt><trkpt lat="35.4133185" lon="139.1619401"><ele>459.78000000000003</ele><time>2024-05-10T22:26:54Z</time></trkpt><trkpt lat="35.4134833" lon="139.1620951"><ele>463.78999999999996</ele><time>2024-05-10T22:27:12Z</time></trkpt><trkpt lat="35.4134935" lon="139.1623408"><ele>466.31333333333333</ele><time>2024-05-10T22:27:33Z</time></trkpt><trkpt lat="35.4136975" lon="139.162355"><ele>471.6666666666667</ele><time>2024-05-10T22:28:09Z</time></trkpt><trkpt lat="35.4138938" lon="139.1623322"><ele>473.2166666666667</ele><time>2024-05-10T22:28:33Z</time></trkpt><trkpt lat="35.4140617" lon="139.1622237"><ele>477.85666666666674</ele><time>2024-05-10T22:28:54Z</time></trkpt><trkpt lat="35.4142445" lon="139.1622224"><ele>480.5933333333334</ele><time>2024-05-10T22:29:15Z</time></trkpt><trkpt lat="35.4144294" lon="139.1621739"><ele>484.7266666666667</ele><time>2024-05-10T22:29:39Z</time></trkpt><trkpt lat="35.4146122" lon="139.1621682"><ele>489.18</ele><time>2024-05-10T22:29:59Z</time></trkpt><trkpt lat="35.4147777" lon="139.162257"><ele>493.68</ele><time>2024-05-10T22:30:18Z</time></trkpt><trkpt lat="35.4148968" lon="139.1624398"><ele>497.06</ele><time>2024-05-10T22:30:48Z</time></trkpt><trkpt lat="35.4150123" lon="139.1622564"><ele>501.4766666666667</ele><time>2024-05-10T22:31:21Z</time></trkpt><trkpt lat="35.414863" lon="139.1621047"><ele>503.08</ele><time>2024-05-10T22:31:45Z</time></trkpt><trkpt lat="35.415049" lon="139.1620909"><ele>508.2166666666667</ele><time>2024-05-10T22:32:39Z</time></trkpt><trkpt lat="35.4151318" lon="139.1623253"><ele>509.21</ele><time>2024-05-10T22:32:54Z</time></trkpt><trkpt lat="35.415235" lon="139.1625314"><ele>517.1966666666667</ele><time>2024-05-10T22:33:20Z</time></trkpt><trkpt lat="35.4152896" lon="139.1627432"><ele>522.9533333333334</ele><time>2024-05-10T22:33:57Z</time></trkpt><trkpt lat="35.4154572" lon="139.1628277"><ele>530.9666666666667</ele><time>2024-05-10T22:34:57Z</time></trkpt><trkpt lat="35.4156311" lon="139.1627554"><ele>536.9966666666667</ele><time>2024-05-10T22:35:27Z</time></trkpt><trkpt lat="35.4158076" lon="139.1626773"><ele>543.3166666666666</ele><time>2024-05-10T22:36:09Z</time></trkpt><trkpt lat="35.415983" lon="139.1625676"><ele>548.9133333333333</ele><time>2024-05-10T22:36:39Z</time></trkpt><trkpt lat="35.4161828" lon="139.1625251"><ele>553.8100000000001</ele><time>2024-05-10T22:37:12Z</time></trkpt><trkpt lat="35.4163614" lon="139.1624759"><ele>558.5166666666667</ele><time>2024-05-10T22:37:42Z</time></trkpt><trkpt lat="35.4165549" lon="139.1624885"><ele>563.4233333333333</ele><time>2024-05-10T22:38:12Z</time></trkpt><trkpt lat="35.4167433" lon="139.162568"><ele>566.3966666666666</ele><time>2024-05-10T22:38:42Z</time></trkpt><trkpt lat="35.4169581" lon="139.1625878"><ele>570.58</ele><time>2024-05-10T22:39:00Z</time></trkpt><trkpt lat="35.4171188" lon="139.1624791"><ele>575.9666666666667</ele><time>2024-05-10T22:39:27Z</time></trkpt><trkpt lat="35.4172574" lon="139.1623371"><ele>583.7333333333332</ele><time>2024-05-10T22:39:51Z</time></trkpt><trkpt lat="35.4174643" lon="139.1623065"><ele>588.5066666666667</ele><time>2024-05-10T22:40:23Z</time></trkpt><trkpt lat="35.4176617" lon="139.1623067"><ele>591.3466666666667</ele><time>2024-05-10T22:40:38Z</time></trkpt><trkpt lat="35.4178725" lon="139.162294"><ele>591.9000000000001</ele><time>2024-05-10T22:40:56Z</time></trkpt><trkpt lat="35.4180694" lon="139.1622402"><ele>594.0433333333334</ele><time>2024-05-10T22:41:15Z</time></trkpt><trkpt lat="35.4182751" lon="139.1621872"><ele>597.0633333333334</ele><time>2024-05-10T22:41:36Z</time></trkpt><trkpt lat="35.4184774" lon="139.1621316"><ele>600.0266666666666</ele><time>2024-05-10T22:42:03Z</time></trkpt><trkpt lat="35.4186861" lon="139.1621505"><ele>601.1966666666666</ele><time>2024-05-10T22:42:18Z</time></trkpt><trkpt lat="35.4188911" lon="139.1620798"><ele>601.5266666666666</ele><time>2024-05-10T22:42:33Z</time></trkpt><trkpt lat="35.4190982" lon="139.1620849"><ele>602.11</ele><time>2024-05-10T22:42:51Z</time></trkpt><trkpt lat="35.4192986" lon="139.1620076"><ele>602.4666666666667</ele><time>2024-05-10T22:43:09Z</time></trkpt><trkpt lat="35.4194699" lon="139.1619094"><ele>602.9933333333333</ele><time>2024-05-10T22:43:36Z</time></trkpt><trkpt lat="35.4196778" lon="139.1619912"><ele>605.7733333333334</ele><time>2024-05-10T22:43:51Z</time></trkpt><trkpt lat="35.4198734" lon="139.1620831"><ele>609.9566666666666</ele><time>2024-05-10T22:44:24Z</time></trkpt><trkpt lat="35.4200691" lon="139.1621642"><ele>615.2033333333334</ele><time>2024-05-10T22:45:00Z</time></trkpt><trkpt lat="35.4202606" lon="139.1621941"><ele>621.16</ele><time>2024-05-10T22:46:21Z</time></trkpt><trkpt lat="35.4204606" lon="139.162301"><ele>629.43</ele><time>2024-05-10T22:46:48Z</time></trkpt><trkpt lat="35.4206427" lon="139.1622831"><ele>640.3066666666667</ele><time>2024-05-10T22:47:30Z</time></trkpt><trkpt lat="35.4208424" lon="139.162333"><ele>651.1366666666667</ele><time>2024-05-10T22:48:09Z</time></trkpt><trkpt lat="35.421016" lon="139.1624383"><ele>660.8666666666667</ele><time>2024-05-10T22:49:15Z</time></trkpt><trkpt lat="35.4211369" lon="139.1626334"><ele>669.09</ele><time>2024-05-10T22:49:36Z</time></trkpt><trkpt lat="35.4212834" lon="139.16278"><ele>675.5333333333334</ele><time>2024-05-10T22:50:03Z</time></trkpt><trkpt lat="35.4214478" lon="139.1628705"><ele>681.5233333333334</ele><time>2024-05-10T22:50:33Z</time></trkpt><trkpt lat="35.4216027" lon="139.1630043"><ele>686.9166666666666</ele><time>2024-05-10T22:51:00Z</time></trkpt><trkpt lat="35.4217596" lon="139.1631419"><ele>692.4066666666668</ele><time>2024-05-10T22:51:33Z</time></trkpt><trkpt lat="35.4218916" lon="139.163294"><ele>697.4066666666666</ele><time>2024-05-10T22:52:12Z</time></trkpt><trkpt lat="35.4220166" lon="139.163454"><ele>702.5466666666666</ele><time>2024-05-10T22:52:48Z</time></trkpt><trkpt lat="35.4221263" lon="139.1636333"><ele>706.9266666666667</ele><time>2024-05-10T22:53:20Z</time></trkpt><trkpt lat="35.4222995" lon="139.1637402"><ele>712.1</ele><time>2024-05-10T22:53:39Z</time></trkpt><trkpt lat="35.4224267" lon="139.1638981"><ele>716.7800000000001</ele><time>2024-05-10T22:54:06Z</time></trkpt><trkpt lat="35.4224626" lon="139.1641295"><ele>721.3866666666667</ele><time>2024-05-10T22:54:51Z</time></trkpt><trkpt lat="35.4226121" lon="139.1642751"><ele>725.8133333333334</ele><time>2024-05-10T22:55:24Z</time></trkpt><trkpt lat="35.4227746" lon="139.1643992"><ele>730.9133333333333</ele><time>2024-05-10T22:56:09Z</time></trkpt><trkpt lat="35.422882" lon="139.1645875"><ele>736.9</ele><time>2024-05-10T22:56:39Z</time></trkpt><trkpt lat="35.4229742" lon="139.1647852"><ele>743.4333333333334</ele><time>2024-05-10T22:57:03Z</time></trkpt><trkpt lat="35.4230883" lon="139.164967"><ele>749.71</ele><time>2024-05-10T22:57:51Z</time></trkpt><trkpt lat="35.4232394" lon="139.1651074"><ele>756.5099999999999</ele><time>2024-05-10T22:58:24Z</time></trkpt><trkpt lat="35.4234169" lon="139.1651619"><ele>761.1566666666668</ele><time>2024-05-10T22:59:03Z</time></trkpt><trkpt lat="35.42359" lon="139.165237"><ele>764.9866666666667</ele><time>2024-05-10T22:59:32Z</time></trkpt><trkpt lat="35.4237372" lon="139.1653684"><ele>768.8566666666667</ele><time>2024-05-10T22:59:56Z</time></trkpt><trkpt lat="35.4238909" lon="139.1655314"><ele>772.96</ele><time>2024-05-10T23:00:18Z</time></trkpt><trkpt lat="35.4240761" lon="139.1656379"><ele>777.2466666666666</ele><time>2024-05-10T23:00:42Z</time></trkpt><trkpt lat="35.4242269" lon="139.1658276"><ele>780.34</ele><time>2024-05-10T23:01:00Z</time></trkpt><trkpt lat="35.4243889" lon="139.1659798"><ele>783.3666666666667</ele><time>2024-05-10T23:01:17Z</time></trkpt><trkpt lat="35.424573" lon="139.1660185"><ele>785.29</ele><time>2024-05-10T23:01:33Z</time></trkpt><trkpt lat="35.4247578" lon="139.1661189"><ele>787.1</ele><time>2024-05-10T23:01:54Z</time></trkpt><trkpt lat="35.424954" lon="139.166137"><ele>789.7633333333333</ele><time>2024-05-10T23:02:09Z</time></trkpt><trkpt lat="35.4251226" lon="139.1662722"><ele>793.2366666666667</ele><time>2024-05-10T23:02:26Z</time></trkpt><trkpt lat="35.4252823" lon="139.1663961"><ele>795.9666666666667</ele><time>2024-05-10T23:02:47Z</time></trkpt><trkpt lat="35.425477" lon="139.1664113"><ele>798.25</ele><time>2024-05-10T23:03:06Z</time></trkpt><trkpt lat="35.4256572" lon="139.1665316"><ele>798.7400000000001</ele><time>2024-05-10T23:03:24Z</time></trkpt><trkpt lat="35.4258189" lon="139.1666441"><ele>799.19</ele><time>2024-05-10T23:03:42Z</time></trkpt><trkpt lat="35.4260106" lon="139.1666394"><ele>797.32</ele><time>2024-05-10T23:04:00Z</time></trkpt><trkpt lat="35.4261927" lon="139.1666729"><ele>797.5366666666667</ele><time>2024-05-10T23:04:12Z</time></trkpt><trkpt lat="35.4263749" lon="139.1667114"><ele>798.7066666666666</ele><time>2024-05-10T23:04:36Z</time></trkpt><trkpt lat="35.4265502" lon="139.1666423"><ele>802.25</ele><time>2024-05-10T23:04:57Z</time></trkpt><trkpt lat="35.426722" lon="139.166723"><ele>806.5666666666667</ele><time>2024-05-10T23:05:21Z</time></trkpt><trkpt lat="35.4269039" lon="139.1667248"><ele>812.5066666666668</ele><time>2024-05-10T23:05:42Z</time></trkpt><trkpt lat="35.4270565" lon="139.1666043"><ele>819.9933333333333</ele><time>2024-05-10T23:06:24Z</time></trkpt><trkpt lat="35.4272451" lon="139.1666249"><ele>826.6133333333333</ele><time>2024-05-10T23:06:45Z</time></trkpt><trkpt lat="35.4274226" lon="139.1665698"><ele>832.3933333333334</ele><time>2024-05-10T23:07:06Z</time></trkpt><trkpt lat="35.4276189" lon="139.1666218"><ele>837.7900000000001</ele><time>2024-05-10T23:08:09Z</time></trkpt><trkpt lat="35.4277869" lon="139.1665364"><ele>844.18</ele><time>2024-05-10T23:09:15Z</time></trkpt><trkpt lat="35.4278707" lon="139.1663361"><ele>851.9933333333333</ele><time>2024-05-10T23:09:54Z</time></trkpt><trkpt lat="35.4280046" lon="139.1661886"><ele>860.6999999999999</ele><time>2024-05-10T23:10:54Z</time></trkpt><trkpt lat="35.4281269" lon="139.1660074"><ele>869.9266666666667</ele><time>2024-05-10T23:11:30Z</time></trkpt><trkpt lat="35.4282367" lon="139.1658275"><ele>877.89</ele><time>2024-05-10T23:12:09Z</time></trkpt><trkpt lat="35.4283721" lon="139.1656759"><ele>884.64</ele><time>2024-05-10T23:12:36Z</time></trkpt><trkpt lat="35.4285206" lon="139.1655163"><ele>889.9499999999999</ele><time>2024-05-10T23:12:54Z</time></trkpt><trkpt lat="35.4286638" lon="139.1653592"><ele>894.8933333333334</ele><time>2024-05-10T23:13:09Z</time></trkpt><trkpt lat="35.428822" lon="139.1652507"><ele>898.54</ele><time>2024-05-10T23:13:27Z</time></trkpt><trkpt lat="35.428984" lon="139.1651375"><ele>901.1666666666666</ele><time>2024-05-10T23:13:48Z</time></trkpt><trkpt lat="35.4291575" lon="139.1649943"><ele>903.2633333333333</ele><time>2024-05-10T23:14:03Z</time></trkpt><trkpt lat="35.4293403" lon="139.1648989"><ele>905.8633333333333</ele><time>2024-05-10T23:14:27Z</time></trkpt><trkpt lat="35.4295206" lon="139.1648095"><ele>908.8833333333333</ele><time>2024-05-10T23:14:48Z</time></trkpt><trkpt lat="35.4296915" lon="139.1646612"><ele>910.8966666666666</ele><time>2024-05-10T23:15:06Z</time></trkpt><trkpt lat="35.429845" lon="139.1645387"><ele>912.2800000000001</ele><time>2024-05-10T23:15:21Z</time></trkpt><trkpt lat="35.4300317" lon="139.1644296"><ele>913.4733333333334</ele><time>2024-05-10T23:15:39Z</time></trkpt><trkpt lat="35.4302028" lon="139.1643552"><ele>915.98</ele><time>2024-05-10T23:15:57Z</time></trkpt><trkpt lat="35.4303568" lon="139.1642305"><ele>918.2766666666666</ele><time>2024-05-10T23:16:15Z</time></trkpt><trkpt lat="35.4305051" lon="139.1641016"><ele>920.54</ele><time>2024-05-10T23:16:33Z</time></trkpt><trkpt lat="35.4306523" lon="139.1639537"><ele>921.9333333333334</ele><time>2024-05-10T23:16:51Z</time></trkpt><trkpt lat="35.4308124" lon="139.1638298"><ele>924.2366666666667</ele><time>2024-05-10T23:17:09Z</time></trkpt><trkpt lat="35.4309982" lon="139.1637539"><ele>927.0333333333334</ele><time>2024-05-10T23:17:27Z</time></trkpt><trkpt lat="35.4311966" lon="139.163674"><ele>929.4866666666667</ele><time>2024-05-10T23:17:45Z</time></trkpt><trkpt lat="35.4314131" lon="139.1637139"><ele>931.2966666666666</ele><time>2024-05-10T23:18:03Z</time></trkpt><trkpt lat="35.431635" lon="139.1636748"><ele>932.1933333333333</ele><time>2024-05-10T23:18:18Z</time></trkpt><trkpt lat="35.4318554" lon="139.1636359"><ele>931.7400000000001</ele><time>2024-05-10T23:18:33Z</time></trkpt><trkpt lat="35.4320838" lon="139.1636133"><ele>930.6466666666666</ele><time>2024-05-10T23:18:48Z</time></trkpt><trkpt lat="35.4322663" lon="139.1637554"><ele>931.9133333333334</ele><time>2024-05-10T23:19:03Z</time></trkpt><trkpt lat="35.4324193" lon="139.1638996"><ele>935.0733333333334</ele><time>2024-05-10T23:19:18Z</time></trkpt><trkpt lat="35.4325975" lon="139.1640387"><ele>938.71</ele><time>2024-05-10T23:19:36Z</time></trkpt><trkpt lat="35.4328009" lon="139.1640437"><ele>940.1033333333334</ele><time>2024-05-10T23:19:56Z</time></trkpt><trkpt lat="35.432987" lon="139.1640049"><ele>940.1833333333334</ele><time>2024-05-10T23:20:11Z</time></trkpt><trkpt lat="35.4331563" lon="139.1638794"><ele>939.3566666666667</ele><time>2024-05-10T23:20:26Z</time></trkpt><trkpt lat="35.4333061" lon="139.1637221"><ele>936.07</ele><time>2024-05-10T23:20:41Z</time></trkpt><trkpt lat="35.433473" lon="139.1636039"><ele>931.7366666666667</ele><time>2024-05-10T23:20:53Z</time></trkpt><trkpt lat="35.4337006" lon="139.1635814"><ele>927.3666666666667</ele><time>2024-05-10T23:21:11Z</time></trkpt><trkpt lat="35.4338866" lon="139.1635684"><ele>925.2566666666667</ele><time>2024-05-10T23:21:23Z</time></trkpt><trkpt lat="35.4340848" lon="139.1636143"><ele>924.7933333333334</ele><time>2024-05-10T23:21:38Z</time></trkpt><trkpt lat="35.4342645" lon="139.1636337"><ele>924.4</ele><time>2024-05-10T23:21:53Z</time></trkpt><trkpt lat="35.4344447" lon="139.163712"><ele>923.3866666666667</ele><time>2024-05-10T23:22:11Z</time></trkpt><trkpt lat="35.4346207" lon="139.1636218"><ele>922.1066666666666</ele><time>2024-05-10T23:22:29Z</time></trkpt><trkpt lat="35.4347995" lon="139.1634832"><ele>919.6633333333334</ele><time>2024-05-10T23:22:44Z</time></trkpt><trkpt lat="35.4349599" lon="139.163379"><ele>914.0499999999998</ele><time>2024-05-10T23:22:56Z</time></trkpt><trkpt lat="35.435111" lon="139.1634994"><ele>910.7433333333333</ele><time>2024-05-10T23:23:08Z</time></trkpt><trkpt lat="35.4352842" lon="139.1635804"><ele>909.85</ele><time>2024-05-10T23:23:20Z</time></trkpt><trkpt lat="35.4354762" lon="139.1635032"><ele>912.12</ele><time>2024-05-10T23:23:35Z</time></trkpt><trkpt lat="35.4356707" lon="139.16347"><ele>914.3233333333334</ele><time>2024-05-10T23:23:50Z</time></trkpt><trkpt lat="35.4357973" lon="139.1632801"><ele>918.1066666666667</ele><time>2024-05-10T23:24:08Z</time></trkpt><trkpt lat="35.4359921" lon="139.1631391"><ele>924.6266666666667</ele><time>2024-05-10T23:24:44Z</time></trkpt><trkpt lat="35.4361193" lon="139.1629479"><ele>929.57</ele><time>2024-05-10T23:25:05Z</time></trkpt><trkpt lat="35.4362366" lon="139.1627622"><ele>934.3833333333332</ele><time>2024-05-10T23:25:44Z</time></trkpt><trkpt lat="35.4362273" lon="139.1625278"><ele>940.0166666666668</ele><time>2024-05-10T23:26:35Z</time></trkpt><trkpt lat="35.436153" lon="139.162325"><ele>945.64</ele><time>2024-05-10T23:26:50Z</time></trkpt><trkpt lat="35.4362949" lon="139.1621685"><ele>949.1</ele><time>2024-05-10T23:27:35Z</time></trkpt><trkpt lat="35.4364539" lon="139.162287"><ele>953.1</ele><time>2024-05-10T23:28:20Z</time></trkpt><trkpt lat="35.436646" lon="139.1622973"><ele>958.0600000000001</ele><time>2024-05-10T23:28:47Z</time></trkpt><trkpt lat="35.4368383" lon="139.1622855"><ele>965.3266666666667</ele><time>2024-05-10T23:29:14Z</time></trkpt><trkpt lat="35.4370218" lon="139.1622666"><ele>970.6066666666667</ele><time>2024-05-10T23:30:20Z</time></trkpt><trkpt lat="35.437205" lon="139.1622042"><ele>978.4066666666666</ele><time>2024-05-10T23:31:05Z</time></trkpt><trkpt lat="35.4373856" lon="139.1621485"><ele>986.4366666666666</ele><time>2024-05-10T23:31:59Z</time></trkpt><trkpt lat="35.4375689" lon="139.1621692"><ele>996.0500000000001</ele><time>2024-05-10T23:32:53Z</time></trkpt><trkpt lat="35.4377644" lon="139.1622199"><ele>1004.27</ele><time>2024-05-10T23:33:14Z</time></trkpt><trkpt lat="35.4379317" lon="139.1623139"><ele>1011.6533333333333</ele><time>2024-05-10T23:34:02Z</time></trkpt><trkpt lat="35.4380819" lon="139.1624391"><ele>1017.87</ele><time>2024-05-10T23:34:26Z</time></trkpt><trkpt lat="35.4382613" lon="139.1624151"><ele>1023.9266666666666</ele><time>2024-05-10T23:34:44Z</time></trkpt><trkpt lat="35.4384261" lon="139.1625158"><ele>1030.0933333333332</ele><time>2024-05-10T23:35:44Z</time></trkpt><trkpt lat="35.43859" lon="139.1626487"><ele>1037.44</ele><time>2024-05-10T23:36:08Z</time></trkpt><trkpt lat="35.4387533" lon="139.1627637"><ele>1044.5733333333335</ele><time>2024-05-10T23:37:17Z</time></trkpt><trkpt lat="35.4389036" lon="139.1628909"><ele>1052.6000000000001</ele><time>2024-05-10T23:37:53Z</time></trkpt><trkpt lat="35.4390796" lon="139.1629461"><ele>1060.41</ele><time>2024-05-10T23:38:29Z</time></trkpt><trkpt lat="35.4392111" lon="139.1631007"><ele>1069.4</ele><time>2024-05-10T23:39:32Z</time></trkpt><trkpt lat="35.4393868" lon="139.1631686"><ele>1077.8066666666666</ele><time>2024-05-10T23:40:32Z</time></trkpt><trkpt lat="35.4395863" lon="139.1632049"><ele>1086.256666666667</ele><time>2024-05-10T23:41:35Z</time></trkpt><trkpt lat="35.4397803" lon="139.1632263"><ele>1094.5233333333333</ele><time>2024-05-10T23:42:05Z</time></trkpt><trkpt lat="35.4399667" lon="139.1632527"><ele>1102.1000000000001</ele><time>2024-05-10T23:42:23Z</time></trkpt><trkpt lat="35.4401423" lon="139.1631951"><ele>1109.8133333333335</ele><time>2024-05-10T23:43:14Z</time></trkpt><trkpt lat="35.440294" lon="139.1630531"><ele>1115.6266666666668</ele><time>2024-05-10T23:43:38Z</time></trkpt><trkpt lat="35.4404557" lon="139.1629148"><ele>1120.6266666666668</ele><time>2024-05-10T23:43:59Z</time></trkpt><trkpt lat="35.4405715" lon="139.1626994"><ele>1122.67</ele><time>2024-05-10T23:44:20Z</time></trkpt><trkpt lat="35.4407569" lon="139.1626124"><ele>1123.92</ele><time>2024-05-10T23:44:35Z</time></trkpt><trkpt lat="35.4409347" lon="139.1625706"><ele>1125.0266666666666</ele><time>2024-05-10T23:44:50Z</time></trkpt><trkpt lat="35.4411346" lon="139.1625115"><ele>1126.64</ele><time>2024-05-10T23:45:05Z</time></trkpt><trkpt lat="35.4412847" lon="139.162354"><ele>1126.6533333333334</ele><time>2024-05-10T23:45:20Z</time></trkpt><trkpt lat="35.4414763" lon="139.1622702"><ele>1125.3933333333332</ele><time>2024-05-10T23:45:38Z</time></trkpt><trkpt lat="35.4416586" lon="139.1621877"><ele>1125.99</ele><time>2024-05-10T23:45:59Z</time></trkpt><trkpt lat="35.4418403" lon="139.1622"><ele>1129.91</ele><time>2024-05-10T23:46:23Z</time></trkpt><trkpt lat="35.4420288" lon="139.1622075"><ele>1137.2333333333333</ele><time>2024-05-10T23:46:50Z</time></trkpt><trkpt lat="35.4422277" lon="139.1622762"><ele>1144.5966666666668</ele><time>2024-05-10T23:47:53Z</time></trkpt><trkpt lat="35.4424143" lon="139.1623163"><ele>1150.256666666667</ele><time>2024-05-10T23:48:29Z</time></trkpt><trkpt lat="35.4425884" lon="139.1623793"><ele>1155.0600000000002</ele><time>2024-05-10T23:49:02Z</time></trkpt><trkpt lat="35.4427529" lon="139.1624818"><ele>1159.2533333333333</ele><time>2024-05-10T23:49:29Z</time></trkpt><trkpt lat="35.4429309" lon="139.1625266"><ele>1165.5266666666666</ele><time>2024-05-10T23:50:11Z</time></trkpt><trkpt lat="35.4431105" lon="139.1624919"><ele>1171.3400000000001</ele><time>2024-05-10T23:51:05Z</time></trkpt><trkpt lat="35.4432931" lon="139.1625479"><ele>1179.2433333333333</ele><time>2024-05-10T23:52:02Z</time></trkpt><trkpt lat="35.4434675" lon="139.1624722"><ele>1186.8799999999999</ele><time>2024-05-10T23:53:02Z</time></trkpt><trkpt lat="35.4436955" lon="139.1624695"><ele>1199.1633333333334</ele><time>2024-05-10T23:54:17Z</time></trkpt><trkpt lat="35.4438787" lon="139.1625482"><ele>1209.6366666666668</ele><time>2024-05-10T23:55:20Z</time></trkpt><trkpt lat="35.444059" lon="139.1625253"><ele>1220.7966666666669</ele><time>2024-05-10T23:56:32Z</time></trkpt><trkpt lat="35.4442264" lon="139.1626089"><ele>1228.9366666666665</ele><time>2024-05-10T23:57:41Z</time></trkpt><trkpt lat="35.4443865" lon="139.1627165"><ele>1238.0566666666666</ele><time>2024-05-10T23:58:32Z</time></trkpt><trkpt lat="35.4445524" lon="139.1628289"><ele>1246.72</ele><time>2024-05-11T00:00:17Z</time></trkpt><trkpt lat="35.4446935" lon="139.1626639"><ele>1255.0800000000002</ele><time>2024-05-11T00:03:20Z</time></trkpt><trkpt lat="35.4448878" lon="139.162712"><ele>1264.1499999999999</ele><time>2024-05-11T00:03:56Z</time></trkpt><trkpt lat="35.4450756" lon="139.162788"><ele>1273.22</ele><time>2024-05-11T00:04:44Z</time></trkpt><trkpt lat="35.4452946" lon="139.1626874"><ele>1283.9166666666667</ele><time>2024-05-11T00:05:32Z</time></trkpt><trkpt lat="35.4454994" lon="139.1626144"><ele>1292.8133333333333</ele><time>2024-05-11T00:06:14Z</time></trkpt><trkpt lat="35.4456493" lon="139.1624822"><ele>1299.8033333333333</ele><time>2024-05-11T00:06:50Z</time></trkpt><trkpt lat="35.4458798" lon="139.1624684"><ele>1303.4766666666667</ele><time>2024-05-11T00:07:44Z</time></trkpt><trkpt lat="35.4460339" lon="139.1625846"><ele>1306.7466666666667</ele><time>2024-05-11T00:08:02Z</time></trkpt><trkpt lat="35.4462167" lon="139.1625937"><ele>1311.77</ele><time>2024-05-11T00:08:26Z</time></trkpt><trkpt lat="35.4463745" lon="139.1624823"><ele>1317.5433333333333</ele><time>2024-05-11T00:08:59Z</time></trkpt><trkpt lat="35.4465614" lon="139.1624412"><ele>1323.47</ele><time>2024-05-11T00:09:41Z</time></trkpt><trkpt lat="35.4467066" lon="139.1622972"><ele>1328.6633333333332</ele><time>2024-05-11T00:11:02Z</time></trkpt><trkpt lat="35.4468548" lon="139.1621671"><ele>1334.3866666666665</ele><time>2024-05-11T00:11:38Z</time></trkpt><trkpt lat="35.4469993" lon="139.1620005"><ele>1340.9399999999998</ele><time>2024-05-11T00:12:24Z</time></trkpt><trkpt lat="35.4471514" lon="139.1618739"><ele>1347.8933333333332</ele><time>2024-05-11T00:13:21Z</time></trkpt><trkpt lat="35.4473313" lon="139.161838"><ele>1355.2600000000002</ele><time>2024-05-11T00:13:48Z</time></trkpt><trkpt lat="35.4475093" lon="139.1616731"><ele>1360.7166666666665</ele><time>2024-05-11T00:14:33Z</time></trkpt><trkpt lat="35.4476988" lon="139.1617109"><ele>1365.9533333333336</ele><time>2024-05-11T00:15:15Z</time></trkpt><trkpt lat="35.4478911" lon="139.1617073"><ele>1368.7366666666667</ele><time>2024-05-11T00:15:45Z</time></trkpt><trkpt lat="35.4480774" lon="139.1618293"><ele>1370.926666666667</ele><time>2024-05-11T00:16:03Z</time></trkpt><trkpt lat="35.4482568" lon="139.1617014"><ele>1371.3266666666668</ele><time>2024-05-11T00:16:24Z</time></trkpt><trkpt lat="35.4484983" lon="139.1617637"><ele>1371.0133333333333</ele><time>2024-05-11T00:16:45Z</time></trkpt><trkpt lat="35.4486789" lon="139.1617875"><ele>1368.8333333333333</ele><time>2024-05-11T00:17:00Z</time></trkpt><trkpt lat="35.4488643" lon="139.1618279"><ele>1368.5</ele><time>2024-05-11T00:17:18Z</time></trkpt><trkpt lat="35.4490392" lon="139.1617271"><ele>1368.47</ele><time>2024-05-11T00:17:36Z</time></trkpt><trkpt lat="35.4492118" lon="139.161643"><ele>1369.5266666666666</ele><time>2024-05-11T00:17:56Z</time></trkpt><trkpt lat="35.4493049" lon="139.1614116"><ele>1364.9133333333332</ele><time>2024-05-11T00:18:21Z</time></trkpt><trkpt lat="35.4494817" lon="139.1613399"><ele>1362.0266666666666</ele><time>2024-05-11T00:18:39Z</time></trkpt><trkpt lat="35.4496417" lon="139.1611852"><ele>1359.91</ele><time>2024-05-11T00:19:09Z</time></trkpt><trkpt lat="35.4497134" lon="139.1609816"><ele>1363.32</ele><time>2024-05-11T00:19:39Z</time></trkpt><trkpt lat="35.4499031" lon="139.1610136"><ele>1366.7133333333331</ele><time>2024-05-11T00:20:06Z</time></trkpt><trkpt lat="35.4501081" lon="139.1610745"><ele>1370.2</ele><time>2024-05-11T00:20:21Z</time></trkpt><trkpt lat="35.4502864" lon="139.1611251"><ele>1372.5633333333333</ele><time>2024-05-11T00:20:33Z</time></trkpt><trkpt lat="35.4504431" lon="139.1609631"><ele>1372.8700000000001</ele><time>2024-05-11T00:20:54Z</time></trkpt><trkpt lat="35.4506411" lon="139.1609898"><ele>1376.36</ele><time>2024-05-11T00:21:33Z</time></trkpt><trkpt lat="35.4508263" lon="139.1610459"><ele>1380.6200000000001</ele><time>2024-05-11T00:22:28Z</time></trkpt><trkpt lat="35.4510218" lon="139.16114"><ele>1386.2699999999998</ele><time>2024-05-11T00:22:58Z</time></trkpt><trkpt lat="35.4511928" lon="139.1612814"><ele>1390.3</ele><time>2024-05-11T00:23:22Z</time></trkpt><trkpt lat="35.451285" lon="139.1614858"><ele>1395.0233333333333</ele><time>2024-05-11T00:24:13Z</time></trkpt><trkpt lat="35.4514592" lon="139.1616047"><ele>1399.89</ele><time>2024-05-11T00:24:34Z</time></trkpt><trkpt lat="35.451587" lon="139.1617844"><ele>1403.3633333333335</ele><time>2024-05-11T00:24:49Z</time></trkpt><trkpt lat="35.4517421" lon="139.1619196"><ele>1405.1766666666665</ele><time>2024-05-11T00:25:04Z</time></trkpt><trkpt lat="35.4519418" lon="139.1619845"><ele>1406.7666666666667</ele><time>2024-05-11T00:25:22Z</time></trkpt><trkpt lat="35.4521105" lon="139.1620778"><ele>1408.8666666666668</ele><time>2024-05-11T00:25:46Z</time></trkpt><trkpt lat="35.4523133" lon="139.1620783"><ele>1412.716666666667</ele><time>2024-05-11T00:27:10Z</time></trkpt><trkpt lat="35.4524964" lon="139.1620918"><ele>1417.4766666666667</ele><time>2024-05-11T00:27:46Z</time></trkpt><trkpt lat="35.452676" lon="139.1622069"><ele>1423.1666666666667</ele><time>2024-05-11T00:28:19Z</time></trkpt><trkpt lat="35.4528328" lon="139.1623526"><ele>1428.29</ele><time>2024-05-11T00:28:40Z</time></trkpt><trkpt lat="35.4530051" lon="139.1624583"><ele>1434.2366666666667</ele><time>2024-05-11T00:29:07Z</time></trkpt><trkpt lat="35.4531503" lon="139.1626263"><ele>1440.82</ele><time>2024-05-11T00:30:36Z</time></trkpt><trkpt lat="35.4532316" lon="139.1628341"><ele>1447.993333333333</ele><time>2024-05-11T00:31:10Z</time></trkpt><trkpt lat="35.4533615" lon="139.1630031"><ele>1455.0600000000002</ele><time>2024-05-11T00:31:31Z</time></trkpt><trkpt lat="35.4535333" lon="139.1630742"><ele>1461.0533333333333</ele><time>2024-05-11T00:32:16Z</time></trkpt><trkpt lat="35.4536085" lon="139.1632874"><ele>1467.5566666666666</ele><time>2024-05-11T00:33:04Z</time></trkpt><trkpt lat="35.4538085" lon="139.1632719"><ele>1474.8466666666666</ele><time>2024-05-11T00:33:37Z</time></trkpt><trkpt lat="35.4539899" lon="139.1633504"><ele>1482.8533333333332</ele><time>2024-05-11T00:34:16Z</time></trkpt><trkpt lat="35.4541856" lon="139.1633548"><ele>1488.2600000000002</ele><time>2024-05-11T00:35:01Z</time></trkpt><trkpt lat="35.454371" lon="139.1632631"><ele>1490.4033333333334</ele><time>2024-05-11T00:36:31Z</time></trkpt><trkpt lat="35.4545741" lon="139.1631946"><ele>1489.55</ele><time>2024-05-11T00:54:01Z</time></trkpt><trkpt lat="35.4547361" lon="139.1633298"><ele>1487.22</ele><time>2024-05-11T00:54:16Z</time></trkpt><trkpt lat="35.4548949" lon="139.1634636"><ele>1484.33</ele><time>2024-05-11T00:54:49Z</time></trkpt><trkpt lat="35.4550367" lon="139.163672"><ele>1479.05</ele><time>2024-05-11T00:55:19Z</time></trkpt><trkpt lat="35.4552255" lon="139.1636804"><ele>1471.93</ele><time>2024-05-11T00:55:39Z</time></trkpt><trkpt lat="35.4553992" lon="139.1637623"><ele>1462.71</ele><time>2024-05-11T00:56:15Z</time></trkpt><trkpt lat="35.4554987" lon="139.163983"><ele>1454.0533333333333</ele><time>2024-05-11T00:56:37Z</time></trkpt><trkpt lat="35.4556809" lon="139.163986"><ele>1446.4233333333334</ele><time>2024-05-11T00:57:01Z</time></trkpt><trkpt lat="35.4558239" lon="139.1641582"><ele>1438.9633333333334</ele><time>2024-05-11T00:57:25Z</time></trkpt><trkpt lat="35.4559178" lon="139.1643698"><ele>1431.3933333333334</ele><time>2024-05-11T00:57:49Z</time></trkpt><trkpt lat="35.4561143" lon="139.1644317"><ele>1426.0066666666664</ele><time>2024-05-11T00:58:34Z</time></trkpt><trkpt lat="35.4561486" lon="139.1646611"><ele>1422.53</ele><time>2024-05-11T00:59:13Z</time></trkpt><trkpt lat="35.4562715" lon="139.1648451"><ele>1420.4466666666667</ele><time>2024-05-11T00:59:37Z</time></trkpt><trkpt lat="35.4564489" lon="139.1648864"><ele>1417.5033333333333</ele><time>2024-05-11T00:59:54Z</time></trkpt><trkpt lat="35.4564786" lon="139.1651102"><ele>1414.17</ele><time>2024-05-11T01:00:10Z</time></trkpt><trkpt lat="35.4566288" lon="139.1652776"><ele>1410.8066666666666</ele><time>2024-05-11T01:00:25Z</time></trkpt><trkpt lat="35.4568124" lon="139.1653338"><ele>1407.9833333333336</ele><time>2024-05-11T01:00:39Z</time></trkpt><trkpt lat="35.4570047" lon="139.1653037"><ele>1405.3966666666668</ele><time>2024-05-11T01:00:58Z</time></trkpt><trkpt lat="35.4571764" lon="139.165396"><ele>1403.4966666666667</ele><time>2024-05-11T01:01:22Z</time></trkpt><trkpt lat="35.4573658" lon="139.1653467"><ele>1401.926666666667</ele><time>2024-05-11T01:01:40Z</time></trkpt><trkpt lat="35.4575256" lon="139.1651859"><ele>1400.2366666666667</ele><time>2024-05-11T01:01:55Z</time></trkpt><trkpt lat="35.4576852" lon="139.1650688"><ele>1397.8866666666665</ele><time>2024-05-11T01:02:25Z</time></trkpt><trkpt lat="35.4579079" lon="139.1650424"><ele>1396.1533333333334</ele><time>2024-05-11T01:03:16Z</time></trkpt><trkpt lat="35.4580934" lon="139.1650347"><ele>1398.1333333333332</ele><time>2024-05-11T01:04:37Z</time></trkpt><trkpt lat="35.4582843" lon="139.1650355"><ele>1403.6866666666667</ele><time>2024-05-11T01:05:04Z</time></trkpt><trkpt lat="35.4584685" lon="139.1649971"><ele>1410.6166666666668</ele><time>2024-05-11T01:06:01Z</time></trkpt><trkpt lat="35.4586605" lon="139.1649874"><ele>1416.2533333333333</ele><time>2024-05-11T01:06:49Z</time></trkpt><trkpt lat="35.4588438" lon="139.1649856"><ele>1420.2300000000002</ele><time>2024-05-11T01:07:07Z</time></trkpt><trkpt lat="35.4590243" lon="139.1649408"><ele>1422.5199999999998</ele><time>2024-05-11T01:07:31Z</time></trkpt><trkpt lat="35.4592238" lon="139.1649362"><ele>1424.93</ele><time>2024-05-11T01:07:49Z</time></trkpt><trkpt lat="35.4593488" lon="139.1651232"><ele>1427.1266666666668</ele><time>2024-05-11T01:08:04Z</time></trkpt><trkpt lat="35.4595615" lon="139.1650925"><ele>1429.3133333333335</ele><time>2024-05-11T01:08:19Z</time></trkpt><trkpt lat="35.45974" lon="139.1650608"><ele>1428.6299999999999</ele><time>2024-05-11T01:08:34Z</time></trkpt><trkpt lat="35.4599518" lon="139.1650513"><ele>1426.4366666666667</ele><time>2024-05-11T01:08:52Z</time></trkpt><trkpt lat="35.4601494" lon="139.1650162"><ele>1423.8033333333335</ele><time>2024-05-11T01:09:07Z</time></trkpt><trkpt lat="35.4603632" lon="139.1650479"><ele>1422.7133333333334</ele><time>2024-05-11T01:09:22Z</time></trkpt><trkpt lat="35.4605785" lon="139.1651274"><ele>1423.7733333333333</ele><time>2024-05-11T01:09:40Z</time></trkpt><trkpt lat="35.460768" lon="139.1651205"><ele>1427.5633333333333</ele><time>2024-05-11T01:10:01Z</time></trkpt><trkpt lat="35.4609484" lon="139.1651279"><ele>1432.7033333333331</ele><time>2024-05-11T01:11:10Z</time></trkpt><trkpt lat="35.4611383" lon="139.1651576"><ele>1439.6299999999999</ele><time>2024-05-11T01:11:59Z</time></trkpt><trkpt lat="35.4613336" lon="139.165162"><ele>1446.32</ele><time>2024-05-11T01:12:29Z</time></trkpt><trkpt lat="35.4615212" lon="139.1651447"><ele>1453.1733333333332</ele><time>2024-05-11T01:12:59Z</time></trkpt><trkpt lat="35.461692" lon="139.1650548"><ele>1457.5666666666666</ele><time>2024-05-11T01:13:23Z</time></trkpt><trkpt lat="35.4618066" lon="139.165275"><ele>1459.6233333333332</ele><time>2024-05-11T01:13:44Z</time></trkpt><trkpt lat="35.4619419" lon="139.1654434"><ele>1459.7966666666669</ele><time>2024-05-11T01:13:59Z</time></trkpt><trkpt lat="35.4620695" lon="139.1656042"><ele>1459.7633333333333</ele><time>2024-05-11T01:14:14Z</time></trkpt><trkpt lat="35.4622088" lon="139.1657961"><ele>1459.99</ele><time>2024-05-11T01:14:32Z</time></trkpt><trkpt lat="35.4622874" lon="139.1660001"><ele>1460.2866666666669</ele><time>2024-05-11T01:14:49Z</time></trkpt><trkpt lat="35.4624995" lon="139.1660741"><ele>1460.1033333333332</ele><time>2024-05-11T01:15:08Z</time></trkpt><trkpt lat="35.4626887" lon="139.1661458"><ele>1457.9533333333336</ele><time>2024-05-11T01:15:41Z</time></trkpt><trkpt lat="35.4628747" lon="139.1661608"><ele>1453.6566666666668</ele><time>2024-05-11T01:15:56Z</time></trkpt><trkpt lat="35.4630561" lon="139.166091"><ele>1449.07</ele><time>2024-05-11T01:16:17Z</time></trkpt><trkpt lat="35.4632478" lon="139.1661238"><ele>1445.7066666666667</ele><time>2024-05-11T01:16:44Z</time></trkpt><trkpt lat="35.4634477" lon="139.1660525"><ele>1443.6133333333335</ele><time>2024-05-11T01:17:17Z</time></trkpt><trkpt lat="35.4636342" lon="139.1660722"><ele>1440.6033333333332</ele><time>2024-05-11T01:17:33Z</time></trkpt><trkpt lat="35.4638314" lon="139.1660554"><ele>1436.1200000000001</ele><time>2024-05-11T01:17:54Z</time></trkpt><trkpt lat="35.4640291" lon="139.1660144"><ele>1431.1433333333334</ele><time>2024-05-11T01:18:12Z</time></trkpt><trkpt lat="35.4642178" lon="139.1660737"><ele>1428.0433333333333</ele><time>2024-05-11T01:18:45Z</time></trkpt><trkpt lat="35.464372" lon="139.1659483"><ele>1428.4466666666667</ele><time>2024-05-11T01:19:06Z</time></trkpt><trkpt lat="35.4645555" lon="139.1659428"><ele>1433.33</ele><time>2024-05-11T01:19:45Z</time></trkpt><trkpt lat="35.4647362" lon="139.165877"><ele>1439.86</ele><time>2024-05-11T01:20:36Z</time></trkpt><trkpt lat="35.4649302" lon="139.1658197"><ele>1446.0833333333333</ele><time>2024-05-11T01:21:03Z</time></trkpt><trkpt lat="35.4651261" lon="139.1657908"><ele>1449.39</ele><time>2024-05-11T01:21:17Z</time></trkpt><trkpt lat="35.4653027" lon="139.1658952"><ele>1452.0</ele><time>2024-05-11T01:21:36Z</time></trkpt><trkpt lat="35.4654128" lon="139.1660899"><ele>1453.0566666666666</ele><time>2024-05-11T01:21:51Z</time></trkpt><trkpt lat="35.465539" lon="139.1662611"><ele>1453.7133333333334</ele><time>2024-05-11T01:22:21Z</time></trkpt><trkpt lat="35.4657176" lon="139.1661637"><ele>1453.5533333333333</ele><time>2024-05-11T01:22:36Z</time></trkpt><trkpt lat="35.4656846" lon="139.165918"><ele>1455.2033333333336</ele><time>2024-05-11T01:22:45Z</time></trkpt><trkpt lat="35.4658757" lon="139.1659331"><ele>1458.1833333333334</ele><time>2024-05-11T01:23:00Z</time></trkpt><trkpt lat="35.4660483" lon="139.1658198"><ele>1462.36</ele><time>2024-05-11T01:23:36Z</time></trkpt><trkpt lat="35.4662276" lon="139.1658963"><ele>1464.53</ele><time>2024-05-11T01:23:57Z</time></trkpt><trkpt lat="35.4664157" lon="139.1657951"><ele>1465.6566666666668</ele><time>2024-05-11T01:24:12Z</time></trkpt><trkpt lat="35.4666182" lon="139.1657392"><ele>1466.0233333333333</ele><time>2024-05-11T01:24:27Z</time></trkpt><trkpt lat="35.4667984" lon="139.1655907"><ele>1468.8266666666666</ele><time>2024-05-11T01:25:05Z</time></trkpt><trkpt lat="35.4669342" lon="139.1654099"><ele>1473.3133333333333</ele><time>2024-05-11T01:25:34Z</time></trkpt><trkpt lat="35.4671208" lon="139.1653293"><ele>1479.2033333333336</ele><time>2024-05-11T01:26:16Z</time></trkpt><trkpt lat="35.4673209" lon="139.1653756"><ele>1483.63</ele><time>2024-05-11T01:26:43Z</time></trkpt><trkpt lat="35.4674862" lon="139.1652629"><ele>1489.1633333333332</ele><time>2024-05-11T01:27:25Z</time></trkpt><trkpt lat="35.467655" lon="139.1651275"><ele>1494.1466666666668</ele><time>2024-05-11T01:27:55Z</time></trkpt><trkpt lat="35.4677704" lon="139.1653117"><ele>1497.8433333333335</ele><time>2024-05-11T01:28:16Z</time></trkpt><trkpt lat="35.4679702" lon="139.165278"><ele>1499.1633333333332</ele><time>2024-05-11T01:28:31Z</time></trkpt><trkpt lat="35.4681477" lon="139.1651647"><ele>1499.97</ele><time>2024-05-11T01:28:46Z</time></trkpt><trkpt lat="35.4683582" lon="139.165208"><ele>1500.9866666666667</ele><time>2024-05-11T01:29:04Z</time></trkpt><trkpt lat="35.4685463" lon="139.1651856"><ele>1501.1766666666665</ele><time>2024-05-11T01:29:22Z</time></trkpt><trkpt lat="35.4686631" lon="139.1650035"><ele>1498.6166666666666</ele><time>2024-05-11T01:29:34Z</time></trkpt><trkpt lat="35.4688651" lon="139.1649571"><ele>1495.33</ele><time>2024-05-11T01:29:52Z</time></trkpt><trkpt lat="35.469013" lon="139.1647747"><ele>1492.36</ele><time>2024-05-11T01:30:13Z</time></trkpt><trkpt lat="35.4691329" lon="139.1645904"><ele>1491.0233333333333</ele><time>2024-05-11T01:30:28Z</time></trkpt><trkpt lat="35.4693067" lon="139.1644512"><ele>1490.3533333333335</ele><time>2024-05-11T01:30:49Z</time></trkpt><trkpt lat="35.4693967" lon="139.1642582"><ele>1488.4233333333334</ele><time>2024-05-11T01:31:04Z</time></trkpt><trkpt lat="35.4694507" lon="139.1640149"><ele>1484.2699999999998</ele><time>2024-05-11T01:31:21Z</time></trkpt><trkpt lat="35.4696077" lon="139.1638842"><ele>1479.38</ele><time>2024-05-11T01:31:40Z</time></trkpt><trkpt lat="35.4697818" lon="139.1637669"><ele>1475.0166666666667</ele><time>2024-05-11T01:32:00Z</time></trkpt><trkpt lat="35.4699582" lon="139.1636364"><ele>1472.3833333333332</ele><time>2024-05-11T01:32:19Z</time></trkpt><trkpt lat="35.4701413" lon="139.1635145"><ele>1472.5133333333333</ele><time>2024-05-11T01:32:40Z</time></trkpt><trkpt lat="35.4703083" lon="139.1633659"><ele>1474.6200000000001</ele><time>2024-05-11T01:33:01Z</time></trkpt><trkpt lat="35.4705038" lon="139.1633501"><ele>1478.5500000000002</ele><time>2024-05-11T01:33:34Z</time></trkpt><trkpt lat="35.4707082" lon="139.1633771"><ele>1482.1200000000001</ele><time>2024-05-11T01:34:01Z</time></trkpt><trkpt lat="35.4708943" lon="139.1633039"><ele>1485.63</ele><time>2024-05-11T01:34:19Z</time></trkpt><trkpt lat="35.4710721" lon="139.1632528"><ele>1488.75</ele><time>2024-05-11T01:34:34Z</time></trkpt><trkpt lat="35.4712612" lon="139.1632366"><ele>1491.9233333333334</ele><time>2024-05-11T01:34:52Z</time></trkpt><trkpt lat="35.4714714" lon="139.1632148"><ele>1495.21</ele><time>2024-05-11T01:35:13Z</time></trkpt><trkpt lat="35.4716514" lon="139.1633021"><ele>1499.0466666666669</ele><time>2024-05-11T01:35:58Z</time></trkpt><trkpt lat="35.4718387" lon="139.1633512"><ele>1502.8733333333332</ele><time>2024-05-11T01:36:44Z</time></trkpt><trkpt lat="35.4720056" lon="139.1634789"><ele>1507.5633333333333</ele><time>2024-05-11T01:36:59Z</time></trkpt><trkpt lat="35.4721882" lon="139.1635707"><ele>1511.5833333333333</ele><time>2024-05-11T01:37:23Z</time></trkpt><trkpt lat="35.4723711" lon="139.163559"><ele>1516.5533333333333</ele><time>2024-05-11T01:37:53Z</time></trkpt><trkpt lat="35.4725458" lon="139.1634817"><ele>1521.43</ele><time>2024-05-11T01:38:53Z</time></trkpt><trkpt lat="35.472736" lon="139.1634617"><ele>1526.9266666666665</ele><time>2024-05-11T01:39:14Z</time></trkpt><trkpt lat="35.4729182" lon="139.1634598"><ele>1531.4466666666667</ele><time>2024-05-11T01:39:44Z</time></trkpt><trkpt lat="35.4731091" lon="139.1633738"><ele>1534.4400000000003</ele><time>2024-05-11T01:40:05Z</time></trkpt><trkpt lat="35.4733048" lon="139.1633582"><ele>1537.4466666666667</ele><time>2024-05-11T01:40:23Z</time></trkpt><trkpt lat="35.4734914" lon="139.1632729"><ele>1540.87</ele><time>2024-05-11T01:40:50Z</time></trkpt><trkpt lat="35.4736689" lon="139.163164"><ele>1544.6033333333335</ele><time>2024-05-11T01:41:14Z</time></trkpt><trkpt lat="35.4738326" lon="139.1630286"><ele>1549.0433333333333</ele><time>2024-05-11T01:41:41Z</time></trkpt><trkpt lat="35.4740098" lon="139.1629733"><ele>1553.9533333333336</ele><time>2024-05-11T01:42:32Z</time></trkpt><trkpt lat="35.4741638" lon="139.1628055"><ele>1559.4933333333336</ele><time>2024-05-11T01:43:08Z</time></trkpt><trkpt lat="35.4743277" lon="139.1626897"><ele>1563.2300000000002</ele><time>2024-05-11T01:43:53Z</time></trkpt><trkpt lat="35.4744917" lon="139.162798"><ele>1565.0</ele><time>2024-05-11T01:44:17Z</time></trkpt><trkpt lat="35.4745934" lon="139.1630045"><ele>1564.8666666666668</ele><time>2024-05-11T01:45:29Z</time></trkpt><trkpt lat="35.474758" lon="139.162913"><ele>1563.7766666666666</ele><time>2024-05-11T01:45:56Z</time></trkpt><trkpt lat="35.4745689" lon="139.1629155"><ele>1563.5600000000002</ele><time>2024-05-11T01:54:15Z</time></trkpt><trkpt lat="35.4744073" lon="139.1627784"><ele>1564.22</ele><time>2024-05-11T01:54:39Z</time></trkpt><trkpt lat="35.4742223" lon="139.1626884"><ele>1564.7933333333333</ele><time>2024-05-11T01:55:42Z</time></trkpt><trkpt lat="35.4741299" lon="139.1628853"><ele>1564.2133333333331</ele><time>2024-05-11T01:55:57Z</time></trkpt><trkpt lat="35.4740383" lon="139.1630855"><ele>1562.3366666666668</ele><time>2024-05-11T01:56:18Z</time></trkpt><trkpt lat="35.4738518" lon="139.1630382"><ele>1559.1166666666668</ele><time>2024-05-11T01:56:57Z</time></trkpt><trkpt lat="35.4736948" lon="139.163186"><ele>1554.6233333333332</ele><time>2024-05-11T01:57:12Z</time></trkpt><trkpt lat="35.4735211" lon="139.1632935"><ele>1549.5966666666666</ele><time>2024-05-11T01:57:36Z</time></trkpt><trkpt lat="35.4733471" lon="139.1633749"><ele>1545.5600000000002</ele><time>2024-05-11T01:58:15Z</time></trkpt><trkpt lat="35.4731463" lon="139.1634239"><ele>1541.7933333333333</ele><time>2024-05-11T01:58:39Z</time></trkpt><trkpt lat="35.4729395" lon="139.163448"><ele>1538.3700000000001</ele><time>2024-05-11T01:58:57Z</time></trkpt><trkpt lat="35.4727713" lon="139.1635536"><ele>1535.2633333333333</ele><time>2024-05-11T01:59:12Z</time></trkpt><trkpt lat="35.4725901" lon="139.1635266"><ele>1532.5600000000002</ele><time>2024-05-11T01:59:33Z</time></trkpt><trkpt lat="35.4724046" lon="139.1635239"><ele>1528.04</ele><time>2024-05-11T01:59:54Z</time></trkpt><trkpt lat="35.4722388" lon="139.1636309"><ele>1522.9233333333334</ele><time>2024-05-11T02:00:36Z</time></trkpt><trkpt lat="35.4720489" lon="139.1635636"><ele>1516.8700000000001</ele><time>2024-05-11T02:00:57Z</time></trkpt><trkpt lat="35.4718809" lon="139.1634292"><ele>1512.8933333333334</ele><time>2024-05-11T02:01:15Z</time></trkpt><trkpt lat="35.4716765" lon="139.1633543"><ele>1508.4433333333334</ele><time>2024-05-11T02:01:51Z</time></trkpt><trkpt lat="35.4715219" lon="139.1632104"><ele>1504.5566666666666</ele><time>2024-05-11T02:02:21Z</time></trkpt><trkpt lat="35.4713413" lon="139.1631325"><ele>1500.1166666666668</ele><time>2024-05-11T02:02:42Z</time></trkpt><trkpt lat="35.4711633" lon="139.1632226"><ele>1496.6466666666665</ele><time>2024-05-11T02:02:57Z</time></trkpt><trkpt lat="35.4709832" lon="139.1633262"><ele>1493.3433333333335</ele><time>2024-05-11T02:03:15Z</time></trkpt><trkpt lat="35.4708036" lon="139.1632839"><ele>1489.8066666666666</ele><time>2024-05-11T02:03:33Z</time></trkpt><trkpt lat="35.4706323" lon="139.1633736"><ele>1486.6766666666665</ele><time>2024-05-11T02:04:08Z</time></trkpt><trkpt lat="35.4704173" lon="139.1633575"><ele>1483.7966666666669</ele><time>2024-05-11T02:04:27Z</time></trkpt><trkpt lat="35.4702148" lon="139.1634845"><ele>1480.8333333333333</ele><time>2024-05-11T02:04:42Z</time></trkpt><trkpt lat="35.4700469" lon="139.1636247"><ele>1477.0466666666669</ele><time>2024-05-11T02:05:06Z</time></trkpt><trkpt lat="35.469994" lon="139.163844"><ele>1473.5866666666668</ele><time>2024-05-11T02:05:21Z</time></trkpt><trkpt lat="35.4697955" lon="139.1638095"><ele>1472.0866666666668</ele><time>2024-05-11T02:05:38Z</time></trkpt><trkpt lat="35.4696052" lon="139.1639085"><ele>1472.5966666666666</ele><time>2024-05-11T02:05:53Z</time></trkpt><trkpt lat="35.4695181" lon="139.1641105"><ele>1475.4366666666665</ele><time>2024-05-11T02:06:09Z</time></trkpt><trkpt lat="35.4694437" lon="139.1643281"><ele>1479.3133333333335</ele><time>2024-05-11T02:06:54Z</time></trkpt><trkpt lat="35.4693163" lon="139.1645192"><ele>1484.1733333333334</ele><time>2024-05-11T02:07:27Z</time></trkpt><trkpt lat="35.4691273" lon="139.1645619"><ele>1488.0233333333333</ele><time>2024-05-11T02:08:03Z</time></trkpt><trkpt lat="35.4690232" lon="139.1647638"><ele>1490.4399999999998</ele><time>2024-05-11T02:08:21Z</time></trkpt><trkpt lat="35.4688997" lon="139.1649529"><ele>1491.0266666666666</ele><time>2024-05-11T02:08:39Z</time></trkpt><trkpt lat="35.4687294" lon="139.1650706"><ele>1491.9366666666667</ele><time>2024-05-11T02:09:21Z</time></trkpt><trkpt lat="35.4685483" lon="139.1650885"><ele>1494.8700000000001</ele><time>2024-05-11T02:09:27Z</time></trkpt><trkpt lat="35.4683951" lon="139.1652327"><ele>1498.07</ele><time>2024-05-11T02:09:48Z</time></trkpt><trkpt lat="35.468206" lon="139.1651891"><ele>1501.0466666666664</ele><time>2024-05-11T02:10:15Z</time></trkpt><trkpt lat="35.4680053" lon="139.1651586"><ele>1501.9333333333334</ele><time>2024-05-11T02:10:33Z</time></trkpt><trkpt lat="35.4678014" lon="139.1651558"><ele>1502.3400000000001</ele><time>2024-05-11T02:10:48Z</time></trkpt><trkpt lat="35.4676357" lon="139.1652472"><ele>1501.0866666666668</ele><time>2024-05-11T02:11:09Z</time></trkpt><trkpt lat="35.4674393" lon="139.165344"><ele>1496.88</ele><time>2024-05-11T02:11:30Z</time></trkpt><trkpt lat="35.4672412" lon="139.1653924"><ele>1491.38</ele><time>2024-05-11T02:12:06Z</time></trkpt><trkpt lat="35.467343" lon="139.1655876"><ele>1485.96</ele><time>2024-05-11T02:12:27Z</time></trkpt><trkpt lat="35.4671655" lon="139.1653937"><ele>1484.0966666666666</ele><time>2024-05-11T02:13:24Z</time></trkpt><trkpt lat="35.4669539" lon="139.165493"><ele>1481.7300000000002</ele><time>2024-05-11T02:13:54Z</time></trkpt><trkpt lat="35.4667938" lon="139.1656218"><ele>1478.2033333333336</ele><time>2024-05-11T02:14:06Z</time></trkpt><trkpt lat="35.4666452" lon="139.1657963"><ele>1471.6499999999999</ele><time>2024-05-11T02:14:21Z</time></trkpt><trkpt lat="35.466465" lon="139.1658562"><ele>1467.3366666666668</ele><time>2024-05-11T02:14:41Z</time></trkpt><trkpt lat="35.4662612" lon="139.1658881"><ele>1464.9133333333332</ele><time>2024-05-11T02:15:05Z</time></trkpt><trkpt lat="35.4660627" lon="139.1659326"><ele>1465.0433333333333</ele><time>2024-05-11T02:15:22Z</time></trkpt><trkpt lat="35.4658801" lon="139.1659647"><ele>1462.8500000000001</ele><time>2024-05-11T02:15:49Z</time></trkpt><trkpt lat="35.4657081" lon="139.1661183"><ele>1460.0100000000002</ele><time>2024-05-11T02:16:05Z</time></trkpt><trkpt lat="35.4654752" lon="139.166149"><ele>1456.1200000000001</ele><time>2024-05-11T02:16:14Z</time></trkpt><trkpt lat="35.4653948" lon="139.1659417"><ele>1455.0366666666666</ele><time>2024-05-11T02:16:40Z</time></trkpt><trkpt lat="35.465202" lon="139.1659146"><ele>1453.9233333333334</ele><time>2024-05-11T02:17:06Z</time></trkpt><trkpt lat="35.4650238" lon="139.1658515"><ele>1453.3166666666666</ele><time>2024-05-11T02:17:26Z</time></trkpt><trkpt lat="35.4648431" lon="139.1658588"><ele>1451.3100000000002</ele><time>2024-05-11T02:17:57Z</time></trkpt><trkpt lat="35.4646769" lon="139.1660289"><ele>1448.36</ele><time>2024-05-11T02:18:27Z</time></trkpt><trkpt lat="35.4645106" lon="139.1661192"><ele>1443.13</ele><time>2024-05-11T02:19:12Z</time></trkpt><trkpt lat="35.4643158" lon="139.1660961"><ele>1436.7633333333333</ele><time>2024-05-11T02:19:27Z</time></trkpt><trkpt lat="35.4640935" lon="139.1660619"><ele>1430.4466666666667</ele><time>2024-05-11T02:20:06Z</time></trkpt><trkpt lat="35.4639342" lon="139.1661924"><ele>1427.51</ele><time>2024-05-11T02:20:21Z</time></trkpt><trkpt lat="35.4638206" lon="139.1660108"><ele>1427.6433333333334</ele><time>2024-05-11T02:20:45Z</time></trkpt><trkpt lat="35.4636482" lon="139.1661091"><ele>1431.39</ele><time>2024-05-11T02:21:27Z</time></trkpt><trkpt lat="35.4634503" lon="139.1660552"><ele>1436.1899999999998</ele><time>2024-05-11T02:22:12Z</time></trkpt><trkpt lat="35.4632511" lon="139.1660262"><ele>1440.4433333333334</ele><time>2024-05-11T02:22:30Z</time></trkpt><trkpt lat="35.4630757" lon="139.1660834"><ele>1443.4533333333336</ele><time>2024-05-11T02:22:48Z</time></trkpt><trkpt lat="35.4628723" lon="139.1660802"><ele>1446.0933333333335</ele><time>2024-05-11T02:23:12Z</time></trkpt><trkpt lat="35.4626869" lon="139.1660745"><ele>1450.05</ele><time>2024-05-11T02:23:36Z</time></trkpt><trkpt lat="35.4624934" lon="139.1660892"><ele>1454.6366666666665</ele><time>2024-05-11T02:24:09Z</time></trkpt><trkpt lat="35.4623114" lon="139.1661101"><ele>1458.3400000000001</ele><time>2024-05-11T02:24:42Z</time></trkpt><trkpt lat="35.4622839" lon="139.165883"><ele>1460.0766666666666</ele><time>2024-05-11T02:25:00Z</time></trkpt><trkpt lat="35.4621864" lon="139.1656763"><ele>1460.33</ele><time>2024-05-11T02:25:18Z</time></trkpt><trkpt lat="35.4620562" lon="139.1654944"><ele>1460.07</ele><time>2024-05-11T02:25:33Z</time></trkpt><trkpt lat="35.4619094" lon="139.1653191"><ele>1459.57</ele><time>2024-05-11T02:25:51Z</time></trkpt><trkpt lat="35.4617658" lon="139.1651721"><ele>1459.4933333333336</ele><time>2024-05-11T02:26:06Z</time></trkpt><trkpt lat="35.4615756" lon="139.1650993"><ele>1459.2766666666666</ele><time>2024-05-11T02:26:24Z</time></trkpt><trkpt lat="35.4614307" lon="139.1652566"><ele>1457.9066666666668</ele><time>2024-05-11T02:26:39Z</time></trkpt><trkpt lat="35.4612348" lon="139.1652204"><ele>1455.3233333333335</ele><time>2024-05-11T02:27:02Z</time></trkpt><trkpt lat="35.461053" lon="139.1651737"><ele>1450.3266666666668</ele><time>2024-05-11T02:27:35Z</time></trkpt><trkpt lat="35.4608629" lon="139.1651192"><ele>1444.0133333333335</ele><time>2024-05-11T02:27:58Z</time></trkpt><trkpt lat="35.460682" lon="139.1651194"><ele>1436.99</ele><time>2024-05-11T02:28:38Z</time></trkpt><trkpt lat="35.46048" lon="139.1651878"><ele>1430.3500000000001</ele><time>2024-05-11T02:28:59Z</time></trkpt><trkpt lat="35.4603099" lon="139.1651035"><ele>1425.8333333333333</ele><time>2024-05-11T02:29:14Z</time></trkpt><trkpt lat="35.4601164" lon="139.1651025"><ele>1422.9300000000003</ele><time>2024-05-11T02:29:29Z</time></trkpt><trkpt lat="35.4599426" lon="139.1650301"><ele>1422.5533333333333</ele><time>2024-05-11T02:29:44Z</time></trkpt><trkpt lat="35.459766" lon="139.1651001"><ele>1423.0566666666666</ele><time>2024-05-11T02:29:56Z</time></trkpt><trkpt lat="35.4595699" lon="139.1650825"><ele>1425.63</ele><time>2024-05-11T02:30:11Z</time></trkpt><trkpt lat="35.4593888" lon="139.1651104"><ele>1427.8233333333335</ele><time>2024-05-11T02:30:25Z</time></trkpt><trkpt lat="35.4592173" lon="139.1649683"><ele>1429.3133333333333</ele><time>2024-05-11T02:30:56Z</time></trkpt><trkpt lat="35.4589959" lon="139.1649749"><ele>1427.1266666666668</ele><time>2024-05-11T02:31:11Z</time></trkpt><trkpt lat="35.4587965" lon="139.1650485"><ele>1424.2033333333336</ele><time>2024-05-11T02:31:44Z</time></trkpt><trkpt lat="35.4586308" lon="139.1649613"><ele>1421.4733333333334</ele><time>2024-05-11T02:32:08Z</time></trkpt><trkpt lat="35.4584776" lon="139.1651013"><ele>1418.9833333333333</ele><time>2024-05-11T02:32:20Z</time></trkpt><trkpt lat="35.4582687" lon="139.1650608"><ele>1415.7333333333333</ele><time>2024-05-11T02:32:35Z</time></trkpt><trkpt lat="35.4580606" lon="139.1651123"><ele>1407.5766666666666</ele><time>2024-05-11T02:33:02Z</time></trkpt><trkpt lat="35.4578631" lon="139.1650959"><ele>1400.3166666666668</ele><time>2024-05-11T02:33:50Z</time></trkpt><trkpt lat="35.4576729" lon="139.1651681"><ele>1394.4366666666665</ele><time>2024-05-11T02:34:35Z</time></trkpt><trkpt lat="35.4574565" lon="139.1652302"><ele>1395.8933333333334</ele><time>2024-05-11T02:35:05Z</time></trkpt><trkpt lat="35.45737" lon="139.1654362"><ele>1397.9099999999999</ele><time>2024-05-11T02:35:29Z</time></trkpt><trkpt lat="35.4571774" lon="139.1654398"><ele>1400.5866666666668</ele><time>2024-05-11T02:35:44Z</time></trkpt><trkpt lat="35.4569748" lon="139.1654166"><ele>1401.5533333333333</ele><time>2024-05-11T02:35:59Z</time></trkpt><trkpt lat="35.4567803" lon="139.1653777"><ele>1402.5933333333335</ele><time>2024-05-11T02:36:17Z</time></trkpt><trkpt lat="35.4566187" lon="139.1652722"><ele>1405.1633333333332</ele><time>2024-05-11T02:37:05Z</time></trkpt><trkpt lat="35.456473" lon="139.1651215"><ele>1407.3433333333335</ele><time>2024-05-11T02:37:29Z</time></trkpt><trkpt lat="35.4564093" lon="139.1648902"><ele>1410.9433333333334</ele><time>2024-05-11T02:37:56Z</time></trkpt><trkpt lat="35.4562511" lon="139.1647579"><ele>1414.4833333333336</ele><time>2024-05-11T02:39:10Z</time></trkpt><trkpt lat="35.4561473" lon="139.1645663"><ele>1418.7700000000002</ele><time>2024-05-11T02:40:13Z</time></trkpt><trkpt lat="35.4560034" lon="139.1644329"><ele>1421.4566666666667</ele><time>2024-05-11T02:41:07Z</time></trkpt><trkpt lat="35.4558858" lon="139.1642431"><ele>1424.4133333333332</ele><time>2024-05-11T02:41:52Z</time></trkpt><trkpt lat="35.4557475" lon="139.1640814"><ele>1428.2399999999998</ele><time>2024-05-11T02:42:37Z</time></trkpt><trkpt lat="35.4555603" lon="139.163986"><ele>1436.1633333333332</ele><time>2024-05-11T02:42:58Z</time></trkpt><trkpt lat="35.4553952" lon="139.1638893"><ele>1444.3366666666668</ele><time>2024-05-11T02:43:43Z</time></trkpt><trkpt lat="35.4552391" lon="139.1637765"><ele>1452.5866666666668</ele><time>2024-05-11T02:44:34Z</time></trkpt><trkpt lat="35.4550541" lon="139.1637278"><ele>1461.243333333333</ele><time>2024-05-11T02:45:13Z</time></trkpt><trkpt lat="35.4548895" lon="139.1636096"><ele>1470.0866666666668</ele><time>2024-05-11T02:45:52Z</time></trkpt><trkpt lat="35.454775" lon="139.1634217"><ele>1478.61</ele><time>2024-05-11T02:46:28Z</time></trkpt><trkpt lat="35.4546402" lon="139.1632234"><ele>1483.4233333333334</ele><time>2024-05-11T02:46:49Z</time></trkpt><trkpt lat="35.4544333" lon="139.1631815"><ele>1486.87</ele><time>2024-05-11T02:47:10Z</time></trkpt><trkpt lat="35.4543099" lon="139.1633852"><ele>1488.8766666666668</ele><time>2024-05-11T02:58:52Z</time></trkpt><trkpt lat="35.4541869" lon="139.1632208"><ele>1490.2066666666667</ele><time>2024-05-11T02:59:43Z</time></trkpt><trkpt lat="35.4539983" lon="139.1632295"><ele>1490.1899999999998</ele><time>2024-05-11T03:00:28Z</time></trkpt><trkpt lat="35.4537992" lon="139.1632309"><ele>1488.0666666666666</ele><time>2024-05-11T03:02:31Z</time></trkpt><trkpt lat="35.453609" lon="139.1632485"><ele>1483.7266666666667</ele><time>2024-05-11T03:02:49Z</time></trkpt><trkpt lat="35.4537976" lon="139.1631549"><ele>1480.0733333333335</ele><time>2024-05-11T03:03:16Z</time></trkpt><trkpt lat="35.4535929" lon="139.1631934"><ele>1475.86</ele><time>2024-05-11T03:03:37Z</time></trkpt><trkpt lat="35.4534739" lon="139.1630071"><ele>1471.2600000000002</ele><time>2024-05-11T03:04:04Z</time></trkpt><trkpt lat="35.453281" lon="139.1628915"><ele>1464.5366666666669</ele><time>2024-05-11T03:04:19Z</time></trkpt><trkpt lat="35.4531232" lon="139.1627831"><ele>1457.82</ele><time>2024-05-11T03:04:33Z</time></trkpt><trkpt lat="35.4531263" lon="139.1625463"><ele>1451.6933333333334</ele><time>2024-05-11T03:04:54Z</time></trkpt><trkpt lat="35.4529776" lon="139.1624038"><ele>1444.6266666666668</ele><time>2024-05-11T03:05:19Z</time></trkpt><trkpt lat="35.4531085" lon="139.162625"><ele>1443.3033333333333</ele><time>2024-05-11T03:05:22Z</time></trkpt><trkpt lat="35.4529443" lon="139.1625088"><ele>1441.1800000000003</ele><time>2024-05-11T03:05:52Z</time></trkpt><trkpt lat="35.4528984" lon="139.1622863"><ele>1440.1433333333334</ele><time>2024-05-11T03:06:07Z</time></trkpt><trkpt lat="35.452699" lon="139.1622999"><ele>1434.0100000000002</ele><time>2024-05-11T03:06:25Z</time></trkpt><trkpt lat="35.4525598" lon="139.162148"><ele>1429.2733333333333</ele><time>2024-05-11T03:06:46Z</time></trkpt><trkpt lat="35.4523839" lon="139.1620651"><ele>1424.47</ele><time>2024-05-11T03:07:04Z</time></trkpt><trkpt lat="35.4522064" lon="139.162146"><ele>1419.3999999999999</ele><time>2024-05-11T03:07:31Z</time></trkpt><trkpt lat="35.4520398" lon="139.1620268"><ele>1414.39</ele><time>2024-05-11T03:07:55Z</time></trkpt><trkpt lat="35.4518615" lon="139.161939"><ele>1410.32</ele><time>2024-05-11T03:08:13Z</time></trkpt><trkpt lat="35.4516946" lon="139.1618471"><ele>1407.6866666666667</ele><time>2024-05-11T03:08:25Z</time></trkpt><trkpt lat="35.4515093" lon="139.1617872"><ele>1405.46</ele><time>2024-05-11T03:08:46Z</time></trkpt><trkpt lat="35.4513996" lon="139.161596"><ele>1404.1966666666667</ele><time>2024-05-11T03:09:04Z</time></trkpt><trkpt lat="35.4512911" lon="139.1614141"><ele>1401.7366666666667</ele><time>2024-05-11T03:09:25Z</time></trkpt><trkpt lat="35.4511531" lon="139.1612649"><ele>1399.2866666666669</ele><time>2024-05-11T03:09:46Z</time></trkpt><trkpt lat="35.4509533" lon="139.1611845"><ele>1395.8000000000002</ele><time>2024-05-11T03:10:09Z</time></trkpt><trkpt lat="35.4508003" lon="139.1610415"><ele>1391.67</ele><time>2024-05-11T03:10:24Z</time></trkpt><trkpt lat="35.4506249" lon="139.1609682"><ele>1386.426666666667</ele><time>2024-05-11T03:10:49Z</time></trkpt><trkpt lat="35.4504223" lon="139.1609819"><ele>1379.3633333333335</ele><time>2024-05-11T03:11:04Z</time></trkpt><trkpt lat="35.4502425" lon="139.1611128"><ele>1375.13</ele><time>2024-05-11T03:11:22Z</time></trkpt><trkpt lat="35.450046" lon="139.1611448"><ele>1372.61</ele><time>2024-05-11T03:11:39Z</time></trkpt><trkpt lat="35.4499408" lon="139.1609361"><ele>1372.08</ele><time>2024-05-11T03:11:58Z</time></trkpt><trkpt lat="35.4497736" lon="139.1610447"><ele>1370.5466666666664</ele><time>2024-05-11T03:12:25Z</time></trkpt><trkpt lat="35.4496124" lon="139.1612139"><ele>1367.18</ele><time>2024-05-11T03:12:46Z</time></trkpt><trkpt lat="35.449476" lon="139.1613871"><ele>1364.01</ele><time>2024-05-11T03:13:04Z</time></trkpt><trkpt lat="35.4492708" lon="139.161388"><ele>1358.97</ele><time>2024-05-11T03:13:28Z</time></trkpt><trkpt lat="35.4493082" lon="139.1616092"><ele>1360.3266666666666</ele><time>2024-05-11T03:13:58Z</time></trkpt><trkpt lat="35.4491015" lon="139.1616763"><ele>1363.4733333333334</ele><time>2024-05-11T03:14:13Z</time></trkpt><trkpt lat="35.4488824" lon="139.1616906"><ele>1367.67</ele><time>2024-05-11T03:14:34Z</time></trkpt><trkpt lat="35.4486852" lon="139.16177"><ele>1367.2533333333333</ele><time>2024-05-11T03:14:55Z</time></trkpt><trkpt lat="35.4485019" lon="139.1617262"><ele>1365.3533333333332</ele><time>2024-05-11T03:15:13Z</time></trkpt><trkpt lat="35.4483211" lon="139.1616549"><ele>1365.5666666666666</ele><time>2024-05-11T03:15:31Z</time></trkpt><trkpt lat="35.4481511" lon="139.1617289"><ele>1367.6500000000003</ele><time>2024-05-11T03:15:46Z</time></trkpt><trkpt lat="35.4479838" lon="139.1618264"><ele>1369.76</ele><time>2024-05-11T03:16:01Z</time></trkpt><trkpt lat="35.4478148" lon="139.1617173"><ele>1371.1366666666665</ele><time>2024-05-11T03:16:22Z</time></trkpt><trkpt lat="35.4476687" lon="139.1615698"><ele>1370.51</ele><time>2024-05-11T03:16:43Z</time></trkpt><trkpt lat="35.4474918" lon="139.1616947"><ele>1368.4099999999999</ele><time>2024-05-11T03:16:58Z</time></trkpt><trkpt lat="35.4473356" lon="139.1618583"><ele>1365.1233333333332</ele><time>2024-05-11T03:17:49Z</time></trkpt><trkpt lat="35.4471392" lon="139.1618403"><ele>1360.1733333333334</ele><time>2024-05-11T03:18:16Z</time></trkpt><trkpt lat="35.4469972" lon="139.1620157"><ele>1354.7166666666665</ele><time>2024-05-11T03:18:40Z</time></trkpt><trkpt lat="35.4468308" lon="139.1621243"><ele>1347.9133333333332</ele><time>2024-05-11T03:19:01Z</time></trkpt><trkpt lat="35.4466906" lon="139.1622869"><ele>1340.9399999999998</ele><time>2024-05-11T03:19:28Z</time></trkpt><trkpt lat="35.4465317" lon="139.1624622"><ele>1333.39</ele><time>2024-05-11T03:20:00Z</time></trkpt><trkpt lat="35.4463502" lon="139.162585"><ele>1327.14</ele><time>2024-05-11T03:20:18Z</time></trkpt><trkpt lat="35.4461918" lon="139.1627077"><ele>1319.51</ele><time>2024-05-11T03:20:39Z</time></trkpt><trkpt lat="35.4460455" lon="139.1625692"><ele>1314.58</ele><time>2024-05-11T03:20:57Z</time></trkpt><trkpt lat="35.4458507" lon="139.1624626"><ele>1309.3333333333333</ele><time>2024-05-11T03:21:19Z</time></trkpt><trkpt lat="35.4456972" lon="139.16259"><ele>1306.8700000000001</ele><time>2024-05-11T03:21:34Z</time></trkpt><trkpt lat="35.4455127" lon="139.1626872"><ele>1303.3466666666668</ele><time>2024-05-11T03:23:19Z</time></trkpt><trkpt lat="35.4453179" lon="139.1626712"><ele>1299.6733333333334</ele><time>2024-05-11T03:23:40Z</time></trkpt><trkpt lat="35.445122" lon="139.1626782"><ele>1293.8433333333335</ele><time>2024-05-11T03:24:01Z</time></trkpt><trkpt lat="35.4449511" lon="139.1628189"><ele>1286.3999999999999</ele><time>2024-05-11T03:24:27Z</time></trkpt><trkpt lat="35.444753" lon="139.1627427"><ele>1277.1533333333334</ele><time>2024-05-11T03:24:46Z</time></trkpt><trkpt lat="35.4445454" lon="139.1627475"><ele>1266.7766666666666</ele><time>2024-05-11T03:25:16Z</time></trkpt><trkpt lat="35.4443349" lon="139.162641"><ele>1255.5466666666669</ele><time>2024-05-11T03:26:01Z</time></trkpt><trkpt lat="35.4441442" lon="139.1625417"><ele>1244.6133333333335</ele><time>2024-05-11T03:26:33Z</time></trkpt><trkpt lat="35.4439679" lon="139.1625977"><ele>1235.42</ele><time>2024-05-11T03:27:19Z</time></trkpt><trkpt lat="35.4437887" lon="139.1625531"><ele>1226.2066666666667</ele><time>2024-05-11T03:28:04Z</time></trkpt><trkpt lat="35.4435964" lon="139.1625043"><ele>1216.7766666666666</ele><time>2024-05-11T03:28:46Z</time></trkpt><trkpt lat="35.4434215" lon="139.1625727"><ele>1207.1466666666668</ele><time>2024-05-11T03:29:43Z</time></trkpt><trkpt lat="35.4432285" lon="139.1626248"><ele>1197.0733333333333</ele><time>2024-05-11T03:30:31Z</time></trkpt><trkpt lat="35.4430445" lon="139.1626926"><ele>1187.6466666666668</ele><time>2024-05-11T03:30:52Z</time></trkpt><trkpt lat="35.4429392" lon="139.1625057"><ele>1179.0333333333335</ele><time>2024-05-11T03:31:13Z</time></trkpt><trkpt lat="35.4427345" lon="139.1624717"><ele>1171.7833333333333</ele><time>2024-05-11T03:31:52Z</time></trkpt><trkpt lat="35.4425552" lon="139.1623948"><ele>1165.0</ele><time>2024-05-11T03:32:19Z</time></trkpt><trkpt lat="35.4423251" lon="139.1623278"><ele>1158.5900000000001</ele><time>2024-05-11T03:32:39Z</time></trkpt><trkpt lat="35.4421313" lon="139.162336"><ele>1153.2766666666666</ele><time>2024-05-11T03:32:58Z</time></trkpt><trkpt lat="35.4419399" lon="139.1622484"><ele>1148.2</ele><time>2024-05-11T03:33:16Z</time></trkpt><trkpt lat="35.4417803" lon="139.1623621"><ele>1143.0366666666666</ele><time>2024-05-11T03:33:30Z</time></trkpt><trkpt lat="35.4415909" lon="139.1623954"><ele>1138.1366666666665</ele><time>2024-05-11T03:33:50Z</time></trkpt><trkpt lat="35.4414039" lon="139.1624389"><ele>1134.47</ele><time>2024-05-11T03:34:21Z</time></trkpt><trkpt lat="35.4411831" lon="139.162487"><ele>1131.966666666667</ele><time>2024-05-11T03:34:40Z</time></trkpt><trkpt lat="35.4410092" lon="139.1625948"><ele>1129.62</ele><time>2024-05-11T03:34:52Z</time></trkpt><trkpt lat="35.4408165" lon="139.1626362"><ele>1127.97</ele><time>2024-05-11T03:35:10Z</time></trkpt><trkpt lat="35.4406343" lon="139.1626846"><ele>1126.13</ele><time>2024-05-11T03:35:25Z</time></trkpt><trkpt lat="35.4404992" lon="139.16286"><ele>1125.0533333333335</ele><time>2024-05-11T03:35:40Z</time></trkpt><trkpt lat="35.4403299" lon="139.1629966"><ele>1123.67</ele><time>2024-05-11T03:35:55Z</time></trkpt><trkpt lat="35.4401731" lon="139.1631905"><ele>1121.3000000000002</ele><time>2024-05-11T03:36:16Z</time></trkpt><trkpt lat="35.4400025" lon="139.1633361"><ele>1116.6499999999999</ele><time>2024-05-11T03:36:40Z</time></trkpt><trkpt lat="35.4398214" lon="139.1633588"><ele>1110.4399999999998</ele><time>2024-05-11T03:37:07Z</time></trkpt><trkpt lat="35.439633" lon="139.1633102"><ele>1104.23</ele><time>2024-05-11T03:37:22Z</time></trkpt><trkpt lat="35.4394291" lon="139.163321"><ele>1097.533333333333</ele><time>2024-05-11T03:37:43Z</time></trkpt><trkpt lat="35.4392509" lon="139.1632256"><ele>1089.9133333333332</ele><time>2024-05-11T03:38:07Z</time></trkpt><trkpt lat="35.4391107" lon="139.1630821"><ele>1081.11</ele><time>2024-05-11T03:38:25Z</time></trkpt><trkpt lat="35.4389632" lon="139.162947"><ele>1072.1333333333334</ele><time>2024-05-11T03:39:08Z</time></trkpt><trkpt lat="35.4387706" lon="139.162959"><ele>1063.53</ele><time>2024-05-11T03:39:32Z</time></trkpt><trkpt lat="35.4385902" lon="139.1630062"><ele>1056.1833333333334</ele><time>2024-05-11T03:39:53Z</time></trkpt><trkpt lat="35.43845" lon="139.16281"><ele>1049.75</ele><time>2024-05-11T03:40:11Z</time></trkpt><trkpt lat="35.4384626" lon="139.1625733"><ele>1044.7266666666667</ele><time>2024-05-11T03:40:26Z</time></trkpt><trkpt lat="35.4385288" lon="139.1623657"><ele>1039.95</ele><time>2024-05-11T03:40:47Z</time></trkpt><trkpt lat="35.438457" lon="139.1621129"><ele>1031.8266666666668</ele><time>2024-05-11T03:41:06Z</time></trkpt><trkpt lat="35.4383515" lon="139.1625458"><ele>1030.4933333333333</ele><time>2024-05-11T03:41:09Z</time></trkpt><trkpt lat="35.4381548" lon="139.1625722"><ele>1027.46</ele><time>2024-05-11T03:41:31Z</time></trkpt><trkpt lat="35.4379976" lon="139.1623929"><ele>1027.91</ele><time>2024-05-11T03:42:04Z</time></trkpt><trkpt lat="35.4378337" lon="139.1622869"><ele>1021.02</ele><time>2024-05-11T03:42:19Z</time></trkpt><trkpt lat="35.4376493" lon="139.1622846"><ele>1014.57</ele><time>2024-05-11T03:42:34Z</time></trkpt><trkpt lat="35.4374641" lon="139.1621678"><ele>1008.4966666666666</ele><time>2024-05-11T03:42:58Z</time></trkpt><trkpt lat="35.4373464" lon="139.162368"><ele>1001.4</ele><time>2024-05-11T03:43:43Z</time></trkpt><trkpt lat="35.4371559" lon="139.1624204"><ele>993.5066666666667</ele><time>2024-05-11T03:44:51Z</time></trkpt><trkpt lat="35.4370092" lon="139.1622644"><ele>984.6866666666666</ele><time>2024-05-11T03:45:37Z</time></trkpt><trkpt lat="35.4368075" lon="139.1623528"><ele>976.3133333333334</ele><time>2024-05-11T03:45:55Z</time></trkpt><trkpt lat="35.4366211" lon="139.1623906"><ele>970.23</ele><time>2024-05-11T03:46:10Z</time></trkpt><trkpt lat="35.436446" lon="139.1622709"><ele>963.6933333333333</ele><time>2024-05-11T03:46:39Z</time></trkpt><trkpt lat="35.4362657" lon="139.1621666"><ele>957.0766666666667</ele><time>2024-05-11T03:47:18Z</time></trkpt><trkpt lat="35.4362854" lon="139.1623951"><ele>953.66</ele><time>2024-05-11T03:47:37Z</time></trkpt><trkpt lat="35.4362467" lon="139.1626279"><ele>948.7366666666667</ele><time>2024-05-11T03:47:52Z</time></trkpt><trkpt lat="35.4364253" lon="139.1627167"><ele>948.9233333333333</ele><time>2024-05-11T03:48:07Z</time></trkpt><trkpt lat="35.4363134" lon="139.162975"><ele>941.7733333333334</ele><time>2024-05-11T03:48:37Z</time></trkpt><trkpt lat="35.4361128" lon="139.1630757"><ele>938.7766666666666</ele><time>2024-05-11T03:48:55Z</time></trkpt><trkpt lat="35.4359251" lon="139.1631734"><ele>932.2666666666668</ele><time>2024-05-11T03:49:10Z</time></trkpt><trkpt lat="35.4357646" lon="139.1632946"><ele>928.2633333333333</ele><time>2024-05-11T03:49:28Z</time></trkpt><trkpt lat="35.435897" lon="139.1634464"><ele>924.6066666666667</ele><time>2024-05-11T03:49:46Z</time></trkpt><trkpt lat="35.4357551" lon="139.1636391"><ele>919.96</ele><time>2024-05-11T03:50:01Z</time></trkpt><trkpt lat="35.4355529" lon="139.1635354"><ele>916.89</ele><time>2024-05-11T03:50:13Z</time></trkpt><trkpt lat="35.4353485" lon="139.1635724"><ele>914.1533333333333</ele><time>2024-05-11T03:50:28Z</time></trkpt><trkpt lat="35.4351457" lon="139.1634903"><ele>912.5133333333333</ele><time>2024-05-11T03:50:43Z</time></trkpt><trkpt lat="35.4349528" lon="139.1634535"><ele>911.32</ele><time>2024-05-11T03:51:00Z</time></trkpt><trkpt lat="35.4347991" lon="139.1636026"><ele>912.3133333333334</ele><time>2024-05-11T03:51:16Z</time></trkpt><trkpt lat="35.4346317" lon="139.1637183"><ele>915.4933333333333</ele><time>2024-05-11T03:51:37Z</time></trkpt><trkpt lat="35.4344688" lon="139.1638427"><ele>919.2433333333333</ele><time>2024-05-11T03:51:58Z</time></trkpt><trkpt lat="35.434336" lon="139.1636673"><ele>921.12</ele><time>2024-05-11T03:52:22Z</time></trkpt><trkpt lat="35.4341527" lon="139.1636755"><ele>922.2366666666667</ele><time>2024-05-11T03:52:46Z</time></trkpt><trkpt lat="35.4339488" lon="139.1635761"><ele>923.6633333333334</ele><time>2024-05-11T03:53:07Z</time></trkpt><trkpt lat="35.433751" lon="139.1636721"><ele>924.9466666666667</ele><time>2024-05-11T03:53:25Z</time></trkpt><trkpt lat="35.4335627" lon="139.1637111"><ele>926.3233333333334</ele><time>2024-05-11T03:53:52Z</time></trkpt><trkpt lat="35.4333742" lon="139.1638104"><ele>928.6866666666668</ele><time>2024-05-11T03:54:08Z</time></trkpt><trkpt lat="35.4332278" lon="139.1639465"><ele>930.9366666666668</ele><time>2024-05-11T03:54:26Z</time></trkpt><trkpt lat="35.433045" lon="139.164052"><ele>934.6466666666669</ele><time>2024-05-11T03:54:44Z</time></trkpt><trkpt lat="35.432841" lon="139.1641205"><ele>937.0833333333334</ele><time>2024-05-11T03:55:02Z</time></trkpt><trkpt lat="35.4326639" lon="139.1640021"><ele>939.73</ele><time>2024-05-11T03:55:17Z</time></trkpt><trkpt lat="35.432485" lon="139.1639255"><ele>939.6033333333334</ele><time>2024-05-11T03:55:35Z</time></trkpt><trkpt lat="35.4322774" lon="139.1638839"><ele>938.25</ele><time>2024-05-11T03:55:50Z</time></trkpt><trkpt lat="35.4320582" lon="139.1637405"><ele>935.9166666666666</ele><time>2024-05-11T03:56:08Z</time></trkpt><trkpt lat="35.4318425" lon="139.1637383"><ele>933.91</ele><time>2024-05-11T03:56:23Z</time></trkpt><trkpt lat="35.4316476" lon="139.1637501"><ele>932.75</ele><time>2024-05-11T03:56:38Z</time></trkpt><trkpt lat="35.4314487" lon="139.1637221"><ele>932.4366666666668</ele><time>2024-05-11T03:56:53Z</time></trkpt><trkpt lat="35.4312573" lon="139.1637866"><ele>932.0366666666667</ele><time>2024-05-11T03:57:08Z</time></trkpt><trkpt lat="35.4310795" lon="139.1638812"><ele>931.5833333333334</ele><time>2024-05-11T03:57:23Z</time></trkpt><trkpt lat="35.4308991" lon="139.16382"><ele>930.6066666666667</ele><time>2024-05-11T03:57:38Z</time></trkpt><trkpt lat="35.4307183" lon="139.163931"><ele>928.7433333333333</ele><time>2024-05-11T03:57:53Z</time></trkpt><trkpt lat="35.4306431" lon="139.1641604"><ele>926.8066666666667</ele><time>2024-05-11T03:58:08Z</time></trkpt><trkpt lat="35.4304558" lon="139.1642365"><ele>924.1233333333333</ele><time>2024-05-11T03:58:20Z</time></trkpt><trkpt lat="35.4303016" lon="139.1643951"><ele>922.2966666666667</ele><time>2024-05-11T03:58:47Z</time></trkpt><trkpt lat="35.4301391" lon="139.1645042"><ele>920.29</ele><time>2024-05-11T03:58:56Z</time></trkpt><trkpt lat="35.4299669" lon="139.1646097"><ele>918.2600000000001</ele><time>2024-05-11T03:59:14Z</time></trkpt><trkpt lat="35.4297865" lon="139.1647002"><ele>916.1866666666666</ele><time>2024-05-11T03:59:29Z</time></trkpt><trkpt lat="35.4295819" lon="139.1648055"><ele>914.0</ele><time>2024-05-11T03:59:47Z</time></trkpt><trkpt lat="35.4294089" lon="139.1650029"><ele>911.5099999999999</ele><time>2024-05-11T04:00:05Z</time></trkpt><trkpt lat="35.429251" lon="139.1651158"><ele>907.43</ele><time>2024-05-11T04:00:17Z</time></trkpt><trkpt lat="35.4290508" lon="139.1651997"><ele>903.9899999999999</ele><time>2024-05-11T04:00:32Z</time></trkpt><trkpt lat="35.4288635" lon="139.1652472"><ele>901.77</ele><time>2024-05-11T04:00:47Z</time></trkpt><trkpt lat="35.4287317" lon="139.1654655"><ele>899.3866666666667</ele><time>2024-05-11T04:01:05Z</time></trkpt><trkpt lat="35.4285986" lon="139.1656635"><ele>896.0466666666666</ele><time>2024-05-11T04:01:23Z</time></trkpt><trkpt lat="35.4284599" lon="139.1658476"><ele>891.2533333333334</ele><time>2024-05-11T04:01:37Z</time></trkpt><trkpt lat="35.4282779" lon="139.1660129"><ele>886.2566666666668</ele><time>2024-05-11T04:02:23Z</time></trkpt><trkpt lat="35.4282504" lon="139.1662483"><ele>879.0066666666667</ele><time>2024-05-11T04:02:46Z</time></trkpt><trkpt lat="35.428139" lon="139.1664305"><ele>870.6566666666668</ele><time>2024-05-11T04:03:04Z</time></trkpt><trkpt lat="35.4280475" lon="139.1666456"><ele>861.7733333333334</ele><time>2024-05-11T04:03:32Z</time></trkpt><trkpt lat="35.4278779" lon="139.1665356"><ele>856.7033333333334</ele><time>2024-05-11T04:03:46Z</time></trkpt><trkpt lat="35.4280239" lon="139.1666699"><ele>852.3666666666667</ele><time>2024-05-11T04:04:01Z</time></trkpt><trkpt lat="35.427871" lon="139.1668216"><ele>848.9433333333333</ele><time>2024-05-11T04:04:20Z</time></trkpt><trkpt lat="35.4277238" lon="139.1666664"><ele>845.09</ele><time>2024-05-11T04:04:32Z</time></trkpt><trkpt lat="35.4275299" lon="139.166592"><ele>842.5966666666667</ele><time>2024-05-11T04:04:53Z</time></trkpt><trkpt lat="35.4273599" lon="139.1666745"><ele>838.6100000000001</ele><time>2024-05-11T04:05:20Z</time></trkpt><trkpt lat="35.4271785" lon="139.1666768"><ele>833.68</ele><time>2024-05-11T04:05:35Z</time></trkpt><trkpt lat="35.4270222" lon="139.1668424"><ele>825.0033333333334</ele><time>2024-05-11T04:05:53Z</time></trkpt><trkpt lat="35.4268058" lon="139.1668273"><ele>818.2233333333334</ele><time>2024-05-11T04:06:11Z</time></trkpt><trkpt lat="35.4266028" lon="139.1667543"><ele>811.0533333333333</ele><time>2024-05-11T04:06:29Z</time></trkpt><trkpt lat="35.4264055" lon="139.1667572"><ele>806.8566666666667</ele><time>2024-05-11T04:06:47Z</time></trkpt><trkpt lat="35.4262129" lon="139.166797"><ele>803.82</ele><time>2024-05-11T04:07:02Z</time></trkpt><trkpt lat="35.4260165" lon="139.1667698"><ele>801.0833333333334</ele><time>2024-05-11T04:07:17Z</time></trkpt><trkpt lat="35.4258261" lon="139.1666947"><ele>799.3633333333333</ele><time>2024-05-11T04:07:32Z</time></trkpt><trkpt lat="35.4256955" lon="139.1664958"><ele>798.32</ele><time>2024-05-11T04:07:47Z</time></trkpt><trkpt lat="35.4254911" lon="139.1664624"><ele>798.9433333333333</ele><time>2024-05-11T04:07:59Z</time></trkpt><trkpt lat="35.4252792" lon="139.1663695"><ele>799.41</ele><time>2024-05-11T04:08:14Z</time></trkpt><trkpt lat="35.4251203" lon="139.1662331"><ele>798.9200000000001</ele><time>2024-05-11T04:08:29Z</time></trkpt><trkpt lat="35.4249149" lon="139.1661591"><ele>796.3000000000001</ele><time>2024-05-11T04:08:44Z</time></trkpt><trkpt lat="35.4247182" lon="139.1660845"><ele>792.6433333333333</ele><time>2024-05-11T04:08:59Z</time></trkpt><trkpt lat="35.4245421" lon="139.1659726"><ele>789.1700000000001</ele><time>2024-05-11T04:09:14Z</time></trkpt><trkpt lat="35.4243645" lon="139.1658813"><ele>786.7833333333334</ele><time>2024-05-11T04:09:29Z</time></trkpt><trkpt lat="35.4242012" lon="139.1657361"><ele>784.73</ele><time>2024-05-11T04:09:43Z</time></trkpt><trkpt lat="35.4240129" lon="139.1656483"><ele>782.8566666666667</ele><time>2024-05-11T04:09:59Z</time></trkpt><trkpt lat="35.423827" lon="139.1655275"><ele>780.0033333333334</ele><time>2024-05-11T04:10:11Z</time></trkpt><trkpt lat="35.4236642" lon="139.1654017"><ele>777.3566666666667</ele><time>2024-05-11T04:10:29Z</time></trkpt><trkpt lat="35.4235295" lon="139.1652461"><ele>773.0066666666668</ele><time>2024-05-11T04:10:44Z</time></trkpt><trkpt lat="35.4233115" lon="139.1651866"><ele>768.6300000000001</ele><time>2024-05-11T04:11:01Z</time></trkpt><trkpt lat="35.4232355" lon="139.1649863"><ele>763.2033333333334</ele><time>2024-05-11T04:11:32Z</time></trkpt><trkpt lat="35.4231321" lon="139.1647939"><ele>757.9766666666668</ele><time>2024-05-11T04:11:47Z</time></trkpt><trkpt lat="35.4229862" lon="139.164662"><ele>752.0666666666666</ele><time>2024-05-11T04:12:02Z</time></trkpt><trkpt lat="35.4228068" lon="139.1645995"><ele>746.75</ele><time>2024-05-11T04:12:19Z</time></trkpt><trkpt lat="35.4227304" lon="139.1643874"><ele>741.41</ele><time>2024-05-11T04:12:38Z</time></trkpt><trkpt lat="35.4225733" lon="139.1642123"><ele>736.0866666666667</ele><time>2024-05-11T04:13:02Z</time></trkpt><trkpt lat="35.4224861" lon="139.1640006"><ele>730.1166666666667</ele><time>2024-05-11T04:13:35Z</time></trkpt><trkpt lat="35.4223201" lon="139.1638693"><ele>723.9333333333334</ele><time>2024-05-11T04:13:53Z</time></trkpt><trkpt lat="35.4221726" lon="139.1636997"><ele>718.1766666666666</ele><time>2024-05-11T04:14:14Z</time></trkpt><trkpt lat="35.4221486" lon="139.1634621"><ele>714.2033333333334</ele><time>2024-05-11T04:14:28Z</time></trkpt><trkpt lat="35.4220133" lon="139.1633145"><ele>710.8833333333332</ele><time>2024-05-11T04:14:46Z</time></trkpt><trkpt lat="35.4218278" lon="139.1632406"><ele>706.5733333333333</ele><time>2024-05-11T04:15:01Z</time></trkpt><trkpt lat="35.4216714" lon="139.1631149"><ele>700.94</ele><time>2024-05-11T04:15:22Z</time></trkpt><trkpt lat="35.4214632" lon="139.1630062"><ele>694.9633333333333</ele><time>2024-05-11T04:15:44Z</time></trkpt><trkpt lat="35.4212964" lon="139.1628352"><ele>689.1633333333333</ele><time>2024-05-11T04:15:59Z</time></trkpt><trkpt lat="35.4211734" lon="139.162645"><ele>683.4133333333333</ele><time>2024-05-11T04:16:13Z</time></trkpt><trkpt lat="35.4210641" lon="139.162427"><ele>676.9566666666666</ele><time>2024-05-11T04:16:29Z</time></trkpt><trkpt lat="35.4208651" lon="139.1624592"><ele>671.5500000000001</ele><time>2024-05-11T04:16:53Z</time></trkpt><trkpt lat="35.4207276" lon="139.1622824"><ele>663.9566666666667</ele><time>2024-05-11T04:17:17Z</time></trkpt><trkpt lat="35.4205858" lon="139.1624187"><ele>657.1233333333333</ele><time>2024-05-11T04:17:59Z</time></trkpt><trkpt lat="35.4203795" lon="139.1623466"><ele>647.0633333333333</ele><time>2024-05-11T04:18:17Z</time></trkpt><trkpt lat="35.4202283" lon="139.1622202"><ele>637.5</ele><time>2024-05-11T04:18:35Z</time></trkpt><trkpt lat="35.4200719" lon="139.1621063"><ele>627.3299999999999</ele><time>2024-05-11T04:18:50Z</time></trkpt><trkpt lat="35.4199072" lon="139.1622123"><ele>620.8066666666667</ele><time>2024-05-11T04:19:44Z</time></trkpt><trkpt lat="35.4198618" lon="139.1619717"><ele>616.2966666666666</ele><time>2024-05-11T04:19:59Z</time></trkpt><trkpt lat="35.4196784" lon="139.1618844"><ele>613.3733333333333</ele><time>2024-05-11T04:21:27Z</time></trkpt><trkpt lat="35.4194895" lon="139.1619961"><ele>610.1633333333333</ele><time>2024-05-11T04:21:43Z</time></trkpt><trkpt lat="35.4193158" lon="139.1620741"><ele>606.71</ele><time>2024-05-11T04:21:59Z</time></trkpt><trkpt lat="35.4191127" lon="139.1620838"><ele>604.15</ele><time>2024-05-11T04:22:14Z</time></trkpt><trkpt lat="35.4189133" lon="139.1621511"><ele>602.4266666666666</ele><time>2024-05-11T04:22:29Z</time></trkpt><trkpt lat="35.4187235" lon="139.1621836"><ele>601.9966666666666</ele><time>2024-05-11T04:22:44Z</time></trkpt><trkpt lat="35.4185331" lon="139.1621097"><ele>601.4233333333333</ele><time>2024-05-11T04:22:59Z</time></trkpt><trkpt lat="35.418354" lon="139.1622057"><ele>600.35</ele><time>2024-05-11T04:23:14Z</time></trkpt><trkpt lat="35.4181639" lon="139.1621792"><ele>600.2333333333333</ele><time>2024-05-11T04:23:29Z</time></trkpt><trkpt lat="35.4179856" lon="139.1622578"><ele>598.9466666666667</ele><time>2024-05-11T04:23:44Z</time></trkpt><trkpt lat="35.4177951" lon="139.1622936"><ele>596.9200000000001</ele><time>2024-05-11T04:24:02Z</time></trkpt><trkpt lat="35.4175956" lon="139.1623112"><ele>593.9266666666666</ele><time>2024-05-11T04:24:17Z</time></trkpt><trkpt lat="35.417406" lon="139.1623251"><ele>591.7533333333334</ele><time>2024-05-11T04:24:32Z</time></trkpt><trkpt lat="35.4172857" lon="139.1625242"><ele>588.2666666666668</ele><time>2024-05-11T04:24:50Z</time></trkpt><trkpt lat="35.4171644" lon="139.1626986"><ele>582.1366666666667</ele><time>2024-05-11T04:25:05Z</time></trkpt><trkpt lat="35.4169979" lon="139.1625733"><ele>577.9833333333332</ele><time>2024-05-11T04:25:20Z</time></trkpt><trkpt lat="35.4168882" lon="139.1623784"><ele>579.2833333333333</ele><time>2024-05-11T04:25:35Z</time></trkpt><trkpt lat="35.4166806" lon="139.1624528"><ele>577.9066666666666</ele><time>2024-05-11T04:25:50Z</time></trkpt><trkpt lat="35.4165131" lon="139.162608"><ele>572.3366666666667</ele><time>2024-05-11T04:26:11Z</time></trkpt><trkpt lat="35.4163092" lon="139.162572"><ele>562.5100000000001</ele><time>2024-05-11T04:26:29Z</time></trkpt><trkpt lat="35.4161383" lon="139.1624846"><ele>558.8166666666667</ele><time>2024-05-11T04:26:44Z</time></trkpt><trkpt lat="35.4159512" lon="139.1625629"><ele>555.8000000000001</ele><time>2024-05-11T04:27:02Z</time></trkpt><trkpt lat="35.4158888" lon="139.1627974"><ele>550.4766666666666</ele><time>2024-05-11T04:27:17Z</time></trkpt><trkpt lat="35.4157023" lon="139.1628454"><ele>544.1433333333333</ele><time>2024-05-11T04:27:44Z</time></trkpt><trkpt lat="35.4155568" lon="139.1626934"><ele>541.6866666666666</ele><time>2024-05-11T04:28:05Z</time></trkpt><trkpt lat="35.4154348" lon="139.1629334"><ele>539.1166666666667</ele><time>2024-05-11T04:28:23Z</time></trkpt><trkpt lat="35.4153367" lon="139.1627286"><ele>536.4333333333333</ele><time>2024-05-11T04:28:41Z</time></trkpt><trkpt lat="35.4153074" lon="139.1624916"><ele>531.7933333333334</ele><time>2024-05-11T04:28:56Z</time></trkpt><trkpt lat="35.4152007" lon="139.1623081"><ele>526.6466666666666</ele><time>2024-05-11T04:29:13Z</time></trkpt><trkpt lat="35.415046" lon="139.1621527"><ele>519.9466666666667</ele><time>2024-05-11T04:29:26Z</time></trkpt><trkpt lat="35.4150395" lon="139.1623782"><ele>511.58666666666664</ele><time>2024-05-11T04:30:11Z</time></trkpt><trkpt lat="35.4150009" lon="139.1626444"><ele>507.92666666666673</ele><time>2024-05-11T04:30:35Z</time></trkpt><trkpt lat="35.4149418" lon="139.1624161"><ele>504.83</ele><time>2024-05-11T04:30:47Z</time></trkpt><trkpt lat="35.4148476" lon="139.1622126"><ele>502.51</ele><time>2024-05-11T04:31:02Z</time></trkpt><trkpt lat="35.4146231" lon="139.1621599"><ele>498.9633333333333</ele><time>2024-05-11T04:31:20Z</time></trkpt><trkpt lat="35.4144491" lon="139.1622435"><ele>493.9433333333333</ele><time>2024-05-11T04:31:35Z</time></trkpt><trkpt lat="35.4143171" lon="139.1623945"><ele>486.43666666666667</ele><time>2024-05-11T04:31:53Z</time></trkpt><trkpt lat="35.414111" lon="139.1623602"><ele>478.75</ele><time>2024-05-11T04:32:08Z</time></trkpt><trkpt lat="35.4139247" lon="139.1624135"><ele>473.87999999999994</ele><time>2024-05-11T04:32:26Z</time></trkpt><trkpt lat="35.4137192" lon="139.1624969"><ele>471.8066666666666</ele><time>2024-05-11T04:32:44Z</time></trkpt><trkpt lat="35.4135366" lon="139.1624658"><ele>468.9666666666667</ele><time>2024-05-11T04:32:59Z</time></trkpt><trkpt lat="35.4135019" lon="139.1622263"><ele>468.07</ele><time>2024-05-11T04:33:17Z</time></trkpt><trkpt lat="35.4134378" lon="139.161986"><ele>467.17333333333335</ele><time>2024-05-11T04:33:35Z</time></trkpt><trkpt lat="35.4132306" lon="139.1619156"><ele>465.6466666666667</ele><time>2024-05-11T04:33:50Z</time></trkpt><trkpt lat="35.4130727" lon="139.161807"><ele>461.7966666666666</ele><time>2024-05-11T04:34:03Z</time></trkpt><trkpt lat="35.4128942" lon="139.1618455"><ele>454.97333333333336</ele><time>2024-05-11T04:34:31Z</time></trkpt><trkpt lat="35.4126751" lon="139.1618679"><ele>450.10999999999996</ele><time>2024-05-11T04:34:49Z</time></trkpt><trkpt lat="35.4125491" lon="139.1620545"><ele>442.42333333333335</ele><time>2024-05-11T04:35:07Z</time></trkpt><trkpt lat="35.4124129" lon="139.1622059"><ele>436.0366666666667</ele><time>2024-05-11T04:35:19Z</time></trkpt><trkpt lat="35.412238" lon="139.1621214"><ele>434.84666666666664</ele><time>2024-05-11T04:35:40Z</time></trkpt><trkpt lat="35.4120638" lon="139.1619622"><ele>439.0233333333333</ele><time>2024-05-11T04:35:58Z</time></trkpt><trkpt lat="35.4119003" lon="139.1618198"><ele>446.67</ele><time>2024-05-11T04:36:13Z</time></trkpt><trkpt lat="35.4117143" lon="139.1617382"><ele>447.98</ele><time>2024-05-11T04:36:28Z</time></trkpt><trkpt lat="35.4115628" lon="139.1619025"><ele>443.46000000000004</ele><time>2024-05-11T04:36:43Z</time></trkpt><trkpt lat="35.4114069" lon="139.1620488"><ele>435.00666666666666</ele><time>2024-05-11T04:37:10Z</time></trkpt><trkpt lat="35.4112706" lon="139.162209"><ele>426.5666666666666</ele><time>2024-05-11T04:37:37Z</time></trkpt><trkpt lat="35.4111111" lon="139.1623464"><ele>420.9333333333334</ele><time>2024-05-11T04:37:54Z</time></trkpt><trkpt lat="35.4110151" lon="139.1625785"><ele>414.74</ele><time>2024-05-11T04:38:13Z</time></trkpt><trkpt lat="35.4108488" lon="139.1627181"><ele>408.78000000000003</ele><time>2024-05-11T04:39:07Z</time></trkpt><trkpt lat="35.4106932" lon="139.1628688"><ele>402.69</ele><time>2024-05-11T04:39:28Z</time></trkpt><trkpt lat="35.4105627" lon="139.1630251"><ele>397.93</ele><time>2024-05-11T04:39:43Z</time></trkpt><trkpt lat="35.4104386" lon="139.1632326"><ele>393.2133333333333</ele><time>2024-05-11T04:40:01Z</time></trkpt><trkpt lat="35.4103123" lon="139.163401"><ele>389.03333333333336</ele><time>2024-05-11T04:40:19Z</time></trkpt><trkpt lat="35.4101796" lon="139.1636228"><ele>385.6700000000001</ele><time>2024-05-11T04:40:37Z</time></trkpt><trkpt lat="35.4099924" lon="139.163707"><ele>383.09</ele><time>2024-05-11T04:40:52Z</time></trkpt><trkpt lat="35.4097979" lon="139.1636665"><ele>380.53999999999996</ele><time>2024-05-11T04:41:10Z</time></trkpt><trkpt lat="35.4095949" lon="139.1636888"><ele>378.9266666666667</ele><time>2024-05-11T04:41:25Z</time></trkpt><trkpt lat="35.409407" lon="139.1636001"><ele>378.1000000000001</ele><time>2024-05-11T04:41:40Z</time></trkpt><trkpt lat="35.4092238" lon="139.1635205"><ele>376.61000000000007</ele><time>2024-05-11T04:41:55Z</time></trkpt><trkpt lat="35.4090451" lon="139.1635976"><ele>373.07666666666665</ele><time>2024-05-11T04:42:10Z</time></trkpt><trkpt lat="35.4089339" lon="139.1638014"><ele>368.8933333333334</ele><time>2024-05-11T04:42:25Z</time></trkpt><trkpt lat="35.408817" lon="139.1640227"><ele>364.62000000000006</ele><time>2024-05-11T04:42:43Z</time></trkpt><trkpt lat="35.4087424" lon="139.1642666"><ele>360.4533333333334</ele><time>2024-05-11T04:43:01Z</time></trkpt><trkpt lat="35.4086904" lon="139.1644874"><ele>355.77666666666664</ele><time>2024-05-11T04:43:19Z</time></trkpt><trkpt lat="35.4085957" lon="139.1647215"><ele>350.8666666666666</ele><time>2024-05-11T04:43:37Z</time></trkpt><trkpt lat="35.4084127" lon="139.1647411"><ele>348.09666666666664</ele><time>2024-05-11T04:43:49Z</time></trkpt><trkpt lat="35.4082096" lon="139.1647851"><ele>346.02666666666664</ele><time>2024-05-11T04:44:03Z</time></trkpt><trkpt lat="35.4080131" lon="139.1649058"><ele>345.0366666666667</ele><time>2024-05-11T04:44:23Z</time></trkpt><trkpt lat="35.4078257" lon="139.1649934"><ele>343.08</ele><time>2024-05-11T04:44:38Z</time></trkpt><trkpt lat="35.4076187" lon="139.1650413"><ele>340.21000000000004</ele><time>2024-05-11T04:44:55Z</time></trkpt><trkpt lat="35.4074228" lon="139.1651625"><ele>336.45666666666665</ele><time>2024-05-11T04:45:10Z</time></trkpt><trkpt lat="35.4072472" lon="139.1652828"><ele>332.2733333333333</ele><time>2024-05-11T04:45:25Z</time></trkpt><trkpt lat="35.4070356" lon="139.1653649"><ele>328.57</ele><time>2024-05-11T04:45:40Z</time></trkpt><trkpt lat="35.4068958" lon="139.1655188"><ele>325.32</ele><time>2024-05-11T04:45:55Z</time></trkpt><trkpt lat="35.4067453" lon="139.1656976"><ele>322.79</ele><time>2024-05-11T04:46:10Z</time></trkpt><trkpt lat="35.4065939" lon="139.1658333"><ele>320.8833333333333</ele><time>2024-05-11T04:46:25Z</time></trkpt><trkpt lat="35.406377" lon="139.1658414"><ele>320.12666666666667</ele><time>2024-05-11T04:48:58Z</time></trkpt><trkpt lat="35.4061708" lon="139.1658762"><ele>319.55</ele><time>2024-05-11T04:49:10Z</time></trkpt><trkpt lat="35.4059602" lon="139.16598"><ele>316.96666666666664</ele><time>2024-05-11T04:49:22Z</time></trkpt><trkpt lat="35.4058368" lon="139.1661574"><ele>312.99</ele><time>2024-05-11T04:49:34Z</time></trkpt><trkpt lat="35.4057739" lon="139.1664247"><ele>308.5933333333333</ele><time>2024-05-11T04:49:49Z</time></trkpt><trkpt lat="35.4058106" lon="139.1666536"><ele>305.7266666666667</ele><time>2024-05-11T04:50:01Z</time></trkpt><trkpt lat="35.4059807" lon="139.1668157"><ele>303.81333333333333</ele><time>2024-05-11T04:50:19Z</time></trkpt><trkpt lat="35.4061145" lon="139.1669766"><ele>302.32</ele><time>2024-05-11T04:50:31Z</time></trkpt><trkpt lat="35.4061187" lon="139.1672051"><ele>300.3333333333333</ele><time>2024-05-11T04:50:45Z</time></trkpt><trkpt lat="35.40611" lon="139.1674691"><ele>296.77</ele><time>2024-05-11T04:51:03Z</time></trkpt><trkpt lat="35.4060415" lon="139.1676848"><ele>293.5733333333333</ele><time>2024-05-11T04:51:18Z</time></trkpt><trkpt lat="35.4059437" lon="139.1679243"><ele>291.76</ele><time>2024-05-11T04:51:35Z</time></trkpt><trkpt lat="35.4058547" lon="139.1681234"><ele>291.76</ele><time>2024-05-11T04:51:47Z</time></trkpt><trkpt lat="35.4056719" lon="139.1682417"><ele>292.3966666666667</ele><time>2024-05-11T04:51:58Z</time></trkpt><trkpt lat="35.4054768" lon="139.1682845"><ele>292.7033333333333</ele><time>2024-05-11T04:52:10Z</time></trkpt><trkpt lat="35.4052891" lon="139.1683989"><ele>292.47333333333336</ele><time>2024-05-11T04:52:21Z</time></trkpt><trkpt lat="35.4050776" lon="139.1684634"><ele>291.12333333333333</ele><time>2024-05-11T04:52:39Z</time></trkpt><trkpt lat="35.4048443" lon="139.1685921"><ele>289.67</ele><time>2024-05-11T04:52:56Z</time></trkpt><trkpt lat="35.4048361" lon="139.1688173"><ele>288.1233333333334</ele><time>2024-05-11T04:53:05Z</time></trkpt><trkpt lat="35.4050032" lon="139.1689512"><ele>287.45</ele><time>2024-05-11T04:53:24Z</time></trkpt></trkseg></trk></gpx>