<?xml version='1.0' encoding='UTF-8'?><gpx creator="YAMAP - https://yamap.com" xsi:schemaLocation="http://www.topografix.com/GPX/1/1 http://www.topografix.com/GPX/1/1/gpx.xsd" version="1.1" xmlns="http://www.topografix.com/GPX/1/1" xmlns:xsi="http://www.w3.org/2001/XMLSchema-instance"><metadata><bounds maxlat="35.7421632" maxlon="139.1127714" minlat="35.6893533" minlon="139.0122226"/></metadata><trk><name>三頭山から笹尾根</name><number>1</number><trkseg><trkpt lat="35.7380604" lon="139.0311412"><ele>998.24</ele><time>2023-07-22T00:13:19Z</time></trkpt><trkpt lat="35.7381804" lon="139.0309527"><ele>998.86</ele><time>2023-07-22T00:14:12Z</time></trkpt><trkpt lat="35.7383144" lon="139.0308024"><ele>999.68</ele><time>2023-07-22T00:14:40Z</time></trkpt><trkpt lat="35.738476" lon="139.0306776"><ele>1002.0200000000001</ele><time>2023-07-22T00:14:54Z</time></trkpt><trkpt lat="35.7385968" lon="139.0305055"><ele>1004.7633333333333</ele><time>2023-07-22T00:15:09Z</time></trkpt><trkpt lat="35.7386809" lon="139.0303012"><ele>1008.09</ele><time>2023-07-22T00:15:25Z</time></trkpt><trkpt lat="35.7388373" lon="139.0301799"><ele>1011.64</ele><time>2023-07-22T00:15:44Z</time></trkpt><trkpt lat="35.7390027" lon="139.0300533"><ele>1015.1300000000001</ele><time>2023-07-22T00:16:04Z</time></trkpt><trkpt lat="35.7391742" lon="139.0299597"><ele>1018.5033333333334</ele><time>2023-07-22T00:16:33Z</time></trkpt><trkpt lat="35.7392363" lon="139.0297461"><ele>1022.3066666666667</ele><time>2023-07-22T00:16:45Z</time></trkpt><trkpt lat="35.7394077" lon="139.0296646"><ele>1027.26</ele><time>2023-07-22T00:17:10Z</time></trkpt><trkpt lat="35.7394787" lon="139.0294597"><ele>1033.22</ele><time>2023-07-22T00:17:28Z</time></trkpt><trkpt lat="35.7396406" lon="139.0293554"><ele>1038.3866666666665</ele><time>2023-07-22T00:17:40Z</time></trkpt><trkpt lat="35.7398362" lon="139.0293399"><ele>1044.1666666666667</ele><time>2023-07-22T00:17:55Z</time></trkpt><trkpt lat="35.7400246" lon="139.0292791"><ele>1050.0133333333333</ele><time>2023-07-22T00:18:10Z</time></trkpt><trkpt lat="35.7399492" lon="139.0294821"><ele>1055.3600000000001</ele><time>2023-07-22T00:18:34Z</time></trkpt><trkpt lat="35.7398113" lon="139.0292893"><ele>1054.2133333333334</ele><time>2023-07-22T00:18:44Z</time></trkpt><trkpt lat="35.7399421" lon="139.0288772"><ele>1050.6466666666668</ele><time>2023-07-22T00:18:52Z</time></trkpt><trkpt lat="35.7400626" lon="139.0286894"><ele>1047.2033333333331</ele><time>2023-07-22T00:19:05Z</time></trkpt><trkpt lat="35.7402431" lon="139.0286637"><ele>1047.7133333333334</ele><time>2023-07-22T00:19:55Z</time></trkpt><trkpt lat="35.7403769" lon="139.0288443"><ele>1049.0966666666666</ele><time>2023-07-22T00:20:14Z</time></trkpt><trkpt lat="35.7405539" lon="139.0288968"><ele>1052.38</ele><time>2023-07-22T00:20:29Z</time></trkpt><trkpt lat="35.7407348" lon="139.0289151"><ele>1055.8566666666668</ele><time>2023-07-22T00:20:58Z</time></trkpt><trkpt lat="35.740736" lon="139.0286883"><ele>1059.03</ele><time>2023-07-22T00:21:59Z</time></trkpt><trkpt lat="35.7407811" lon="139.0284656"><ele>1061.4766666666667</ele><time>2023-07-22T00:22:11Z</time></trkpt><trkpt lat="35.7408241" lon="139.0282492"><ele>1064.9333333333332</ele><time>2023-07-22T00:22:26Z</time></trkpt><trkpt lat="35.7408885" lon="139.028041"><ele>1068.3266666666666</ele><time>2023-07-22T00:22:50Z</time></trkpt><trkpt lat="35.7410619" lon="139.0279638"><ele>1072.7066666666667</ele><time>2023-07-22T00:23:20Z</time></trkpt><trkpt lat="35.7411503" lon="139.0277623"><ele>1076.7300000000002</ele><time>2023-07-22T00:23:47Z</time></trkpt><trkpt lat="35.7412038" lon="139.0275355"><ele>1080.7</ele><time>2023-07-22T00:24:08Z</time></trkpt><trkpt lat="35.7413673" lon="139.0274069"><ele>1086.1899999999998</ele><time>2023-07-22T00:24:59Z</time></trkpt><trkpt lat="35.7415338" lon="139.0273029"><ele>1092.84</ele><time>2023-07-22T00:25:06Z</time></trkpt><trkpt lat="35.7416999" lon="139.0273901"><ele>1099.7966666666666</ele><time>2023-07-22T00:26:19Z</time></trkpt><trkpt lat="35.7418768" lon="139.0274524"><ele>1108.73</ele><time>2023-07-22T00:26:37Z</time></trkpt><trkpt lat="35.7418271" lon="139.0272327"><ele>1112.72</ele><time>2023-07-22T00:27:08Z</time></trkpt><trkpt lat="35.7418952" lon="139.0274421"><ele>1119.1733333333334</ele><time>2023-07-22T00:28:03Z</time></trkpt><trkpt lat="35.7420156" lon="139.0272754"><ele>1120.746666666667</ele><time>2023-07-22T00:29:02Z</time></trkpt><trkpt lat="35.7420934" lon="139.0270739"><ele>1127.3333333333335</ele><time>2023-07-22T00:29:26Z</time></trkpt><trkpt lat="35.7421632" lon="139.0268675"><ele>1134.3999999999999</ele><time>2023-07-22T00:30:30Z</time></trkpt><trkpt lat="35.7420844" lon="139.026667"><ele>1142.61</ele><time>2023-07-22T00:31:59Z</time></trkpt><trkpt lat="35.7419512" lon="139.0265175"><ele>1152.6533333333334</ele><time>2023-07-22T00:32:58Z</time></trkpt><trkpt lat="35.7418892" lon="139.026305"><ele>1166.9533333333334</ele><time>2023-07-22T00:35:10Z</time></trkpt><trkpt lat="35.7418167" lon="139.0261006"><ele>1179.43</ele><time>2023-07-22T00:35:58Z</time></trkpt><trkpt lat="35.7418242" lon="139.025874"><ele>1189.5900000000001</ele><time>2023-07-22T00:36:14Z</time></trkpt><trkpt lat="35.741726" lon="139.0256884"><ele>1193.1000000000001</ele><time>2023-07-22T00:36:57Z</time></trkpt><trkpt lat="35.7416621" lon="139.0254814"><ele>1199.1233333333334</ele><time>2023-07-22T00:37:48Z</time></trkpt><trkpt lat="35.7415256" lon="139.0253356"><ele>1205.4399999999998</ele><time>2023-07-22T00:39:34Z</time></trkpt><trkpt lat="35.741485" lon="139.0251178"><ele>1214.1133333333335</ele><time>2023-07-22T00:40:27Z</time></trkpt><trkpt lat="35.7413784" lon="139.0249336"><ele>1224.47</ele><time>2023-07-22T00:41:46Z</time></trkpt><trkpt lat="35.7413096" lon="139.0247268"><ele>1237.3333333333333</ele><time>2023-07-22T00:43:03Z</time></trkpt><trkpt lat="35.7411297" lon="139.0247733"><ele>1245.3533333333335</ele><time>2023-07-22T00:44:47Z</time></trkpt><trkpt lat="35.7409514" lon="139.0246843"><ele>1252.32</ele><time>2023-07-22T00:45:38Z</time></trkpt><trkpt lat="35.7409936" lon="139.0244684"><ele>1258.6499999999999</ele><time>2023-07-22T00:45:56Z</time></trkpt><trkpt lat="35.7411055" lon="139.0242822"><ele>1270.1033333333335</ele><time>2023-07-22T00:47:27Z</time></trkpt><trkpt lat="35.7409663" lon="139.0241361"><ele>1279.92</ele><time>2023-07-22T00:48:33Z</time></trkpt><trkpt lat="35.7409125" lon="139.023909"><ele>1290.5666666666668</ele><time>2023-07-22T00:50:23Z</time></trkpt><trkpt lat="35.741044" lon="139.0237378"><ele>1299.7</ele><time>2023-07-22T00:50:45Z</time></trkpt><trkpt lat="35.7408794" lon="139.0236168"><ele>1308.5633333333335</ele><time>2023-07-22T00:51:20Z</time></trkpt><trkpt lat="35.7407113" lon="139.0235176"><ele>1315.5966666666666</ele><time>2023-07-22T00:52:32Z</time></trkpt><trkpt lat="35.7405231" lon="139.0235287"><ele>1321.09</ele><time>2023-07-22T00:52:53Z</time></trkpt><trkpt lat="35.740443" lon="139.0233147"><ele>1323.6233333333332</ele><time>2023-07-22T00:53:42Z</time></trkpt><trkpt lat="35.7405967" lon="139.0231977"><ele>1327.9233333333334</ele><time>2023-07-22T00:53:54Z</time></trkpt><trkpt lat="35.7405297" lon="139.0229857"><ele>1332.11</ele><time>2023-07-22T00:55:05Z</time></trkpt><trkpt lat="35.7404008" lon="139.0228214"><ele>1337.3633333333335</ele><time>2023-07-22T00:55:44Z</time></trkpt><trkpt lat="35.7402305" lon="139.0227154"><ele>1336.2533333333333</ele><time>2023-07-22T00:55:59Z</time></trkpt><trkpt lat="35.7402179" lon="139.0224929"><ele>1338.7299999999998</ele><time>2023-07-22T00:56:24Z</time></trkpt><trkpt lat="35.7400948" lon="139.022318"><ele>1339.3733333333332</ele><time>2023-07-22T00:57:22Z</time></trkpt><trkpt lat="35.7400714" lon="139.0220983"><ele>1345.1133333333335</ele><time>2023-07-22T00:57:36Z</time></trkpt><trkpt lat="35.7400835" lon="139.0218755"><ele>1349.28</ele><time>2023-07-22T00:58:40Z</time></trkpt><trkpt lat="35.7399784" lon="139.0216946"><ele>1356.9866666666667</ele><time>2023-07-22T00:59:37Z</time></trkpt><trkpt lat="35.7398092" lon="139.0215955"><ele>1365.8533333333335</ele><time>2023-07-22T00:59:53Z</time></trkpt><trkpt lat="35.7396687" lon="139.0214428"><ele>1373.5966666666666</ele><time>2023-07-22T01:00:24Z</time></trkpt><trkpt lat="35.7398531" lon="139.0213022"><ele>1381.54</ele><time>2023-07-22T01:03:16Z</time></trkpt><trkpt lat="35.7399497" lon="139.0211148"><ele>1382.8166666666666</ele><time>2023-07-22T01:04:04Z</time></trkpt><trkpt lat="35.7399773" lon="139.0208921"><ele>1380.03</ele><time>2023-07-22T01:04:54Z</time></trkpt><trkpt lat="35.7399709" lon="139.0206688"><ele>1373.8866666666665</ele><time>2023-07-22T01:05:25Z</time></trkpt><trkpt lat="35.7399494" lon="139.0204469"><ele>1368.0333333333335</ele><time>2023-07-22T01:06:15Z</time></trkpt><trkpt lat="35.7400089" lon="139.0202341"><ele>1364.7733333333333</ele><time>2023-07-22T01:06:37Z</time></trkpt><trkpt lat="35.7400129" lon="139.0200012"><ele>1364.8433333333335</ele><time>2023-07-22T01:07:04Z</time></trkpt><trkpt lat="35.7399313" lon="139.0197949"><ele>1368.1833333333334</ele><time>2023-07-22T01:07:32Z</time></trkpt><trkpt lat="35.7399036" lon="139.0195763"><ele>1375.1266666666668</ele><time>2023-07-22T01:08:38Z</time></trkpt><trkpt lat="35.7398576" lon="139.0193515"><ele>1382.4033333333334</ele><time>2023-07-22T01:09:17Z</time></trkpt><trkpt lat="35.7397884" lon="139.0191459"><ele>1389.0166666666667</ele><time>2023-07-22T01:09:42Z</time></trkpt><trkpt lat="35.7397529" lon="139.0189274"><ele>1392.8733333333332</ele><time>2023-07-22T01:10:09Z</time></trkpt><trkpt lat="35.7396191" lon="139.0187773"><ele>1396.2133333333331</ele><time>2023-07-22T01:10:38Z</time></trkpt><trkpt lat="35.7396717" lon="139.0185634"><ele>1402.2533333333333</ele><time>2023-07-22T01:11:18Z</time></trkpt><trkpt lat="35.7395954" lon="139.0183561"><ele>1410.3100000000002</ele><time>2023-07-22T01:12:22Z</time></trkpt><trkpt lat="35.7395705" lon="139.0181357"><ele>1419.4866666666667</ele><time>2023-07-22T01:13:05Z</time></trkpt><trkpt lat="35.7396025" lon="139.0179178"><ele>1428.2933333333333</ele><time>2023-07-22T01:13:49Z</time></trkpt><trkpt lat="35.7395432" lon="139.0177008"><ele>1438.5233333333333</ele><time>2023-07-22T01:14:43Z</time></trkpt><trkpt lat="35.7394416" lon="139.0175175"><ele>1446.676666666667</ele><time>2023-07-22T01:15:36Z</time></trkpt><trkpt lat="35.7393799" lon="139.0172995"><ele>1454.7333333333336</ele><time>2023-07-22T01:16:30Z</time></trkpt><trkpt lat="35.7392676" lon="139.0171184"><ele>1458.14</ele><time>2023-07-22T01:16:45Z</time></trkpt><trkpt lat="35.7390815" lon="139.0170863"><ele>1463.92</ele><time>2023-07-22T01:17:17Z</time></trkpt><trkpt lat="35.7390114" lon="139.0168811"><ele>1467.2</ele><time>2023-07-22T01:17:40Z</time></trkpt><trkpt lat="35.7390717" lon="139.0166611"><ele>1467.6566666666668</ele><time>2023-07-22T01:18:02Z</time></trkpt><trkpt lat="35.7389711" lon="139.016463"><ele>1468.8499999999997</ele><time>2023-07-22T01:18:18Z</time></trkpt><trkpt lat="35.7388532" lon="139.0162933"><ele>1469.93</ele><time>2023-07-22T01:18:36Z</time></trkpt><trkpt lat="35.738816" lon="139.016074"><ele>1474.5433333333333</ele><time>2023-07-22T01:19:05Z</time></trkpt><trkpt lat="35.7387428" lon="139.0158687"><ele>1475.95</ele><time>2023-07-22T01:19:24Z</time></trkpt><trkpt lat="35.738657" lon="139.015674"><ele>1480.5833333333333</ele><time>2023-07-22T01:19:49Z</time></trkpt><trkpt lat="35.738574" lon="139.0154704"><ele>1487.1433333333334</ele><time>2023-07-22T01:20:41Z</time></trkpt><trkpt lat="35.7384964" lon="139.0152666"><ele>1493.3733333333332</ele><time>2023-07-22T01:20:58Z</time></trkpt><trkpt lat="35.7384586" lon="139.0150498"><ele>1497.5933333333332</ele><time>2023-07-22T01:21:11Z</time></trkpt><trkpt lat="35.738407" lon="139.014835"><ele>1499.4133333333332</ele><time>2023-07-22T01:21:27Z</time></trkpt><trkpt lat="35.7383637" lon="139.0146151"><ele>1502.33</ele><time>2023-07-22T01:21:47Z</time></trkpt><trkpt lat="35.7382453" lon="139.0144359"><ele>1504.8766666666668</ele><time>2023-07-22T01:22:07Z</time></trkpt><trkpt lat="35.7380618" lon="139.0144179"><ele>1503.706666666667</ele><time>2023-07-22T01:22:27Z</time></trkpt><trkpt lat="35.7379575" lon="139.014236"><ele>1503.13</ele><time>2023-07-22T01:22:57Z</time></trkpt><trkpt lat="35.7381358" lon="139.0141751"><ele>1503.8666666666668</ele><time>2023-07-22T01:24:14Z</time></trkpt><trkpt lat="35.7383282" lon="139.0141483"><ele>1511.8666666666668</ele><time>2023-07-22T01:24:31Z</time></trkpt><trkpt lat="35.7384261" lon="139.0143367"><ele>1516.8566666666666</ele><time>2023-07-22T01:26:09Z</time></trkpt><trkpt lat="35.7385549" lon="139.0141733"><ele>1521.0166666666667</ele><time>2023-07-22T01:26:25Z</time></trkpt><trkpt lat="35.7386975" lon="139.0140235"><ele>1522.8666666666668</ele><time>2023-07-22T01:26:43Z</time></trkpt><trkpt lat="35.7388317" lon="139.0138715"><ele>1526.3700000000001</ele><time>2023-07-22T01:26:58Z</time></trkpt><trkpt lat="35.7389681" lon="139.013718"><ele>1528.6133333333335</ele><time>2023-07-22T01:27:49Z</time></trkpt><trkpt lat="35.7390591" lon="139.0135188"><ele>1526.92</ele><time>2023-07-22T01:28:05Z</time></trkpt><trkpt lat="35.7390753" lon="139.0132985"><ele>1521.43</ele><time>2023-07-22T01:28:42Z</time></trkpt><trkpt lat="35.7389977" lon="139.0130982"><ele>1514.5633333333333</ele><time>2023-07-22T01:28:59Z</time></trkpt><trkpt lat="35.7389898" lon="139.0128753"><ele>1510.8433333333332</ele><time>2023-07-22T01:30:06Z</time></trkpt><trkpt lat="35.7389498" lon="139.0126555"><ele>1512.68</ele><time>2023-07-22T01:30:53Z</time></trkpt><trkpt lat="35.7388915" lon="139.0124424"><ele>1516.466666666667</ele><time>2023-07-22T01:31:12Z</time></trkpt><trkpt lat="35.738929" lon="139.0122226"><ele>1519.8066666666666</ele><time>2023-07-22T01:34:49Z</time></trkpt><trkpt lat="35.7387541" lon="139.0122988"><ele>1520.7299999999998</ele><time>2023-07-22T01:35:50Z</time></trkpt><trkpt lat="35.7385915" lon="139.0124036"><ele>1519.5366666666669</ele><time>2023-07-22T01:37:09Z</time></trkpt><trkpt lat="35.7384114" lon="139.0124533"><ele>1515.9866666666667</ele><time>2023-07-22T01:37:27Z</time></trkpt><trkpt lat="35.7382327" lon="139.0124973"><ele>1510.0766666666668</ele><time>2023-07-22T01:37:48Z</time></trkpt><trkpt lat="35.7380572" lon="139.0125594"><ele>1504.4033333333334</ele><time>2023-07-22T01:38:04Z</time></trkpt><trkpt lat="35.7378708" lon="139.012566"><ele>1499.3400000000001</ele><time>2023-07-22T01:38:19Z</time></trkpt><trkpt lat="35.7377068" lon="139.0126714"><ele>1497.0833333333333</ele><time>2023-07-22T01:38:34Z</time></trkpt><trkpt lat="35.7375199" lon="139.0126942"><ele>1494.5133333333333</ele><time>2023-07-22T01:38:56Z</time></trkpt><trkpt lat="35.7373467" lon="139.0127623"><ele>1493.8266666666666</ele><time>2023-07-22T01:39:11Z</time></trkpt><trkpt lat="35.7371642" lon="139.0127655"><ele>1491.4133333333332</ele><time>2023-07-22T01:39:28Z</time></trkpt><trkpt lat="35.7369939" lon="139.0128424"><ele>1489.1066666666666</ele><time>2023-07-22T01:40:26Z</time></trkpt><trkpt lat="35.7368357" lon="139.0129499"><ele>1484.2933333333333</ele><time>2023-07-22T01:41:03Z</time></trkpt><trkpt lat="35.7366966" lon="139.0131051"><ele>1477.3266666666668</ele><time>2023-07-22T01:41:21Z</time></trkpt><trkpt lat="35.7365193" lon="139.0130523"><ele>1467.7033333333336</ele><time>2023-07-22T01:41:42Z</time></trkpt><trkpt lat="35.7363649" lon="139.0131723"><ele>1457.95</ele><time>2023-07-22T01:42:13Z</time></trkpt><trkpt lat="35.7362294" lon="139.0133192"><ele>1449.756666666667</ele><time>2023-07-22T01:42:43Z</time></trkpt><trkpt lat="35.7360992" lon="139.0134734"><ele>1443.9666666666665</ele><time>2023-07-22T01:42:58Z</time></trkpt><trkpt lat="35.7359185" lon="139.0134972"><ele>1437.88</ele><time>2023-07-22T01:43:18Z</time></trkpt><trkpt lat="35.73575" lon="139.0135794"><ele>1432.7699999999998</ele><time>2023-07-22T01:44:01Z</time></trkpt><trkpt lat="35.7355675" lon="139.0136224"><ele>1430.0933333333335</ele><time>2023-07-22T01:44:27Z</time></trkpt><trkpt lat="35.7353867" lon="139.0137091"><ele>1430.6766666666665</ele><time>2023-07-22T01:44:47Z</time></trkpt><trkpt lat="35.7351975" lon="139.013766"><ele>1431.49</ele><time>2023-07-22T01:44:59Z</time></trkpt><trkpt lat="35.7350286" lon="139.0138734"><ele>1432.5533333333333</ele><time>2023-07-22T01:46:57Z</time></trkpt><trkpt lat="35.7348448" lon="139.0138933"><ele>1433.7033333333336</ele><time>2023-07-22T01:47:11Z</time></trkpt><trkpt lat="35.7347256" lon="139.0140594"><ele>1437.2066666666667</ele><time>2023-07-22T01:47:48Z</time></trkpt><trkpt lat="35.7346017" lon="139.0142206"><ele>1441.7133333333334</ele><time>2023-07-22T01:48:31Z</time></trkpt><trkpt lat="35.734469" lon="139.0143729"><ele>1447.3933333333334</ele><time>2023-07-22T01:49:24Z</time></trkpt><trkpt lat="35.7343058" lon="139.0144887"><ele>1453.67</ele><time>2023-07-22T01:49:40Z</time></trkpt><trkpt lat="35.7341455" lon="139.0146101"><ele>1458.0466666666664</ele><time>2023-07-22T01:49:52Z</time></trkpt><trkpt lat="35.7339903" lon="139.0147275"><ele>1460.9566666666667</ele><time>2023-07-22T01:50:40Z</time></trkpt><trkpt lat="35.7338342" lon="139.0148492"><ele>1463.2700000000002</ele><time>2023-07-22T01:51:07Z</time></trkpt><trkpt lat="35.7336627" lon="139.0149257"><ele>1467.9366666666665</ele><time>2023-07-22T01:51:30Z</time></trkpt><trkpt lat="35.73348" lon="139.0149041"><ele>1476.006666666667</ele><time>2023-07-22T01:51:54Z</time></trkpt><trkpt lat="35.7332963" lon="139.0149237"><ele>1482.9333333333334</ele><time>2023-07-22T01:53:07Z</time></trkpt><trkpt lat="35.7332846" lon="139.0151498"><ele>1488.29</ele><time>2023-07-22T01:53:33Z</time></trkpt><trkpt lat="35.7332571" lon="139.0153768"><ele>1487.1633333333332</ele><time>2023-07-22T01:53:53Z</time></trkpt><trkpt lat="35.7332348" lon="139.0156132"><ele>1482.6366666666665</ele><time>2023-07-22T01:54:08Z</time></trkpt><trkpt lat="35.7331416" lon="139.015805"><ele>1475.176666666667</ele><time>2023-07-22T01:54:43Z</time></trkpt><trkpt lat="35.7329879" lon="139.0159227"><ele>1466.08</ele><time>2023-07-22T01:55:33Z</time></trkpt><trkpt lat="35.7328184" lon="139.0160046"><ele>1456.7600000000002</ele><time>2023-07-22T01:57:05Z</time></trkpt><trkpt lat="35.7326773" lon="139.0161438"><ele>1444.3633333333335</ele><time>2023-07-22T01:57:23Z</time></trkpt><trkpt lat="35.7325261" lon="139.0162713"><ele>1434.0033333333333</ele><time>2023-07-22T01:58:14Z</time></trkpt><trkpt lat="35.7323788" lon="139.0164101"><ele>1424.3133333333335</ele><time>2023-07-22T01:58:36Z</time></trkpt><trkpt lat="35.7322182" lon="139.0165138"><ele>1417.6966666666667</ele><time>2023-07-22T01:58:49Z</time></trkpt><trkpt lat="35.7320744" lon="139.016651"><ele>1413.07</ele><time>2023-07-22T01:59:06Z</time></trkpt><trkpt lat="35.7319815" lon="139.016846"><ele>1409.756666666667</ele><time>2023-07-22T01:59:46Z</time></trkpt><trkpt lat="35.7318273" lon="139.0169701"><ele>1406.7133333333334</ele><time>2023-07-22T01:59:58Z</time></trkpt><trkpt lat="35.7316623" lon="139.0170634"><ele>1400.3233333333335</ele><time>2023-07-22T02:00:24Z</time></trkpt><trkpt lat="35.7315584" lon="139.0172463"><ele>1393.6733333333334</ele><time>2023-07-22T02:01:34Z</time></trkpt><trkpt lat="35.7314413" lon="139.0174172"><ele>1385.6499999999999</ele><time>2023-07-22T02:01:54Z</time></trkpt><trkpt lat="35.7313151" lon="139.0175798"><ele>1379.9066666666668</ele><time>2023-07-22T02:02:13Z</time></trkpt><trkpt lat="35.7312102" lon="139.0177642"><ele>1375.8333333333333</ele><time>2023-07-22T02:02:27Z</time></trkpt><trkpt lat="35.7310717" lon="139.0179067"><ele>1374.0033333333333</ele><time>2023-07-22T02:04:32Z</time></trkpt><trkpt lat="35.7308919" lon="139.017859"><ele>1369.7233333333334</ele><time>2023-07-22T02:04:50Z</time></trkpt><trkpt lat="35.730722" lon="139.0177848"><ele>1362.5066666666664</ele><time>2023-07-22T02:05:02Z</time></trkpt><trkpt lat="35.730547" lon="139.0178696"><ele>1357.2733333333333</ele><time>2023-07-22T02:05:15Z</time></trkpt><trkpt lat="35.7303882" lon="139.017977"><ele>1354.7766666666666</ele><time>2023-07-22T02:05:53Z</time></trkpt><trkpt lat="35.7302359" lon="139.018102"><ele>1353.3833333333334</ele><time>2023-07-22T02:06:38Z</time></trkpt><trkpt lat="35.7300817" lon="139.0182252"><ele>1348.84</ele><time>2023-07-22T02:07:32Z</time></trkpt><trkpt lat="35.7299216" lon="139.0183326"><ele>1341.8833333333334</ele><time>2023-07-22T02:07:48Z</time></trkpt><trkpt lat="35.7298034" lon="139.0185036"><ele>1336.7133333333334</ele><time>2023-07-22T02:08:21Z</time></trkpt><trkpt lat="35.7296315" lon="139.0185747"><ele>1329.1566666666668</ele><time>2023-07-22T02:09:34Z</time></trkpt><trkpt lat="35.729518" lon="139.018762"><ele>1323.82</ele><time>2023-07-22T02:10:21Z</time></trkpt><trkpt lat="35.7293445" lon="139.0188498"><ele>1314.3966666666668</ele><time>2023-07-22T02:10:47Z</time></trkpt><trkpt lat="35.7291713" lon="139.0189122"><ele>1306.41</ele><time>2023-07-22T02:11:01Z</time></trkpt><trkpt lat="35.7290755" lon="139.0191105"><ele>1297.0366666666666</ele><time>2023-07-22T02:12:10Z</time></trkpt><trkpt lat="35.7289157" lon="139.0192166"><ele>1288.4399999999998</ele><time>2023-07-22T02:12:56Z</time></trkpt><trkpt lat="35.7287655" lon="139.0193475"><ele>1279.5866666666668</ele><time>2023-07-22T02:13:15Z</time></trkpt><trkpt lat="35.7286306" lon="139.0194983"><ele>1271.2633333333333</ele><time>2023-07-22T02:14:22Z</time></trkpt><trkpt lat="35.7285116" lon="139.0196645"><ele>1263.51</ele><time>2023-07-22T02:14:37Z</time></trkpt><trkpt lat="35.7283449" lon="139.0197659"><ele>1257.2233333333331</ele><time>2023-07-22T02:14:49Z</time></trkpt><trkpt lat="35.7282164" lon="139.019928"><ele>1253.2966666666666</ele><time>2023-07-22T02:15:06Z</time></trkpt><trkpt lat="35.7280862" lon="139.0200827"><ele>1251.22</ele><time>2023-07-22T02:16:06Z</time></trkpt><trkpt lat="35.7279614" lon="139.0202482"><ele>1248.34</ele><time>2023-07-22T02:16:28Z</time></trkpt><trkpt lat="35.7278328" lon="139.0204032"><ele>1242.41</ele><time>2023-07-22T02:16:50Z</time></trkpt><trkpt lat="35.7276858" lon="139.0205314"><ele>1233.41</ele><time>2023-07-22T02:17:28Z</time></trkpt><trkpt lat="35.7276001" lon="139.0207336"><ele>1226.22</ele><time>2023-07-22T02:17:39Z</time></trkpt><trkpt lat="35.7274453" lon="139.0208587"><ele>1221.2066666666667</ele><time>2023-07-22T02:17:57Z</time></trkpt><trkpt lat="35.7272884" lon="139.0209692"><ele>1218.2833333333333</ele><time>2023-07-22T02:18:16Z</time></trkpt><trkpt lat="35.7271077" lon="139.0209676"><ele>1213.8633333333335</ele><time>2023-07-22T02:18:40Z</time></trkpt><trkpt lat="35.7269218" lon="139.0210044"><ele>1207.8033333333333</ele><time>2023-07-22T02:19:19Z</time></trkpt><trkpt lat="35.7267505" lon="139.0210846"><ele>1201.36</ele><time>2023-07-22T02:19:33Z</time></trkpt><trkpt lat="35.7265829" lon="139.0211733"><ele>1194.5533333333333</ele><time>2023-07-22T02:19:48Z</time></trkpt><trkpt lat="35.7264152" lon="139.0212692"><ele>1188.96</ele><time>2023-07-22T02:20:05Z</time></trkpt><trkpt lat="35.7263823" lon="139.0214892"><ele>1185.7733333333333</ele><time>2023-07-22T02:20:20Z</time></trkpt><trkpt lat="35.7262556" lon="139.0216502"><ele>1184.05</ele><time>2023-07-22T02:20:37Z</time></trkpt><trkpt lat="35.7260891" lon="139.0215538"><ele>1181.54</ele><time>2023-07-22T02:20:49Z</time></trkpt><trkpt lat="35.7259081" lon="139.0215507"><ele>1176.4099999999999</ele><time>2023-07-22T02:21:08Z</time></trkpt><trkpt lat="35.7257252" lon="139.0216277"><ele>1170.41</ele><time>2023-07-22T02:21:35Z</time></trkpt><trkpt lat="35.7255464" lon="139.0216688"><ele>1164.8633333333332</ele><time>2023-07-22T02:21:48Z</time></trkpt><trkpt lat="35.7253719" lon="139.0217337"><ele>1159.3366666666668</ele><time>2023-07-22T02:22:05Z</time></trkpt><trkpt lat="35.7251966" lon="139.0217917"><ele>1154.57</ele><time>2023-07-22T02:23:06Z</time></trkpt><trkpt lat="35.7250468" lon="139.0219211"><ele>1147.4033333333334</ele><time>2023-07-22T02:23:21Z</time></trkpt><trkpt lat="35.7248641" lon="139.0219484"><ele>1139.7300000000002</ele><time>2023-07-22T02:23:40Z</time></trkpt><trkpt lat="35.7246831" lon="139.0219395"><ele>1129.3799999999999</ele><time>2023-07-22T02:24:17Z</time></trkpt><trkpt lat="35.7244837" lon="139.0219703"><ele>1125.4866666666667</ele><time>2023-07-22T02:24:27Z</time></trkpt><trkpt lat="35.7243067" lon="139.0220129"><ele>1124.6666666666667</ele><time>2023-07-22T02:24:43Z</time></trkpt><trkpt lat="35.72412" lon="139.0219827"><ele>1129.9333333333334</ele><time>2023-07-22T02:25:04Z</time></trkpt><trkpt lat="35.72394" lon="139.0220062"><ele>1134.1133333333335</ele><time>2023-07-22T02:25:17Z</time></trkpt><trkpt lat="35.7237602" lon="139.0220495"><ele>1138.5366666666666</ele><time>2023-07-22T02:25:36Z</time></trkpt><trkpt lat="35.7235804" lon="139.0220235"><ele>1140.7533333333333</ele><time>2023-07-22T02:25:53Z</time></trkpt><trkpt lat="35.7233921" lon="139.0220111"><ele>1142.0366666666666</ele><time>2023-07-22T02:26:13Z</time></trkpt><trkpt lat="35.7232096" lon="139.0220096"><ele>1142.8999999999999</ele><time>2023-07-22T02:26:30Z</time></trkpt><trkpt lat="35.7230284" lon="139.02205"><ele>1143.6333333333332</ele><time>2023-07-22T02:26:44Z</time></trkpt><trkpt lat="35.7228456" lon="139.0220628"><ele>1144.4666666666667</ele><time>2023-07-22T02:27:00Z</time></trkpt><trkpt lat="35.7226643" lon="139.0220808"><ele>1144.34</ele><time>2023-07-22T02:27:15Z</time></trkpt><trkpt lat="35.7225109" lon="139.0222028"><ele>1145.13</ele><time>2023-07-22T02:27:26Z</time></trkpt><trkpt lat="35.7223705" lon="139.0223513"><ele>1145.7533333333333</ele><time>2023-07-22T02:27:48Z</time></trkpt><trkpt lat="35.7222829" lon="139.0225447"><ele>1147.0133333333335</ele><time>2023-07-22T02:28:08Z</time></trkpt><trkpt lat="35.722198" lon="139.0227462"><ele>1147.3999999999999</ele><time>2023-07-22T02:28:27Z</time></trkpt><trkpt lat="35.7220225" lon="139.0228417"><ele>1149.5466666666666</ele><time>2023-07-22T02:28:44Z</time></trkpt><trkpt lat="35.7218637" lon="139.0229463"><ele>1151.33</ele><time>2023-07-22T02:28:58Z</time></trkpt><trkpt lat="35.7217389" lon="139.0231229"><ele>1152.3933333333332</ele><time>2023-07-22T02:29:13Z</time></trkpt><trkpt lat="35.7215704" lon="139.0232262"><ele>1150.12</ele><time>2023-07-22T02:29:25Z</time></trkpt><trkpt lat="35.7214732" lon="139.023424"><ele>1147.59</ele><time>2023-07-22T02:30:04Z</time></trkpt><trkpt lat="35.7213504" lon="139.0235867"><ele>1145.0433333333333</ele><time>2023-07-22T02:30:16Z</time></trkpt><trkpt lat="35.7211958" lon="139.0237109"><ele>1143.27</ele><time>2023-07-22T02:30:29Z</time></trkpt><trkpt lat="35.721057" lon="139.0238526"><ele>1140.5466666666669</ele><time>2023-07-22T02:30:43Z</time></trkpt><trkpt lat="35.7208987" lon="139.0239726"><ele>1137.3866666666668</ele><time>2023-07-22T02:30:59Z</time></trkpt><trkpt lat="35.7207279" lon="139.0240476"><ele>1133.9933333333336</ele><time>2023-07-22T02:31:15Z</time></trkpt><trkpt lat="35.7205624" lon="139.0241456"><ele>1132.0733333333333</ele><time>2023-07-22T02:31:32Z</time></trkpt><trkpt lat="35.7203951" lon="139.0242463"><ele>1131.3266666666666</ele><time>2023-07-22T02:31:53Z</time></trkpt><trkpt lat="35.7202451" lon="139.0243906"><ele>1131.8966666666668</ele><time>2023-07-22T02:32:10Z</time></trkpt><trkpt lat="35.7201138" lon="139.0245463"><ele>1133.8733333333332</ele><time>2023-07-22T02:32:38Z</time></trkpt><trkpt lat="35.7199671" lon="139.0246832"><ele>1135.9666666666667</ele><time>2023-07-22T02:32:58Z</time></trkpt><trkpt lat="35.7197957" lon="139.0247745"><ele>1138.5566666666666</ele><time>2023-07-22T02:33:34Z</time></trkpt><trkpt lat="35.719618" lon="139.0248369"><ele>1138.7233333333334</ele><time>2023-07-22T02:33:43Z</time></trkpt><trkpt lat="35.7194451" lon="139.0249177"><ele>1139.49</ele><time>2023-07-22T02:34:03Z</time></trkpt><trkpt lat="35.7193042" lon="139.025082"><ele>1141.38</ele><time>2023-07-22T02:34:19Z</time></trkpt><trkpt lat="35.7191571" lon="139.0252288"><ele>1145.5133333333333</ele><time>2023-07-22T02:34:39Z</time></trkpt><trkpt lat="35.7190769" lon="139.0254293"><ele>1149.216666666667</ele><time>2023-07-22T02:34:51Z</time></trkpt><trkpt lat="35.7190889" lon="139.0256542"><ele>1150.8166666666668</ele><time>2023-07-22T02:35:05Z</time></trkpt><trkpt lat="35.7189277" lon="139.0257752"><ele>1150.886666666667</ele><time>2023-07-22T02:35:23Z</time></trkpt><trkpt lat="35.718824" lon="139.0259687"><ele>1149.4233333333334</ele><time>2023-07-22T02:35:39Z</time></trkpt><trkpt lat="35.718748" lon="139.0261694"><ele>1146.67</ele><time>2023-07-22T02:35:54Z</time></trkpt><trkpt lat="35.7186492" lon="139.0263565"><ele>1143.993333333333</ele><time>2023-07-22T02:36:22Z</time></trkpt><trkpt lat="35.7185009" lon="139.0265048"><ele>1144.2433333333333</ele><time>2023-07-22T02:36:41Z</time></trkpt><trkpt lat="35.7183702" lon="139.0266667"><ele>1146.9233333333332</ele><time>2023-07-22T02:36:54Z</time></trkpt><trkpt lat="35.7182111" lon="139.0267866"><ele>1148.1466666666665</ele><time>2023-07-22T02:37:05Z</time></trkpt><trkpt lat="35.7180935" lon="139.0269678"><ele>1147.0466666666669</ele><time>2023-07-22T02:37:23Z</time></trkpt><trkpt lat="35.7180255" lon="139.0271791"><ele>1144.8500000000001</ele><time>2023-07-22T02:37:40Z</time></trkpt><trkpt lat="35.7178467" lon="139.0272303"><ele>1143.0800000000002</ele><time>2023-07-22T02:38:08Z</time></trkpt><trkpt lat="35.7177418" lon="139.0274336"><ele>1145.2566666666667</ele><time>2023-07-22T02:38:19Z</time></trkpt><trkpt lat="35.7176381" lon="139.027628"><ele>1147.68</ele><time>2023-07-22T02:38:32Z</time></trkpt><trkpt lat="35.7175776" lon="139.027856"><ele>1151.54</ele><time>2023-07-22T02:38:51Z</time></trkpt><trkpt lat="35.7175096" lon="139.028064"><ele>1153.4033333333334</ele><time>2023-07-22T02:39:25Z</time></trkpt><trkpt lat="35.7173925" lon="139.0282442"><ele>1155.6866666666667</ele><time>2023-07-22T02:39:52Z</time></trkpt><trkpt lat="35.7172617" lon="139.0283975"><ele>1158.1200000000001</ele><time>2023-07-22T02:40:04Z</time></trkpt><trkpt lat="35.7171041" lon="139.0285057"><ele>1159.0233333333333</ele><time>2023-07-22T02:40:58Z</time></trkpt><trkpt lat="35.7170528" lon="139.0287297"><ele>1160.6366666666668</ele><time>2023-07-22T02:41:10Z</time></trkpt><trkpt lat="35.7169675" lon="139.0289328"><ele>1162.426666666667</ele><time>2023-07-22T02:41:27Z</time></trkpt><trkpt lat="35.7168972" lon="139.0291369"><ele>1165.0766666666666</ele><time>2023-07-22T02:42:04Z</time></trkpt><trkpt lat="35.716722" lon="139.0292271"><ele>1166.5666666666666</ele><time>2023-07-22T02:42:21Z</time></trkpt><trkpt lat="35.7166319" lon="139.0294242"><ele>1169.4966666666667</ele><time>2023-07-22T02:43:18Z</time></trkpt><trkpt lat="35.7165338" lon="139.0296227"><ele>1174.53</ele><time>2023-07-22T02:43:33Z</time></trkpt><trkpt lat="35.7164288" lon="139.0298027"><ele>1179.9033333333334</ele><time>2023-07-22T02:44:05Z</time></trkpt><trkpt lat="35.7164357" lon="139.0300412"><ele>1183.4433333333334</ele><time>2023-07-22T02:49:26Z</time></trkpt><trkpt lat="35.7164089" lon="139.0302744"><ele>1183.4966666666667</ele><time>2023-07-22T02:49:46Z</time></trkpt><trkpt lat="35.7162891" lon="139.0304614"><ele>1182.53</ele><time>2023-07-22T02:49:53Z</time></trkpt><trkpt lat="35.7163242" lon="139.0306844"><ele>1180.5433333333333</ele><time>2023-07-22T02:50:11Z</time></trkpt><trkpt lat="35.7163226" lon="139.0309136"><ele>1177.5800000000002</ele><time>2023-07-22T02:50:29Z</time></trkpt><trkpt lat="35.7161883" lon="139.0310784"><ele>1172.8100000000002</ele><time>2023-07-22T02:50:42Z</time></trkpt><trkpt lat="35.7162502" lon="139.0312888"><ele>1168.9166666666667</ele><time>2023-07-22T02:51:17Z</time></trkpt><trkpt lat="35.7162897" lon="139.0315166"><ele>1166.9633333333334</ele><time>2023-07-22T02:51:31Z</time></trkpt><trkpt lat="35.7164144" lon="139.0316783"><ele>1166.91</ele><time>2023-07-22T02:51:39Z</time></trkpt><trkpt lat="35.7165147" lon="139.0318634"><ele>1166.7333333333333</ele><time>2023-07-22T02:51:53Z</time></trkpt><trkpt lat="35.7165143" lon="139.0320891"><ele>1167.1533333333334</ele><time>2023-07-22T02:52:11Z</time></trkpt><trkpt lat="35.7164841" lon="139.0323092"><ele>1167.7666666666667</ele><time>2023-07-22T02:52:26Z</time></trkpt><trkpt lat="35.7164753" lon="139.0325343"><ele>1169.1966666666667</ele><time>2023-07-22T02:52:43Z</time></trkpt><trkpt lat="35.7163666" lon="139.0327193"><ele>1169.8833333333334</ele><time>2023-07-22T02:53:00Z</time></trkpt><trkpt lat="35.7162025" lon="139.0328325"><ele>1172.8433333333332</ele><time>2023-07-22T02:53:13Z</time></trkpt><trkpt lat="35.716126" lon="139.0330375"><ele>1173.1833333333332</ele><time>2023-07-22T02:53:26Z</time></trkpt><trkpt lat="35.7159838" lon="139.0331879"><ele>1173.47</ele><time>2023-07-22T02:53:40Z</time></trkpt><trkpt lat="35.7158427" lon="139.0333265"><ele>1171.57</ele><time>2023-07-22T02:53:53Z</time></trkpt><trkpt lat="35.7157047" lon="139.0334707"><ele>1171.0200000000002</ele><time>2023-07-22T02:54:06Z</time></trkpt><trkpt lat="35.7155796" lon="139.0336317"><ele>1169.3966666666668</ele><time>2023-07-22T02:54:20Z</time></trkpt><trkpt lat="35.7154309" lon="139.033772"><ele>1169.1966666666667</ele><time>2023-07-22T02:54:32Z</time></trkpt><trkpt lat="35.7153836" lon="139.0339865"><ele>1168.4</ele><time>2023-07-22T02:54:44Z</time></trkpt><trkpt lat="35.7153759" lon="139.0342114"><ele>1168.2466666666667</ele><time>2023-07-22T02:54:58Z</time></trkpt><trkpt lat="35.7154242" lon="139.0344329"><ele>1167.3033333333333</ele><time>2023-07-22T02:55:15Z</time></trkpt><trkpt lat="35.7153398" lon="139.0346335"><ele>1167.9233333333334</ele><time>2023-07-22T02:55:28Z</time></trkpt><trkpt lat="35.7151722" lon="139.0347376"><ele>1169.3166666666668</ele><time>2023-07-22T02:55:42Z</time></trkpt><trkpt lat="35.7150008" lon="139.0348313"><ele>1171.1766666666665</ele><time>2023-07-22T02:55:55Z</time></trkpt><trkpt lat="35.7148674" lon="139.0349991"><ele>1172.2433333333333</ele><time>2023-07-22T02:56:08Z</time></trkpt><trkpt lat="35.7147001" lon="139.0350956"><ele>1173.1533333333334</ele><time>2023-07-22T02:56:21Z</time></trkpt><trkpt lat="35.7145727" lon="139.0352546"><ele>1172.7</ele><time>2023-07-22T02:56:30Z</time></trkpt><trkpt lat="35.7144257" lon="139.0353969"><ele>1172.6266666666668</ele><time>2023-07-22T02:56:45Z</time></trkpt><trkpt lat="35.7142704" lon="139.0355218"><ele>1171.8966666666668</ele><time>2023-07-22T02:57:00Z</time></trkpt><trkpt lat="35.7140946" lon="139.0356031"><ele>1171.2533333333333</ele><time>2023-07-22T02:57:11Z</time></trkpt><trkpt lat="35.7139564" lon="139.0357538"><ele>1169.9033333333334</ele><time>2023-07-22T02:57:26Z</time></trkpt><trkpt lat="35.7138714" lon="139.035956"><ele>1168.8933333333334</ele><time>2023-07-22T02:57:41Z</time></trkpt><trkpt lat="35.7137176" lon="139.0361023"><ele>1167.9966666666667</ele><time>2023-07-22T02:57:56Z</time></trkpt><trkpt lat="35.7135876" lon="139.0362655"><ele>1168.3233333333335</ele><time>2023-07-22T02:58:12Z</time></trkpt><trkpt lat="35.7134198" lon="139.036367"><ele>1168.5866666666668</ele><time>2023-07-22T02:58:24Z</time></trkpt><trkpt lat="35.7133052" lon="139.0365469"><ele>1168.6366666666665</ele><time>2023-07-22T02:58:41Z</time></trkpt><trkpt lat="35.7132175" lon="139.0367446"><ele>1167.7266666666667</ele><time>2023-07-22T02:58:53Z</time></trkpt><trkpt lat="35.71317" lon="139.0369624"><ele>1166.6499999999999</ele><time>2023-07-22T02:59:04Z</time></trkpt><trkpt lat="35.7130412" lon="139.0371225"><ele>1165.3533333333332</ele><time>2023-07-22T02:59:18Z</time></trkpt><trkpt lat="35.7129249" lon="139.0372941"><ele>1164.0033333333333</ele><time>2023-07-22T02:59:31Z</time></trkpt><trkpt lat="35.7128599" lon="139.0375022"><ele>1162.9166666666667</ele><time>2023-07-22T02:59:44Z</time></trkpt><trkpt lat="35.712736" lon="139.0376678"><ele>1161.8733333333334</ele><time>2023-07-22T02:59:59Z</time></trkpt><trkpt lat="35.7125795" lon="139.0377993"><ele>1159.8166666666666</ele><time>2023-07-22T03:00:28Z</time></trkpt><trkpt lat="35.7124049" lon="139.0378577"><ele>1156.2766666666666</ele><time>2023-07-22T03:00:41Z</time></trkpt><trkpt lat="35.7122279" lon="139.03795"><ele>1149.966666666667</ele><time>2023-07-22T03:00:55Z</time></trkpt><trkpt lat="35.7120712" lon="139.0380727"><ele>1145.1100000000001</ele><time>2023-07-22T03:01:08Z</time></trkpt><trkpt lat="35.7119146" lon="139.0382121"><ele>1141.993333333333</ele><time>2023-07-22T03:01:25Z</time></trkpt><trkpt lat="35.7117352" lon="139.0382669"><ele>1141.03</ele><time>2023-07-22T03:01:41Z</time></trkpt><trkpt lat="35.7115846" lon="139.038389"><ele>1138.55</ele><time>2023-07-22T03:01:54Z</time></trkpt><trkpt lat="35.711608" lon="139.0386424"><ele>1137.2833333333333</ele><time>2023-07-22T03:02:47Z</time></trkpt><trkpt lat="35.7116887" lon="139.038843"><ele>1137.4399999999998</ele><time>2023-07-22T03:03:27Z</time></trkpt><trkpt lat="35.7116498" lon="139.0390649"><ele>1139.7699999999998</ele><time>2023-07-22T03:03:43Z</time></trkpt><trkpt lat="35.7116057" lon="139.039285"><ele>1139.7433333333333</ele><time>2023-07-22T03:04:03Z</time></trkpt><trkpt lat="35.711527" lon="139.0394868"><ele>1140.7433333333336</ele><time>2023-07-22T03:04:09Z</time></trkpt><trkpt lat="35.7115458" lon="139.0397123"><ele>1141.5533333333333</ele><time>2023-07-22T03:04:22Z</time></trkpt><trkpt lat="35.7115134" lon="139.039934"><ele>1144.2933333333333</ele><time>2023-07-22T03:04:46Z</time></trkpt><trkpt lat="35.7113897" lon="139.0401"><ele>1146.3933333333334</ele><time>2023-07-22T03:05:03Z</time></trkpt><trkpt lat="35.7112498" lon="139.0402412"><ele>1147.17</ele><time>2023-07-22T03:05:17Z</time></trkpt><trkpt lat="35.7111322" lon="139.0404089"><ele>1146.5800000000002</ele><time>2023-07-22T03:05:37Z</time></trkpt><trkpt lat="35.7110581" lon="139.040615"><ele>1144.3666666666668</ele><time>2023-07-22T03:05:59Z</time></trkpt><trkpt lat="35.7109965" lon="139.0408363"><ele>1143.1433333333334</ele><time>2023-07-22T03:06:12Z</time></trkpt><trkpt lat="35.7109228" lon="139.041054"><ele>1143.8100000000002</ele><time>2023-07-22T03:06:26Z</time></trkpt><trkpt lat="35.7109647" lon="139.0412816"><ele>1145.0266666666669</ele><time>2023-07-22T03:06:42Z</time></trkpt><trkpt lat="35.7109337" lon="139.0415037"><ele>1146.1166666666668</ele><time>2023-07-22T03:06:53Z</time></trkpt><trkpt lat="35.7107851" lon="139.0416445"><ele>1147.2433333333333</ele><time>2023-07-22T03:07:04Z</time></trkpt><trkpt lat="35.7106968" lon="139.0418397"><ele>1149.51</ele><time>2023-07-22T03:07:21Z</time></trkpt><trkpt lat="35.7105479" lon="139.0419675"><ele>1151.8933333333334</ele><time>2023-07-22T03:07:32Z</time></trkpt><trkpt lat="35.7103877" lon="139.0420776"><ele>1152.57</ele><time>2023-07-22T03:07:53Z</time></trkpt><trkpt lat="35.7102871" lon="139.0422726"><ele>1151.82</ele><time>2023-07-22T03:08:05Z</time></trkpt><trkpt lat="35.7102652" lon="139.0424922"><ele>1149.8866666666665</ele><time>2023-07-22T03:08:17Z</time></trkpt><trkpt lat="35.7101021" lon="139.0426336"><ele>1148.05</ele><time>2023-07-22T03:08:37Z</time></trkpt><trkpt lat="35.7099848" lon="139.0428106"><ele>1145.57</ele><time>2023-07-22T03:08:49Z</time></trkpt><trkpt lat="35.7099337" lon="139.0430304"><ele>1143.7333333333333</ele><time>2023-07-22T03:09:11Z</time></trkpt><trkpt lat="35.709884" lon="139.0432443"><ele>1141.0766666666666</ele><time>2023-07-22T03:09:26Z</time></trkpt><trkpt lat="35.7097635" lon="139.0434099"><ele>1141.0733333333335</ele><time>2023-07-22T03:09:42Z</time></trkpt><trkpt lat="35.7097104" lon="139.0436235"><ele>1142.1166666666666</ele><time>2023-07-22T03:09:58Z</time></trkpt><trkpt lat="35.7096472" lon="139.0438364"><ele>1143.59</ele><time>2023-07-22T03:10:14Z</time></trkpt><trkpt lat="35.7095806" lon="139.0440514"><ele>1142.3</ele><time>2023-07-22T03:10:34Z</time></trkpt><trkpt lat="35.709434" lon="139.0441823"><ele>1139.9133333333332</ele><time>2023-07-22T03:11:01Z</time></trkpt><trkpt lat="35.7094643" lon="139.0444094"><ele>1136.1166666666668</ele><time>2023-07-22T03:11:22Z</time></trkpt><trkpt lat="35.7095466" lon="139.0446098"><ele>1132.2333333333333</ele><time>2023-07-22T03:11:35Z</time></trkpt><trkpt lat="35.7095841" lon="139.0448343"><ele>1127.87</ele><time>2023-07-22T03:11:46Z</time></trkpt><trkpt lat="35.7096235" lon="139.0450587"><ele>1124.76</ele><time>2023-07-22T03:11:58Z</time></trkpt><trkpt lat="35.709651" lon="139.0452878"><ele>1122.66</ele><time>2023-07-22T03:12:10Z</time></trkpt><trkpt lat="35.7097125" lon="139.0455126"><ele>1120.6366666666665</ele><time>2023-07-22T03:12:22Z</time></trkpt><trkpt lat="35.7097018" lon="139.0457388"><ele>1118.3066666666666</ele><time>2023-07-22T03:12:37Z</time></trkpt><trkpt lat="35.7095584" lon="139.0458786"><ele>1117.2466666666667</ele><time>2023-07-22T03:12:50Z</time></trkpt><trkpt lat="35.7094202" lon="139.0460265"><ele>1114.9666666666665</ele><time>2023-07-22T03:13:14Z</time></trkpt><trkpt lat="35.709279" lon="139.0461649"><ele>1111.7566666666667</ele><time>2023-07-22T03:13:34Z</time></trkpt><trkpt lat="35.7093367" lon="139.0463774"><ele>1106.4033333333334</ele><time>2023-07-22T03:14:31Z</time></trkpt><trkpt lat="35.7094596" lon="139.046551"><ele>1101.8666666666668</ele><time>2023-07-22T03:15:17Z</time></trkpt><trkpt lat="35.709594" lon="139.0467106"><ele>1097.7666666666667</ele><time>2023-07-22T03:15:30Z</time></trkpt><trkpt lat="35.7095933" lon="139.0469373"><ele>1096.1933333333334</ele><time>2023-07-22T03:15:51Z</time></trkpt><trkpt lat="35.7094954" lon="139.0471299"><ele>1098.4233333333334</ele><time>2023-07-22T03:16:04Z</time></trkpt><trkpt lat="35.7094278" lon="139.0473373"><ele>1102.82</ele><time>2023-07-22T03:16:24Z</time></trkpt><trkpt lat="35.7092811" lon="139.0474897"><ele>1107.1999999999998</ele><time>2023-07-22T03:16:40Z</time></trkpt><trkpt lat="35.7090931" lon="139.0475091"><ele>1109.7633333333333</ele><time>2023-07-22T03:16:57Z</time></trkpt><trkpt lat="35.7089632" lon="139.0476634"><ele>1111.7833333333335</ele><time>2023-07-22T03:17:12Z</time></trkpt><trkpt lat="35.7088482" lon="139.0478493"><ele>1112.6133333333335</ele><time>2023-07-22T03:17:30Z</time></trkpt><trkpt lat="35.7086736" lon="139.047923"><ele>1113.2666666666667</ele><time>2023-07-22T03:17:43Z</time></trkpt><trkpt lat="35.7085572" lon="139.0481125"><ele>1112.6966666666667</ele><time>2023-07-22T03:18:08Z</time></trkpt><trkpt lat="35.7083944" lon="139.0482257"><ele>1112.68</ele><time>2023-07-22T03:18:19Z</time></trkpt><trkpt lat="35.708341" lon="139.0484385"><ele>1110.7766666666666</ele><time>2023-07-22T03:18:37Z</time></trkpt><trkpt lat="35.7083528" lon="139.0486735"><ele>1108.3966666666668</ele><time>2023-07-22T03:18:56Z</time></trkpt><trkpt lat="35.7083809" lon="139.0488955"><ele>1104.5033333333333</ele><time>2023-07-22T03:19:12Z</time></trkpt><trkpt lat="35.7083044" lon="139.0490979"><ele>1104.0</ele><time>2023-07-22T03:19:38Z</time></trkpt><trkpt lat="35.7081819" lon="139.0492627"><ele>1106.8933333333334</ele><time>2023-07-22T03:19:52Z</time></trkpt><trkpt lat="35.7081171" lon="139.0494747"><ele>1109.9933333333336</ele><time>2023-07-22T03:20:07Z</time></trkpt><trkpt lat="35.7080286" lon="139.0496717"><ele>1111.1966666666667</ele><time>2023-07-22T03:20:16Z</time></trkpt><trkpt lat="35.707938" lon="139.049876"><ele>1110.4566666666667</ele><time>2023-07-22T03:20:30Z</time></trkpt><trkpt lat="35.7077899" lon="139.0500021"><ele>1110.8833333333332</ele><time>2023-07-22T03:20:48Z</time></trkpt><trkpt lat="35.7076683" lon="139.0501654"><ele>1110.8933333333332</ele><time>2023-07-22T03:21:06Z</time></trkpt><trkpt lat="35.7076415" lon="139.0503957"><ele>1111.38</ele><time>2023-07-22T03:21:51Z</time></trkpt><trkpt lat="35.7076649" lon="139.0506223"><ele>1113.4333333333334</ele><time>2023-07-22T03:22:03Z</time></trkpt><trkpt lat="35.7075428" lon="139.0507899"><ele>1116.4433333333334</ele><time>2023-07-22T03:22:15Z</time></trkpt><trkpt lat="35.7073529" lon="139.0508386"><ele>1118.9433333333334</ele><time>2023-07-22T03:22:32Z</time></trkpt><trkpt lat="35.7071856" lon="139.0509247"><ele>1119.3233333333335</ele><time>2023-07-22T03:22:42Z</time></trkpt><trkpt lat="35.7070089" lon="139.0510233"><ele>1118.3066666666666</ele><time>2023-07-22T03:23:06Z</time></trkpt><trkpt lat="35.706831" lon="139.0510667"><ele>1115.8533333333332</ele><time>2023-07-22T03:23:16Z</time></trkpt><trkpt lat="35.7066827" lon="139.0511981"><ele>1113.1366666666665</ele><time>2023-07-22T03:23:27Z</time></trkpt><trkpt lat="35.7065756" lon="139.0513794"><ele>1110.7933333333333</ele><time>2023-07-22T03:23:44Z</time></trkpt><trkpt lat="35.7064334" lon="139.0515302"><ele>1108.8433333333332</ele><time>2023-07-22T03:24:00Z</time></trkpt><trkpt lat="35.7062704" lon="139.0516389"><ele>1106.41</ele><time>2023-07-22T03:24:14Z</time></trkpt><trkpt lat="35.7060912" lon="139.0517287"><ele>1103.22</ele><time>2023-07-22T03:24:24Z</time></trkpt><trkpt lat="35.7059135" lon="139.0517856"><ele>1099.5333333333333</ele><time>2023-07-22T03:24:37Z</time></trkpt><trkpt lat="35.7057832" lon="139.0519401"><ele>1095.9166666666667</ele><time>2023-07-22T03:24:50Z</time></trkpt><trkpt lat="35.7055946" lon="139.0519578"><ele>1091.9533333333336</ele><time>2023-07-22T03:25:02Z</time></trkpt><trkpt lat="35.7054111" lon="139.0519905"><ele>1089.0033333333333</ele><time>2023-07-22T03:25:15Z</time></trkpt><trkpt lat="35.7052249" lon="139.0520004"><ele>1086.03</ele><time>2023-07-22T03:25:28Z</time></trkpt><trkpt lat="35.7050571" lon="139.0519072"><ele>1082.9133333333332</ele><time>2023-07-22T03:25:43Z</time></trkpt><trkpt lat="35.7048658" lon="139.0519617"><ele>1080.2666666666667</ele><time>2023-07-22T03:25:56Z</time></trkpt><trkpt lat="35.7046883" lon="139.0519082"><ele>1078.1166666666668</ele><time>2023-07-22T03:26:54Z</time></trkpt><trkpt lat="35.7048094" lon="139.0520734"><ele>1078.9333333333334</ele><time>2023-07-22T03:28:03Z</time></trkpt><trkpt lat="35.7048093" lon="139.0522987"><ele>1078.9133333333332</ele><time>2023-07-22T03:28:16Z</time></trkpt><trkpt lat="35.704835" lon="139.0525201"><ele>1076.9799999999998</ele><time>2023-07-22T03:28:36Z</time></trkpt><trkpt lat="35.7047416" lon="139.0527122"><ele>1071.8333333333333</ele><time>2023-07-22T03:28:51Z</time></trkpt><trkpt lat="35.7047154" lon="139.0529343"><ele>1066.0066666666664</ele><time>2023-07-22T03:29:06Z</time></trkpt><trkpt lat="35.7046094" lon="139.0531259"><ele>1061.1</ele><time>2023-07-22T03:29:34Z</time></trkpt><trkpt lat="35.7045302" lon="139.053331"><ele>1057.3300000000002</ele><time>2023-07-22T03:29:46Z</time></trkpt><trkpt lat="35.7044694" lon="139.0535466"><ele>1053.92</ele><time>2023-07-22T03:29:59Z</time></trkpt><trkpt lat="35.7043665" lon="139.0537333"><ele>1051.2566666666664</ele><time>2023-07-22T03:30:18Z</time></trkpt><trkpt lat="35.704287" lon="139.0539567"><ele>1046.8666666666666</ele><time>2023-07-22T03:30:29Z</time></trkpt><trkpt lat="35.704159" lon="139.0541292"><ele>1043.9333333333334</ele><time>2023-07-22T03:30:41Z</time></trkpt><trkpt lat="35.7040364" lon="139.0543031"><ele>1041.75</ele><time>2023-07-22T03:30:53Z</time></trkpt><trkpt lat="35.703887" lon="139.0544513"><ele>1042.39</ele><time>2023-07-22T03:31:11Z</time></trkpt><trkpt lat="35.7037747" lon="139.0546265"><ele>1042.93</ele><time>2023-07-22T03:31:27Z</time></trkpt><trkpt lat="35.7036632" lon="139.0548061"><ele>1043.6933333333334</ele><time>2023-07-22T03:31:45Z</time></trkpt><trkpt lat="35.7036417" lon="139.0550377"><ele>1045.7533333333333</ele><time>2023-07-22T03:32:13Z</time></trkpt><trkpt lat="35.7035704" lon="139.0552449"><ele>1049.0766666666666</ele><time>2023-07-22T03:32:40Z</time></trkpt><trkpt lat="35.7034819" lon="139.0554491"><ele>1052.8</ele><time>2023-07-22T03:32:51Z</time></trkpt><trkpt lat="35.7033673" lon="139.0556282"><ele>1055.3066666666666</ele><time>2023-07-22T03:33:09Z</time></trkpt><trkpt lat="35.7032487" lon="139.0557978"><ele>1056.83</ele><time>2023-07-22T03:33:27Z</time></trkpt><trkpt lat="35.703198" lon="139.0560106"><ele>1057.5200000000002</ele><time>2023-07-22T03:33:44Z</time></trkpt><trkpt lat="35.7030754" lon="139.0561805"><ele>1056.7233333333334</ele><time>2023-07-22T03:34:00Z</time></trkpt><trkpt lat="35.7029715" lon="139.0563631"><ele>1053.5566666666666</ele><time>2023-07-22T03:34:15Z</time></trkpt><trkpt lat="35.7029751" lon="139.056592"><ele>1047.7933333333333</ele><time>2023-07-22T03:34:53Z</time></trkpt><trkpt lat="35.7028971" lon="139.0568128"><ele>1040.9366666666667</ele><time>2023-07-22T03:35:17Z</time></trkpt><trkpt lat="35.702824" lon="139.057026"><ele>1035.4733333333334</ele><time>2023-07-22T03:35:28Z</time></trkpt><trkpt lat="35.7027468" lon="139.0572264"><ele>1030.8766666666668</ele><time>2023-07-22T03:35:50Z</time></trkpt><trkpt lat="35.7027571" lon="139.0574565"><ele>1027.3633333333332</ele><time>2023-07-22T03:36:04Z</time></trkpt><trkpt lat="35.7026742" lon="139.0576533"><ele>1023.6233333333334</ele><time>2023-07-22T03:36:16Z</time></trkpt><trkpt lat="35.7025717" lon="139.0578519"><ele>1020.5066666666667</ele><time>2023-07-22T03:36:29Z</time></trkpt><trkpt lat="35.7024402" lon="139.0580095"><ele>1017.9533333333334</ele><time>2023-07-22T03:36:44Z</time></trkpt><trkpt lat="35.7023275" lon="139.0581892"><ele>1015.98</ele><time>2023-07-22T03:36:58Z</time></trkpt><trkpt lat="35.7022412" lon="139.0583932"><ele>1014.6566666666668</ele><time>2023-07-22T03:37:12Z</time></trkpt><trkpt lat="35.7021978" lon="139.0586165"><ele>1013.14</ele><time>2023-07-22T03:37:31Z</time></trkpt><trkpt lat="35.7021603" lon="139.0588406"><ele>1011.6999999999999</ele><time>2023-07-22T03:38:05Z</time></trkpt><trkpt lat="35.7020952" lon="139.0590486"><ele>1009.91</ele><time>2023-07-22T03:38:19Z</time></trkpt><trkpt lat="35.7020084" lon="139.0592463"><ele>1007.5100000000001</ele><time>2023-07-22T03:38:31Z</time></trkpt><trkpt lat="35.7019908" lon="139.0594717"><ele>1003.1533333333333</ele><time>2023-07-22T03:38:57Z</time></trkpt><trkpt lat="35.7019104" lon="139.0596777"><ele>998.7533333333334</ele><time>2023-07-22T03:39:12Z</time></trkpt><trkpt lat="35.7019047" lon="139.0598999"><ele>995.5666666666667</ele><time>2023-07-22T03:39:31Z</time></trkpt><trkpt lat="35.7018188" lon="139.0601002"><ele>996.0333333333334</ele><time>2023-07-22T03:39:47Z</time></trkpt><trkpt lat="35.701699" lon="139.0602777"><ele>997.5133333333333</ele><time>2023-07-22T03:39:58Z</time></trkpt><trkpt lat="35.7016142" lon="139.0604902"><ele>998.94</ele><time>2023-07-22T03:40:06Z</time></trkpt><trkpt lat="35.7015834" lon="139.0607099"><ele>999.4566666666666</ele><time>2023-07-22T03:40:16Z</time></trkpt><trkpt lat="35.7015779" lon="139.0609327"><ele>1000.9066666666666</ele><time>2023-07-22T03:40:28Z</time></trkpt><trkpt lat="35.7016323" lon="139.0611449"><ele>1003.5466666666666</ele><time>2023-07-22T03:40:38Z</time></trkpt><trkpt lat="35.7014869" lon="139.0612898"><ele>1006.4033333333333</ele><time>2023-07-22T03:43:00Z</time></trkpt><trkpt lat="35.7014568" lon="139.0615108"><ele>1009.5966666666667</ele><time>2023-07-22T03:43:14Z</time></trkpt><trkpt lat="35.7013317" lon="139.0616838"><ele>1012.9433333333333</ele><time>2023-07-22T03:43:29Z</time></trkpt><trkpt lat="35.7012939" lon="139.0619168"><ele>1016.8133333333334</ele><time>2023-07-22T03:44:08Z</time></trkpt><trkpt lat="35.7011765" lon="139.0621024"><ele>1020.46</ele><time>2023-07-22T03:44:24Z</time></trkpt><trkpt lat="35.7010985" lon="139.0623137"><ele>1024.3833333333332</ele><time>2023-07-22T03:44:40Z</time></trkpt><trkpt lat="35.7010671" lon="139.0625375"><ele>1028.0199999999998</ele><time>2023-07-22T03:45:00Z</time></trkpt><trkpt lat="35.7008953" lon="139.0626545"><ele>1031.5033333333333</ele><time>2023-07-22T03:45:19Z</time></trkpt><trkpt lat="35.7007287" lon="139.0627584"><ele>1034.61</ele><time>2023-07-22T03:45:43Z</time></trkpt><trkpt lat="35.7006218" lon="139.0629435"><ele>1038.2366666666667</ele><time>2023-07-22T03:46:14Z</time></trkpt><trkpt lat="35.7004589" lon="139.0630638"><ele>1041.7366666666667</ele><time>2023-07-22T03:46:29Z</time></trkpt><trkpt lat="35.7002869" lon="139.0631589"><ele>1045.7266666666667</ele><time>2023-07-22T03:47:23Z</time></trkpt><trkpt lat="35.7001225" lon="139.0632899"><ele>1049.5866666666668</ele><time>2023-07-22T03:47:39Z</time></trkpt><trkpt lat="35.6999986" lon="139.0634548"><ele>1054.5233333333333</ele><time>2023-07-22T03:48:04Z</time></trkpt><trkpt lat="35.6998763" lon="139.0636354"><ele>1059.9800000000002</ele><time>2023-07-22T03:49:29Z</time></trkpt><trkpt lat="35.6998085" lon="139.0638578"><ele>1066.4799999999998</ele><time>2023-07-22T03:50:07Z</time></trkpt><trkpt lat="35.6997095" lon="139.0640554"><ele>1073.1966666666667</ele><time>2023-07-22T03:50:26Z</time></trkpt><trkpt lat="35.6997615" lon="139.064274"><ele>1075.7933333333333</ele><time>2023-07-22T03:50:49Z</time></trkpt><trkpt lat="35.6996646" lon="139.0644626"><ele>1078.6366666666665</ele><time>2023-07-22T03:51:05Z</time></trkpt><trkpt lat="35.6995189" lon="139.0646015"><ele>1081.3666666666666</ele><time>2023-07-22T03:51:24Z</time></trkpt><trkpt lat="35.6994345" lon="139.0648008"><ele>1085.42</ele><time>2023-07-22T03:52:14Z</time></trkpt><trkpt lat="35.6992509" lon="139.0647858"><ele>1086.7533333333333</ele><time>2023-07-22T03:52:34Z</time></trkpt><trkpt lat="35.699066" lon="139.0647287"><ele>1086.8866666666665</ele><time>2023-07-22T03:52:43Z</time></trkpt><trkpt lat="35.6988835" lon="139.0647177"><ele>1088.0833333333333</ele><time>2023-07-22T03:52:52Z</time></trkpt><trkpt lat="35.6987851" lon="139.0649036"><ele>1086.9199999999998</ele><time>2023-07-22T03:53:06Z</time></trkpt><trkpt lat="35.6986164" lon="139.0649836"><ele>1085.243333333333</ele><time>2023-07-22T03:53:24Z</time></trkpt><trkpt lat="35.6984812" lon="139.0651496"><ele>1082.25</ele><time>2023-07-22T03:53:40Z</time></trkpt><trkpt lat="35.69846" lon="139.0653825"><ele>1077.3966666666668</ele><time>2023-07-22T03:53:51Z</time></trkpt><trkpt lat="35.6983806" lon="139.0655866"><ele>1070.5866666666668</ele><time>2023-07-22T03:54:06Z</time></trkpt><trkpt lat="35.6981945" lon="139.0655836"><ele>1067.3433333333335</ele><time>2023-07-22T03:54:15Z</time></trkpt><trkpt lat="35.69806" lon="139.0657316"><ele>1067.3533333333335</ele><time>2023-07-22T03:54:29Z</time></trkpt><trkpt lat="35.6981057" lon="139.0659475"><ele>1066.7</ele><time>2023-07-22T03:55:08Z</time></trkpt><trkpt lat="35.6981932" lon="139.0661673"><ele>1062.0866666666668</ele><time>2023-07-22T03:55:20Z</time></trkpt><trkpt lat="35.6983128" lon="139.0663339"><ele>1057.1733333333334</ele><time>2023-07-22T03:55:34Z</time></trkpt><trkpt lat="35.6985" lon="139.0663796"><ele>1054.1000000000001</ele><time>2023-07-22T03:55:54Z</time></trkpt><trkpt lat="35.6986336" lon="139.066535"><ele>1053.2666666666667</ele><time>2023-07-22T03:56:05Z</time></trkpt><trkpt lat="35.6986153" lon="139.0667554"><ele>1053.5933333333332</ele><time>2023-07-22T03:56:17Z</time></trkpt><trkpt lat="35.6986539" lon="139.0669756"><ele>1053.5966666666666</ele><time>2023-07-22T03:56:30Z</time></trkpt><trkpt lat="35.6986442" lon="139.0671988"><ele>1052.2933333333333</ele><time>2023-07-22T03:56:47Z</time></trkpt><trkpt lat="35.698629" lon="139.0674316"><ele>1051.0466666666669</ele><time>2023-07-22T03:57:05Z</time></trkpt><trkpt lat="35.6985767" lon="139.0676448"><ele>1050.3066666666666</ele><time>2023-07-22T03:57:16Z</time></trkpt><trkpt lat="35.6985787" lon="139.0678743"><ele>1048.6766666666665</ele><time>2023-07-22T03:57:27Z</time></trkpt><trkpt lat="35.6985129" lon="139.068091"><ele>1046.1</ele><time>2023-07-22T03:57:53Z</time></trkpt><trkpt lat="35.6983487" lon="139.0681918"><ele>1042.1133333333335</ele><time>2023-07-22T03:58:09Z</time></trkpt><trkpt lat="35.698209" lon="139.0683404"><ele>1037.64</ele><time>2023-07-22T03:58:26Z</time></trkpt><trkpt lat="35.6981657" lon="139.0685648"><ele>1034.3899999999999</ele><time>2023-07-22T03:58:41Z</time></trkpt><trkpt lat="35.6982104" lon="139.068782"><ele>1033.8933333333334</ele><time>2023-07-22T03:58:55Z</time></trkpt><trkpt lat="35.6980859" lon="139.0689435"><ele>1036.283333333333</ele><time>2023-07-22T03:59:11Z</time></trkpt><trkpt lat="35.6979952" lon="139.0691424"><ele>1038.82</ele><time>2023-07-22T03:59:28Z</time></trkpt><trkpt lat="35.697971" lon="139.0693739"><ele>1040.6299999999999</ele><time>2023-07-22T03:59:43Z</time></trkpt><trkpt lat="35.6979233" lon="139.0696084"><ele>1041.2066666666667</ele><time>2023-07-22T03:59:58Z</time></trkpt><trkpt lat="35.6979151" lon="139.0698398"><ele>1042.57</ele><time>2023-07-22T04:00:16Z</time></trkpt><trkpt lat="35.6978986" lon="139.0700649"><ele>1043.8933333333334</ele><time>2023-07-22T04:00:42Z</time></trkpt><trkpt lat="35.6978486" lon="139.070281"><ele>1046.6066666666668</ele><time>2023-07-22T04:01:02Z</time></trkpt><trkpt lat="35.6977861" lon="139.0705099"><ele>1049.1066666666668</ele><time>2023-07-22T04:01:38Z</time></trkpt><trkpt lat="35.6977299" lon="139.070736"><ele>1051.6166666666666</ele><time>2023-07-22T04:02:12Z</time></trkpt><trkpt lat="35.6975735" lon="139.0708749"><ele>1053.0966666666666</ele><time>2023-07-22T04:02:30Z</time></trkpt><trkpt lat="35.6974352" lon="139.0710277"><ele>1053.6666666666667</ele><time>2023-07-22T04:02:57Z</time></trkpt><trkpt lat="35.6973147" lon="139.0712042"><ele>1053.8866666666665</ele><time>2023-07-22T04:03:12Z</time></trkpt><trkpt lat="35.697126" lon="139.0712153"><ele>1052.9766666666667</ele><time>2023-07-22T04:03:23Z</time></trkpt><trkpt lat="35.6969667" lon="139.0713233"><ele>1049.1233333333332</ele><time>2023-07-22T04:03:56Z</time></trkpt><trkpt lat="35.6968034" lon="139.0714242"><ele>1045.1899999999998</ele><time>2023-07-22T04:04:07Z</time></trkpt><trkpt lat="35.6966419" lon="139.0715346"><ele>1041.71</ele><time>2023-07-22T04:04:18Z</time></trkpt><trkpt lat="35.6964674" lon="139.0716327"><ele>1038.1233333333334</ele><time>2023-07-22T04:04:31Z</time></trkpt><trkpt lat="35.6962932" lon="139.0717133"><ele>1032.7933333333333</ele><time>2023-07-22T04:04:46Z</time></trkpt><trkpt lat="35.6961717" lon="139.0718963"><ele>1029.6866666666667</ele><time>2023-07-22T04:05:27Z</time></trkpt><trkpt lat="35.6959896" lon="139.0719536"><ele>1029.9199999999998</ele><time>2023-07-22T04:05:42Z</time></trkpt><trkpt lat="35.69588" lon="139.0721406"><ele>1031.9033333333334</ele><time>2023-07-22T04:06:35Z</time></trkpt><trkpt lat="35.6957139" lon="139.0722346"><ele>1034.3666666666666</ele><time>2023-07-22T04:06:38Z</time></trkpt><trkpt lat="35.6955954" lon="139.0724027"><ele>1037.67</ele><time>2023-07-22T04:06:51Z</time></trkpt><trkpt lat="35.695501" lon="139.0725963"><ele>1041.45</ele><time>2023-07-22T04:07:17Z</time></trkpt><trkpt lat="35.6955686" lon="139.0728039"><ele>1042.4466666666667</ele><time>2023-07-22T04:07:27Z</time></trkpt><trkpt lat="35.6955824" lon="139.0730274"><ele>1041.1000000000001</ele><time>2023-07-22T04:07:38Z</time></trkpt><trkpt lat="35.6955777" lon="139.0732546"><ele>1038.4633333333334</ele><time>2023-07-22T04:07:50Z</time></trkpt><trkpt lat="35.6955257" lon="139.0734717"><ele>1035.6466666666665</ele><time>2023-07-22T04:08:07Z</time></trkpt><trkpt lat="35.6954313" lon="139.0736685"><ele>1032.8866666666668</ele><time>2023-07-22T04:08:18Z</time></trkpt><trkpt lat="35.695467" lon="139.0738878"><ele>1030.0833333333333</ele><time>2023-07-22T04:08:34Z</time></trkpt><trkpt lat="35.6955913" lon="139.0740573"><ele>1027.38</ele><time>2023-07-22T04:08:50Z</time></trkpt><trkpt lat="35.6956666" lon="139.0742702"><ele>1025.1333333333332</ele><time>2023-07-22T04:09:04Z</time></trkpt><trkpt lat="35.6957034" lon="139.0744934"><ele>1023.5166666666668</ele><time>2023-07-22T04:09:17Z</time></trkpt><trkpt lat="35.6956929" lon="139.0747273"><ele>1021.9</ele><time>2023-07-22T04:09:33Z</time></trkpt><trkpt lat="35.6956606" lon="139.0749568"><ele>1019.63</ele><time>2023-07-22T04:10:00Z</time></trkpt><trkpt lat="35.6955285" lon="139.0751124"><ele>1016.5300000000001</ele><time>2023-07-22T04:10:15Z</time></trkpt><trkpt lat="35.6954313" lon="139.0753113"><ele>1012.1733333333333</ele><time>2023-07-22T04:11:10Z</time></trkpt><trkpt lat="35.6953846" lon="139.0755324"><ele>1004.8633333333333</ele><time>2023-07-22T04:11:55Z</time></trkpt><trkpt lat="35.6952173" lon="139.0756273"><ele>996.6566666666668</ele><time>2023-07-22T04:12:08Z</time></trkpt><trkpt lat="35.6950456" lon="139.0757108"><ele>988.8266666666668</ele><time>2023-07-22T04:12:25Z</time></trkpt><trkpt lat="35.6950653" lon="139.0759699"><ele>983.8866666666667</ele><time>2023-07-22T04:12:45Z</time></trkpt><trkpt lat="35.6951073" lon="139.0761932"><ele>979.8866666666668</ele><time>2023-07-22T04:12:54Z</time></trkpt><trkpt lat="35.695096" lon="139.0764169"><ele>977.2366666666667</ele><time>2023-07-22T04:13:15Z</time></trkpt><trkpt lat="35.6950748" lon="139.0766429"><ele>975.1766666666667</ele><time>2023-07-22T04:13:41Z</time></trkpt><trkpt lat="35.6951578" lon="139.0768632"><ele>972.48</ele><time>2023-07-22T04:13:54Z</time></trkpt><trkpt lat="35.6952736" lon="139.0770382"><ele>970.6933333333333</ele><time>2023-07-22T04:14:12Z</time></trkpt><trkpt lat="35.6954165" lon="139.0771761"><ele>969.9699999999999</ele><time>2023-07-22T04:14:24Z</time></trkpt><trkpt lat="35.6954981" lon="139.0773781"><ele>971.65</ele><time>2023-07-22T04:14:39Z</time></trkpt><trkpt lat="35.6956824" lon="139.0774178"><ele>971.7466666666666</ele><time>2023-07-22T04:14:58Z</time></trkpt><trkpt lat="35.6957501" lon="139.0776266"><ele>971.5466666666667</ele><time>2023-07-22T04:15:10Z</time></trkpt><trkpt lat="35.6957163" lon="139.0778492"><ele>971.18</ele><time>2023-07-22T04:15:22Z</time></trkpt><trkpt lat="35.6958067" lon="139.0780438"><ele>971.0900000000001</ele><time>2023-07-22T04:15:34Z</time></trkpt><trkpt lat="35.6958647" lon="139.0782559"><ele>969.9133333333333</ele><time>2023-07-22T04:15:59Z</time></trkpt><trkpt lat="35.695929" lon="139.0784742"><ele>967.4333333333334</ele><time>2023-07-22T04:16:08Z</time></trkpt><trkpt lat="35.6958862" lon="139.0786916"><ele>966.8533333333334</ele><time>2023-07-22T04:16:22Z</time></trkpt><trkpt lat="35.6957804" lon="139.078875"><ele>967.5666666666667</ele><time>2023-07-22T04:16:36Z</time></trkpt><trkpt lat="35.6957444" lon="139.0790931"><ele>968.3833333333333</ele><time>2023-07-22T04:16:48Z</time></trkpt><trkpt lat="35.695859" lon="139.079273"><ele>966.25</ele><time>2023-07-22T04:17:03Z</time></trkpt><trkpt lat="35.6959246" lon="139.0794971"><ele>963.5233333333332</ele><time>2023-07-22T04:17:24Z</time></trkpt><trkpt lat="35.6958554" lon="139.0797222"><ele>961.8133333333332</ele><time>2023-07-22T04:17:34Z</time></trkpt><trkpt lat="35.695701" lon="139.0798667"><ele>962.09</ele><time>2023-07-22T04:17:47Z</time></trkpt><trkpt lat="35.6957328" lon="139.0800956"><ele>962.7233333333334</ele><time>2023-07-22T04:17:56Z</time></trkpt><trkpt lat="35.6957464" lon="139.0803185"><ele>963.27</ele><time>2023-07-22T04:18:10Z</time></trkpt><trkpt lat="35.6957222" lon="139.0805394"><ele>963.3033333333333</ele><time>2023-07-22T04:18:24Z</time></trkpt><trkpt lat="35.6957557" lon="139.0807672"><ele>963.12</ele><time>2023-07-22T04:18:48Z</time></trkpt><trkpt lat="35.6957607" lon="139.0810004"><ele>963.0100000000001</ele><time>2023-07-22T04:18:59Z</time></trkpt><trkpt lat="35.695694" lon="139.0812065"><ele>962.9399999999999</ele><time>2023-07-22T04:19:11Z</time></trkpt><trkpt lat="35.6956903" lon="139.0814286"><ele>964.0033333333332</ele><time>2023-07-22T04:20:12Z</time></trkpt><trkpt lat="35.6955682" lon="139.0815938"><ele>966.5133333333333</ele><time>2023-07-22T04:21:10Z</time></trkpt><trkpt lat="35.6955357" lon="139.0818284"><ele>971.1</ele><time>2023-07-22T04:21:22Z</time></trkpt><trkpt lat="35.6954296" lon="139.0820193"><ele>974.42</ele><time>2023-07-22T04:21:36Z</time></trkpt><trkpt lat="35.6954121" lon="139.0822453"><ele>978.4233333333333</ele><time>2023-07-22T04:21:58Z</time></trkpt><trkpt lat="35.6953172" lon="139.0824449"><ele>981.9166666666666</ele><time>2023-07-22T04:22:36Z</time></trkpt><trkpt lat="35.6952176" lon="139.0826301"><ele>986.1833333333334</ele><time>2023-07-22T04:22:51Z</time></trkpt><trkpt lat="35.695047" lon="139.0827289"><ele>989.0433333333334</ele><time>2023-07-22T04:23:04Z</time></trkpt><trkpt lat="35.6949042" lon="139.08287"><ele>991.3366666666667</ele><time>2023-07-22T04:23:25Z</time></trkpt><trkpt lat="35.6948076" lon="139.0830568"><ele>993.2133333333335</ele><time>2023-07-22T04:24:01Z</time></trkpt><trkpt lat="35.6946848" lon="139.0832232"><ele>996.3000000000001</ele><time>2023-07-22T04:24:25Z</time></trkpt><trkpt lat="35.6945333" lon="139.0833608"><ele>999.2933333333334</ele><time>2023-07-22T04:24:43Z</time></trkpt><trkpt lat="35.694448" lon="139.08356"><ele>1002.3366666666667</ele><time>2023-07-22T04:25:00Z</time></trkpt><trkpt lat="35.6943463" lon="139.0837479"><ele>1002.64</ele><time>2023-07-22T04:25:31Z</time></trkpt><trkpt lat="35.6941822" lon="139.0838468"><ele>1001.9433333333333</ele><time>2023-07-22T04:25:42Z</time></trkpt><trkpt lat="35.694064" lon="139.0840291"><ele>1000.2033333333334</ele><time>2023-07-22T04:25:55Z</time></trkpt><trkpt lat="35.6939273" lon="139.0841861"><ele>996.7933333333334</ele><time>2023-07-22T04:26:09Z</time></trkpt><trkpt lat="35.6937426" lon="139.0842098"><ele>993.9633333333335</ele><time>2023-07-22T04:26:20Z</time></trkpt><trkpt lat="35.6935734" lon="139.0842978"><ele>994.3566666666666</ele><time>2023-07-22T04:26:53Z</time></trkpt><trkpt lat="35.693436" lon="139.0844419"><ele>997.25</ele><time>2023-07-22T04:27:14Z</time></trkpt><trkpt lat="35.6933707" lon="139.0846531"><ele>999.59</ele><time>2023-07-22T04:27:49Z</time></trkpt><trkpt lat="35.6932307" lon="139.084796"><ele>999.5966666666667</ele><time>2023-07-22T04:28:20Z</time></trkpt><trkpt lat="35.6931527" lon="139.0850258"><ele>998.5333333333333</ele><time>2023-07-22T04:28:36Z</time></trkpt><trkpt lat="35.6932766" lon="139.0851918"><ele>996.18</ele><time>2023-07-22T04:28:44Z</time></trkpt><trkpt lat="35.6933412" lon="139.0854034"><ele>993.5600000000001</ele><time>2023-07-22T04:28:55Z</time></trkpt><trkpt lat="35.6933251" lon="139.0856266"><ele>991.8566666666666</ele><time>2023-07-22T04:29:11Z</time></trkpt><trkpt lat="35.6932428" lon="139.0858377"><ele>991.1566666666666</ele><time>2023-07-22T04:29:32Z</time></trkpt><trkpt lat="35.6932121" lon="139.0860684"><ele>988.6300000000001</ele><time>2023-07-22T04:30:00Z</time></trkpt><trkpt lat="35.6930668" lon="139.0862114"><ele>985.4233333333333</ele><time>2023-07-22T04:30:11Z</time></trkpt><trkpt lat="35.692887" lon="139.0861692"><ele>981.6433333333334</ele><time>2023-07-22T04:30:22Z</time></trkpt><trkpt lat="35.6927398" lon="139.0863152"><ele>977.4200000000001</ele><time>2023-07-22T04:30:38Z</time></trkpt><trkpt lat="35.6926709" lon="139.0865194"><ele>971.4933333333333</ele><time>2023-07-22T04:30:54Z</time></trkpt><trkpt lat="35.6925379" lon="139.0866731"><ele>963.91</ele><time>2023-07-22T04:31:18Z</time></trkpt><trkpt lat="35.6924717" lon="139.0868791"><ele>956.7166666666667</ele><time>2023-07-22T04:31:49Z</time></trkpt><trkpt lat="35.6923564" lon="139.0870542"><ele>949.4566666666666</ele><time>2023-07-22T04:32:26Z</time></trkpt><trkpt lat="35.6923508" lon="139.0872845"><ele>941.32</ele><time>2023-07-22T04:32:34Z</time></trkpt><trkpt lat="35.6921815" lon="139.0873871"><ele>935.5799999999999</ele><time>2023-07-22T04:32:49Z</time></trkpt><trkpt lat="35.6920133" lon="139.087495"><ele>932.31</ele><time>2023-07-22T04:33:14Z</time></trkpt><trkpt lat="35.691958" lon="139.0877119"><ele>930.3266666666667</ele><time>2023-07-22T04:33:29Z</time></trkpt><trkpt lat="35.691862" lon="139.0879"><ele>928.0600000000001</ele><time>2023-07-22T04:33:44Z</time></trkpt><trkpt lat="35.6919287" lon="139.0881122"><ele>923.5333333333334</ele><time>2023-07-22T04:33:59Z</time></trkpt><trkpt lat="35.6918724" lon="139.0883344"><ele>919.9533333333334</ele><time>2023-07-22T04:34:11Z</time></trkpt><trkpt lat="35.6917188" lon="139.0884575"><ele>917.3633333333333</ele><time>2023-07-22T04:34:27Z</time></trkpt><trkpt lat="35.691729" lon="139.0886878"><ele>914.7133333333335</ele><time>2023-07-22T04:34:42Z</time></trkpt><trkpt lat="35.6917776" lon="139.0889067"><ele>909.3133333333334</ele><time>2023-07-22T04:35:00Z</time></trkpt><trkpt lat="35.6917036" lon="139.0891252"><ele>903.3233333333334</ele><time>2023-07-22T04:35:13Z</time></trkpt><trkpt lat="35.6916422" lon="139.0893364"><ele>898.89</ele><time>2023-07-22T04:35:27Z</time></trkpt><trkpt lat="35.691562" lon="139.0895404"><ele>898.5100000000001</ele><time>2023-07-22T04:35:42Z</time></trkpt><trkpt lat="35.6914498" lon="139.089731"><ele>898.9266666666667</ele><time>2023-07-22T04:36:01Z</time></trkpt><trkpt lat="35.6913798" lon="139.0899435"><ele>899.41</ele><time>2023-07-22T04:36:09Z</time></trkpt><trkpt lat="35.691309" lon="139.0901487"><ele>900.1199999999999</ele><time>2023-07-22T04:36:27Z</time></trkpt><trkpt lat="35.6912303" lon="139.0903481"><ele>899.84</ele><time>2023-07-22T04:36:46Z</time></trkpt><trkpt lat="35.6912655" lon="139.0905652"><ele>898.9933333333333</ele><time>2023-07-22T04:37:11Z</time></trkpt><trkpt lat="35.6911217" lon="139.0907267"><ele>899.6966666666667</ele><time>2023-07-22T04:37:40Z</time></trkpt><trkpt lat="35.6910627" lon="139.090954"><ele>901.3066666666667</ele><time>2023-07-22T04:38:04Z</time></trkpt><trkpt lat="35.6911269" lon="139.0911636"><ele>903.9566666666668</ele><time>2023-07-22T04:38:32Z</time></trkpt><trkpt lat="35.6910537" lon="139.0913992"><ele>905.91</ele><time>2023-07-22T04:38:46Z</time></trkpt><trkpt lat="35.6911171" lon="139.0916078"><ele>906.9833333333335</ele><time>2023-07-22T04:39:34Z</time></trkpt><trkpt lat="35.6911313" lon="139.0918363"><ele>906.8733333333333</ele><time>2023-07-22T04:39:53Z</time></trkpt><trkpt lat="35.6912059" lon="139.0920472"><ele>904.1066666666667</ele><time>2023-07-22T04:40:11Z</time></trkpt><trkpt lat="35.6913598" lon="139.092187"><ele>899.23</ele><time>2023-07-22T04:40:26Z</time></trkpt><trkpt lat="35.691473" lon="139.0923709"><ele>892.8466666666667</ele><time>2023-07-22T04:40:45Z</time></trkpt><trkpt lat="35.6916077" lon="139.0925181"><ele>885.96</ele><time>2023-07-22T04:40:58Z</time></trkpt><trkpt lat="35.6917049" lon="139.0927187"><ele>880.2000000000002</ele><time>2023-07-22T04:41:38Z</time></trkpt><trkpt lat="35.6916925" lon="139.0929406"><ele>876.1966666666667</ele><time>2023-07-22T04:42:06Z</time></trkpt><trkpt lat="35.6916711" lon="139.0931616"><ele>874.5466666666667</ele><time>2023-07-22T04:42:33Z</time></trkpt><trkpt lat="35.6915716" lon="139.0933618"><ele>873.0666666666667</ele><time>2023-07-22T04:42:47Z</time></trkpt><trkpt lat="35.69154" lon="139.0935947"><ele>872.7600000000001</ele><time>2023-07-22T04:43:01Z</time></trkpt><trkpt lat="35.691533" lon="139.0938253"><ele>871.9566666666666</ele><time>2023-07-22T04:43:06Z</time></trkpt><trkpt lat="35.6915342" lon="139.0940475"><ele>871.4166666666666</ele><time>2023-07-22T04:43:19Z</time></trkpt><trkpt lat="35.6915768" lon="139.0942775"><ele>870.04</ele><time>2023-07-22T04:43:36Z</time></trkpt><trkpt lat="35.691496" lon="139.0944943"><ele>868.7333333333332</ele><time>2023-07-22T04:44:05Z</time></trkpt><trkpt lat="35.6914648" lon="139.0947162"><ele>867.59</ele><time>2023-07-22T04:44:16Z</time></trkpt><trkpt lat="35.6914491" lon="139.0949511"><ele>866.6833333333334</ele><time>2023-07-22T04:44:27Z</time></trkpt><trkpt lat="35.6915087" lon="139.0951751"><ele>865.2399999999999</ele><time>2023-07-22T04:44:37Z</time></trkpt><trkpt lat="35.6915426" lon="139.0954023"><ele>863.5333333333333</ele><time>2023-07-22T04:44:50Z</time></trkpt><trkpt lat="35.6916495" lon="139.095595"><ele>861.9233333333333</ele><time>2023-07-22T04:45:06Z</time></trkpt><trkpt lat="35.6917358" lon="139.0957995"><ele>860.7000000000002</ele><time>2023-07-22T04:45:21Z</time></trkpt><trkpt lat="35.6918176" lon="139.0959984"><ele>857.8566666666667</ele><time>2023-07-22T04:45:33Z</time></trkpt><trkpt lat="35.6917516" lon="139.0962066"><ele>853.68</ele><time>2023-07-22T04:45:49Z</time></trkpt><trkpt lat="35.6918961" lon="139.0963419"><ele>848.5400000000001</ele><time>2023-07-22T04:46:10Z</time></trkpt><trkpt lat="35.6920687" lon="139.096408"><ele>844.0466666666666</ele><time>2023-07-22T04:46:35Z</time></trkpt><trkpt lat="35.6922034" lon="139.0965581"><ele>839.0866666666667</ele><time>2023-07-22T04:46:51Z</time></trkpt><trkpt lat="35.6923505" lon="139.0966919"><ele>833.61</ele><time>2023-07-22T04:47:33Z</time></trkpt><trkpt lat="35.6924451" lon="139.0968841"><ele>827.4233333333333</ele><time>2023-07-22T04:47:47Z</time></trkpt><trkpt lat="35.6924949" lon="139.0971002"><ele>823.5866666666667</ele><time>2023-07-22T04:48:06Z</time></trkpt><trkpt lat="35.6925607" lon="139.0973145"><ele>822.3366666666667</ele><time>2023-07-22T04:48:46Z</time></trkpt><trkpt lat="35.6926315" lon="139.0975245"><ele>823.7633333333333</ele><time>2023-07-22T04:49:21Z</time></trkpt><trkpt lat="35.6924415" lon="139.097574"><ele>828.4533333333334</ele><time>2023-07-22T04:52:04Z</time></trkpt><trkpt lat="35.6923184" lon="139.0977426"><ele>835.52</ele><time>2023-07-22T04:52:29Z</time></trkpt><trkpt lat="35.6923364" lon="139.0979647"><ele>844.6066666666667</ele><time>2023-07-22T04:53:01Z</time></trkpt><trkpt lat="35.6923549" lon="139.0981971"><ele>853.1666666666666</ele><time>2023-07-22T04:54:46Z</time></trkpt><trkpt lat="35.6923877" lon="139.0984197"><ele>860.3633333333333</ele><time>2023-07-22T04:55:22Z</time></trkpt><trkpt lat="35.6924224" lon="139.0986384"><ele>866.5966666666667</ele><time>2023-07-22T04:55:51Z</time></trkpt><trkpt lat="35.6923596" lon="139.0988548"><ele>870.0933333333334</ele><time>2023-07-22T04:56:22Z</time></trkpt><trkpt lat="35.6924315" lon="139.0990737"><ele>872.8133333333334</ele><time>2023-07-22T04:56:35Z</time></trkpt><trkpt lat="35.6924144" lon="139.099301"><ele>873.5666666666667</ele><time>2023-07-22T04:56:49Z</time></trkpt><trkpt lat="35.6922529" lon="139.0994209"><ele>872.82</ele><time>2023-07-22T04:56:58Z</time></trkpt><trkpt lat="35.6921715" lon="139.099625"><ele>871.2966666666667</ele><time>2023-07-22T04:57:14Z</time></trkpt><trkpt lat="35.6920055" lon="139.0997367"><ele>866.62</ele><time>2023-07-22T04:57:31Z</time></trkpt><trkpt lat="35.6919526" lon="139.0999526"><ele>864.3433333333334</ele><time>2023-07-22T04:57:47Z</time></trkpt><trkpt lat="35.6920077" lon="139.1001742"><ele>861.9233333333335</ele><time>2023-07-22T04:58:04Z</time></trkpt><trkpt lat="35.6920121" lon="139.1003961"><ele>861.9533333333334</ele><time>2023-07-22T04:58:17Z</time></trkpt><trkpt lat="35.6920301" lon="139.1006186"><ele>859.0433333333334</ele><time>2023-07-22T04:58:48Z</time></trkpt><trkpt lat="35.6920029" lon="139.1008394"><ele>854.4266666666666</ele><time>2023-07-22T04:59:03Z</time></trkpt><trkpt lat="35.6919203" lon="139.1010544"><ele>850.2800000000001</ele><time>2023-07-22T04:59:24Z</time></trkpt><trkpt lat="35.691828" lon="139.1012647"><ele>847.61</ele><time>2023-07-22T04:59:35Z</time></trkpt><trkpt lat="35.6918254" lon="139.1014861"><ele>846.3833333333333</ele><time>2023-07-22T04:59:44Z</time></trkpt><trkpt lat="35.6918306" lon="139.1017076"><ele>844.9133333333333</ele><time>2023-07-22T04:59:53Z</time></trkpt><trkpt lat="35.691766" lon="139.1019175"><ele>844.0233333333334</ele><time>2023-07-22T05:00:08Z</time></trkpt><trkpt lat="35.6916996" lon="139.1021359"><ele>843.1133333333333</ele><time>2023-07-22T05:00:24Z</time></trkpt><trkpt lat="35.6915803" lon="139.1023167"><ele>842.5166666666668</ele><time>2023-07-22T05:00:36Z</time></trkpt><trkpt lat="35.6914815" lon="139.1025085"><ele>841.1966666666667</ele><time>2023-07-22T05:00:55Z</time></trkpt><trkpt lat="35.691594" lon="139.1026868"><ele>840.3766666666667</ele><time>2023-07-22T05:01:09Z</time></trkpt><trkpt lat="35.6916277" lon="139.1029075"><ele>838.6233333333333</ele><time>2023-07-22T05:01:23Z</time></trkpt><trkpt lat="35.691517" lon="139.1030849"><ele>835.2066666666666</ele><time>2023-07-22T05:01:39Z</time></trkpt><trkpt lat="35.6914576" lon="139.1032937"><ele>828.41</ele><time>2023-07-22T05:02:01Z</time></trkpt><trkpt lat="35.6913501" lon="139.1034798"><ele>823.09</ele><time>2023-07-22T05:02:15Z</time></trkpt><trkpt lat="35.6912968" lon="139.1036926"><ele>820.3633333333333</ele><time>2023-07-22T05:02:45Z</time></trkpt><trkpt lat="35.69118" lon="139.1038727"><ele>822.5100000000001</ele><time>2023-07-22T05:03:03Z</time></trkpt><trkpt lat="35.691075" lon="139.1040554"><ele>825.82</ele><time>2023-07-22T05:03:20Z</time></trkpt><trkpt lat="35.6910291" lon="139.1042725"><ele>828.8533333333335</ele><time>2023-07-22T05:03:37Z</time></trkpt><trkpt lat="35.6908937" lon="139.1044458"><ele>830.1666666666666</ele><time>2023-07-22T05:03:55Z</time></trkpt><trkpt lat="35.6908525" lon="139.1046664"><ele>830.9066666666668</ele><time>2023-07-22T05:05:02Z</time></trkpt><trkpt lat="35.6908359" lon="139.1048891"><ele>831.9033333333333</ele><time>2023-07-22T05:05:09Z</time></trkpt><trkpt lat="35.6908449" lon="139.1051182"><ele>832.21</ele><time>2023-07-22T05:05:21Z</time></trkpt><trkpt lat="35.6909035" lon="139.1053414"><ele>832.1433333333334</ele><time>2023-07-22T05:05:35Z</time></trkpt><trkpt lat="35.6909019" lon="139.105566"><ele>828.07</ele><time>2023-07-22T05:05:52Z</time></trkpt><trkpt lat="35.6907682" lon="139.1057204"><ele>821.7900000000001</ele><time>2023-07-22T05:06:09Z</time></trkpt><trkpt lat="35.6907737" lon="139.1059511"><ele>816.4200000000001</ele><time>2023-07-22T05:06:25Z</time></trkpt><trkpt lat="35.6908372" lon="139.1061661"><ele>816.7600000000001</ele><time>2023-07-22T05:06:41Z</time></trkpt><trkpt lat="35.6908094" lon="139.1063951"><ele>819.5766666666667</ele><time>2023-07-22T05:06:58Z</time></trkpt><trkpt lat="35.6908111" lon="139.1066202"><ele>819.4266666666667</ele><time>2023-07-22T05:07:11Z</time></trkpt><trkpt lat="35.6906688" lon="139.1067568"><ele>818.0600000000001</ele><time>2023-07-22T05:07:27Z</time></trkpt><trkpt lat="35.6905098" lon="139.1068768"><ele>818.44</ele><time>2023-07-22T05:07:39Z</time></trkpt><trkpt lat="35.6903965" lon="139.1070651"><ele>820.39</ele><time>2023-07-22T05:08:04Z</time></trkpt><trkpt lat="35.6903572" lon="139.1073073"><ele>823.48</ele><time>2023-07-22T05:08:21Z</time></trkpt><trkpt lat="35.6903356" lon="139.1075294"><ele>826.5066666666667</ele><time>2023-07-22T05:09:24Z</time></trkpt><trkpt lat="35.6902291" lon="139.1077087"><ele>830.7833333333333</ele><time>2023-07-22T05:10:54Z</time></trkpt><trkpt lat="35.6901291" lon="139.107899"><ele>835.4166666666666</ele><time>2023-07-22T05:11:26Z</time></trkpt><trkpt lat="35.6900208" lon="139.1080834"><ele>838.9633333333333</ele><time>2023-07-22T05:11:41Z</time></trkpt><trkpt lat="35.689893" lon="139.1082631"><ele>843.2400000000001</ele><time>2023-07-22T05:11:57Z</time></trkpt><trkpt lat="35.6897454" lon="139.1083959"><ele>846.5933333333332</ele><time>2023-07-22T05:12:16Z</time></trkpt><trkpt lat="35.6895941" lon="139.1085321"><ele>848.4233333333333</ele><time>2023-07-22T05:12:52Z</time></trkpt><trkpt lat="35.6894186" lon="139.1086131"><ele>846.8333333333334</ele><time>2023-07-22T05:13:12Z</time></trkpt><trkpt lat="35.6893533" lon="139.1088298"><ele>842.8133333333334</ele><time>2023-07-22T05:13:33Z</time></trkpt><trkpt lat="35.6895349" lon="139.1087918"><ele>838.82</ele><time>2023-07-22T05:16:56Z</time></trkpt><trkpt lat="35.6897069" lon="139.1088751"><ele>834.8333333333334</ele><time>2023-07-22T05:17:05Z</time></trkpt><trkpt lat="35.689845" lon="139.1090356"><ele>830.1633333333334</ele><time>2023-07-22T05:17:15Z</time></trkpt><trkpt lat="35.6899708" lon="139.109197"><ele>827.9433333333333</ele><time>2023-07-22T05:17:26Z</time></trkpt><trkpt lat="35.690158" lon="139.1092003"><ele>829.75</ele><time>2023-07-22T05:17:43Z</time></trkpt><trkpt lat="35.6901645" lon="139.1094525"><ele>831.8699999999999</ele><time>2023-07-22T05:17:56Z</time></trkpt><trkpt lat="35.6900753" lon="139.1096532"><ele>829.57</ele><time>2023-07-22T05:18:03Z</time></trkpt><trkpt lat="35.6901257" lon="139.109866"><ele>819.7633333333333</ele><time>2023-07-22T05:18:16Z</time></trkpt><trkpt lat="35.6903021" lon="139.1099248"><ele>810.5066666666668</ele><time>2023-07-22T05:18:25Z</time></trkpt><trkpt lat="35.6904396" lon="139.1100706"><ele>805.6300000000001</ele><time>2023-07-22T05:18:35Z</time></trkpt><trkpt lat="35.6905997" lon="139.1101767"><ele>807.61</ele><time>2023-07-22T05:18:53Z</time></trkpt><trkpt lat="35.6907627" lon="139.1100804"><ele>808.1633333333334</ele><time>2023-07-22T05:19:07Z</time></trkpt><trkpt lat="35.6909315" lon="139.1101594"><ele>806.4499999999999</ele><time>2023-07-22T05:19:30Z</time></trkpt><trkpt lat="35.691117" lon="139.1102059"><ele>802.6933333333333</ele><time>2023-07-22T05:19:45Z</time></trkpt><trkpt lat="35.6913004" lon="139.1102423"><ele>798.6333333333333</ele><time>2023-07-22T05:20:01Z</time></trkpt><trkpt lat="35.6914769" lon="139.1103183"><ele>792.9033333333333</ele><time>2023-07-22T05:20:16Z</time></trkpt><trkpt lat="35.6916102" lon="139.1104713"><ele>788.1566666666668</ele><time>2023-07-22T05:20:37Z</time></trkpt><trkpt lat="35.6917911" lon="139.1105297"><ele>785.8000000000001</ele><time>2023-07-22T05:20:47Z</time></trkpt><trkpt lat="35.6919763" lon="139.1104934"><ele>783.6466666666666</ele><time>2023-07-22T05:20:54Z</time></trkpt><trkpt lat="35.6921546" lon="139.1104506"><ele>781.5733333333333</ele><time>2023-07-22T05:21:10Z</time></trkpt><trkpt lat="35.6923068" lon="139.1103073"><ele>775.7066666666666</ele><time>2023-07-22T05:21:27Z</time></trkpt><trkpt lat="35.6924774" lon="139.1103835"><ele>772.27</ele><time>2023-07-22T05:21:38Z</time></trkpt><trkpt lat="35.6926425" lon="139.1104975"><ele>767.7166666666667</ele><time>2023-07-22T05:21:52Z</time></trkpt><trkpt lat="35.6928091" lon="139.1105998"><ele>764.85</ele><time>2023-07-22T05:22:08Z</time></trkpt><trkpt lat="35.6929992" lon="139.1106171"><ele>760.83</ele><time>2023-07-22T05:22:39Z</time></trkpt><trkpt lat="35.6931851" lon="139.110631"><ele>756.0266666666668</ele><time>2023-07-22T05:22:52Z</time></trkpt><trkpt lat="35.6933638" lon="139.1106845"><ele>752.7733333333334</ele><time>2023-07-22T05:23:05Z</time></trkpt><trkpt lat="35.6935438" lon="139.1106613"><ele>750.73</ele><time>2023-07-22T05:23:16Z</time></trkpt><trkpt lat="35.6937221" lon="139.1106167"><ele>749.5</ele><time>2023-07-22T05:23:30Z</time></trkpt><trkpt lat="35.6938987" lon="139.1105265"><ele>745.4866666666667</ele><time>2023-07-22T05:23:45Z</time></trkpt><trkpt lat="35.6940798" lon="139.110546"><ele>740.4133333333333</ele><time>2023-07-22T05:23:58Z</time></trkpt><trkpt lat="35.6942707" lon="139.110573"><ele>734.9066666666668</ele><time>2023-07-22T05:24:09Z</time></trkpt><trkpt lat="35.6944355" lon="139.110673"><ele>734.8466666666667</ele><time>2023-07-22T05:24:22Z</time></trkpt><trkpt lat="35.6946215" lon="139.1106354"><ele>737.4333333333334</ele><time>2023-07-22T05:24:35Z</time></trkpt><trkpt lat="35.6947616" lon="139.110496"><ele>737.5733333333334</ele><time>2023-07-22T05:24:45Z</time></trkpt><trkpt lat="35.6949163" lon="139.1103704"><ele>733.2233333333334</ele><time>2023-07-22T05:24:57Z</time></trkpt><trkpt lat="35.6951029" lon="139.1103621"><ele>728.5733333333334</ele><time>2023-07-22T05:25:10Z</time></trkpt><trkpt lat="35.69529" lon="139.1103668"><ele>728.2933333333334</ele><time>2023-07-22T05:25:23Z</time></trkpt><trkpt lat="35.6954727" lon="139.1103265"><ele>728.43</ele><time>2023-07-22T05:25:34Z</time></trkpt><trkpt lat="35.6956259" lon="139.1102077"><ele>724.6866666666666</ele><time>2023-07-22T05:25:51Z</time></trkpt><trkpt lat="35.6957951" lon="139.1102938"><ele>716.9166666666666</ele><time>2023-07-22T05:26:12Z</time></trkpt><trkpt lat="35.6959708" lon="139.1103707"><ele>708.66</ele><time>2023-07-22T05:26:30Z</time></trkpt><trkpt lat="35.6960688" lon="139.1101812"><ele>700.5</ele><time>2023-07-22T05:26:42Z</time></trkpt><trkpt lat="35.6961084" lon="139.1099593"><ele>695.9233333333333</ele><time>2023-07-22T05:26:57Z</time></trkpt><trkpt lat="35.6962174" lon="139.1097669"><ele>691.5799999999999</ele><time>2023-07-22T05:27:22Z</time></trkpt><trkpt lat="35.696398" lon="139.1097681"><ele>687.2966666666666</ele><time>2023-07-22T05:27:44Z</time></trkpt><trkpt lat="35.6965137" lon="139.1095891"><ele>681.66</ele><time>2023-07-22T05:28:01Z</time></trkpt><trkpt lat="35.6966952" lon="139.10963"><ele>676.5500000000001</ele><time>2023-07-22T05:28:19Z</time></trkpt><trkpt lat="35.6968547" lon="139.1095074"><ele>673.2766666666666</ele><time>2023-07-22T05:28:32Z</time></trkpt><trkpt lat="35.6969474" lon="139.1093128"><ele>668.9966666666668</ele><time>2023-07-22T05:28:41Z</time></trkpt><trkpt lat="35.6970424" lon="139.1095067"><ele>666.0866666666667</ele><time>2023-07-22T05:28:48Z</time></trkpt><trkpt lat="35.69722" lon="139.1094592"><ele>663.7933333333333</ele><time>2023-07-22T05:29:31Z</time></trkpt><trkpt lat="35.6973859" lon="139.1093673"><ele>662.8066666666667</ele><time>2023-07-22T05:29:40Z</time></trkpt><trkpt lat="35.6975683" lon="139.1094147"><ele>659.83</ele><time>2023-07-22T05:29:55Z</time></trkpt><trkpt lat="35.6975534" lon="139.1096453"><ele>655.02</ele><time>2023-07-22T05:30:20Z</time></trkpt><trkpt lat="35.697421" lon="139.1098097"><ele>649.4233333333333</ele><time>2023-07-22T05:30:32Z</time></trkpt><trkpt lat="35.6973172" lon="139.1099943"><ele>642.4666666666667</ele><time>2023-07-22T05:30:52Z</time></trkpt><trkpt lat="35.6971751" lon="139.1101306"><ele>634.5766666666667</ele><time>2023-07-22T05:31:30Z</time></trkpt><trkpt lat="35.69734" lon="139.1102227"><ele>624.4066666666666</ele><time>2023-07-22T05:31:45Z</time></trkpt><trkpt lat="35.6974556" lon="139.1103961"><ele>613.2399999999999</ele><time>2023-07-22T05:32:47Z</time></trkpt><trkpt lat="35.6976198" lon="139.1104918"><ele>600.1733333333333</ele><time>2023-07-22T05:33:17Z</time></trkpt><trkpt lat="35.6976557" lon="139.1102695"><ele>594.5</ele><time>2023-07-22T05:33:35Z</time></trkpt><trkpt lat="35.697821" lon="139.1101631"><ele>595.4566666666666</ele><time>2023-07-22T05:33:59Z</time></trkpt><trkpt lat="35.6979976" lon="139.110221"><ele>596.5799999999999</ele><time>2023-07-22T05:34:08Z</time></trkpt><trkpt lat="35.6981701" lon="139.1103009"><ele>588.79</ele><time>2023-07-22T05:34:25Z</time></trkpt><trkpt lat="35.6983553" lon="139.110264"><ele>578.7566666666667</ele><time>2023-07-22T05:34:40Z</time></trkpt><trkpt lat="35.6984977" lon="139.110119"><ele>576.9499999999999</ele><time>2023-07-22T05:34:54Z</time></trkpt><trkpt lat="35.6983635" lon="139.1102781"><ele>576.6333333333333</ele><time>2023-07-22T05:35:41Z</time></trkpt><trkpt lat="35.6984828" lon="139.1104507"><ele>573.6233333333333</ele><time>2023-07-22T05:35:58Z</time></trkpt><trkpt lat="35.6986642" lon="139.1104832"><ele>566.0133333333333</ele><time>2023-07-22T05:36:16Z</time></trkpt><trkpt lat="35.6987951" lon="139.1103268"><ele>562.7266666666667</ele><time>2023-07-22T05:36:36Z</time></trkpt><trkpt lat="35.6989799" lon="139.1102909"><ele>560.43</ele><time>2023-07-22T05:36:50Z</time></trkpt><trkpt lat="35.6990473" lon="139.1104991"><ele>556.4533333333334</ele><time>2023-07-22T05:37:26Z</time></trkpt><trkpt lat="35.6988911" lon="139.1106229"><ele>551.4233333333333</ele><time>2023-07-22T05:37:39Z</time></trkpt><trkpt lat="35.6990132" lon="139.1108048"><ele>543.6899999999999</ele><time>2023-07-22T05:38:26Z</time></trkpt><trkpt lat="35.6991974" lon="139.1108486"><ele>536.0733333333334</ele><time>2023-07-22T05:38:41Z</time></trkpt><trkpt lat="35.6990784" lon="139.1110202"><ele>527.7566666666667</ele><time>2023-07-22T05:39:37Z</time></trkpt><trkpt lat="35.6992302" lon="139.1111514"><ele>519.5933333333332</ele><time>2023-07-22T05:40:16Z</time></trkpt><trkpt lat="35.6993763" lon="139.1113066"><ele>509.4866666666667</ele><time>2023-07-22T05:41:49Z</time></trkpt><trkpt lat="35.6995248" lon="139.1111749"><ele>500.68666666666667</ele><time>2023-07-22T05:42:01Z</time></trkpt><trkpt lat="35.6996622" lon="139.1113187"><ele>489.00666666666666</ele><time>2023-07-22T05:42:58Z</time></trkpt><trkpt lat="35.6998315" lon="139.111402"><ele>477.24666666666667</ele><time>2023-07-22T05:43:15Z</time></trkpt><trkpt lat="35.6998144" lon="139.1111817"><ele>471.50333333333333</ele><time>2023-07-22T05:43:26Z</time></trkpt><trkpt lat="35.6998684" lon="139.1113953"><ele>466.98</ele><time>2023-07-22T05:45:00Z</time></trkpt><trkpt lat="35.7000444" lon="139.1114601"><ele>462.66</ele><time>2023-07-22T05:45:30Z</time></trkpt><trkpt lat="35.700186" lon="139.1116002"><ele>455.24333333333334</ele><time>2023-07-22T05:45:55Z</time></trkpt><trkpt lat="35.7003017" lon="139.1114181"><ele>449.1233333333333</ele><time>2023-07-22T05:47:47Z</time></trkpt><trkpt lat="35.7004521" lon="139.1112856"><ele>445.35666666666674</ele><time>2023-07-22T05:48:09Z</time></trkpt><trkpt lat="35.7006288" lon="139.1111976"><ele>437.12999999999994</ele><time>2023-07-22T05:48:22Z</time></trkpt><trkpt lat="35.7008112" lon="139.1112571"><ele>433.02</ele><time>2023-07-22T05:48:55Z</time></trkpt><trkpt lat="35.70088" lon="139.1114721"><ele>430.22333333333336</ele><time>2023-07-22T05:49:05Z</time></trkpt><trkpt lat="35.7009914" lon="139.1116576"><ele>428.0533333333333</ele><time>2023-07-22T05:49:20Z</time></trkpt><trkpt lat="35.7011748" lon="139.1116879"><ele>425.7466666666667</ele><time>2023-07-22T05:49:34Z</time></trkpt><trkpt lat="35.7012173" lon="139.111464"><ele>423.91333333333336</ele><time>2023-07-22T05:49:47Z</time></trkpt><trkpt lat="35.7011538" lon="139.1112485"><ele>422.1633333333334</ele><time>2023-07-22T05:50:01Z</time></trkpt><trkpt lat="35.7011027" lon="139.1110242"><ele>421.2066666666667</ele><time>2023-07-22T05:50:23Z</time></trkpt><trkpt lat="35.7010071" lon="139.1108221"><ele>420.17666666666673</ele><time>2023-07-22T05:50:33Z</time></trkpt><trkpt lat="35.7010386" lon="139.1105974"><ele>418.59</ele><time>2023-07-22T05:50:44Z</time></trkpt><trkpt lat="35.7012125" lon="139.1105129"><ele>416.16333333333336</ele><time>2023-07-22T05:51:07Z</time></trkpt><trkpt lat="35.7013459" lon="139.1106653"><ele>413.32666666666665</ele><time>2023-07-22T05:51:17Z</time></trkpt><trkpt lat="35.7014014" lon="139.1108938"><ele>412.3033333333333</ele><time>2023-07-22T05:51:31Z</time></trkpt><trkpt lat="35.7014105" lon="139.111116"><ele>412.84666666666664</ele><time>2023-07-22T05:51:42Z</time></trkpt><trkpt lat="35.7015037" lon="139.1113107"><ele>414.0333333333333</ele><time>2023-07-22T05:51:55Z</time></trkpt><trkpt lat="35.7016221" lon="139.1114915"><ele>414.5533333333333</ele><time>2023-07-22T05:52:10Z</time></trkpt><trkpt lat="35.701746" lon="139.1116657"><ele>414.21666666666664</ele><time>2023-07-22T05:52:26Z</time></trkpt><trkpt lat="35.7018553" lon="139.1118489"><ele>413.28</ele><time>2023-07-22T05:52:38Z</time></trkpt><trkpt lat="35.7020325" lon="139.1119077"><ele>411.09</ele><time>2023-07-22T05:52:54Z</time></trkpt><trkpt lat="35.702202" lon="139.1118235"><ele>405.91333333333336</ele><time>2023-07-22T05:53:04Z</time></trkpt><trkpt lat="35.7023843" lon="139.111819"><ele>402.33666666666664</ele><time>2023-07-22T05:53:15Z</time></trkpt><trkpt lat="35.7025676" lon="139.1118653"><ele>401.49</ele><time>2023-07-22T05:53:28Z</time></trkpt><trkpt lat="35.7027555" lon="139.1118902"><ele>404.93666666666667</ele><time>2023-07-22T05:53:57Z</time></trkpt><trkpt lat="35.7028274" lon="139.1120953"><ele>406.6266666666667</ele><time>2023-07-22T05:54:10Z</time></trkpt><trkpt lat="35.7029254" lon="139.1123017"><ele>406.2866666666667</ele><time>2023-07-22T05:54:19Z</time></trkpt><trkpt lat="35.7030706" lon="139.1124538"><ele>404.17333333333335</ele><time>2023-07-22T05:54:36Z</time></trkpt><trkpt lat="35.7031917" lon="139.11262"><ele>402.85999999999996</ele><time>2023-07-22T05:54:50Z</time></trkpt><trkpt lat="35.7033286" lon="139.1127714"><ele>402.9666666666667</ele><time>2023-07-22T05:55:04Z</time></trkpt></trkseg></trk></gpx>