<?xml version='1.0' encoding='UTF-8'?><gpx creator="YAMAP - https://yamap.com" xsi:schemaLocation="http://www.topografix.com/GPX/1/1 http://www.topografix.com/GPX/1/1/gpx.xsd" version="1.1" xmlns="http://www.topografix.com/GPX/1/1" xmlns:xsi="http://www.w3.org/2001/XMLSchema-instance"><metadata><bounds maxlat="36.8219404" maxlon="138.8394853" minlat="36.8005523" minlon="138.7835433"/></metadata><trk><name>平標山</name><number>1</number><trkseg><trkpt lat="36.8134224" lon="138.7835782"><ele>971.91</ele><time>2024-05-18T00:01:05Z</time></trkpt><trkpt lat="36.8132027" lon="138.7837459"><ele>972.04</ele><time>2024-05-18T00:01:30Z</time></trkpt><trkpt lat="36.8130559" lon="138.783911"><ele>972.2233333333334</ele><time>2024-05-18T00:01:45Z</time></trkpt><trkpt lat="36.8128585" lon="138.7839084"><ele>972.6233333333334</ele><time>2024-05-18T00:02:06Z</time></trkpt><trkpt lat="36.8130557" lon="138.784001"><ele>972.7166666666667</ele><time>2024-05-18T00:02:27Z</time></trkpt><trkpt lat="36.8132377" lon="138.7839133"><ele>972.4699999999999</ele><time>2024-05-18T00:02:45Z</time></trkpt><trkpt lat="36.8130551" lon="138.7839516"><ele>972.25</ele><time>2024-05-18T00:03:03Z</time></trkpt><trkpt lat="36.8128742" lon="138.7839261"><ele>972.4700000000001</ele><time>2024-05-18T00:03:21Z</time></trkpt><trkpt lat="36.8127541" lon="138.784163"><ele>972.9866666666667</ele><time>2024-05-18T00:03:42Z</time></trkpt><trkpt lat="36.8127717" lon="138.7844472"><ele>974.1666666666666</ele><time>2024-05-18T00:03:54Z</time></trkpt><trkpt lat="36.8128872" lon="138.7846558"><ele>975.7800000000001</ele><time>2024-05-18T00:04:03Z</time></trkpt><trkpt lat="36.8130085" lon="138.7848582"><ele>978.1133333333333</ele><time>2024-05-18T00:04:14Z</time></trkpt><trkpt lat="36.8131471" lon="138.785003"><ele>980.7066666666666</ele><time>2024-05-18T00:04:26Z</time></trkpt><trkpt lat="36.8133361" lon="138.7850721"><ele>983.3800000000001</ele><time>2024-05-18T00:05:07Z</time></trkpt><trkpt lat="36.813278" lon="138.7852844"><ele>986.5966666666667</ele><time>2024-05-18T00:05:49Z</time></trkpt><trkpt lat="36.8131732" lon="138.7854738"><ele>989.25</ele><time>2024-05-18T00:06:26Z</time></trkpt><trkpt lat="36.8132206" lon="138.7857185"><ele>995.1700000000001</ele><time>2024-05-18T00:07:22Z</time></trkpt><trkpt lat="36.8131404" lon="138.7859255"><ele>1003.1333333333333</ele><time>2024-05-18T00:08:19Z</time></trkpt><trkpt lat="36.8131723" lon="138.7861609"><ele>1014.4566666666666</ele><time>2024-05-18T00:08:46Z</time></trkpt><trkpt lat="36.8131048" lon="138.7863794"><ele>1026.9066666666668</ele><time>2024-05-18T00:10:07Z</time></trkpt><trkpt lat="36.8131641" lon="138.7866139"><ele>1041.75</ele><time>2024-05-18T00:11:31Z</time></trkpt><trkpt lat="36.8132413" lon="138.7868515"><ele>1058.29</ele><time>2024-05-18T00:13:01Z</time></trkpt><trkpt lat="36.8131991" lon="138.7870716"><ele>1071.8500000000001</ele><time>2024-05-18T00:14:48Z</time></trkpt><trkpt lat="36.8133316" lon="138.7872454"><ele>1082.3766666666668</ele><time>2024-05-18T00:16:01Z</time></trkpt><trkpt lat="36.8134903" lon="138.7873904"><ele>1092.79</ele><time>2024-05-18T00:17:37Z</time></trkpt><trkpt lat="36.8136565" lon="138.7875031"><ele>1104.4599999999998</ele><time>2024-05-18T00:18:19Z</time></trkpt><trkpt lat="36.8135705" lon="138.7877101"><ele>1116.6333333333332</ele><time>2024-05-18T00:19:34Z</time></trkpt><trkpt lat="36.8135306" lon="138.7879346"><ele>1120.43</ele><time>2024-05-18T00:20:31Z</time></trkpt><trkpt lat="36.8137163" lon="138.7879209"><ele>1125.8666666666666</ele><time>2024-05-18T00:21:37Z</time></trkpt><trkpt lat="36.8138882" lon="138.7878444"><ele>1131.0566666666666</ele><time>2024-05-18T00:22:40Z</time></trkpt><trkpt lat="36.8140713" lon="138.7879005"><ele>1143.7233333333334</ele><time>2024-05-18T00:23:46Z</time></trkpt><trkpt lat="36.814248" lon="138.7880034"><ele>1153.3400000000001</ele><time>2024-05-18T00:24:49Z</time></trkpt><trkpt lat="36.8143273" lon="138.7882603"><ele>1160.3866666666665</ele><time>2024-05-18T00:25:04Z</time></trkpt><trkpt lat="36.8144372" lon="138.7884492"><ele>1163.5033333333333</ele><time>2024-05-18T00:25:28Z</time></trkpt><trkpt lat="36.8145442" lon="138.7886408"><ele>1166.89</ele><time>2024-05-18T00:25:58Z</time></trkpt><trkpt lat="36.8146546" lon="138.7888243"><ele>1172.6466666666665</ele><time>2024-05-18T00:26:40Z</time></trkpt><trkpt lat="36.8146904" lon="138.7890474"><ele>1179.1333333333332</ele><time>2024-05-18T00:28:01Z</time></trkpt><trkpt lat="36.814808" lon="138.7892429"><ele>1187.1499999999999</ele><time>2024-05-18T00:29:04Z</time></trkpt><trkpt lat="36.8149288" lon="138.7894207"><ele>1196.6166666666668</ele><time>2024-05-18T00:30:28Z</time></trkpt><trkpt lat="36.8151077" lon="138.789544"><ele>1209.5566666666666</ele><time>2024-05-18T00:31:40Z</time></trkpt><trkpt lat="36.8152965" lon="138.7895322"><ele>1220.7733333333333</ele><time>2024-05-18T00:32:10Z</time></trkpt><trkpt lat="36.8154891" lon="138.7895576"><ele>1228.4733333333334</ele><time>2024-05-18T00:34:27Z</time></trkpt><trkpt lat="36.8155422" lon="138.7897727"><ele>1237.3566666666668</ele><time>2024-05-18T00:35:21Z</time></trkpt><trkpt lat="36.8156641" lon="138.7899389"><ele>1245.5466666666666</ele><time>2024-05-18T00:36:36Z</time></trkpt><trkpt lat="36.8155541" lon="138.790145"><ele>1258.3733333333332</ele><time>2024-05-18T00:38:18Z</time></trkpt><trkpt lat="36.8154249" lon="138.7903134"><ele>1266.3766666666668</ele><time>2024-05-18T00:38:54Z</time></trkpt><trkpt lat="36.8154839" lon="138.7905347"><ele>1275.0566666666666</ele><time>2024-05-18T00:40:06Z</time></trkpt><trkpt lat="36.8156618" lon="138.7906019"><ele>1280.7433333333336</ele><time>2024-05-18T00:40:57Z</time></trkpt><trkpt lat="36.8157823" lon="138.7907764"><ele>1288.36</ele><time>2024-05-18T00:41:51Z</time></trkpt><trkpt lat="36.8158713" lon="138.7909806"><ele>1296.83</ele><time>2024-05-18T00:42:54Z</time></trkpt><trkpt lat="36.8160275" lon="138.7910926"><ele>1307.9833333333333</ele><time>2024-05-18T00:44:26Z</time></trkpt><trkpt lat="36.8160593" lon="138.7913177"><ele>1316.9266666666665</ele><time>2024-05-18T00:45:32Z</time></trkpt><trkpt lat="36.8162133" lon="138.7914729"><ele>1324.8566666666668</ele><time>2024-05-18T00:46:05Z</time></trkpt><trkpt lat="36.8163759" lon="138.7915699"><ele>1331.3200000000002</ele><time>2024-05-18T00:47:04Z</time></trkpt><trkpt lat="36.816513" lon="138.7917264"><ele>1338.7333333333333</ele><time>2024-05-18T00:47:38Z</time></trkpt><trkpt lat="36.8166656" lon="138.7918527"><ele>1347.5433333333333</ele><time>2024-05-18T00:48:59Z</time></trkpt><trkpt lat="36.8168111" lon="138.7919975"><ele>1355.8700000000001</ele><time>2024-05-18T00:50:41Z</time></trkpt><trkpt lat="36.8169779" lon="138.7921065"><ele>1367.0566666666666</ele><time>2024-05-18T00:51:51Z</time></trkpt><trkpt lat="36.8171063" lon="138.7922683"><ele>1378.8433333333335</ele><time>2024-05-18T00:53:47Z</time></trkpt><trkpt lat="36.8172434" lon="138.7924369"><ele>1391.8366666666668</ele><time>2024-05-18T00:55:20Z</time></trkpt><trkpt lat="36.817374" lon="138.7926278"><ele>1401.32</ele><time>2024-05-18T00:56:02Z</time></trkpt><trkpt lat="36.8174142" lon="138.792848"><ele>1405.29</ele><time>2024-05-18T00:56:26Z</time></trkpt><trkpt lat="36.8173573" lon="138.7930634"><ele>1405.3366666666668</ele><time>2024-05-18T00:56:59Z</time></trkpt><trkpt lat="36.8173797" lon="138.7932959"><ele>1406.1833333333334</ele><time>2024-05-18T00:57:29Z</time></trkpt><trkpt lat="36.8173645" lon="138.7935563"><ele>1409.4166666666667</ele><time>2024-05-18T00:58:32Z</time></trkpt><trkpt lat="36.8173937" lon="138.7937958"><ele>1412.8933333333334</ele><time>2024-05-18T00:58:59Z</time></trkpt><trkpt lat="36.8173824" lon="138.7940209"><ele>1416.2466666666667</ele><time>2024-05-18T01:00:05Z</time></trkpt><trkpt lat="36.8173643" lon="138.794256"><ele>1420.0066666666664</ele><time>2024-05-18T01:00:26Z</time></trkpt><trkpt lat="36.817438" lon="138.7944635"><ele>1424.1966666666667</ele><time>2024-05-18T01:00:53Z</time></trkpt><trkpt lat="36.8175513" lon="138.7946763"><ele>1428.7566666666664</ele><time>2024-05-18T01:01:44Z</time></trkpt><trkpt lat="36.8176191" lon="138.7948856"><ele>1433.6166666666668</ele><time>2024-05-18T01:02:44Z</time></trkpt><trkpt lat="36.8176733" lon="138.7951118"><ele>1439.7300000000002</ele><time>2024-05-18T01:03:41Z</time></trkpt><trkpt lat="36.8177603" lon="138.7953275"><ele>1445.1666666666667</ele><time>2024-05-18T01:04:29Z</time></trkpt><trkpt lat="36.8177381" lon="138.7955669"><ele>1452.0566666666666</ele><time>2024-05-18T01:05:38Z</time></trkpt><trkpt lat="36.8177426" lon="138.7958035"><ele>1457.87</ele><time>2024-05-18T01:06:35Z</time></trkpt><trkpt lat="36.8178526" lon="138.7960034"><ele>1463.68</ele><time>2024-05-18T01:07:41Z</time></trkpt><trkpt lat="36.8179005" lon="138.7962204"><ele>1468.41</ele><time>2024-05-18T01:08:17Z</time></trkpt><trkpt lat="36.8179825" lon="138.7964244"><ele>1473.9966666666667</ele><time>2024-05-18T01:09:23Z</time></trkpt><trkpt lat="36.8180773" lon="138.7966314"><ele>1480.0866666666668</ele><time>2024-05-18T01:10:32Z</time></trkpt><trkpt lat="36.8181543" lon="138.7968511"><ele>1489.1166666666668</ele><time>2024-05-18T01:11:59Z</time></trkpt><trkpt lat="36.8182899" lon="138.7970395"><ele>1498.8766666666668</ele><time>2024-05-18T01:13:19Z</time></trkpt><trkpt lat="36.8182791" lon="138.7972648"><ele>1509.9233333333334</ele><time>2024-05-18T01:14:25Z</time></trkpt><trkpt lat="36.8182866" lon="138.7974955"><ele>1520.2266666666667</ele><time>2024-05-18T01:15:49Z</time></trkpt><trkpt lat="36.8183228" lon="138.7977264"><ele>1529.9033333333334</ele><time>2024-05-18T01:17:10Z</time></trkpt><trkpt lat="36.8184049" lon="138.7979286"><ele>1541.2533333333333</ele><time>2024-05-18T01:19:01Z</time></trkpt><trkpt lat="36.8184616" lon="138.7981499"><ele>1551.2300000000002</ele><time>2024-05-18T01:20:25Z</time></trkpt><trkpt lat="36.8184778" lon="138.7983848"><ele>1562.58</ele><time>2024-05-18T01:21:16Z</time></trkpt><trkpt lat="36.8184913" lon="138.7986183"><ele>1570.4733333333334</ele><time>2024-05-18T01:22:16Z</time></trkpt><trkpt lat="36.8185887" lon="138.7988183"><ele>1577.3633333333335</ele><time>2024-05-18T01:23:13Z</time></trkpt><trkpt lat="36.8187102" lon="138.7990029"><ele>1582.1133333333335</ele><time>2024-05-18T01:23:34Z</time></trkpt><trkpt lat="36.818813" lon="138.7992192"><ele>1585.7233333333334</ele><time>2024-05-18T01:23:58Z</time></trkpt><trkpt lat="36.8189774" lon="138.7993167"><ele>1589.3633333333335</ele><time>2024-05-18T01:24:28Z</time></trkpt><trkpt lat="36.8190778" lon="138.7995137"><ele>1591.53</ele><time>2024-05-18T01:24:43Z</time></trkpt><trkpt lat="36.81927" lon="138.7996076"><ele>1595.2133333333334</ele><time>2024-05-18T01:25:13Z</time></trkpt><trkpt lat="36.8193993" lon="138.7998296"><ele>1595.3133333333335</ele><time>2024-05-18T01:25:46Z</time></trkpt><trkpt lat="36.8195886" lon="138.7997748"><ele>1596.7699999999998</ele><time>2024-05-18T01:26:07Z</time></trkpt><trkpt lat="36.8197193" lon="138.7999686"><ele>1594.57</ele><time>2024-05-18T01:26:31Z</time></trkpt><trkpt lat="36.8199115" lon="138.8000684"><ele>1594.5</ele><time>2024-05-18T01:26:54Z</time></trkpt><trkpt lat="36.8200342" lon="138.8002385"><ele>1594.6233333333332</ele><time>2024-05-18T01:27:22Z</time></trkpt><trkpt lat="36.8201518" lon="138.8004458"><ele>1598.1500000000003</ele><time>2024-05-18T01:28:16Z</time></trkpt><trkpt lat="36.8202472" lon="138.8006505"><ele>1602.9066666666668</ele><time>2024-05-18T01:28:52Z</time></trkpt><trkpt lat="36.8203841" lon="138.8008"><ele>1607.67</ele><time>2024-05-18T01:29:36Z</time></trkpt><trkpt lat="36.8204061" lon="138.8010239"><ele>1609.9800000000002</ele><time>2024-05-18T01:34:22Z</time></trkpt><trkpt lat="36.8204869" lon="138.8012351"><ele>1609.2833333333335</ele><time>2024-05-18T01:34:52Z</time></trkpt><trkpt lat="36.8205454" lon="138.8014548"><ele>1606.63</ele><time>2024-05-18T01:35:07Z</time></trkpt><trkpt lat="36.8205364" lon="138.8016903"><ele>1604.2333333333333</ele><time>2024-05-18T01:35:22Z</time></trkpt><trkpt lat="36.820556" lon="138.8019288"><ele>1602.7700000000002</ele><time>2024-05-18T01:35:40Z</time></trkpt><trkpt lat="36.8205157" lon="138.8021671"><ele>1602.2966666666669</ele><time>2024-05-18T01:36:01Z</time></trkpt><trkpt lat="36.8204553" lon="138.8024041"><ele>1602.1766666666665</ele><time>2024-05-18T01:36:52Z</time></trkpt><trkpt lat="36.8204277" lon="138.8026341"><ele>1602.7933333333333</ele><time>2024-05-18T01:37:22Z</time></trkpt><trkpt lat="36.8203915" lon="138.8028897"><ele>1604.9800000000002</ele><time>2024-05-18T01:37:34Z</time></trkpt><trkpt lat="36.8204244" lon="138.803127"><ele>1607.5166666666667</ele><time>2024-05-18T01:38:07Z</time></trkpt><trkpt lat="36.8204936" lon="138.8033347"><ele>1608.6733333333334</ele><time>2024-05-18T01:38:28Z</time></trkpt><trkpt lat="36.8203889" lon="138.8035226"><ele>1609.1000000000001</ele><time>2024-05-18T01:38:43Z</time></trkpt><trkpt lat="36.8203309" lon="138.8037463"><ele>1609.8633333333335</ele><time>2024-05-18T01:39:01Z</time></trkpt><trkpt lat="36.8202874" lon="138.8039829"><ele>1611.9399999999998</ele><time>2024-05-18T01:39:34Z</time></trkpt><trkpt lat="36.8202259" lon="138.8042111"><ele>1613.0233333333335</ele><time>2024-05-18T01:39:52Z</time></trkpt><trkpt lat="36.8201854" lon="138.8044549"><ele>1613.846666666667</ele><time>2024-05-18T01:40:10Z</time></trkpt><trkpt lat="36.8201363" lon="138.8047012"><ele>1614.5766666666666</ele><time>2024-05-18T01:40:31Z</time></trkpt><trkpt lat="36.8201339" lon="138.8049315"><ele>1615.3966666666668</ele><time>2024-05-18T01:40:52Z</time></trkpt><trkpt lat="36.8200935" lon="138.8051727"><ele>1616.4033333333334</ele><time>2024-05-18T01:41:04Z</time></trkpt><trkpt lat="36.8200989" lon="138.805431"><ele>1617.986666666667</ele><time>2024-05-18T01:41:58Z</time></trkpt><trkpt lat="36.8200767" lon="138.8056839"><ele>1619.1666666666667</ele><time>2024-05-18T01:42:19Z</time></trkpt><trkpt lat="36.8200606" lon="138.8059095"><ele>1620.5166666666667</ele><time>2024-05-18T01:42:43Z</time></trkpt><trkpt lat="36.819949" lon="138.8060889"><ele>1622.3100000000002</ele><time>2024-05-18T01:43:10Z</time></trkpt><trkpt lat="36.8198371" lon="138.8062893"><ele>1626.2466666666667</ele><time>2024-05-18T01:43:40Z</time></trkpt><trkpt lat="36.8197696" lon="138.8066814"><ele>1631.5866666666668</ele><time>2024-05-18T01:44:55Z</time></trkpt><trkpt lat="36.8195795" lon="138.8067035"><ele>1639.3500000000001</ele><time>2024-05-18T01:45:52Z</time></trkpt><trkpt lat="36.819611" lon="138.8069436"><ele>1644.93</ele><time>2024-05-18T01:46:22Z</time></trkpt><trkpt lat="36.8195569" lon="138.8071588"><ele>1649.28</ele><time>2024-05-18T01:46:58Z</time></trkpt><trkpt lat="36.8194751" lon="138.8073689"><ele>1651.2466666666667</ele><time>2024-05-18T01:47:22Z</time></trkpt><trkpt lat="36.8193243" lon="138.807556"><ele>1654.41</ele><time>2024-05-18T01:47:52Z</time></trkpt><trkpt lat="36.8193367" lon="138.8077857"><ele>1657.68</ele><time>2024-05-18T01:48:07Z</time></trkpt><trkpt lat="36.8193199" lon="138.8080093"><ele>1661.0566666666666</ele><time>2024-05-18T01:48:46Z</time></trkpt><trkpt lat="36.8194051" lon="138.8082217"><ele>1664.3100000000002</ele><time>2024-05-18T01:49:28Z</time></trkpt><trkpt lat="36.8194239" lon="138.8084464"><ele>1667.8400000000001</ele><time>2024-05-18T01:50:01Z</time></trkpt><trkpt lat="36.8194258" lon="138.8086844"><ele>1670.8866666666665</ele><time>2024-05-18T01:50:58Z</time></trkpt><trkpt lat="36.8195452" lon="138.8088759"><ele>1673.8633333333335</ele><time>2024-05-18T01:51:13Z</time></trkpt><trkpt lat="36.8196737" lon="138.8090403"><ele>1676.2433333333336</ele><time>2024-05-18T01:51:34Z</time></trkpt><trkpt lat="36.8197575" lon="138.8092532"><ele>1679.1033333333335</ele><time>2024-05-18T01:52:01Z</time></trkpt><trkpt lat="36.8199249" lon="138.8093411"><ele>1682.8266666666666</ele><time>2024-05-18T01:52:46Z</time></trkpt><trkpt lat="36.8200264" lon="138.8095279"><ele>1689.08</ele><time>2024-05-18T01:54:22Z</time></trkpt><trkpt lat="36.8201394" lon="138.80971"><ele>1696.99</ele><time>2024-05-18T01:55:52Z</time></trkpt><trkpt lat="36.8202553" lon="138.8098937"><ele>1706.5033333333333</ele><time>2024-05-18T01:56:52Z</time></trkpt><trkpt lat="36.8203177" lon="138.8101188"><ele>1715.8999999999999</ele><time>2024-05-18T01:57:28Z</time></trkpt><trkpt lat="36.820371" lon="138.8103575"><ele>1725.17</ele><time>2024-05-18T01:59:22Z</time></trkpt><trkpt lat="36.8204197" lon="138.8105816"><ele>1733.8566666666666</ele><time>2024-05-18T02:00:01Z</time></trkpt><trkpt lat="36.8204892" lon="138.8107895"><ele>1741.13</ele><time>2024-05-18T02:00:46Z</time></trkpt><trkpt lat="36.8205361" lon="138.8110082"><ele>1748.53</ele><time>2024-05-18T02:01:49Z</time></trkpt><trkpt lat="36.8206261" lon="138.8112087"><ele>1757.3566666666666</ele><time>2024-05-18T02:03:49Z</time></trkpt><trkpt lat="36.8207493" lon="138.8113874"><ele>1768.206666666667</ele><time>2024-05-18T02:05:19Z</time></trkpt><trkpt lat="36.8209261" lon="138.8114532"><ele>1780.36</ele><time>2024-05-18T02:06:31Z</time></trkpt><trkpt lat="36.8210188" lon="138.8116561"><ele>1792.7166666666665</ele><time>2024-05-18T02:08:07Z</time></trkpt><trkpt lat="36.8210927" lon="138.8118726"><ele>1804.0133333333333</ele><time>2024-05-18T02:09:52Z</time></trkpt><trkpt lat="36.8212193" lon="138.8120341"><ele>1814.87</ele><time>2024-05-18T02:11:13Z</time></trkpt><trkpt lat="36.821291" lon="138.8122514"><ele>1823.2600000000002</ele><time>2024-05-18T02:12:22Z</time></trkpt><trkpt lat="36.8214577" lon="138.8123708"><ele>1832.8333333333333</ele><time>2024-05-18T02:13:52Z</time></trkpt><trkpt lat="36.8215723" lon="138.812564"><ele>1840.9899999999998</ele><time>2024-05-18T02:14:58Z</time></trkpt><trkpt lat="36.8216209" lon="138.81279"><ele>1849.7733333333333</ele><time>2024-05-18T02:15:52Z</time></trkpt><trkpt lat="36.8217238" lon="138.8129828"><ele>1858.4166666666667</ele><time>2024-05-18T02:17:28Z</time></trkpt><trkpt lat="36.8217896" lon="138.8132007"><ele>1865.9966666666667</ele><time>2024-05-18T02:18:28Z</time></trkpt><trkpt lat="36.8218953" lon="138.8133931"><ele>1874.7366666666667</ele><time>2024-05-18T02:19:37Z</time></trkpt><trkpt lat="36.821921" lon="138.8136337"><ele>1880.9833333333333</ele><time>2024-05-18T02:20:22Z</time></trkpt><trkpt lat="36.8219404" lon="138.813881"><ele>1887.4033333333334</ele><time>2024-05-18T02:20:55Z</time></trkpt><trkpt lat="36.8219137" lon="138.8141279"><ele>1889.7</ele><time>2024-05-18T02:21:31Z</time></trkpt><trkpt lat="36.8218599" lon="138.814367"><ele>1891.54</ele><time>2024-05-18T02:21:49Z</time></trkpt><trkpt lat="36.8218105" lon="138.8146122"><ele>1892.1866666666667</ele><time>2024-05-18T02:22:07Z</time></trkpt><trkpt lat="36.8217469" lon="138.8148436"><ele>1893.93</ele><time>2024-05-18T02:22:25Z</time></trkpt><trkpt lat="36.8217761" lon="138.8150669"><ele>1896.2133333333334</ele><time>2024-05-18T02:22:49Z</time></trkpt><trkpt lat="36.8216174" lon="138.815216"><ele>1898.5200000000002</ele><time>2024-05-18T02:23:10Z</time></trkpt><trkpt lat="36.8215875" lon="138.8154658"><ele>1901.1066666666668</ele><time>2024-05-18T02:23:49Z</time></trkpt><trkpt lat="36.8214576" lon="138.8156348"><ele>1902.8966666666668</ele><time>2024-05-18T02:26:37Z</time></trkpt><trkpt lat="36.8214905" lon="138.8153437"><ele>1902.0933333333335</ele><time>2024-05-18T02:28:37Z</time></trkpt><trkpt lat="36.8215643" lon="138.8155503"><ele>1902.206666666667</ele><time>2024-05-18T02:28:52Z</time></trkpt><trkpt lat="36.8214235" lon="138.8157458"><ele>1902.7766666666666</ele><time>2024-05-18T02:30:04Z</time></trkpt><trkpt lat="36.8212885" lon="138.8158984"><ele>1905.83</ele><time>2024-05-18T02:30:28Z</time></trkpt><trkpt lat="36.8213677" lon="138.8161724"><ele>1910.7366666666667</ele><time>2024-05-18T02:30:58Z</time></trkpt><trkpt lat="36.8213488" lon="138.8164085"><ele>1917.256666666667</ele><time>2024-05-18T02:32:22Z</time></trkpt><trkpt lat="36.8213316" lon="138.8166405"><ele>1925.95</ele><time>2024-05-18T02:33:16Z</time></trkpt><trkpt lat="36.8212344" lon="138.81684"><ele>1932.0866666666668</ele><time>2024-05-18T02:33:49Z</time></trkpt><trkpt lat="36.8211155" lon="138.8170101"><ele>1936.7399999999998</ele><time>2024-05-18T02:34:13Z</time></trkpt><trkpt lat="36.8210099" lon="138.8171937"><ele>1938.8466666666666</ele><time>2024-05-18T02:34:43Z</time></trkpt><trkpt lat="36.8209636" lon="138.8174301"><ele>1940.5733333333335</ele><time>2024-05-18T02:35:31Z</time></trkpt><trkpt lat="36.8208166" lon="138.8175711"><ele>1940.3066666666666</ele><time>2024-05-18T02:35:58Z</time></trkpt><trkpt lat="36.8207835" lon="138.8178172"><ele>1943.7233333333334</ele><time>2024-05-18T02:36:34Z</time></trkpt><trkpt lat="36.820707" lon="138.8180357"><ele>1947.2666666666667</ele><time>2024-05-18T02:36:58Z</time></trkpt><trkpt lat="36.820633" lon="138.8182614"><ele>1952.2166666666665</ele><time>2024-05-18T02:37:22Z</time></trkpt><trkpt lat="36.8207415" lon="138.8184499"><ele>1953.9766666666667</ele><time>2024-05-18T02:37:58Z</time></trkpt><trkpt lat="36.8205548" lon="138.8185426"><ele>1956.03</ele><time>2024-05-18T02:38:19Z</time></trkpt><trkpt lat="36.820456" lon="138.8187439"><ele>1957.8100000000002</ele><time>2024-05-18T02:38:43Z</time></trkpt><trkpt lat="36.8203735" lon="138.818957"><ele>1959.7</ele><time>2024-05-18T02:39:04Z</time></trkpt><trkpt lat="36.8202811" lon="138.8191495"><ele>1959.9633333333331</ele><time>2024-05-18T02:39:19Z</time></trkpt><trkpt lat="36.8201017" lon="138.8192113"><ele>1960.4966666666667</ele><time>2024-05-18T02:39:40Z</time></trkpt><trkpt lat="36.8199637" lon="138.8193783"><ele>1960.86</ele><time>2024-05-18T02:40:01Z</time></trkpt><trkpt lat="36.8198116" lon="138.8195038"><ele>1961.4266666666665</ele><time>2024-05-18T02:40:22Z</time></trkpt><trkpt lat="36.81962" lon="138.8195391"><ele>1961.1933333333334</ele><time>2024-05-18T02:40:40Z</time></trkpt><trkpt lat="36.8194546" lon="138.8197"><ele>1960.41</ele><time>2024-05-18T02:40:58Z</time></trkpt><trkpt lat="36.8193122" lon="138.8198616"><ele>1957.9366666666665</ele><time>2024-05-18T02:41:22Z</time></trkpt><trkpt lat="36.8191928" lon="138.8200347"><ele>1955.5533333333333</ele><time>2024-05-18T02:41:37Z</time></trkpt><trkpt lat="36.8191096" lon="138.8202499"><ele>1953.3666666666668</ele><time>2024-05-18T02:42:07Z</time></trkpt><trkpt lat="36.8189361" lon="138.8203989"><ele>1952.9966666666667</ele><time>2024-05-18T02:42:46Z</time></trkpt><trkpt lat="36.8187854" lon="138.820584"><ele>1952.42</ele><time>2024-05-18T02:43:04Z</time></trkpt><trkpt lat="36.818624" lon="138.8207321"><ele>1951.8166666666668</ele><time>2024-05-18T02:43:25Z</time></trkpt><trkpt lat="36.8185331" lon="138.8209334"><ele>1952.5400000000002</ele><time>2024-05-18T02:43:43Z</time></trkpt><trkpt lat="36.8183882" lon="138.8210991"><ele>1955.8500000000001</ele><time>2024-05-18T02:44:25Z</time></trkpt><trkpt lat="36.8182109" lon="138.8211843"><ele>1960.7699999999998</ele><time>2024-05-18T02:44:49Z</time></trkpt><trkpt lat="36.8181411" lon="138.8213938"><ele>1966.4466666666667</ele><time>2024-05-18T02:45:58Z</time></trkpt><trkpt lat="36.8179482" lon="138.8213682"><ele>1970.1133333333335</ele><time>2024-05-18T02:46:19Z</time></trkpt><trkpt lat="36.8178005" lon="138.8215185"><ele>1972.3</ele><time>2024-05-18T02:46:49Z</time></trkpt><trkpt lat="36.8178185" lon="138.8217454"><ele>1975.3766666666668</ele><time>2024-05-18T02:47:46Z</time></trkpt><trkpt lat="36.8178572" lon="138.8219929"><ele>1978.6433333333334</ele><time>2024-05-18T02:48:13Z</time></trkpt><trkpt lat="36.8178494" lon="138.8222356"><ele>1981.3133333333335</ele><time>2024-05-18T02:50:13Z</time></trkpt><trkpt lat="36.8178054" lon="138.8219815"><ele>1981.6133333333335</ele><time>2024-05-18T02:51:19Z</time></trkpt><trkpt lat="36.8179043" lon="138.8221724"><ele>1980.9733333333334</ele><time>2024-05-18T02:51:34Z</time></trkpt><trkpt lat="36.8178002" lon="138.8223562"><ele>1980.1866666666667</ele><time>2024-05-18T02:52:10Z</time></trkpt><trkpt lat="36.8177695" lon="138.822604"><ele>1976.6933333333334</ele><time>2024-05-18T02:52:55Z</time></trkpt><trkpt lat="36.8177691" lon="138.8228557"><ele>1971.9666666666665</ele><time>2024-05-18T02:53:19Z</time></trkpt><trkpt lat="36.8177828" lon="138.8231087"><ele>1966.7133333333331</ele><time>2024-05-18T02:53:40Z</time></trkpt><trkpt lat="36.8177888" lon="138.8233562"><ele>1961.743333333333</ele><time>2024-05-18T02:54:01Z</time></trkpt><trkpt lat="36.8178084" lon="138.8236078"><ele>1956.42</ele><time>2024-05-18T02:54:46Z</time></trkpt><trkpt lat="36.8178465" lon="138.8238471"><ele>1950.5133333333333</ele><time>2024-05-18T02:55:13Z</time></trkpt><trkpt lat="36.8178696" lon="138.8240972"><ele>1945.45</ele><time>2024-05-18T02:55:37Z</time></trkpt><trkpt lat="36.8178719" lon="138.8243438"><ele>1940.99</ele><time>2024-05-18T02:55:58Z</time></trkpt><trkpt lat="36.8178764" lon="138.8245775"><ele>1936.22</ele><time>2024-05-18T02:56:37Z</time></trkpt><trkpt lat="36.8178448" lon="138.8248128"><ele>1930.2033333333331</ele><time>2024-05-18T02:56:58Z</time></trkpt><trkpt lat="36.8178332" lon="138.8250577"><ele>1923.71</ele><time>2024-05-18T02:57:28Z</time></trkpt><trkpt lat="36.8178201" lon="138.8252922"><ele>1917.89</ele><time>2024-05-18T02:58:07Z</time></trkpt><trkpt lat="36.8178073" lon="138.8255379"><ele>1912.88</ele><time>2024-05-18T02:58:31Z</time></trkpt><trkpt lat="36.8178269" lon="138.8257797"><ele>1909.21</ele><time>2024-05-18T03:07:07Z</time></trkpt><trkpt lat="36.8178194" lon="138.8260453"><ele>1906.636666666667</ele><time>2024-05-18T03:07:28Z</time></trkpt><trkpt lat="36.8178456" lon="138.8262724"><ele>1904.9733333333334</ele><time>2024-05-18T03:07:43Z</time></trkpt><trkpt lat="36.8178417" lon="138.8264971"><ele>1903.97</ele><time>2024-05-18T03:07:58Z</time></trkpt><trkpt lat="36.8178471" lon="138.8267259"><ele>1903.13</ele><time>2024-05-18T03:08:10Z</time></trkpt><trkpt lat="36.8178539" lon="138.8269955"><ele>1902.3066666666666</ele><time>2024-05-18T03:08:31Z</time></trkpt><trkpt lat="36.8178526" lon="138.8272398"><ele>1900.8733333333332</ele><time>2024-05-18T03:08:46Z</time></trkpt><trkpt lat="36.8178572" lon="138.8274961"><ele>1899.1233333333332</ele><time>2024-05-18T03:09:04Z</time></trkpt><trkpt lat="36.8178706" lon="138.8277604"><ele>1897.8766666666668</ele><time>2024-05-18T03:09:22Z</time></trkpt><trkpt lat="36.8178935" lon="138.8280041"><ele>1898.0600000000002</ele><time>2024-05-18T03:09:40Z</time></trkpt><trkpt lat="36.8179054" lon="138.8282567"><ele>1899.986666666667</ele><time>2024-05-18T03:10:01Z</time></trkpt><trkpt lat="36.817912" lon="138.8284987"><ele>1902.8166666666668</ele><time>2024-05-18T03:10:25Z</time></trkpt><trkpt lat="36.8179193" lon="138.8287455"><ele>1905.9633333333334</ele><time>2024-05-18T03:10:52Z</time></trkpt><trkpt lat="36.8179398" lon="138.8289758"><ele>1908.79</ele><time>2024-05-18T03:11:22Z</time></trkpt><trkpt lat="36.8178945" lon="138.8292002"><ele>1911.9399999999998</ele><time>2024-05-18T03:11:52Z</time></trkpt><trkpt lat="36.8178429" lon="138.8294209"><ele>1915.0033333333333</ele><time>2024-05-18T03:12:19Z</time></trkpt><trkpt lat="36.8178002" lon="138.8296511"><ele>1918.3866666666665</ele><time>2024-05-18T03:12:46Z</time></trkpt><trkpt lat="36.8177132" lon="138.8298797"><ele>1921.4533333333336</ele><time>2024-05-18T03:13:31Z</time></trkpt><trkpt lat="36.8176469" lon="138.8300992"><ele>1924.4300000000003</ele><time>2024-05-18T03:14:10Z</time></trkpt><trkpt lat="36.8175631" lon="138.8303194"><ele>1927.6833333333334</ele><time>2024-05-18T03:14:43Z</time></trkpt><trkpt lat="36.8175029" lon="138.8305485"><ele>1931.3400000000001</ele><time>2024-05-18T03:15:16Z</time></trkpt><trkpt lat="36.8174311" lon="138.8307546"><ele>1935.2266666666667</ele><time>2024-05-18T03:15:55Z</time></trkpt><trkpt lat="36.8173125" lon="138.8309546"><ele>1938.5633333333335</ele><time>2024-05-18T03:16:19Z</time></trkpt><trkpt lat="36.8172421" lon="138.8311783"><ele>1941.7</ele><time>2024-05-18T03:16:43Z</time></trkpt><trkpt lat="36.8171467" lon="138.8313916"><ele>1944.7</ele><time>2024-05-18T03:17:40Z</time></trkpt><trkpt lat="36.8170541" lon="138.8315953"><ele>1948.3066666666666</ele><time>2024-05-18T03:17:58Z</time></trkpt><trkpt lat="36.8169571" lon="138.8317918"><ele>1951.6666666666667</ele><time>2024-05-18T03:18:34Z</time></trkpt><trkpt lat="36.8169104" lon="138.8320112"><ele>1955.5199999999998</ele><time>2024-05-18T03:19:04Z</time></trkpt><trkpt lat="36.8168143" lon="138.8322248"><ele>1958.7266666666667</ele><time>2024-05-18T03:19:37Z</time></trkpt><trkpt lat="36.8166966" lon="138.8324165"><ele>1961.9000000000003</ele><time>2024-05-18T03:20:28Z</time></trkpt><trkpt lat="36.816583" lon="138.8325965"><ele>1964.3233333333335</ele><time>2024-05-18T03:20:49Z</time></trkpt><trkpt lat="36.8164484" lon="138.8327543"><ele>1967.2533333333333</ele><time>2024-05-18T03:21:13Z</time></trkpt><trkpt lat="36.8163325" lon="138.8329434"><ele>1970.6200000000001</ele><time>2024-05-18T03:21:43Z</time></trkpt><trkpt lat="36.816243" lon="138.8331439"><ele>1973.7266666666667</ele><time>2024-05-18T03:22:04Z</time></trkpt><trkpt lat="36.816175" lon="138.8333664"><ele>1975.79</ele><time>2024-05-18T03:22:25Z</time></trkpt><trkpt lat="36.8160985" lon="138.8335797"><ele>1976.2433333333336</ele><time>2024-05-18T03:22:43Z</time></trkpt><trkpt lat="36.8159908" lon="138.8337969"><ele>1976.64</ele><time>2024-05-18T03:23:01Z</time></trkpt><trkpt lat="36.8158991" lon="138.8340117"><ele>1976.4766666666667</ele><time>2024-05-18T03:23:16Z</time></trkpt><trkpt lat="36.8158456" lon="138.8342266"><ele>1976.3966666666668</ele><time>2024-05-18T03:23:37Z</time></trkpt><trkpt lat="36.8157884" lon="138.8344671"><ele>1976.4966666666667</ele><time>2024-05-18T03:23:52Z</time></trkpt><trkpt lat="36.815702" lon="138.8346971"><ele>1978.0233333333333</ele><time>2024-05-18T03:24:07Z</time></trkpt><trkpt lat="36.8156624" lon="138.8349464"><ele>1980.5833333333333</ele><time>2024-05-18T03:24:28Z</time></trkpt><trkpt lat="36.8156136" lon="138.8351647"><ele>1983.1833333333334</ele><time>2024-05-18T03:24:46Z</time></trkpt><trkpt lat="36.8155145" lon="138.8353645"><ele>1985.9866666666667</ele><time>2024-05-18T03:25:07Z</time></trkpt><trkpt lat="36.8154964" lon="138.8355876"><ele>1988.8066666666666</ele><time>2024-05-18T03:25:46Z</time></trkpt><trkpt lat="36.8154235" lon="138.8358071"><ele>1993.1566666666668</ele><time>2024-05-18T03:27:22Z</time></trkpt><trkpt lat="36.8153947" lon="138.8360432"><ele>1998.4566666666667</ele><time>2024-05-18T03:27:52Z</time></trkpt><trkpt lat="36.815308" lon="138.8362672"><ele>2004.0666666666666</ele><time>2024-05-18T03:28:40Z</time></trkpt><trkpt lat="36.8154222" lon="138.8364702"><ele>2008.1433333333334</ele><time>2024-05-18T03:29:34Z</time></trkpt><trkpt lat="36.8156033" lon="138.836434"><ele>2011.5199999999998</ele><time>2024-05-18T03:29:52Z</time></trkpt><trkpt lat="36.815753" lon="138.8366077"><ele>2015.12</ele><time>2024-05-18T03:30:19Z</time></trkpt><trkpt lat="36.8159213" lon="138.8367447"><ele>2017.2666666666667</ele><time>2024-05-18T03:31:16Z</time></trkpt><trkpt lat="36.8160831" lon="138.8368843"><ele>2015.74</ele><time>2024-05-18T03:31:40Z</time></trkpt><trkpt lat="36.8162478" lon="138.8370343"><ele>2010.72</ele><time>2024-05-18T03:32:13Z</time></trkpt><trkpt lat="36.8164038" lon="138.8372191"><ele>2005.9633333333334</ele><time>2024-05-18T03:32:28Z</time></trkpt><trkpt lat="36.8165056" lon="138.837426"><ele>2002.7600000000002</ele><time>2024-05-18T03:32:55Z</time></trkpt><trkpt lat="36.8165974" lon="138.8376498"><ele>2000.7833333333335</ele><time>2024-05-18T03:33:52Z</time></trkpt><trkpt lat="36.8167239" lon="138.8378349"><ele>1997.3033333333333</ele><time>2024-05-18T03:34:07Z</time></trkpt><trkpt lat="36.8168017" lon="138.838092"><ele>1992.9166666666667</ele><time>2024-05-18T03:34:28Z</time></trkpt><trkpt lat="36.8169584" lon="138.8382534"><ele>1989.3500000000001</ele><time>2024-05-18T03:34:58Z</time></trkpt><trkpt lat="36.8170834" lon="138.8384359"><ele>1990.243333333333</ele><time>2024-05-18T03:35:26Z</time></trkpt><trkpt lat="36.8171618" lon="138.8386618"><ele>1995.0833333333333</ele><time>2024-05-18T03:36:20Z</time></trkpt><trkpt lat="36.8173261" lon="138.83883"><ele>2001.2733333333333</ele><time>2024-05-18T03:37:35Z</time></trkpt><trkpt lat="36.8172761" lon="138.8390524"><ele>2008.9666666666665</ele><time>2024-05-18T03:38:11Z</time></trkpt><trkpt lat="36.8173819" lon="138.8392805"><ele>2015.49</ele><time>2024-05-18T03:38:56Z</time></trkpt><trkpt lat="36.8174697" lon="138.8394853"><ele>2021.6133333333335</ele><time>2024-05-18T03:39:11Z</time></trkpt><trkpt lat="36.8173805" lon="138.8392709"><ele>2022.91</ele><time>2024-05-18T03:46:59Z</time></trkpt><trkpt lat="36.8172579" lon="138.8391042"><ele>2021.6133333333335</ele><time>2024-05-18T03:47:23Z</time></trkpt><trkpt lat="36.8173405" lon="138.8388761"><ele>2016.4000000000003</ele><time>2024-05-18T03:47:44Z</time></trkpt><trkpt lat="36.8171723" lon="138.8390014"><ele>2013.2</ele><time>2024-05-18T03:48:20Z</time></trkpt><trkpt lat="36.8171554" lon="138.8387323"><ele>2008.8366666666668</ele><time>2024-05-18T03:48:35Z</time></trkpt><trkpt lat="36.8172356" lon="138.8385155"><ele>2003.9766666666667</ele><time>2024-05-18T03:48:50Z</time></trkpt><trkpt lat="36.8170514" lon="138.8385402"><ele>1999.2833333333335</ele><time>2024-05-18T03:49:38Z</time></trkpt><trkpt lat="36.8169224" lon="138.8383103"><ele>1993.9233333333334</ele><time>2024-05-18T03:49:50Z</time></trkpt><trkpt lat="36.8167968" lon="138.8381469"><ele>1991.6733333333334</ele><time>2024-05-18T03:50:05Z</time></trkpt><trkpt lat="36.8167157" lon="138.8379465"><ele>1989.1466666666668</ele><time>2024-05-18T03:50:23Z</time></trkpt><trkpt lat="36.8165594" lon="138.8380586"><ele>1988.0133333333333</ele><time>2024-05-18T03:50:41Z</time></trkpt><trkpt lat="36.8166124" lon="138.8378441"><ele>1989.2</ele><time>2024-05-18T03:50:50Z</time></trkpt><trkpt lat="36.8165332" lon="138.8376384"><ele>1991.7299999999998</ele><time>2024-05-18T03:51:29Z</time></trkpt><trkpt lat="36.8164528" lon="138.8374204"><ele>1996.95</ele><time>2024-05-18T03:52:17Z</time></trkpt><trkpt lat="36.8163003" lon="138.8372685"><ele>2000.8166666666668</ele><time>2024-05-18T03:52:47Z</time></trkpt><trkpt lat="36.8161215" lon="138.837167"><ele>2002.28</ele><time>2024-05-18T03:53:02Z</time></trkpt><trkpt lat="36.8160343" lon="138.8369517"><ele>2005.05</ele><time>2024-05-18T03:53:32Z</time></trkpt><trkpt lat="36.8159748" lon="138.8366983"><ele>2008.7633333333333</ele><time>2024-05-18T03:54:17Z</time></trkpt><trkpt lat="36.8157826" lon="138.836677"><ele>2014.1599999999999</ele><time>2024-05-18T03:54:32Z</time></trkpt><trkpt lat="36.815579" lon="138.836606"><ele>2015.2333333333336</ele><time>2024-05-18T03:54:53Z</time></trkpt><trkpt lat="36.8154282" lon="138.8364448"><ele>2014.7333333333333</ele><time>2024-05-18T03:55:23Z</time></trkpt><trkpt lat="36.8153534" lon="138.8362185"><ele>2011.7533333333333</ele><time>2024-05-18T03:56:08Z</time></trkpt><trkpt lat="36.8154025" lon="138.8360022"><ele>2008.5466666666664</ele><time>2024-05-18T03:56:56Z</time></trkpt><trkpt lat="36.8156163" lon="138.8358536"><ele>2003.6966666666667</ele><time>2024-05-18T03:57:05Z</time></trkpt><trkpt lat="36.8155081" lon="138.8356497"><ele>1998.3833333333332</ele><time>2024-05-18T03:57:20Z</time></trkpt><trkpt lat="36.8155475" lon="138.83539"><ele>1993.6866666666667</ele><time>2024-05-18T03:57:50Z</time></trkpt><trkpt lat="36.815592" lon="138.8351375"><ele>1989.64</ele><time>2024-05-18T03:58:08Z</time></trkpt><trkpt lat="36.8155925" lon="138.8349014"><ele>1986.1666666666667</ele><time>2024-05-18T03:58:17Z</time></trkpt><trkpt lat="36.815713" lon="138.8347246"><ele>1983.4333333333332</ele><time>2024-05-18T03:58:32Z</time></trkpt><trkpt lat="36.8156864" lon="138.8344946"><ele>1981.12</ele><time>2024-05-18T03:58:53Z</time></trkpt><trkpt lat="36.8157913" lon="138.8342425"><ele>1978.8400000000001</ele><time>2024-05-18T03:59:05Z</time></trkpt><trkpt lat="36.81577" lon="138.8340015"><ele>1977.9166666666667</ele><time>2024-05-18T03:59:20Z</time></trkpt><trkpt lat="36.8159204" lon="138.8337983"><ele>1977.7266666666667</ele><time>2024-05-18T03:59:35Z</time></trkpt><trkpt lat="36.8160598" lon="138.8336376"><ele>1977.7333333333333</ele><time>2024-05-18T03:59:47Z</time></trkpt><trkpt lat="36.8161545" lon="138.8334103"><ele>1977.6299999999999</ele><time>2024-05-18T04:00:02Z</time></trkpt><trkpt lat="36.8161544" lon="138.833113"><ele>1978.0133333333335</ele><time>2024-05-18T04:00:20Z</time></trkpt><trkpt lat="36.8162999" lon="138.8329708"><ele>1977.33</ele><time>2024-05-18T04:00:38Z</time></trkpt><trkpt lat="36.8163925" lon="138.8327433"><ele>1975.6633333333332</ele><time>2024-05-18T04:00:59Z</time></trkpt><trkpt lat="36.816553" lon="138.8326384"><ele>1971.9466666666667</ele><time>2024-05-18T04:01:14Z</time></trkpt><trkpt lat="36.816665" lon="138.832406"><ele>1968.58</ele><time>2024-05-18T04:01:50Z</time></trkpt><trkpt lat="36.8168154" lon="138.8322416"><ele>1964.9166666666667</ele><time>2024-05-18T04:02:05Z</time></trkpt><trkpt lat="36.8168928" lon="138.8319966"><ele>1961.5433333333333</ele><time>2024-05-18T04:02:23Z</time></trkpt><trkpt lat="36.8169444" lon="138.8317514"><ele>1958.37</ele><time>2024-05-18T04:03:05Z</time></trkpt><trkpt lat="36.8170502" lon="138.8315332"><ele>1954.78</ele><time>2024-05-18T04:03:23Z</time></trkpt><trkpt lat="36.8171563" lon="138.8313398"><ele>1951.2833333333335</ele><time>2024-05-18T04:03:41Z</time></trkpt><trkpt lat="36.8172285" lon="138.8311055"><ele>1947.47</ele><time>2024-05-18T04:04:08Z</time></trkpt><trkpt lat="36.8173308" lon="138.8309044"><ele>1944.3266666666668</ele><time>2024-05-18T04:04:53Z</time></trkpt><trkpt lat="36.8174851" lon="138.8307042"><ele>1940.7833333333335</ele><time>2024-05-18T04:05:08Z</time></trkpt><trkpt lat="36.8175155" lon="138.8304808"><ele>1937.58</ele><time>2024-05-18T04:05:29Z</time></trkpt><trkpt lat="36.8175037" lon="138.8302549"><ele>1933.5266666666666</ele><time>2024-05-18T04:05:56Z</time></trkpt><trkpt lat="36.8176744" lon="138.8300752"><ele>1930.2</ele><time>2024-05-18T04:06:11Z</time></trkpt><trkpt lat="36.8177109" lon="138.8297931"><ele>1926.6233333333332</ele><time>2024-05-18T04:06:26Z</time></trkpt><trkpt lat="36.8177908" lon="138.8295863"><ele>1923.7333333333333</ele><time>2024-05-18T04:06:56Z</time></trkpt><trkpt lat="36.8178193" lon="138.8293486"><ele>1920.74</ele><time>2024-05-18T04:07:05Z</time></trkpt><trkpt lat="36.8178678" lon="138.8290964"><ele>1917.36</ele><time>2024-05-18T04:07:23Z</time></trkpt><trkpt lat="36.8179395" lon="138.8288781"><ele>1913.8533333333332</ele><time>2024-05-18T04:07:32Z</time></trkpt><trkpt lat="36.8180121" lon="138.82867"><ele>1910.3866666666665</ele><time>2024-05-18T04:08:05Z</time></trkpt><trkpt lat="36.8179344" lon="138.828423"><ele>1907.66</ele><time>2024-05-18T04:08:32Z</time></trkpt><trkpt lat="36.8179049" lon="138.8281836"><ele>1904.89</ele><time>2024-05-18T04:08:44Z</time></trkpt><trkpt lat="36.8180174" lon="138.8279646"><ele>1901.6733333333334</ele><time>2024-05-18T04:08:59Z</time></trkpt><trkpt lat="36.8178975" lon="138.827789"><ele>1899.17</ele><time>2024-05-18T04:09:11Z</time></trkpt><trkpt lat="36.8177921" lon="138.82756"><ele>1896.9966666666667</ele><time>2024-05-18T04:09:29Z</time></trkpt><trkpt lat="36.8178654" lon="138.8273451"><ele>1896.9866666666667</ele><time>2024-05-18T04:09:38Z</time></trkpt><trkpt lat="36.8179398" lon="138.8271403"><ele>1897.8666666666668</ele><time>2024-05-18T04:09:47Z</time></trkpt><trkpt lat="36.8179582" lon="138.826813"><ele>1899.3866666666665</ele><time>2024-05-18T04:10:08Z</time></trkpt><trkpt lat="36.8178438" lon="138.8266159"><ele>1900.8966666666668</ele><time>2024-05-18T04:10:26Z</time></trkpt><trkpt lat="36.8178225" lon="138.8263831"><ele>1902.0566666666666</ele><time>2024-05-18T04:10:53Z</time></trkpt><trkpt lat="36.8177506" lon="138.8261636"><ele>1903.4433333333334</ele><time>2024-05-18T04:11:11Z</time></trkpt><trkpt lat="36.8178205" lon="138.825906"><ele>1904.2933333333333</ele><time>2024-05-18T04:11:23Z</time></trkpt><trkpt lat="36.8178281" lon="138.8256667"><ele>1905.4233333333334</ele><time>2024-05-18T04:11:44Z</time></trkpt><trkpt lat="36.8178428" lon="138.8254287"><ele>1907.1899999999998</ele><time>2024-05-18T04:14:39Z</time></trkpt><trkpt lat="36.8177843" lon="138.8252145"><ele>1910.3666666666668</ele><time>2024-05-18T04:15:12Z</time></trkpt><trkpt lat="36.817758" lon="138.8249702"><ele>1914.3633333333335</ele><time>2024-05-18T04:15:57Z</time></trkpt><trkpt lat="36.8178542" lon="138.8247698"><ele>1919.7966666666669</ele><time>2024-05-18T04:17:06Z</time></trkpt><trkpt lat="36.8179095" lon="138.8245141"><ele>1925.6133333333335</ele><time>2024-05-18T04:18:00Z</time></trkpt><trkpt lat="36.8178542" lon="138.8242731"><ele>1931.5866666666668</ele><time>2024-05-18T04:18:36Z</time></trkpt><trkpt lat="36.8178553" lon="138.8239993"><ele>1937.3333333333333</ele><time>2024-05-18T04:19:33Z</time></trkpt><trkpt lat="36.8178173" lon="138.823769"><ele>1941.966666666667</ele><time>2024-05-18T04:20:00Z</time></trkpt><trkpt lat="36.8177704" lon="138.8235455"><ele>1947.3266666666668</ele><time>2024-05-18T04:21:09Z</time></trkpt><trkpt lat="36.8178032" lon="138.8233179"><ele>1952.676666666667</ele><time>2024-05-18T04:22:00Z</time></trkpt><trkpt lat="36.8178883" lon="138.8231177"><ele>1956.99</ele><time>2024-05-18T04:22:09Z</time></trkpt><trkpt lat="36.8177128" lon="138.8229449"><ele>1961.18</ele><time>2024-05-18T04:23:54Z</time></trkpt><trkpt lat="36.8177897" lon="138.8227085"><ele>1964.7566666666664</ele><time>2024-05-18T04:24:27Z</time></trkpt><trkpt lat="36.8177673" lon="138.8224613"><ele>1970.4166666666667</ele><time>2024-05-18T04:25:18Z</time></trkpt><trkpt lat="36.8177762" lon="138.8222223"><ele>1974.9733333333334</ele><time>2024-05-18T04:26:09Z</time></trkpt><trkpt lat="36.817903" lon="138.8220589"><ele>1978.7666666666667</ele><time>2024-05-18T04:26:21Z</time></trkpt><trkpt lat="36.8178265" lon="138.8218055"><ele>1980.8433333333332</ele><time>2024-05-18T04:27:12Z</time></trkpt><trkpt lat="36.8177027" lon="138.8219917"><ele>1981.4266666666665</ele><time>2024-05-18T04:29:30Z</time></trkpt><trkpt lat="36.8175537" lon="138.8218413"><ele>1980.9733333333334</ele><time>2024-05-18T04:29:45Z</time></trkpt><trkpt lat="36.8174231" lon="138.8220055"><ele>1977.1899999999998</ele><time>2024-05-18T04:30:03Z</time></trkpt><trkpt lat="36.8172208" lon="138.8218751"><ele>1971.6666666666667</ele><time>2024-05-18T04:30:21Z</time></trkpt><trkpt lat="36.8170396" lon="138.8219109"><ele>1964.32</ele><time>2024-05-18T04:30:33Z</time></trkpt><trkpt lat="36.8168471" lon="138.8218438"><ele>1958.626666666667</ele><time>2024-05-18T04:31:00Z</time></trkpt><trkpt lat="36.8166346" lon="138.821827"><ele>1951.1433333333334</ele><time>2024-05-18T04:31:39Z</time></trkpt><trkpt lat="36.8164204" lon="138.8217993"><ele>1944.1899999999998</ele><time>2024-05-18T04:31:54Z</time></trkpt><trkpt lat="36.8163128" lon="138.8219986"><ele>1937.3433333333332</ele><time>2024-05-18T04:32:12Z</time></trkpt><trkpt lat="36.8161291" lon="138.8219394"><ele>1933.7033333333331</ele><time>2024-05-18T04:32:30Z</time></trkpt><trkpt lat="36.8159281" lon="138.8218788"><ele>1930.71</ele><time>2024-05-18T04:33:03Z</time></trkpt><trkpt lat="36.8157514" lon="138.8218034"><ele>1928.8866666666665</ele><time>2024-05-18T04:33:15Z</time></trkpt><trkpt lat="36.8155618" lon="138.8217517"><ele>1926.9033333333334</ele><time>2024-05-18T04:33:36Z</time></trkpt><trkpt lat="36.8153723" lon="138.8216708"><ele>1924.9033333333334</ele><time>2024-05-18T04:33:54Z</time></trkpt><trkpt lat="36.8151796" lon="138.8216546"><ele>1921.9766666666665</ele><time>2024-05-18T04:34:12Z</time></trkpt><trkpt lat="36.8149741" lon="138.8216033"><ele>1918.3533333333332</ele><time>2024-05-18T04:34:27Z</time></trkpt><trkpt lat="36.8148049" lon="138.8217284"><ele>1914.5566666666666</ele><time>2024-05-18T04:35:30Z</time></trkpt><trkpt lat="36.8146313" lon="138.8218153"><ele>1908.9633333333334</ele><time>2024-05-18T04:35:57Z</time></trkpt><trkpt lat="36.8144261" lon="138.82189"><ele>1901.4633333333331</ele><time>2024-05-18T04:36:15Z</time></trkpt><trkpt lat="36.8142299" lon="138.8219149"><ele>1893.7666666666667</ele><time>2024-05-18T04:36:42Z</time></trkpt><trkpt lat="36.8140333" lon="138.8219223"><ele>1888.0733333333335</ele><time>2024-05-18T04:36:51Z</time></trkpt><trkpt lat="36.8138572" lon="138.8218355"><ele>1885.3100000000002</ele><time>2024-05-18T04:37:06Z</time></trkpt><trkpt lat="36.8136523" lon="138.8218326"><ele>1883.13</ele><time>2024-05-18T04:37:24Z</time></trkpt><trkpt lat="36.8134748" lon="138.8218728"><ele>1879.8866666666665</ele><time>2024-05-18T04:37:42Z</time></trkpt><trkpt lat="36.8132568" lon="138.8217855"><ele>1876.2466666666667</ele><time>2024-05-18T04:37:57Z</time></trkpt><trkpt lat="36.8130594" lon="138.8217888"><ele>1871.006666666667</ele><time>2024-05-18T04:38:18Z</time></trkpt><trkpt lat="36.812885" lon="138.82187"><ele>1864.2933333333333</ele><time>2024-05-18T04:38:45Z</time></trkpt><trkpt lat="36.8127004" lon="138.8218947"><ele>1855.5866666666668</ele><time>2024-05-18T04:39:09Z</time></trkpt><trkpt lat="36.8125308" lon="138.8219784"><ele>1847.3433333333335</ele><time>2024-05-18T04:39:36Z</time></trkpt><trkpt lat="36.8123312" lon="138.821966"><ele>1839.07</ele><time>2024-05-18T04:40:00Z</time></trkpt><trkpt lat="36.8121415" lon="138.8220072"><ele>1831.7066666666667</ele><time>2024-05-18T04:40:24Z</time></trkpt><trkpt lat="36.811977" lon="138.8221576"><ele>1824.38</ele><time>2024-05-18T04:40:45Z</time></trkpt><trkpt lat="36.8117988" lon="138.8222115"><ele>1817.32</ele><time>2024-05-18T04:41:03Z</time></trkpt><trkpt lat="36.8115909" lon="138.8222178"><ele>1809.1566666666668</ele><time>2024-05-18T04:41:21Z</time></trkpt><trkpt lat="36.8114067" lon="138.822274"><ele>1800.79</ele><time>2024-05-18T04:41:51Z</time></trkpt><trkpt lat="36.8112265" lon="138.822343"><ele>1793.9833333333333</ele><time>2024-05-18T04:42:12Z</time></trkpt><trkpt lat="36.8110505" lon="138.8224619"><ele>1787.426666666667</ele><time>2024-05-18T04:42:36Z</time></trkpt><trkpt lat="36.8108713" lon="138.8225758"><ele>1780.5</ele><time>2024-05-18T04:43:00Z</time></trkpt><trkpt lat="36.810658" lon="138.8226415"><ele>1771.9033333333334</ele><time>2024-05-18T04:43:12Z</time></trkpt><trkpt lat="36.8104877" lon="138.8227567"><ele>1764.6866666666667</ele><time>2024-05-18T04:43:42Z</time></trkpt><trkpt lat="36.8103742" lon="138.8229373"><ele>1757.95</ele><time>2024-05-18T04:44:09Z</time></trkpt><trkpt lat="36.8102022" lon="138.8230353"><ele>1753.0133333333333</ele><time>2024-05-18T04:44:24Z</time></trkpt><trkpt lat="36.810031" lon="138.8231764"><ele>1746.2333333333333</ele><time>2024-05-18T04:44:39Z</time></trkpt><trkpt lat="36.8098475" lon="138.8231877"><ele>1741.1033333333335</ele><time>2024-05-18T04:44:51Z</time></trkpt><trkpt lat="36.8096289" lon="138.82324"><ele>1736.7766666666666</ele><time>2024-05-18T04:45:12Z</time></trkpt><trkpt lat="36.8094406" lon="138.8232401"><ele>1734.8066666666666</ele><time>2024-05-18T04:45:24Z</time></trkpt><trkpt lat="36.8092636" lon="138.8233331"><ele>1731.0200000000002</ele><time>2024-05-18T04:45:48Z</time></trkpt><trkpt lat="36.8090586" lon="138.8234009"><ele>1726.0900000000001</ele><time>2024-05-18T04:46:12Z</time></trkpt><trkpt lat="36.8088893" lon="138.8234838"><ele>1720.5666666666666</ele><time>2024-05-18T04:46:27Z</time></trkpt><trkpt lat="36.8088238" lon="138.823731"><ele>1714.71</ele><time>2024-05-18T04:46:39Z</time></trkpt><trkpt lat="36.8085929" lon="138.8236303"><ele>1709.8233333333335</ele><time>2024-05-18T04:46:57Z</time></trkpt><trkpt lat="36.8084584" lon="138.8238239"><ele>1704.68</ele><time>2024-05-18T04:47:21Z</time></trkpt><trkpt lat="36.8083211" lon="138.8240489"><ele>1698.7866666666669</ele><time>2024-05-18T04:47:42Z</time></trkpt><trkpt lat="36.8081538" lon="138.823949"><ele>1694.2700000000002</ele><time>2024-05-18T04:47:54Z</time></trkpt><trkpt lat="36.8079678" lon="138.823861"><ele>1691.3100000000002</ele><time>2024-05-18T04:48:06Z</time></trkpt><trkpt lat="36.807838" lon="138.8240765"><ele>1689.49</ele><time>2024-05-18T04:48:30Z</time></trkpt><trkpt lat="36.8076657" lon="138.8241567"><ele>1685.426666666667</ele><time>2024-05-18T04:48:54Z</time></trkpt><trkpt lat="36.807505" lon="138.8242654"><ele>1680.05</ele><time>2024-05-18T04:49:09Z</time></trkpt><trkpt lat="36.8073464" lon="138.8244599"><ele>1673.4400000000003</ele><time>2024-05-18T04:49:33Z</time></trkpt><trkpt lat="36.8071781" lon="138.8245491"><ele>1667.6266666666668</ele><time>2024-05-18T04:49:42Z</time></trkpt><trkpt lat="36.8069947" lon="138.8245682"><ele>1662.8866666666665</ele><time>2024-05-18T04:50:06Z</time></trkpt><trkpt lat="36.8068108" lon="138.8246302"><ele>1660.3433333333335</ele><time>2024-05-18T04:50:24Z</time></trkpt><trkpt lat="36.8066136" lon="138.824782"><ele>1657.21</ele><time>2024-05-18T04:53:24Z</time></trkpt><trkpt lat="36.8064585" lon="138.8249274"><ele>1654.68</ele><time>2024-05-18T04:54:18Z</time></trkpt><trkpt lat="36.8066134" lon="138.8248054"><ele>1653.5133333333333</ele><time>2024-05-18T04:55:00Z</time></trkpt><trkpt lat="36.8068074" lon="138.8247301"><ele>1654.1466666666668</ele><time>2024-05-18T04:55:18Z</time></trkpt><trkpt lat="36.806812" lon="138.824502"><ele>1655.1933333333334</ele><time>2024-05-18T05:02:14Z</time></trkpt><trkpt lat="36.806658" lon="138.8243831"><ele>1653.2233333333334</ele><time>2024-05-18T05:02:50Z</time></trkpt><trkpt lat="36.8064788" lon="138.8242456"><ele>1647.8066666666666</ele><time>2024-05-18T05:03:08Z</time></trkpt><trkpt lat="36.8064018" lon="138.8240278"><ele>1639.2233333333334</ele><time>2024-05-18T05:04:11Z</time></trkpt><trkpt lat="36.8063993" lon="138.8238017"><ele>1631.2466666666667</ele><time>2024-05-18T05:04:26Z</time></trkpt><trkpt lat="36.8064234" lon="138.8235795"><ele>1623.3033333333333</ele><time>2024-05-18T05:04:50Z</time></trkpt><trkpt lat="36.8065124" lon="138.8233556"><ele>1616.54</ele><time>2024-05-18T05:05:20Z</time></trkpt><trkpt lat="36.8066247" lon="138.823119"><ele>1609.7299999999998</ele><time>2024-05-18T05:05:53Z</time></trkpt><trkpt lat="36.8064378" lon="138.8230536"><ele>1601.1299999999999</ele><time>2024-05-18T05:06:17Z</time></trkpt><trkpt lat="36.8062467" lon="138.8230941"><ele>1592.3733333333332</ele><time>2024-05-18T05:06:44Z</time></trkpt><trkpt lat="36.806053" lon="138.8230661"><ele>1582.2766666666666</ele><time>2024-05-18T05:07:05Z</time></trkpt><trkpt lat="36.8061796" lon="138.8228651"><ele>1575.9033333333334</ele><time>2024-05-18T05:07:38Z</time></trkpt><trkpt lat="36.8059786" lon="138.8227891"><ele>1567.4366666666665</ele><time>2024-05-18T05:07:50Z</time></trkpt><trkpt lat="36.8058021" lon="138.8228992"><ele>1563.62</ele><time>2024-05-18T05:08:08Z</time></trkpt><trkpt lat="36.8058631" lon="138.8226568"><ele>1557.9266666666665</ele><time>2024-05-18T05:08:38Z</time></trkpt><trkpt lat="36.8056817" lon="138.8226438"><ele>1553.67</ele><time>2024-05-18T05:09:14Z</time></trkpt><trkpt lat="36.8057748" lon="138.8224011"><ele>1545.1166666666668</ele><time>2024-05-18T05:09:47Z</time></trkpt><trkpt lat="36.805724" lon="138.8221772"><ele>1537.5966666666666</ele><time>2024-05-18T05:10:14Z</time></trkpt><trkpt lat="36.8055878" lon="138.8220056"><ele>1529.1933333333334</ele><time>2024-05-18T05:10:32Z</time></trkpt><trkpt lat="36.8054643" lon="138.8218352"><ele>1521.243333333333</ele><time>2024-05-18T05:10:59Z</time></trkpt><trkpt lat="36.8053172" lon="138.8216853"><ele>1512.5166666666667</ele><time>2024-05-18T05:11:32Z</time></trkpt><trkpt lat="36.8051335" lon="138.8217572"><ele>1501.7033333333336</ele><time>2024-05-18T05:12:17Z</time></trkpt><trkpt lat="36.8050473" lon="138.8215245"><ele>1492.9866666666667</ele><time>2024-05-18T05:12:38Z</time></trkpt><trkpt lat="36.8048927" lon="138.8213197"><ele>1483.66</ele><time>2024-05-18T05:13:17Z</time></trkpt><trkpt lat="36.804825" lon="138.8211004"><ele>1477.9633333333331</ele><time>2024-05-18T05:13:35Z</time></trkpt><trkpt lat="36.8046195" lon="138.8210909"><ele>1468.9433333333334</ele><time>2024-05-18T05:14:05Z</time></trkpt><trkpt lat="36.8045612" lon="138.8208379"><ele>1460.0200000000002</ele><time>2024-05-18T05:14:47Z</time></trkpt><trkpt lat="36.8043705" lon="138.8208629"><ele>1449.45</ele><time>2024-05-18T05:15:26Z</time></trkpt><trkpt lat="36.8043053" lon="138.8206453"><ele>1440.2966666666669</ele><time>2024-05-18T05:16:02Z</time></trkpt><trkpt lat="36.8043206" lon="138.8203918"><ele>1431.0199999999998</ele><time>2024-05-18T05:16:35Z</time></trkpt><trkpt lat="36.8041596" lon="138.8202452"><ele>1421.89</ele><time>2024-05-18T05:17:08Z</time></trkpt><trkpt lat="36.804168" lon="138.820006"><ele>1410.8999999999999</ele><time>2024-05-18T05:17:50Z</time></trkpt><trkpt lat="36.8042434" lon="138.8197783"><ele>1400.4366666666667</ele><time>2024-05-18T05:18:17Z</time></trkpt><trkpt lat="36.8041427" lon="138.81959"><ele>1390.176666666667</ele><time>2024-05-18T05:18:38Z</time></trkpt><trkpt lat="36.8039422" lon="138.8194778"><ele>1380.6466666666668</ele><time>2024-05-18T05:19:05Z</time></trkpt><trkpt lat="36.8039053" lon="138.8192521"><ele>1371.3333333333333</ele><time>2024-05-18T05:19:41Z</time></trkpt><trkpt lat="36.8037872" lon="138.8190771"><ele>1363.3533333333332</ele><time>2024-05-18T05:19:59Z</time></trkpt><trkpt lat="36.8036579" lon="138.8189072"><ele>1356.6166666666668</ele><time>2024-05-18T05:20:23Z</time></trkpt><trkpt lat="36.8035561" lon="138.818711"><ele>1350.0833333333333</ele><time>2024-05-18T05:20:44Z</time></trkpt><trkpt lat="36.8033872" lon="138.8186297"><ele>1342.8333333333333</ele><time>2024-05-18T05:21:11Z</time></trkpt><trkpt lat="36.8032577" lon="138.8184732"><ele>1335.7366666666667</ele><time>2024-05-18T05:21:32Z</time></trkpt><trkpt lat="36.8031323" lon="138.8182559"><ele>1327.7366666666667</ele><time>2024-05-18T05:22:14Z</time></trkpt><trkpt lat="36.8030006" lon="138.8180615"><ele>1319.7033333333336</ele><time>2024-05-18T05:22:53Z</time></trkpt><trkpt lat="36.8028956" lon="138.8178541"><ele>1312.49</ele><time>2024-05-18T05:23:14Z</time></trkpt><trkpt lat="36.8028066" lon="138.8176517"><ele>1305.0866666666668</ele><time>2024-05-18T05:23:38Z</time></trkpt><trkpt lat="36.8026726" lon="138.8174562"><ele>1297.2933333333333</ele><time>2024-05-18T05:23:56Z</time></trkpt><trkpt lat="36.8025369" lon="138.8173001"><ele>1289.0100000000002</ele><time>2024-05-18T05:24:23Z</time></trkpt><trkpt lat="36.8024505" lon="138.8170947"><ele>1282.1433333333334</ele><time>2024-05-18T05:24:48Z</time></trkpt><trkpt lat="36.8023521" lon="138.8168523"><ele>1275.1133333333335</ele><time>2024-05-18T05:25:09Z</time></trkpt><trkpt lat="36.8022959" lon="138.8166232"><ele>1269.0966666666666</ele><time>2024-05-18T05:25:33Z</time></trkpt><trkpt lat="36.8022343" lon="138.8164003"><ele>1263.7833333333335</ele><time>2024-05-18T05:26:00Z</time></trkpt><trkpt lat="36.8021331" lon="138.8161923"><ele>1258.8666666666668</ele><time>2024-05-18T05:26:39Z</time></trkpt><trkpt lat="36.8020454" lon="138.8159876"><ele>1253.1666666666667</ele><time>2024-05-18T05:26:57Z</time></trkpt><trkpt lat="36.8019442" lon="138.8157878"><ele>1247.3366666666668</ele><time>2024-05-18T05:27:15Z</time></trkpt><trkpt lat="36.801804" lon="138.8155813"><ele>1242.21</ele><time>2024-05-18T05:27:33Z</time></trkpt><trkpt lat="36.8016605" lon="138.8153875"><ele>1237.5933333333335</ele><time>2024-05-18T05:27:51Z</time></trkpt><trkpt lat="36.8015093" lon="138.8152242"><ele>1232.4400000000003</ele><time>2024-05-18T05:28:06Z</time></trkpt><trkpt lat="36.8013599" lon="138.8150486"><ele>1227.8366666666668</ele><time>2024-05-18T05:28:33Z</time></trkpt><trkpt lat="36.8012271" lon="138.8148712"><ele>1223.2</ele><time>2024-05-18T05:28:45Z</time></trkpt><trkpt lat="36.8011254" lon="138.8146833"><ele>1219.97</ele><time>2024-05-18T05:29:00Z</time></trkpt><trkpt lat="36.8010702" lon="138.8144633"><ele>1216.8533333333335</ele><time>2024-05-18T05:29:24Z</time></trkpt><trkpt lat="36.8009383" lon="138.8142851"><ele>1213.5066666666667</ele><time>2024-05-18T05:29:41Z</time></trkpt><trkpt lat="36.8009118" lon="138.8140589"><ele>1210.4366666666667</ele><time>2024-05-18T05:29:59Z</time></trkpt><trkpt lat="36.8007356" lon="138.8139347"><ele>1206.3766666666668</ele><time>2024-05-18T05:30:14Z</time></trkpt><trkpt lat="36.8005523" lon="138.8138927"><ele>1201.27</ele><time>2024-05-18T05:30:32Z</time></trkpt><trkpt lat="36.8006315" lon="138.813684"><ele>1197.3233333333333</ele><time>2024-05-18T05:31:02Z</time></trkpt><trkpt lat="36.800643" lon="138.8134284"><ele>1194.9466666666667</ele><time>2024-05-18T05:31:20Z</time></trkpt><trkpt lat="36.8006537" lon="138.8131747"><ele>1194.24</ele><time>2024-05-18T05:31:38Z</time></trkpt><trkpt lat="36.800747" lon="138.8129492"><ele>1192.1666666666667</ele><time>2024-05-18T05:31:53Z</time></trkpt><trkpt lat="36.8007559" lon="138.8127223"><ele>1190.3566666666668</ele><time>2024-05-18T05:32:08Z</time></trkpt><trkpt lat="36.8006855" lon="138.8124209"><ele>1188.18</ele><time>2024-05-18T05:32:26Z</time></trkpt><trkpt lat="36.8006644" lon="138.8121884"><ele>1186.3333333333333</ele><time>2024-05-18T05:32:41Z</time></trkpt><trkpt lat="36.8007032" lon="138.8119525"><ele>1184.5733333333335</ele><time>2024-05-18T05:33:02Z</time></trkpt><trkpt lat="36.8006876" lon="138.8117246"><ele>1182.8066666666666</ele><time>2024-05-18T05:33:26Z</time></trkpt><trkpt lat="36.8008965" lon="138.81174"><ele>1180.72</ele><time>2024-05-18T05:33:56Z</time></trkpt><trkpt lat="36.801014" lon="138.8115588"><ele>1178.4</ele><time>2024-05-18T05:34:14Z</time></trkpt><trkpt lat="36.8010407" lon="138.8113195"><ele>1177.5</ele><time>2024-05-18T05:34:26Z</time></trkpt><trkpt lat="36.8010954" lon="138.8110804"><ele>1175.8733333333332</ele><time>2024-05-18T05:34:44Z</time></trkpt><trkpt lat="36.8010693" lon="138.8107941"><ele>1173.8933333333334</ele><time>2024-05-18T05:34:59Z</time></trkpt><trkpt lat="36.8010195" lon="138.8105278"><ele>1170.6000000000001</ele><time>2024-05-18T05:35:14Z</time></trkpt><trkpt lat="36.8010852" lon="138.8103103"><ele>1167.5933333333335</ele><time>2024-05-18T05:35:38Z</time></trkpt><trkpt lat="36.8012124" lon="138.810097"><ele>1165.2099999999998</ele><time>2024-05-18T05:35:56Z</time></trkpt><trkpt lat="36.8011898" lon="138.8098504"><ele>1163.23</ele><time>2024-05-18T05:36:11Z</time></trkpt><trkpt lat="36.8011897" lon="138.8096"><ele>1161.8066666666666</ele><time>2024-05-18T05:36:26Z</time></trkpt><trkpt lat="36.801258" lon="138.8093825"><ele>1160.04</ele><time>2024-05-18T05:36:41Z</time></trkpt><trkpt lat="36.8014343" lon="138.8092339"><ele>1158.5766666666668</ele><time>2024-05-18T05:36:59Z</time></trkpt><trkpt lat="36.8015431" lon="138.8090185"><ele>1156.67</ele><time>2024-05-18T05:37:14Z</time></trkpt><trkpt lat="36.8014588" lon="138.80877"><ele>1153.95</ele><time>2024-05-18T05:37:29Z</time></trkpt><trkpt lat="36.8012778" lon="138.8087933"><ele>1151.0333333333335</ele><time>2024-05-18T05:37:41Z</time></trkpt><trkpt lat="36.8010715" lon="138.8089353"><ele>1148.8866666666665</ele><time>2024-05-18T05:37:56Z</time></trkpt><trkpt lat="36.8009326" lon="138.8091415"><ele>1148.3966666666668</ele><time>2024-05-18T05:38:09Z</time></trkpt><trkpt lat="36.8007796" lon="138.8089682"><ele>1146.7466666666667</ele><time>2024-05-18T05:38:24Z</time></trkpt><trkpt lat="36.8007937" lon="138.8087023"><ele>1144.3033333333333</ele><time>2024-05-18T05:38:36Z</time></trkpt><trkpt lat="36.8009598" lon="138.8085166"><ele>1141.57</ele><time>2024-05-18T05:38:54Z</time></trkpt><trkpt lat="36.8010776" lon="138.8083076"><ele>1140.6066666666668</ele><time>2024-05-18T05:39:12Z</time></trkpt><trkpt lat="36.801162" lon="138.8080788"><ele>1140.3700000000001</ele><time>2024-05-18T05:39:27Z</time></trkpt><trkpt lat="36.8011905" lon="138.8078287"><ele>1139.8533333333335</ele><time>2024-05-18T05:39:45Z</time></trkpt><trkpt lat="36.801258" lon="138.8076016"><ele>1138.4633333333334</ele><time>2024-05-18T05:40:00Z</time></trkpt><trkpt lat="36.801419" lon="138.8074732"><ele>1137.0166666666667</ele><time>2024-05-18T05:40:18Z</time></trkpt><trkpt lat="36.8015467" lon="138.8072855"><ele>1134.5366666666666</ele><time>2024-05-18T05:40:33Z</time></trkpt><trkpt lat="36.8017161" lon="138.8071434"><ele>1132.2333333333333</ele><time>2024-05-18T05:40:48Z</time></trkpt><trkpt lat="36.801837" lon="138.8069734"><ele>1129.7166666666665</ele><time>2024-05-18T05:41:00Z</time></trkpt><trkpt lat="36.8019883" lon="138.8068275"><ele>1127.8466666666666</ele><time>2024-05-18T05:41:15Z</time></trkpt><trkpt lat="36.8021514" lon="138.8067135"><ele>1126.3066666666666</ele><time>2024-05-18T05:41:30Z</time></trkpt><trkpt lat="36.8022824" lon="138.8065236"><ele>1124.65</ele><time>2024-05-18T05:41:45Z</time></trkpt><trkpt lat="36.8023893" lon="138.8063114"><ele>1122.7233333333334</ele><time>2024-05-18T05:42:00Z</time></trkpt><trkpt lat="36.8025337" lon="138.8061741"><ele>1121.04</ele><time>2024-05-18T05:42:18Z</time></trkpt><trkpt lat="36.8026014" lon="138.805966"><ele>1118.6933333333334</ele><time>2024-05-18T05:42:36Z</time></trkpt><trkpt lat="36.8028116" lon="138.8058385"><ele>1117.86</ele><time>2024-05-18T05:42:48Z</time></trkpt><trkpt lat="36.802844" lon="138.8055799"><ele>1116.9233333333332</ele><time>2024-05-18T05:43:03Z</time></trkpt><trkpt lat="36.8029349" lon="138.8053687"><ele>1116.7266666666667</ele><time>2024-05-18T05:43:21Z</time></trkpt><trkpt lat="36.8030636" lon="138.8052002"><ele>1115.88</ele><time>2024-05-18T05:43:36Z</time></trkpt><trkpt lat="36.8031685" lon="138.805017"><ele>1115.5466666666664</ele><time>2024-05-18T05:43:51Z</time></trkpt><trkpt lat="36.8031714" lon="138.80479"><ele>1114.76</ele><time>2024-05-18T05:44:06Z</time></trkpt><trkpt lat="36.8033407" lon="138.8046408"><ele>1113.9966666666667</ele><time>2024-05-18T05:44:18Z</time></trkpt><trkpt lat="36.8035873" lon="138.8045019"><ele>1113.3733333333332</ele><time>2024-05-18T05:44:33Z</time></trkpt><trkpt lat="36.8037098" lon="138.8043123"><ele>1112.9433333333334</ele><time>2024-05-18T05:44:53Z</time></trkpt><trkpt lat="36.8038291" lon="138.8041066"><ele>1111.57</ele><time>2024-05-18T05:45:11Z</time></trkpt><trkpt lat="36.8039481" lon="138.803916"><ele>1109.3333333333333</ele><time>2024-05-18T05:45:26Z</time></trkpt><trkpt lat="36.8040272" lon="138.8037084"><ele>1107.8500000000001</ele><time>2024-05-18T05:45:38Z</time></trkpt><trkpt lat="36.8041164" lon="138.8034958"><ele>1106.1766666666665</ele><time>2024-05-18T05:45:53Z</time></trkpt><trkpt lat="36.8043038" lon="138.8033613"><ele>1106.1966666666667</ele><time>2024-05-18T05:46:08Z</time></trkpt><trkpt lat="36.8044107" lon="138.8031186"><ele>1104.6933333333334</ele><time>2024-05-18T05:46:29Z</time></trkpt><trkpt lat="36.8045277" lon="138.8028957"><ele>1103.0433333333333</ele><time>2024-05-18T05:46:41Z</time></trkpt><trkpt lat="36.8045679" lon="138.8026606"><ele>1099.3366666666668</ele><time>2024-05-18T05:46:53Z</time></trkpt><trkpt lat="36.8046191" lon="138.8024366"><ele>1096.1966666666667</ele><time>2024-05-18T05:47:08Z</time></trkpt><trkpt lat="36.8046945" lon="138.8021934"><ele>1093.3700000000001</ele><time>2024-05-18T05:47:23Z</time></trkpt><trkpt lat="36.804744" lon="138.8019357"><ele>1090.3266666666668</ele><time>2024-05-18T05:47:38Z</time></trkpt><trkpt lat="36.8048835" lon="138.8017464"><ele>1087.743333333333</ele><time>2024-05-18T05:47:50Z</time></trkpt><trkpt lat="36.8049656" lon="138.8015065"><ele>1086.2033333333331</ele><time>2024-05-18T05:48:05Z</time></trkpt><trkpt lat="36.8051519" lon="138.8013635"><ele>1085.91</ele><time>2024-05-18T05:48:17Z</time></trkpt><trkpt lat="36.8053634" lon="138.8013141"><ele>1085.96</ele><time>2024-05-18T05:48:35Z</time></trkpt><trkpt lat="36.805485" lon="138.8011361"><ele>1085.5800000000002</ele><time>2024-05-18T05:48:51Z</time></trkpt><trkpt lat="36.8056384" lon="138.8010114"><ele>1084.3833333333334</ele><time>2024-05-18T05:49:06Z</time></trkpt><trkpt lat="36.8057981" lon="138.8009057"><ele>1082.7433333333336</ele><time>2024-05-18T05:49:21Z</time></trkpt><trkpt lat="36.8059765" lon="138.8008303"><ele>1081.4066666666668</ele><time>2024-05-18T05:49:36Z</time></trkpt><trkpt lat="36.8061099" lon="138.8006648"><ele>1080.2666666666667</ele><time>2024-05-18T05:49:53Z</time></trkpt><trkpt lat="36.8062237" lon="138.8004894"><ele>1079.53</ele><time>2024-05-18T05:50:05Z</time></trkpt><trkpt lat="36.8063724" lon="138.8003251"><ele>1078.9266666666665</ele><time>2024-05-18T05:50:17Z</time></trkpt><trkpt lat="36.8065076" lon="138.8001443"><ele>1078.9033333333334</ele><time>2024-05-18T05:50:29Z</time></trkpt><trkpt lat="36.8066662" lon="138.7999734"><ele>1079.1000000000001</ele><time>2024-05-18T05:50:44Z</time></trkpt><trkpt lat="36.8068121" lon="138.7997595"><ele>1079.92</ele><time>2024-05-18T05:50:59Z</time></trkpt><trkpt lat="36.8069186" lon="138.7995283"><ele>1079.4933333333333</ele><time>2024-05-18T05:51:14Z</time></trkpt><trkpt lat="36.8069526" lon="138.7992752"><ele>1078.3133333333333</ele><time>2024-05-18T05:51:26Z</time></trkpt><trkpt lat="36.8069092" lon="138.7990178"><ele>1074.61</ele><time>2024-05-18T05:51:41Z</time></trkpt><trkpt lat="36.8069045" lon="138.7987834"><ele>1071.9366666666667</ele><time>2024-05-18T05:51:56Z</time></trkpt><trkpt lat="36.8069125" lon="138.7985264"><ele>1069.7466666666667</ele><time>2024-05-18T05:52:11Z</time></trkpt><trkpt lat="36.8070194" lon="138.7983227"><ele>1069.8999999999999</ele><time>2024-05-18T05:52:32Z</time></trkpt><trkpt lat="36.807113" lon="138.7981226"><ele>1069.6033333333332</ele><time>2024-05-18T05:52:44Z</time></trkpt><trkpt lat="36.8072125" lon="138.7979319"><ele>1068.8533333333335</ele><time>2024-05-18T05:52:53Z</time></trkpt><trkpt lat="36.8073088" lon="138.7977073"><ele>1067.5733333333335</ele><time>2024-05-18T05:53:08Z</time></trkpt><trkpt lat="36.8073647" lon="138.7974901"><ele>1064.9733333333331</ele><time>2024-05-18T05:53:20Z</time></trkpt><trkpt lat="36.8074194" lon="138.7972233"><ele>1061.6966666666667</ele><time>2024-05-18T05:53:35Z</time></trkpt><trkpt lat="36.8074922" lon="138.7969746"><ele>1058.2033333333334</ele><time>2024-05-18T05:53:50Z</time></trkpt><trkpt lat="36.80754" lon="138.7967416"><ele>1056.5833333333333</ele><time>2024-05-18T05:55:02Z</time></trkpt><trkpt lat="36.8076728" lon="138.796516"><ele>1055.8933333333334</ele><time>2024-05-18T05:55:17Z</time></trkpt><trkpt lat="36.8077772" lon="138.7962443"><ele>1054.3466666666666</ele><time>2024-05-18T05:55:26Z</time></trkpt><trkpt lat="36.8077115" lon="138.7960059"><ele>1051.6833333333334</ele><time>2024-05-18T05:55:43Z</time></trkpt><trkpt lat="36.8077803" lon="138.7957878"><ele>1049.1933333333334</ele><time>2024-05-18T05:56:07Z</time></trkpt><trkpt lat="36.8077001" lon="138.7955614"><ele>1045.79</ele><time>2024-05-18T05:56:16Z</time></trkpt><trkpt lat="36.8077013" lon="138.7953069"><ele>1043.11</ele><time>2024-05-18T05:56:28Z</time></trkpt><trkpt lat="36.8077815" lon="138.7950789"><ele>1040.6233333333332</ele><time>2024-05-18T05:56:40Z</time></trkpt><trkpt lat="36.8077279" lon="138.7948283"><ele>1039.0033333333333</ele><time>2024-05-18T05:56:56Z</time></trkpt><trkpt lat="36.8077529" lon="138.7945911"><ele>1037.4866666666667</ele><time>2024-05-18T05:57:14Z</time></trkpt><trkpt lat="36.8079557" lon="138.7944302"><ele>1035.4033333333334</ele><time>2024-05-18T05:57:32Z</time></trkpt><trkpt lat="36.8080571" lon="138.794222"><ele>1034.8766666666668</ele><time>2024-05-18T05:57:47Z</time></trkpt><trkpt lat="36.8080967" lon="138.7939916"><ele>1035.5966666666666</ele><time>2024-05-18T05:58:02Z</time></trkpt><trkpt lat="36.8082535" lon="138.7941029"><ele>1035.63</ele><time>2024-05-18T05:58:32Z</time></trkpt><trkpt lat="36.8083989" lon="138.7939611"><ele>1034.89</ele><time>2024-05-18T05:58:56Z</time></trkpt><trkpt lat="36.8084633" lon="138.7937079"><ele>1031.77</ele><time>2024-05-18T05:59:17Z</time></trkpt><trkpt lat="36.8085221" lon="138.7934446"><ele>1030.5266666666666</ele><time>2024-05-18T05:59:35Z</time></trkpt><trkpt lat="36.8086359" lon="138.7932516"><ele>1027.97</ele><time>2024-05-18T05:59:53Z</time></trkpt><trkpt lat="36.8087802" lon="138.7930905"><ele>1026.8033333333333</ele><time>2024-05-18T06:00:29Z</time></trkpt><trkpt lat="36.808937" lon="138.7929784"><ele>1023.7733333333334</ele><time>2024-05-18T06:00:44Z</time></trkpt><trkpt lat="36.808982" lon="138.7927314"><ele>1023.6700000000001</ele><time>2024-05-18T06:01:02Z</time></trkpt><trkpt lat="36.8090329" lon="138.7925078"><ele>1023.25</ele><time>2024-05-18T06:01:17Z</time></trkpt><trkpt lat="36.8091098" lon="138.7922839"><ele>1022.6333333333333</ele><time>2024-05-18T06:01:32Z</time></trkpt><trkpt lat="36.8092009" lon="138.7920674"><ele>1020.9</ele><time>2024-05-18T06:02:05Z</time></trkpt><trkpt lat="36.8093857" lon="138.7919917"><ele>1017.1733333333333</ele><time>2024-05-18T06:02:14Z</time></trkpt><trkpt lat="36.8094614" lon="138.7917428"><ele>1014.7666666666665</ele><time>2024-05-18T06:02:32Z</time></trkpt><trkpt lat="36.8094786" lon="138.7915052"><ele>1012.3499999999999</ele><time>2024-05-18T06:02:47Z</time></trkpt><trkpt lat="36.8096373" lon="138.7913277"><ele>1011.2400000000001</ele><time>2024-05-18T06:03:05Z</time></trkpt><trkpt lat="36.8097445" lon="138.7911318"><ele>1010.6566666666666</ele><time>2024-05-18T06:03:38Z</time></trkpt><trkpt lat="36.809826" lon="138.7909233"><ele>1009.77</ele><time>2024-05-18T06:03:50Z</time></trkpt><trkpt lat="36.8098782" lon="138.7907028"><ele>1009.3433333333332</ele><time>2024-05-18T06:04:14Z</time></trkpt><trkpt lat="36.8099102" lon="138.7903943"><ele>1008.1266666666667</ele><time>2024-05-18T06:04:38Z</time></trkpt><trkpt lat="36.8100386" lon="138.7902263"><ele>1007.0233333333334</ele><time>2024-05-18T06:04:50Z</time></trkpt><trkpt lat="36.8102168" lon="138.7901043"><ele>1005.3566666666666</ele><time>2024-05-18T06:05:14Z</time></trkpt><trkpt lat="36.8103507" lon="138.7899146"><ele>1003.8066666666667</ele><time>2024-05-18T06:05:29Z</time></trkpt><trkpt lat="36.8105306" lon="138.7897929"><ele>1001.9699999999999</ele><time>2024-05-18T06:05:44Z</time></trkpt><trkpt lat="36.8105305" lon="138.7895447"><ele>1001.69</ele><time>2024-05-18T06:05:59Z</time></trkpt><trkpt lat="36.8106042" lon="138.7893376"><ele>1001.0866666666667</ele><time>2024-05-18T06:06:17Z</time></trkpt><trkpt lat="36.8107046" lon="138.7891124"><ele>1000.4500000000002</ele><time>2024-05-18T06:06:32Z</time></trkpt><trkpt lat="36.8107309" lon="138.7888801"><ele>999.1600000000002</ele><time>2024-05-18T06:06:47Z</time></trkpt><trkpt lat="36.8108452" lon="138.7886505"><ele>998.4333333333334</ele><time>2024-05-18T06:07:05Z</time></trkpt><trkpt lat="36.81092" lon="138.7884282"><ele>998.0033333333334</ele><time>2024-05-18T06:07:20Z</time></trkpt><trkpt lat="36.8109849" lon="138.7881911"><ele>997.5366666666667</ele><time>2024-05-18T06:07:38Z</time></trkpt><trkpt lat="36.8110366" lon="138.78795"><ele>996.7633333333334</ele><time>2024-05-18T06:07:53Z</time></trkpt><trkpt lat="36.811071" lon="138.7876891"><ele>995.9666666666667</ele><time>2024-05-18T06:08:08Z</time></trkpt><trkpt lat="36.8111857" lon="138.7874671"><ele>994.7566666666668</ele><time>2024-05-18T06:08:29Z</time></trkpt><trkpt lat="36.8112527" lon="138.787199"><ele>993.5033333333334</ele><time>2024-05-18T06:08:47Z</time></trkpt><trkpt lat="36.8113034" lon="138.7869383"><ele>992.44</ele><time>2024-05-18T06:09:02Z</time></trkpt><trkpt lat="36.8114743" lon="138.7867984"><ele>991.75</ele><time>2024-05-18T06:09:14Z</time></trkpt><trkpt lat="36.8115509" lon="138.7865908"><ele>991.3766666666667</ele><time>2024-05-18T06:09:29Z</time></trkpt><trkpt lat="36.8116403" lon="138.786389"><ele>990.3299999999999</ele><time>2024-05-18T06:09:41Z</time></trkpt><trkpt lat="36.811703" lon="138.7861402"><ele>988.8800000000001</ele><time>2024-05-18T06:09:59Z</time></trkpt><trkpt lat="36.8117767" lon="138.785914"><ele>986.3733333333333</ele><time>2024-05-18T06:10:11Z</time></trkpt><trkpt lat="36.8117462" lon="138.7856659"><ele>984.0500000000001</ele><time>2024-05-18T06:10:29Z</time></trkpt><trkpt lat="36.811719" lon="138.7854092"><ele>982.4699999999999</ele><time>2024-05-18T06:10:47Z</time></trkpt><trkpt lat="36.8118594" lon="138.7851971"><ele>981.61</ele><time>2024-05-18T06:11:05Z</time></trkpt><trkpt lat="36.8119638" lon="138.7849774"><ele>980.9866666666667</ele><time>2024-05-18T06:11:23Z</time></trkpt><trkpt lat="36.8120879" lon="138.7847701"><ele>980.0633333333334</ele><time>2024-05-18T06:11:38Z</time></trkpt><trkpt lat="36.812213" lon="138.7845702"><ele>979.0366666666665</ele><time>2024-05-18T06:11:56Z</time></trkpt><trkpt lat="36.8123502" lon="138.7843914"><ele>977.8633333333333</ele><time>2024-05-18T06:12:08Z</time></trkpt><trkpt lat="36.8124589" lon="138.7841871"><ele>976.89</ele><time>2024-05-18T06:12:23Z</time></trkpt><trkpt lat="36.8126187" lon="138.7840742"><ele>975.69</ele><time>2024-05-18T06:12:38Z</time></trkpt><trkpt lat="36.8128316" lon="138.7840767"><ele>974.5633333333334</ele><time>2024-05-18T06:13:02Z</time></trkpt><trkpt lat="36.8130286" lon="138.7840806"><ele>973.2366666666667</ele><time>2024-05-18T06:13:14Z</time></trkpt><trkpt lat="36.8132221" lon="138.7839205"><ele>972.4733333333334</ele><time>2024-05-18T06:13:29Z</time></trkpt><trkpt lat="36.813379" lon="138.7838015"><ele>971.9066666666668</ele><time>2024-05-18T06:13:41Z</time></trkpt><trkpt lat="36.8133809" lon="138.7835433"><ele>971.85</ele><time>2024-05-18T06:13:57Z</time></trkpt></trkseg></trk></gpx>