<?xml version='1.0' encoding='UTF-8'?><gpx creator="YAMAP - https://yamap.com" xsi:schemaLocation="http://www.topografix.com/GPX/1/1 http://www.topografix.com/GPX/1/1/gpx.xsd" version="1.1" xmlns="http://www.topografix.com/GPX/1/1" xmlns:xsi="http://www.w3.org/2001/XMLSchema-instance"><metadata><bounds maxlat="36.0646491" maxlon="139.1913863" minlat="35.9977128" minlon="139.1527416"/></metadata><trk><name>堂平山・大霧山</name><number>1</number><trkseg><trkpt lat="36.0164285" lon="139.1736645"><ele>352.79</ele><time>2024-06-28T23:59:04Z</time></trkpt><trkpt lat="36.0163481" lon="139.1738706"><ele>354.735</ele><time>2024-06-28T23:59:29Z</time></trkpt><trkpt lat="36.0162159" lon="139.1740647"><ele>355.43666666666667</ele><time>2024-06-28T23:59:50Z</time></trkpt><trkpt lat="36.0162321" lon="139.1743003"><ele>357.1266666666667</ele><time>2024-06-29T00:00:05Z</time></trkpt><trkpt lat="36.0163385" lon="139.1744823"><ele>358.02333333333337</ele><time>2024-06-29T00:00:20Z</time></trkpt><trkpt lat="36.0164534" lon="139.174691"><ele>360.3766666666667</ele><time>2024-06-29T00:00:38Z</time></trkpt><trkpt lat="36.0165546" lon="139.174896"><ele>364.2633333333333</ele><time>2024-06-29T00:02:08Z</time></trkpt><trkpt lat="36.0164658" lon="139.1751146"><ele>366.3966666666667</ele><time>2024-06-29T00:02:23Z</time></trkpt><trkpt lat="36.0163477" lon="139.1753067"><ele>367.37999999999994</ele><time>2024-06-29T00:02:59Z</time></trkpt><trkpt lat="36.0161736" lon="139.1754266"><ele>367.5566666666667</ele><time>2024-06-29T00:03:17Z</time></trkpt><trkpt lat="36.0159965" lon="139.1755181"><ele>369.62000000000006</ele><time>2024-06-29T00:03:32Z</time></trkpt><trkpt lat="36.0158057" lon="139.1756539"><ele>370.5933333333333</ele><time>2024-06-29T00:03:50Z</time></trkpt><trkpt lat="36.0156718" lon="139.1758058"><ele>370.80333333333334</ele><time>2024-06-29T00:04:05Z</time></trkpt><trkpt lat="36.0155634" lon="139.1760132"><ele>370.6833333333334</ele><time>2024-06-29T00:04:38Z</time></trkpt><trkpt lat="36.015401" lon="139.1761526"><ele>370.8833333333334</ele><time>2024-06-29T00:04:56Z</time></trkpt><trkpt lat="36.0152347" lon="139.1762778"><ele>371.27666666666664</ele><time>2024-06-29T00:05:14Z</time></trkpt><trkpt lat="36.015056" lon="139.1763246"><ele>370.99333333333334</ele><time>2024-06-29T00:05:26Z</time></trkpt><trkpt lat="36.0148607" lon="139.1764302"><ele>371.3733333333333</ele><time>2024-06-29T00:05:44Z</time></trkpt><trkpt lat="36.0147816" lon="139.1766317"><ele>371.95</ele><time>2024-06-29T00:05:56Z</time></trkpt><trkpt lat="36.0146789" lon="139.176857"><ele>374.23</ele><time>2024-06-29T00:06:08Z</time></trkpt><trkpt lat="36.0146426" lon="139.1770794"><ele>378.3933333333334</ele><time>2024-06-29T00:06:23Z</time></trkpt><trkpt lat="36.0145737" lon="139.1772911"><ele>383.56333333333333</ele><time>2024-06-29T00:06:45Z</time></trkpt><trkpt lat="36.0144051" lon="139.1773898"><ele>388.2833333333333</ele><time>2024-06-29T00:06:57Z</time></trkpt><trkpt lat="36.0142784" lon="139.1775496"><ele>388.8833333333334</ele><time>2024-06-29T00:07:12Z</time></trkpt><trkpt lat="36.0142078" lon="139.1777539"><ele>389.9266666666667</ele><time>2024-06-29T00:07:27Z</time></trkpt><trkpt lat="36.0140737" lon="139.1779045"><ele>389.9433333333333</ele><time>2024-06-29T00:07:45Z</time></trkpt><trkpt lat="36.0138911" lon="139.1779315"><ele>390.43</ele><time>2024-06-29T00:08:01Z</time></trkpt><trkpt lat="36.0137268" lon="139.1780733"><ele>390.43333333333334</ele><time>2024-06-29T00:08:15Z</time></trkpt><trkpt lat="36.0135493" lon="139.1781738"><ele>390.62999999999994</ele><time>2024-06-29T00:08:30Z</time></trkpt><trkpt lat="36.0133611" lon="139.1782608"><ele>392.71000000000004</ele><time>2024-06-29T00:08:45Z</time></trkpt><trkpt lat="36.0131531" lon="139.1783595"><ele>394.69</ele><time>2024-06-29T00:09:00Z</time></trkpt><trkpt lat="36.0130757" lon="139.178563"><ele>397.2966666666667</ele><time>2024-06-29T00:09:44Z</time></trkpt><trkpt lat="36.0130713" lon="139.1787954"><ele>400.65000000000003</ele><time>2024-06-29T00:10:05Z</time></trkpt><trkpt lat="36.0131214" lon="139.1790239"><ele>401.8533333333333</ele><time>2024-06-29T00:10:26Z</time></trkpt><trkpt lat="36.0132788" lon="139.1791708"><ele>402.6433333333334</ele><time>2024-06-29T00:10:35Z</time></trkpt><trkpt lat="36.0132495" lon="139.1789413"><ele>401.40333333333336</ele><time>2024-06-29T00:11:03Z</time></trkpt><trkpt lat="36.0133041" lon="139.1787216"><ele>399.77333333333337</ele><time>2024-06-29T00:11:18Z</time></trkpt><trkpt lat="36.0132698" lon="139.1784841"><ele>397.8966666666667</ele><time>2024-06-29T00:11:36Z</time></trkpt><trkpt lat="36.013078" lon="139.1784857"><ele>397.97</ele><time>2024-06-29T00:11:51Z</time></trkpt><trkpt lat="36.0129018" lon="139.1783851"><ele>400.2166666666667</ele><time>2024-06-29T00:12:00Z</time></trkpt><trkpt lat="36.0126965" lon="139.1783995"><ele>402.25</ele><time>2024-06-29T00:12:14Z</time></trkpt><trkpt lat="36.0124954" lon="139.1782942"><ele>402.6133333333334</ele><time>2024-06-29T00:12:33Z</time></trkpt><trkpt lat="36.0123123" lon="139.1784354"><ele>402.87000000000006</ele><time>2024-06-29T00:12:48Z</time></trkpt><trkpt lat="36.0123214" lon="139.1786614"><ele>404.47</ele><time>2024-06-29T00:13:31Z</time></trkpt><trkpt lat="36.0125381" lon="139.1787486"><ele>408.23333333333335</ele><time>2024-06-29T00:13:52Z</time></trkpt><trkpt lat="36.0127541" lon="139.1787648"><ele>411.67333333333335</ele><time>2024-06-29T00:14:01Z</time></trkpt><trkpt lat="36.0129441" lon="139.1787914"><ele>411.8</ele><time>2024-06-29T00:14:10Z</time></trkpt><trkpt lat="36.0129297" lon="139.1790451"><ele>411.97333333333336</ele><time>2024-06-29T00:14:25Z</time></trkpt><trkpt lat="36.0129406" lon="139.1792799"><ele>411.21000000000004</ele><time>2024-06-29T00:14:43Z</time></trkpt><trkpt lat="36.0129589" lon="139.179517"><ele>415.0</ele><time>2024-06-29T00:15:01Z</time></trkpt><trkpt lat="36.0130441" lon="139.1797429"><ele>417.99333333333334</ele><time>2024-06-29T00:15:16Z</time></trkpt><trkpt lat="36.0130594" lon="139.1799936"><ele>421.8433333333333</ele><time>2024-06-29T00:15:31Z</time></trkpt><trkpt lat="36.0130232" lon="139.1802239"><ele>423.9433333333334</ele><time>2024-06-29T00:15:49Z</time></trkpt><trkpt lat="36.0130958" lon="139.1804588"><ele>425.1333333333334</ele><time>2024-06-29T00:16:04Z</time></trkpt><trkpt lat="36.0133351" lon="139.1805192"><ele>426.80333333333334</ele><time>2024-06-29T00:16:21Z</time></trkpt><trkpt lat="36.0135118" lon="139.1804417"><ele>431.21000000000004</ele><time>2024-06-29T00:16:35Z</time></trkpt><trkpt lat="36.0135919" lon="139.1801795"><ele>434.97333333333336</ele><time>2024-06-29T00:16:49Z</time></trkpt><trkpt lat="36.0137235" lon="139.1800053"><ele>436.9166666666667</ele><time>2024-06-29T00:17:05Z</time></trkpt><trkpt lat="36.0138946" lon="139.1799025"><ele>436.1566666666667</ele><time>2024-06-29T00:17:22Z</time></trkpt><trkpt lat="36.0137668" lon="139.180074"><ele>436.34</ele><time>2024-06-29T00:18:07Z</time></trkpt><trkpt lat="36.0136781" lon="139.180316"><ele>439.33666666666664</ele><time>2024-06-29T00:18:36Z</time></trkpt><trkpt lat="36.0137106" lon="139.1805732"><ele>447.34666666666664</ele><time>2024-06-29T00:18:55Z</time></trkpt><trkpt lat="36.0136964" lon="139.1807993"><ele>452.62000000000006</ele><time>2024-06-29T00:19:13Z</time></trkpt><trkpt lat="36.013617" lon="139.1810092"><ele>455.85999999999996</ele><time>2024-06-29T00:19:31Z</time></trkpt><trkpt lat="36.0135464" lon="139.1812376"><ele>453.5833333333333</ele><time>2024-06-29T00:19:49Z</time></trkpt><trkpt lat="36.0134813" lon="139.18147"><ele>454.02666666666664</ele><time>2024-06-29T00:20:06Z</time></trkpt><trkpt lat="36.0134375" lon="139.1817023"><ele>455.75</ele><time>2024-06-29T00:20:20Z</time></trkpt><trkpt lat="36.013335" lon="139.1819028"><ele>457.2666666666667</ele><time>2024-06-29T00:20:40Z</time></trkpt><trkpt lat="36.0135515" lon="139.181957"><ele>461.6366666666667</ele><time>2024-06-29T00:21:10Z</time></trkpt><trkpt lat="36.0137591" lon="139.1819975"><ele>466.86666666666673</ele><time>2024-06-29T00:21:38Z</time></trkpt><trkpt lat="36.0138574" lon="139.1818066"><ele>473.05</ele><time>2024-06-29T00:21:56Z</time></trkpt><trkpt lat="36.0139624" lon="139.1816016"><ele>476.53999999999996</ele><time>2024-06-29T00:22:08Z</time></trkpt><trkpt lat="36.014088" lon="139.1814051"><ele>478.3933333333334</ele><time>2024-06-29T00:22:25Z</time></trkpt><trkpt lat="36.0142839" lon="139.1813653"><ele>482.8333333333333</ele><time>2024-06-29T00:22:43Z</time></trkpt><trkpt lat="36.0144101" lon="139.1811404"><ele>487.04333333333335</ele><time>2024-06-29T00:23:00Z</time></trkpt><trkpt lat="36.0142481" lon="139.1812774"><ele>488.8866666666667</ele><time>2024-06-29T00:24:06Z</time></trkpt><trkpt lat="36.0142004" lon="139.1815057"><ele>489.28000000000003</ele><time>2024-06-29T00:24:24Z</time></trkpt><trkpt lat="36.0141299" lon="139.1817473"><ele>489.84999999999997</ele><time>2024-06-29T00:24:42Z</time></trkpt><trkpt lat="36.0140716" lon="139.1819691"><ele>492.6266666666666</ele><time>2024-06-29T00:25:12Z</time></trkpt><trkpt lat="36.0139647" lon="139.1821891"><ele>492.55</ele><time>2024-06-29T00:25:36Z</time></trkpt><trkpt lat="36.013941" lon="139.1824319"><ele>493.4533333333334</ele><time>2024-06-29T00:25:57Z</time></trkpt><trkpt lat="36.0141029" lon="139.182631"><ele>497.7166666666667</ele><time>2024-06-29T00:26:19Z</time></trkpt><trkpt lat="36.0140178" lon="139.1828942"><ele>502.74333333333334</ele><time>2024-06-29T00:26:28Z</time></trkpt><trkpt lat="36.0138232" lon="139.1828308"><ele>502.04</ele><time>2024-06-29T00:27:01Z</time></trkpt><trkpt lat="36.0137743" lon="139.1831052"><ele>499.8866666666667</ele><time>2024-06-29T00:27:16Z</time></trkpt><trkpt lat="36.0137508" lon="139.1833293"><ele>499.0166666666667</ele><time>2024-06-29T00:27:31Z</time></trkpt><trkpt lat="36.0136692" lon="139.1835671"><ele>503.83</ele><time>2024-06-29T00:27:55Z</time></trkpt><trkpt lat="36.0136746" lon="139.1837918"><ele>507.48</ele><time>2024-06-29T00:28:10Z</time></trkpt><trkpt lat="36.0136835" lon="139.1840248"><ele>511.3533333333333</ele><time>2024-06-29T00:28:37Z</time></trkpt><trkpt lat="36.0137013" lon="139.1842539"><ele>517.29</ele><time>2024-06-29T00:28:58Z</time></trkpt><trkpt lat="36.0136891" lon="139.1844763"><ele>521.9366666666666</ele><time>2024-06-29T00:29:31Z</time></trkpt><trkpt lat="36.0136944" lon="139.1847014"><ele>527.0366666666666</ele><time>2024-06-29T00:29:49Z</time></trkpt><trkpt lat="36.013756" lon="139.1849275"><ele>530.88</ele><time>2024-06-29T00:30:10Z</time></trkpt><trkpt lat="36.0137193" lon="139.1851717"><ele>537.1333333333333</ele><time>2024-06-29T00:30:53Z</time></trkpt><trkpt lat="36.0137168" lon="139.1854132"><ele>544.14</ele><time>2024-06-29T00:31:15Z</time></trkpt><trkpt lat="36.0136529" lon="139.1856351"><ele>549.0866666666666</ele><time>2024-06-29T00:31:45Z</time></trkpt><trkpt lat="36.0136449" lon="139.1858675"><ele>552.27</ele><time>2024-06-29T00:32:16Z</time></trkpt><trkpt lat="36.013609" lon="139.1861"><ele>553.41</ele><time>2024-06-29T00:33:13Z</time></trkpt><trkpt lat="36.0135803" lon="139.1863486"><ele>556.6933333333334</ele><time>2024-06-29T00:33:55Z</time></trkpt><trkpt lat="36.0135626" lon="139.1865821"><ele>562.9933333333333</ele><time>2024-06-29T00:34:09Z</time></trkpt><trkpt lat="36.0135847" lon="139.1868113"><ele>569.88</ele><time>2024-06-29T00:34:34Z</time></trkpt><trkpt lat="36.0136449" lon="139.1870223"><ele>576.1633333333334</ele><time>2024-06-29T00:35:28Z</time></trkpt><trkpt lat="36.0137748" lon="139.1871901"><ele>582.93</ele><time>2024-06-29T00:35:52Z</time></trkpt><trkpt lat="36.0137264" lon="139.1874484"><ele>589.34</ele><time>2024-06-29T00:37:25Z</time></trkpt><trkpt lat="36.0137156" lon="139.1876839"><ele>596.1766666666667</ele><time>2024-06-29T00:37:45Z</time></trkpt><trkpt lat="36.0136829" lon="139.1879401"><ele>600.9833333333333</ele><time>2024-06-29T00:38:09Z</time></trkpt><trkpt lat="36.0136139" lon="139.1881608"><ele>604.8066666666667</ele><time>2024-06-29T00:39:01Z</time></trkpt><trkpt lat="36.0135353" lon="139.188396"><ele>608.9433333333334</ele><time>2024-06-29T00:39:25Z</time></trkpt><trkpt lat="36.0135009" lon="139.1886164"><ele>613.6666666666666</ele><time>2024-06-29T00:39:46Z</time></trkpt><trkpt lat="36.0134586" lon="139.1888487"><ele>620.14</ele><time>2024-06-29T00:40:13Z</time></trkpt><trkpt lat="36.0134152" lon="139.1890927"><ele>627.1466666666666</ele><time>2024-06-29T00:40:37Z</time></trkpt><trkpt lat="36.0133143" lon="139.1893008"><ele>633.2933333333334</ele><time>2024-06-29T00:41:10Z</time></trkpt><trkpt lat="36.0132636" lon="139.1895242"><ele>640.5866666666667</ele><time>2024-06-29T00:42:31Z</time></trkpt><trkpt lat="36.013215" lon="139.1897454"><ele>648.0033333333333</ele><time>2024-06-29T00:43:38Z</time></trkpt><trkpt lat="36.013234" lon="139.1899674"><ele>656.25</ele><time>2024-06-29T00:44:33Z</time></trkpt><trkpt lat="36.0132063" lon="139.190192"><ele>664.9833333333332</ele><time>2024-06-29T00:45:24Z</time></trkpt><trkpt lat="36.0131768" lon="139.1904119"><ele>672.6666666666666</ele><time>2024-06-29T00:46:18Z</time></trkpt><trkpt lat="36.0131572" lon="139.1906518"><ele>680.8866666666667</ele><time>2024-06-29T00:47:00Z</time></trkpt><trkpt lat="36.0131151" lon="139.1908699"><ele>686.8033333333333</ele><time>2024-06-29T00:47:36Z</time></trkpt><trkpt lat="36.0129472" lon="139.1907717"><ele>691.8166666666666</ele><time>2024-06-29T00:47:57Z</time></trkpt><trkpt lat="36.0127751" lon="139.1906966"><ele>695.4333333333334</ele><time>2024-06-29T00:48:36Z</time></trkpt><trkpt lat="36.0127066" lon="139.1904711"><ele>699.19</ele><time>2024-06-29T00:48:55Z</time></trkpt><trkpt lat="36.0125199" lon="139.1904273"><ele>704.8366666666667</ele><time>2024-06-29T00:49:23Z</time></trkpt><trkpt lat="36.0124022" lon="139.1902564"><ele>711.46</ele><time>2024-06-29T00:50:11Z</time></trkpt><trkpt lat="36.01242" lon="139.1900345"><ele>717.44</ele><time>2024-06-29T00:51:03Z</time></trkpt><trkpt lat="36.012257" lon="139.1901366"><ele>723.3100000000001</ele><time>2024-06-29T00:51:29Z</time></trkpt><trkpt lat="36.0122038" lon="139.1898981"><ele>727.9466666666667</ele><time>2024-06-29T00:52:15Z</time></trkpt><trkpt lat="36.0120086" lon="139.1898565"><ele>734.6066666666666</ele><time>2024-06-29T00:52:42Z</time></trkpt><trkpt lat="36.0119341" lon="139.1896444"><ele>739.6266666666667</ele><time>2024-06-29T00:53:30Z</time></trkpt><trkpt lat="36.0117974" lon="139.1894642"><ele>744.3666666666667</ele><time>2024-06-29T00:53:48Z</time></trkpt><trkpt lat="36.0116206" lon="139.1894035"><ele>748.06</ele><time>2024-06-29T00:54:27Z</time></trkpt><trkpt lat="36.0114528" lon="139.1892995"><ele>751.64</ele><time>2024-06-29T00:55:15Z</time></trkpt><trkpt lat="36.0112803" lon="139.1891835"><ele>755.32</ele><time>2024-06-29T00:55:45Z</time></trkpt><trkpt lat="36.0111322" lon="139.1890406"><ele>757.9000000000001</ele><time>2024-06-29T00:56:03Z</time></trkpt><trkpt lat="36.010951" lon="139.1890656"><ele>762.23</ele><time>2024-06-29T00:56:33Z</time></trkpt><trkpt lat="36.0107838" lon="139.1889639"><ele>766.3866666666668</ele><time>2024-06-29T00:57:09Z</time></trkpt><trkpt lat="36.0105917" lon="139.1889564"><ele>771.73</ele><time>2024-06-29T00:57:27Z</time></trkpt><trkpt lat="36.0103971" lon="139.1890334"><ele>775.8333333333334</ele><time>2024-06-29T00:57:54Z</time></trkpt><trkpt lat="36.0102302" lon="139.1891592"><ele>780.7933333333334</ele><time>2024-06-29T00:58:33Z</time></trkpt><trkpt lat="36.0100541" lon="139.1892836"><ele>785.57</ele><time>2024-06-29T00:58:54Z</time></trkpt><trkpt lat="36.0098847" lon="139.1894151"><ele>790.0566666666667</ele><time>2024-06-29T00:59:15Z</time></trkpt><trkpt lat="36.0097001" lon="139.1894383"><ele>792.8000000000001</ele><time>2024-06-29T00:59:48Z</time></trkpt><trkpt lat="36.0095186" lon="139.1895439"><ele>795.5733333333334</ele><time>2024-06-29T01:00:15Z</time></trkpt><trkpt lat="36.0093279" lon="139.1895746"><ele>798.4433333333333</ele><time>2024-06-29T01:00:39Z</time></trkpt><trkpt lat="36.0091539" lon="139.1896514"><ele>802.0733333333334</ele><time>2024-06-29T01:01:03Z</time></trkpt><trkpt lat="36.0089919" lon="139.1897882"><ele>806.43</ele><time>2024-06-29T01:01:27Z</time></trkpt><trkpt lat="36.0088116" lon="139.1898435"><ele>810.4833333333332</ele><time>2024-06-29T01:01:47Z</time></trkpt><trkpt lat="36.0086331" lon="139.1898793"><ele>814.0600000000001</ele><time>2024-06-29T01:02:27Z</time></trkpt><trkpt lat="36.0084818" lon="139.190002"><ele>818.2133333333335</ele><time>2024-06-29T01:03:03Z</time></trkpt><trkpt lat="36.0082996" lon="139.1900848"><ele>823.7066666666666</ele><time>2024-06-29T01:04:12Z</time></trkpt><trkpt lat="36.0081286" lon="139.1901601"><ele>831.0400000000001</ele><time>2024-06-29T01:05:00Z</time></trkpt><trkpt lat="36.0080317" lon="139.19036"><ele>837.86</ele><time>2024-06-29T01:05:36Z</time></trkpt><trkpt lat="36.0078719" lon="139.1904747"><ele>844.1133333333333</ele><time>2024-06-29T01:06:15Z</time></trkpt><trkpt lat="36.0077068" lon="139.1906848"><ele>848.6233333333333</ele><time>2024-06-29T01:06:36Z</time></trkpt><trkpt lat="36.0075817" lon="139.1908539"><ele>851.2533333333334</ele><time>2024-06-29T01:06:54Z</time></trkpt><trkpt lat="36.007425" lon="139.1909957"><ele>852.3366666666667</ele><time>2024-06-29T01:07:12Z</time></trkpt><trkpt lat="36.0072246" lon="139.1909587"><ele>853.2166666666667</ele><time>2024-06-29T01:07:33Z</time></trkpt><trkpt lat="36.0070952" lon="139.1907881"><ele>854.5366666666667</ele><time>2024-06-29T01:07:47Z</time></trkpt><trkpt lat="36.0068833" lon="139.1907836"><ele>856.23</ele><time>2024-06-29T01:08:09Z</time></trkpt><trkpt lat="36.0066899" lon="139.1907691"><ele>858.0433333333334</ele><time>2024-06-29T01:08:24Z</time></trkpt><trkpt lat="36.0065134" lon="139.1906784"><ele>860.2533333333334</ele><time>2024-06-29T01:08:38Z</time></trkpt><trkpt lat="36.0063231" lon="139.1907142"><ele>862.5533333333333</ele><time>2024-06-29T01:08:59Z</time></trkpt><trkpt lat="36.0061382" lon="139.1906811"><ele>865.4433333333333</ele><time>2024-06-29T01:09:17Z</time></trkpt><trkpt lat="36.0059444" lon="139.19077"><ele>865.7000000000002</ele><time>2024-06-29T01:09:32Z</time></trkpt><trkpt lat="36.0057716" lon="139.1906675"><ele>864.3433333333334</ele><time>2024-06-29T01:09:50Z</time></trkpt><trkpt lat="36.0057468" lon="139.1908971"><ele>861.04</ele><time>2024-06-29T01:10:26Z</time></trkpt><trkpt lat="36.0057649" lon="139.191132"><ele>858.7433333333333</ele><time>2024-06-29T01:10:41Z</time></trkpt><trkpt lat="36.0057462" lon="139.1913863"><ele>856.9666666666667</ele><time>2024-06-29T01:11:05Z</time></trkpt><trkpt lat="36.0058248" lon="139.1913845"><ele>856.34</ele><time>2024-06-29T01:13:41Z</time></trkpt><trkpt lat="36.0057786" lon="139.1911306"><ele>856.34</ele><time>2024-06-29T01:13:56Z</time></trkpt><trkpt lat="36.0058147" lon="139.1908849"><ele>857.6033333333334</ele><time>2024-06-29T01:14:17Z</time></trkpt><trkpt lat="36.0056511" lon="139.1907428"><ele>858.2566666666667</ele><time>2024-06-29T01:14:35Z</time></trkpt><trkpt lat="36.0058616" lon="139.1907466"><ele>860.7566666666667</ele><time>2024-06-29T01:15:04Z</time></trkpt><trkpt lat="36.0060495" lon="139.1906773"><ele>864.02</ele><time>2024-06-29T01:15:26Z</time></trkpt><trkpt lat="36.0059476" lon="139.190451"><ele>868.1333333333333</ele><time>2024-06-29T01:15:44Z</time></trkpt><trkpt lat="36.0060861" lon="139.1902682"><ele>870.35</ele><time>2024-06-29T01:16:05Z</time></trkpt><trkpt lat="36.0059542" lon="139.1901012"><ele>871.2766666666666</ele><time>2024-06-29T01:16:23Z</time></trkpt><trkpt lat="36.0057736" lon="139.1900112"><ele>872.4499999999999</ele><time>2024-06-29T01:16:38Z</time></trkpt><trkpt lat="36.0055945" lon="139.1899495"><ele>872.7966666666666</ele><time>2024-06-29T01:27:17Z</time></trkpt><trkpt lat="36.0054115" lon="139.1899194"><ele>871.8933333333334</ele><time>2024-06-29T01:27:32Z</time></trkpt><trkpt lat="36.0052475" lon="139.1898003"><ele>868.5466666666667</ele><time>2024-06-29T01:27:50Z</time></trkpt><trkpt lat="36.0050691" lon="139.1897449"><ele>864.4366666666666</ele><time>2024-06-29T01:28:08Z</time></trkpt><trkpt lat="36.0049118" lon="139.1896186"><ele>860.3333333333334</ele><time>2024-06-29T01:28:47Z</time></trkpt><trkpt lat="36.0048271" lon="139.1894204"><ele>856.2366666666667</ele><time>2024-06-29T01:28:59Z</time></trkpt><trkpt lat="36.0046631" lon="139.1893003"><ele>853.0733333333334</ele><time>2024-06-29T01:29:17Z</time></trkpt><trkpt lat="36.0044903" lon="139.189215"><ele>851.1633333333333</ele><time>2024-06-29T01:29:32Z</time></trkpt><trkpt lat="36.0043178" lon="139.1890847"><ele>850.6566666666668</ele><time>2024-06-29T01:29:53Z</time></trkpt><trkpt lat="36.0041291" lon="139.1890887"><ele>850.2766666666666</ele><time>2024-06-29T01:30:05Z</time></trkpt><trkpt lat="36.0039132" lon="139.1890545"><ele>848.3666666666668</ele><time>2024-06-29T01:30:20Z</time></trkpt><trkpt lat="36.0037397" lon="139.1889205"><ele>846.7066666666668</ele><time>2024-06-29T01:30:32Z</time></trkpt><trkpt lat="36.0035556" lon="139.1888893"><ele>845.3133333333334</ele><time>2024-06-29T01:30:44Z</time></trkpt><trkpt lat="36.0033498" lon="139.1888824"><ele>844.6633333333334</ele><time>2024-06-29T01:30:59Z</time></trkpt><trkpt lat="36.0031653" lon="139.1888344"><ele>843.8000000000001</ele><time>2024-06-29T01:31:11Z</time></trkpt><trkpt lat="36.0029844" lon="139.1888606"><ele>842.6766666666667</ele><time>2024-06-29T01:31:29Z</time></trkpt><trkpt lat="36.0028125" lon="139.1887808"><ele>841.5733333333334</ele><time>2024-06-29T01:31:41Z</time></trkpt><trkpt lat="36.0027421" lon="139.1885709"><ele>839.9866666666667</ele><time>2024-06-29T01:31:59Z</time></trkpt><trkpt lat="36.0028281" lon="139.1883475"><ele>838.1333333333333</ele><time>2024-06-29T01:32:17Z</time></trkpt><trkpt lat="36.0027444" lon="139.1881422"><ele>835.5833333333334</ele><time>2024-06-29T01:32:32Z</time></trkpt><trkpt lat="36.0027381" lon="139.1879107"><ele>834.59</ele><time>2024-06-29T01:33:32Z</time></trkpt><trkpt lat="36.0026864" lon="139.1876936"><ele>836.5600000000001</ele><time>2024-06-29T01:34:23Z</time></trkpt><trkpt lat="36.0025655" lon="139.1875133"><ele>842.87</ele><time>2024-06-29T01:35:20Z</time></trkpt><trkpt lat="36.0023799" lon="139.1874104"><ele>851.2933333333334</ele><time>2024-06-29T01:35:35Z</time></trkpt><trkpt lat="36.0021927" lon="139.1873213"><ele>857.7933333333334</ele><time>2024-06-29T01:35:50Z</time></trkpt><trkpt lat="36.0020394" lon="139.1871364"><ele>861.4366666666666</ele><time>2024-06-29T01:36:29Z</time></trkpt><trkpt lat="36.0019282" lon="139.1869533"><ele>861.3866666666668</ele><time>2024-06-29T01:36:43Z</time></trkpt><trkpt lat="36.0017393" lon="139.1868827"><ele>859.1966666666667</ele><time>2024-06-29T01:37:02Z</time></trkpt><trkpt lat="36.0016108" lon="139.187086"><ele>855.0533333333333</ele><time>2024-06-29T01:37:26Z</time></trkpt><trkpt lat="36.0014629" lon="139.186916"><ele>851.58</ele><time>2024-06-29T01:37:34Z</time></trkpt><trkpt lat="36.0014246" lon="139.1866869"><ele>850.5133333333333</ele><time>2024-06-29T01:37:44Z</time></trkpt><trkpt lat="36.0013242" lon="139.1864946"><ele>850.86</ele><time>2024-06-29T01:38:03Z</time></trkpt><trkpt lat="36.0011154" lon="139.1864433"><ele>850.5533333333333</ele><time>2024-06-29T01:38:24Z</time></trkpt><trkpt lat="36.0009309" lon="139.1863947"><ele>848.0166666666668</ele><time>2024-06-29T01:38:41Z</time></trkpt><trkpt lat="36.0007335" lon="139.1864107"><ele>842.4133333333333</ele><time>2024-06-29T01:39:02Z</time></trkpt><trkpt lat="36.0005406" lon="139.1863767"><ele>836.77</ele><time>2024-06-29T01:39:26Z</time></trkpt><trkpt lat="36.0003515" lon="139.1862734"><ele>832.6733333333333</ele><time>2024-06-29T01:39:50Z</time></trkpt><trkpt lat="36.0001525" lon="139.1862575"><ele>832.1966666666667</ele><time>2024-06-29T01:40:03Z</time></trkpt><trkpt lat="35.999966" lon="139.1862238"><ele>832.4066666666668</ele><time>2024-06-29T01:40:18Z</time></trkpt><trkpt lat="35.9998638" lon="139.1860177"><ele>833.8000000000001</ele><time>2024-06-29T01:40:36Z</time></trkpt><trkpt lat="35.9996776" lon="139.1859544"><ele>836.1733333333333</ele><time>2024-06-29T01:41:06Z</time></trkpt><trkpt lat="35.9995071" lon="139.185866"><ele>840.6733333333335</ele><time>2024-06-29T01:41:48Z</time></trkpt><trkpt lat="35.9993293" lon="139.1858191"><ele>845.79</ele><time>2024-06-29T01:42:47Z</time></trkpt><trkpt lat="35.9991522" lon="139.1858931"><ele>852.85</ele><time>2024-06-29T01:43:18Z</time></trkpt><trkpt lat="35.9990248" lon="139.1857053"><ele>859.89</ele><time>2024-06-29T01:44:35Z</time></trkpt><trkpt lat="35.9990613" lon="139.1854713"><ele>862.1266666666667</ele><time>2024-06-29T01:44:57Z</time></trkpt><trkpt lat="35.9990149" lon="139.1852362"><ele>861.5633333333334</ele><time>2024-06-29T01:45:15Z</time></trkpt><trkpt lat="35.9989298" lon="139.185"><ele>857.91</ele><time>2024-06-29T01:45:35Z</time></trkpt><trkpt lat="35.9988324" lon="139.1847976"><ele>855.9066666666668</ele><time>2024-06-29T01:45:59Z</time></trkpt><trkpt lat="35.9986833" lon="139.1846545"><ele>851.5933333333334</ele><time>2024-06-29T01:46:20Z</time></trkpt><trkpt lat="35.9986825" lon="139.1844189"><ele>847.09</ele><time>2024-06-29T01:46:56Z</time></trkpt><trkpt lat="35.9986082" lon="139.1842001"><ele>842.6466666666666</ele><time>2024-06-29T01:47:15Z</time></trkpt><trkpt lat="35.998768" lon="139.1840767"><ele>837.0033333333334</ele><time>2024-06-29T01:47:32Z</time></trkpt><trkpt lat="35.9986488" lon="139.1838906"><ele>832.89</ele><time>2024-06-29T01:47:54Z</time></trkpt><trkpt lat="35.9986532" lon="139.1836654"><ele>829.8366666666667</ele><time>2024-06-29T01:48:08Z</time></trkpt><trkpt lat="35.9986238" lon="139.183446"><ele>829.0233333333334</ele><time>2024-06-29T01:48:24Z</time></trkpt><trkpt lat="35.998516" lon="139.1832217"><ele>826.9833333333332</ele><time>2024-06-29T01:48:45Z</time></trkpt><trkpt lat="35.9983973" lon="139.183004"><ele>823.86</ele><time>2024-06-29T01:49:02Z</time></trkpt><trkpt lat="35.9982665" lon="139.1828329"><ele>820.2866666666667</ele><time>2024-06-29T01:49:18Z</time></trkpt><trkpt lat="35.9981974" lon="139.1826018"><ele>815.9466666666667</ele><time>2024-06-29T01:49:36Z</time></trkpt><trkpt lat="35.9981262" lon="139.1823964"><ele>812.5500000000001</ele><time>2024-06-29T01:49:54Z</time></trkpt><trkpt lat="35.9980731" lon="139.1821534"><ele>809.5500000000001</ele><time>2024-06-29T01:50:12Z</time></trkpt><trkpt lat="35.9979697" lon="139.1819409"><ele>807.6</ele><time>2024-06-29T01:50:30Z</time></trkpt><trkpt lat="35.9978775" lon="139.1817341"><ele>805.0766666666667</ele><time>2024-06-29T01:50:45Z</time></trkpt><trkpt lat="35.9977439" lon="139.1815392"><ele>803.0433333333334</ele><time>2024-06-29T01:51:03Z</time></trkpt><trkpt lat="35.9977128" lon="139.1813007"><ele>799.1266666666667</ele><time>2024-06-29T01:51:23Z</time></trkpt><trkpt lat="35.9978369" lon="139.181117"><ele>794.39</ele><time>2024-06-29T01:52:00Z</time></trkpt><trkpt lat="35.9979038" lon="139.1808828"><ele>788.6866666666666</ele><time>2024-06-29T01:52:26Z</time></trkpt><trkpt lat="35.9977825" lon="139.1806882"><ele>785.2933333333334</ele><time>2024-06-29T01:52:48Z</time></trkpt><trkpt lat="35.9977256" lon="139.18043"><ele>782.7466666666666</ele><time>2024-06-29T01:53:03Z</time></trkpt><trkpt lat="35.9978126" lon="139.1802297"><ele>779.4499999999999</ele><time>2024-06-29T01:53:18Z</time></trkpt><trkpt lat="35.9979255" lon="139.1800355"><ele>773.2966666666666</ele><time>2024-06-29T01:53:42Z</time></trkpt><trkpt lat="35.9979339" lon="139.1798011"><ele>766.9933333333333</ele><time>2024-06-29T01:54:00Z</time></trkpt><trkpt lat="35.9978337" lon="139.1796138"><ele>762.64</ele><time>2024-06-29T01:54:18Z</time></trkpt><trkpt lat="35.9979199" lon="139.1793963"><ele>763.1666666666666</ele><time>2024-06-29T01:55:54Z</time></trkpt><trkpt lat="35.9979663" lon="139.1791798"><ele>768.0466666666667</ele><time>2024-06-29T01:57:27Z</time></trkpt><trkpt lat="35.9979947" lon="139.178951"><ele>775.9966666666666</ele><time>2024-06-29T01:58:39Z</time></trkpt><trkpt lat="35.9980786" lon="139.1787359"><ele>785.3366666666667</ele><time>2024-06-29T01:58:51Z</time></trkpt><trkpt lat="35.9980909" lon="139.1784738"><ele>794.64</ele><time>2024-06-29T01:59:11Z</time></trkpt><trkpt lat="35.9981166" lon="139.1782386"><ele>802.44</ele><time>2024-06-29T01:59:30Z</time></trkpt><trkpt lat="35.9981876" lon="139.177995"><ele>806.5900000000001</ele><time>2024-06-29T01:59:48Z</time></trkpt><trkpt lat="35.9981874" lon="139.1777666"><ele>808.8466666666667</ele><time>2024-06-29T02:00:03Z</time></trkpt><trkpt lat="35.9982402" lon="139.177547"><ele>809.5366666666667</ele><time>2024-06-29T02:00:18Z</time></trkpt><trkpt lat="35.998311" lon="139.1773422"><ele>810.4766666666668</ele><time>2024-06-29T02:00:35Z</time></trkpt><trkpt lat="35.9985" lon="139.1771967"><ele>809.8366666666667</ele><time>2024-06-29T02:01:02Z</time></trkpt><trkpt lat="35.998655" lon="139.1770504"><ele>809.1333333333333</ele><time>2024-06-29T02:01:18Z</time></trkpt><trkpt lat="35.998646" lon="139.1768102"><ele>811.6866666666666</ele><time>2024-06-29T02:01:54Z</time></trkpt><trkpt lat="35.9987441" lon="139.1765858"><ele>817.2333333333332</ele><time>2024-06-29T02:02:15Z</time></trkpt><trkpt lat="35.9988552" lon="139.1763862"><ele>823.98</ele><time>2024-06-29T02:02:30Z</time></trkpt><trkpt lat="35.9990496" lon="139.1763244"><ele>825.8566666666666</ele><time>2024-06-29T02:02:54Z</time></trkpt><trkpt lat="35.9992158" lon="139.1762157"><ele>825.0366666666665</ele><time>2024-06-29T02:03:15Z</time></trkpt><trkpt lat="35.9993307" lon="139.1759882"><ele>825.5833333333334</ele><time>2024-06-29T02:03:42Z</time></trkpt><trkpt lat="35.9994564" lon="139.1757986"><ele>828.2966666666667</ele><time>2024-06-29T02:04:00Z</time></trkpt><trkpt lat="35.9995403" lon="139.1755483"><ele>830.9066666666668</ele><time>2024-06-29T02:04:24Z</time></trkpt><trkpt lat="35.9997429" lon="139.1755437"><ele>829.2833333333333</ele><time>2024-06-29T02:04:48Z</time></trkpt><trkpt lat="35.9999155" lon="139.1754163"><ele>826.0833333333334</ele><time>2024-06-29T02:05:06Z</time></trkpt><trkpt lat="36.0000779" lon="139.1753074"><ele>822.8933333333334</ele><time>2024-06-29T02:05:21Z</time></trkpt><trkpt lat="36.0002724" lon="139.1752112"><ele>819.3533333333334</ele><time>2024-06-29T02:05:39Z</time></trkpt><trkpt lat="36.0004665" lon="139.1751653"><ele>815.0933333333334</ele><time>2024-06-29T02:05:54Z</time></trkpt><trkpt lat="36.0006443" lon="139.1750764"><ele>810.9366666666668</ele><time>2024-06-29T02:06:09Z</time></trkpt><trkpt lat="36.0007858" lon="139.1749231"><ele>808.9533333333334</ele><time>2024-06-29T02:06:24Z</time></trkpt><trkpt lat="36.000924" lon="139.1747567"><ele>807.79</ele><time>2024-06-29T02:06:39Z</time></trkpt><trkpt lat="36.0009993" lon="139.1745194"><ele>806.4333333333334</ele><time>2024-06-29T02:06:54Z</time></trkpt><trkpt lat="36.0011346" lon="139.174324"><ele>804.3333333333334</ele><time>2024-06-29T02:07:12Z</time></trkpt><trkpt lat="36.0013132" lon="139.1742337"><ele>802.2033333333334</ele><time>2024-06-29T02:07:30Z</time></trkpt><trkpt lat="36.0014569" lon="139.1740447"><ele>800.0166666666668</ele><time>2024-06-29T02:07:51Z</time></trkpt><trkpt lat="36.0016102" lon="139.1739008"><ele>798.9700000000001</ele><time>2024-06-29T02:08:09Z</time></trkpt><trkpt lat="36.0018133" lon="139.1738559"><ele>797.4566666666666</ele><time>2024-06-29T02:08:39Z</time></trkpt><trkpt lat="36.0019328" lon="139.1736491"><ele>795.54</ele><time>2024-06-29T02:09:00Z</time></trkpt><trkpt lat="36.0020808" lon="139.1735162"><ele>791.57</ele><time>2024-06-29T02:09:18Z</time></trkpt><trkpt lat="36.0022152" lon="139.173359"><ele>787.7133333333333</ele><time>2024-06-29T02:09:33Z</time></trkpt><trkpt lat="36.0023671" lon="139.1732289"><ele>784.3766666666667</ele><time>2024-06-29T02:09:51Z</time></trkpt><trkpt lat="36.0024804" lon="139.1730401"><ele>782.5333333333334</ele><time>2024-06-29T02:10:12Z</time></trkpt><trkpt lat="36.0026379" lon="139.1728567"><ele>781.6966666666667</ele><time>2024-06-29T02:10:27Z</time></trkpt><trkpt lat="36.0027036" lon="139.1726221"><ele>778.9666666666667</ele><time>2024-06-29T02:10:42Z</time></trkpt><trkpt lat="36.0027801" lon="139.1723914"><ele>774.5600000000001</ele><time>2024-06-29T02:11:03Z</time></trkpt><trkpt lat="36.002855" lon="139.172169"><ele>769.0100000000001</ele><time>2024-06-29T02:11:24Z</time></trkpt><trkpt lat="36.0028196" lon="139.1719414"><ele>764.8666666666667</ele><time>2024-06-29T02:11:41Z</time></trkpt><trkpt lat="36.0028494" lon="139.171716"><ele>762.4666666666667</ele><time>2024-06-29T02:12:03Z</time></trkpt><trkpt lat="36.0029294" lon="139.1715066"><ele>760.4133333333333</ele><time>2024-06-29T02:12:21Z</time></trkpt><trkpt lat="36.0031199" lon="139.1714753"><ele>757.8033333333333</ele><time>2024-06-29T02:12:39Z</time></trkpt><trkpt lat="36.003296" lon="139.1714151"><ele>756.6966666666667</ele><time>2024-06-29T02:13:15Z</time></trkpt><trkpt lat="36.0034633" lon="139.1712826"><ele>758.75</ele><time>2024-06-29T02:13:33Z</time></trkpt><trkpt lat="36.0035598" lon="139.1710824"><ele>763.84</ele><time>2024-06-29T02:13:51Z</time></trkpt><trkpt lat="36.0036652" lon="139.1708877"><ele>768.4533333333334</ele><time>2024-06-29T02:14:09Z</time></trkpt><trkpt lat="36.0037884" lon="139.1706717"><ele>773.5033333333334</ele><time>2024-06-29T02:14:30Z</time></trkpt><trkpt lat="36.0038446" lon="139.1704536"><ele>777.98</ele><time>2024-06-29T02:15:14Z</time></trkpt><trkpt lat="36.0038878" lon="139.1702281"><ele>783.32</ele><time>2024-06-29T02:16:20Z</time></trkpt><trkpt lat="36.0040576" lon="139.1700799"><ele>788.5333333333334</ele><time>2024-06-29T02:17:21Z</time></trkpt><trkpt lat="36.0041168" lon="139.1698647"><ele>794.4033333333333</ele><time>2024-06-29T02:17:57Z</time></trkpt><trkpt lat="36.0041342" lon="139.1696285"><ele>800.82</ele><time>2024-06-29T02:18:33Z</time></trkpt><trkpt lat="36.0042574" lon="139.1694241"><ele>806.85</ele><time>2024-06-29T02:19:07Z</time></trkpt><trkpt lat="36.0043752" lon="139.1692485"><ele>812.6333333333333</ele><time>2024-06-29T02:19:29Z</time></trkpt><trkpt lat="36.0044794" lon="139.1690584"><ele>817.04</ele><time>2024-06-29T02:19:51Z</time></trkpt><trkpt lat="36.0045767" lon="139.1688489"><ele>820.4866666666667</ele><time>2024-06-29T02:20:20Z</time></trkpt><trkpt lat="36.0047523" lon="139.1687123"><ele>822.4133333333334</ele><time>2024-06-29T02:20:38Z</time></trkpt><trkpt lat="36.0049227" lon="139.1686164"><ele>823.8533333333334</ele><time>2024-06-29T02:20:59Z</time></trkpt><trkpt lat="36.0050965" lon="139.1684418"><ele>823.3133333333334</ele><time>2024-06-29T02:21:17Z</time></trkpt><trkpt lat="36.0052079" lon="139.1682393"><ele>822.0233333333332</ele><time>2024-06-29T02:21:35Z</time></trkpt><trkpt lat="36.0053251" lon="139.1680222"><ele>817.6333333333333</ele><time>2024-06-29T02:21:55Z</time></trkpt><trkpt lat="36.0053429" lon="139.1677757"><ele>813.6533333333333</ele><time>2024-06-29T02:22:19Z</time></trkpt><trkpt lat="36.0054222" lon="139.167557"><ele>808.6066666666667</ele><time>2024-06-29T02:22:34Z</time></trkpt><trkpt lat="36.0055764" lon="139.1674012"><ele>803.5333333333334</ele><time>2024-06-29T02:22:55Z</time></trkpt><trkpt lat="36.0057838" lon="139.1673794"><ele>797.2366666666667</ele><time>2024-06-29T02:23:20Z</time></trkpt><trkpt lat="36.0059329" lon="139.1672182"><ele>789.8766666666667</ele><time>2024-06-29T02:23:41Z</time></trkpt><trkpt lat="36.0060281" lon="139.1670194"><ele>784.7266666666668</ele><time>2024-06-29T02:24:05Z</time></trkpt><trkpt lat="36.0061709" lon="139.1668751"><ele>779.7866666666667</ele><time>2024-06-29T02:24:22Z</time></trkpt><trkpt lat="36.0063526" lon="139.1668299"><ele>774.3366666666667</ele><time>2024-06-29T02:24:50Z</time></trkpt><trkpt lat="36.0064607" lon="139.1666384"><ele>768.7199999999999</ele><time>2024-06-29T02:25:13Z</time></trkpt><trkpt lat="36.0066624" lon="139.1666698"><ele>760.8566666666666</ele><time>2024-06-29T02:26:13Z</time></trkpt><trkpt lat="36.0068684" lon="139.1666284"><ele>752.2600000000001</ele><time>2024-06-29T02:26:35Z</time></trkpt><trkpt lat="36.0069837" lon="139.166456"><ele>743.0966666666667</ele><time>2024-06-29T02:26:59Z</time></trkpt><trkpt lat="36.0071348" lon="139.166255"><ele>736.9666666666667</ele><time>2024-06-29T02:27:26Z</time></trkpt><trkpt lat="36.0072647" lon="139.166026"><ele>734.4766666666666</ele><time>2024-06-29T02:27:41Z</time></trkpt><trkpt lat="36.0073906" lon="139.1658288"><ele>733.5033333333334</ele><time>2024-06-29T02:27:56Z</time></trkpt><trkpt lat="36.0074136" lon="139.165595"><ele>734.39</ele><time>2024-06-29T02:28:13Z</time></trkpt><trkpt lat="36.0076299" lon="139.1655821"><ele>736.59</ele><time>2024-06-29T02:28:33Z</time></trkpt><trkpt lat="36.0078447" lon="139.1655979"><ele>738.02</ele><time>2024-06-29T02:28:45Z</time></trkpt><trkpt lat="36.0079434" lon="139.1653878"><ele>738.48</ele><time>2024-06-29T02:28:57Z</time></trkpt><trkpt lat="36.0080417" lon="139.1651609"><ele>737.9333333333334</ele><time>2024-06-29T02:29:09Z</time></trkpt><trkpt lat="36.0081473" lon="139.1649541"><ele>735.46</ele><time>2024-06-29T02:29:24Z</time></trkpt><trkpt lat="36.0082699" lon="139.1647739"><ele>731.9</ele><time>2024-06-29T02:29:44Z</time></trkpt><trkpt lat="36.0084708" lon="139.1647138"><ele>723.3566666666666</ele><time>2024-06-29T02:30:42Z</time></trkpt><trkpt lat="36.0086076" lon="139.1645313"><ele>713.68</ele><time>2024-06-29T02:31:18Z</time></trkpt><trkpt lat="36.0087256" lon="139.1643503"><ele>703.2866666666667</ele><time>2024-06-29T02:32:08Z</time></trkpt><trkpt lat="36.0088054" lon="139.1641177"><ele>696.93</ele><time>2024-06-29T02:32:30Z</time></trkpt><trkpt lat="36.008775" lon="139.1638499"><ele>692.5466666666667</ele><time>2024-06-29T02:32:51Z</time></trkpt><trkpt lat="36.0089821" lon="139.1638495"><ele>687.7766666666666</ele><time>2024-06-29T02:33:06Z</time></trkpt><trkpt lat="36.0089799" lon="139.1640872"><ele>683.1733333333333</ele><time>2024-06-29T02:33:24Z</time></trkpt><trkpt lat="36.0089029" lon="139.1642912"><ele>683.2533333333334</ele><time>2024-06-29T02:33:47Z</time></trkpt><trkpt lat="36.0090351" lon="139.1644633"><ele>681.2466666666667</ele><time>2024-06-29T02:34:02Z</time></trkpt><trkpt lat="36.0092267" lon="139.1645748"><ele>676.39</ele><time>2024-06-29T02:34:20Z</time></trkpt><trkpt lat="36.0094063" lon="139.1646516"><ele>665.9633333333333</ele><time>2024-06-29T02:34:35Z</time></trkpt><trkpt lat="36.0095675" lon="139.164526"><ele>660.0966666666667</ele><time>2024-06-29T02:34:54Z</time></trkpt><trkpt lat="36.0097706" lon="139.164538"><ele>656.1766666666666</ele><time>2024-06-29T02:35:12Z</time></trkpt><trkpt lat="36.0099599" lon="139.1644835"><ele>654.3766666666667</ele><time>2024-06-29T02:35:33Z</time></trkpt><trkpt lat="36.0101337" lon="139.1644244"><ele>650.8166666666667</ele><time>2024-06-29T02:35:45Z</time></trkpt><trkpt lat="36.0102491" lon="139.164247"><ele>650.1766666666667</ele><time>2024-06-29T02:36:30Z</time></trkpt><trkpt lat="36.0104231" lon="139.164106"><ele>649.0100000000001</ele><time>2024-06-29T02:36:51Z</time></trkpt><trkpt lat="36.0106021" lon="139.1640083"><ele>646.58</ele><time>2024-06-29T02:37:08Z</time></trkpt><trkpt lat="36.0107645" lon="139.1638574"><ele>642.3733333333333</ele><time>2024-06-29T02:37:33Z</time></trkpt><trkpt lat="36.0109132" lon="139.1637298"><ele>636.0166666666667</ele><time>2024-06-29T02:38:00Z</time></trkpt><trkpt lat="36.0110959" lon="139.163755"><ele>633.0766666666667</ele><time>2024-06-29T02:38:18Z</time></trkpt><trkpt lat="36.0110639" lon="139.1639825"><ele>629.1700000000001</ele><time>2024-06-29T02:39:03Z</time></trkpt><trkpt lat="36.0112405" lon="139.1641119"><ele>625.4699999999999</ele><time>2024-06-29T02:39:42Z</time></trkpt><trkpt lat="36.011425" lon="139.1639912"><ele>620.91</ele><time>2024-06-29T02:41:05Z</time></trkpt><trkpt lat="36.0115699" lon="139.1638486"><ele>618.37</ele><time>2024-06-29T02:43:54Z</time></trkpt><trkpt lat="36.011684" lon="139.1636469"><ele>621.0733333333334</ele><time>2024-06-29T02:44:42Z</time></trkpt><trkpt lat="36.0118515" lon="139.1635574"><ele>627.87</ele><time>2024-06-29T02:45:33Z</time></trkpt><trkpt lat="36.0120116" lon="139.1634412"><ele>635.69</ele><time>2024-06-29T02:46:15Z</time></trkpt><trkpt lat="36.0122121" lon="139.1634062"><ele>642.09</ele><time>2024-06-29T02:46:41Z</time></trkpt><trkpt lat="36.0124205" lon="139.163406"><ele>645.7600000000001</ele><time>2024-06-29T02:46:59Z</time></trkpt><trkpt lat="36.0126243" lon="139.1634568"><ele>649.1933333333333</ele><time>2024-06-29T02:47:18Z</time></trkpt><trkpt lat="36.0128161" lon="139.1633601"><ele>652.87</ele><time>2024-06-29T02:47:35Z</time></trkpt><trkpt lat="36.0129966" lon="139.1632765"><ele>656.3466666666667</ele><time>2024-06-29T02:48:03Z</time></trkpt><trkpt lat="36.0131841" lon="139.163188"><ele>659.7333333333333</ele><time>2024-06-29T02:48:26Z</time></trkpt><trkpt lat="36.0133036" lon="139.1629748"><ele>662.3666666666667</ele><time>2024-06-29T02:48:48Z</time></trkpt><trkpt lat="36.0134089" lon="139.1627943"><ele>664.3299999999999</ele><time>2024-06-29T02:49:03Z</time></trkpt><trkpt lat="36.0134705" lon="139.1625692"><ele>666.7566666666667</ele><time>2024-06-29T02:49:24Z</time></trkpt><trkpt lat="36.0135562" lon="139.1623453"><ele>669.4833333333333</ele><time>2024-06-29T02:49:48Z</time></trkpt><trkpt lat="36.0137543" lon="139.1623184"><ele>672.5766666666667</ele><time>2024-06-29T02:50:51Z</time></trkpt><trkpt lat="36.0139183" lon="139.1622013"><ele>675.1733333333333</ele><time>2024-06-29T02:51:12Z</time></trkpt><trkpt lat="36.0141082" lon="139.1621152"><ele>677.8366666666667</ele><time>2024-06-29T02:51:42Z</time></trkpt><trkpt lat="36.0141907" lon="139.161914"><ele>680.6833333333334</ele><time>2024-06-29T02:52:03Z</time></trkpt><trkpt lat="36.0143036" lon="139.1617195"><ele>682.8966666666666</ele><time>2024-06-29T02:52:21Z</time></trkpt><trkpt lat="36.0143849" lon="139.1615212"><ele>685.07</ele><time>2024-06-29T02:52:36Z</time></trkpt><trkpt lat="36.0145564" lon="139.161405"><ele>687.5533333333333</ele><time>2024-06-29T02:53:03Z</time></trkpt><trkpt lat="36.0145853" lon="139.161175"><ele>690.2233333333334</ele><time>2024-06-29T02:53:24Z</time></trkpt><trkpt lat="36.0146655" lon="139.1609605"><ele>693.1933333333333</ele><time>2024-06-29T02:53:39Z</time></trkpt><trkpt lat="36.0148024" lon="139.1607682"><ele>696.3633333333333</ele><time>2024-06-29T02:53:57Z</time></trkpt><trkpt lat="36.0149271" lon="139.1605703"><ele>698.4000000000001</ele><time>2024-06-29T02:54:21Z</time></trkpt><trkpt lat="36.0149826" lon="139.1603275"><ele>696.32</ele><time>2024-06-29T02:54:38Z</time></trkpt><trkpt lat="36.0151037" lon="139.1601413"><ele>691.35</ele><time>2024-06-29T02:55:00Z</time></trkpt><trkpt lat="36.0153015" lon="139.160085"><ele>684.7600000000001</ele><time>2024-06-29T02:55:21Z</time></trkpt><trkpt lat="36.0154667" lon="139.1599641"><ele>678.5799999999999</ele><time>2024-06-29T02:55:53Z</time></trkpt><trkpt lat="36.0156344" lon="139.1598674"><ele>671.2766666666666</ele><time>2024-06-29T02:56:14Z</time></trkpt><trkpt lat="36.0158173" lon="139.1597302"><ele>663.8166666666667</ele><time>2024-06-29T02:56:39Z</time></trkpt><trkpt lat="36.016018" lon="139.1597558"><ele>657.65</ele><time>2024-06-29T02:56:57Z</time></trkpt><trkpt lat="36.01614" lon="139.1595664"><ele>653.1066666666667</ele><time>2024-06-29T02:57:12Z</time></trkpt><trkpt lat="36.0163193" lon="139.1595145"><ele>649.11</ele><time>2024-06-29T02:57:27Z</time></trkpt><trkpt lat="36.016418" lon="139.159713"><ele>645.5533333333334</ele><time>2024-06-29T02:57:47Z</time></trkpt><trkpt lat="36.0165243" lon="139.1595309"><ele>642.1433333333333</ele><time>2024-06-29T02:58:00Z</time></trkpt><trkpt lat="36.0165435" lon="139.1593023"><ele>638.77</ele><time>2024-06-29T02:58:18Z</time></trkpt><trkpt lat="36.0167259" lon="139.1593505"><ele>633.9866666666667</ele><time>2024-06-29T02:58:33Z</time></trkpt><trkpt lat="36.0168687" lon="139.1592111"><ele>628.2800000000001</ele><time>2024-06-29T02:58:50Z</time></trkpt><trkpt lat="36.0170708" lon="139.159157"><ele>621.9033333333333</ele><time>2024-06-29T02:59:09Z</time></trkpt><trkpt lat="36.0172538" lon="139.1591939"><ele>614.7433333333333</ele><time>2024-06-29T02:59:29Z</time></trkpt><trkpt lat="36.0172349" lon="139.1589469"><ele>610.2166666666667</ele><time>2024-06-29T03:00:47Z</time></trkpt><trkpt lat="36.0174179" lon="139.1588741"><ele>604.1899999999999</ele><time>2024-06-29T03:01:05Z</time></trkpt><trkpt lat="36.0175754" lon="139.1587202"><ele>597.2333333333332</ele><time>2024-06-29T03:01:38Z</time></trkpt><trkpt lat="36.0177491" lon="139.1585507"><ele>586.5566666666666</ele><time>2024-06-29T03:01:53Z</time></trkpt><trkpt lat="36.0177152" lon="139.1583185"><ele>581.8733333333333</ele><time>2024-06-29T03:02:09Z</time></trkpt><trkpt lat="36.017735" lon="139.15807"><ele>581.01</ele><time>2024-06-29T03:02:27Z</time></trkpt><trkpt lat="36.0179102" lon="139.1581368"><ele>583.2333333333332</ele><time>2024-06-29T03:02:37Z</time></trkpt><trkpt lat="36.0180683" lon="139.1580174"><ele>583.3033333333334</ele><time>2024-06-29T03:02:56Z</time></trkpt><trkpt lat="36.0182698" lon="139.1579439"><ele>583.2366666666667</ele><time>2024-06-29T03:03:15Z</time></trkpt><trkpt lat="36.0184466" lon="139.1577957"><ele>583.58</ele><time>2024-06-29T03:03:33Z</time></trkpt><trkpt lat="36.0186256" lon="139.1576991"><ele>585.5966666666667</ele><time>2024-06-29T03:03:47Z</time></trkpt><trkpt lat="36.0188138" lon="139.157651"><ele>589.3433333333334</ele><time>2024-06-29T03:04:20Z</time></trkpt><trkpt lat="36.0189785" lon="139.1575567"><ele>594.1300000000001</ele><time>2024-06-29T03:04:47Z</time></trkpt><trkpt lat="36.0190813" lon="139.1573651"><ele>598.0633333333334</ele><time>2024-06-29T03:05:02Z</time></trkpt><trkpt lat="36.0192752" lon="139.1573277"><ele>600.5233333333334</ele><time>2024-06-29T03:05:25Z</time></trkpt><trkpt lat="36.0194314" lon="139.1571576"><ele>601.6999999999999</ele><time>2024-06-29T03:05:50Z</time></trkpt><trkpt lat="36.0195436" lon="139.156959"><ele>601.9833333333333</ele><time>2024-06-29T03:06:08Z</time></trkpt><trkpt lat="36.0196829" lon="139.1567801"><ele>603.3033333333333</ele><time>2024-06-29T03:06:25Z</time></trkpt><trkpt lat="36.0198804" lon="139.1567113"><ele>602.5666666666666</ele><time>2024-06-29T03:06:41Z</time></trkpt><trkpt lat="36.0200593" lon="139.1565948"><ele>603.6066666666667</ele><time>2024-06-29T03:06:59Z</time></trkpt><trkpt lat="36.0201804" lon="139.1564063"><ele>604.9666666666667</ele><time>2024-06-29T03:07:19Z</time></trkpt><trkpt lat="36.0203208" lon="139.1562573"><ele>608.24</ele><time>2024-06-29T03:07:32Z</time></trkpt><trkpt lat="36.0204101" lon="139.1560595"><ele>608.25</ele><time>2024-06-29T03:07:44Z</time></trkpt><trkpt lat="36.020523" lon="139.1558835"><ele>605.86</ele><time>2024-06-29T03:08:48Z</time></trkpt><trkpt lat="36.0206904" lon="139.1556869"><ele>603.3733333333333</ele><time>2024-06-29T03:09:24Z</time></trkpt><trkpt lat="36.0208452" lon="139.1555218"><ele>603.6133333333333</ele><time>2024-06-29T03:09:36Z</time></trkpt><trkpt lat="36.0210068" lon="139.1553641"><ele>606.4933333333333</ele><time>2024-06-29T03:09:51Z</time></trkpt><trkpt lat="36.0211389" lon="139.155211"><ele>610.49</ele><time>2024-06-29T03:10:09Z</time></trkpt><trkpt lat="36.0213238" lon="139.155117"><ele>614.0133333333333</ele><time>2024-06-29T03:10:30Z</time></trkpt><trkpt lat="36.0215204" lon="139.1550338"><ele>616.7033333333334</ele><time>2024-06-29T03:10:51Z</time></trkpt><trkpt lat="36.0216347" lon="139.1548585"><ele>618.4233333333333</ele><time>2024-06-29T03:11:06Z</time></trkpt><trkpt lat="36.0217346" lon="139.1546637"><ele>618.3066666666667</ele><time>2024-06-29T03:11:33Z</time></trkpt><trkpt lat="36.0218947" lon="139.1545353"><ele>615.9933333333333</ele><time>2024-06-29T03:11:51Z</time></trkpt><trkpt lat="36.0220402" lon="139.154365"><ele>614.6066666666667</ele><time>2024-06-29T03:12:09Z</time></trkpt><trkpt lat="36.0221382" lon="139.154131"><ele>615.6433333333333</ele><time>2024-06-29T03:12:27Z</time></trkpt><trkpt lat="36.0223046" lon="139.1539731"><ele>618.5100000000001</ele><time>2024-06-29T03:12:45Z</time></trkpt><trkpt lat="36.0224185" lon="139.1537966"><ele>620.5566666666667</ele><time>2024-06-29T03:12:59Z</time></trkpt><trkpt lat="36.0225851" lon="139.1536874"><ele>622.2933333333334</ele><time>2024-06-29T03:13:15Z</time></trkpt><trkpt lat="36.0227595" lon="139.1535994"><ele>625.18</ele><time>2024-06-29T03:13:54Z</time></trkpt><trkpt lat="36.0228793" lon="139.1534215"><ele>629.4466666666666</ele><time>2024-06-29T03:14:34Z</time></trkpt><trkpt lat="36.0230604" lon="139.1534596"><ele>632.0833333333334</ele><time>2024-06-29T03:15:22Z</time></trkpt><trkpt lat="36.0232183" lon="139.1533471"><ele>636.1566666666666</ele><time>2024-06-29T03:15:46Z</time></trkpt><trkpt lat="36.0233974" lon="139.1532885"><ele>641.1733333333333</ele><time>2024-06-29T03:17:01Z</time></trkpt><trkpt lat="36.023556" lon="139.1531729"><ele>649.3766666666667</ele><time>2024-06-29T03:17:37Z</time></trkpt><trkpt lat="36.0237424" lon="139.1532381"><ele>657.1233333333333</ele><time>2024-06-29T03:18:07Z</time></trkpt><trkpt lat="36.0239317" lon="139.1533086"><ele>664.0633333333334</ele><time>2024-06-29T03:18:43Z</time></trkpt><trkpt lat="36.0241147" lon="139.1533689"><ele>668.9333333333333</ele><time>2024-06-29T03:19:06Z</time></trkpt><trkpt lat="36.0243044" lon="139.1534017"><ele>671.8733333333333</ele><time>2024-06-29T03:19:25Z</time></trkpt><trkpt lat="36.0244836" lon="139.1533606"><ele>673.7066666666667</ele><time>2024-06-29T03:19:46Z</time></trkpt><trkpt lat="36.0246868" lon="139.1533216"><ele>676.3666666666667</ele><time>2024-06-29T03:20:07Z</time></trkpt><trkpt lat="36.0248668" lon="139.1532668"><ele>678.6633333333333</ele><time>2024-06-29T03:20:22Z</time></trkpt><trkpt lat="36.0250444" lon="139.153345"><ele>680.54</ele><time>2024-06-29T03:20:40Z</time></trkpt><trkpt lat="36.0252379" lon="139.1533748"><ele>681.1433333333333</ele><time>2024-06-29T03:20:55Z</time></trkpt><trkpt lat="36.025401" lon="139.1534848"><ele>681.3066666666667</ele><time>2024-06-29T03:21:13Z</time></trkpt><trkpt lat="36.0255948" lon="139.153583"><ele>681.1600000000001</ele><time>2024-06-29T03:21:31Z</time></trkpt><trkpt lat="36.0257937" lon="139.1536433"><ele>681.2366666666667</ele><time>2024-06-29T03:21:48Z</time></trkpt><trkpt lat="36.0260026" lon="139.1536159"><ele>681.8133333333334</ele><time>2024-06-29T03:22:07Z</time></trkpt><trkpt lat="36.0261647" lon="139.1535113"><ele>683.3000000000001</ele><time>2024-06-29T03:22:22Z</time></trkpt><trkpt lat="36.0263631" lon="139.1534634"><ele>684.6166666666668</ele><time>2024-06-29T03:22:37Z</time></trkpt><trkpt lat="36.0265597" lon="139.1533956"><ele>685.7933333333334</ele><time>2024-06-29T03:22:55Z</time></trkpt><trkpt lat="36.0267286" lon="139.1532845"><ele>686.8433333333334</ele><time>2024-06-29T03:23:13Z</time></trkpt><trkpt lat="36.0268741" lon="139.1531299"><ele>689.1566666666668</ele><time>2024-06-29T03:23:43Z</time></trkpt><trkpt lat="36.0269584" lon="139.152873"><ele>693.5133333333333</ele><time>2024-06-29T03:24:04Z</time></trkpt><trkpt lat="36.0271218" lon="139.1527416"><ele>697.54</ele><time>2024-06-29T03:25:49Z</time></trkpt><trkpt lat="36.027308" lon="139.1528249"><ele>699.1</ele><time>2024-06-29T03:26:46Z</time></trkpt><trkpt lat="36.0271094" lon="139.1528473"><ele>699.5466666666666</ele><time>2024-06-29T03:27:10Z</time></trkpt><trkpt lat="36.0272734" lon="139.1529476"><ele>699.2966666666666</ele><time>2024-06-29T03:32:07Z</time></trkpt><trkpt lat="36.0273461" lon="139.1531687"><ele>699.0833333333334</ele><time>2024-06-29T03:32:28Z</time></trkpt><trkpt lat="36.0274536" lon="139.1533621"><ele>696.6700000000001</ele><time>2024-06-29T03:32:43Z</time></trkpt><trkpt lat="36.0276337" lon="139.1534542"><ele>693.66</ele><time>2024-06-29T03:32:55Z</time></trkpt><trkpt lat="36.0278301" lon="139.1535367"><ele>691.0833333333334</ele><time>2024-06-29T03:33:07Z</time></trkpt><trkpt lat="36.0280111" lon="139.1535393"><ele>689.5</ele><time>2024-06-29T03:33:22Z</time></trkpt><trkpt lat="36.0281851" lon="139.1536239"><ele>688.8233333333333</ele><time>2024-06-29T03:33:36Z</time></trkpt><trkpt lat="36.0283828" lon="139.1537029"><ele>688.8766666666667</ele><time>2024-06-29T03:33:58Z</time></trkpt><trkpt lat="36.028558" lon="139.1538019"><ele>690.1933333333333</ele><time>2024-06-29T03:34:12Z</time></trkpt><trkpt lat="36.0287033" lon="139.1539388"><ele>692.25</ele><time>2024-06-29T03:34:37Z</time></trkpt><trkpt lat="36.0288827" lon="139.1540387"><ele>695.9333333333334</ele><time>2024-06-29T03:35:13Z</time></trkpt><trkpt lat="36.0290122" lon="139.1542433"><ele>700.3633333333333</ele><time>2024-06-29T03:35:33Z</time></trkpt><trkpt lat="36.0291563" lon="139.1543804"><ele>705.71</ele><time>2024-06-29T03:35:52Z</time></trkpt><trkpt lat="36.029284" lon="139.154556"><ele>710.94</ele><time>2024-06-29T03:36:25Z</time></trkpt><trkpt lat="36.0294568" lon="139.1546839"><ele>715.2133333333333</ele><time>2024-06-29T03:36:46Z</time></trkpt><trkpt lat="36.0296408" lon="139.154785"><ele>717.9166666666666</ele><time>2024-06-29T03:37:06Z</time></trkpt><trkpt lat="36.02973" lon="139.1549883"><ele>719.9566666666666</ele><time>2024-06-29T03:37:25Z</time></trkpt><trkpt lat="36.0297998" lon="139.1552124"><ele>721.2566666666667</ele><time>2024-06-29T03:37:46Z</time></trkpt><trkpt lat="36.0299818" lon="139.1553571"><ele>721.6966666666667</ele><time>2024-06-29T03:38:07Z</time></trkpt><trkpt lat="36.0301191" lon="139.1555363"><ele>721.04</ele><time>2024-06-29T03:38:22Z</time></trkpt><trkpt lat="36.0302426" lon="139.1557503"><ele>720.4333333333334</ele><time>2024-06-29T03:38:37Z</time></trkpt><trkpt lat="36.0304296" lon="139.1558509"><ele>720.4033333333333</ele><time>2024-06-29T03:39:10Z</time></trkpt><trkpt lat="36.0306338" lon="139.1558221"><ele>720.1933333333333</ele><time>2024-06-29T03:39:31Z</time></trkpt><trkpt lat="36.0308024" lon="139.1559313"><ele>719.84</ele><time>2024-06-29T03:39:49Z</time></trkpt><trkpt lat="36.0309582" lon="139.1560579"><ele>716.7566666666667</ele><time>2024-06-29T03:40:04Z</time></trkpt><trkpt lat="36.0310506" lon="139.1562492"><ele>712.94</ele><time>2024-06-29T03:40:34Z</time></trkpt><trkpt lat="36.0312201" lon="139.1563466"><ele>706.9266666666667</ele><time>2024-06-29T03:41:10Z</time></trkpt><trkpt lat="36.0314011" lon="139.1563938"><ele>703.2433333333333</ele><time>2024-06-29T03:41:31Z</time></trkpt><trkpt lat="36.0315748" lon="139.1564951"><ele>700.73</ele><time>2024-06-29T03:42:01Z</time></trkpt><trkpt lat="36.0317096" lon="139.1566464"><ele>702.61</ele><time>2024-06-29T03:42:34Z</time></trkpt><trkpt lat="36.0318821" lon="139.1567587"><ele>706.5666666666666</ele><time>2024-06-29T03:43:19Z</time></trkpt><trkpt lat="36.0321067" lon="139.1568265"><ele>711.5733333333334</ele><time>2024-06-29T03:43:49Z</time></trkpt><trkpt lat="36.0322859" lon="139.1567249"><ele>716.1966666666667</ele><time>2024-06-29T03:44:07Z</time></trkpt><trkpt lat="36.0324687" lon="139.1566878"><ele>721.1199999999999</ele><time>2024-06-29T03:44:34Z</time></trkpt><trkpt lat="36.0326513" lon="139.1566412"><ele>727.5866666666667</ele><time>2024-06-29T03:45:22Z</time></trkpt><trkpt lat="36.0328309" lon="139.1565071"><ele>734.6233333333333</ele><time>2024-06-29T03:46:31Z</time></trkpt><trkpt lat="36.0329489" lon="139.1563392"><ele>741.2199999999999</ele><time>2024-06-29T03:47:10Z</time></trkpt><trkpt lat="36.0330605" lon="139.1565208"><ele>746.2466666666666</ele><time>2024-06-29T03:47:55Z</time></trkpt><trkpt lat="36.0332378" lon="139.1566116"><ele>749.1833333333334</ele><time>2024-06-29T03:48:13Z</time></trkpt><trkpt lat="36.0334339" lon="139.1566009"><ele>751.91</ele><time>2024-06-29T03:48:37Z</time></trkpt><trkpt lat="36.0336475" lon="139.1565519"><ele>754.6433333333333</ele><time>2024-06-29T03:48:55Z</time></trkpt><trkpt lat="36.0338338" lon="139.1565578"><ele>757.5433333333334</ele><time>2024-06-29T03:49:16Z</time></trkpt><trkpt lat="36.0339979" lon="139.1564629"><ele>759.7933333333334</ele><time>2024-06-29T03:49:31Z</time></trkpt><trkpt lat="36.0341997" lon="139.1563825"><ele>761.5099999999999</ele><time>2024-06-29T03:49:48Z</time></trkpt><trkpt lat="36.0343829" lon="139.1562412"><ele>762.8466666666667</ele><time>2024-06-29T03:50:15Z</time></trkpt><trkpt lat="36.0345014" lon="139.1564214"><ele>763.3333333333334</ele><time>2024-06-29T03:51:28Z</time></trkpt><trkpt lat="36.0346617" lon="139.1565765"><ele>760.91</ele><time>2024-06-29T03:52:03Z</time></trkpt><trkpt lat="36.0348396" lon="139.1566612"><ele>754.9699999999999</ele><time>2024-06-29T03:52:38Z</time></trkpt><trkpt lat="36.035001" lon="139.1567825"><ele>745.13</ele><time>2024-06-29T03:53:10Z</time></trkpt><trkpt lat="36.0352149" lon="139.1566815"><ele>737.8833333333332</ele><time>2024-06-29T03:53:28Z</time></trkpt><trkpt lat="36.0354033" lon="139.1567112"><ele>732.5799999999999</ele><time>2024-06-29T03:53:40Z</time></trkpt><trkpt lat="36.0355641" lon="139.1568258"><ele>729.4366666666668</ele><time>2024-06-29T03:53:58Z</time></trkpt><trkpt lat="36.0357411" lon="139.1567308"><ele>725.6500000000001</ele><time>2024-06-29T03:54:16Z</time></trkpt><trkpt lat="36.0359293" lon="139.1567601"><ele>721.57</ele><time>2024-06-29T03:54:37Z</time></trkpt><trkpt lat="36.0360774" lon="139.1569173"><ele>716.19</ele><time>2024-06-29T03:55:04Z</time></trkpt><trkpt lat="36.0362543" lon="139.1568087"><ele>711.6933333333333</ele><time>2024-06-29T03:55:22Z</time></trkpt><trkpt lat="36.0364532" lon="139.1567043"><ele>708.62</ele><time>2024-06-29T03:55:40Z</time></trkpt><trkpt lat="36.0366324" lon="139.1566705"><ele>707.0466666666667</ele><time>2024-06-29T03:56:01Z</time></trkpt><trkpt lat="36.0368383" lon="139.1566047"><ele>704.8100000000001</ele><time>2024-06-29T03:56:19Z</time></trkpt><trkpt lat="36.0369974" lon="139.1564789"><ele>702.5799999999999</ele><time>2024-06-29T03:56:55Z</time></trkpt><trkpt lat="36.0372023" lon="139.1564735"><ele>702.4966666666668</ele><time>2024-06-29T03:57:13Z</time></trkpt><trkpt lat="36.0374059" lon="139.1564061"><ele>703.4766666666666</ele><time>2024-06-29T03:57:28Z</time></trkpt><trkpt lat="36.0375765" lon="139.1565035"><ele>706.3166666666666</ele><time>2024-06-29T03:57:39Z</time></trkpt><trkpt lat="36.0377173" lon="139.1563188"><ele>708.0200000000001</ele><time>2024-06-29T03:57:54Z</time></trkpt><trkpt lat="36.0378959" lon="139.1560447"><ele>704.57</ele><time>2024-06-29T03:58:04Z</time></trkpt><trkpt lat="36.0380233" lon="139.1562211"><ele>701.4433333333335</ele><time>2024-06-29T03:58:16Z</time></trkpt><trkpt lat="36.0382103" lon="139.1563085"><ele>699.2433333333333</ele><time>2024-06-29T03:58:31Z</time></trkpt><trkpt lat="36.0384148" lon="139.1563176"><ele>700.58</ele><time>2024-06-29T03:58:49Z</time></trkpt><trkpt lat="36.038612" lon="139.1562974"><ele>699.3266666666667</ele><time>2024-06-29T03:59:09Z</time></trkpt><trkpt lat="36.0388021" lon="139.15623"><ele>694.4666666666667</ele><time>2024-06-29T03:59:30Z</time></trkpt><trkpt lat="36.0390103" lon="139.1562432"><ele>687.0333333333333</ele><time>2024-06-29T03:59:51Z</time></trkpt><trkpt lat="36.0391835" lon="139.1561165"><ele>677.1133333333333</ele><time>2024-06-29T04:00:18Z</time></trkpt><trkpt lat="36.0392425" lon="139.1558721"><ele>670.0433333333334</ele><time>2024-06-29T04:00:39Z</time></trkpt><trkpt lat="36.0394413" lon="139.1558523"><ele>663.7866666666667</ele><time>2024-06-29T04:01:03Z</time></trkpt><trkpt lat="36.0395891" lon="139.1560349"><ele>658.6433333333333</ele><time>2024-06-29T04:01:17Z</time></trkpt><trkpt lat="36.0396823" lon="139.1562416"><ele>650.6666666666666</ele><time>2024-06-29T04:01:36Z</time></trkpt><trkpt lat="36.0396015" lon="139.1564521"><ele>643.5233333333334</ele><time>2024-06-29T04:02:12Z</time></trkpt><trkpt lat="36.039504" lon="139.1560291"><ele>644.5366666666667</ele><time>2024-06-29T04:02:25Z</time></trkpt><trkpt lat="36.039685" lon="139.1560822"><ele>646.2433333333333</ele><time>2024-06-29T04:03:55Z</time></trkpt><trkpt lat="36.0398674" lon="139.1560828"><ele>648.2533333333332</ele><time>2024-06-29T04:04:39Z</time></trkpt><trkpt lat="36.0400566" lon="139.1561807"><ele>640.7966666666666</ele><time>2024-06-29T04:04:58Z</time></trkpt><trkpt lat="36.0402407" lon="139.1561597"><ele>635.7533333333332</ele><time>2024-06-29T04:05:18Z</time></trkpt><trkpt lat="36.0403767" lon="139.155985"><ele>631.0033333333332</ele><time>2024-06-29T04:05:33Z</time></trkpt><trkpt lat="36.0405669" lon="139.1560337"><ele>626.3100000000001</ele><time>2024-06-29T04:05:58Z</time></trkpt><trkpt lat="36.0406871" lon="139.1558287"><ele>619.9566666666666</ele><time>2024-06-29T04:06:18Z</time></trkpt><trkpt lat="36.0405663" lon="139.1556568"><ele>613.5533333333333</ele><time>2024-06-29T04:06:37Z</time></trkpt><trkpt lat="36.0406598" lon="139.1554615"><ele>607.54</ele><time>2024-06-29T04:07:04Z</time></trkpt><trkpt lat="36.040868" lon="139.1554927"><ele>600.1899999999999</ele><time>2024-06-29T04:07:24Z</time></trkpt><trkpt lat="36.0410105" lon="139.1553152"><ele>592.7566666666667</ele><time>2024-06-29T04:07:51Z</time></trkpt><trkpt lat="36.0410222" lon="139.1550924"><ele>587.6899999999999</ele><time>2024-06-29T04:08:16Z</time></trkpt><trkpt lat="36.0412493" lon="139.1551094"><ele>585.6233333333333</ele><time>2024-06-29T04:08:28Z</time></trkpt><trkpt lat="36.0414597" lon="139.1551067"><ele>583.98</ele><time>2024-06-29T04:08:46Z</time></trkpt><trkpt lat="36.0416634" lon="139.15508"><ele>581.5966666666667</ele><time>2024-06-29T04:09:02Z</time></trkpt><trkpt lat="36.0417894" lon="139.1549136"><ele>577.5500000000001</ele><time>2024-06-29T04:09:17Z</time></trkpt><trkpt lat="36.0419295" lon="139.1547298"><ele>571.5500000000001</ele><time>2024-06-29T04:09:35Z</time></trkpt><trkpt lat="36.0421093" lon="139.1546172"><ele>565.66</ele><time>2024-06-29T04:09:59Z</time></trkpt><trkpt lat="36.0422505" lon="139.1544505"><ele>561.6933333333333</ele><time>2024-06-29T04:10:19Z</time></trkpt><trkpt lat="36.0424262" lon="139.1545123"><ele>558.7533333333334</ele><time>2024-06-29T04:10:35Z</time></trkpt><trkpt lat="36.0425352" lon="139.1547044"><ele>554.5500000000001</ele><time>2024-06-29T04:11:08Z</time></trkpt><trkpt lat="36.0424497" lon="139.1549095"><ele>548.1733333333333</ele><time>2024-06-29T04:11:25Z</time></trkpt><trkpt lat="36.0425882" lon="139.1550554"><ele>542.4033333333333</ele><time>2024-06-29T04:11:43Z</time></trkpt><trkpt lat="36.0425891" lon="139.1553187"><ele>539.38</ele><time>2024-06-29T04:12:20Z</time></trkpt><trkpt lat="36.0425587" lon="139.1555433"><ele>538.37</ele><time>2024-06-29T04:12:29Z</time></trkpt><trkpt lat="36.0426416" lon="139.1557589"><ele>536.3166666666666</ele><time>2024-06-29T04:12:44Z</time></trkpt><trkpt lat="36.0426786" lon="139.1559941"><ele>532.7566666666667</ele><time>2024-06-29T04:13:02Z</time></trkpt><trkpt lat="36.0427681" lon="139.1561923"><ele>528.8</ele><time>2024-06-29T04:13:17Z</time></trkpt><trkpt lat="36.0427749" lon="139.1565015"><ele>525.5533333333333</ele><time>2024-06-29T04:13:29Z</time></trkpt><trkpt lat="36.042878" lon="139.1567136"><ele>522.88</ele><time>2024-06-29T04:13:41Z</time></trkpt><trkpt lat="36.0430945" lon="139.156821"><ele>521.0033333333334</ele><time>2024-06-29T04:13:56Z</time></trkpt><trkpt lat="36.0433064" lon="139.1566773"><ele>522.11</ele><time>2024-06-29T04:14:11Z</time></trkpt><trkpt lat="36.0434763" lon="139.1565528"><ele>524.6899999999999</ele><time>2024-06-29T04:14:26Z</time></trkpt><trkpt lat="36.0436933" lon="139.1565166"><ele>528.8100000000001</ele><time>2024-06-29T04:14:45Z</time></trkpt><trkpt lat="36.0438472" lon="139.1566386"><ele>529.8433333333334</ele><time>2024-06-29T04:14:57Z</time></trkpt><trkpt lat="36.0439769" lon="139.1567988"><ele>529.7199999999999</ele><time>2024-06-29T04:15:18Z</time></trkpt><trkpt lat="36.0441706" lon="139.1567466"><ele>528.8333333333334</ele><time>2024-06-29T04:15:33Z</time></trkpt><trkpt lat="36.044336" lon="139.1566168"><ele>530.3433333333334</ele><time>2024-06-29T04:15:48Z</time></trkpt><trkpt lat="36.0444091" lon="139.1564124"><ele>533.48</ele><time>2024-06-29T04:15:57Z</time></trkpt><trkpt lat="36.0445415" lon="139.1562255"><ele>538.0866666666667</ele><time>2024-06-29T04:16:35Z</time></trkpt><trkpt lat="36.0447234" lon="139.156246"><ele>544.2366666666666</ele><time>2024-06-29T04:16:49Z</time></trkpt><trkpt lat="36.044845" lon="139.1564138"><ele>548.8933333333333</ele><time>2024-06-29T04:17:09Z</time></trkpt><trkpt lat="36.0449163" lon="139.156621"><ele>549.2233333333334</ele><time>2024-06-29T04:17:24Z</time></trkpt><trkpt lat="36.0451058" lon="139.156627"><ele>548.7033333333333</ele><time>2024-06-29T04:17:36Z</time></trkpt><trkpt lat="36.0452876" lon="139.1566672"><ele>548.8766666666667</ele><time>2024-06-29T04:17:54Z</time></trkpt><trkpt lat="36.0454804" lon="139.1568048"><ele>550.9433333333333</ele><time>2024-06-29T04:18:06Z</time></trkpt><trkpt lat="36.045681" lon="139.1568934"><ele>551.48</ele><time>2024-06-29T04:18:22Z</time></trkpt><trkpt lat="36.0459134" lon="139.1570181"><ele>553.3533333333334</ele><time>2024-06-29T04:18:38Z</time></trkpt><trkpt lat="36.046096" lon="139.1569682"><ele>555.7466666666667</ele><time>2024-06-29T04:18:59Z</time></trkpt><trkpt lat="36.0463036" lon="139.1569675"><ele>559.18</ele><time>2024-06-29T04:19:12Z</time></trkpt><trkpt lat="36.0464509" lon="139.156795"><ele>559.27</ele><time>2024-06-29T04:19:27Z</time></trkpt><trkpt lat="36.0465603" lon="139.1565375"><ele>555.7966666666666</ele><time>2024-06-29T04:19:42Z</time></trkpt><trkpt lat="36.0466935" lon="139.1563837"><ele>550.3033333333333</ele><time>2024-06-29T04:19:54Z</time></trkpt><trkpt lat="36.0469134" lon="139.1564025"><ele>546.5366666666667</ele><time>2024-06-29T04:20:12Z</time></trkpt><trkpt lat="36.0470945" lon="139.1566055"><ele>546.3866666666667</ele><time>2024-06-29T04:20:54Z</time></trkpt><trkpt lat="36.0472527" lon="139.1567859"><ele>547.6866666666666</ele><time>2024-06-29T04:21:03Z</time></trkpt><trkpt lat="36.0474177" lon="139.1569162"><ele>549.3966666666666</ele><time>2024-06-29T04:21:18Z</time></trkpt><trkpt lat="36.0476041" lon="139.1569833"><ele>551.1266666666667</ele><time>2024-06-29T04:21:30Z</time></trkpt><trkpt lat="36.0477829" lon="139.1571131"><ele>552.4133333333333</ele><time>2024-06-29T04:21:54Z</time></trkpt><trkpt lat="36.047941" lon="139.157266"><ele>553.7666666666668</ele><time>2024-06-29T04:22:00Z</time></trkpt><trkpt lat="36.0480507" lon="139.1574829"><ele>554.0633333333334</ele><time>2024-06-29T04:22:18Z</time></trkpt><trkpt lat="36.0481239" lon="139.1577098"><ele>553.7733333333334</ele><time>2024-06-29T04:22:54Z</time></trkpt><trkpt lat="36.0483212" lon="139.1578517"><ele>553.2033333333334</ele><time>2024-06-29T04:23:06Z</time></trkpt><trkpt lat="36.0485021" lon="139.1580251"><ele>554.61</ele><time>2024-06-29T04:23:21Z</time></trkpt><trkpt lat="36.048637" lon="139.1582394"><ele>553.7966666666666</ele><time>2024-06-29T04:23:33Z</time></trkpt><trkpt lat="36.0487977" lon="139.1583433"><ele>552.3533333333334</ele><time>2024-06-29T04:23:51Z</time></trkpt><trkpt lat="36.0489654" lon="139.1585302"><ele>549.5433333333334</ele><time>2024-06-29T04:24:06Z</time></trkpt><trkpt lat="36.0491441" lon="139.1587062"><ele>550.3892867056243</ele><time>2024-06-29T04:24:21Z</time></trkpt><trkpt lat="36.0493166" lon="139.1587827"><ele>550.9355635912301</ele><time>2024-06-29T04:24:36Z</time></trkpt><trkpt lat="36.0495201" lon="139.1588126"><ele>552.0442915433056</ele><time>2024-06-29T04:24:51Z</time></trkpt><trkpt lat="36.0497052" lon="139.1588746"><ele>553.2649452918849</ele><time>2024-06-29T04:25:03Z</time></trkpt><trkpt lat="36.0498903" lon="139.1590092"><ele>554.6990647363633</ele><time>2024-06-29T04:25:18Z</time></trkpt><trkpt lat="36.0500704" lon="139.1589334"><ele>553.224813873909</ele><time>2024-06-29T04:25:30Z</time></trkpt><trkpt lat="36.0501032" lon="139.1587133"><ele>551.8803743150165</ele><time>2024-06-29T04:25:42Z</time></trkpt><trkpt lat="36.0502403" lon="139.1585094"><ele>550.6788837736344</ele><time>2024-06-29T04:25:54Z</time></trkpt><trkpt lat="36.050429" lon="139.1584448"><ele>550.8891968740593</ele><time>2024-06-29T04:26:03Z</time></trkpt><trkpt lat="36.0506171" lon="139.1583317"><ele>552.2210424114086</ele><time>2024-06-29T04:26:20Z</time></trkpt><trkpt lat="36.0508268" lon="139.1582575"><ele>556.1786027681786</ele><time>2024-06-29T04:26:36Z</time></trkpt><trkpt lat="36.0510104" lon="139.1581975"><ele>561.261483578188</ele><time>2024-06-29T04:26:51Z</time></trkpt><trkpt lat="36.0512003" lon="139.1580678"><ele>565.6848235949071</ele><time>2024-06-29T04:27:06Z</time></trkpt><trkpt lat="36.0513876" lon="139.1579857"><ele>565.0691199428838</ele><time>2024-06-29T04:27:21Z</time></trkpt><trkpt lat="36.0515224" lon="139.1578188"><ele>566.1108491043964</ele><time>2024-06-29T04:27:39Z</time></trkpt><trkpt lat="36.0517112" lon="139.1577527"><ele>564.114118384394</ele><time>2024-06-29T04:27:50Z</time></trkpt><trkpt lat="36.0519439" lon="139.157749"><ele>565.7870642308009</ele><time>2024-06-29T04:28:06Z</time></trkpt><trkpt lat="36.0519026" lon="139.1579718"><ele>561.626805939764</ele><time>2024-06-29T04:32:45Z</time></trkpt><trkpt lat="36.0521027" lon="139.1580468"><ele>560.8239224737405</ele><time>2024-06-29T04:33:03Z</time></trkpt><trkpt lat="36.0522873" lon="139.158077"><ele>559.6682807677647</ele><time>2024-06-29T04:33:18Z</time></trkpt><trkpt lat="36.052468" lon="139.158144"><ele>563.7211470795082</ele><time>2024-06-29T04:33:33Z</time></trkpt><trkpt lat="36.0526563" lon="139.1582037"><ele>566.6444448236464</ele><time>2024-06-29T04:33:48Z</time></trkpt><trkpt lat="36.0528707" lon="139.158236"><ele>569.0855550493285</ele><time>2024-06-29T04:34:06Z</time></trkpt><trkpt lat="36.053083" lon="139.1582164"><ele>568.4921644019165</ele><time>2024-06-29T04:34:21Z</time></trkpt><trkpt lat="36.0532648" lon="139.1582546"><ele>568.5639305119494</ele><time>2024-06-29T04:34:39Z</time></trkpt><trkpt lat="36.0533694" lon="139.1584575"><ele>567.0007081376469</ele><time>2024-06-29T04:34:57Z</time></trkpt><trkpt lat="36.0534348" lon="139.1582313"><ele>570.0033179897391</ele><time>2024-06-29T04:36:27Z</time></trkpt><trkpt lat="36.0536153" lon="139.1581846"><ele>571.1637552693227</ele><time>2024-06-29T04:37:06Z</time></trkpt><trkpt lat="36.053806" lon="139.1581803"><ele>573.6779109746457</ele><time>2024-06-29T04:37:24Z</time></trkpt><trkpt lat="36.0539399" lon="139.1580205"><ele>573.3502934367269</ele><time>2024-06-29T04:38:24Z</time></trkpt><trkpt lat="36.0541137" lon="139.157899"><ele>573.3508667717819</ele><time>2024-06-29T04:38:39Z</time></trkpt><trkpt lat="36.0543004" lon="139.1579302"><ele>573.9616401390808</ele><time>2024-06-29T04:38:54Z</time></trkpt><trkpt lat="36.0544984" lon="139.1578437"><ele>574.6992621157642</ele><time>2024-06-29T04:39:12Z</time></trkpt><trkpt lat="36.0544942" lon="139.1576043"><ele>573.9555121054882</ele><time>2024-06-29T04:39:27Z</time></trkpt><trkpt lat="36.0545375" lon="139.1573778"><ele>572.3909910170005</ele><time>2024-06-29T04:40:06Z</time></trkpt><trkpt lat="36.0547222" lon="139.1572626"><ele>573.7739713255316</ele><time>2024-06-29T04:40:45Z</time></trkpt><trkpt lat="36.0548455" lon="139.1570871"><ele>577.737116607064</ele><time>2024-06-29T04:41:09Z</time></trkpt><trkpt lat="36.055049" lon="139.157095"><ele>581.4167470602254</ele><time>2024-06-29T04:41:24Z</time></trkpt><trkpt lat="36.0552238" lon="139.1571874"><ele>579.9188032347249</ele><time>2024-06-29T04:41:39Z</time></trkpt><trkpt lat="36.0554146" lon="139.15719"><ele>577.8603160803241</ele><time>2024-06-29T04:41:54Z</time></trkpt><trkpt lat="36.0555693" lon="139.1573521"><ele>576.5840584669256</ele><time>2024-06-29T04:42:21Z</time></trkpt><trkpt lat="36.055697" lon="139.1575219"><ele>577.6622692709808</ele><time>2024-06-29T04:42:42Z</time></trkpt><trkpt lat="36.0557288" lon="139.1577532"><ele>579.0477250640324</ele><time>2024-06-29T04:42:57Z</time></trkpt><trkpt lat="36.055714" lon="139.1580129"><ele>581.9103992041554</ele><time>2024-06-29T04:43:15Z</time></trkpt><trkpt lat="36.0558033" lon="139.1582132"><ele>584.2862504725667</ele><time>2024-06-29T04:43:30Z</time></trkpt><trkpt lat="36.0559963" lon="139.1582157"><ele>585.6018866478981</ele><time>2024-06-29T04:43:48Z</time></trkpt><trkpt lat="36.056176" lon="139.1582344"><ele>585.7374723232291</ele><time>2024-06-29T04:44:00Z</time></trkpt><trkpt lat="36.0563508" lon="139.1583264"><ele>586.813840309559</ele><time>2024-06-29T04:44:15Z</time></trkpt><trkpt lat="36.0564714" lon="139.1585224"><ele>588.785116568385</ele><time>2024-06-29T04:44:33Z</time></trkpt><trkpt lat="36.0564125" lon="139.1587527"><ele>590.4044582199663</ele><time>2024-06-29T04:44:54Z</time></trkpt><trkpt lat="36.0562957" lon="139.1589933"><ele>591.3491889362498</ele><time>2024-06-29T04:45:15Z</time></trkpt><trkpt lat="36.0562817" lon="139.1592411"><ele>591.0359963482705</ele><time>2024-06-29T04:45:30Z</time></trkpt><trkpt lat="36.0564108" lon="139.1594441"><ele>591.0971523696436</ele><time>2024-06-29T04:45:54Z</time></trkpt><trkpt lat="36.0565085" lon="139.1596516"><ele>591.0673533124241</ele><time>2024-06-29T04:46:06Z</time></trkpt><trkpt lat="36.0565141" lon="139.159902"><ele>592.4162359364651</ele><time>2024-06-29T04:46:18Z</time></trkpt><trkpt lat="36.0566494" lon="139.1600626"><ele>592.1816757825011</ele><time>2024-06-29T04:46:30Z</time></trkpt><trkpt lat="36.0568362" lon="139.1599499"><ele>592.5472812424737</ele><time>2024-06-29T04:46:45Z</time></trkpt><trkpt lat="36.057053" lon="139.1599142"><ele>590.9412750182659</ele><time>2024-06-29T04:47:06Z</time></trkpt><trkpt lat="36.0571569" lon="139.1597291"><ele>587.9270954308516</ele><time>2024-06-29T04:47:21Z</time></trkpt><trkpt lat="36.0570951" lon="139.1595035"><ele>584.0176168912054</ele><time>2024-06-29T04:47:36Z</time></trkpt><trkpt lat="36.057158" lon="139.1592502"><ele>582.2662616370287</ele><time>2024-06-29T04:47:54Z</time></trkpt><trkpt lat="36.0573628" lon="139.1592522"><ele>581.8749236001355</ele><time>2024-06-29T04:48:12Z</time></trkpt><trkpt lat="36.0575297" lon="139.1590956"><ele>580.7708826941029</ele><time>2024-06-29T04:48:30Z</time></trkpt><trkpt lat="36.0574724" lon="139.1588579"><ele>578.6935687681103</ele><time>2024-06-29T04:48:45Z</time></trkpt><trkpt lat="36.0575385" lon="139.1586504"><ele>579.2680853082803</ele><time>2024-06-29T04:48:57Z</time></trkpt><trkpt lat="36.0576827" lon="139.1588382"><ele>580.4814707003153</ele><time>2024-06-29T04:49:33Z</time></trkpt><trkpt lat="36.0578686" lon="139.1588882"><ele>581.7983304199996</ele><time>2024-06-29T04:49:48Z</time></trkpt><trkpt lat="36.058054" lon="139.1587752"><ele>583.7586502394034</ele><time>2024-06-29T04:50:03Z</time></trkpt><trkpt lat="36.0582839" lon="139.1588289"><ele>587.9840594619324</ele><time>2024-06-29T04:50:21Z</time></trkpt><trkpt lat="36.058299" lon="139.1590607"><ele>592.1998123086418</ele><time>2024-06-29T04:50:39Z</time></trkpt><trkpt lat="36.058282" lon="139.1592924"><ele>596.2003998810778</ele><time>2024-06-29T04:50:54Z</time></trkpt><trkpt lat="36.0583072" lon="139.1595356"><ele>597.1480400918213</ele><time>2024-06-29T04:51:12Z</time></trkpt><trkpt lat="36.058502" lon="139.1595962"><ele>597.0560258109567</ele><time>2024-06-29T04:51:27Z</time></trkpt><trkpt lat="36.0587216" lon="139.1596694"><ele>595.5543375809518</ele><time>2024-06-29T04:51:39Z</time></trkpt><trkpt lat="36.0588823" lon="139.1597961"><ele>597.9539770092442</ele><time>2024-06-29T04:51:55Z</time></trkpt><trkpt lat="36.0590354" lon="139.1599536"><ele>601.2589884061728</ele><time>2024-06-29T04:52:12Z</time></trkpt><trkpt lat="36.0592143" lon="139.1598863"><ele>603.1242876458713</ele><time>2024-06-29T04:52:22Z</time></trkpt><trkpt lat="36.0593516" lon="139.1597326"><ele>602.0838576772978</ele><time>2024-06-29T04:52:34Z</time></trkpt><trkpt lat="36.0594715" lon="139.1599311"><ele>600.2234781904982</ele><time>2024-06-29T04:53:01Z</time></trkpt><trkpt lat="36.0595986" lon="139.160101"><ele>599.6666247785251</ele><time>2024-06-29T04:53:13Z</time></trkpt><trkpt lat="36.0597663" lon="139.160019"><ele>596.9418195575118</ele><time>2024-06-29T04:53:25Z</time></trkpt><trkpt lat="36.0599705" lon="139.1600218"><ele>595.8213093611196</ele><time>2024-06-29T04:53:43Z</time></trkpt><trkpt lat="36.0599778" lon="139.1602859"><ele>595.0201518699914</ele><time>2024-06-29T04:53:58Z</time></trkpt><trkpt lat="36.0601613" lon="139.1603104"><ele>597.2509703393489</ele><time>2024-06-29T04:54:16Z</time></trkpt><trkpt lat="36.0602641" lon="139.1601067"><ele>598.3734102288909</ele><time>2024-06-29T04:54:29Z</time></trkpt><trkpt lat="36.0603078" lon="139.1598691"><ele>597.9598631480284</ele><time>2024-06-29T04:54:41Z</time></trkpt><trkpt lat="36.0604201" lon="139.1596893"><ele>596.6557432731828</ele><time>2024-06-29T04:54:56Z</time></trkpt><trkpt lat="36.0605806" lon="139.1595403"><ele>595.1497688884228</ele><time>2024-06-29T04:55:11Z</time></trkpt><trkpt lat="36.0606452" lon="139.1592883"><ele>593.6164769649655</ele><time>2024-06-29T04:55:26Z</time></trkpt><trkpt lat="36.0608772" lon="139.1592977"><ele>594.844460125376</ele><time>2024-06-29T04:55:50Z</time></trkpt><trkpt lat="36.0610533" lon="139.159359"><ele>596.4529476965527</ele><time>2024-06-29T04:56:02Z</time></trkpt><trkpt lat="36.0612483" lon="139.1593678"><ele>596.38052534067</ele><time>2024-06-29T04:56:17Z</time></trkpt><trkpt lat="36.0614175" lon="139.159487"><ele>592.9509152777906</ele><time>2024-06-29T04:56:32Z</time></trkpt><trkpt lat="36.0616215" lon="139.1594273"><ele>592.3340244628811</ele><time>2024-06-29T04:56:47Z</time></trkpt><trkpt lat="36.0618393" lon="139.1595773"><ele>594.3813497601832</ele><time>2024-06-29T04:57:00Z</time></trkpt><trkpt lat="36.0620287" lon="139.1595453"><ele>595.3967889045763</ele><time>2024-06-29T04:57:18Z</time></trkpt><trkpt lat="36.0622331" lon="139.1595494"><ele>593.9370345599897</ele><time>2024-06-29T04:57:36Z</time></trkpt><trkpt lat="36.0623958" lon="139.1596917"><ele>594.5629164433591</ele><time>2024-06-29T04:57:45Z</time></trkpt><trkpt lat="36.0624574" lon="139.1594463"><ele>593.5049589619797</ele><time>2024-06-29T04:58:15Z</time></trkpt><trkpt lat="36.062663" lon="139.159474"><ele>593.283056801662</ele><time>2024-06-29T04:58:30Z</time></trkpt><trkpt lat="36.0628554" lon="139.1594883"><ele>591.1118349538754</ele><time>2024-06-29T04:58:45Z</time></trkpt><trkpt lat="36.0630494" lon="139.1595489"><ele>592.3349249704746</ele><time>2024-06-29T04:59:00Z</time></trkpt><trkpt lat="36.0632529" lon="139.1595655"><ele>594.0419425496249</ele><time>2024-06-29T04:59:15Z</time></trkpt><trkpt lat="36.0634393" lon="139.1595915"><ele>594.6392501158815</ele><time>2024-06-29T04:59:30Z</time></trkpt><trkpt lat="36.0636385" lon="139.1595575"><ele>595.0636941357737</ele><time>2024-06-29T04:59:45Z</time></trkpt><trkpt lat="36.0637627" lon="139.159379"><ele>593.4816752453728</ele><time>2024-06-29T04:59:57Z</time></trkpt><trkpt lat="36.0638915" lon="139.1591634"><ele>592.7447096802142</ele><time>2024-06-29T05:00:12Z</time></trkpt><trkpt lat="36.064041" lon="139.1589771"><ele>592.1171882249256</ele><time>2024-06-29T05:00:30Z</time></trkpt><trkpt lat="36.0641892" lon="139.1588466"><ele>591.7609215177941</ele><time>2024-06-29T05:00:42Z</time></trkpt><trkpt lat="36.0643227" lon="139.1586481"><ele>591.6348816586882</ele><time>2024-06-29T05:00:57Z</time></trkpt><trkpt lat="36.064501" lon="139.158587"><ele>593.3798536841837</ele><time>2024-06-29T05:01:42Z</time></trkpt><trkpt lat="36.0646491" lon="139.1587514"><ele>595.9099056294225</ele><time>2024-06-29T05:01:51Z</time></trkpt><trkpt lat="36.064491" lon="139.1588755"><ele>596.0512191089865</ele><time>2024-06-29T05:02:18Z</time></trkpt><trkpt lat="36.0643484" lon="139.1590737"><ele>592.0733920861113</ele><time>2024-06-29T05:02:38Z</time></trkpt><trkpt lat="36.0642283" lon="139.1592511"><ele>587.4636871469287</ele><time>2024-06-29T05:02:59Z</time></trkpt><trkpt lat="36.0640416" lon="139.1592431"><ele>583.6265703972377</ele><time>2024-06-29T05:03:38Z</time></trkpt><trkpt lat="36.0638811" lon="139.1594059"><ele>581.8696862390274</ele><time>2024-06-29T05:03:56Z</time></trkpt><trkpt lat="36.0637976" lon="139.1596279"><ele>581.250525761</ele><time>2024-06-29T05:04:14Z</time></trkpt><trkpt lat="36.0635932" lon="139.1597752"><ele>580.8133558937708</ele><time>2024-06-29T05:04:35Z</time></trkpt><trkpt lat="36.0633964" lon="139.1597813"><ele>580.7946865764501</ele><time>2024-06-29T05:04:50Z</time></trkpt><trkpt lat="36.0632144" lon="139.1600055"><ele>578.7832802207236</ele><time>2024-06-29T05:05:11Z</time></trkpt><trkpt lat="36.063083" lon="139.1601715"><ele>575.7106271204979</ele><time>2024-06-29T05:05:29Z</time></trkpt><trkpt lat="36.062995" lon="139.16037"><ele>573.0875040123132</ele><time>2024-06-29T05:05:41Z</time></trkpt><trkpt lat="36.0629091" lon="139.1605848"><ele>571.2596510619684</ele><time>2024-06-29T05:05:56Z</time></trkpt><trkpt lat="36.062998" lon="139.1608021"><ele>568.3174318701987</ele><time>2024-06-29T05:06:20Z</time></trkpt><trkpt lat="36.0630615" lon="139.1610625"><ele>563.4349658479786</ele><time>2024-06-29T05:06:38Z</time></trkpt><trkpt lat="36.0631936" lon="139.1612372"><ele>558.9128830715282</ele><time>2024-06-29T05:06:59Z</time></trkpt><trkpt lat="36.0630074" lon="139.1611753"><ele>555.6392823614009</ele><time>2024-06-29T05:07:41Z</time></trkpt><trkpt lat="36.0629379" lon="139.1614071"><ele>552.328930388887</ele><time>2024-06-29T05:08:11Z</time></trkpt><trkpt lat="36.0630314" lon="139.1616012"><ele>547.4551385474562</ele><time>2024-06-29T05:08:44Z</time></trkpt><trkpt lat="36.0630007" lon="139.1618457"><ele>542.18413385913</ele><time>2024-06-29T05:09:11Z</time></trkpt><trkpt lat="36.0628806" lon="139.1620412"><ele>536.3120125818119</ele><time>2024-06-29T05:09:35Z</time></trkpt><trkpt lat="36.0629535" lon="139.1622691"><ele>531.0582290066285</ele><time>2024-06-29T05:09:56Z</time></trkpt><trkpt lat="36.0629637" lon="139.162539"><ele>525.2941052824928</ele><time>2024-06-29T05:10:50Z</time></trkpt><trkpt lat="36.0629845" lon="139.1628011"><ele>521.5655096671892</ele><time>2024-06-29T05:11:14Z</time></trkpt><trkpt lat="36.0629752" lon="139.1630376"><ele>518.1892448814688</ele><time>2024-06-29T05:11:29Z</time></trkpt><trkpt lat="36.063098" lon="139.1632273"><ele>516.7237172133601</ele><time>2024-06-29T05:11:44Z</time></trkpt><trkpt lat="36.0632065" lon="139.1634144"><ele>513.7145947723332</ele><time>2024-06-29T05:11:59Z</time></trkpt><trkpt lat="36.0631768" lon="139.1636601"><ele>508.8595017784596</ele><time>2024-06-29T05:12:28Z</time></trkpt><trkpt lat="36.0629673" lon="139.163694"><ele>505.84590906448767</ele><time>2024-06-29T05:12:48Z</time></trkpt><trkpt lat="36.0630425" lon="139.1638966"><ele>501.6804233827381</ele><time>2024-06-29T05:13:06Z</time></trkpt><trkpt lat="36.0631593" lon="139.1641038"><ele>499.4970686659304</ele><time>2024-06-29T05:13:36Z</time></trkpt><trkpt lat="36.0632583" lon="139.1642957"><ele>497.263732190906</ele><time>2024-06-29T05:13:51Z</time></trkpt><trkpt lat="36.0632527" lon="139.1645293"><ele>494.1693037755577</ele><time>2024-06-29T05:14:42Z</time></trkpt><trkpt lat="36.063205" lon="139.1647528"><ele>490.15974882833484</ele><time>2024-06-29T05:15:00Z</time></trkpt><trkpt lat="36.063071" lon="139.16491"><ele>484.63092749963</ele><time>2024-06-29T05:15:24Z</time></trkpt><trkpt lat="36.063071" lon="139.1651403"><ele>479.04948037591384</ele><time>2024-06-29T05:15:45Z</time></trkpt><trkpt lat="36.0630404" lon="139.1653624"><ele>472.52125353466045</ele><time>2024-06-29T05:16:06Z</time></trkpt><trkpt lat="36.06304" lon="139.165634"><ele>465.2046793171646</ele><time>2024-06-29T05:16:48Z</time></trkpt><trkpt lat="36.0631421" lon="139.1658891"><ele>461.42577667659197</ele><time>2024-06-29T05:16:57Z</time></trkpt><trkpt lat="36.063278" lon="139.1660351"><ele>460.87547004782374</ele><time>2024-06-29T05:17:09Z</time></trkpt><trkpt lat="36.0633383" lon="139.1662869"><ele>459.022818166085</ele><time>2024-06-29T05:17:48Z</time></trkpt><trkpt lat="36.0633272" lon="139.1665239"><ele>455.98357612571425</ele><time>2024-06-29T05:18:06Z</time></trkpt><trkpt lat="36.0632241" lon="139.1667366"><ele>450.49169101497387</ele><time>2024-06-29T05:18:30Z</time></trkpt><trkpt lat="36.0633372" lon="139.1669177"><ele>443.33796851724065</ele><time>2024-06-29T05:19:09Z</time></trkpt><trkpt lat="36.0633692" lon="139.1671865"><ele>434.1571192850632</ele><time>2024-06-29T05:19:30Z</time></trkpt><trkpt lat="36.0633781" lon="139.1674478"><ele>426.41429403300253</ele><time>2024-06-29T05:19:53Z</time></trkpt><trkpt lat="36.063346" lon="139.1677055"><ele>422.57749758413956</ele><time>2024-06-29T05:20:05Z</time></trkpt><trkpt lat="36.0633073" lon="139.1679268"><ele>421.6386753624529</ele><time>2024-06-29T05:20:20Z</time></trkpt><trkpt lat="36.0634052" lon="139.168152"><ele>419.73715860742533</ele><time>2024-06-29T05:20:38Z</time></trkpt><trkpt lat="36.0635733" lon="139.1682782"><ele>415.9141948281378</ele><time>2024-06-29T05:20:53Z</time></trkpt><trkpt lat="36.0635768" lon="139.1685096"><ele>412.5094406994173</ele><time>2024-06-29T05:21:38Z</time></trkpt><trkpt lat="36.0635854" lon="139.1687675"><ele>406.7093080596206</ele><time>2024-06-29T05:21:53Z</time></trkpt><trkpt lat="36.0636595" lon="139.1690172"><ele>402.2012085374657</ele><time>2024-06-29T05:22:08Z</time></trkpt><trkpt lat="36.0634692" lon="139.1690441"><ele>390.5117224041556</ele><time>2024-06-29T05:23:56Z</time></trkpt><trkpt lat="36.0636557" lon="139.169174"><ele>383.5741257606039</ele><time>2024-06-29T05:24:41Z</time></trkpt><trkpt lat="36.0637811" lon="139.1693535"><ele>376.9937115831496</ele><time>2024-06-29T05:24:59Z</time></trkpt><trkpt lat="36.0638589" lon="139.1695554"><ele>376.8944843584777</ele><time>2024-06-29T05:25:17Z</time></trkpt><trkpt lat="36.0638542" lon="139.169786"><ele>374.70180847655706</ele><time>2024-06-29T05:25:47Z</time></trkpt><trkpt lat="36.0637459" lon="139.1699664"><ele>373.34676163230387</ele><time>2024-06-29T05:26:11Z</time></trkpt><trkpt lat="36.0637411" lon="139.1701885"><ele>369.7827085088957</ele><time>2024-06-29T05:26:26Z</time></trkpt><trkpt lat="36.0637538" lon="139.1704333"><ele>361.48520889321543</ele><time>2024-06-29T05:28:38Z</time></trkpt><trkpt lat="36.0639452" lon="139.1705563"><ele>357.011043014164</ele><time>2024-06-29T05:29:32Z</time></trkpt><trkpt lat="36.0640515" lon="139.1707357"><ele>354.2460974779311</ele><time>2024-06-29T05:30:29Z</time></trkpt><trkpt lat="36.0639561" lon="139.1709278"><ele>356.36310354725475</ele><time>2024-06-29T05:30:41Z</time></trkpt><trkpt lat="36.0638835" lon="139.1711456"><ele>353.6926688934404</ele><time>2024-06-29T05:31:05Z</time></trkpt><trkpt lat="36.0639822" lon="139.1714086"><ele>348.2303148317183</ele><time>2024-06-29T05:31:38Z</time></trkpt><trkpt lat="36.0640397" lon="139.1716286"><ele>343.80687306610184</ele><time>2024-06-29T05:31:50Z</time></trkpt><trkpt lat="36.064024" lon="139.1718877"><ele>337.02330492007496</ele><time>2024-06-29T05:32:11Z</time></trkpt><trkpt lat="36.064096" lon="139.1721185"><ele>333.64460630300584</ele><time>2024-06-29T05:32:36Z</time></trkpt><trkpt lat="36.0642032" lon="139.1723376"><ele>325.5234396328995</ele><time>2024-06-29T05:33:34Z</time></trkpt><trkpt lat="36.0642823" lon="139.1725601"><ele>319.28566928580466</ele><time>2024-06-29T05:33:55Z</time></trkpt><trkpt lat="36.064196" lon="139.1727983"><ele>313.1055115456242</ele><time>2024-06-29T05:34:31Z</time></trkpt><trkpt lat="36.0640734" lon="139.172982"><ele>309.2820667234398</ele><time>2024-06-29T05:34:49Z</time></trkpt><trkpt lat="36.0641472" lon="139.1732247"><ele>306.16622275629504</ele><time>2024-06-29T05:35:09Z</time></trkpt><trkpt lat="36.0641042" lon="139.1734454"><ele>302.9761333400581</ele><time>2024-06-29T05:35:18Z</time></trkpt><trkpt lat="36.0639192" lon="139.1735962"><ele>300.57501894888696</ele><time>2024-06-29T05:35:57Z</time></trkpt><trkpt lat="36.0637046" lon="139.1736636"><ele>297.04699090578686</ele><time>2024-06-29T05:36:15Z</time></trkpt><trkpt lat="36.0635913" lon="139.1738857"><ele>293.4519145433244</ele><time>2024-06-29T05:36:33Z</time></trkpt><trkpt lat="36.0634775" lon="139.1740916"><ele>291.440141825788</ele><time>2024-06-29T05:36:48Z</time></trkpt><trkpt lat="36.0634166" lon="139.1743112"><ele>287.32481204694267</ele><time>2024-06-29T05:37:27Z</time></trkpt><trkpt lat="36.0634343" lon="139.1745986"><ele>284.0649714835277</ele><time>2024-06-29T05:37:46Z</time></trkpt><trkpt lat="36.0633628" lon="139.1748227"><ele>277.2283930954582</ele><time>2024-06-29T05:38:13Z</time></trkpt><trkpt lat="36.0632382" lon="139.1750263"><ele>274.16381935900046</ele><time>2024-06-29T05:38:37Z</time></trkpt><trkpt lat="36.0631318" lon="139.17521"><ele>271.1944949572316</ele><time>2024-06-29T05:38:55Z</time></trkpt><trkpt lat="36.0630154" lon="139.175394"><ele>267.041940732098</ele><time>2024-06-29T05:39:37Z</time></trkpt><trkpt lat="36.0628448" lon="139.1755381"><ele>262.49653475762346</ele><time>2024-06-29T05:39:58Z</time></trkpt><trkpt lat="36.0627655" lon="139.175812"><ele>256.57599275360013</ele><time>2024-06-29T05:40:13Z</time></trkpt><trkpt lat="36.0626122" lon="139.1759392"><ele>253.49896615603657</ele><time>2024-06-29T05:40:49Z</time></trkpt><trkpt lat="36.0624739" lon="139.1761661"><ele>246.50346726730922</ele><time>2024-06-29T05:41:19Z</time></trkpt><trkpt lat="36.0623078" lon="139.1762672"><ele>239.69733812935792</ele><time>2024-06-29T05:41:31Z</time></trkpt><trkpt lat="36.0623864" lon="139.176495"><ele>233.18434777562643</ele><time>2024-06-29T05:41:47Z</time></trkpt><trkpt lat="36.0623306" lon="139.1767275"><ele>228.24414060749518</ele><time>2024-06-29T05:42:07Z</time></trkpt><trkpt lat="36.0625174" lon="139.1768368"><ele>224.46486181784488</ele><time>2024-06-29T05:42:24Z</time></trkpt><trkpt lat="36.062386" lon="139.17706"><ele>219.48388427511756</ele><time>2024-06-29T05:42:48Z</time></trkpt><trkpt lat="36.0623003" lon="139.177265"><ele>218.9756741415845</ele><time>2024-06-29T05:43:00Z</time></trkpt><trkpt lat="36.0623174" lon="139.1775014"><ele>214.39662973367228</ele><time>2024-06-29T05:43:39Z</time></trkpt><trkpt lat="36.0622607" lon="139.1777155"><ele>209.27287641589047</ele><time>2024-06-29T05:44:03Z</time></trkpt><trkpt lat="36.0623091" lon="139.1779705"><ele>198.63310442464976</ele><time>2024-06-29T05:44:45Z</time></trkpt><trkpt lat="36.0624268" lon="139.17822"><ele>191.84918588284404</ele><time>2024-06-29T05:44:57Z</time></trkpt><trkpt lat="36.0625822" lon="139.1783442"><ele>185.8939389243501</ele><time>2024-06-29T05:45:10Z</time></trkpt><trkpt lat="36.0626855" lon="139.178578"><ele>183.92727007206702</ele><time>2024-06-29T05:45:30Z</time></trkpt><trkpt lat="36.0626232" lon="139.1788384"><ele>181.9604397734054</ele><time>2024-06-29T05:45:44Z</time></trkpt><trkpt lat="36.0625223" lon="139.1790418"><ele>181.9600109223422</ele><time>2024-06-29T05:45:56Z</time></trkpt><trkpt lat="36.0625267" lon="139.1792667"><ele>181.95950200289067</ele><time>2024-06-29T05:46:11Z</time></trkpt><trkpt lat="36.0626536" lon="139.1794872"><ele>181.79250985919097</ele><time>2024-06-29T05:46:26Z</time></trkpt><trkpt lat="36.0627158" lon="139.1797158"><ele>180.1589735306845</ele><time>2024-06-29T05:46:39Z</time></trkpt><trkpt lat="36.0626777" lon="139.1799426"><ele>176.89206844803417</ele><time>2024-06-29T05:47:00Z</time></trkpt><trkpt lat="36.0625223" lon="139.1801269"><ele>173.79160955779335</ele><time>2024-06-29T05:47:18Z</time></trkpt><trkpt lat="36.0623561" lon="139.1802915"><ele>171.69099704975977</ele><time>2024-06-29T05:47:36Z</time></trkpt><trkpt lat="36.0621917" lon="139.180434"><ele>171.41219293874326</ele><time>2024-06-29T05:47:51Z</time></trkpt><trkpt lat="36.0620555" lon="139.1806172"><ele>170.9448692689532</ele><time>2024-06-29T05:48:06Z</time></trkpt></trkseg></trk></gpx>