<?xml version='1.0' encoding='UTF-8'?><gpx creator="YAMAP - https://yamap.com" xsi:schemaLocation="http://www.topografix.com/GPX/1/1 http://www.topografix.com/GPX/1/1/gpx.xsd" version="1.1" xmlns="http://www.topografix.com/GPX/1/1" xmlns:xsi="http://www.w3.org/2001/XMLSchema-instance"><metadata><bounds maxlat="35.8088833" maxlon="139.1225448" minlat="35.7360553" minlon="139.0764969"/></metadata><trk><name>湯久保尾根から御前山</name><number>1</number><trkseg><trkpt lat="35.7367661" lon="139.1225448"><ele>335.2</ele><time>2025-02-22T00:14:16Z</time></trkpt><trkpt lat="35.7369501" lon="139.1225337"><ele>335.97</ele><time>2025-02-22T00:15:19Z</time></trkpt><trkpt lat="35.7370077" lon="139.122286"><ele>335.47333333333336</ele><time>2025-02-22T00:17:01Z</time></trkpt><trkpt lat="35.7369083" lon="139.1220601"><ele>335.85333333333335</ele><time>2025-02-22T00:17:19Z</time></trkpt><trkpt lat="35.7367926" lon="139.1218655"><ele>336.56333333333333</ele><time>2025-02-22T00:17:37Z</time></trkpt><trkpt lat="35.7369296" lon="139.1220251"><ele>337.18333333333334</ele><time>2025-02-22T00:18:23Z</time></trkpt><trkpt lat="35.7371191" lon="139.1219387"><ele>336.8433333333333</ele><time>2025-02-22T00:18:38Z</time></trkpt><trkpt lat="35.7372802" lon="139.1218211"><ele>335.93333333333334</ele><time>2025-02-22T00:19:05Z</time></trkpt><trkpt lat="35.7372506" lon="139.1215951"><ele>336.44</ele><time>2025-02-22T00:19:17Z</time></trkpt><trkpt lat="35.7371805" lon="139.1213363"><ele>338.4266666666667</ele><time>2025-02-22T00:19:32Z</time></trkpt><trkpt lat="35.7371103" lon="139.1210907"><ele>341.5366666666667</ele><time>2025-02-22T00:19:47Z</time></trkpt><trkpt lat="35.7371148" lon="139.1208669"><ele>345.4066666666667</ele><time>2025-02-22T00:20:02Z</time></trkpt><trkpt lat="35.7370659" lon="139.1206347"><ele>350.5</ele><time>2025-02-22T00:20:24Z</time></trkpt><trkpt lat="35.7371611" lon="139.1204139"><ele>355.96999999999997</ele><time>2025-02-22T00:21:06Z</time></trkpt><trkpt lat="35.7369972" lon="139.1202863"><ele>362.8766666666667</ele><time>2025-02-22T00:21:57Z</time></trkpt><trkpt lat="35.7368194" lon="139.1201921"><ele>369.94666666666666</ele><time>2025-02-22T00:22:18Z</time></trkpt><trkpt lat="35.7369082" lon="139.1199959"><ele>379.25666666666666</ele><time>2025-02-22T00:23:21Z</time></trkpt><trkpt lat="35.7367523" lon="139.1198682"><ele>391.22666666666663</ele><time>2025-02-22T00:24:39Z</time></trkpt><trkpt lat="35.7366649" lon="139.1196642"><ele>404.53333333333336</ele><time>2025-02-22T00:25:45Z</time></trkpt><trkpt lat="35.7364755" lon="139.1195625"><ele>416.56333333333333</ele><time>2025-02-22T00:28:03Z</time></trkpt><trkpt lat="35.7364654" lon="139.1193378"><ele>428.68666666666667</ele><time>2025-02-22T00:29:12Z</time></trkpt><trkpt lat="35.7363256" lon="139.1191918"><ele>438.77333333333337</ele><time>2025-02-22T00:30:21Z</time></trkpt><trkpt lat="35.7362153" lon="139.1190035"><ele>452.77</ele><time>2025-02-22T00:31:57Z</time></trkpt><trkpt lat="35.7360553" lon="139.1191459"><ele>459.27</ele><time>2025-02-22T00:32:45Z</time></trkpt><trkpt lat="35.7361644" lon="139.1189344"><ele>465.89000000000004</ele><time>2025-02-22T00:34:06Z</time></trkpt><trkpt lat="35.7362055" lon="139.1187048"><ele>468.8566666666666</ele><time>2025-02-22T00:34:24Z</time></trkpt><trkpt lat="35.7362204" lon="139.1184452"><ele>473.45666666666665</ele><time>2025-02-22T00:34:42Z</time></trkpt><trkpt lat="35.7362256" lon="139.1182061"><ele>475.24</ele><time>2025-02-22T00:34:59Z</time></trkpt><trkpt lat="35.7362382" lon="139.1179844"><ele>473.78333333333336</ele><time>2025-02-22T00:35:15Z</time></trkpt><trkpt lat="35.7362276" lon="139.1177561"><ele>473.3433333333333</ele><time>2025-02-22T00:35:32Z</time></trkpt><trkpt lat="35.7362559" lon="139.1175072"><ele>473.76</ele><time>2025-02-22T00:35:53Z</time></trkpt><trkpt lat="35.7364212" lon="139.1173944"><ele>476.6166666666666</ele><time>2025-02-22T00:36:14Z</time></trkpt><trkpt lat="35.7365956" lon="139.1173207"><ele>478.7866666666667</ele><time>2025-02-22T00:36:45Z</time></trkpt><trkpt lat="35.7367736" lon="139.1172568"><ele>482.28333333333336</ele><time>2025-02-22T00:37:33Z</time></trkpt><trkpt lat="35.7369606" lon="139.1172532"><ele>487.0900000000001</ele><time>2025-02-22T00:38:03Z</time></trkpt><trkpt lat="35.7371253" lon="139.117044"><ele>494.3866666666667</ele><time>2025-02-22T00:39:00Z</time></trkpt><trkpt lat="35.7371973" lon="139.1168148"><ele>500.68333333333334</ele><time>2025-02-22T00:39:24Z</time></trkpt><trkpt lat="35.7372675" lon="139.1165977"><ele>505.6266666666667</ele><time>2025-02-22T00:39:48Z</time></trkpt><trkpt lat="35.7374676" lon="139.1165404"><ele>511.49</ele><time>2025-02-22T00:42:48Z</time></trkpt><trkpt lat="35.7375449" lon="139.1163229"><ele>516.3100000000001</ele><time>2025-02-22T00:43:06Z</time></trkpt><trkpt lat="35.7377157" lon="139.1162348"><ele>520.86</ele><time>2025-02-22T00:43:45Z</time></trkpt><trkpt lat="35.7378742" lon="139.116099"><ele>525.63</ele><time>2025-02-22T00:44:15Z</time></trkpt><trkpt lat="35.7380027" lon="139.1162782"><ele>531.6133333333333</ele><time>2025-02-22T00:45:12Z</time></trkpt><trkpt lat="35.7381055" lon="139.1160754"><ele>538.4</ele><time>2025-02-22T00:45:45Z</time></trkpt><trkpt lat="35.7382347" lon="139.1158854"><ele>543.49</ele><time>2025-02-22T00:46:12Z</time></trkpt><trkpt lat="35.7384601" lon="139.1159032"><ele>550.0966666666667</ele><time>2025-02-22T00:47:42Z</time></trkpt><trkpt lat="35.7386469" lon="139.1158697"><ele>554.4466666666667</ele><time>2025-02-22T00:47:57Z</time></trkpt><trkpt lat="35.7388416" lon="139.1157986"><ele>557.9666666666667</ele><time>2025-02-22T00:48:18Z</time></trkpt><trkpt lat="35.7389888" lon="139.1156448"><ele>558.9266666666667</ele><time>2025-02-22T00:48:45Z</time></trkpt><trkpt lat="35.739085" lon="139.1154424"><ele>560.2333333333333</ele><time>2025-02-22T00:49:06Z</time></trkpt><trkpt lat="35.7392124" lon="139.1152563"><ele>560.7966666666666</ele><time>2025-02-22T00:49:27Z</time></trkpt><trkpt lat="35.7393789" lon="139.1151254"><ele>562.4166666666666</ele><time>2025-02-22T00:50:18Z</time></trkpt><trkpt lat="35.7395615" lon="139.1150406"><ele>563.67</ele><time>2025-02-22T00:50:38Z</time></trkpt><trkpt lat="35.7397289" lon="139.114956"><ele>566.0500000000001</ele><time>2025-02-22T00:50:57Z</time></trkpt><trkpt lat="35.7399093" lon="139.11487"><ele>568.8933333333333</ele><time>2025-02-22T00:51:15Z</time></trkpt><trkpt lat="35.7400811" lon="139.1147196"><ele>572.3233333333333</ele><time>2025-02-22T00:51:57Z</time></trkpt><trkpt lat="35.7402234" lon="139.1145439"><ele>574.9866666666667</ele><time>2025-02-22T00:52:15Z</time></trkpt><trkpt lat="35.7403871" lon="139.1144512"><ele>578.0400000000001</ele><time>2025-02-22T00:52:36Z</time></trkpt><trkpt lat="35.7405818" lon="139.1144007"><ele>580.7266666666666</ele><time>2025-02-22T00:53:03Z</time></trkpt><trkpt lat="35.7407733" lon="139.1143562"><ele>583.2866666666667</ele><time>2025-02-22T00:53:21Z</time></trkpt><trkpt lat="35.740969" lon="139.1143291"><ele>585.66</ele><time>2025-02-22T00:53:39Z</time></trkpt><trkpt lat="35.7411433" lon="139.1142475"><ele>589.2466666666668</ele><time>2025-02-22T00:53:57Z</time></trkpt><trkpt lat="35.7413133" lon="139.1141689"><ele>594.7033333333334</ele><time>2025-02-22T00:54:23Z</time></trkpt><trkpt lat="35.7414983" lon="139.1141204"><ele>601.7033333333334</ele><time>2025-02-22T00:55:33Z</time></trkpt><trkpt lat="35.7416723" lon="139.114031"><ele>608.0366666666667</ele><time>2025-02-22T00:56:27Z</time></trkpt><trkpt lat="35.7418466" lon="139.1139646"><ele>613.72</ele><time>2025-02-22T00:57:03Z</time></trkpt><trkpt lat="35.7420371" lon="139.114022"><ele>617.3433333333334</ele><time>2025-02-22T00:57:36Z</time></trkpt><trkpt lat="35.7422171" lon="139.1141382"><ele>624.19</ele><time>2025-02-22T00:58:09Z</time></trkpt><trkpt lat="35.7423265" lon="139.114329"><ele>631.9900000000001</ele><time>2025-02-22T00:58:32Z</time></trkpt><trkpt lat="35.7424397" lon="139.1145086"><ele>642.4566666666666</ele><time>2025-02-22T00:58:53Z</time></trkpt><trkpt lat="35.7425537" lon="139.1147058"><ele>651.9966666666667</ele><time>2025-02-22T01:00:12Z</time></trkpt><trkpt lat="35.7427231" lon="139.1146033"><ele>661.3100000000001</ele><time>2025-02-22T01:01:54Z</time></trkpt><trkpt lat="35.7428656" lon="139.1144521"><ele>667.2966666666667</ele><time>2025-02-22T01:02:42Z</time></trkpt><trkpt lat="35.7430342" lon="139.1143442"><ele>670.7900000000001</ele><time>2025-02-22T01:03:36Z</time></trkpt><trkpt lat="35.7432312" lon="139.114344"><ele>672.8800000000001</ele><time>2025-02-22T01:03:57Z</time></trkpt><trkpt lat="35.7434162" lon="139.114236"><ele>676.5166666666668</ele><time>2025-02-22T01:04:18Z</time></trkpt><trkpt lat="35.7435818" lon="139.114115"><ele>681.2466666666668</ele><time>2025-02-22T01:04:45Z</time></trkpt><trkpt lat="35.7437056" lon="139.1139323"><ele>687.5833333333334</ele><time>2025-02-22T01:05:21Z</time></trkpt><trkpt lat="35.743822" lon="139.1137143"><ele>694.5833333333334</ele><time>2025-02-22T01:05:45Z</time></trkpt><trkpt lat="35.7439027" lon="139.1135"><ele>699.2199999999999</ele><time>2025-02-22T01:06:06Z</time></trkpt><trkpt lat="35.7439804" lon="139.1132883"><ele>700.7266666666666</ele><time>2025-02-22T01:06:27Z</time></trkpt><trkpt lat="35.7440462" lon="139.1130483"><ele>699.2733333333334</ele><time>2025-02-22T01:06:51Z</time></trkpt><trkpt lat="35.7441721" lon="139.1128739"><ele>698.9733333333334</ele><time>2025-02-22T01:07:24Z</time></trkpt><trkpt lat="35.7443226" lon="139.1127042"><ele>700.2266666666668</ele><time>2025-02-22T01:08:00Z</time></trkpt><trkpt lat="35.7444128" lon="139.1124725"><ele>704.0833333333334</ele><time>2025-02-22T01:08:18Z</time></trkpt><trkpt lat="35.7444333" lon="139.112252"><ele>709.0266666666666</ele><time>2025-02-22T01:09:57Z</time></trkpt><trkpt lat="35.744548" lon="139.1120802"><ele>714.9733333333334</ele><time>2025-02-22T01:10:18Z</time></trkpt><trkpt lat="35.7446662" lon="139.1119048"><ele>721.7333333333332</ele><time>2025-02-22T01:10:51Z</time></trkpt><trkpt lat="35.7447941" lon="139.1117414"><ele>730.7600000000001</ele><time>2025-02-22T01:11:30Z</time></trkpt><trkpt lat="35.7449484" lon="139.1115834"><ele>740.5166666666668</ele><time>2025-02-22T01:12:36Z</time></trkpt><trkpt lat="35.7449741" lon="139.1113536"><ele>749.3866666666667</ele><time>2025-02-22T01:12:57Z</time></trkpt><trkpt lat="35.745123" lon="139.111217"><ele>755.5600000000001</ele><time>2025-02-22T01:13:27Z</time></trkpt><trkpt lat="35.7451849" lon="139.1110042"><ele>760.2633333333333</ele><time>2025-02-22T01:13:54Z</time></trkpt><trkpt lat="35.7452241" lon="139.1107635"><ele>764.2233333333334</ele><time>2025-02-22T01:14:36Z</time></trkpt><trkpt lat="35.7453399" lon="139.1105633"><ele>768.0166666666668</ele><time>2025-02-22T01:14:57Z</time></trkpt><trkpt lat="35.7454219" lon="139.1103604"><ele>771.25</ele><time>2025-02-22T01:15:30Z</time></trkpt><trkpt lat="35.7455448" lon="139.1101528"><ele>775.5</ele><time>2025-02-22T01:16:21Z</time></trkpt><trkpt lat="35.7457078" lon="139.1099998"><ele>780.8400000000001</ele><time>2025-02-22T01:18:03Z</time></trkpt><trkpt lat="35.7458416" lon="139.1098397"><ele>786.8866666666667</ele><time>2025-02-22T01:19:00Z</time></trkpt><trkpt lat="35.7459364" lon="139.1096501"><ele>794.9366666666666</ele><time>2025-02-22T01:20:36Z</time></trkpt><trkpt lat="35.7460374" lon="139.1094653"><ele>803.0433333333334</ele><time>2025-02-22T01:20:51Z</time></trkpt><trkpt lat="35.7461635" lon="139.1092885"><ele>810.9033333333333</ele><time>2025-02-22T01:21:20Z</time></trkpt><trkpt lat="35.7462938" lon="139.109104"><ele>816.0</ele><time>2025-02-22T01:21:44Z</time></trkpt><trkpt lat="35.7463348" lon="139.1088767"><ele>820.4966666666668</ele><time>2025-02-22T01:22:09Z</time></trkpt><trkpt lat="35.7464227" lon="139.1086288"><ele>825.8633333333333</ele><time>2025-02-22T01:23:15Z</time></trkpt><trkpt lat="35.7465157" lon="139.1084228"><ele>829.8766666666667</ele><time>2025-02-22T01:23:35Z</time></trkpt><trkpt lat="35.7466425" lon="139.1081412"><ele>837.0099999999999</ele><time>2025-02-22T01:24:27Z</time></trkpt><trkpt lat="35.7466677" lon="139.1079145"><ele>844.7000000000002</ele><time>2025-02-22T01:25:24Z</time></trkpt><trkpt lat="35.7467085" lon="139.1076976"><ele>854.7433333333333</ele><time>2025-02-22T01:25:45Z</time></trkpt><trkpt lat="35.7467685" lon="139.1074469"><ele>862.6033333333335</ele><time>2025-02-22T01:26:54Z</time></trkpt><trkpt lat="35.7467116" lon="139.1072354"><ele>871.9833333333335</ele><time>2025-02-22T01:27:30Z</time></trkpt><trkpt lat="35.7466409" lon="139.1070118"><ele>880.6500000000001</ele><time>2025-02-22T01:28:12Z</time></trkpt><trkpt lat="35.7465508" lon="139.106797"><ele>888.6733333333333</ele><time>2025-02-22T01:28:45Z</time></trkpt><trkpt lat="35.7464672" lon="139.1066007"><ele>894.1933333333333</ele><time>2025-02-22T01:29:09Z</time></trkpt><trkpt lat="35.7463848" lon="139.1063716"><ele>899.3366666666667</ele><time>2025-02-22T01:29:45Z</time></trkpt><trkpt lat="35.7464438" lon="139.106154"><ele>903.3966666666666</ele><time>2025-02-22T01:30:03Z</time></trkpt><trkpt lat="35.7465203" lon="139.1059481"><ele>907.1266666666667</ele><time>2025-02-22T01:30:46Z</time></trkpt><trkpt lat="35.7465556" lon="139.1057151"><ele>910.5266666666666</ele><time>2025-02-22T01:31:10Z</time></trkpt><trkpt lat="35.7465973" lon="139.1054953"><ele>914.6600000000002</ele><time>2025-02-22T01:31:31Z</time></trkpt><trkpt lat="35.7466438" lon="139.1052741"><ele>917.85</ele><time>2025-02-22T01:31:55Z</time></trkpt><trkpt lat="35.7466478" lon="139.1050345"><ele>920.3066666666667</ele><time>2025-02-22T01:32:16Z</time></trkpt><trkpt lat="35.7466967" lon="139.1048066"><ele>921.2900000000001</ele><time>2025-02-22T01:32:37Z</time></trkpt><trkpt lat="35.7467936" lon="139.1045994"><ele>922.4466666666667</ele><time>2025-02-22T01:32:55Z</time></trkpt><trkpt lat="35.7468973" lon="139.104412"><ele>922.8833333333333</ele><time>2025-02-22T01:33:13Z</time></trkpt><trkpt lat="35.747012" lon="139.1042207"><ele>923.5266666666666</ele><time>2025-02-22T01:33:34Z</time></trkpt><trkpt lat="35.7470752" lon="139.104001"><ele>923.1833333333334</ele><time>2025-02-22T01:33:52Z</time></trkpt><trkpt lat="35.747141" lon="139.1037859"><ele>923.0300000000001</ele><time>2025-02-22T01:34:10Z</time></trkpt><trkpt lat="35.7472199" lon="139.1035652"><ele>920.3100000000001</ele><time>2025-02-22T01:34:28Z</time></trkpt><trkpt lat="35.7472266" lon="139.1033188"><ele>917.2400000000001</ele><time>2025-02-22T01:35:13Z</time></trkpt><trkpt lat="35.7472951" lon="139.103098"><ele>913.5266666666666</ele><time>2025-02-22T01:37:13Z</time></trkpt><trkpt lat="35.7473523" lon="139.1028784"><ele>914.65</ele><time>2025-02-22T01:37:31Z</time></trkpt><trkpt lat="35.7474167" lon="139.1026538"><ele>917.9766666666666</ele><time>2025-02-22T01:37:49Z</time></trkpt><trkpt lat="35.7475067" lon="139.102438"><ele>924.4866666666667</ele><time>2025-02-22T01:38:10Z</time></trkpt><trkpt lat="35.7476284" lon="139.102237"><ele>929.9466666666667</ele><time>2025-02-22T01:38:34Z</time></trkpt><trkpt lat="35.7477129" lon="139.1020124"><ele>936.35</ele><time>2025-02-22T01:39:10Z</time></trkpt><trkpt lat="35.7478551" lon="139.1018347"><ele>942.3066666666667</ele><time>2025-02-22T01:39:31Z</time></trkpt><trkpt lat="35.7479904" lon="139.1016518"><ele>948.6733333333333</ele><time>2025-02-22T01:39:55Z</time></trkpt><trkpt lat="35.7481138" lon="139.1014874"><ele>953.09</ele><time>2025-02-22T01:40:10Z</time></trkpt><trkpt lat="35.748209" lon="139.1012633"><ele>957.0600000000001</ele><time>2025-02-22T01:40:40Z</time></trkpt><trkpt lat="35.7483073" lon="139.1010686"><ele>957.4</ele><time>2025-02-22T01:40:58Z</time></trkpt><trkpt lat="35.7484526" lon="139.100894"><ele>958.84</ele><time>2025-02-22T01:41:58Z</time></trkpt><trkpt lat="35.7485467" lon="139.1006755"><ele>961.61</ele><time>2025-02-22T01:42:19Z</time></trkpt><trkpt lat="35.7485554" lon="139.1004281"><ele>965.1</ele><time>2025-02-22T01:42:46Z</time></trkpt><trkpt lat="35.7486213" lon="139.1002008"><ele>970.31</ele><time>2025-02-22T01:43:22Z</time></trkpt><trkpt lat="35.7486777" lon="139.0999544"><ele>975.2599999999999</ele><time>2025-02-22T01:44:01Z</time></trkpt><trkpt lat="35.7487598" lon="139.0997458"><ele>980.16</ele><time>2025-02-22T01:44:28Z</time></trkpt><trkpt lat="35.7489471" lon="139.0996994"><ele>980.6633333333334</ele><time>2025-02-22T01:44:49Z</time></trkpt><trkpt lat="35.7491443" lon="139.0997399"><ele>980.5100000000001</ele><time>2025-02-22T01:45:10Z</time></trkpt><trkpt lat="35.7493452" lon="139.0997371"><ele>982.4000000000001</ele><time>2025-02-22T01:45:28Z</time></trkpt><trkpt lat="35.749527" lon="139.099689"><ele>986.3466666666667</ele><time>2025-02-22T01:45:49Z</time></trkpt><trkpt lat="35.7497299" lon="139.0996298"><ele>989.6466666666666</ele><time>2025-02-22T01:46:16Z</time></trkpt><trkpt lat="35.7499125" lon="139.0996797"><ele>991.8166666666666</ele><time>2025-02-22T01:46:37Z</time></trkpt><trkpt lat="35.750094" lon="139.0996398"><ele>995.0433333333334</ele><time>2025-02-22T01:47:42Z</time></trkpt><trkpt lat="35.7502104" lon="139.0994683"><ele>997.9966666666666</ele><time>2025-02-22T01:48:54Z</time></trkpt><trkpt lat="35.7503171" lon="139.0992722"><ele>1001.9966666666666</ele><time>2025-02-22T01:49:12Z</time></trkpt><trkpt lat="35.7504215" lon="139.0990553"><ele>1005.9466666666667</ele><time>2025-02-22T01:49:39Z</time></trkpt><trkpt lat="35.7504798" lon="139.0988436"><ele>1008.98</ele><time>2025-02-22T01:50:00Z</time></trkpt><trkpt lat="35.7505824" lon="139.0986349"><ele>1011.1533333333333</ele><time>2025-02-22T01:50:45Z</time></trkpt><trkpt lat="35.7507339" lon="139.0984508"><ele>1009.9266666666666</ele><time>2025-02-22T01:51:03Z</time></trkpt><trkpt lat="35.7508921" lon="139.0983289"><ele>1007.0866666666667</ele><time>2025-02-22T01:51:21Z</time></trkpt><trkpt lat="35.751023" lon="139.09813"><ele>1006.1066666666666</ele><time>2025-02-22T01:52:00Z</time></trkpt><trkpt lat="35.7511249" lon="139.0979312"><ele>1006.9266666666666</ele><time>2025-02-22T01:52:21Z</time></trkpt><trkpt lat="35.7512327" lon="139.0977239"><ele>1010.9133333333334</ele><time>2025-02-22T01:52:38Z</time></trkpt><trkpt lat="35.7513435" lon="139.0975366"><ele>1013.37</ele><time>2025-02-22T01:52:57Z</time></trkpt><trkpt lat="35.7514401" lon="139.0973358"><ele>1015.85</ele><time>2025-02-22T01:53:21Z</time></trkpt><trkpt lat="35.7515681" lon="139.0971399"><ele>1015.8233333333334</ele><time>2025-02-22T01:53:39Z</time></trkpt><trkpt lat="35.751674" lon="139.0969552"><ele>1013.8333333333334</ele><time>2025-02-22T01:53:57Z</time></trkpt><trkpt lat="35.7518017" lon="139.0967758"><ele>1011.6700000000001</ele><time>2025-02-22T01:54:15Z</time></trkpt><trkpt lat="35.7518264" lon="139.0965437"><ele>1010.3000000000001</ele><time>2025-02-22T01:54:36Z</time></trkpt><trkpt lat="35.7518058" lon="139.0963171"><ele>1010.5833333333334</ele><time>2025-02-22T01:54:54Z</time></trkpt><trkpt lat="35.7518619" lon="139.0960768"><ele>1009.9366666666666</ele><time>2025-02-22T01:55:15Z</time></trkpt><trkpt lat="35.7519205" lon="139.0958347"><ele>1007.4533333333334</ele><time>2025-02-22T01:55:33Z</time></trkpt><trkpt lat="35.751979" lon="139.0956156"><ele>1003.7800000000001</ele><time>2025-02-22T01:55:48Z</time></trkpt><trkpt lat="35.7520432" lon="139.0954072"><ele>1001.0466666666667</ele><time>2025-02-22T01:56:03Z</time></trkpt><trkpt lat="35.7521329" lon="139.0951951"><ele>1000.6966666666667</ele><time>2025-02-22T01:56:18Z</time></trkpt><trkpt lat="35.7522644" lon="139.0949863"><ele>1001.2399999999999</ele><time>2025-02-22T01:56:39Z</time></trkpt><trkpt lat="35.7523981" lon="139.0948158"><ele>1001.6700000000001</ele><time>2025-02-22T01:56:51Z</time></trkpt><trkpt lat="35.7525486" lon="139.094633"><ele>1003.3933333333334</ele><time>2025-02-22T01:57:12Z</time></trkpt><trkpt lat="35.752722" lon="139.0944674"><ele>1006.0333333333334</ele><time>2025-02-22T01:57:30Z</time></trkpt><trkpt lat="35.752902" lon="139.0943486"><ele>1009.8166666666667</ele><time>2025-02-22T01:57:51Z</time></trkpt><trkpt lat="35.7530542" lon="139.0942227"><ele>1011.7000000000002</ele><time>2025-02-22T01:58:09Z</time></trkpt><trkpt lat="35.7531997" lon="139.094047"><ele>1012.11</ele><time>2025-02-22T01:58:33Z</time></trkpt><trkpt lat="35.7533597" lon="139.0939233"><ele>1013.1566666666668</ele><time>2025-02-22T01:58:53Z</time></trkpt><trkpt lat="35.7535402" lon="139.0938569"><ele>1015.9766666666666</ele><time>2025-02-22T01:59:11Z</time></trkpt><trkpt lat="35.7537132" lon="139.0937675"><ele>1020.5733333333334</ele><time>2025-02-22T01:59:30Z</time></trkpt><trkpt lat="35.7538543" lon="139.0936219"><ele>1023.8666666666667</ele><time>2025-02-22T01:59:51Z</time></trkpt><trkpt lat="35.7540099" lon="139.0934798"><ele>1026.8666666666668</ele><time>2025-02-22T02:00:12Z</time></trkpt><trkpt lat="35.7541376" lon="139.0932791"><ele>1029.7166666666665</ele><time>2025-02-22T02:01:05Z</time></trkpt><trkpt lat="35.7542401" lon="139.0930809"><ele>1032.4866666666667</ele><time>2025-02-22T02:01:26Z</time></trkpt><trkpt lat="35.7543545" lon="139.0928808"><ele>1035.6533333333334</ele><time>2025-02-22T02:01:50Z</time></trkpt><trkpt lat="35.754414" lon="139.0926439"><ele>1038.3733333333334</ele><time>2025-02-22T02:02:11Z</time></trkpt><trkpt lat="35.754505" lon="139.092428"><ele>1040.78</ele><time>2025-02-22T02:02:41Z</time></trkpt><trkpt lat="35.7546941" lon="139.092449"><ele>1041.32</ele><time>2025-02-22T02:03:48Z</time></trkpt><trkpt lat="35.7548677" lon="139.0925917"><ele>1039.6833333333334</ele><time>2025-02-22T02:04:08Z</time></trkpt><trkpt lat="35.7550231" lon="139.0927077"><ele>1036.6899999999998</ele><time>2025-02-22T02:04:27Z</time></trkpt><trkpt lat="35.7552301" lon="139.0927805"><ele>1033.7366666666667</ele><time>2025-02-22T02:04:48Z</time></trkpt><trkpt lat="35.7554131" lon="139.0927187"><ele>1031.8433333333335</ele><time>2025-02-22T02:05:12Z</time></trkpt><trkpt lat="35.7556043" lon="139.0926267"><ele>1030.5733333333335</ele><time>2025-02-22T02:05:30Z</time></trkpt><trkpt lat="35.7557781" lon="139.0925192"><ele>1027.36</ele><time>2025-02-22T02:05:45Z</time></trkpt><trkpt lat="35.75595" lon="139.0924286"><ele>1022.9</ele><time>2025-02-22T02:06:06Z</time></trkpt><trkpt lat="35.7561342" lon="139.092339"><ele>1017.0266666666666</ele><time>2025-02-22T02:06:27Z</time></trkpt><trkpt lat="35.7562968" lon="139.0922434"><ele>1012.2700000000001</ele><time>2025-02-22T02:06:42Z</time></trkpt><trkpt lat="35.75648" lon="139.0921365"><ele>1007.3800000000001</ele><time>2025-02-22T02:07:00Z</time></trkpt><trkpt lat="35.7566845" lon="139.0920165"><ele>1003.2466666666666</ele><time>2025-02-22T02:07:15Z</time></trkpt><trkpt lat="35.7568403" lon="139.0918377"><ele>998.29</ele><time>2025-02-22T02:07:33Z</time></trkpt><trkpt lat="35.7569723" lon="139.0916814"><ele>995.07</ele><time>2025-02-22T02:07:48Z</time></trkpt><trkpt lat="35.7571537" lon="139.0915983"><ele>994.07</ele><time>2025-02-22T02:08:06Z</time></trkpt><trkpt lat="35.7573365" lon="139.0914667"><ele>996.1466666666666</ele><time>2025-02-22T02:08:21Z</time></trkpt><trkpt lat="35.7575238" lon="139.0913532"><ele>1000.0833333333334</ele><time>2025-02-22T02:08:39Z</time></trkpt><trkpt lat="35.7576843" lon="139.0912441"><ele>1002.9700000000001</ele><time>2025-02-22T02:09:03Z</time></trkpt><trkpt lat="35.7578489" lon="139.0911251"><ele>1004.4900000000001</ele><time>2025-02-22T02:15:15Z</time></trkpt><trkpt lat="35.7579805" lon="139.0909327"><ele>1003.6</ele><time>2025-02-22T02:15:36Z</time></trkpt><trkpt lat="35.7581057" lon="139.0907247"><ele>1002.9166666666666</ele><time>2025-02-22T02:15:51Z</time></trkpt><trkpt lat="35.7582521" lon="139.0905267"><ele>1003.7366666666667</ele><time>2025-02-22T02:16:06Z</time></trkpt><trkpt lat="35.7583674" lon="139.090354"><ele>1006.5833333333334</ele><time>2025-02-22T02:16:21Z</time></trkpt><trkpt lat="35.7585139" lon="139.0901738"><ele>1010.1</ele><time>2025-02-22T02:16:38Z</time></trkpt><trkpt lat="35.7586858" lon="139.0900989"><ele>1013.9833333333335</ele><time>2025-02-22T02:16:53Z</time></trkpt><trkpt lat="35.7588657" lon="139.0900281"><ele>1018.6933333333333</ele><time>2025-02-22T02:17:15Z</time></trkpt><trkpt lat="35.7590775" lon="139.0898457"><ele>1025.7966666666669</ele><time>2025-02-22T02:18:24Z</time></trkpt><trkpt lat="35.7592925" lon="139.0897075"><ele>1035.17</ele><time>2025-02-22T02:19:18Z</time></trkpt><trkpt lat="35.7594382" lon="139.0895648"><ele>1044.7733333333335</ele><time>2025-02-22T02:19:51Z</time></trkpt><trkpt lat="35.7595998" lon="139.0894525"><ele>1053.0866666666668</ele><time>2025-02-22T02:20:45Z</time></trkpt><trkpt lat="35.759717" lon="139.0892757"><ele>1060.5366666666666</ele><time>2025-02-22T02:21:09Z</time></trkpt><trkpt lat="35.7598192" lon="139.0890672"><ele>1068.34</ele><time>2025-02-22T02:21:42Z</time></trkpt><trkpt lat="35.7599054" lon="139.0888607"><ele>1075.1733333333334</ele><time>2025-02-22T02:22:12Z</time></trkpt><trkpt lat="35.760017" lon="139.0886794"><ele>1079.68</ele><time>2025-02-22T02:22:39Z</time></trkpt><trkpt lat="35.7601141" lon="139.0884818"><ele>1082.2766666666666</ele><time>2025-02-22T02:23:36Z</time></trkpt><trkpt lat="35.7601909" lon="139.0882547"><ele>1083.993333333333</ele><time>2025-02-22T02:23:57Z</time></trkpt><trkpt lat="35.7602901" lon="139.0880575"><ele>1086.5366666666666</ele><time>2025-02-22T02:24:18Z</time></trkpt><trkpt lat="35.7604179" lon="139.0878711"><ele>1088.9366666666667</ele><time>2025-02-22T02:24:36Z</time></trkpt><trkpt lat="35.7605564" lon="139.0877204"><ele>1092.29</ele><time>2025-02-22T02:25:06Z</time></trkpt><trkpt lat="35.7607274" lon="139.0876172"><ele>1093.7966666666669</ele><time>2025-02-22T02:25:27Z</time></trkpt><trkpt lat="35.7608687" lon="139.0874679"><ele>1095.9933333333333</ele><time>2025-02-22T02:25:48Z</time></trkpt><trkpt lat="35.7609639" lon="139.0872692"><ele>1098.47</ele><time>2025-02-22T02:26:11Z</time></trkpt><trkpt lat="35.7611033" lon="139.0871004"><ele>1102.3433333333332</ele><time>2025-02-22T02:26:35Z</time></trkpt><trkpt lat="35.7612988" lon="139.0870187"><ele>1106.3799999999999</ele><time>2025-02-22T02:26:52Z</time></trkpt><trkpt lat="35.7613323" lon="139.0867925"><ele>1111.26</ele><time>2025-02-22T02:27:28Z</time></trkpt><trkpt lat="35.7613662" lon="139.0865302"><ele>1118.73</ele><time>2025-02-22T02:28:40Z</time></trkpt><trkpt lat="35.7615592" lon="139.0865658"><ele>1127.2</ele><time>2025-02-22T02:29:16Z</time></trkpt><trkpt lat="35.7617428" lon="139.0865656"><ele>1135.0266666666666</ele><time>2025-02-22T02:30:16Z</time></trkpt><trkpt lat="35.7619241" lon="139.0865866"><ele>1141.6833333333334</ele><time>2025-02-22T02:31:12Z</time></trkpt><trkpt lat="35.7620956" lon="139.0866989"><ele>1147.7633333333333</ele><time>2025-02-22T02:31:51Z</time></trkpt><trkpt lat="35.7622937" lon="139.0867449"><ele>1154.5266666666666</ele><time>2025-02-22T02:32:06Z</time></trkpt><trkpt lat="35.7624822" lon="139.086754"><ele>1159.76</ele><time>2025-02-22T02:32:27Z</time></trkpt><trkpt lat="35.762688" lon="139.0867605"><ele>1163.7100000000003</ele><time>2025-02-22T02:32:54Z</time></trkpt><trkpt lat="35.7628664" lon="139.0868488"><ele>1166.9833333333333</ele><time>2025-02-22T02:33:15Z</time></trkpt><trkpt lat="35.763048" lon="139.0869239"><ele>1171.1366666666665</ele><time>2025-02-22T02:33:51Z</time></trkpt><trkpt lat="35.7632324" lon="139.0868142"><ele>1175.99</ele><time>2025-02-22T02:34:18Z</time></trkpt><trkpt lat="35.7634132" lon="139.0866952"><ele>1179.8733333333332</ele><time>2025-02-22T02:34:45Z</time></trkpt><trkpt lat="35.7635926" lon="139.086638"><ele>1182.9366666666665</ele><time>2025-02-22T02:35:09Z</time></trkpt><trkpt lat="35.7637677" lon="139.0865241"><ele>1185.7833333333333</ele><time>2025-02-22T02:35:27Z</time></trkpt><trkpt lat="35.7639289" lon="139.0863661"><ele>1188.4833333333333</ele><time>2025-02-22T02:35:45Z</time></trkpt><trkpt lat="35.7640577" lon="139.0861874"><ele>1189.79</ele><time>2025-02-22T02:36:21Z</time></trkpt><trkpt lat="35.7642347" lon="139.0861276"><ele>1190.0933333333332</ele><time>2025-02-22T02:36:39Z</time></trkpt><trkpt lat="35.7644236" lon="139.0860461"><ele>1190.4433333333334</ele><time>2025-02-22T02:36:57Z</time></trkpt><trkpt lat="35.7645526" lon="139.0858797"><ele>1192.2233333333334</ele><time>2025-02-22T02:37:12Z</time></trkpt><trkpt lat="35.7647315" lon="139.0857851"><ele>1194.7866666666669</ele><time>2025-02-22T02:37:30Z</time></trkpt><trkpt lat="35.7649091" lon="139.085725"><ele>1199.3966666666668</ele><time>2025-02-22T02:37:57Z</time></trkpt><trkpt lat="35.7651557" lon="139.0857427"><ele>1205.0533333333333</ele><time>2025-02-22T02:38:39Z</time></trkpt><trkpt lat="35.7653145" lon="139.0855739"><ele>1210.6033333333332</ele><time>2025-02-22T02:39:30Z</time></trkpt><trkpt lat="35.7654397" lon="139.0854116"><ele>1214.94</ele><time>2025-02-22T02:39:51Z</time></trkpt><trkpt lat="35.7655738" lon="139.085228"><ele>1219.0666666666666</ele><time>2025-02-22T02:40:15Z</time></trkpt><trkpt lat="35.7656769" lon="139.0850208"><ele>1224.3333333333333</ele><time>2025-02-22T02:41:30Z</time></trkpt><trkpt lat="35.7657718" lon="139.0848064"><ele>1229.3833333333334</ele><time>2025-02-22T02:41:51Z</time></trkpt><trkpt lat="35.7658279" lon="139.0845814"><ele>1234.3666666666668</ele><time>2025-02-22T02:42:15Z</time></trkpt><trkpt lat="35.7658369" lon="139.0843426"><ele>1238.3733333333332</ele><time>2025-02-22T02:42:51Z</time></trkpt><trkpt lat="35.7659337" lon="139.0841503"><ele>1242.4399999999998</ele><time>2025-02-22T02:43:12Z</time></trkpt><trkpt lat="35.7660332" lon="139.0839384"><ele>1244.1233333333332</ele><time>2025-02-22T02:43:33Z</time></trkpt><trkpt lat="35.7661196" lon="139.0837142"><ele>1246.2366666666667</ele><time>2025-02-22T02:43:54Z</time></trkpt><trkpt lat="35.7662481" lon="139.0835447"><ele>1247.8300000000002</ele><time>2025-02-22T02:44:27Z</time></trkpt><trkpt lat="35.7664041" lon="139.0833753"><ele>1250.78</ele><time>2025-02-22T02:44:48Z</time></trkpt><trkpt lat="35.7665111" lon="139.0831908"><ele>1254.18</ele><time>2025-02-22T02:45:09Z</time></trkpt><trkpt lat="35.766756" lon="139.0830638"><ele>1260.0600000000002</ele><time>2025-02-22T02:46:03Z</time></trkpt><trkpt lat="35.7669796" lon="139.0830664"><ele>1267.5733333333335</ele><time>2025-02-22T02:46:54Z</time></trkpt><trkpt lat="35.7671745" lon="139.0831347"><ele>1275.7233333333331</ele><time>2025-02-22T02:47:21Z</time></trkpt><trkpt lat="35.7673548" lon="139.0831429"><ele>1279.8633333333335</ele><time>2025-02-22T02:48:03Z</time></trkpt><trkpt lat="35.767542" lon="139.0830597"><ele>1284.09</ele><time>2025-02-22T02:48:36Z</time></trkpt><trkpt lat="35.7677388" lon="139.0831014"><ele>1287.6333333333334</ele><time>2025-02-22T02:49:36Z</time></trkpt><trkpt lat="35.7679367" lon="139.0830981"><ele>1291.3933333333334</ele><time>2025-02-22T02:49:54Z</time></trkpt><trkpt lat="35.7681028" lon="139.0829583"><ele>1294.88</ele><time>2025-02-22T02:50:15Z</time></trkpt><trkpt lat="35.7682932" lon="139.0828725"><ele>1297.0533333333333</ele><time>2025-02-22T02:50:36Z</time></trkpt><trkpt lat="35.7684851" lon="139.0828188"><ele>1299.3833333333334</ele><time>2025-02-22T02:51:03Z</time></trkpt><trkpt lat="35.7686678" lon="139.0828427"><ele>1300.1333333333334</ele><time>2025-02-22T02:51:24Z</time></trkpt><trkpt lat="35.7688548" lon="139.0828334"><ele>1299.7966666666669</ele><time>2025-02-22T02:51:54Z</time></trkpt><trkpt lat="35.7689952" lon="139.0826822"><ele>1300.6000000000001</ele><time>2025-02-22T02:52:21Z</time></trkpt><trkpt lat="35.7691296" lon="139.0825306"><ele>1303.3500000000001</ele><time>2025-02-22T02:52:42Z</time></trkpt><trkpt lat="35.7693354" lon="139.0825885"><ele>1307.6366666666668</ele><time>2025-02-22T02:53:48Z</time></trkpt><trkpt lat="35.7695217" lon="139.0825577"><ele>1312.99</ele><time>2025-02-22T02:54:12Z</time></trkpt><trkpt lat="35.7697169" lon="139.0826145"><ele>1318.8133333333335</ele><time>2025-02-22T02:54:57Z</time></trkpt><trkpt lat="35.7699153" lon="139.0825985"><ele>1328.6533333333334</ele><time>2025-02-22T02:56:39Z</time></trkpt><trkpt lat="35.7700937" lon="139.0827138"><ele>1336.8033333333335</ele><time>2025-02-22T02:57:39Z</time></trkpt><trkpt lat="35.7701637" lon="139.0825"><ele>1344.75</ele><time>2025-02-22T02:58:15Z</time></trkpt><trkpt lat="35.7702104" lon="139.0822063"><ele>1349.19</ele><time>2025-02-22T02:59:45Z</time></trkpt><trkpt lat="35.7702313" lon="139.0819864"><ele>1356.19</ele><time>2025-02-22T03:00:21Z</time></trkpt><trkpt lat="35.7702415" lon="139.0817518"><ele>1363.3033333333333</ele><time>2025-02-22T03:01:12Z</time></trkpt><trkpt lat="35.7702724" lon="139.0815184"><ele>1370.1233333333337</ele><time>2025-02-22T03:02:09Z</time></trkpt><trkpt lat="35.7702931" lon="139.0812886"><ele>1377.2666666666667</ele><time>2025-02-22T03:02:57Z</time></trkpt><trkpt lat="35.7702972" lon="139.0810642"><ele>1384.6200000000001</ele><time>2025-02-22T03:04:06Z</time></trkpt><trkpt lat="35.7701513" lon="139.080911"><ele>1392.8</ele><time>2025-02-22T03:04:45Z</time></trkpt><trkpt lat="35.7700975" lon="139.0806757"><ele>1399.18</ele><time>2025-02-22T03:05:12Z</time></trkpt><trkpt lat="35.7700704" lon="139.0804129"><ele>1401.7833333333335</ele><time>2025-02-22T03:23:00Z</time></trkpt><trkpt lat="35.7700143" lon="139.0801797"><ele>1401.9399999999998</ele><time>2025-02-22T03:23:24Z</time></trkpt><trkpt lat="35.7700816" lon="139.0799584"><ele>1399.8833333333334</ele><time>2025-02-22T03:23:39Z</time></trkpt><trkpt lat="35.7701405" lon="139.0797486"><ele>1397.8066666666666</ele><time>2025-02-22T03:23:57Z</time></trkpt><trkpt lat="35.7702527" lon="139.0795731"><ele>1395.2766666666666</ele><time>2025-02-22T03:24:39Z</time></trkpt><trkpt lat="35.7704111" lon="139.0794489"><ele>1393.2866666666666</ele><time>2025-02-22T03:24:56Z</time></trkpt><trkpt lat="35.7705564" lon="139.0792876"><ele>1391.18</ele><time>2025-02-22T03:25:11Z</time></trkpt><trkpt lat="35.7706812" lon="139.0791227"><ele>1388.1266666666668</ele><time>2025-02-22T03:25:32Z</time></trkpt><trkpt lat="35.7708123" lon="139.0789546"><ele>1384.3700000000001</ele><time>2025-02-22T03:25:52Z</time></trkpt><trkpt lat="35.770928" lon="139.0787825"><ele>1379.7466666666667</ele><time>2025-02-22T03:26:11Z</time></trkpt><trkpt lat="35.7710394" lon="139.0786061"><ele>1375.4533333333331</ele><time>2025-02-22T03:26:29Z</time></trkpt><trkpt lat="35.7712026" lon="139.0784887"><ele>1369.5166666666667</ele><time>2025-02-22T03:26:55Z</time></trkpt><trkpt lat="35.7711102" lon="139.0782871"><ele>1362.9099999999999</ele><time>2025-02-22T03:27:42Z</time></trkpt><trkpt lat="35.7711477" lon="139.0780607"><ele>1353.1233333333332</ele><time>2025-02-22T03:28:44Z</time></trkpt><trkpt lat="35.7709854" lon="139.0779031"><ele>1346.0766666666666</ele><time>2025-02-22T03:29:08Z</time></trkpt><trkpt lat="35.7711764" lon="139.0778458"><ele>1338.2133333333334</ele><time>2025-02-22T03:29:29Z</time></trkpt><trkpt lat="35.7711497" lon="139.0776152"><ele>1333.5166666666667</ele><time>2025-02-22T03:30:12Z</time></trkpt><trkpt lat="35.7710924" lon="139.0773959"><ele>1328.74</ele><time>2025-02-22T03:30:54Z</time></trkpt><trkpt lat="35.7712569" lon="139.0772888"><ele>1326.1533333333334</ele><time>2025-02-22T03:31:12Z</time></trkpt><trkpt lat="35.771108" lon="139.0774135"><ele>1325.72</ele><time>2025-02-22T03:33:09Z</time></trkpt><trkpt lat="35.771158" lon="139.0776394"><ele>1325.96</ele><time>2025-02-22T03:33:33Z</time></trkpt><trkpt lat="35.7712065" lon="139.0778704"><ele>1328.5466666666666</ele><time>2025-02-22T03:34:00Z</time></trkpt><trkpt lat="35.7710243" lon="139.0778942"><ele>1332.506666666667</ele><time>2025-02-22T03:34:27Z</time></trkpt><trkpt lat="35.7711437" lon="139.078075"><ele>1338.6000000000001</ele><time>2025-02-22T03:35:15Z</time></trkpt><trkpt lat="35.7711724" lon="139.0783269"><ele>1345.9233333333334</ele><time>2025-02-22T03:36:39Z</time></trkpt><trkpt lat="35.7711029" lon="139.0785463"><ele>1355.6599999999999</ele><time>2025-02-22T03:37:57Z</time></trkpt><trkpt lat="35.7709483" lon="139.0786782"><ele>1365.0933333333332</ele><time>2025-02-22T03:38:18Z</time></trkpt><trkpt lat="35.7708781" lon="139.0788981"><ele>1372.9833333333333</ele><time>2025-02-22T03:38:57Z</time></trkpt><trkpt lat="35.7707399" lon="139.0790417"><ele>1378.2</ele><time>2025-02-22T03:39:24Z</time></trkpt><trkpt lat="35.7706499" lon="139.0792341"><ele>1382.46</ele><time>2025-02-22T03:40:18Z</time></trkpt><trkpt lat="35.7704833" lon="139.0793637"><ele>1386.88</ele><time>2025-02-22T03:40:45Z</time></trkpt><trkpt lat="35.7703435" lon="139.0795246"><ele>1389.92</ele><time>2025-02-22T03:41:03Z</time></trkpt><trkpt lat="35.7701816" lon="139.0796591"><ele>1392.2733333333333</ele><time>2025-02-22T03:41:24Z</time></trkpt><trkpt lat="35.7700498" lon="139.0798569"><ele>1394.0766666666668</ele><time>2025-02-22T03:42:12Z</time></trkpt><trkpt lat="35.770029" lon="139.0801186"><ele>1396.6166666666668</ele><time>2025-02-22T03:42:30Z</time></trkpt><trkpt lat="35.7700575" lon="139.0803586"><ele>1398.9433333333334</ele><time>2025-02-22T03:42:45Z</time></trkpt><trkpt lat="35.7701074" lon="139.0805719"><ele>1401.37</ele><time>2025-02-22T03:43:00Z</time></trkpt><trkpt lat="35.7700949" lon="139.0808263"><ele>1402.0500000000002</ele><time>2025-02-22T03:43:48Z</time></trkpt><trkpt lat="35.7702435" lon="139.0810028"><ele>1400.3933333333334</ele><time>2025-02-22T03:44:12Z</time></trkpt><trkpt lat="35.7703131" lon="139.081212"><ele>1395.1233333333332</ele><time>2025-02-22T03:44:57Z</time></trkpt><trkpt lat="35.7704132" lon="139.0814091"><ele>1387.6499999999999</ele><time>2025-02-22T03:45:39Z</time></trkpt><trkpt lat="35.7702786" lon="139.0815905"><ele>1380.8633333333335</ele><time>2025-02-22T03:46:09Z</time></trkpt><trkpt lat="35.7702342" lon="139.081816"><ele>1374.5833333333333</ele><time>2025-02-22T03:46:36Z</time></trkpt><trkpt lat="35.770273" lon="139.0820464"><ele>1368.2166666666665</ele><time>2025-02-22T03:47:27Z</time></trkpt><trkpt lat="35.7702508" lon="139.0822871"><ele>1360.77</ele><time>2025-02-22T03:47:57Z</time></trkpt><trkpt lat="35.7701602" lon="139.0824877"><ele>1354.6633333333334</ele><time>2025-02-22T03:48:27Z</time></trkpt><trkpt lat="35.7703505" lon="139.0825314"><ele>1349.0366666666666</ele><time>2025-02-22T03:49:18Z</time></trkpt><trkpt lat="35.7704999" lon="139.0823901"><ele>1344.11</ele><time>2025-02-22T03:49:45Z</time></trkpt><trkpt lat="35.7706943" lon="139.0822906"><ele>1339.8500000000001</ele><time>2025-02-22T03:50:06Z</time></trkpt><trkpt lat="35.7708616" lon="139.082393"><ele>1339.43</ele><time>2025-02-22T03:50:48Z</time></trkpt><trkpt lat="35.7709149" lon="139.0826436"><ele>1339.3566666666668</ele><time>2025-02-22T03:53:05Z</time></trkpt><trkpt lat="35.7710721" lon="139.0827718"><ele>1338.09</ele><time>2025-02-22T03:53:23Z</time></trkpt><trkpt lat="35.7712603" lon="139.082749"><ele>1333.0833333333333</ele><time>2025-02-22T03:53:47Z</time></trkpt><trkpt lat="35.7714431" lon="139.0827065"><ele>1329.6000000000001</ele><time>2025-02-22T03:54:08Z</time></trkpt><trkpt lat="35.7716313" lon="139.0826856"><ele>1325.75</ele><time>2025-02-22T03:54:48Z</time></trkpt><trkpt lat="35.7718195" lon="139.0827245"><ele>1321.0133333333333</ele><time>2025-02-22T03:55:12Z</time></trkpt><trkpt lat="35.7719205" lon="139.0829214"><ele>1312.97</ele><time>2025-02-22T03:55:40Z</time></trkpt><trkpt lat="35.772037" lon="139.0830958"><ele>1305.986666666667</ele><time>2025-02-22T03:55:54Z</time></trkpt><trkpt lat="35.7721878" lon="139.0832452"><ele>1301.3933333333334</ele><time>2025-02-22T03:56:09Z</time></trkpt><trkpt lat="35.7723773" lon="139.0833208"><ele>1299.1633333333332</ele><time>2025-02-22T03:56:27Z</time></trkpt><trkpt lat="35.7725799" lon="139.0832589"><ele>1296.006666666667</ele><time>2025-02-22T03:56:47Z</time></trkpt><trkpt lat="35.7727857" lon="139.0832296"><ele>1292.6133333333335</ele><time>2025-02-22T03:57:08Z</time></trkpt><trkpt lat="35.7729615" lon="139.0832884"><ele>1288.63</ele><time>2025-02-22T03:57:23Z</time></trkpt><trkpt lat="35.773144" lon="139.083279"><ele>1283.17</ele><time>2025-02-22T03:57:43Z</time></trkpt><trkpt lat="35.7732634" lon="139.0831092"><ele>1275.8633333333335</ele><time>2025-02-22T03:58:09Z</time></trkpt><trkpt lat="35.7733504" lon="139.082892"><ele>1267.3233333333335</ele><time>2025-02-22T04:03:06Z</time></trkpt><trkpt lat="35.7734397" lon="139.0826806"><ele>1258.6866666666667</ele><time>2025-02-22T04:03:45Z</time></trkpt><trkpt lat="35.7735589" lon="139.0825139"><ele>1250.6666666666667</ele><time>2025-02-22T04:04:15Z</time></trkpt><trkpt lat="35.7737624" lon="139.0824973"><ele>1242.8733333333332</ele><time>2025-02-22T04:04:45Z</time></trkpt><trkpt lat="35.7739457" lon="139.0824614"><ele>1237.0366666666666</ele><time>2025-02-22T04:05:06Z</time></trkpt><trkpt lat="35.7740496" lon="139.0826732"><ele>1231.2433333333336</ele><time>2025-02-22T04:05:33Z</time></trkpt><trkpt lat="35.7741815" lon="139.0828316"><ele>1224.66</ele><time>2025-02-22T04:06:00Z</time></trkpt><trkpt lat="35.7743382" lon="139.0830036"><ele>1216.21</ele><time>2025-02-22T04:06:36Z</time></trkpt><trkpt lat="35.7744985" lon="139.0831123"><ele>1207.5233333333333</ele><time>2025-02-22T04:06:57Z</time></trkpt><trkpt lat="35.7746784" lon="139.083208"><ele>1199.0066666666667</ele><time>2025-02-22T04:09:48Z</time></trkpt><trkpt lat="35.7748577" lon="139.0832976"><ele>1192.05</ele><time>2025-02-22T04:10:12Z</time></trkpt><trkpt lat="35.7750388" lon="139.0833391"><ele>1184.6466666666665</ele><time>2025-02-22T04:10:27Z</time></trkpt><trkpt lat="35.7752197" lon="139.0833314"><ele>1176.67</ele><time>2025-02-22T04:11:00Z</time></trkpt><trkpt lat="35.7753174" lon="139.0835354"><ele>1168.7866666666666</ele><time>2025-02-22T04:11:30Z</time></trkpt><trkpt lat="35.7754648" lon="139.0833674"><ele>1161.3233333333335</ele><time>2025-02-22T04:11:54Z</time></trkpt><trkpt lat="35.775627" lon="139.0834699"><ele>1153.0733333333335</ele><time>2025-02-22T04:12:24Z</time></trkpt><trkpt lat="35.7757216" lon="139.0836671"><ele>1145.0166666666667</ele><time>2025-02-22T04:12:45Z</time></trkpt><trkpt lat="35.7758427" lon="139.0838659"><ele>1136.2666666666667</ele><time>2025-02-22T04:13:12Z</time></trkpt><trkpt lat="35.7759893" lon="139.0840254"><ele>1130.5566666666666</ele><time>2025-02-22T04:13:36Z</time></trkpt><trkpt lat="35.7761437" lon="139.0838688"><ele>1123.79</ele><time>2025-02-22T04:13:57Z</time></trkpt><trkpt lat="35.7761457" lon="139.083637"><ele>1118.01</ele><time>2025-02-22T04:14:18Z</time></trkpt><trkpt lat="35.7761553" lon="139.083388"><ele>1111.0866666666668</ele><time>2025-02-22T04:14:39Z</time></trkpt><trkpt lat="35.7762089" lon="139.0831415"><ele>1104.1333333333334</ele><time>2025-02-22T04:14:57Z</time></trkpt><trkpt lat="35.7762913" lon="139.0829347"><ele>1097.18</ele><time>2025-02-22T04:15:15Z</time></trkpt><trkpt lat="35.7763068" lon="139.0827093"><ele>1091.6666666666667</ele><time>2025-02-22T04:15:36Z</time></trkpt><trkpt lat="35.7762964" lon="139.0824677"><ele>1085.95</ele><time>2025-02-22T04:16:05Z</time></trkpt><trkpt lat="35.7762635" lon="139.0822272"><ele>1078.3266666666666</ele><time>2025-02-22T04:16:27Z</time></trkpt><trkpt lat="35.7762019" lon="139.0820127"><ele>1069.0966666666666</ele><time>2025-02-22T04:16:57Z</time></trkpt><trkpt lat="35.7761727" lon="139.0817791"><ele>1061.4800000000002</ele><time>2025-02-22T04:17:24Z</time></trkpt><trkpt lat="35.7761411" lon="139.0815368"><ele>1056.4033333333334</ele><time>2025-02-22T04:18:15Z</time></trkpt><trkpt lat="35.7763241" lon="139.0814217"><ele>1050.76</ele><time>2025-02-22T04:18:59Z</time></trkpt><trkpt lat="35.7765039" lon="139.0813706"><ele>1045.0666666666666</ele><time>2025-02-22T04:19:36Z</time></trkpt><trkpt lat="35.7766624" lon="139.0814779"><ele>1037.9633333333331</ele><time>2025-02-22T04:20:39Z</time></trkpt><trkpt lat="35.7768514" lon="139.0814864"><ele>1031.3466666666666</ele><time>2025-02-22T04:21:03Z</time></trkpt><trkpt lat="35.7770112" lon="139.081628"><ele>1022.1833333333334</ele><time>2025-02-22T04:21:33Z</time></trkpt><trkpt lat="35.777124" lon="139.0818675"><ele>1011.2166666666667</ele><time>2025-02-22T04:22:18Z</time></trkpt><trkpt lat="35.7772846" lon="139.0820177"><ele>999.98</ele><time>2025-02-22T04:23:05Z</time></trkpt><trkpt lat="35.7774424" lon="139.0821538"><ele>988.3666666666667</ele><time>2025-02-22T04:23:38Z</time></trkpt><trkpt lat="35.7775736" lon="139.0823459"><ele>979.8033333333333</ele><time>2025-02-22T04:24:02Z</time></trkpt><trkpt lat="35.777744" lon="139.0822358"><ele>971.2733333333334</ele><time>2025-02-22T04:24:48Z</time></trkpt><trkpt lat="35.777896" lon="139.0820726"><ele>965.9866666666667</ele><time>2025-02-22T04:25:03Z</time></trkpt><trkpt lat="35.777986" lon="139.0818387"><ele>963.3533333333334</ele><time>2025-02-22T04:25:21Z</time></trkpt><trkpt lat="35.7781091" lon="139.0816613"><ele>962.81</ele><time>2025-02-22T04:25:32Z</time></trkpt><trkpt lat="35.7782878" lon="139.0817368"><ele>963.6733333333333</ele><time>2025-02-22T04:25:56Z</time></trkpt><trkpt lat="35.7782202" lon="139.0819599"><ele>961.8633333333333</ele><time>2025-02-22T04:26:13Z</time></trkpt><trkpt lat="35.7782289" lon="139.0821987"><ele>959.59</ele><time>2025-02-22T04:26:31Z</time></trkpt><trkpt lat="35.7783372" lon="139.0824092"><ele>956.7933333333334</ele><time>2025-02-22T04:26:48Z</time></trkpt><trkpt lat="35.778395" lon="139.0826323"><ele>952.9666666666667</ele><time>2025-02-22T04:27:02Z</time></trkpt><trkpt lat="35.7784759" lon="139.082869"><ele>948.57</ele><time>2025-02-22T04:27:19Z</time></trkpt><trkpt lat="35.7785949" lon="139.0830958"><ele>941.5799999999999</ele><time>2025-02-22T04:27:34Z</time></trkpt><trkpt lat="35.778523" lon="139.0833087"><ele>933.7266666666668</ele><time>2025-02-22T04:28:01Z</time></trkpt><trkpt lat="35.7786449" lon="139.0835079"><ele>925.7833333333333</ele><time>2025-02-22T04:28:19Z</time></trkpt><trkpt lat="35.7788149" lon="139.0836549"><ele>918.9733333333334</ele><time>2025-02-22T04:28:36Z</time></trkpt><trkpt lat="35.7789477" lon="139.0838469"><ele>915.2366666666667</ele><time>2025-02-22T04:28:54Z</time></trkpt><trkpt lat="35.7790881" lon="139.0840527"><ele>913.1666666666666</ele><time>2025-02-22T04:29:11Z</time></trkpt><trkpt lat="35.7791754" lon="139.0842514"><ele>910.5633333333334</ele><time>2025-02-22T04:29:25Z</time></trkpt><trkpt lat="35.7792632" lon="139.0844562"><ele>906.2466666666666</ele><time>2025-02-22T04:29:40Z</time></trkpt><trkpt lat="35.7792363" lon="139.0847192"><ele>898.18</ele><time>2025-02-22T04:29:55Z</time></trkpt><trkpt lat="35.7793025" lon="139.0849641"><ele>890.9466666666667</ele><time>2025-02-22T04:30:09Z</time></trkpt><trkpt lat="35.7794678" lon="139.0851181"><ele>883.0133333333333</ele><time>2025-02-22T04:30:27Z</time></trkpt><trkpt lat="35.7796263" lon="139.0852424"><ele>877.7733333333332</ele><time>2025-02-22T04:30:44Z</time></trkpt><trkpt lat="35.779829" lon="139.0853338"><ele>871.4966666666666</ele><time>2025-02-22T04:31:01Z</time></trkpt><trkpt lat="35.7800221" lon="139.0854765"><ele>865.9233333333333</ele><time>2025-02-22T04:31:16Z</time></trkpt><trkpt lat="35.7801515" lon="139.0856577"><ele>859.85</ele><time>2025-02-22T04:31:28Z</time></trkpt><trkpt lat="35.7802921" lon="139.0858269"><ele>853.6166666666667</ele><time>2025-02-22T04:31:47Z</time></trkpt><trkpt lat="35.7803749" lon="139.0860615"><ele>848.5366666666667</ele><time>2025-02-22T04:32:07Z</time></trkpt><trkpt lat="35.7805927" lon="139.0859751"><ele>843.87</ele><time>2025-02-22T04:32:33Z</time></trkpt><trkpt lat="35.7807692" lon="139.086036"><ele>841.9499999999999</ele><time>2025-02-22T04:32:47Z</time></trkpt><trkpt lat="35.7808806" lon="139.0862159"><ele>839.1933333333333</ele><time>2025-02-22T04:33:14Z</time></trkpt><trkpt lat="35.7809592" lon="139.086419"><ele>836.9</ele><time>2025-02-22T04:36:15Z</time></trkpt><trkpt lat="35.7810658" lon="139.0861896"><ele>830.7533333333334</ele><time>2025-02-22T04:36:36Z</time></trkpt><trkpt lat="35.7811742" lon="139.0859604"><ele>827.9966666666668</ele><time>2025-02-22T04:36:51Z</time></trkpt><trkpt lat="35.7813274" lon="139.0858336"><ele>824.6666666666666</ele><time>2025-02-22T04:37:05Z</time></trkpt><trkpt lat="35.7814864" lon="139.0857178"><ele>821.3833333333333</ele><time>2025-02-22T04:37:17Z</time></trkpt><trkpt lat="35.7816639" lon="139.0855895"><ele>817.1433333333333</ele><time>2025-02-22T04:37:35Z</time></trkpt><trkpt lat="35.781844" lon="139.0855552"><ele>811.36</ele><time>2025-02-22T04:37:47Z</time></trkpt><trkpt lat="35.7820277" lon="139.0855834"><ele>806.4566666666666</ele><time>2025-02-22T04:37:59Z</time></trkpt><trkpt lat="35.7821976" lon="139.0854389"><ele>801.3299999999999</ele><time>2025-02-22T04:38:13Z</time></trkpt><trkpt lat="35.7823762" lon="139.085373"><ele>797.8466666666667</ele><time>2025-02-22T04:38:28Z</time></trkpt><trkpt lat="35.7825694" lon="139.0853623"><ele>799.1700000000001</ele><time>2025-02-22T04:38:39Z</time></trkpt><trkpt lat="35.7827715" lon="139.0853438"><ele>801.77</ele><time>2025-02-22T04:38:56Z</time></trkpt><trkpt lat="35.7829669" lon="139.0854346"><ele>804.73</ele><time>2025-02-22T04:39:11Z</time></trkpt><trkpt lat="35.7831582" lon="139.0854047"><ele>804.77</ele><time>2025-02-22T04:39:26Z</time></trkpt><trkpt lat="35.7833512" lon="139.0854574"><ele>801.4200000000001</ele><time>2025-02-22T04:39:40Z</time></trkpt><trkpt lat="35.7834582" lon="139.085236"><ele>797.37</ele><time>2025-02-22T04:40:09Z</time></trkpt><trkpt lat="35.7834506" lon="139.0849764"><ele>788.8466666666667</ele><time>2025-02-22T04:40:42Z</time></trkpt><trkpt lat="35.7834106" lon="139.0847563"><ele>779.4200000000001</ele><time>2025-02-22T04:40:54Z</time></trkpt><trkpt lat="35.7833556" lon="139.084511"><ele>770.69</ele><time>2025-02-22T04:41:11Z</time></trkpt><trkpt lat="35.7834078" lon="139.0842707"><ele>766.7399999999999</ele><time>2025-02-22T04:41:22Z</time></trkpt><trkpt lat="35.7834819" lon="139.0840658"><ele>765.7133333333333</ele><time>2025-02-22T04:41:33Z</time></trkpt><trkpt lat="35.7835967" lon="139.0838668"><ele>765.1033333333334</ele><time>2025-02-22T04:41:47Z</time></trkpt><trkpt lat="35.7837398" lon="139.0836828"><ele>764.0166666666668</ele><time>2025-02-22T04:42:01Z</time></trkpt><trkpt lat="35.7838337" lon="139.0834638"><ele>763.1366666666667</ele><time>2025-02-22T04:42:18Z</time></trkpt><trkpt lat="35.7838045" lon="139.0832366"><ele>762.7733333333332</ele><time>2025-02-22T04:42:30Z</time></trkpt><trkpt lat="35.783656" lon="139.083101"><ele>763.5433333333334</ele><time>2025-02-22T04:42:45Z</time></trkpt><trkpt lat="35.7835332" lon="139.0828865"><ele>763.9366666666666</ele><time>2025-02-22T04:42:59Z</time></trkpt><trkpt lat="35.7834409" lon="139.0826861"><ele>761.8333333333334</ele><time>2025-02-22T04:43:13Z</time></trkpt><trkpt lat="35.7833454" lon="139.0824786"><ele>759.48</ele><time>2025-02-22T04:43:27Z</time></trkpt><trkpt lat="35.7833186" lon="139.0822222"><ele>756.0033333333334</ele><time>2025-02-22T04:44:00Z</time></trkpt><trkpt lat="35.7833296" lon="139.0819425"><ele>755.5133333333333</ele><time>2025-02-22T04:44:33Z</time></trkpt><trkpt lat="35.7835124" lon="139.0818447"><ele>757.39</ele><time>2025-02-22T04:44:51Z</time></trkpt><trkpt lat="35.7837182" lon="139.0818692"><ele>755.7433333333333</ele><time>2025-02-22T04:45:06Z</time></trkpt><trkpt lat="35.7838851" lon="139.0817745"><ele>753.1366666666667</ele><time>2025-02-22T04:45:20Z</time></trkpt><trkpt lat="35.7840689" lon="139.0816558"><ele>745.35</ele><time>2025-02-22T04:45:34Z</time></trkpt><trkpt lat="35.7841485" lon="139.081451"><ele>741.27</ele><time>2025-02-22T04:45:45Z</time></trkpt><trkpt lat="35.7841472" lon="139.0812156"><ele>738.1066666666667</ele><time>2025-02-22T04:46:00Z</time></trkpt><trkpt lat="35.7841929" lon="139.0809444"><ele>736.25</ele><time>2025-02-22T04:46:17Z</time></trkpt><trkpt lat="35.7842202" lon="139.0807233"><ele>736.07</ele><time>2025-02-22T04:46:28Z</time></trkpt><trkpt lat="35.7842506" lon="139.0804841"><ele>735.4766666666666</ele><time>2025-02-22T04:46:42Z</time></trkpt><trkpt lat="35.784302" lon="139.0802715"><ele>735.0866666666666</ele><time>2025-02-22T04:46:57Z</time></trkpt><trkpt lat="35.7844004" lon="139.0800251"><ele>733.6266666666667</ele><time>2025-02-22T04:47:11Z</time></trkpt><trkpt lat="35.784526" lon="139.0798043"><ele>732.3133333333334</ele><time>2025-02-22T04:47:25Z</time></trkpt><trkpt lat="35.7846806" lon="139.0796345"><ele>730.9233333333335</ele><time>2025-02-22T04:47:42Z</time></trkpt><trkpt lat="35.7848741" lon="139.0795634"><ele>728.9733333333334</ele><time>2025-02-22T04:47:59Z</time></trkpt><trkpt lat="35.7850772" lon="139.0795687"><ele>725.1</ele><time>2025-02-22T04:48:13Z</time></trkpt><trkpt lat="35.7852584" lon="139.0796774"><ele>721.9966666666668</ele><time>2025-02-22T04:48:27Z</time></trkpt><trkpt lat="35.7854157" lon="139.0798188"><ele>718.6966666666667</ele><time>2025-02-22T04:48:41Z</time></trkpt><trkpt lat="35.7853353" lon="139.0800195"><ele>717.5533333333333</ele><time>2025-02-22T04:49:01Z</time></trkpt><trkpt lat="35.7852325" lon="139.0802113"><ele>716.8666666666667</ele><time>2025-02-22T04:49:15Z</time></trkpt><trkpt lat="35.7851009" lon="139.0803838"><ele>716.3433333333334</ele><time>2025-02-22T04:49:32Z</time></trkpt><trkpt lat="35.7851939" lon="139.0806207"><ele>712.5333333333334</ele><time>2025-02-22T04:49:50Z</time></trkpt><trkpt lat="35.7853444" lon="139.0804369"><ele>707.6966666666667</ele><time>2025-02-22T04:50:06Z</time></trkpt><trkpt lat="35.7854782" lon="139.0802457"><ele>703.7666666666668</ele><time>2025-02-22T04:50:23Z</time></trkpt><trkpt lat="35.7856641" lon="139.0801697"><ele>701.1</ele><time>2025-02-22T04:50:38Z</time></trkpt><trkpt lat="35.7858224" lon="139.0800384"><ele>698.3533333333334</ele><time>2025-02-22T04:50:49Z</time></trkpt><trkpt lat="35.7858905" lon="139.0798029"><ele>694.8366666666667</ele><time>2025-02-22T04:51:06Z</time></trkpt><trkpt lat="35.7858236" lon="139.0795544"><ele>693.0533333333333</ele><time>2025-02-22T04:51:27Z</time></trkpt><trkpt lat="35.7856617" lon="139.0793753"><ele>692.1666666666666</ele><time>2025-02-22T04:51:44Z</time></trkpt><trkpt lat="35.7855588" lon="139.0791568"><ele>690.52</ele><time>2025-02-22T04:51:59Z</time></trkpt><trkpt lat="35.7855302" lon="139.0789311"><ele>686.29</ele><time>2025-02-22T04:52:14Z</time></trkpt><trkpt lat="35.7854588" lon="139.0787226"><ele>681.9133333333333</ele><time>2025-02-22T04:52:45Z</time></trkpt><trkpt lat="35.7852917" lon="139.0785806"><ele>680.8199999999999</ele><time>2025-02-22T04:53:00Z</time></trkpt><trkpt lat="35.7851943" lon="139.0783642"><ele>681.7933333333334</ele><time>2025-02-22T04:53:15Z</time></trkpt><trkpt lat="35.7851246" lon="139.0781518"><ele>681.9166666666666</ele><time>2025-02-22T04:53:33Z</time></trkpt><trkpt lat="35.7851755" lon="139.07789"><ele>679.2933333333334</ele><time>2025-02-22T04:53:48Z</time></trkpt><trkpt lat="35.7852795" lon="139.0776996"><ele>677.5366666666667</ele><time>2025-02-22T04:54:03Z</time></trkpt><trkpt lat="35.7854734" lon="139.0776289"><ele>676.6366666666667</ele><time>2025-02-22T04:54:18Z</time></trkpt><trkpt lat="35.7856696" lon="139.07761"><ele>674.1466666666666</ele><time>2025-02-22T04:54:36Z</time></trkpt><trkpt lat="35.7858804" lon="139.0776359"><ele>670.0266666666668</ele><time>2025-02-22T04:54:51Z</time></trkpt><trkpt lat="35.7860861" lon="139.0776431"><ele>665.0033333333334</ele><time>2025-02-22T04:55:09Z</time></trkpt><trkpt lat="35.786202" lon="139.0774603"><ele>664.1300000000001</ele><time>2025-02-22T04:55:21Z</time></trkpt><trkpt lat="35.7863088" lon="139.0772344"><ele>664.5533333333334</ele><time>2025-02-22T04:55:38Z</time></trkpt><trkpt lat="35.7865044" lon="139.0770749"><ele>665.4366666666666</ele><time>2025-02-22T04:55:53Z</time></trkpt><trkpt lat="35.7866578" lon="139.0769459"><ele>664.83</ele><time>2025-02-22T04:56:08Z</time></trkpt><trkpt lat="35.7868636" lon="139.0768275"><ele>662.0133333333333</ele><time>2025-02-22T04:56:22Z</time></trkpt><trkpt lat="35.7870374" lon="139.0767329"><ele>659.7733333333334</ele><time>2025-02-22T04:56:34Z</time></trkpt><trkpt lat="35.7872124" lon="139.0766734"><ele>656.8433333333334</ele><time>2025-02-22T04:56:49Z</time></trkpt><trkpt lat="35.7873598" lon="139.0764969"><ele>656.3666666666668</ele><time>2025-02-22T04:57:04Z</time></trkpt><trkpt lat="35.7875296" lon="139.0765781"><ele>654.6833333333334</ele><time>2025-02-22T04:57:18Z</time></trkpt><trkpt lat="35.7876546" lon="139.0767596"><ele>651.6566666666668</ele><time>2025-02-22T04:57:33Z</time></trkpt><trkpt lat="35.787555" lon="139.0769633"><ele>647.0366666666667</ele><time>2025-02-22T04:58:03Z</time></trkpt><trkpt lat="35.7874404" lon="139.0771454"><ele>642.8033333333334</ele><time>2025-02-22T04:58:15Z</time></trkpt><trkpt lat="35.7873218" lon="139.0773272"><ele>639.48</ele><time>2025-02-22T04:58:30Z</time></trkpt><trkpt lat="35.7872456" lon="139.0775334"><ele>636.86</ele><time>2025-02-22T04:58:41Z</time></trkpt><trkpt lat="35.7871773" lon="139.0777671"><ele>634.34</ele><time>2025-02-22T04:58:56Z</time></trkpt><trkpt lat="35.7869507" lon="139.0778093"><ele>632.8366666666667</ele><time>2025-02-22T04:59:16Z</time></trkpt><trkpt lat="35.7867492" lon="139.077703"><ele>632.7833333333333</ele><time>2025-02-22T04:59:31Z</time></trkpt><trkpt lat="35.7869155" lon="139.0778585"><ele>632.0633333333334</ele><time>2025-02-22T04:59:54Z</time></trkpt><trkpt lat="35.7870804" lon="139.0779897"><ele>630.2333333333332</ele><time>2025-02-22T05:00:09Z</time></trkpt><trkpt lat="35.7872732" lon="139.0780157"><ele>626.67</ele><time>2025-02-22T05:00:27Z</time></trkpt><trkpt lat="35.7874337" lon="139.077873"><ele>624.5966666666667</ele><time>2025-02-22T05:00:41Z</time></trkpt><trkpt lat="35.7875564" lon="139.0776829"><ele>623.9266666666667</ele><time>2025-02-22T05:00:56Z</time></trkpt><trkpt lat="35.7875803" lon="139.077936"><ele>622.17</ele><time>2025-02-22T05:01:19Z</time></trkpt><trkpt lat="35.7874657" lon="139.0781382"><ele>619.7833333333334</ele><time>2025-02-22T05:01:40Z</time></trkpt><trkpt lat="35.7873092" lon="139.0783355"><ele>616.7366666666667</ele><time>2025-02-22T05:02:00Z</time></trkpt><trkpt lat="35.7870833" lon="139.078372"><ele>614.29</ele><time>2025-02-22T05:02:18Z</time></trkpt><trkpt lat="35.7868836" lon="139.0783346"><ele>611.5233333333334</ele><time>2025-02-22T05:02:35Z</time></trkpt><trkpt lat="35.7868428" lon="139.078584"><ele>608.7333333333332</ele><time>2025-02-22T05:02:59Z</time></trkpt><trkpt lat="35.7868913" lon="139.0787972"><ele>607.5133333333333</ele><time>2025-02-22T05:03:14Z</time></trkpt><trkpt lat="35.7869407" lon="139.0790472"><ele>606.5033333333332</ele><time>2025-02-22T05:03:28Z</time></trkpt><trkpt lat="35.7870625" lon="139.0792294"><ele>602.5033333333332</ele><time>2025-02-22T05:03:45Z</time></trkpt><trkpt lat="35.7871962" lon="139.0794184"><ele>595.4133333333333</ele><time>2025-02-22T05:04:00Z</time></trkpt><trkpt lat="35.7870854" lon="139.0796314"><ele>588.8299999999999</ele><time>2025-02-22T05:04:23Z</time></trkpt><trkpt lat="35.787007" lon="139.0798513"><ele>585.6666666666666</ele><time>2025-02-22T05:04:38Z</time></trkpt><trkpt lat="35.786985" lon="139.0800835"><ele>582.5300000000001</ele><time>2025-02-22T05:04:53Z</time></trkpt><trkpt lat="35.7870311" lon="139.0803465"><ele>578.3366666666667</ele><time>2025-02-22T05:05:04Z</time></trkpt><trkpt lat="35.7871316" lon="139.0801523"><ele>571.5933333333334</ele><time>2025-02-22T05:05:30Z</time></trkpt><trkpt lat="35.7872307" lon="139.0799236"><ele>567.82</ele><time>2025-02-22T05:05:42Z</time></trkpt><trkpt lat="35.7873307" lon="139.0797362"><ele>564.37</ele><time>2025-02-22T05:05:57Z</time></trkpt><trkpt lat="35.7874378" lon="139.079538"><ele>563.7533333333334</ele><time>2025-02-22T05:06:12Z</time></trkpt><trkpt lat="35.787568" lon="139.0797051"><ele>560.0166666666668</ele><time>2025-02-22T05:06:41Z</time></trkpt><trkpt lat="35.7874592" lon="139.0799241"><ele>558.5233333333334</ele><time>2025-02-22T05:06:59Z</time></trkpt><trkpt lat="35.7875406" lon="139.0801429"><ele>554.7366666666667</ele><time>2025-02-22T05:07:14Z</time></trkpt><trkpt lat="35.7877054" lon="139.0799956"><ele>552.9333333333334</ele><time>2025-02-22T05:07:28Z</time></trkpt><trkpt lat="35.7878079" lon="139.0797856"><ele>549.2866666666667</ele><time>2025-02-22T05:07:45Z</time></trkpt><trkpt lat="35.7879338" lon="139.0796036"><ele>546.9733333333334</ele><time>2025-02-22T05:08:00Z</time></trkpt><trkpt lat="35.7880941" lon="139.0794347"><ele>545.9433333333333</ele><time>2025-02-22T05:08:11Z</time></trkpt><trkpt lat="35.788269" lon="139.0793254"><ele>545.2633333333333</ele><time>2025-02-22T05:08:23Z</time></trkpt><trkpt lat="35.7884716" lon="139.0792333"><ele>542.7033333333334</ele><time>2025-02-22T05:08:40Z</time></trkpt><trkpt lat="35.7886633" lon="139.0791347"><ele>539.1966666666667</ele><time>2025-02-22T05:08:57Z</time></trkpt><trkpt lat="35.7888385" lon="139.0790294"><ele>535.75</ele><time>2025-02-22T05:09:12Z</time></trkpt><trkpt lat="35.7890471" lon="139.078967"><ele>534.3866666666667</ele><time>2025-02-22T05:09:30Z</time></trkpt><trkpt lat="35.7892023" lon="139.0787951"><ele>534.4933333333333</ele><time>2025-02-22T05:09:45Z</time></trkpt><trkpt lat="35.7893692" lon="139.0786841"><ele>533.8166666666667</ele><time>2025-02-22T05:09:57Z</time></trkpt><trkpt lat="35.7895647" lon="139.0787023"><ele>532.6766666666667</ele><time>2025-02-22T05:10:12Z</time></trkpt><trkpt lat="35.7897557" lon="139.0787213"><ele>528.9200000000001</ele><time>2025-02-22T05:10:26Z</time></trkpt><trkpt lat="35.7899298" lon="139.078662"><ele>525.9133333333334</ele><time>2025-02-22T05:10:48Z</time></trkpt><trkpt lat="35.7898079" lon="139.0788524"><ele>521.2866666666667</ele><time>2025-02-22T05:11:15Z</time></trkpt><trkpt lat="35.7896083" lon="139.0788201"><ele>521.9699999999999</ele><time>2025-02-22T05:11:32Z</time></trkpt><trkpt lat="35.7894095" lon="139.0788112"><ele>523.9366666666667</ele><time>2025-02-22T05:11:47Z</time></trkpt><trkpt lat="35.7892779" lon="139.0789831"><ele>526.85</ele><time>2025-02-22T05:11:56Z</time></trkpt><trkpt lat="35.7891651" lon="139.079182"><ele>523.9466666666667</ele><time>2025-02-22T05:12:16Z</time></trkpt><trkpt lat="35.7890749" lon="139.0794624"><ele>516.1633333333333</ele><time>2025-02-22T05:12:39Z</time></trkpt><trkpt lat="35.7892504" lon="139.0795487"><ele>508.8433333333333</ele><time>2025-02-22T05:13:06Z</time></trkpt><trkpt lat="35.7894461" lon="139.0794949"><ele>502.39000000000004</ele><time>2025-02-22T05:13:21Z</time></trkpt><trkpt lat="35.7896587" lon="139.0795303"><ele>497.76</ele><time>2025-02-22T05:13:36Z</time></trkpt><trkpt lat="35.7898495" lon="139.0795041"><ele>494.25666666666666</ele><time>2025-02-22T05:13:48Z</time></trkpt><trkpt lat="35.7900395" lon="139.0795503"><ele>493.31333333333333</ele><time>2025-02-22T05:14:06Z</time></trkpt><trkpt lat="35.7902652" lon="139.0795852"><ele>494.4466666666667</ele><time>2025-02-22T05:14:23Z</time></trkpt><trkpt lat="35.7904606" lon="139.0795071"><ele>494.81</ele><time>2025-02-22T05:14:38Z</time></trkpt><trkpt lat="35.7906107" lon="139.0793607"><ele>492.59</ele><time>2025-02-22T05:14:51Z</time></trkpt><trkpt lat="35.7907808" lon="139.0792787"><ele>489.37000000000006</ele><time>2025-02-22T05:15:05Z</time></trkpt><trkpt lat="35.790983" lon="139.0792856"><ele>486.49</ele><time>2025-02-22T05:15:21Z</time></trkpt><trkpt lat="35.7911538" lon="139.0792067"><ele>485.06666666666666</ele><time>2025-02-22T05:15:42Z</time></trkpt><trkpt lat="35.791344" lon="139.0791481"><ele>484.4766666666667</ele><time>2025-02-22T05:15:57Z</time></trkpt><trkpt lat="35.7915217" lon="139.0790196"><ele>482.2</ele><time>2025-02-22T05:16:12Z</time></trkpt><trkpt lat="35.7917265" lon="139.0789188"><ele>479.24666666666667</ele><time>2025-02-22T05:16:29Z</time></trkpt><trkpt lat="35.7919452" lon="139.0788694"><ele>478.78999999999996</ele><time>2025-02-22T05:16:44Z</time></trkpt><trkpt lat="35.7921446" lon="139.078775"><ele>479.61999999999995</ele><time>2025-02-22T05:17:01Z</time></trkpt><trkpt lat="35.7922997" lon="139.078592"><ele>478.93666666666667</ele><time>2025-02-22T05:17:15Z</time></trkpt><trkpt lat="35.7924329" lon="139.0784237"><ele>475.04</ele><time>2025-02-22T05:17:27Z</time></trkpt><trkpt lat="35.792573" lon="139.0782568"><ele>469.60999999999996</ele><time>2025-02-22T05:17:41Z</time></trkpt><trkpt lat="35.7927226" lon="139.0781002"><ele>463.68666666666667</ele><time>2025-02-22T05:17:55Z</time></trkpt><trkpt lat="35.7929246" lon="139.0781082"><ele>458.92333333333335</ele><time>2025-02-22T05:18:10Z</time></trkpt><trkpt lat="35.7931211" lon="139.0780966"><ele>456.47333333333336</ele><time>2025-02-22T05:18:24Z</time></trkpt><trkpt lat="35.7932823" lon="139.0779521"><ele>453.30999999999995</ele><time>2025-02-22T05:18:42Z</time></trkpt><trkpt lat="35.7934386" lon="139.077811"><ele>448.58666666666664</ele><time>2025-02-22T05:18:53Z</time></trkpt><trkpt lat="35.7936333" lon="139.0777251"><ele>444.1666666666667</ele><time>2025-02-22T05:19:08Z</time></trkpt><trkpt lat="35.7938448" lon="139.0776558"><ele>443.77</ele><time>2025-02-22T05:19:23Z</time></trkpt><trkpt lat="35.7940134" lon="139.0774989"><ele>442.73</ele><time>2025-02-22T05:19:38Z</time></trkpt><trkpt lat="35.7941784" lon="139.0773809"><ele>439.0566666666667</ele><time>2025-02-22T05:19:53Z</time></trkpt><trkpt lat="35.7943568" lon="139.0772957"><ele>433.8766666666667</ele><time>2025-02-22T05:20:05Z</time></trkpt><trkpt lat="35.7945519" lon="139.0771687"><ele>427.16</ele><time>2025-02-22T05:20:19Z</time></trkpt><trkpt lat="35.794748" lon="139.0772728"><ele>423.28</ele><time>2025-02-22T05:20:36Z</time></trkpt><trkpt lat="35.7948821" lon="139.0774411"><ele>420.7866666666667</ele><time>2025-02-22T05:20:50Z</time></trkpt><trkpt lat="35.7950526" lon="139.0775795"><ele>420.38000000000005</ele><time>2025-02-22T05:21:04Z</time></trkpt><trkpt lat="35.7951678" lon="139.0777955"><ele>419.8533333333334</ele><time>2025-02-22T05:21:19Z</time></trkpt><trkpt lat="35.7952943" lon="139.0779698"><ele>417.57</ele><time>2025-02-22T05:21:33Z</time></trkpt><trkpt lat="35.7954263" lon="139.07817"><ele>415.1033333333333</ele><time>2025-02-22T05:21:48Z</time></trkpt><trkpt lat="35.7955759" lon="139.0783271"><ele>409.97333333333336</ele><time>2025-02-22T05:22:02Z</time></trkpt><trkpt lat="35.7956966" lon="139.0785308"><ele>405.34666666666664</ele><time>2025-02-22T05:22:17Z</time></trkpt><trkpt lat="35.7958518" lon="139.0786899"><ele>402.4533333333334</ele><time>2025-02-22T05:22:34Z</time></trkpt><trkpt lat="35.7960378" lon="139.0787714"><ele>399.9633333333333</ele><time>2025-02-22T05:22:46Z</time></trkpt><trkpt lat="35.7961575" lon="139.0790033"><ele>398.4666666666667</ele><time>2025-02-22T05:23:04Z</time></trkpt><trkpt lat="35.7963013" lon="139.0791613"><ele>395.92</ele><time>2025-02-22T05:23:16Z</time></trkpt><trkpt lat="35.7964973" lon="139.0791991"><ele>396.38000000000005</ele><time>2025-02-22T05:23:37Z</time></trkpt><trkpt lat="35.7966026" lon="139.079008"><ele>394.75666666666666</ele><time>2025-02-22T05:23:49Z</time></trkpt><trkpt lat="35.7967537" lon="139.0791419"><ele>395.24333333333334</ele><time>2025-02-22T05:24:03Z</time></trkpt><trkpt lat="35.7969459" lon="139.0791836"><ele>394.50666666666666</ele><time>2025-02-22T05:24:17Z</time></trkpt><trkpt lat="35.7971231" lon="139.0790568"><ele>395.50666666666666</ele><time>2025-02-22T05:24:32Z</time></trkpt><trkpt lat="35.7973138" lon="139.0789696"><ele>395.00333333333333</ele><time>2025-02-22T05:24:46Z</time></trkpt><trkpt lat="35.7975067" lon="139.0789457"><ele>395.00666666666666</ele><time>2025-02-22T05:25:03Z</time></trkpt><trkpt lat="35.7976937" lon="139.0789165"><ele>394.49333333333334</ele><time>2025-02-22T05:25:14Z</time></trkpt><trkpt lat="35.7978921" lon="139.0789436"><ele>395.66</ele><time>2025-02-22T05:25:28Z</time></trkpt><trkpt lat="35.7980724" lon="139.0789014"><ele>395.45</ele><time>2025-02-22T05:25:47Z</time></trkpt><trkpt lat="35.7980785" lon="139.0786764"><ele>392.78666666666663</ele><time>2025-02-22T05:25:59Z</time></trkpt><trkpt lat="35.7980299" lon="139.0784347"><ele>379.93666666666667</ele><time>2025-02-22T05:26:11Z</time></trkpt><trkpt lat="35.7979652" lon="139.0781764"><ele>367.31333333333333</ele><time>2025-02-22T05:26:25Z</time></trkpt><trkpt lat="35.7979186" lon="139.0779145"><ele>363.96000000000004</ele><time>2025-02-22T05:26:39Z</time></trkpt><trkpt lat="35.7980524" lon="139.0777306"><ele>372.3233333333333</ele><time>2025-02-22T05:26:57Z</time></trkpt><trkpt lat="35.7982604" lon="139.077693"><ele>383.75</ele><time>2025-02-22T05:27:15Z</time></trkpt><trkpt lat="35.7984435" lon="139.0776344"><ele>391.8933333333334</ele><time>2025-02-22T05:27:29Z</time></trkpt><trkpt lat="35.7986669" lon="139.0776773"><ele>396.30333333333334</ele><time>2025-02-22T05:27:47Z</time></trkpt><trkpt lat="35.7988504" lon="139.0777417"><ele>397.52333333333337</ele><time>2025-02-22T05:28:02Z</time></trkpt><trkpt lat="35.7990648" lon="139.0777079"><ele>397.1933333333334</ele><time>2025-02-22T05:28:19Z</time></trkpt><trkpt lat="35.7992479" lon="139.0776444"><ele>396.59</ele><time>2025-02-22T05:28:43Z</time></trkpt><trkpt lat="35.7993923" lon="139.0774457"><ele>398.44000000000005</ele><time>2025-02-22T05:29:10Z</time></trkpt><trkpt lat="35.7994653" lon="139.0772319"><ele>399.0933333333334</ele><time>2025-02-22T05:29:25Z</time></trkpt><trkpt lat="35.799644" lon="139.0771573"><ele>400.6966666666667</ele><time>2025-02-22T05:29:43Z</time></trkpt><trkpt lat="35.7998164" lon="139.0772488"><ele>403.1433333333334</ele><time>2025-02-22T05:29:55Z</time></trkpt><trkpt lat="35.79992" lon="139.0774326"><ele>403.3933333333334</ele><time>2025-02-22T05:30:37Z</time></trkpt><trkpt lat="35.8001032" lon="139.0775195"><ele>401.95</ele><time>2025-02-22T05:30:52Z</time></trkpt><trkpt lat="35.8003273" lon="139.0774286"><ele>398.95666666666665</ele><time>2025-02-22T05:31:10Z</time></trkpt><trkpt lat="35.8005509" lon="139.0774696"><ele>401.96000000000004</ele><time>2025-02-22T05:31:22Z</time></trkpt><trkpt lat="35.8007497" lon="139.0775307"><ele>406.5466666666666</ele><time>2025-02-22T05:31:37Z</time></trkpt><trkpt lat="35.8009335" lon="139.0776457"><ele>408.00666666666666</ele><time>2025-02-22T05:31:51Z</time></trkpt><trkpt lat="35.8011157" lon="139.0776962"><ele>406.01</ele><time>2025-02-22T05:32:06Z</time></trkpt><trkpt lat="35.8013209" lon="139.0777012"><ele>406.0</ele><time>2025-02-22T05:32:20Z</time></trkpt><trkpt lat="35.8015025" lon="139.0777539"><ele>409.81666666666666</ele><time>2025-02-22T05:32:35Z</time></trkpt><trkpt lat="35.8016504" lon="139.0778988"><ele>415.91333333333336</ele><time>2025-02-22T05:32:49Z</time></trkpt><trkpt lat="35.8017629" lon="139.0781836"><ele>418.67</ele><time>2025-02-22T05:33:01Z</time></trkpt><trkpt lat="35.8018401" lon="139.0784129"><ele>416.09</ele><time>2025-02-22T05:33:12Z</time></trkpt><trkpt lat="35.8020214" lon="139.0784104"><ele>409.41</ele><time>2025-02-22T05:33:30Z</time></trkpt><trkpt lat="35.8021719" lon="139.0782498"><ele>403.9066666666667</ele><time>2025-02-22T05:33:48Z</time></trkpt><trkpt lat="35.8023816" lon="139.078165"><ele>401.31666666666666</ele><time>2025-02-22T05:34:02Z</time></trkpt><trkpt lat="35.8025389" lon="139.0780527"><ele>403.43</ele><time>2025-02-22T05:34:14Z</time></trkpt><trkpt lat="35.8027306" lon="139.0779604"><ele>406.2366666666667</ele><time>2025-02-22T05:34:29Z</time></trkpt><trkpt lat="35.8029096" lon="139.077924"><ele>407.9533333333333</ele><time>2025-02-22T05:35:17Z</time></trkpt><trkpt lat="35.803215" lon="139.07816"><ele>402.24666666666667</ele><time>2025-02-22T05:35:51Z</time></trkpt><trkpt lat="35.8030574" lon="139.0782915"><ele>394.56333333333333</ele><time>2025-02-22T05:36:57Z</time></trkpt><trkpt lat="35.8028781" lon="139.0782492"><ele>388.56</ele><time>2025-02-22T05:37:09Z</time></trkpt><trkpt lat="35.8027443" lon="139.0785042"><ele>387.46</ele><time>2025-02-22T05:37:42Z</time></trkpt><trkpt lat="35.8026052" lon="139.0786591"><ele>387.8066666666667</ele><time>2025-02-22T05:37:57Z</time></trkpt><trkpt lat="35.8024876" lon="139.0788389"><ele>387.91333333333336</ele><time>2025-02-22T05:38:12Z</time></trkpt><trkpt lat="35.8024299" lon="139.0790512"><ele>388.23</ele><time>2025-02-22T05:38:24Z</time></trkpt><trkpt lat="35.8023714" lon="139.079312"><ele>392.49</ele><time>2025-02-22T05:38:41Z</time></trkpt><trkpt lat="35.8022361" lon="139.0794667"><ele>394.32666666666665</ele><time>2025-02-22T05:38:50Z</time></trkpt><trkpt lat="35.8021788" lon="139.0797206"><ele>395.62000000000006</ele><time>2025-02-22T05:39:07Z</time></trkpt><trkpt lat="35.8021476" lon="139.0799472"><ele>392.25666666666666</ele><time>2025-02-22T05:39:27Z</time></trkpt><trkpt lat="35.8020905" lon="139.0801877"><ele>392.81</ele><time>2025-02-22T05:39:39Z</time></trkpt><trkpt lat="35.8020587" lon="139.0805145"><ele>393.3733333333333</ele><time>2025-02-22T05:40:00Z</time></trkpt><trkpt lat="35.8019938" lon="139.0807593"><ele>393.59666666666664</ele><time>2025-02-22T05:40:14Z</time></trkpt><trkpt lat="35.8018795" lon="139.0809308"><ele>391.93</ele><time>2025-02-22T05:41:06Z</time></trkpt><trkpt lat="35.8017432" lon="139.081162"><ele>389.27</ele><time>2025-02-22T05:41:18Z</time></trkpt><trkpt lat="35.8016832" lon="139.0814176"><ele>388.3433333333334</ele><time>2025-02-22T05:41:36Z</time></trkpt><trkpt lat="35.8015834" lon="139.0816942"><ele>388.1266666666667</ele><time>2025-02-22T05:41:57Z</time></trkpt><trkpt lat="35.8014759" lon="139.081932"><ele>388.6666666666667</ele><time>2025-02-22T05:42:11Z</time></trkpt><trkpt lat="35.8013348" lon="139.0820755"><ele>388.4533333333334</ele><time>2025-02-22T05:42:23Z</time></trkpt><trkpt lat="35.8011408" lon="139.0822188"><ele>388.17333333333335</ele><time>2025-02-22T05:42:34Z</time></trkpt><trkpt lat="35.8009442" lon="139.0823105"><ele>387.31333333333333</ele><time>2025-02-22T05:42:49Z</time></trkpt><trkpt lat="35.8007295" lon="139.0825464"><ele>387.3833333333334</ele><time>2025-02-22T05:43:12Z</time></trkpt><trkpt lat="35.8005437" lon="139.0826562"><ele>384.9266666666667</ele><time>2025-02-22T05:43:24Z</time></trkpt><trkpt lat="35.8003692" lon="139.0827685"><ele>382.9766666666667</ele><time>2025-02-22T05:43:35Z</time></trkpt><trkpt lat="35.8001508" lon="139.0827693"><ele>378.94</ele><time>2025-02-22T05:43:49Z</time></trkpt><trkpt lat="35.7999641" lon="139.0827847"><ele>376.82</ele><time>2025-02-22T05:44:04Z</time></trkpt><trkpt lat="35.7998205" lon="139.0829219"><ele>375.27000000000004</ele><time>2025-02-22T05:44:24Z</time></trkpt><trkpt lat="35.7996318" lon="139.0830004"><ele>375.0333333333333</ele><time>2025-02-22T05:44:33Z</time></trkpt><trkpt lat="35.7994486" lon="139.0830645"><ele>376.54333333333335</ele><time>2025-02-22T05:44:48Z</time></trkpt><trkpt lat="35.7994354" lon="139.0832956"><ele>379.07</ele><time>2025-02-22T05:46:18Z</time></trkpt><trkpt lat="35.7992749" lon="139.0833971"><ele>381.0933333333333</ele><time>2025-02-22T05:46:36Z</time></trkpt><trkpt lat="35.7991589" lon="139.0836106"><ele>381.17666666666673</ele><time>2025-02-22T05:47:00Z</time></trkpt><trkpt lat="35.7991361" lon="139.0838473"><ele>378.27666666666664</ele><time>2025-02-22T05:47:12Z</time></trkpt><trkpt lat="35.7991882" lon="139.0840682"><ele>375.56666666666666</ele><time>2025-02-22T05:47:27Z</time></trkpt><trkpt lat="35.7992261" lon="139.0843109"><ele>372.7966666666667</ele><time>2025-02-22T05:47:42Z</time></trkpt><trkpt lat="35.7994648" lon="139.0845036"><ele>370.45</ele><time>2025-02-22T05:48:08Z</time></trkpt><trkpt lat="35.7996466" lon="139.0844834"><ele>368.19</ele><time>2025-02-22T05:48:17Z</time></trkpt><trkpt lat="35.7998794" lon="139.0845216"><ele>365.67333333333335</ele><time>2025-02-22T05:48:40Z</time></trkpt><trkpt lat="35.8000824" lon="139.0845659"><ele>362.49</ele><time>2025-02-22T05:48:52Z</time></trkpt><trkpt lat="35.8002674" lon="139.0845839"><ele>359.1766666666667</ele><time>2025-02-22T05:49:09Z</time></trkpt><trkpt lat="35.8004664" lon="139.084582"><ele>356.84999999999997</ele><time>2025-02-22T05:49:18Z</time></trkpt><trkpt lat="35.800644" lon="139.0844782"><ele>356.33</ele><time>2025-02-22T05:49:30Z</time></trkpt><trkpt lat="35.800865" lon="139.0845561"><ele>355.16333333333336</ele><time>2025-02-22T05:49:53Z</time></trkpt><trkpt lat="35.8010766" lon="139.0846427"><ele>352.56</ele><time>2025-02-22T05:50:02Z</time></trkpt><trkpt lat="35.8012713" lon="139.0848071"><ele>347.53999999999996</ele><time>2025-02-22T05:50:16Z</time></trkpt><trkpt lat="35.8014365" lon="139.0849482"><ele>345.68</ele><time>2025-02-22T05:50:30Z</time></trkpt><trkpt lat="35.8015845" lon="139.0851002"><ele>347.3066666666667</ele><time>2025-02-22T05:50:42Z</time></trkpt><trkpt lat="35.8017013" lon="139.0853005"><ele>351.73</ele><time>2025-02-22T05:50:56Z</time></trkpt><trkpt lat="35.801818" lon="139.0855183"><ele>353.1033333333333</ele><time>2025-02-22T05:51:10Z</time></trkpt><trkpt lat="35.8018462" lon="139.0857607"><ele>353.54</ele><time>2025-02-22T05:51:25Z</time></trkpt><trkpt lat="35.8017961" lon="139.0859977"><ele>354.3966666666667</ele><time>2025-02-22T05:51:39Z</time></trkpt><trkpt lat="35.8018322" lon="139.0862675"><ele>356.13000000000005</ele><time>2025-02-22T05:51:53Z</time></trkpt><trkpt lat="35.8018098" lon="139.0865582"><ele>357.2</ele><time>2025-02-22T05:52:13Z</time></trkpt><trkpt lat="35.8018329" lon="139.0867786"><ele>356.95000000000005</ele><time>2025-02-22T05:52:24Z</time></trkpt><trkpt lat="35.8018053" lon="139.0870301"><ele>356.49</ele><time>2025-02-22T05:52:35Z</time></trkpt><trkpt lat="35.8017888" lon="139.0872723"><ele>355.95</ele><time>2025-02-22T05:52:47Z</time></trkpt><trkpt lat="35.8017156" lon="139.0875307"><ele>355.3633333333334</ele><time>2025-02-22T05:53:01Z</time></trkpt><trkpt lat="35.8015902" lon="139.0877222"><ele>355.2166666666667</ele><time>2025-02-22T05:53:13Z</time></trkpt><trkpt lat="35.8014628" lon="139.0879113"><ele>354.8833333333334</ele><time>2025-02-22T05:53:33Z</time></trkpt><trkpt lat="35.8013139" lon="139.0880386"><ele>354.62999999999994</ele><time>2025-02-22T05:53:42Z</time></trkpt><trkpt lat="35.8011529" lon="139.0881831"><ele>354.25</ele><time>2025-02-22T05:53:59Z</time></trkpt><trkpt lat="35.8010445" lon="139.0883706"><ele>353.7633333333333</ele><time>2025-02-22T05:54:08Z</time></trkpt><trkpt lat="35.8009131" lon="139.0885636"><ele>352.9366666666667</ele><time>2025-02-22T05:54:22Z</time></trkpt><trkpt lat="35.8008337" lon="139.0888269"><ele>350.68666666666667</ele><time>2025-02-22T05:54:36Z</time></trkpt><trkpt lat="35.8007943" lon="139.089103"><ele>346.0733333333333</ele><time>2025-02-22T05:54:53Z</time></trkpt><trkpt lat="35.8007897" lon="139.0893601"><ele>340.1266666666666</ele><time>2025-02-22T05:55:05Z</time></trkpt><trkpt lat="35.8008269" lon="139.0896046"><ele>336.6033333333333</ele><time>2025-02-22T05:55:16Z</time></trkpt><trkpt lat="35.8009046" lon="139.0898253"><ele>339.59</ele><time>2025-02-22T05:55:30Z</time></trkpt><trkpt lat="35.8010116" lon="139.0900608"><ele>345.21000000000004</ele><time>2025-02-22T05:55:53Z</time></trkpt><trkpt lat="35.8010724" lon="139.0902761"><ele>349.19000000000005</ele><time>2025-02-22T05:55:59Z</time></trkpt><trkpt lat="35.8011536" lon="139.0905178"><ele>348.3833333333334</ele><time>2025-02-22T05:56:13Z</time></trkpt><trkpt lat="35.8012362" lon="139.0907231"><ele>343.04</ele><time>2025-02-22T05:56:27Z</time></trkpt><trkpt lat="35.8013323" lon="139.0909339"><ele>335.67</ele><time>2025-02-22T05:56:39Z</time></trkpt><trkpt lat="35.8014127" lon="139.0911595"><ele>329.70666666666665</ele><time>2025-02-22T05:56:53Z</time></trkpt><trkpt lat="35.8015416" lon="139.0913417"><ele>332.15000000000003</ele><time>2025-02-22T05:57:04Z</time></trkpt><trkpt lat="35.8016974" lon="139.0914995"><ele>338.66</ele><time>2025-02-22T05:57:21Z</time></trkpt><trkpt lat="35.8018565" lon="139.0916479"><ele>345.4133333333334</ele><time>2025-02-22T05:57:32Z</time></trkpt><trkpt lat="35.8019935" lon="139.091834"><ele>348.01</ele><time>2025-02-22T05:57:46Z</time></trkpt><trkpt lat="35.802149" lon="139.0919732"><ele>348.37999999999994</ele><time>2025-02-22T05:57:58Z</time></trkpt><trkpt lat="35.8023356" lon="139.0920325"><ele>346.9766666666667</ele><time>2025-02-22T05:58:12Z</time></trkpt><trkpt lat="35.8025236" lon="139.0919858"><ele>344.86666666666673</ele><time>2025-02-22T05:58:23Z</time></trkpt><trkpt lat="35.8027339" lon="139.0919526"><ele>342.60999999999996</ele><time>2025-02-22T05:58:37Z</time></trkpt><trkpt lat="35.8029502" lon="139.0919359"><ele>340.66333333333336</ele><time>2025-02-22T05:58:48Z</time></trkpt><trkpt lat="35.8031568" lon="139.0919479"><ele>337.56333333333333</ele><time>2025-02-22T05:59:02Z</time></trkpt><trkpt lat="35.8033532" lon="139.0919879"><ele>335.74333333333334</ele><time>2025-02-22T05:59:16Z</time></trkpt><trkpt lat="35.8035545" lon="139.0919969"><ele>334.36666666666673</ele><time>2025-02-22T05:59:27Z</time></trkpt><trkpt lat="35.8037229" lon="139.0921151"><ele>334.32666666666665</ele><time>2025-02-22T05:59:39Z</time></trkpt><trkpt lat="35.8038853" lon="139.0922443"><ele>334.19666666666666</ele><time>2025-02-22T05:59:55Z</time></trkpt><trkpt lat="35.8040432" lon="139.0924191"><ele>334.18666666666667</ele><time>2025-02-22T06:00:07Z</time></trkpt><trkpt lat="35.8041621" lon="139.092588"><ele>334.3933333333333</ele><time>2025-02-22T06:00:18Z</time></trkpt><trkpt lat="35.8042464" lon="139.0928438"><ele>334.6166666666666</ele><time>2025-02-22T06:00:32Z</time></trkpt><trkpt lat="35.8044152" lon="139.0929981"><ele>334.52000000000004</ele><time>2025-02-22T06:00:46Z</time></trkpt><trkpt lat="35.8045393" lon="139.0932097"><ele>333.9433333333334</ele><time>2025-02-22T06:01:00Z</time></trkpt><trkpt lat="35.8047124" lon="139.0932717"><ele>330.48333333333335</ele><time>2025-02-22T06:01:11Z</time></trkpt><trkpt lat="35.8049056" lon="139.0933579"><ele>325.17333333333335</ele><time>2025-02-22T06:01:22Z</time></trkpt><trkpt lat="35.8050916" lon="139.093424"><ele>320.58</ele><time>2025-02-22T06:01:33Z</time></trkpt><trkpt lat="35.8052756" lon="139.0935075"><ele>321.57666666666665</ele><time>2025-02-22T06:01:45Z</time></trkpt><trkpt lat="35.8054576" lon="139.0936302"><ele>328.3333333333333</ele><time>2025-02-22T06:01:59Z</time></trkpt><trkpt lat="35.8055777" lon="139.093798"><ele>336.1933333333333</ele><time>2025-02-22T06:02:14Z</time></trkpt><trkpt lat="35.8056883" lon="139.094007"><ele>341.2633333333333</ele><time>2025-02-22T06:02:27Z</time></trkpt><trkpt lat="35.8057673" lon="139.0942415"><ele>342.04999999999995</ele><time>2025-02-22T06:02:38Z</time></trkpt><trkpt lat="35.8058797" lon="139.094476"><ele>341.3233333333333</ele><time>2025-02-22T06:02:52Z</time></trkpt><trkpt lat="35.805986" lon="139.0947186"><ele>340.4066666666667</ele><time>2025-02-22T06:03:06Z</time></trkpt><trkpt lat="35.8061393" lon="139.094923"><ele>339.56333333333333</ele><time>2025-02-22T06:03:20Z</time></trkpt><trkpt lat="35.8062833" lon="139.0951053"><ele>338.79</ele><time>2025-02-22T06:03:34Z</time></trkpt><trkpt lat="35.8064356" lon="139.0952647"><ele>338.1766666666667</ele><time>2025-02-22T06:03:48Z</time></trkpt><trkpt lat="35.8065985" lon="139.0953645"><ele>338.5933333333333</ele><time>2025-02-22T06:03:59Z</time></trkpt><trkpt lat="35.8067704" lon="139.0954889"><ele>338.97333333333336</ele><time>2025-02-22T06:04:13Z</time></trkpt><trkpt lat="35.8069568" lon="139.0955678"><ele>339.16333333333336</ele><time>2025-02-22T06:04:24Z</time></trkpt><trkpt lat="35.8071729" lon="139.0956128"><ele>338.76</ele><time>2025-02-22T06:04:36Z</time></trkpt><trkpt lat="35.8073764" lon="139.0957457"><ele>337.34333333333336</ele><time>2025-02-22T06:04:51Z</time></trkpt><trkpt lat="35.8075751" lon="139.0958342"><ele>335.20000000000005</ele><time>2025-02-22T06:05:09Z</time></trkpt><trkpt lat="35.8076702" lon="139.096066"><ele>327.0566666666667</ele><time>2025-02-22T06:05:24Z</time></trkpt><trkpt lat="35.807772" lon="139.0962509"><ele>318.25666666666666</ele><time>2025-02-22T06:05:36Z</time></trkpt><trkpt lat="35.8078873" lon="139.0964341"><ele>310.5133333333333</ele><time>2025-02-22T06:05:48Z</time></trkpt><trkpt lat="35.8080294" lon="139.0966718"><ele>319.6666666666667</ele><time>2025-02-22T06:06:03Z</time></trkpt><trkpt lat="35.8081474" lon="139.0969012"><ele>330.9066666666667</ele><time>2025-02-22T06:06:17Z</time></trkpt><trkpt lat="35.8082964" lon="139.0970563"><ele>342.2133333333333</ele><time>2025-02-22T06:06:32Z</time></trkpt><trkpt lat="35.8084704" lon="139.0969837"><ele>343.06666666666666</ele><time>2025-02-22T06:06:48Z</time></trkpt><trkpt lat="35.8086522" lon="139.097019"><ele>343.52</ele><time>2025-02-22T06:07:02Z</time></trkpt><trkpt lat="35.8087687" lon="139.0968501"><ele>343.4333333333334</ele><time>2025-02-22T06:07:11Z</time></trkpt><trkpt lat="35.8088833" lon="139.096665"><ele>343.0800000000001</ele><time>2025-02-22T06:07:25Z</time></trkpt></trkseg></trk></gpx>