<?xml version='1.0' encoding='UTF-8'?><gpx creator="YAMAP - https://yamap.com" xsi:schemaLocation="http://www.topografix.com/GPX/1/1 http://www.topografix.com/GPX/1/1/gpx.xsd" version="1.1" xmlns="http://www.topografix.com/GPX/1/1" xmlns:xsi="http://www.w3.org/2001/XMLSchema-instance"><metadata><bounds maxlat="35.5505253" maxlon="138.9088935" minlat="35.5009055" minlon="138.8253994"/></metadata><trk><name>倉見山から都留アルプス</name><number>1</number><trkseg><trkpt lat="35.5079205" lon="138.8253994"><ele>716.69</ele><time>2023-11-11T23:46:11Z</time></trkpt><trkpt lat="35.5079115" lon="138.8256251"><ele>716.145</ele><time>2023-11-11T23:47:02Z</time></trkpt><trkpt lat="35.5078289" lon="138.8258235"><ele>715.6433333333333</ele><time>2023-11-11T23:47:10Z</time></trkpt><trkpt lat="35.5078381" lon="138.8260689"><ele>714.7033333333334</ele><time>2023-11-11T23:47:22Z</time></trkpt><trkpt lat="35.5079208" lon="138.8262748"><ele>713.6133333333333</ele><time>2023-11-11T23:47:29Z</time></trkpt><trkpt lat="35.5081042" lon="138.8263689"><ele>712.5799999999999</ele><time>2023-11-11T23:47:39Z</time></trkpt><trkpt lat="35.5082746" lon="138.8264488"><ele>711.4433333333333</ele><time>2023-11-11T23:48:06Z</time></trkpt><trkpt lat="35.5083259" lon="138.8266632"><ele>710.5799999999999</ele><time>2023-11-11T23:48:14Z</time></trkpt><trkpt lat="35.5084356" lon="138.8268481"><ele>709.6233333333333</ele><time>2023-11-11T23:48:24Z</time></trkpt><trkpt lat="35.5083912" lon="138.8270621"><ele>708.9266666666666</ele><time>2023-11-11T23:48:41Z</time></trkpt><trkpt lat="35.5082838" lon="138.8272395"><ele>708.4966666666666</ele><time>2023-11-11T23:48:54Z</time></trkpt><trkpt lat="35.5081257" lon="138.8273466"><ele>708.6033333333335</ele><time>2023-11-11T23:49:05Z</time></trkpt><trkpt lat="35.5079702" lon="138.8274736"><ele>709.0066666666667</ele><time>2023-11-11T23:49:17Z</time></trkpt><trkpt lat="35.5078349" lon="138.8276253"><ele>709.4000000000001</ele><time>2023-11-11T23:49:30Z</time></trkpt><trkpt lat="35.5076713" lon="138.8277297"><ele>709.6566666666668</ele><time>2023-11-11T23:49:42Z</time></trkpt><trkpt lat="35.5075444" lon="138.8278924"><ele>709.4766666666666</ele><time>2023-11-11T23:49:54Z</time></trkpt><trkpt lat="35.5074197" lon="138.8280782"><ele>708.9033333333333</ele><time>2023-11-11T23:50:02Z</time></trkpt><trkpt lat="35.5073037" lon="138.8282511"><ele>708.0533333333333</ele><time>2023-11-11T23:50:15Z</time></trkpt><trkpt lat="35.5071209" lon="138.8282678"><ele>707.5833333333334</ele><time>2023-11-11T23:50:29Z</time></trkpt><trkpt lat="35.506978" lon="138.8284223"><ele>707.1766666666667</ele><time>2023-11-11T23:50:44Z</time></trkpt><trkpt lat="35.5067968" lon="138.8284371"><ele>706.3266666666667</ele><time>2023-11-11T23:50:53Z</time></trkpt><trkpt lat="35.50661" lon="138.8284765"><ele>705.0099999999999</ele><time>2023-11-11T23:51:07Z</time></trkpt><trkpt lat="35.5064311" lon="138.8283927"><ele>703.93</ele><time>2023-11-11T23:51:18Z</time></trkpt><trkpt lat="35.5062516" lon="138.8283046"><ele>703.7933333333334</ele><time>2023-11-11T23:51:31Z</time></trkpt><trkpt lat="35.5060637" lon="138.8283208"><ele>703.5166666666668</ele><time>2023-11-11T23:51:45Z</time></trkpt><trkpt lat="35.5058773" lon="138.8283615"><ele>703.1733333333333</ele><time>2023-11-11T23:51:57Z</time></trkpt><trkpt lat="35.5056918" lon="138.82843"><ele>702.09</ele><time>2023-11-11T23:52:11Z</time></trkpt><trkpt lat="35.5055043" lon="138.828474"><ele>701.4266666666667</ele><time>2023-11-11T23:52:25Z</time></trkpt><trkpt lat="35.5052933" lon="138.8284595"><ele>700.9266666666667</ele><time>2023-11-11T23:52:37Z</time></trkpt><trkpt lat="35.5051367" lon="138.828321"><ele>700.9499999999999</ele><time>2023-11-11T23:52:49Z</time></trkpt><trkpt lat="35.5049445" lon="138.8282838"><ele>701.6033333333334</ele><time>2023-11-11T23:53:02Z</time></trkpt><trkpt lat="35.5047847" lon="138.8284135"><ele>701.9966666666668</ele><time>2023-11-11T23:53:19Z</time></trkpt><trkpt lat="35.5046148" lon="138.8282485"><ele>703.7000000000002</ele><time>2023-11-11T23:53:25Z</time></trkpt><trkpt lat="35.5044471" lon="138.8281453"><ele>705.4233333333335</ele><time>2023-11-11T23:53:37Z</time></trkpt><trkpt lat="35.5042671" lon="138.8281588"><ele>707.5</ele><time>2023-11-11T23:53:52Z</time></trkpt><trkpt lat="35.5041671" lon="138.8283433"><ele>707.7200000000001</ele><time>2023-11-11T23:54:04Z</time></trkpt><trkpt lat="35.504034" lon="138.8285076"><ele>706.9033333333333</ele><time>2023-11-11T23:54:16Z</time></trkpt><trkpt lat="35.5038796" lon="138.8286242"><ele>706.43</ele><time>2023-11-11T23:54:34Z</time></trkpt><trkpt lat="35.5037462" lon="138.8287841"><ele>706.4733333333334</ele><time>2023-11-11T23:54:48Z</time></trkpt><trkpt lat="35.5035721" lon="138.8288946"><ele>707.4699999999999</ele><time>2023-11-11T23:54:58Z</time></trkpt><trkpt lat="35.5033919" lon="138.8288855"><ele>708.54</ele><time>2023-11-11T23:55:07Z</time></trkpt><trkpt lat="35.5032209" lon="138.8287906"><ele>710.1233333333333</ele><time>2023-11-11T23:55:20Z</time></trkpt><trkpt lat="35.50309" lon="138.8286331"><ele>712.1500000000001</ele><time>2023-11-11T23:55:29Z</time></trkpt><trkpt lat="35.5029161" lon="138.8285489"><ele>713.8266666666667</ele><time>2023-11-11T23:55:43Z</time></trkpt><trkpt lat="35.5027655" lon="138.8284237"><ele>714.9533333333334</ele><time>2023-11-11T23:55:56Z</time></trkpt><trkpt lat="35.5026056" lon="138.8283121"><ele>715.2766666666666</ele><time>2023-11-11T23:56:07Z</time></trkpt><trkpt lat="35.5024633" lon="138.8281612"><ele>715.5300000000001</ele><time>2023-11-11T23:56:18Z</time></trkpt><trkpt lat="35.5023297" lon="138.8279994"><ele>715.4833333333332</ele><time>2023-11-11T23:56:32Z</time></trkpt><trkpt lat="35.5021634" lon="138.8278937"><ele>715.9566666666666</ele><time>2023-11-11T23:56:47Z</time></trkpt><trkpt lat="35.5020101" lon="138.8280304"><ele>717.02</ele><time>2023-11-11T23:56:55Z</time></trkpt><trkpt lat="35.5018392" lon="138.8281337"><ele>718.73</ele><time>2023-11-11T23:57:04Z</time></trkpt><trkpt lat="35.501679" lon="138.8282393"><ele>719.8066666666667</ele><time>2023-11-11T23:57:16Z</time></trkpt><trkpt lat="35.5014783" lon="138.8282745"><ele>719.4033333333333</ele><time>2023-11-11T23:57:34Z</time></trkpt><trkpt lat="35.5012764" lon="138.8282667"><ele>718.3299999999999</ele><time>2023-11-11T23:57:45Z</time></trkpt><trkpt lat="35.5011002" lon="138.8283285"><ele>717.4233333333333</ele><time>2023-11-11T23:57:53Z</time></trkpt><trkpt lat="35.5009175" lon="138.828341"><ele>716.91</ele><time>2023-11-11T23:58:07Z</time></trkpt><trkpt lat="35.5010148" lon="138.8285466"><ele>717.3566666666667</ele><time>2023-11-11T23:58:39Z</time></trkpt><trkpt lat="35.5010382" lon="138.8287772"><ele>717.7666666666668</ele><time>2023-11-11T23:58:51Z</time></trkpt><trkpt lat="35.5011972" lon="138.828661"><ele>719.0300000000001</ele><time>2023-11-11T23:59:34Z</time></trkpt><trkpt lat="35.5013384" lon="138.8288014"><ele>722.6466666666666</ele><time>2023-11-11T23:59:56Z</time></trkpt><trkpt lat="35.5014853" lon="138.8289326"><ele>728.7800000000001</ele><time>2023-11-12T00:00:50Z</time></trkpt><trkpt lat="35.5015444" lon="138.8291427"><ele>734.94</ele><time>2023-11-12T00:01:19Z</time></trkpt><trkpt lat="35.5016152" lon="138.829348"><ele>738.7166666666667</ele><time>2023-11-12T00:01:35Z</time></trkpt><trkpt lat="35.5017965" lon="138.8293776"><ele>742.4933333333333</ele><time>2023-11-12T00:01:52Z</time></trkpt><trkpt lat="35.5018055" lon="138.8295996"><ele>746.7533333333334</ele><time>2023-11-12T00:02:10Z</time></trkpt><trkpt lat="35.5019078" lon="138.8297985"><ele>753.1066666666666</ele><time>2023-11-12T00:03:25Z</time></trkpt><trkpt lat="35.5020531" lon="138.8299466"><ele>759.3933333333333</ele><time>2023-11-12T00:03:50Z</time></trkpt><trkpt lat="35.5022326" lon="138.829996"><ele>767.1133333333333</ele><time>2023-11-12T00:04:31Z</time></trkpt><trkpt lat="35.502371" lon="138.8301375"><ele>774.4833333333335</ele><time>2023-11-12T00:05:45Z</time></trkpt><trkpt lat="35.5024574" lon="138.830335"><ele>780.4166666666666</ele><time>2023-11-12T00:06:23Z</time></trkpt><trkpt lat="35.5024696" lon="138.8305606"><ele>785.6033333333334</ele><time>2023-11-12T00:06:44Z</time></trkpt><trkpt lat="35.5025559" lon="138.8307557"><ele>791.0333333333333</ele><time>2023-11-12T00:07:06Z</time></trkpt><trkpt lat="35.5026156" lon="138.8309676"><ele>797.7199999999999</ele><time>2023-11-12T00:08:28Z</time></trkpt><trkpt lat="35.5026342" lon="138.831187"><ele>803.88</ele><time>2023-11-12T00:08:45Z</time></trkpt><trkpt lat="35.5026381" lon="138.8314114"><ele>810.14</ele><time>2023-11-12T00:09:36Z</time></trkpt><trkpt lat="35.5026592" lon="138.8316337"><ele>815.6933333333333</ele><time>2023-11-12T00:10:18Z</time></trkpt><trkpt lat="35.5026878" lon="138.8318524"><ele>823.4666666666667</ele><time>2023-11-12T00:10:54Z</time></trkpt><trkpt lat="35.5025821" lon="138.8320319"><ele>827.2566666666667</ele><time>2023-11-12T00:11:30Z</time></trkpt><trkpt lat="35.5025441" lon="138.8322547"><ele>831.5266666666666</ele><time>2023-11-12T00:11:47Z</time></trkpt><trkpt lat="35.502484" lon="138.8324778"><ele>831.2766666666666</ele><time>2023-11-12T00:12:15Z</time></trkpt><trkpt lat="35.5023046" lon="138.8324443"><ele>832.1766666666666</ele><time>2023-11-12T00:12:30Z</time></trkpt><trkpt lat="35.5021257" lon="138.8324143"><ele>830.82</ele><time>2023-11-12T00:12:47Z</time></trkpt><trkpt lat="35.5019467" lon="138.8325021"><ele>831.1533333333333</ele><time>2023-11-12T00:13:02Z</time></trkpt><trkpt lat="35.5017634" lon="138.8325489"><ele>831.7966666666667</ele><time>2023-11-12T00:13:17Z</time></trkpt><trkpt lat="35.5016104" lon="138.8326743"><ele>833.5333333333334</ele><time>2023-11-12T00:13:40Z</time></trkpt><trkpt lat="35.501433" lon="138.8327155"><ele>836.0500000000001</ele><time>2023-11-12T00:14:25Z</time></trkpt><trkpt lat="35.5012469" lon="138.8327787"><ele>838.5066666666667</ele><time>2023-11-12T00:14:52Z</time></trkpt><trkpt lat="35.5011399" lon="138.832587"><ele>839.3533333333334</ele><time>2023-11-12T00:14:59Z</time></trkpt><trkpt lat="35.5009583" lon="138.832573"><ele>838.57</ele><time>2023-11-12T00:15:12Z</time></trkpt><trkpt lat="35.5011044" lon="138.8327196"><ele>838.4566666666666</ele><time>2023-11-12T00:15:55Z</time></trkpt><trkpt lat="35.5012695" lon="138.832814"><ele>839.0099999999999</ele><time>2023-11-12T00:16:12Z</time></trkpt><trkpt lat="35.5013717" lon="138.8329979"><ele>839.81</ele><time>2023-11-12T00:16:31Z</time></trkpt><trkpt lat="35.5014789" lon="138.8331789"><ele>839.7400000000001</ele><time>2023-11-12T00:16:59Z</time></trkpt><trkpt lat="35.5016047" lon="138.8333441"><ele>839.69</ele><time>2023-11-12T00:17:17Z</time></trkpt><trkpt lat="35.5016597" lon="138.8335589"><ele>837.7666666666668</ele><time>2023-11-12T00:17:38Z</time></trkpt><trkpt lat="35.5017546" lon="138.8337666"><ele>834.9466666666667</ele><time>2023-11-12T00:17:53Z</time></trkpt><trkpt lat="35.5018199" lon="138.8339775"><ele>833.0099999999999</ele><time>2023-11-12T00:18:33Z</time></trkpt><trkpt lat="35.5019291" lon="138.8341574"><ele>835.4533333333334</ele><time>2023-11-12T00:18:48Z</time></trkpt><trkpt lat="35.5019742" lon="138.8343714"><ele>839.3233333333333</ele><time>2023-11-12T00:19:02Z</time></trkpt><trkpt lat="35.5018254" lon="138.8344993"><ele>839.1966666666667</ele><time>2023-11-12T00:19:36Z</time></trkpt><trkpt lat="35.5020071" lon="138.834497"><ele>841.0033333333334</ele><time>2023-11-12T00:19:52Z</time></trkpt><trkpt lat="35.5020827" lon="138.834698"><ele>843.8933333333333</ele><time>2023-11-12T00:20:12Z</time></trkpt><trkpt lat="35.502085" lon="138.8349542"><ele>850.7466666666666</ele><time>2023-11-12T00:20:27Z</time></trkpt><trkpt lat="35.5020356" lon="138.8351799"><ele>853.5</ele><time>2023-11-12T00:21:14Z</time></trkpt><trkpt lat="35.5019287" lon="138.8353614"><ele>854.3100000000001</ele><time>2023-11-12T00:21:26Z</time></trkpt><trkpt lat="35.501831" lon="138.8355598"><ele>853.7266666666668</ele><time>2023-11-12T00:21:41Z</time></trkpt><trkpt lat="35.5017731" lon="138.8357744"><ele>852.9066666666668</ele><time>2023-11-12T00:21:54Z</time></trkpt><trkpt lat="35.5017613" lon="138.8360007"><ele>853.04</ele><time>2023-11-12T00:22:08Z</time></trkpt><trkpt lat="35.5015847" lon="138.8360467"><ele>853.6633333333334</ele><time>2023-11-12T00:23:08Z</time></trkpt><trkpt lat="35.5017466" lon="138.836159"><ele>854.9633333333335</ele><time>2023-11-12T00:23:43Z</time></trkpt><trkpt lat="35.5016974" lon="138.8363764"><ele>857.66</ele><time>2023-11-12T00:24:19Z</time></trkpt><trkpt lat="35.5017031" lon="138.8366038"><ele>861.6733333333333</ele><time>2023-11-12T00:24:52Z</time></trkpt><trkpt lat="35.501559" lon="138.8367434"><ele>868.1133333333333</ele><time>2023-11-12T00:25:20Z</time></trkpt><trkpt lat="35.5014526" lon="138.8369232"><ele>876.6</ele><time>2023-11-12T00:26:47Z</time></trkpt><trkpt lat="35.5012892" lon="138.8370166"><ele>885.9766666666668</ele><time>2023-11-12T00:27:37Z</time></trkpt><trkpt lat="35.5011096" lon="138.8371074"><ele>893.59</ele><time>2023-11-12T00:28:02Z</time></trkpt><trkpt lat="35.5012058" lon="138.8372941"><ele>899.66</ele><time>2023-11-12T00:29:03Z</time></trkpt><trkpt lat="35.5012687" lon="138.8375078"><ele>905.6166666666667</ele><time>2023-11-12T00:29:30Z</time></trkpt><trkpt lat="35.5012152" lon="138.8377187"><ele>911.0600000000001</ele><time>2023-11-12T00:29:52Z</time></trkpt><trkpt lat="35.5011318" lon="138.8379192"><ele>916.5233333333334</ele><time>2023-11-12T00:30:32Z</time></trkpt><trkpt lat="35.5010851" lon="138.8381328"><ele>922.6766666666667</ele><time>2023-11-12T00:31:54Z</time></trkpt><trkpt lat="35.5009968" lon="138.8383268"><ele>931.7233333333334</ele><time>2023-11-12T00:32:39Z</time></trkpt><trkpt lat="35.5009055" lon="138.8385367"><ele>942.8733333333333</ele><time>2023-11-12T00:34:15Z</time></trkpt><trkpt lat="35.5009099" lon="138.8387688"><ele>954.0400000000001</ele><time>2023-11-12T00:35:24Z</time></trkpt><trkpt lat="35.5009539" lon="138.8390042"><ele>964.3266666666667</ele><time>2023-11-12T00:36:30Z</time></trkpt><trkpt lat="35.5010284" lon="138.8392412"><ele>972.82</ele><time>2023-11-12T00:38:12Z</time></trkpt><trkpt lat="35.5010735" lon="138.8394758"><ele>979.1</ele><time>2023-11-12T00:38:48Z</time></trkpt><trkpt lat="35.501191" lon="138.8396805"><ele>982.9566666666666</ele><time>2023-11-12T00:39:18Z</time></trkpt><trkpt lat="35.5012195" lon="138.8399013"><ele>985.3166666666666</ele><time>2023-11-12T00:39:33Z</time></trkpt><trkpt lat="35.5012663" lon="138.8401326"><ele>987.6633333333333</ele><time>2023-11-12T00:39:58Z</time></trkpt><trkpt lat="35.5013127" lon="138.8403492"><ele>991.66</ele><time>2023-11-12T00:40:35Z</time></trkpt><trkpt lat="35.5014319" lon="138.8405284"><ele>996.77</ele><time>2023-11-12T00:41:08Z</time></trkpt><trkpt lat="35.5015081" lon="138.8407335"><ele>1001.2766666666666</ele><time>2023-11-12T00:41:18Z</time></trkpt><trkpt lat="35.5015287" lon="138.8409545"><ele>1003.9733333333334</ele><time>2023-11-12T00:41:33Z</time></trkpt><trkpt lat="35.5016195" lon="138.8411451"><ele>1005.7933333333334</ele><time>2023-11-12T00:41:56Z</time></trkpt><trkpt lat="35.5016783" lon="138.8413771"><ele>1009.61</ele><time>2023-11-12T00:42:30Z</time></trkpt><trkpt lat="35.5017259" lon="138.8415923"><ele>1015.0366666666667</ele><time>2023-11-12T00:43:12Z</time></trkpt><trkpt lat="35.5016982" lon="138.8418144"><ele>1020.4699999999999</ele><time>2023-11-12T00:43:45Z</time></trkpt><trkpt lat="35.5017002" lon="138.8420404"><ele>1025.9233333333332</ele><time>2023-11-12T00:44:13Z</time></trkpt><trkpt lat="35.5018601" lon="138.8421488"><ele>1032.5466666666664</ele><time>2023-11-12T00:45:12Z</time></trkpt><trkpt lat="35.50185" lon="138.8423757"><ele>1039.9733333333334</ele><time>2023-11-12T00:46:13Z</time></trkpt><trkpt lat="35.5017475" lon="138.8425598"><ele>1048.06</ele><time>2023-11-12T00:46:34Z</time></trkpt><trkpt lat="35.5016831" lon="138.8427657"><ele>1055.8733333333332</ele><time>2023-11-12T00:47:25Z</time></trkpt><trkpt lat="35.5015529" lon="138.842925"><ele>1061.8166666666666</ele><time>2023-11-12T00:48:06Z</time></trkpt><trkpt lat="35.5016638" lon="138.8431045"><ele>1066.2733333333335</ele><time>2023-11-12T00:48:56Z</time></trkpt><trkpt lat="35.5018373" lon="138.8431666"><ele>1071.2266666666667</ele><time>2023-11-12T00:49:30Z</time></trkpt><trkpt lat="35.5019417" lon="138.8433467"><ele>1077.6166666666668</ele><time>2023-11-12T00:50:40Z</time></trkpt><trkpt lat="35.5019682" lon="138.8435659"><ele>1083.4233333333334</ele><time>2023-11-12T00:51:11Z</time></trkpt><trkpt lat="35.5020676" lon="138.8437521"><ele>1088.1466666666668</ele><time>2023-11-12T00:51:48Z</time></trkpt><trkpt lat="35.5021359" lon="138.8439739"><ele>1091.75</ele><time>2023-11-12T00:52:17Z</time></trkpt><trkpt lat="35.5021996" lon="138.844181"><ele>1096.25</ele><time>2023-11-12T00:52:49Z</time></trkpt><trkpt lat="35.5021709" lon="138.8444035"><ele>1097.37</ele><time>2023-11-12T00:53:19Z</time></trkpt><trkpt lat="35.5021891" lon="138.844635"><ele>1100.4333333333334</ele><time>2023-11-12T00:53:45Z</time></trkpt><trkpt lat="35.5021524" lon="138.8448588"><ele>1101.6033333333332</ele><time>2023-11-12T00:54:15Z</time></trkpt><trkpt lat="35.5021715" lon="138.8450931"><ele>1103.44</ele><time>2023-11-12T00:54:32Z</time></trkpt><trkpt lat="35.502217" lon="138.8453106"><ele>1104.1633333333332</ele><time>2023-11-12T00:56:12Z</time></trkpt><trkpt lat="35.5022412" lon="138.8455409"><ele>1105.4766666666667</ele><time>2023-11-12T00:56:33Z</time></trkpt><trkpt lat="35.5022347" lon="138.8457614"><ele>1106.7966666666666</ele><time>2023-11-12T00:56:52Z</time></trkpt><trkpt lat="35.5023131" lon="138.8459636"><ele>1107.1266666666668</ele><time>2023-11-12T00:57:05Z</time></trkpt><trkpt lat="35.5024281" lon="138.8461423"><ele>1105.9399999999998</ele><time>2023-11-12T00:57:20Z</time></trkpt><trkpt lat="35.5025163" lon="138.8463388"><ele>1106.8733333333332</ele><time>2023-11-12T00:57:38Z</time></trkpt><trkpt lat="35.5026345" lon="138.8465189"><ele>1108.4366666666667</ele><time>2023-11-12T00:58:00Z</time></trkpt><trkpt lat="35.50263" lon="138.8467396"><ele>1111.97</ele><time>2023-11-12T00:58:48Z</time></trkpt><trkpt lat="35.5026195" lon="138.8469619"><ele>1115.4733333333334</ele><time>2023-11-12T00:59:12Z</time></trkpt><trkpt lat="35.5026191" lon="138.8471834"><ele>1118.47</ele><time>2023-11-12T00:59:26Z</time></trkpt><trkpt lat="35.502657" lon="138.8474019"><ele>1121.3533333333335</ele><time>2023-11-12T00:59:43Z</time></trkpt><trkpt lat="35.5026807" lon="138.8476314"><ele>1123.8333333333333</ele><time>2023-11-12T01:00:17Z</time></trkpt><trkpt lat="35.5027666" lon="138.8478275"><ele>1126.7233333333334</ele><time>2023-11-12T01:00:40Z</time></trkpt><trkpt lat="35.5026868" lon="138.8480382"><ele>1130.1200000000001</ele><time>2023-11-12T01:01:21Z</time></trkpt><trkpt lat="35.5026491" lon="138.8482553"><ele>1133.2066666666667</ele><time>2023-11-12T01:01:38Z</time></trkpt><trkpt lat="35.5025826" lon="138.8484641"><ele>1136.4033333333334</ele><time>2023-11-12T01:02:16Z</time></trkpt><trkpt lat="35.5025858" lon="138.8486887"><ele>1140.26</ele><time>2023-11-12T01:02:58Z</time></trkpt><trkpt lat="35.5024551" lon="138.8488442"><ele>1144.6666666666667</ele><time>2023-11-12T01:03:24Z</time></trkpt><trkpt lat="35.502357" lon="138.8490542"><ele>1148.5266666666666</ele><time>2023-11-12T01:03:56Z</time></trkpt><trkpt lat="35.5023497" lon="138.8492942"><ele>1150.1566666666668</ele><time>2023-11-12T01:04:40Z</time></trkpt><trkpt lat="35.5024077" lon="138.8495245"><ele>1148.87</ele><time>2023-11-12T01:05:01Z</time></trkpt><trkpt lat="35.5024277" lon="138.8497491"><ele>1145.9166666666667</ele><time>2023-11-12T01:05:27Z</time></trkpt><trkpt lat="35.5024191" lon="138.8499697"><ele>1143.29</ele><time>2023-11-12T01:05:46Z</time></trkpt><trkpt lat="35.5023827" lon="138.8502006"><ele>1141.8733333333332</ele><time>2023-11-12T01:06:07Z</time></trkpt><trkpt lat="35.5022901" lon="138.8504047"><ele>1140.58</ele><time>2023-11-12T01:06:30Z</time></trkpt><trkpt lat="35.5024213" lon="138.8505742"><ele>1139.7066666666667</ele><time>2023-11-12T01:06:51Z</time></trkpt><trkpt lat="35.5025947" lon="138.8506375"><ele>1139.2533333333333</ele><time>2023-11-12T01:07:03Z</time></trkpt><trkpt lat="35.5027523" lon="138.8507757"><ele>1140.32</ele><time>2023-11-12T01:07:30Z</time></trkpt><trkpt lat="35.5028977" lon="138.8509326"><ele>1141.4399999999998</ele><time>2023-11-12T01:07:51Z</time></trkpt><trkpt lat="35.5029483" lon="138.8511447"><ele>1142.8333333333333</ele><time>2023-11-12T01:08:22Z</time></trkpt><trkpt lat="35.5030599" lon="138.8513179"><ele>1146.99</ele><time>2023-11-12T01:08:54Z</time></trkpt><trkpt lat="35.5031133" lon="138.8515458"><ele>1152.51</ele><time>2023-11-12T01:09:51Z</time></trkpt><trkpt lat="35.503228" lon="138.8517225"><ele>1158.3700000000001</ele><time>2023-11-12T01:10:06Z</time></trkpt><trkpt lat="35.5033172" lon="138.8519161"><ele>1161.4733333333334</ele><time>2023-11-12T01:10:25Z</time></trkpt><trkpt lat="35.5034169" lon="138.8521041"><ele>1163.2099999999998</ele><time>2023-11-12T01:10:53Z</time></trkpt><trkpt lat="35.503496" lon="138.8523169"><ele>1165.6266666666666</ele><time>2023-11-12T01:11:23Z</time></trkpt><trkpt lat="35.5036045" lon="138.8524955"><ele>1168.2766666666666</ele><time>2023-11-12T01:11:51Z</time></trkpt><trkpt lat="35.5036939" lon="138.8526965"><ele>1169.47</ele><time>2023-11-12T01:12:17Z</time></trkpt><trkpt lat="35.503842" lon="138.8528245"><ele>1172.0200000000002</ele><time>2023-11-12T01:13:10Z</time></trkpt><trkpt lat="35.5038718" lon="138.8530425"><ele>1176.4733333333336</ele><time>2023-11-12T01:14:02Z</time></trkpt><trkpt lat="35.5039223" lon="138.8532592"><ele>1183.76</ele><time>2023-11-12T01:15:05Z</time></trkpt><trkpt lat="35.503923" lon="138.8534813"><ele>1190.6366666666665</ele><time>2023-11-12T01:15:47Z</time></trkpt><trkpt lat="35.5039611" lon="138.8537004"><ele>1196.6633333333334</ele><time>2023-11-12T01:16:47Z</time></trkpt><trkpt lat="35.5040674" lon="138.8538976"><ele>1203.2766666666666</ele><time>2023-11-12T01:17:18Z</time></trkpt><trkpt lat="35.50419" lon="138.8540793"><ele>1207.8833333333332</ele><time>2023-11-12T01:17:31Z</time></trkpt><trkpt lat="35.5042802" lon="138.854271"><ele>1209.9466666666667</ele><time>2023-11-12T01:17:50Z</time></trkpt><trkpt lat="35.5043125" lon="138.8544938"><ele>1211.0666666666666</ele><time>2023-11-12T01:18:12Z</time></trkpt><trkpt lat="35.5043691" lon="138.8547067"><ele>1214.4633333333334</ele><time>2023-11-12T01:19:43Z</time></trkpt><trkpt lat="35.5044197" lon="138.8549254"><ele>1218.16</ele><time>2023-11-12T01:20:18Z</time></trkpt><trkpt lat="35.5045149" lon="138.8551342"><ele>1224.55</ele><time>2023-11-12T01:20:39Z</time></trkpt><trkpt lat="35.5045901" lon="138.8553406"><ele>1229.8433333333335</ele><time>2023-11-12T01:21:14Z</time></trkpt><trkpt lat="35.5046951" lon="138.8555223"><ele>1237.4133333333332</ele><time>2023-11-12T01:21:29Z</time></trkpt><trkpt lat="35.5047417" lon="138.855736"><ele>1243.3633333333335</ele><time>2023-11-12T01:22:20Z</time></trkpt><trkpt lat="35.5048922" lon="138.855862"><ele>1248.04</ele><time>2023-11-12T01:23:45Z</time></trkpt><trkpt lat="35.5050821" lon="138.855839"><ele>1248.4866666666667</ele><time>2023-11-12T01:24:22Z</time></trkpt><trkpt lat="35.5052644" lon="138.8558623"><ele>1242.993333333333</ele><time>2023-11-12T01:24:34Z</time></trkpt><trkpt lat="35.5054593" lon="138.8559049"><ele>1236.7033333333336</ele><time>2023-11-12T01:25:05Z</time></trkpt><trkpt lat="35.5056196" lon="138.8560068"><ele>1230.5333333333335</ele><time>2023-11-12T01:25:20Z</time></trkpt><trkpt lat="35.505803" lon="138.8559753"><ele>1226.0266666666666</ele><time>2023-11-12T01:26:27Z</time></trkpt><trkpt lat="35.5059822" lon="138.8560357"><ele>1220.9133333333332</ele><time>2023-11-12T01:26:39Z</time></trkpt><trkpt lat="35.5061666" lon="138.8560683"><ele>1220.17</ele><time>2023-11-12T01:27:45Z</time></trkpt><trkpt lat="35.5063377" lon="138.8559942"><ele>1223.3733333333332</ele><time>2023-11-12T01:28:09Z</time></trkpt><trkpt lat="35.5064456" lon="138.8558043"><ele>1227.1833333333332</ele><time>2023-11-12T01:28:27Z</time></trkpt><trkpt lat="35.5066012" lon="138.8556723"><ele>1230.59</ele><time>2023-11-12T01:28:47Z</time></trkpt><trkpt lat="35.5066792" lon="138.8554728"><ele>1231.7766666666666</ele><time>2023-11-12T01:29:32Z</time></trkpt><trkpt lat="35.5068363" lon="138.8553617"><ele>1234.6333333333334</ele><time>2023-11-12T01:30:03Z</time></trkpt><trkpt lat="35.5070181" lon="138.855309"><ele>1236.88</ele><time>2023-11-12T01:30:55Z</time></trkpt><trkpt lat="35.5071527" lon="138.8551501"><ele>1239.6633333333332</ele><time>2023-11-12T01:31:31Z</time></trkpt><trkpt lat="35.5072059" lon="138.8549255"><ele>1241.1000000000001</ele><time>2023-11-12T01:31:44Z</time></trkpt><trkpt lat="35.5071843" lon="138.85515"><ele>1241.5033333333333</ele><time>2023-11-12T01:32:12Z</time></trkpt><trkpt lat="35.5073629" lon="138.8551957"><ele>1241.3633333333335</ele><time>2023-11-12T01:34:05Z</time></trkpt><trkpt lat="35.5075264" lon="138.8552956"><ele>1239.9266666666665</ele><time>2023-11-12T01:38:56Z</time></trkpt><trkpt lat="35.5076694" lon="138.8554411"><ele>1237.7266666666667</ele><time>2023-11-12T01:39:07Z</time></trkpt><trkpt lat="35.5077599" lon="138.8556344"><ele>1237.2666666666667</ele><time>2023-11-12T01:39:51Z</time></trkpt><trkpt lat="35.5079332" lon="138.8557065"><ele>1242.7566666666667</ele><time>2023-11-12T01:40:17Z</time></trkpt><trkpt lat="35.5080332" lon="138.8558918"><ele>1248.04</ele><time>2023-11-12T01:40:48Z</time></trkpt><trkpt lat="35.5081052" lon="138.8560956"><ele>1250.8833333333334</ele><time>2023-11-12T01:41:07Z</time></trkpt><trkpt lat="35.5082615" lon="138.8562911"><ele>1247.7866666666666</ele><time>2023-11-12T01:41:38Z</time></trkpt><trkpt lat="35.5084" lon="138.8564326"><ele>1247.1566666666665</ele><time>2023-11-12T01:42:07Z</time></trkpt><trkpt lat="35.5085707" lon="138.8565243"><ele>1247.25</ele><time>2023-11-12T01:42:21Z</time></trkpt><trkpt lat="35.5087244" lon="138.8566396"><ele>1246.1066666666666</ele><time>2023-11-12T01:48:07Z</time></trkpt><trkpt lat="35.5088864" lon="138.856739"><ele>1240.2300000000002</ele><time>2023-11-12T01:49:11Z</time></trkpt><trkpt lat="35.509032" lon="138.8568756"><ele>1231.0933333333332</ele><time>2023-11-12T01:49:47Z</time></trkpt><trkpt lat="35.5092082" lon="138.8569271"><ele>1221.83</ele><time>2023-11-12T01:50:35Z</time></trkpt><trkpt lat="35.5093941" lon="138.8570533"><ele>1212.7833333333333</ele><time>2023-11-12T01:54:06Z</time></trkpt><trkpt lat="35.509573" lon="138.8570815"><ele>1202.3833333333334</ele><time>2023-11-12T01:54:26Z</time></trkpt><trkpt lat="35.5096926" lon="138.857253"><ele>1189.8400000000001</ele><time>2023-11-12T01:55:51Z</time></trkpt><trkpt lat="35.5098091" lon="138.8574256"><ele>1176.6933333333336</ele><time>2023-11-12T01:56:13Z</time></trkpt><trkpt lat="35.5099333" lon="138.8575887"><ele>1166.5233333333335</ele><time>2023-11-12T01:56:42Z</time></trkpt><trkpt lat="35.510071" lon="138.857744"><ele>1161.5533333333333</ele><time>2023-11-12T01:57:33Z</time></trkpt><trkpt lat="35.5101257" lon="138.8579639"><ele>1155.17</ele><time>2023-11-12T01:57:47Z</time></trkpt><trkpt lat="35.5103102" lon="138.8579708"><ele>1152.256666666667</ele><time>2023-11-12T01:58:00Z</time></trkpt><trkpt lat="35.5104107" lon="138.8581564"><ele>1146.24</ele><time>2023-11-12T01:58:22Z</time></trkpt><trkpt lat="35.5105008" lon="138.858351"><ele>1142.6333333333334</ele><time>2023-11-12T01:58:50Z</time></trkpt><trkpt lat="35.51064" lon="138.8584968"><ele>1138.2466666666667</ele><time>2023-11-12T01:59:09Z</time></trkpt><trkpt lat="35.5107424" lon="138.8586909"><ele>1138.1333333333334</ele><time>2023-11-12T01:59:45Z</time></trkpt><trkpt lat="35.5109243" lon="138.8587364"><ele>1140.0933333333332</ele><time>2023-11-12T02:00:06Z</time></trkpt><trkpt lat="35.5111027" lon="138.8587755"><ele>1139.9800000000002</ele><time>2023-11-12T02:00:34Z</time></trkpt><trkpt lat="35.5112377" lon="138.858934"><ele>1137.2266666666667</ele><time>2023-11-12T02:00:51Z</time></trkpt><trkpt lat="35.5113959" lon="138.8590445"><ele>1133.5633333333333</ele><time>2023-11-12T02:01:27Z</time></trkpt><trkpt lat="35.5114719" lon="138.8592482"><ele>1128.8066666666666</ele><time>2023-11-12T02:01:50Z</time></trkpt><trkpt lat="35.5114231" lon="138.8594624"><ele>1123.47</ele><time>2023-11-12T02:02:14Z</time></trkpt><trkpt lat="35.5115649" lon="138.859604"><ele>1118.12</ele><time>2023-11-12T02:02:43Z</time></trkpt><trkpt lat="35.511739" lon="138.8596625"><ele>1113.0633333333333</ele><time>2023-11-12T02:03:17Z</time></trkpt><trkpt lat="35.5119207" lon="138.859682"><ele>1105.7166666666667</ele><time>2023-11-12T02:03:33Z</time></trkpt><trkpt lat="35.5120954" lon="138.859626"><ele>1098.2833333333335</ele><time>2023-11-12T02:04:04Z</time></trkpt><trkpt lat="35.5122862" lon="138.8596425"><ele>1089.9633333333334</ele><time>2023-11-12T02:04:33Z</time></trkpt><trkpt lat="35.5124729" lon="138.8596305"><ele>1084.8133333333333</ele><time>2023-11-12T02:05:07Z</time></trkpt><trkpt lat="35.5126359" lon="138.8597433"><ele>1079.86</ele><time>2023-11-12T02:05:21Z</time></trkpt><trkpt lat="35.5127279" lon="138.8599359"><ele>1076.3100000000002</ele><time>2023-11-12T02:05:41Z</time></trkpt><trkpt lat="35.5129115" lon="138.8599458"><ele>1073.4633333333331</ele><time>2023-11-12T02:05:54Z</time></trkpt><trkpt lat="35.5130881" lon="138.8598913"><ele>1070.6266666666668</ele><time>2023-11-12T02:06:12Z</time></trkpt><trkpt lat="35.5132695" lon="138.859909"><ele>1067.6333333333332</ele><time>2023-11-12T02:06:27Z</time></trkpt><trkpt lat="35.5134511" lon="138.8599623"><ele>1064.4766666666667</ele><time>2023-11-12T02:07:04Z</time></trkpt><trkpt lat="35.5135984" lon="138.8601325"><ele>1065.4766666666667</ele><time>2023-11-12T02:07:32Z</time></trkpt><trkpt lat="35.5137639" lon="138.8602214"><ele>1069.1999999999998</ele><time>2023-11-12T02:07:51Z</time></trkpt><trkpt lat="35.5139235" lon="138.8603391"><ele>1073.8233333333335</ele><time>2023-11-12T02:08:06Z</time></trkpt><trkpt lat="35.5140988" lon="138.8604096"><ele>1074.6933333333334</ele><time>2023-11-12T02:08:26Z</time></trkpt><trkpt lat="35.5142675" lon="138.8604976"><ele>1073.2933333333333</ele><time>2023-11-12T02:08:43Z</time></trkpt><trkpt lat="35.5144418" lon="138.8605727"><ele>1070.96</ele><time>2023-11-12T02:09:08Z</time></trkpt><trkpt lat="35.5146251" lon="138.8605649"><ele>1068.2466666666667</ele><time>2023-11-12T02:09:16Z</time></trkpt><trkpt lat="35.5147388" lon="138.8607427"><ele>1067.0</ele><time>2023-11-12T02:09:42Z</time></trkpt><trkpt lat="35.5148511" lon="138.8609565"><ele>1065.05</ele><time>2023-11-12T02:09:55Z</time></trkpt><trkpt lat="35.5149919" lon="138.8610977"><ele>1063.6166666666668</ele><time>2023-11-12T02:10:05Z</time></trkpt><trkpt lat="35.5151485" lon="138.8612121"><ele>1061.8500000000001</ele><time>2023-11-12T02:10:36Z</time></trkpt><trkpt lat="35.5152119" lon="138.8614222"><ele>1060.7933333333333</ele><time>2023-11-12T02:11:09Z</time></trkpt><trkpt lat="35.5152192" lon="138.8616488"><ele>1057.5033333333333</ele><time>2023-11-12T02:11:27Z</time></trkpt><trkpt lat="35.5152177" lon="138.8618737"><ele>1054.13</ele><time>2023-11-12T02:11:45Z</time></trkpt><trkpt lat="35.5151716" lon="138.862106"><ele>1050.6666666666667</ele><time>2023-11-12T02:12:01Z</time></trkpt><trkpt lat="35.5151873" lon="138.8623345"><ele>1051.9733333333334</ele><time>2023-11-12T02:12:15Z</time></trkpt><trkpt lat="35.5152987" lon="138.8625151"><ele>1054.8833333333334</ele><time>2023-11-12T02:12:31Z</time></trkpt><trkpt lat="35.5153647" lon="138.8627214"><ele>1058.7233333333334</ele><time>2023-11-12T02:12:50Z</time></trkpt><trkpt lat="35.5154506" lon="138.8629162"><ele>1060.5766666666666</ele><time>2023-11-12T02:13:02Z</time></trkpt><trkpt lat="35.5155392" lon="138.8631087"><ele>1061.1333333333332</ele><time>2023-11-12T02:13:18Z</time></trkpt><trkpt lat="35.5155979" lon="138.8633246"><ele>1061.1366666666665</ele><time>2023-11-12T02:13:37Z</time></trkpt><trkpt lat="35.5157321" lon="138.8634731"><ele>1060.42</ele><time>2023-11-12T02:13:55Z</time></trkpt><trkpt lat="35.5158388" lon="138.8636541"><ele>1057.8166666666666</ele><time>2023-11-12T02:14:32Z</time></trkpt><trkpt lat="35.5160007" lon="138.8637517"><ele>1053.8833333333334</ele><time>2023-11-12T02:14:50Z</time></trkpt><trkpt lat="35.5161822" lon="138.8637431"><ele>1047.3700000000001</ele><time>2023-11-12T02:15:16Z</time></trkpt><trkpt lat="35.5163319" lon="138.863885"><ele>1040.49</ele><time>2023-11-12T02:15:30Z</time></trkpt><trkpt lat="35.5164921" lon="138.8637714"><ele>1033.1733333333334</ele><time>2023-11-12T02:15:53Z</time></trkpt><trkpt lat="35.5166378" lon="138.8639188"><ele>1026.5033333333333</ele><time>2023-11-12T02:16:13Z</time></trkpt><trkpt lat="35.5168212" lon="138.863929"><ele>1019.79</ele><time>2023-11-12T02:16:35Z</time></trkpt><trkpt lat="35.5169893" lon="138.8640174"><ele>1013.1233333333334</ele><time>2023-11-12T02:17:01Z</time></trkpt><trkpt lat="35.5171678" lon="138.8639748"><ele>1006.6366666666668</ele><time>2023-11-12T02:18:08Z</time></trkpt><trkpt lat="35.517349" lon="138.8639922"><ele>997.9633333333335</ele><time>2023-11-12T02:18:29Z</time></trkpt><trkpt lat="35.5175282" lon="138.8640264"><ele>988.6133333333333</ele><time>2023-11-12T02:18:44Z</time></trkpt><trkpt lat="35.5176845" lon="138.8641402"><ele>979.6300000000001</ele><time>2023-11-12T02:18:57Z</time></trkpt><trkpt lat="35.5178606" lon="138.8640897"><ele>974.9333333333334</ele><time>2023-11-12T02:19:16Z</time></trkpt><trkpt lat="35.5180321" lon="138.8641707"><ele>972.2133333333335</ele><time>2023-11-12T02:19:40Z</time></trkpt><trkpt lat="35.5181441" lon="138.8643481"><ele>970.98</ele><time>2023-11-12T02:19:54Z</time></trkpt><trkpt lat="35.5182686" lon="138.864513"><ele>967.7366666666667</ele><time>2023-11-12T02:20:09Z</time></trkpt><trkpt lat="35.5184502" lon="138.8645826"><ele>964.7199999999999</ele><time>2023-11-12T02:20:23Z</time></trkpt><trkpt lat="35.5186259" lon="138.8646451"><ele>963.11</ele><time>2023-11-12T02:20:38Z</time></trkpt><trkpt lat="35.5187699" lon="138.8647882"><ele>962.39</ele><time>2023-11-12T02:20:50Z</time></trkpt><trkpt lat="35.5189312" lon="138.8646873"><ele>962.3033333333333</ele><time>2023-11-12T02:21:06Z</time></trkpt><trkpt lat="35.5190877" lon="138.8647975"><ele>960.6733333333333</ele><time>2023-11-12T02:21:23Z</time></trkpt><trkpt lat="35.5191667" lon="138.864996"><ele>956.8766666666667</ele><time>2023-11-12T02:21:51Z</time></trkpt><trkpt lat="35.5192976" lon="138.8651705"><ele>949.93</ele><time>2023-11-12T02:22:27Z</time></trkpt><trkpt lat="35.5194777" lon="138.8652206"><ele>943.5766666666668</ele><time>2023-11-12T02:22:43Z</time></trkpt><trkpt lat="35.51967" lon="138.865289"><ele>938.8100000000001</ele><time>2023-11-12T02:22:58Z</time></trkpt><trkpt lat="35.5197927" lon="138.865471"><ele>936.2333333333332</ele><time>2023-11-12T02:23:17Z</time></trkpt><trkpt lat="35.51984" lon="138.8656982"><ele>931.0466666666667</ele><time>2023-11-12T02:23:29Z</time></trkpt><trkpt lat="35.5199415" lon="138.8658909"><ele>927.7733333333334</ele><time>2023-11-12T02:23:45Z</time></trkpt><trkpt lat="35.5201186" lon="138.8659337"><ele>926.7066666666666</ele><time>2023-11-12T02:24:08Z</time></trkpt><trkpt lat="35.5202598" lon="138.8660717"><ele>929.0766666666667</ele><time>2023-11-12T02:24:59Z</time></trkpt><trkpt lat="35.5204365" lon="138.8661166"><ele>929.5733333333334</ele><time>2023-11-12T02:25:21Z</time></trkpt><trkpt lat="35.5205456" lon="138.8663058"><ele>929.0833333333334</ele><time>2023-11-12T02:25:35Z</time></trkpt><trkpt lat="35.520681" lon="138.866454"><ele>927.0033333333334</ele><time>2023-11-12T02:25:46Z</time></trkpt><trkpt lat="35.5208442" lon="138.8665619"><ele>924.2000000000002</ele><time>2023-11-12T02:25:58Z</time></trkpt><trkpt lat="35.5210048" lon="138.8666631"><ele>918.6966666666667</ele><time>2023-11-12T02:26:08Z</time></trkpt><trkpt lat="35.5210784" lon="138.866874"><ele>912.0366666666667</ele><time>2023-11-12T02:26:31Z</time></trkpt><trkpt lat="35.5212245" lon="138.8667436"><ele>905.9733333333334</ele><time>2023-11-12T02:26:44Z</time></trkpt><trkpt lat="35.5213103" lon="138.8665482"><ele>898.0433333333334</ele><time>2023-11-12T02:27:00Z</time></trkpt><trkpt lat="35.5214222" lon="138.8667219"><ele>891.8333333333334</ele><time>2023-11-12T02:27:08Z</time></trkpt><trkpt lat="35.5215486" lon="138.8665638"><ele>882.8800000000001</ele><time>2023-11-12T02:27:47Z</time></trkpt><trkpt lat="35.5216301" lon="138.8667686"><ele>879.79</ele><time>2023-11-12T02:28:16Z</time></trkpt><trkpt lat="35.521792" lon="138.8668731"><ele>873.7166666666667</ele><time>2023-11-12T02:28:40Z</time></trkpt><trkpt lat="35.521969" lon="138.8669639"><ele>868.8933333333334</ele><time>2023-11-12T02:28:54Z</time></trkpt><trkpt lat="35.5221459" lon="138.8670146"><ele>860.5566666666667</ele><time>2023-11-12T02:29:10Z</time></trkpt><trkpt lat="35.5223287" lon="138.8670026"><ele>854.3100000000001</ele><time>2023-11-12T02:29:40Z</time></trkpt><trkpt lat="35.5225161" lon="138.8670414"><ele>849.9866666666667</ele><time>2023-11-12T02:29:53Z</time></trkpt><trkpt lat="35.5227008" lon="138.8670405"><ele>846.0333333333333</ele><time>2023-11-12T02:30:08Z</time></trkpt><trkpt lat="35.5228439" lon="138.8671773"><ele>843.2133333333333</ele><time>2023-11-12T02:30:23Z</time></trkpt><trkpt lat="35.5229517" lon="138.8673593"><ele>838.48</ele><time>2023-11-12T02:30:40Z</time></trkpt><trkpt lat="35.5231166" lon="138.8675053"><ele>834.7033333333334</ele><time>2023-11-12T02:30:54Z</time></trkpt><trkpt lat="35.5232554" lon="138.8676551"><ele>828.9500000000002</ele><time>2023-11-12T02:31:36Z</time></trkpt><trkpt lat="35.5233358" lon="138.8678698"><ele>823.0033333333334</ele><time>2023-11-12T02:31:49Z</time></trkpt><trkpt lat="35.5234076" lon="138.8680739"><ele>814.0500000000001</ele><time>2023-11-12T02:32:08Z</time></trkpt><trkpt lat="35.5235669" lon="138.8681786"><ele>806.8566666666666</ele><time>2023-11-12T02:32:37Z</time></trkpt><trkpt lat="35.5235897" lon="138.8684135"><ele>801.1033333333335</ele><time>2023-11-12T02:32:47Z</time></trkpt><trkpt lat="35.5236317" lon="138.8686353"><ele>796.4033333333333</ele><time>2023-11-12T02:33:06Z</time></trkpt><trkpt lat="35.5236422" lon="138.8688684"><ele>789.14</ele><time>2023-11-12T02:33:23Z</time></trkpt><trkpt lat="35.5237385" lon="138.8690597"><ele>781.8166666666666</ele><time>2023-11-12T02:33:40Z</time></trkpt><trkpt lat="35.5238126" lon="138.869264"><ele>773.7433333333333</ele><time>2023-11-12T02:33:59Z</time></trkpt><trkpt lat="35.5239265" lon="138.8694399"><ele>767.6700000000001</ele><time>2023-11-12T02:34:14Z</time></trkpt><trkpt lat="35.5240703" lon="138.8695734"><ele>763.41</ele><time>2023-11-12T02:34:35Z</time></trkpt><trkpt lat="35.5241793" lon="138.8697566"><ele>760.6766666666666</ele><time>2023-11-12T02:34:46Z</time></trkpt><trkpt lat="35.5242677" lon="138.8699637"><ele>756.1700000000001</ele><time>2023-11-12T02:35:02Z</time></trkpt><trkpt lat="35.5243078" lon="138.8701878"><ele>749.0266666666666</ele><time>2023-11-12T02:35:34Z</time></trkpt><trkpt lat="35.5242897" lon="138.8704178"><ele>739.6999999999999</ele><time>2023-11-12T02:35:53Z</time></trkpt><trkpt lat="35.5243759" lon="138.8706179"><ele>731.88</ele><time>2023-11-12T02:36:19Z</time></trkpt><trkpt lat="35.5244533" lon="138.8708194"><ele>725.5466666666666</ele><time>2023-11-12T02:36:32Z</time></trkpt><trkpt lat="35.52452" lon="138.8710346"><ele>722.8566666666667</ele><time>2023-11-12T02:36:59Z</time></trkpt><trkpt lat="35.5247003" lon="138.871021"><ele>718.9166666666666</ele><time>2023-11-12T02:37:43Z</time></trkpt><trkpt lat="35.5247132" lon="138.8712644"><ele>714.8733333333333</ele><time>2023-11-12T02:38:20Z</time></trkpt><trkpt lat="35.5247009" lon="138.8714923"><ele>707.6766666666666</ele><time>2023-11-12T02:39:13Z</time></trkpt><trkpt lat="35.5246111" lon="138.8716866"><ele>703.3066666666667</ele><time>2023-11-12T02:39:26Z</time></trkpt><trkpt lat="35.5246255" lon="138.8719277"><ele>695.0166666666668</ele><time>2023-11-12T02:39:43Z</time></trkpt><trkpt lat="35.5247395" lon="138.8721033"><ele>683.9133333333333</ele><time>2023-11-12T02:40:37Z</time></trkpt><trkpt lat="35.5248796" lon="138.8722488"><ele>668.6833333333334</ele><time>2023-11-12T02:41:02Z</time></trkpt><trkpt lat="35.5250317" lon="138.8723702"><ele>653.7666666666668</ele><time>2023-11-12T02:41:31Z</time></trkpt><trkpt lat="35.5251913" lon="138.8724821"><ele>641.5633333333334</ele><time>2023-11-12T02:42:07Z</time></trkpt><trkpt lat="35.5253297" lon="138.8726288"><ele>628.6966666666666</ele><time>2023-11-12T02:42:28Z</time></trkpt><trkpt lat="35.5255105" lon="138.8726568"><ele>620.2766666666668</ele><time>2023-11-12T02:42:50Z</time></trkpt><trkpt lat="35.5256888" lon="138.8727018"><ele>613.0233333333334</ele><time>2023-11-12T02:43:51Z</time></trkpt><trkpt lat="35.5258709" lon="138.8726896"><ele>608.0633333333334</ele><time>2023-11-12T02:44:06Z</time></trkpt><trkpt lat="35.5259971" lon="138.8728503"><ele>602.3100000000001</ele><time>2023-11-12T02:44:32Z</time></trkpt><trkpt lat="35.5261731" lon="138.8729039"><ele>595.6133333333333</ele><time>2023-11-12T02:44:46Z</time></trkpt><trkpt lat="35.5262412" lon="138.872689"><ele>590.4933333333333</ele><time>2023-11-12T02:45:19Z</time></trkpt><trkpt lat="35.5263623" lon="138.8725074"><ele>585.4866666666667</ele><time>2023-11-12T02:45:34Z</time></trkpt><trkpt lat="35.5265219" lon="138.8726151"><ele>580.4866666666667</ele><time>2023-11-12T02:47:16Z</time></trkpt><trkpt lat="35.5266734" lon="138.8727384"><ele>574.92</ele><time>2023-11-12T02:47:29Z</time></trkpt><trkpt lat="35.5268519" lon="138.8727774"><ele>570.3033333333333</ele><time>2023-11-12T02:47:51Z</time></trkpt><trkpt lat="35.5270061" lon="138.8726529"><ele>568.5699999999999</ele><time>2023-11-12T02:48:02Z</time></trkpt><trkpt lat="35.5271701" lon="138.8725359"><ele>567.8733333333333</ele><time>2023-11-12T02:48:17Z</time></trkpt><trkpt lat="35.5273267" lon="138.8724175"><ele>567.6</ele><time>2023-11-12T02:48:32Z</time></trkpt><trkpt lat="35.5274876" lon="138.8723081"><ele>567.4666666666667</ele><time>2023-11-12T02:48:47Z</time></trkpt><trkpt lat="35.527661" lon="138.8722119"><ele>567.3966666666666</ele><time>2023-11-12T02:49:01Z</time></trkpt><trkpt lat="35.527823" lon="138.8720922"><ele>567.2400000000001</ele><time>2023-11-12T02:49:15Z</time></trkpt><trkpt lat="35.5280156" lon="138.8720574"><ele>567.0333333333334</ele><time>2023-11-12T02:49:26Z</time></trkpt><trkpt lat="35.528203" lon="138.8720169"><ele>566.6366666666667</ele><time>2023-11-12T02:49:37Z</time></trkpt><trkpt lat="35.5283702" lon="138.8719228"><ele>566.2366666666667</ele><time>2023-11-12T02:49:53Z</time></trkpt><trkpt lat="35.5285545" lon="138.8718401"><ele>565.86</ele><time>2023-11-12T02:50:05Z</time></trkpt><trkpt lat="35.5287362" lon="138.871841"><ele>565.5233333333333</ele><time>2023-11-12T02:50:15Z</time></trkpt><trkpt lat="35.5288126" lon="138.8716307"><ele>565.4733333333332</ele><time>2023-11-12T02:50:27Z</time></trkpt><trkpt lat="35.5289074" lon="138.8714388"><ele>565.5233333333333</ele><time>2023-11-12T02:50:37Z</time></trkpt><trkpt lat="35.5290364" lon="138.8712778"><ele>565.6</ele><time>2023-11-12T02:50:52Z</time></trkpt><trkpt lat="35.5290051" lon="138.8710575"><ele>565.6066666666667</ele><time>2023-11-12T02:51:05Z</time></trkpt><trkpt lat="35.5290509" lon="138.8712813"><ele>565.4333333333333</ele><time>2023-11-12T02:51:12Z</time></trkpt><trkpt lat="35.5291934" lon="138.8714527"><ele>565.17</ele><time>2023-11-12T02:51:21Z</time></trkpt><trkpt lat="35.5292934" lon="138.8716377"><ele>564.5466666666666</ele><time>2023-11-12T02:51:37Z</time></trkpt><trkpt lat="35.5293759" lon="138.8718368"><ele>564.0366666666667</ele><time>2023-11-12T02:51:51Z</time></trkpt><trkpt lat="35.5294631" lon="138.8720399"><ele>563.6433333333333</ele><time>2023-11-12T02:52:07Z</time></trkpt><trkpt lat="35.5296364" lon="138.8721028"><ele>563.3133333333334</ele><time>2023-11-12T02:52:26Z</time></trkpt><trkpt lat="35.5298134" lon="138.8720317"><ele>562.8566666666667</ele><time>2023-11-12T02:52:40Z</time></trkpt><trkpt lat="35.5299913" lon="138.8720707"><ele>562.3133333333334</ele><time>2023-11-12T02:53:00Z</time></trkpt><trkpt lat="35.5301155" lon="138.8722555"><ele>561.8233333333334</ele><time>2023-11-12T02:53:11Z</time></trkpt><trkpt lat="35.5302405" lon="138.872433"><ele>561.37</ele><time>2023-11-12T02:53:22Z</time></trkpt><trkpt lat="35.530427" lon="138.8724653"><ele>560.9266666666667</ele><time>2023-11-12T02:53:36Z</time></trkpt><trkpt lat="35.5305744" lon="138.872618"><ele>560.4433333333333</ele><time>2023-11-12T02:53:47Z</time></trkpt><trkpt lat="35.5305082" lon="138.8728277"><ele>559.9733333333334</ele><time>2023-11-12T02:53:58Z</time></trkpt><trkpt lat="35.5304873" lon="138.8730561"><ele>559.5166666666668</ele><time>2023-11-12T02:54:08Z</time></trkpt><trkpt lat="35.5306656" lon="138.8731156"><ele>559.1066666666667</ele><time>2023-11-12T02:54:27Z</time></trkpt><trkpt lat="35.5308204" lon="138.8732576"><ele>558.84</ele><time>2023-11-12T02:54:41Z</time></trkpt><trkpt lat="35.5309658" lon="138.8734215"><ele>558.7333333333332</ele><time>2023-11-12T02:55:02Z</time></trkpt><trkpt lat="35.5309559" lon="138.8736438"><ele>558.52</ele><time>2023-11-12T02:55:26Z</time></trkpt><trkpt lat="35.5310012" lon="138.8738637"><ele>558.1333333333333</ele><time>2023-11-12T02:55:38Z</time></trkpt><trkpt lat="35.5311356" lon="138.8740572"><ele>557.5766666666667</ele><time>2023-11-12T02:55:52Z</time></trkpt><trkpt lat="35.5313062" lon="138.8741704"><ele>557.0466666666666</ele><time>2023-11-12T02:56:07Z</time></trkpt><trkpt lat="35.5313157" lon="138.8743935"><ele>556.56</ele><time>2023-11-12T02:56:17Z</time></trkpt><trkpt lat="35.5315084" lon="138.8744069"><ele>556.11</ele><time>2023-11-12T02:56:42Z</time></trkpt><trkpt lat="35.531536" lon="138.8746261"><ele>555.66</ele><time>2023-11-12T02:56:56Z</time></trkpt><trkpt lat="35.5316234" lon="138.874829"><ele>555.12</ele><time>2023-11-12T02:57:12Z</time></trkpt><trkpt lat="35.5317041" lon="138.8750276"><ele>554.6533333333334</ele><time>2023-11-12T02:57:27Z</time></trkpt><trkpt lat="35.5317561" lon="138.8752735"><ele>554.3000000000001</ele><time>2023-11-12T02:57:45Z</time></trkpt><trkpt lat="35.5318746" lon="138.8754422"><ele>554.2066666666666</ele><time>2023-11-12T02:57:57Z</time></trkpt><trkpt lat="35.5320112" lon="138.8755893"><ele>554.2466666666668</ele><time>2023-11-12T02:58:13Z</time></trkpt><trkpt lat="35.5319306" lon="138.8757893"><ele>554.4066666666668</ele><time>2023-11-12T02:58:23Z</time></trkpt><trkpt lat="35.5320316" lon="138.8759922"><ele>554.4966666666667</ele><time>2023-11-12T02:58:34Z</time></trkpt><trkpt lat="35.5320822" lon="138.8762179"><ele>554.64</ele><time>2023-11-12T02:58:47Z</time></trkpt><trkpt lat="35.5321125" lon="138.8764372"><ele>554.63</ele><time>2023-11-12T02:59:00Z</time></trkpt><trkpt lat="35.5321386" lon="138.8766673"><ele>553.7533333333332</ele><time>2023-11-12T02:59:13Z</time></trkpt><trkpt lat="35.5321466" lon="138.8768917"><ele>552.58</ele><time>2023-11-12T02:59:27Z</time></trkpt><trkpt lat="35.5320067" lon="138.8770429"><ele>552.2599999999999</ele><time>2023-11-12T02:59:43Z</time></trkpt><trkpt lat="35.5321117" lon="138.8772596"><ele>553.3299999999999</ele><time>2023-11-12T03:07:33Z</time></trkpt><trkpt lat="35.5321702" lon="138.8774705"><ele>554.63</ele><time>2023-11-12T03:07:48Z</time></trkpt><trkpt lat="35.532205" lon="138.8776888"><ele>555.4733333333334</ele><time>2023-11-12T03:08:02Z</time></trkpt><trkpt lat="35.5323794" lon="138.8777793"><ele>555.7733333333333</ele><time>2023-11-12T03:08:27Z</time></trkpt><trkpt lat="35.5325664" lon="138.8778287"><ele>556.12</ele><time>2023-11-12T03:08:38Z</time></trkpt><trkpt lat="35.5326878" lon="138.8776562"><ele>556.3233333333334</ele><time>2023-11-12T03:08:56Z</time></trkpt><trkpt lat="35.5328653" lon="138.8777017"><ele>557.2166666666667</ele><time>2023-11-12T03:09:05Z</time></trkpt><trkpt lat="35.5329635" lon="138.8775097"><ele>559.1566666666666</ele><time>2023-11-12T03:09:44Z</time></trkpt><trkpt lat="35.5331423" lon="138.877545"><ele>563.6833333333334</ele><time>2023-11-12T03:10:38Z</time></trkpt><trkpt lat="35.5333264" lon="138.8774974"><ele>568.0</ele><time>2023-11-12T03:11:34Z</time></trkpt><trkpt lat="35.5335108" lon="138.8774882"><ele>571.5933333333334</ele><time>2023-11-12T03:11:47Z</time></trkpt><trkpt lat="35.5336835" lon="138.8774088"><ele>572.7333333333333</ele><time>2023-11-12T03:12:26Z</time></trkpt><trkpt lat="35.5338643" lon="138.8773416"><ele>573.54</ele><time>2023-11-12T03:12:38Z</time></trkpt><trkpt lat="35.5340633" lon="138.877279"><ele>573.9899999999999</ele><time>2023-11-12T03:13:01Z</time></trkpt><trkpt lat="35.5342391" lon="138.8771607"><ele>574.5366666666667</ele><time>2023-11-12T03:13:24Z</time></trkpt><trkpt lat="35.5344067" lon="138.877058"><ele>574.9666666666667</ele><time>2023-11-12T03:13:57Z</time></trkpt><trkpt lat="35.5345108" lon="138.8772409"><ele>570.9233333333333</ele><time>2023-11-12T03:14:42Z</time></trkpt><trkpt lat="35.5346269" lon="138.8774186"><ele>562.4266666666666</ele><time>2023-11-12T03:15:29Z</time></trkpt><trkpt lat="35.534562" lon="138.8776369"><ele>553.4033333333333</ele><time>2023-11-12T03:15:47Z</time></trkpt><trkpt lat="35.5346215" lon="138.8778649"><ele>547.5366666666665</ele><time>2023-11-12T03:16:10Z</time></trkpt><trkpt lat="35.5346352" lon="138.8780877"><ele>545.1999999999999</ele><time>2023-11-12T03:16:29Z</time></trkpt><trkpt lat="35.5344878" lon="138.878234"><ele>543.1033333333334</ele><time>2023-11-12T03:16:45Z</time></trkpt><trkpt lat="35.5344927" lon="138.8784636"><ele>541.83</ele><time>2023-11-12T03:16:55Z</time></trkpt><trkpt lat="35.5344307" lon="138.8786736"><ele>541.9433333333334</ele><time>2023-11-12T03:17:11Z</time></trkpt><trkpt lat="35.5342922" lon="138.8788199"><ele>543.1933333333333</ele><time>2023-11-12T03:17:23Z</time></trkpt><trkpt lat="35.534257" lon="138.8790391"><ele>546.2466666666667</ele><time>2023-11-12T03:17:41Z</time></trkpt><trkpt lat="35.534291" lon="138.8792562"><ele>549.7933333333334</ele><time>2023-11-12T03:18:19Z</time></trkpt><trkpt lat="35.534427" lon="138.879417"><ele>554.86</ele><time>2023-11-12T03:18:59Z</time></trkpt><trkpt lat="35.5345042" lon="138.8796275"><ele>559.9466666666666</ele><time>2023-11-12T03:20:02Z</time></trkpt><trkpt lat="35.5346805" lon="138.8795476"><ele>567.2866666666667</ele><time>2023-11-12T03:20:47Z</time></trkpt><trkpt lat="35.5347145" lon="138.8793294"><ele>571.4366666666666</ele><time>2023-11-12T03:20:59Z</time></trkpt><trkpt lat="35.5348732" lon="138.8791943"><ele>575.4566666666666</ele><time>2023-11-12T03:21:29Z</time></trkpt><trkpt lat="35.5350691" lon="138.8791826"><ele>579.4133333333333</ele><time>2023-11-12T03:21:58Z</time></trkpt><trkpt lat="35.5351277" lon="138.8793913"><ele>585.3733333333333</ele><time>2023-11-12T03:22:47Z</time></trkpt><trkpt lat="35.5351173" lon="138.8796186"><ele>590.6433333333333</ele><time>2023-11-12T03:23:13Z</time></trkpt><trkpt lat="35.5351122" lon="138.8798719"><ele>593.6066666666666</ele><time>2023-11-12T03:23:27Z</time></trkpt><trkpt lat="35.535141" lon="138.8800907"><ele>597.1633333333333</ele><time>2023-11-12T03:23:45Z</time></trkpt><trkpt lat="35.5351019" lon="138.8803135"><ele>600.8133333333334</ele><time>2023-11-12T03:24:10Z</time></trkpt><trkpt lat="35.5349582" lon="138.8804473"><ele>604.2033333333334</ele><time>2023-11-12T03:24:28Z</time></trkpt><trkpt lat="35.5348737" lon="138.8806459"><ele>607.8666666666667</ele><time>2023-11-12T03:25:12Z</time></trkpt><trkpt lat="35.5348746" lon="138.8808672"><ele>613.2266666666666</ele><time>2023-11-12T03:26:01Z</time></trkpt><trkpt lat="35.5347262" lon="138.8809989"><ele>620.2399999999999</ele><time>2023-11-12T03:26:55Z</time></trkpt><trkpt lat="35.5345777" lon="138.8811429"><ele>626.6233333333333</ele><time>2023-11-12T03:27:59Z</time></trkpt><trkpt lat="35.534477" lon="138.881326"><ele>631.4499999999999</ele><time>2023-11-12T03:28:46Z</time></trkpt><trkpt lat="35.534423" lon="138.8815459"><ele>634.6266666666667</ele><time>2023-11-12T03:29:05Z</time></trkpt><trkpt lat="35.5343597" lon="138.8817567"><ele>637.2733333333333</ele><time>2023-11-12T03:29:18Z</time></trkpt><trkpt lat="35.5343484" lon="138.8819785"><ele>641.3833333333333</ele><time>2023-11-12T03:29:49Z</time></trkpt><trkpt lat="35.534365" lon="138.8822051"><ele>645.69</ele><time>2023-11-12T03:30:35Z</time></trkpt><trkpt lat="35.5342395" lon="138.8823649"><ele>649.1766666666666</ele><time>2023-11-12T03:30:56Z</time></trkpt><trkpt lat="35.5341603" lon="138.8825658"><ele>650.92</ele><time>2023-11-12T03:31:15Z</time></trkpt><trkpt lat="35.5340924" lon="138.8827733"><ele>651.77</ele><time>2023-11-12T03:31:32Z</time></trkpt><trkpt lat="35.5339928" lon="138.8829678"><ele>653.0400000000001</ele><time>2023-11-12T03:31:51Z</time></trkpt><trkpt lat="35.5338563" lon="138.8831149"><ele>654.4033333333333</ele><time>2023-11-12T03:32:05Z</time></trkpt><trkpt lat="35.5337361" lon="138.8832841"><ele>656.4366666666667</ele><time>2023-11-12T03:32:25Z</time></trkpt><trkpt lat="35.5336419" lon="138.8834758"><ele>659.4233333333333</ele><time>2023-11-12T03:32:43Z</time></trkpt><trkpt lat="35.5335145" lon="138.8836471"><ele>664.3333333333334</ele><time>2023-11-12T03:33:45Z</time></trkpt><trkpt lat="35.5333689" lon="138.8837845"><ele>669.9333333333333</ele><time>2023-11-12T03:34:13Z</time></trkpt><trkpt lat="35.5332039" lon="138.8838734"><ele>675.7966666666666</ele><time>2023-11-12T03:34:40Z</time></trkpt><trkpt lat="35.5330456" lon="138.883986"><ele>679.73</ele><time>2023-11-12T03:34:58Z</time></trkpt><trkpt lat="35.5328603" lon="138.88405"><ele>682.6666666666666</ele><time>2023-11-12T03:35:17Z</time></trkpt><trkpt lat="35.5326735" lon="138.8840717"><ele>684.98</ele><time>2023-11-12T03:35:35Z</time></trkpt><trkpt lat="35.5324867" lon="138.8840979"><ele>687.7599999999999</ele><time>2023-11-12T03:36:19Z</time></trkpt><trkpt lat="35.5323166" lon="138.8841824"><ele>689.9699999999999</ele><time>2023-11-12T03:36:32Z</time></trkpt><trkpt lat="35.5321711" lon="138.8843589"><ele>690.38</ele><time>2023-11-12T03:36:45Z</time></trkpt><trkpt lat="35.5319789" lon="138.8844582"><ele>688.0633333333334</ele><time>2023-11-12T03:38:04Z</time></trkpt><trkpt lat="35.5318606" lon="138.8846278"><ele>681.8633333333333</ele><time>2023-11-12T03:38:30Z</time></trkpt><trkpt lat="35.5317233" lon="138.8847917"><ele>674.7166666666667</ele><time>2023-11-12T03:38:47Z</time></trkpt><trkpt lat="35.5315477" lon="138.8848935"><ele>670.5166666666668</ele><time>2023-11-12T03:39:19Z</time></trkpt><trkpt lat="35.5314535" lon="138.8850828"><ele>672.7333333333333</ele><time>2023-11-12T03:39:37Z</time></trkpt><trkpt lat="35.5316164" lon="138.885211"><ele>673.3733333333333</ele><time>2023-11-12T03:39:55Z</time></trkpt><trkpt lat="35.5317086" lon="138.8854034"><ele>673.1733333333333</ele><time>2023-11-12T03:40:13Z</time></trkpt><trkpt lat="35.5318864" lon="138.8855038"><ele>667.2466666666667</ele><time>2023-11-12T03:40:26Z</time></trkpt><trkpt lat="35.5320317" lon="138.885635"><ele>662.7533333333333</ele><time>2023-11-12T03:40:41Z</time></trkpt><trkpt lat="35.5321338" lon="138.8858287"><ele>656.79</ele><time>2023-11-12T03:40:59Z</time></trkpt><trkpt lat="35.5321174" lon="138.8860596"><ele>652.8333333333334</ele><time>2023-11-12T03:41:11Z</time></trkpt><trkpt lat="35.5320787" lon="138.8862776"><ele>650.7966666666666</ele><time>2023-11-12T03:41:26Z</time></trkpt><trkpt lat="35.5321184" lon="138.8864976"><ele>649.17</ele><time>2023-11-12T03:41:42Z</time></trkpt><trkpt lat="35.5320103" lon="138.8866762"><ele>651.2266666666667</ele><time>2023-11-12T03:42:05Z</time></trkpt><trkpt lat="35.5321103" lon="138.8868645"><ele>651.7866666666667</ele><time>2023-11-12T03:43:09Z</time></trkpt><trkpt lat="35.5319606" lon="138.8869891"><ele>651.9266666666666</ele><time>2023-11-12T03:43:37Z</time></trkpt><trkpt lat="35.5318132" lon="138.8871295"><ele>646.32</ele><time>2023-11-12T03:43:55Z</time></trkpt><trkpt lat="35.5316251" lon="138.8871485"><ele>643.17</ele><time>2023-11-12T03:44:10Z</time></trkpt><trkpt lat="35.5315282" lon="138.8873451"><ele>638.1466666666666</ele><time>2023-11-12T03:44:30Z</time></trkpt><trkpt lat="35.5314954" lon="138.8875645"><ele>635.5833333333334</ele><time>2023-11-12T03:45:12Z</time></trkpt><trkpt lat="35.5316315" lon="138.8877182"><ele>632.0633333333334</ele><time>2023-11-12T03:45:30Z</time></trkpt><trkpt lat="35.5317967" lon="138.8878163"><ele>631.0466666666666</ele><time>2023-11-12T03:45:44Z</time></trkpt><trkpt lat="35.5319682" lon="138.8879124"><ele>627.4133333333333</ele><time>2023-11-12T03:45:55Z</time></trkpt><trkpt lat="35.5321403" lon="138.8879933"><ele>621.8033333333333</ele><time>2023-11-12T03:46:09Z</time></trkpt><trkpt lat="35.5322968" lon="138.8878653"><ele>614.5433333333333</ele><time>2023-11-12T03:46:23Z</time></trkpt><trkpt lat="35.5324469" lon="138.8879936"><ele>610.38</ele><time>2023-11-12T03:46:37Z</time></trkpt><trkpt lat="35.5326508" lon="138.8879827"><ele>605.9933333333333</ele><time>2023-11-12T03:47:49Z</time></trkpt><trkpt lat="35.5327964" lon="138.8881187"><ele>602.54</ele><time>2023-11-12T03:48:14Z</time></trkpt><trkpt lat="35.5329075" lon="138.8883071"><ele>598.3966666666666</ele><time>2023-11-12T03:48:32Z</time></trkpt><trkpt lat="35.5329291" lon="138.888536"><ele>595.6899999999999</ele><time>2023-11-12T03:48:42Z</time></trkpt><trkpt lat="35.5330879" lon="138.888651"><ele>592.5566666666667</ele><time>2023-11-12T03:49:00Z</time></trkpt><trkpt lat="35.5331321" lon="138.8888749"><ele>590.2666666666668</ele><time>2023-11-12T03:49:52Z</time></trkpt><trkpt lat="35.5332706" lon="138.8890198"><ele>586.9433333333333</ele><time>2023-11-12T03:50:03Z</time></trkpt><trkpt lat="35.5332937" lon="138.8892409"><ele>584.1366666666667</ele><time>2023-11-12T03:50:37Z</time></trkpt><trkpt lat="35.5334407" lon="138.8893826"><ele>580.41</ele><time>2023-11-12T03:52:26Z</time></trkpt><trkpt lat="35.5335476" lon="138.8895608"><ele>578.2333333333333</ele><time>2023-11-12T03:52:38Z</time></trkpt><trkpt lat="35.5337147" lon="138.8897031"><ele>575.93</ele><time>2023-11-12T03:53:00Z</time></trkpt><trkpt lat="35.5338489" lon="138.8898605"><ele>573.27</ele><time>2023-11-12T03:53:28Z</time></trkpt><trkpt lat="35.5340025" lon="138.8899899"><ele>570.0766666666667</ele><time>2023-11-12T03:53:36Z</time></trkpt><trkpt lat="35.5341708" lon="138.8900866"><ele>567.4866666666667</ele><time>2023-11-12T03:53:55Z</time></trkpt><trkpt lat="35.5342884" lon="138.8902558"><ele>565.6633333333333</ele><time>2023-11-12T03:54:12Z</time></trkpt><trkpt lat="35.5344392" lon="138.8903812"><ele>564.0133333333333</ele><time>2023-11-12T03:54:24Z</time></trkpt><trkpt lat="35.534611" lon="138.8904954"><ele>561.48</ele><time>2023-11-12T03:54:36Z</time></trkpt><trkpt lat="35.534644" lon="138.8907391"><ele>560.3033333333334</ele><time>2023-11-12T03:54:38Z</time></trkpt><trkpt lat="35.5347387" lon="138.8909387"><ele>559.7866666666667</ele><time>2023-11-12T03:55:42Z</time></trkpt><trkpt lat="35.5345646" lon="138.8908617"><ele>561.51</ele><time>2023-11-12T03:56:50Z</time></trkpt><trkpt lat="35.5343909" lon="138.89095"><ele>564.0</ele><time>2023-11-12T03:57:02Z</time></trkpt><trkpt lat="35.5342127" lon="138.8909899"><ele>566.5933333333334</ele><time>2023-11-12T03:57:19Z</time></trkpt><trkpt lat="35.5340598" lon="138.8911091"><ele>569.0133333333333</ele><time>2023-11-12T03:57:46Z</time></trkpt><trkpt lat="35.5341184" lon="138.8913257"><ele>569.91</ele><time>2023-11-12T03:58:06Z</time></trkpt><trkpt lat="35.5342693" lon="138.8914608"><ele>570.77</ele><time>2023-11-12T03:58:27Z</time></trkpt><trkpt lat="35.5344499" lon="138.8914613"><ele>570.6466666666666</ele><time>2023-11-12T03:58:41Z</time></trkpt><trkpt lat="35.5344968" lon="138.8916827"><ele>573.7433333333333</ele><time>2023-11-12T03:59:16Z</time></trkpt><trkpt lat="35.5343529" lon="138.8918344"><ele>578.4133333333333</ele><time>2023-11-12T03:59:43Z</time></trkpt><trkpt lat="35.5341706" lon="138.891825"><ele>584.3766666666667</ele><time>2023-11-12T03:59:59Z</time></trkpt><trkpt lat="35.5340656" lon="138.892017"><ele>587.1033333333334</ele><time>2023-11-12T04:00:21Z</time></trkpt><trkpt lat="35.5339849" lon="138.8922312"><ele>588.1133333333333</ele><time>2023-11-12T04:00:34Z</time></trkpt><trkpt lat="35.5338896" lon="138.8924252"><ele>587.6833333333334</ele><time>2023-11-12T04:00:48Z</time></trkpt><trkpt lat="35.5337338" lon="138.8925394"><ele>586.6366666666667</ele><time>2023-11-12T04:01:16Z</time></trkpt><trkpt lat="35.5335525" lon="138.8925474"><ele>585.8433333333332</ele><time>2023-11-12T04:01:34Z</time></trkpt><trkpt lat="35.533375" lon="138.8926077"><ele>585.0500000000001</ele><time>2023-11-12T04:01:48Z</time></trkpt><trkpt lat="35.5331951" lon="138.8925936"><ele>585.82</ele><time>2023-11-12T04:02:05Z</time></trkpt><trkpt lat="35.5330596" lon="138.8927453"><ele>586.1066666666667</ele><time>2023-11-12T04:02:21Z</time></trkpt><trkpt lat="35.5329603" lon="138.892934"><ele>586.9866666666667</ele><time>2023-11-12T04:02:35Z</time></trkpt><trkpt lat="35.5328865" lon="138.8931374"><ele>587.23</ele><time>2023-11-12T04:02:56Z</time></trkpt><trkpt lat="35.5327358" lon="138.8932704"><ele>588.7900000000001</ele><time>2023-11-12T04:03:07Z</time></trkpt><trkpt lat="35.5327244" lon="138.8934985"><ele>590.8766666666667</ele><time>2023-11-12T04:03:27Z</time></trkpt><trkpt lat="35.5326462" lon="138.8937033"><ele>594.74</ele><time>2023-11-12T04:03:42Z</time></trkpt><trkpt lat="35.5325425" lon="138.8938847"><ele>600.1666666666666</ele><time>2023-11-12T04:03:55Z</time></trkpt><trkpt lat="35.5325274" lon="138.8941096"><ele>603.5066666666667</ele><time>2023-11-12T04:04:14Z</time></trkpt><trkpt lat="35.5324388" lon="138.894307"><ele>605.0</ele><time>2023-11-12T04:04:30Z</time></trkpt><trkpt lat="35.5324033" lon="138.8945238"><ele>605.06</ele><time>2023-11-12T04:04:43Z</time></trkpt><trkpt lat="35.5323594" lon="138.8947572"><ele>606.6166666666667</ele><time>2023-11-12T04:05:43Z</time></trkpt><trkpt lat="35.5321492" lon="138.8948626"><ele>608.41</ele><time>2023-11-12T04:06:42Z</time></trkpt><trkpt lat="35.5319851" lon="138.8949835"><ele>608.0799999999999</ele><time>2023-11-12T04:06:59Z</time></trkpt><trkpt lat="35.5318024" lon="138.8949146"><ele>608.3233333333333</ele><time>2023-11-12T04:07:12Z</time></trkpt><trkpt lat="35.5316148" lon="138.8949029"><ele>609.5933333333334</ele><time>2023-11-12T04:07:25Z</time></trkpt><trkpt lat="35.5314417" lon="138.8948323"><ele>612.0033333333334</ele><time>2023-11-12T04:07:40Z</time></trkpt><trkpt lat="35.5312637" lon="138.8947804"><ele>615.37</ele><time>2023-11-12T04:07:54Z</time></trkpt><trkpt lat="35.5310834" lon="138.894786"><ele>617.4566666666667</ele><time>2023-11-12T04:08:10Z</time></trkpt><trkpt lat="35.5309188" lon="138.8946936"><ele>620.1933333333333</ele><time>2023-11-12T04:08:20Z</time></trkpt><trkpt lat="35.5307365" lon="138.8947308"><ele>620.96</ele><time>2023-11-12T04:08:36Z</time></trkpt><trkpt lat="35.5305451" lon="138.8947793"><ele>620.2566666666667</ele><time>2023-11-12T04:08:54Z</time></trkpt><trkpt lat="35.5304179" lon="138.8946229"><ele>620.5133333333333</ele><time>2023-11-12T04:09:11Z</time></trkpt><trkpt lat="35.5302262" lon="138.8945971"><ele>621.54</ele><time>2023-11-12T04:09:23Z</time></trkpt><trkpt lat="35.5300377" lon="138.8945509"><ele>624.66</ele><time>2023-11-12T04:09:43Z</time></trkpt><trkpt lat="35.5298577" lon="138.8945139"><ele>626.07</ele><time>2023-11-12T04:10:07Z</time></trkpt><trkpt lat="35.5296758" lon="138.8944488"><ele>629.0266666666666</ele><time>2023-11-12T04:10:21Z</time></trkpt><trkpt lat="35.5294821" lon="138.8944495"><ele>631.9333333333334</ele><time>2023-11-12T04:10:36Z</time></trkpt><trkpt lat="35.5293013" lon="138.8944105"><ele>634.8533333333334</ele><time>2023-11-12T04:10:53Z</time></trkpt><trkpt lat="35.5291186" lon="138.8944124"><ele>636.67</ele><time>2023-11-12T04:11:10Z</time></trkpt><trkpt lat="35.529119" lon="138.8946515"><ele>637.9366666666667</ele><time>2023-11-12T04:11:43Z</time></trkpt><trkpt lat="35.5289242" lon="138.8946708"><ele>639.9499999999999</ele><time>2023-11-12T04:12:12Z</time></trkpt><trkpt lat="35.5288451" lon="138.8948931"><ele>640.7600000000001</ele><time>2023-11-12T04:12:36Z</time></trkpt><trkpt lat="35.5288207" lon="138.8951274"><ele>641.1866666666666</ele><time>2023-11-12T04:13:08Z</time></trkpt><trkpt lat="35.5288848" lon="138.8953603"><ele>641.6</ele><time>2023-11-12T04:13:18Z</time></trkpt><trkpt lat="35.5289418" lon="138.8955762"><ele>643.85</ele><time>2023-11-12T04:13:32Z</time></trkpt><trkpt lat="35.5290039" lon="138.8957836"><ele>647.4566666666666</ele><time>2023-11-12T04:13:43Z</time></trkpt><trkpt lat="35.5290464" lon="138.8960041"><ele>650.09</ele><time>2023-11-12T04:13:58Z</time></trkpt><trkpt lat="35.5290872" lon="138.8962224"><ele>650.6833333333334</ele><time>2023-11-12T04:14:33Z</time></trkpt><trkpt lat="35.5289165" lon="138.8963099"><ele>653.0366666666667</ele><time>2023-11-12T04:15:54Z</time></trkpt><trkpt lat="35.5287421" lon="138.8963721"><ele>656.54</ele><time>2023-11-12T04:16:05Z</time></trkpt><trkpt lat="35.5285722" lon="138.8964689"><ele>662.0433333333334</ele><time>2023-11-12T04:16:21Z</time></trkpt><trkpt lat="35.5285406" lon="138.8967021"><ele>664.1033333333334</ele><time>2023-11-12T04:16:34Z</time></trkpt><trkpt lat="35.5284343" lon="138.8968836"><ele>665.9366666666666</ele><time>2023-11-12T04:16:48Z</time></trkpt><trkpt lat="35.5283894" lon="138.8970981"><ele>666.8833333333333</ele><time>2023-11-12T04:17:08Z</time></trkpt><trkpt lat="35.5283644" lon="138.8973176"><ele>670.1066666666667</ele><time>2023-11-12T04:17:30Z</time></trkpt><trkpt lat="35.5283727" lon="138.8975411"><ele>672.9033333333333</ele><time>2023-11-12T04:17:44Z</time></trkpt><trkpt lat="35.5285476" lon="138.8976008"><ele>673.7166666666667</ele><time>2023-11-12T04:18:19Z</time></trkpt><trkpt lat="35.528606" lon="138.8978096"><ele>673.9333333333334</ele><time>2023-11-12T04:19:06Z</time></trkpt><trkpt lat="35.5287031" lon="138.8980134"><ele>676.7833333333333</ele><time>2023-11-12T04:19:58Z</time></trkpt><trkpt lat="35.5288458" lon="138.8981487"><ele>681.1233333333333</ele><time>2023-11-12T04:20:13Z</time></trkpt><trkpt lat="35.5287227" lon="138.8983176"><ele>686.2366666666667</ele><time>2023-11-12T04:21:08Z</time></trkpt><trkpt lat="35.5285688" lon="138.8984479"><ele>691.7866666666667</ele><time>2023-11-12T04:22:02Z</time></trkpt><trkpt lat="35.5285239" lon="138.8986687"><ele>698.64</ele><time>2023-11-12T04:22:32Z</time></trkpt><trkpt lat="35.5285011" lon="138.8988911"><ele>705.0633333333332</ele><time>2023-11-12T04:22:57Z</time></trkpt><trkpt lat="35.5286246" lon="138.8990537"><ele>706.4933333333333</ele><time>2023-11-12T04:23:23Z</time></trkpt><trkpt lat="35.5287832" lon="138.8991755"><ele>705.6866666666666</ele><time>2023-11-12T04:23:37Z</time></trkpt><trkpt lat="35.5289157" lon="138.8993283"><ele>703.37</ele><time>2023-11-12T04:23:52Z</time></trkpt><trkpt lat="35.5290785" lon="138.899449"><ele>702.3466666666667</ele><time>2023-11-12T04:24:07Z</time></trkpt><trkpt lat="35.5291779" lon="138.8996451"><ele>702.1266666666667</ele><time>2023-11-12T04:24:18Z</time></trkpt><trkpt lat="35.5293759" lon="138.8996083"><ele>702.1633333333334</ele><time>2023-11-12T04:24:38Z</time></trkpt><trkpt lat="35.5296121" lon="138.8996718"><ele>702.41</ele><time>2023-11-12T04:24:47Z</time></trkpt><trkpt lat="35.5297145" lon="138.8998561"><ele>702.6466666666666</ele><time>2023-11-12T04:25:09Z</time></trkpt><trkpt lat="35.5298948" lon="138.8998554"><ele>703.0099999999999</ele><time>2023-11-12T04:25:37Z</time></trkpt><trkpt lat="35.5300511" lon="138.8999945"><ele>703.5533333333333</ele><time>2023-11-12T04:25:51Z</time></trkpt><trkpt lat="35.5302193" lon="138.9000885"><ele>705.5533333333333</ele><time>2023-11-12T04:26:02Z</time></trkpt><trkpt lat="35.5303458" lon="138.9002571"><ele>707.5066666666667</ele><time>2023-11-12T04:26:25Z</time></trkpt><trkpt lat="35.5303816" lon="138.9004764"><ele>709.4133333333333</ele><time>2023-11-12T04:26:43Z</time></trkpt><trkpt lat="35.5304947" lon="138.9006563"><ele>710.2166666666667</ele><time>2023-11-12T04:27:12Z</time></trkpt><trkpt lat="35.5306329" lon="138.9008112"><ele>710.6566666666668</ele><time>2023-11-12T04:27:28Z</time></trkpt><trkpt lat="35.5307936" lon="138.9009403"><ele>711.0300000000001</ele><time>2023-11-12T04:27:39Z</time></trkpt><trkpt lat="35.5309366" lon="138.9010845"><ele>711.46</ele><time>2023-11-12T04:27:51Z</time></trkpt><trkpt lat="35.5311081" lon="138.9011824"><ele>711.4533333333334</ele><time>2023-11-12T04:28:16Z</time></trkpt><trkpt lat="35.5312937" lon="138.9012444"><ele>710.6166666666667</ele><time>2023-11-12T04:28:27Z</time></trkpt><trkpt lat="35.5314629" lon="138.9013554"><ele>708.2533333333334</ele><time>2023-11-12T04:28:37Z</time></trkpt><trkpt lat="35.5316294" lon="138.9014411"><ele>704.73</ele><time>2023-11-12T04:28:47Z</time></trkpt><trkpt lat="35.531803" lon="138.9015095"><ele>701.9233333333333</ele><time>2023-11-12T04:29:20Z</time></trkpt><trkpt lat="35.5319715" lon="138.9016086"><ele>700.1233333333333</ele><time>2023-11-12T04:29:30Z</time></trkpt><trkpt lat="35.5321204" lon="138.9017559"><ele>699.8233333333334</ele><time>2023-11-12T04:29:43Z</time></trkpt><trkpt lat="35.5322971" lon="138.9016561"><ele>695.6500000000001</ele><time>2023-11-12T04:30:16Z</time></trkpt><trkpt lat="35.5324006" lon="138.9014728"><ele>689.6866666666666</ele><time>2023-11-12T04:30:54Z</time></trkpt><trkpt lat="35.5324994" lon="138.9012818"><ele>682.4966666666668</ele><time>2023-11-12T04:31:12Z</time></trkpt><trkpt lat="35.5326275" lon="138.9011148"><ele>678.1533333333333</ele><time>2023-11-12T04:31:27Z</time></trkpt><trkpt lat="35.5327827" lon="138.9009793"><ele>675.5233333333334</ele><time>2023-11-12T04:31:45Z</time></trkpt><trkpt lat="35.5329671" lon="138.9010273"><ele>671.9333333333334</ele><time>2023-11-12T04:32:18Z</time></trkpt><trkpt lat="35.5330082" lon="138.9008061"><ele>669.2566666666667</ele><time>2023-11-12T04:32:36Z</time></trkpt><trkpt lat="35.5331216" lon="138.9006281"><ele>665.8466666666667</ele><time>2023-11-12T04:32:58Z</time></trkpt><trkpt lat="35.5333044" lon="138.9005404"><ele>663.1533333333333</ele><time>2023-11-12T04:33:14Z</time></trkpt><trkpt lat="35.5334841" lon="138.900514"><ele>658.0633333333334</ele><time>2023-11-12T04:33:31Z</time></trkpt><trkpt lat="35.5336433" lon="138.9006333"><ele>655.2733333333333</ele><time>2023-11-12T04:33:42Z</time></trkpt><trkpt lat="35.5338291" lon="138.9007114"><ele>654.9366666666666</ele><time>2023-11-12T04:33:59Z</time></trkpt><trkpt lat="35.534009" lon="138.9007428"><ele>658.21</ele><time>2023-11-12T04:34:17Z</time></trkpt><trkpt lat="35.5341899" lon="138.9007685"><ele>660.54</ele><time>2023-11-12T04:34:39Z</time></trkpt><trkpt lat="35.5343732" lon="138.9007876"><ele>662.0666666666666</ele><time>2023-11-12T04:34:53Z</time></trkpt><trkpt lat="35.5345593" lon="138.9008314"><ele>662.02</ele><time>2023-11-12T04:35:08Z</time></trkpt><trkpt lat="35.5347509" lon="138.9008729"><ele>659.54</ele><time>2023-11-12T04:35:18Z</time></trkpt><trkpt lat="35.5349456" lon="138.9008778"><ele>656.02</ele><time>2023-11-12T04:36:15Z</time></trkpt><trkpt lat="35.535103" lon="138.9009905"><ele>650.1866666666666</ele><time>2023-11-12T04:36:29Z</time></trkpt><trkpt lat="35.5352804" lon="138.9010451"><ele>644.41</ele><time>2023-11-12T04:37:08Z</time></trkpt><trkpt lat="35.5354573" lon="138.9010003"><ele>637.9466666666667</ele><time>2023-11-12T04:37:27Z</time></trkpt><trkpt lat="35.5356478" lon="138.9009943"><ele>633.0266666666668</ele><time>2023-11-12T04:37:38Z</time></trkpt><trkpt lat="35.535825" lon="138.9010448"><ele>627.98</ele><time>2023-11-12T04:38:38Z</time></trkpt><trkpt lat="35.535956" lon="138.9012112"><ele>622.6866666666666</ele><time>2023-11-12T04:39:02Z</time></trkpt><trkpt lat="35.5360642" lon="138.9013913"><ele>618.1166666666667</ele><time>2023-11-12T04:39:20Z</time></trkpt><trkpt lat="35.5361658" lon="138.9015979"><ele>614.86</ele><time>2023-11-12T04:39:59Z</time></trkpt><trkpt lat="35.5362729" lon="138.9017787"><ele>614.1433333333333</ele><time>2023-11-12T04:40:04Z</time></trkpt><trkpt lat="35.5363646" lon="138.9019853"><ele>613.4466666666667</ele><time>2023-11-12T04:40:11Z</time></trkpt><trkpt lat="35.5364524" lon="138.902181"><ele>613.7566666666667</ele><time>2023-11-12T04:40:34Z</time></trkpt><trkpt lat="35.5365578" lon="138.9023748"><ele>613.0133333333333</ele><time>2023-11-12T04:40:48Z</time></trkpt><trkpt lat="35.5366212" lon="138.9025833"><ele>612.7866666666666</ele><time>2023-11-12T04:41:04Z</time></trkpt><trkpt lat="35.5367841" lon="138.9026802"><ele>611.9966666666668</ele><time>2023-11-12T04:41:23Z</time></trkpt><trkpt lat="35.5369328" lon="138.9028234"><ele>610.4833333333332</ele><time>2023-11-12T04:42:02Z</time></trkpt><trkpt lat="35.5370026" lon="138.9025794"><ele>609.1433333333333</ele><time>2023-11-12T04:42:31Z</time></trkpt><trkpt lat="35.5371845" lon="138.9025838"><ele>607.2033333333334</ele><time>2023-11-12T04:42:59Z</time></trkpt><trkpt lat="35.5373652" lon="138.9026458"><ele>604.9033333333333</ele><time>2023-11-12T04:43:12Z</time></trkpt><trkpt lat="35.5375555" lon="138.9026804"><ele>600.7533333333333</ele><time>2023-11-12T04:43:30Z</time></trkpt><trkpt lat="35.5377424" lon="138.9026979"><ele>596.74</ele><time>2023-11-12T04:43:42Z</time></trkpt><trkpt lat="35.5379037" lon="138.9028065"><ele>593.6066666666667</ele><time>2023-11-12T04:44:09Z</time></trkpt><trkpt lat="35.5380852" lon="138.9028842"><ele>591.9433333333334</ele><time>2023-11-12T04:44:26Z</time></trkpt><trkpt lat="35.5382778" lon="138.9029414"><ele>591.5066666666667</ele><time>2023-11-12T04:44:38Z</time></trkpt><trkpt lat="35.538461" lon="138.9029589"><ele>592.87</ele><time>2023-11-12T04:44:49Z</time></trkpt><trkpt lat="35.5386356" lon="138.9030369"><ele>593.91</ele><time>2023-11-12T04:45:01Z</time></trkpt><trkpt lat="35.5387973" lon="138.9031386"><ele>593.6833333333333</ele><time>2023-11-12T04:45:16Z</time></trkpt><trkpt lat="35.5388882" lon="138.9033517"><ele>592.5333333333333</ele><time>2023-11-12T04:45:29Z</time></trkpt><trkpt lat="35.5390024" lon="138.9035324"><ele>590.4833333333333</ele><time>2023-11-12T04:45:42Z</time></trkpt><trkpt lat="35.5391886" lon="138.9035796"><ele>589.7933333333334</ele><time>2023-11-12T04:45:58Z</time></trkpt><trkpt lat="35.5393718" lon="138.903585"><ele>588.49</ele><time>2023-11-12T04:46:27Z</time></trkpt><trkpt lat="35.5395022" lon="138.9037559"><ele>586.9066666666666</ele><time>2023-11-12T04:46:43Z</time></trkpt><trkpt lat="35.5396436" lon="138.9039144"><ele>583.9366666666666</ele><time>2023-11-12T04:46:55Z</time></trkpt><trkpt lat="35.539754" lon="138.904102"><ele>581.9733333333334</ele><time>2023-11-12T04:47:11Z</time></trkpt><trkpt lat="35.5399127" lon="138.9042661"><ele>580.86</ele><time>2023-11-12T04:51:54Z</time></trkpt><trkpt lat="35.5400402" lon="138.9044224"><ele>579.11</ele><time>2023-11-12T04:52:21Z</time></trkpt><trkpt lat="35.5402324" lon="138.9045949"><ele>573.0866666666667</ele><time>2023-11-12T04:52:37Z</time></trkpt><trkpt lat="35.540366" lon="138.904764"><ele>567.6033333333334</ele><time>2023-11-12T04:53:06Z</time></trkpt><trkpt lat="35.5405318" lon="138.9048516"><ele>563.5166666666668</ele><time>2023-11-12T04:53:26Z</time></trkpt><trkpt lat="35.540729" lon="138.904818"><ele>562.4233333333333</ele><time>2023-11-12T04:53:43Z</time></trkpt><trkpt lat="35.5409293" lon="138.9048084"><ele>561.32</ele><time>2023-11-12T04:53:52Z</time></trkpt><trkpt lat="35.5411121" lon="138.9047221"><ele>556.3433333333334</ele><time>2023-11-12T04:54:04Z</time></trkpt><trkpt lat="35.5412773" lon="138.9048235"><ele>549.73</ele><time>2023-11-12T04:54:25Z</time></trkpt><trkpt lat="35.5414074" lon="138.9049884"><ele>542.13</ele><time>2023-11-12T04:54:43Z</time></trkpt><trkpt lat="35.5415698" lon="138.9051041"><ele>540.6500000000001</ele><time>2023-11-12T04:54:58Z</time></trkpt><trkpt lat="35.5415948" lon="138.9053353"><ele>543.2166666666667</ele><time>2023-11-12T04:56:14Z</time></trkpt><trkpt lat="35.5417731" lon="138.9053994"><ele>549.4833333333332</ele><time>2023-11-12T04:57:33Z</time></trkpt><trkpt lat="35.5419957" lon="138.905486"><ele>556.78</ele><time>2023-11-12T04:58:01Z</time></trkpt><trkpt lat="35.5421776" lon="138.9055658"><ele>564.1033333333334</ele><time>2023-11-12T04:59:07Z</time></trkpt><trkpt lat="35.5423268" lon="138.9057025"><ele>569.39</ele><time>2023-11-12T04:59:28Z</time></trkpt><trkpt lat="35.5424916" lon="138.9058122"><ele>571.9333333333334</ele><time>2023-11-12T04:59:52Z</time></trkpt><trkpt lat="35.5426906" lon="138.9059913"><ele>572.7066666666666</ele><time>2023-11-12T05:00:22Z</time></trkpt><trkpt lat="35.5427503" lon="138.9062136"><ele>574.07</ele><time>2023-11-12T05:00:40Z</time></trkpt><trkpt lat="35.5428481" lon="138.9064231"><ele>576.0566666666667</ele><time>2023-11-12T05:00:55Z</time></trkpt><trkpt lat="35.5429842" lon="138.9065799"><ele>577.7133333333333</ele><time>2023-11-12T05:01:13Z</time></trkpt><trkpt lat="35.5430915" lon="138.9067818"><ele>578.2199999999999</ele><time>2023-11-12T05:01:31Z</time></trkpt><trkpt lat="35.5431419" lon="138.9070116"><ele>576.5366666666667</ele><time>2023-11-12T05:01:50Z</time></trkpt><trkpt lat="35.5432219" lon="138.9072293"><ele>574.18</ele><time>2023-11-12T05:02:02Z</time></trkpt><trkpt lat="35.543344" lon="138.9074147"><ele>569.7866666666667</ele><time>2023-11-12T05:02:17Z</time></trkpt><trkpt lat="35.5435334" lon="138.9073698"><ele>565.3833333333333</ele><time>2023-11-12T05:02:41Z</time></trkpt><trkpt lat="35.5437154" lon="138.907417"><ele>560.9399999999999</ele><time>2023-11-12T05:03:02Z</time></trkpt><trkpt lat="35.543904" lon="138.9074862"><ele>557.5766666666667</ele><time>2023-11-12T05:03:21Z</time></trkpt><trkpt lat="35.5440606" lon="138.9076379"><ele>555.0100000000001</ele><time>2023-11-12T05:03:36Z</time></trkpt><trkpt lat="35.544203" lon="138.9078371"><ele>552.8533333333334</ele><time>2023-11-12T05:03:51Z</time></trkpt><trkpt lat="35.5443562" lon="138.9079835"><ele>550.9499999999999</ele><time>2023-11-12T05:04:06Z</time></trkpt><trkpt lat="35.5444833" lon="138.9081737"><ele>548.1766666666666</ele><time>2023-11-12T05:04:39Z</time></trkpt><trkpt lat="35.5446435" lon="138.90831"><ele>544.6433333333333</ele><time>2023-11-12T05:04:58Z</time></trkpt><trkpt lat="35.5448257" lon="138.9084036"><ele>541.7766666666666</ele><time>2023-11-12T05:05:25Z</time></trkpt><trkpt lat="35.5449949" lon="138.908527"><ele>539.79</ele><time>2023-11-12T05:05:40Z</time></trkpt><trkpt lat="35.5450962" lon="138.9087237"><ele>537.13</ele><time>2023-11-12T05:05:57Z</time></trkpt><trkpt lat="35.5452168" lon="138.9088935"><ele>534.05</ele><time>2023-11-12T05:06:12Z</time></trkpt><trkpt lat="35.545399" lon="138.9088506"><ele>533.38</ele><time>2023-11-12T05:06:36Z</time></trkpt><trkpt lat="35.545566" lon="138.9087456"><ele>536.6666666666666</ele><time>2023-11-12T05:06:54Z</time></trkpt><trkpt lat="35.5456715" lon="138.9085419"><ele>540.8233333333334</ele><time>2023-11-12T05:07:09Z</time></trkpt><trkpt lat="35.5456901" lon="138.9083065"><ele>541.1700000000001</ele><time>2023-11-12T05:07:24Z</time></trkpt><trkpt lat="35.545819" lon="138.9081197"><ele>537.5333333333333</ele><time>2023-11-12T05:08:00Z</time></trkpt><trkpt lat="35.5459491" lon="138.9079506"><ele>532.3633333333333</ele><time>2023-11-12T05:08:15Z</time></trkpt><trkpt lat="35.5460304" lon="138.9077473"><ele>526.1066666666667</ele><time>2023-11-12T05:08:39Z</time></trkpt><trkpt lat="35.5459281" lon="138.9075444"><ele>518.62</ele><time>2023-11-12T05:08:57Z</time></trkpt><trkpt lat="35.5460469" lon="138.9073401"><ele>509.71999999999997</ele><time>2023-11-12T05:09:12Z</time></trkpt><trkpt lat="35.5461484" lon="138.9071483"><ele>503.05333333333334</ele><time>2023-11-12T05:09:30Z</time></trkpt><trkpt lat="35.5463337" lon="138.9071958"><ele>500.1966666666667</ele><time>2023-11-12T05:09:41Z</time></trkpt><trkpt lat="35.5465365" lon="138.9071398"><ele>499.71999999999997</ele><time>2023-11-12T05:09:56Z</time></trkpt><trkpt lat="35.5466799" lon="138.9070024"><ele>499.66333333333336</ele><time>2023-11-12T05:10:06Z</time></trkpt><trkpt lat="35.5468698" lon="138.9070476"><ele>499.50333333333333</ele><time>2023-11-12T05:10:24Z</time></trkpt><trkpt lat="35.5470699" lon="138.9069925"><ele>499.43000000000006</ele><time>2023-11-12T05:10:37Z</time></trkpt><trkpt lat="35.5472603" lon="138.9069842"><ele>501.0</ele><time>2023-11-12T05:10:50Z</time></trkpt><trkpt lat="35.5474239" lon="138.9068906"><ele>502.05333333333334</ele><time>2023-11-12T05:11:00Z</time></trkpt><trkpt lat="35.5476351" lon="138.9067687"><ele>501.8533333333333</ele><time>2023-11-12T05:11:15Z</time></trkpt><trkpt lat="35.5477956" lon="138.9066216"><ele>498.5366666666667</ele><time>2023-11-12T05:11:36Z</time></trkpt><trkpt lat="35.5479722" lon="138.9064616"><ele>493.65333333333336</ele><time>2023-11-12T05:11:45Z</time></trkpt><trkpt lat="35.5480407" lon="138.9062324"><ele>489.5733333333333</ele><time>2023-11-12T05:11:57Z</time></trkpt><trkpt lat="35.5480017" lon="138.9059938"><ele>487.0</ele><time>2023-11-12T05:12:12Z</time></trkpt><trkpt lat="35.5482012" lon="138.9057785"><ele>485.82</ele><time>2023-11-12T05:12:27Z</time></trkpt><trkpt lat="35.548332" lon="138.9056094"><ele>485.40333333333336</ele><time>2023-11-12T05:12:39Z</time></trkpt><trkpt lat="35.5484682" lon="138.9054523"><ele>485.25333333333333</ele><time>2023-11-12T05:12:57Z</time></trkpt><trkpt lat="35.5486662" lon="138.9054645"><ele>485.37000000000006</ele><time>2023-11-12T05:13:18Z</time></trkpt><trkpt lat="35.5488337" lon="138.9056333"><ele>485.48333333333335</ele><time>2023-11-12T05:13:29Z</time></trkpt><trkpt lat="35.5490083" lon="138.9057803"><ele>485.6333333333334</ele><time>2023-11-12T05:13:44Z</time></trkpt><trkpt lat="35.5491261" lon="138.9060154"><ele>485.96000000000004</ele><time>2023-11-12T05:13:59Z</time></trkpt><trkpt lat="35.5492953" lon="138.9061567"><ele>486.56333333333333</ele><time>2023-11-12T05:14:14Z</time></trkpt><trkpt lat="35.5494662" lon="138.9062962"><ele>487.17666666666673</ele><time>2023-11-12T05:14:26Z</time></trkpt><trkpt lat="35.5496589" lon="138.9062796"><ele>487.47333333333336</ele><time>2023-11-12T05:14:41Z</time></trkpt><trkpt lat="35.5497895" lon="138.9060671"><ele>487.19000000000005</ele><time>2023-11-12T05:14:47Z</time></trkpt><trkpt lat="35.5498888" lon="138.905824"><ele>486.7166666666667</ele><time>2023-11-12T05:14:59Z</time></trkpt><trkpt lat="35.5500197" lon="138.9055924"><ele>486.00666666666666</ele><time>2023-11-12T05:15:11Z</time></trkpt><trkpt lat="35.550159" lon="138.9054229"><ele>485.2866666666667</ele><time>2023-11-12T05:15:26Z</time></trkpt><trkpt lat="35.5502824" lon="138.905173"><ele>484.3933333333334</ele><time>2023-11-12T05:15:59Z</time></trkpt><trkpt lat="35.5504214" lon="138.9050015"><ele>483.5933333333333</ele><time>2023-11-12T05:16:11Z</time></trkpt><trkpt lat="35.5505253" lon="138.9048196"><ele>482.78666666666663</ele><time>2023-11-12T05:16:22Z</time></trkpt></trkseg></trk></gpx>