<?xml version='1.0' encoding='UTF-8'?><gpx creator="YAMAP - https://yamap.com" xsi:schemaLocation="http://www.topografix.com/GPX/1/1 http://www.topografix.com/GPX/1/1/gpx.xsd" version="1.1" xmlns="http://www.topografix.com/GPX/1/1" xmlns:xsi="http://www.w3.org/2001/XMLSchema-instance"><metadata><bounds maxlat="35.8684087" maxlon="139.3205708" minlat="35.8480388" minlon="139.2760715"/></metadata><trk><name>龍崖山・柏木山・多峯主山を巡る</name><number>1</number><trkseg><trkpt lat="35.8512702" lon="139.3199977"><ele>106.31399667225298</ele><time>2023-12-26T23:21:12Z</time></trkpt><trkpt lat="35.8512834" lon="139.3197674"><ele>106.06419151989184</ele><time>2023-12-26T23:22:05Z</time></trkpt><trkpt lat="35.851323" lon="139.3195476"><ele>106.18101972790753</ele><time>2023-12-26T23:22:21Z</time></trkpt><trkpt lat="35.8514025" lon="139.3193275"><ele>106.1812952459308</ele><time>2023-12-26T23:22:34Z</time></trkpt><trkpt lat="35.8514654" lon="139.3191132"><ele>106.3481726897694</ele><time>2023-12-26T23:22:46Z</time></trkpt><trkpt lat="35.8515039" lon="139.3188752"><ele>106.44839116255896</ele><time>2023-12-26T23:22:56Z</time></trkpt><trkpt lat="35.8515839" lon="139.3186743"><ele>106.58193139146829</ele><time>2023-12-26T23:23:15Z</time></trkpt><trkpt lat="35.8516414" lon="139.3184618"><ele>106.64880983842136</ele><time>2023-12-26T23:23:25Z</time></trkpt><trkpt lat="35.8516895" lon="139.3182246"><ele>106.51567945531706</ele><time>2023-12-26T23:23:35Z</time></trkpt><trkpt lat="35.8517435" lon="139.3180006"><ele>106.38259107615777</ele><time>2023-12-26T23:23:53Z</time></trkpt><trkpt lat="35.8517769" lon="139.3177784"><ele>106.31620019784975</ele><time>2023-12-26T23:24:05Z</time></trkpt><trkpt lat="35.8518543" lon="139.3175657"><ele>106.31642647324354</ele><time>2023-12-26T23:24:19Z</time></trkpt><trkpt lat="35.8519181" lon="139.3173554"><ele>106.24996685182809</ele><time>2023-12-26T23:24:33Z</time></trkpt><trkpt lat="35.8519962" lon="139.3171512"><ele>106.38344246861773</ele><time>2023-12-26T23:24:52Z</time></trkpt><trkpt lat="35.8520382" lon="139.3169346"><ele>106.28362662160036</ele><time>2023-12-26T23:25:13Z</time></trkpt><trkpt lat="35.8521601" lon="139.316754"><ele>106.25039209062659</ele><time>2023-12-26T23:25:26Z</time></trkpt><trkpt lat="35.8522923" lon="139.3165804"><ele>105.9504142849022</ele><time>2023-12-26T23:25:36Z</time></trkpt><trkpt lat="35.8523042" lon="139.3163518"><ele>105.85047360436907</ele><time>2023-12-26T23:25:51Z</time></trkpt><trkpt lat="35.8523813" lon="139.3161461"><ele>105.75059738968876</ele><time>2023-12-26T23:26:06Z</time></trkpt><trkpt lat="35.8524731" lon="139.3159275"><ele>106.01746163008939</ele><time>2023-12-26T23:26:18Z</time></trkpt><trkpt lat="35.8526568" lon="139.315845"><ele>106.05070927026827</ele><time>2023-12-26T23:26:36Z</time></trkpt><trkpt lat="35.8527046" lon="139.3156201"><ele>106.05066512078281</ele><time>2023-12-26T23:26:48Z</time></trkpt><trkpt lat="35.8527664" lon="139.3153968"><ele>105.75065345323965</ele><time>2023-12-26T23:27:00Z</time></trkpt><trkpt lat="35.8527762" lon="139.3151733"><ele>105.91759361877025</ele><time>2023-12-26T23:27:09Z</time></trkpt><trkpt lat="35.8528151" lon="139.3149507"><ele>106.15121258143722</ele><time>2023-12-26T23:27:20Z</time></trkpt><trkpt lat="35.8528867" lon="139.3147401"><ele>106.21814516666097</ele><time>2023-12-26T23:27:30Z</time></trkpt><trkpt lat="35.8529237" lon="139.3145179"><ele>106.08504333437526</ele><time>2023-12-26T23:27:43Z</time></trkpt><trkpt lat="35.8530476" lon="139.3143382"><ele>105.88514640037909</ele><time>2023-12-26T23:28:00Z</time></trkpt><trkpt lat="35.8531116" lon="139.3141269"><ele>105.91858985117783</ele><time>2023-12-26T23:28:14Z</time></trkpt><trkpt lat="35.8531768" lon="139.3139147"><ele>105.98532921901653</ele><time>2023-12-26T23:28:31Z</time></trkpt><trkpt lat="35.8532609" lon="139.3137101"><ele>106.0854635429237</ele><time>2023-12-26T23:28:47Z</time></trkpt><trkpt lat="35.8533139" lon="139.3134972"><ele>106.15227519555752</ele><time>2023-12-26T23:28:59Z</time></trkpt><trkpt lat="35.8534442" lon="139.3133399"><ele>106.21897726886185</ele><time>2023-12-26T23:29:13Z</time></trkpt><trkpt lat="35.8535063" lon="139.3131299"><ele>106.41903824553515</ele><time>2023-12-26T23:29:24Z</time></trkpt><trkpt lat="35.8535494" lon="139.3129092"><ele>106.55245388582362</ele><time>2023-12-26T23:29:42Z</time></trkpt><trkpt lat="35.8536163" lon="139.3126939"><ele>106.61930618380154</ele><time>2023-12-26T23:29:55Z</time></trkpt><trkpt lat="35.8536255" lon="139.3124615"><ele>106.5195713462665</ele><time>2023-12-26T23:30:05Z</time></trkpt><trkpt lat="35.8534716" lon="139.312339"><ele>106.45333851372152</ele><time>2023-12-26T23:30:16Z</time></trkpt><trkpt lat="35.8535697" lon="139.3121379"><ele>106.45372589769067</ele><time>2023-12-26T23:30:23Z</time></trkpt><trkpt lat="35.8536786" lon="139.3119609"><ele>106.52062844333743</ele><time>2023-12-26T23:30:35Z</time></trkpt><trkpt lat="35.8537271" lon="139.3117399"><ele>106.58735201848145</ele><time>2023-12-26T23:30:47Z</time></trkpt><trkpt lat="35.8538287" lon="139.311526"><ele>106.85407980140747</ele><time>2023-12-26T23:31:03Z</time></trkpt><trkpt lat="35.8538889" lon="139.3113173"><ele>106.95421613356967</ele><time>2023-12-26T23:31:15Z</time></trkpt><trkpt lat="35.853871" lon="139.3110918"><ele>107.18776438225571</ele><time>2023-12-26T23:31:26Z</time></trkpt><trkpt lat="35.8540089" lon="139.3109463"><ele>107.05456405642929</ele><time>2023-12-26T23:31:40Z</time></trkpt><trkpt lat="35.8540637" lon="139.3107337"><ele>106.32136551194844</ele><time>2023-12-26T23:31:54Z</time></trkpt><trkpt lat="35.8540885" lon="139.3104958"><ele>105.4547916560316</ele><time>2023-12-26T23:32:09Z</time></trkpt><trkpt lat="35.8541077" lon="139.3102644"><ele>105.85507705098841</ele><time>2023-12-26T23:32:24Z</time></trkpt><trkpt lat="35.8542456" lon="139.3101165"><ele>105.85522481226421</ele><time>2023-12-26T23:32:34Z</time></trkpt><trkpt lat="35.8544178" lon="139.310047"><ele>105.85509553147915</ele><time>2023-12-26T23:32:50Z</time></trkpt><trkpt lat="35.8545639" lon="139.3099097"><ele>104.72142096386442</ele><time>2023-12-26T23:33:03Z</time></trkpt><trkpt lat="35.8547544" lon="139.3099115"><ele>105.02093361062411</ele><time>2023-12-26T23:33:17Z</time></trkpt><trkpt lat="35.8549391" lon="139.3099075"><ele>105.72039121320937</ele><time>2023-12-26T23:33:32Z</time></trkpt><trkpt lat="35.8551195" lon="139.3099259"><ele>106.419716084196</ele><time>2023-12-26T23:33:41Z</time></trkpt><trkpt lat="35.8550932" lon="139.3096927"><ele>106.81943491867527</ele><time>2023-12-26T23:33:51Z</time></trkpt><trkpt lat="35.8551879" lon="139.3094855"><ele>106.81938043159299</ele><time>2023-12-26T23:34:04Z</time></trkpt><trkpt lat="35.8551526" lon="139.309261"><ele>107.35912443428163</ele><time>2023-12-26T23:34:17Z</time></trkpt><trkpt lat="35.8551987" lon="139.3090245"><ele>107.69271782834574</ele><time>2023-12-26T23:34:35Z</time></trkpt><trkpt lat="35.8552356" lon="139.3088045"><ele>108.02638783889488</ele><time>2023-12-26T23:34:45Z</time></trkpt><trkpt lat="35.8552576" lon="139.3085806"><ele>108.0872573759849</ele><time>2023-12-26T23:34:58Z</time></trkpt><trkpt lat="35.8552962" lon="139.3083625"><ele>108.65418758381348</ele><time>2023-12-26T23:35:09Z</time></trkpt><trkpt lat="35.8553917" lon="139.3081245"><ele>109.22105596756951</ele><time>2023-12-26T23:35:20Z</time></trkpt><trkpt lat="35.8554119" lon="139.3078998"><ele>109.52125874041315</ele><time>2023-12-26T23:35:36Z</time></trkpt><trkpt lat="35.8554826" lon="139.3076919"><ele>109.52141752563666</ele><time>2023-12-26T23:35:51Z</time></trkpt><trkpt lat="35.8554942" lon="139.3074645"><ele>109.5216722081805</ele><time>2023-12-26T23:36:01Z</time></trkpt><trkpt lat="35.8555366" lon="139.3072473"><ele>109.58856040347939</ele><time>2023-12-26T23:36:15Z</time></trkpt><trkpt lat="35.8555089" lon="139.3070182"><ele>109.62225129372104</ele><time>2023-12-26T23:36:25Z</time></trkpt><trkpt lat="35.8555008" lon="139.3067966"><ele>109.5226267043558</ele><time>2023-12-26T23:36:40Z</time></trkpt><trkpt lat="35.8554138" lon="139.30658"><ele>110.33190872565082</ele><time>2023-12-26T23:36:56Z</time></trkpt><trkpt lat="35.8553308" lon="139.3063829"><ele>111.0776883054313</ele><time>2023-12-26T23:37:05Z</time></trkpt><trkpt lat="35.8552675" lon="139.3061754"><ele>111.97333333333331</ele><time>2023-12-26T23:37:19Z</time></trkpt><trkpt lat="35.8551511" lon="139.305999"><ele>112.58</ele><time>2023-12-26T23:37:31Z</time></trkpt><trkpt lat="35.8550457" lon="139.3058103"><ele>113.81333333333333</ele><time>2023-12-26T23:37:43Z</time></trkpt><trkpt lat="35.8549755" lon="139.3055923"><ele>114.77</ele><time>2023-12-26T23:37:59Z</time></trkpt><trkpt lat="35.8548955" lon="139.3053908"><ele>115.69</ele><time>2023-12-26T23:38:10Z</time></trkpt><trkpt lat="35.8548481" lon="139.3051748"><ele>115.86666666666667</ele><time>2023-12-26T23:38:19Z</time></trkpt><trkpt lat="35.8547827" lon="139.3049667"><ele>116.25333333333333</ele><time>2023-12-26T23:38:32Z</time></trkpt><trkpt lat="35.8547125" lon="139.3047473"><ele>115.78000000000002</ele><time>2023-12-26T23:38:48Z</time></trkpt><trkpt lat="35.8546365" lon="139.3045329"><ele>115.52666666666666</ele><time>2023-12-26T23:39:00Z</time></trkpt><trkpt lat="35.8545524" lon="139.3043309"><ele>115.63333333333333</ele><time>2023-12-26T23:39:18Z</time></trkpt><trkpt lat="35.8544446" lon="139.3041443"><ele>115.94</ele><time>2023-12-26T23:39:31Z</time></trkpt><trkpt lat="35.8544096" lon="139.3039254"><ele>116.39333333333333</ele><time>2023-12-26T23:39:45Z</time></trkpt><trkpt lat="35.854278" lon="139.30376"><ele>116.73</ele><time>2023-12-26T23:39:58Z</time></trkpt><trkpt lat="35.8542403" lon="139.3035291"><ele>117.33</ele><time>2023-12-26T23:40:11Z</time></trkpt><trkpt lat="35.8541257" lon="139.3033382"><ele>118.36000000000001</ele><time>2023-12-26T23:40:25Z</time></trkpt><trkpt lat="35.8540286" lon="139.3031359"><ele>119.57666666666667</ele><time>2023-12-26T23:40:37Z</time></trkpt><trkpt lat="35.8539679" lon="139.3029148"><ele>120.67</ele><time>2023-12-26T23:40:52Z</time></trkpt><trkpt lat="35.854014" lon="139.3026895"><ele>123.75333333333333</ele><time>2023-12-26T23:41:03Z</time></trkpt><trkpt lat="35.8541048" lon="139.3024919"><ele>126.98333333333335</ele><time>2023-12-26T23:41:15Z</time></trkpt><trkpt lat="35.8541474" lon="139.3022584"><ele>129.71</ele><time>2023-12-26T23:41:34Z</time></trkpt><trkpt lat="35.8542143" lon="139.302049"><ele>129.11333333333334</ele><time>2023-12-26T23:41:49Z</time></trkpt><trkpt lat="35.8542818" lon="139.3018414"><ele>127.28666666666668</ele><time>2023-12-26T23:41:58Z</time></trkpt><trkpt lat="35.8543428" lon="139.3016295"><ele>125.76333333333334</ele><time>2023-12-26T23:42:09Z</time></trkpt><trkpt lat="35.8544667" lon="139.3014628"><ele>123.64666666666666</ele><time>2023-12-26T23:42:20Z</time></trkpt><trkpt lat="35.8546174" lon="139.3015993"><ele>121.68</ele><time>2023-12-26T23:42:30Z</time></trkpt><trkpt lat="35.8547909" lon="139.3016837"><ele>119.38</ele><time>2023-12-26T23:42:41Z</time></trkpt><trkpt lat="35.8549586" lon="139.3017925"><ele>118.10333333333334</ele><time>2023-12-26T23:42:52Z</time></trkpt><trkpt lat="35.8551321" lon="139.301882"><ele>116.85333333333334</ele><time>2023-12-26T23:43:10Z</time></trkpt><trkpt lat="35.8553135" lon="139.3019203"><ele>115.61000000000001</ele><time>2023-12-26T23:43:34Z</time></trkpt><trkpt lat="35.8553061" lon="139.3016856"><ele>114.97000000000001</ele><time>2023-12-26T23:44:18Z</time></trkpt><trkpt lat="35.8554143" lon="139.3015023"><ele>114.50333333333333</ele><time>2023-12-26T23:44:31Z</time></trkpt><trkpt lat="35.8555021" lon="139.3013069"><ele>114.15333333333335</ele><time>2023-12-26T23:44:43Z</time></trkpt><trkpt lat="35.8556692" lon="139.3011945"><ele>113.23333333333333</ele><time>2023-12-26T23:44:57Z</time></trkpt><trkpt lat="35.8558028" lon="139.3010363"><ele>112.94</ele><time>2023-12-26T23:45:09Z</time></trkpt><trkpt lat="35.8559272" lon="139.3008735"><ele>113.19333333333333</ele><time>2023-12-26T23:45:20Z</time></trkpt><trkpt lat="35.856073" lon="139.3007427"><ele>113.77</ele><time>2023-12-26T23:45:37Z</time></trkpt><trkpt lat="35.8561074" lon="139.3005048"><ele>114.25</ele><time>2023-12-26T23:45:50Z</time></trkpt><trkpt lat="35.8560642" lon="139.3002846"><ele>114.71999999999998</ele><time>2023-12-26T23:46:12Z</time></trkpt><trkpt lat="35.8560616" lon="139.3000601"><ele>115.22666666666667</ele><time>2023-12-26T23:46:24Z</time></trkpt><trkpt lat="35.8561272" lon="139.2998524"><ele>115.49666666666667</ele><time>2023-12-26T23:46:39Z</time></trkpt><trkpt lat="35.8561876" lon="139.2996329"><ele>115.84999999999998</ele><time>2023-12-26T23:46:49Z</time></trkpt><trkpt lat="35.8562257" lon="139.2994134"><ele>116.64333333333333</ele><time>2023-12-26T23:47:02Z</time></trkpt><trkpt lat="35.8563149" lon="139.2992148"><ele>117.62</ele><time>2023-12-26T23:47:15Z</time></trkpt><trkpt lat="35.856372" lon="139.298991"><ele>118.21333333333332</ele><time>2023-12-26T23:47:25Z</time></trkpt><trkpt lat="35.8564284" lon="139.2987783"><ele>118.34666666666665</ele><time>2023-12-26T23:47:37Z</time></trkpt><trkpt lat="35.8565084" lon="139.298575"><ele>118.01333333333332</ele><time>2023-12-26T23:47:51Z</time></trkpt><trkpt lat="35.8565981" lon="139.2983761"><ele>117.63333333333333</ele><time>2023-12-26T23:48:04Z</time></trkpt><trkpt lat="35.8566658" lon="139.2981653"><ele>117.44</ele><time>2023-12-26T23:48:15Z</time></trkpt><trkpt lat="35.8567977" lon="139.2980114"><ele>117.66666666666667</ele><time>2023-12-26T23:48:27Z</time></trkpt><trkpt lat="35.8569041" lon="139.2978313"><ele>118.0</ele><time>2023-12-26T23:48:41Z</time></trkpt><trkpt lat="35.8569701" lon="139.2976141"><ele>118.14</ele><time>2023-12-26T23:48:55Z</time></trkpt><trkpt lat="35.8570093" lon="139.2973819"><ele>118.13</ele><time>2023-12-26T23:49:07Z</time></trkpt><trkpt lat="35.8570962" lon="139.2971877"><ele>118.18666666666667</ele><time>2023-12-26T23:49:18Z</time></trkpt><trkpt lat="35.857149" lon="139.2969576"><ele>118.02</ele><time>2023-12-26T23:49:31Z</time></trkpt><trkpt lat="35.8571408" lon="139.2967017"><ele>117.91000000000001</ele><time>2023-12-26T23:49:41Z</time></trkpt><trkpt lat="35.8572437" lon="139.2965156"><ele>117.33333333333333</ele><time>2023-12-26T23:49:59Z</time></trkpt><trkpt lat="35.8571897" lon="139.2963"><ele>117.17</ele><time>2023-12-26T23:50:31Z</time></trkpt><trkpt lat="35.8569944" lon="139.2963882"><ele>117.24000000000001</ele><time>2023-12-26T23:50:44Z</time></trkpt><trkpt lat="35.8568127" lon="139.2963811"><ele>118.30333333333334</ele><time>2023-12-26T23:50:57Z</time></trkpt><trkpt lat="35.8566335" lon="139.2963571"><ele>120.2</ele><time>2023-12-26T23:51:11Z</time></trkpt><trkpt lat="35.8564548" lon="139.2963029"><ele>122.58999999999999</ele><time>2023-12-26T23:51:31Z</time></trkpt><trkpt lat="35.8562856" lon="139.2962125"><ele>124.99333333333334</ele><time>2023-12-26T23:51:47Z</time></trkpt><trkpt lat="35.8561337" lon="139.2960902"><ele>127.12333333333333</ele><time>2023-12-26T23:52:02Z</time></trkpt><trkpt lat="35.8560262" lon="139.2959026"><ele>128.68</ele><time>2023-12-26T23:52:16Z</time></trkpt><trkpt lat="35.8559937" lon="139.2956844"><ele>130.56000000000003</ele><time>2023-12-26T23:52:36Z</time></trkpt><trkpt lat="35.8559059" lon="139.2954884"><ele>132.23666666666668</ele><time>2023-12-26T23:53:36Z</time></trkpt><trkpt lat="35.8559814" lon="139.29528"><ele>134.74666666666667</ele><time>2023-12-26T23:53:53Z</time></trkpt><trkpt lat="35.8560678" lon="139.2950771"><ele>137.38333333333333</ele><time>2023-12-26T23:54:08Z</time></trkpt><trkpt lat="35.856215" lon="139.2949433"><ele>141.78666666666666</ele><time>2023-12-26T23:54:25Z</time></trkpt><trkpt lat="35.856284" lon="139.2947383"><ele>146.79333333333335</ele><time>2023-12-26T23:54:43Z</time></trkpt><trkpt lat="35.8563184" lon="139.2945166"><ele>151.72</ele><time>2023-12-26T23:55:04Z</time></trkpt><trkpt lat="35.8563227" lon="139.2942808"><ele>155.74666666666667</ele><time>2023-12-26T23:55:27Z</time></trkpt><trkpt lat="35.8564291" lon="139.2940985"><ele>160.21333333333334</ele><time>2023-12-26T23:55:40Z</time></trkpt><trkpt lat="35.8562526" lon="139.2940262"><ele>163.1</ele><time>2023-12-26T23:56:54Z</time></trkpt><trkpt lat="35.8560921" lon="139.293922"><ele>166.22333333333333</ele><time>2023-12-26T23:57:55Z</time></trkpt><trkpt lat="35.8559984" lon="139.2937297"><ele>170.3166666666667</ele><time>2023-12-26T23:58:37Z</time></trkpt><trkpt lat="35.8558604" lon="139.293572"><ele>180.17333333333332</ele><time>2023-12-26T23:59:40Z</time></trkpt><trkpt lat="35.8557207" lon="139.2934159"><ele>191.87</ele><time>2023-12-27T00:00:43Z</time></trkpt><trkpt lat="35.8555707" lon="139.2932858"><ele>200.91333333333333</ele><time>2023-12-27T00:01:45Z</time></trkpt><trkpt lat="35.8555196" lon="139.2930696"><ele>205.41</ele><time>2023-12-27T00:02:16Z</time></trkpt><trkpt lat="35.8556326" lon="139.2928931"><ele>209.76</ele><time>2023-12-27T00:03:20Z</time></trkpt><trkpt lat="35.8556249" lon="139.292664"><ele>215.41333333333333</ele><time>2023-12-27T00:04:28Z</time></trkpt><trkpt lat="35.8556048" lon="139.2924399"><ele>222.83333333333334</ele><time>2023-12-27T00:05:25Z</time></trkpt><trkpt lat="35.855626" lon="139.292216"><ele>227.86666666666667</ele><time>2023-12-27T00:06:25Z</time></trkpt><trkpt lat="35.8554425" lon="139.2921014"><ele>231.21333333333334</ele><time>2023-12-27T00:08:16Z</time></trkpt><trkpt lat="35.8556085" lon="139.2921978"><ele>232.21666666666667</ele><time>2023-12-27T00:08:41Z</time></trkpt><trkpt lat="35.8554285" lon="139.2921777"><ele>232.01999999999998</ele><time>2023-12-27T00:12:19Z</time></trkpt><trkpt lat="35.8553189" lon="139.2919986"><ele>231.89333333333335</ele><time>2023-12-27T00:12:59Z</time></trkpt><trkpt lat="35.8551828" lon="139.292172"><ele>229.99666666666667</ele><time>2023-12-27T00:13:18Z</time></trkpt><trkpt lat="35.8550658" lon="139.2920029"><ele>229.42000000000004</ele><time>2023-12-27T00:13:40Z</time></trkpt><trkpt lat="35.8548869" lon="139.2921142"><ele>229.12666666666667</ele><time>2023-12-27T00:14:13Z</time></trkpt><trkpt lat="35.8546956" lon="139.2921048"><ele>230.76666666666665</ele><time>2023-12-27T00:14:47Z</time></trkpt><trkpt lat="35.8545063" lon="139.2921659"><ele>230.85666666666668</ele><time>2023-12-27T00:14:58Z</time></trkpt><trkpt lat="35.854553" lon="139.2923825"><ele>228.82333333333335</ele><time>2023-12-27T00:16:27Z</time></trkpt><trkpt lat="35.85468" lon="139.2925473"><ele>224.61666666666667</ele><time>2023-12-27T00:16:47Z</time></trkpt><trkpt lat="35.8546704" lon="139.2927727"><ele>217.72333333333333</ele><time>2023-12-27T00:17:14Z</time></trkpt><trkpt lat="35.8544896" lon="139.2927958"><ele>211.19666666666663</ele><time>2023-12-27T00:17:26Z</time></trkpt><trkpt lat="35.8543409" lon="139.2926559"><ele>204.49666666666667</ele><time>2023-12-27T00:17:40Z</time></trkpt><trkpt lat="35.8541468" lon="139.2926416"><ele>201.12</ele><time>2023-12-27T00:17:51Z</time></trkpt><trkpt lat="35.8539895" lon="139.2927507"><ele>199.81000000000003</ele><time>2023-12-27T00:18:16Z</time></trkpt><trkpt lat="35.8539798" lon="139.2929743"><ele>201.29999999999998</ele><time>2023-12-27T00:19:28Z</time></trkpt><trkpt lat="35.8537958" lon="139.2930379"><ele>205.20666666666668</ele><time>2023-12-27T00:20:01Z</time></trkpt><trkpt lat="35.8536438" lon="139.2931609"><ele>210.89</ele><time>2023-12-27T00:20:24Z</time></trkpt><trkpt lat="35.8536127" lon="139.2929354"><ele>215.89999999999998</ele><time>2023-12-27T00:21:21Z</time></trkpt><trkpt lat="35.8534365" lon="139.292992"><ele>220.12666666666667</ele><time>2023-12-27T00:22:55Z</time></trkpt><trkpt lat="35.8534983" lon="139.2932002"><ele>221.37666666666667</ele><time>2023-12-27T00:23:11Z</time></trkpt><trkpt lat="35.853497" lon="139.2934358"><ele>222.35333333333335</ele><time>2023-12-27T00:23:37Z</time></trkpt><trkpt lat="35.8534361" lon="139.2936475"><ele>219.87666666666667</ele><time>2023-12-27T00:23:58Z</time></trkpt><trkpt lat="35.8532886" lon="139.2934843"><ele>218.23333333333335</ele><time>2023-12-27T00:24:12Z</time></trkpt><trkpt lat="35.8531513" lon="139.2933267"><ele>217.43666666666664</ele><time>2023-12-27T00:24:30Z</time></trkpt><trkpt lat="35.8531227" lon="139.2931029"><ele>219.41666666666666</ele><time>2023-12-27T00:24:43Z</time></trkpt><trkpt lat="35.8530184" lon="139.2932875"><ele>218.28</ele><time>2023-12-27T00:25:28Z</time></trkpt><trkpt lat="35.8529976" lon="139.2935099"><ele>213.32333333333335</ele><time>2023-12-27T00:26:16Z</time></trkpt><trkpt lat="35.8529666" lon="139.2937284"><ele>204.60000000000002</ele><time>2023-12-27T00:27:06Z</time></trkpt><trkpt lat="35.8528832" lon="139.2939249"><ele>198.08</ele><time>2023-12-27T00:27:28Z</time></trkpt><trkpt lat="35.8528734" lon="139.2941483"><ele>197.14333333333335</ele><time>2023-12-27T00:27:56Z</time></trkpt><trkpt lat="35.8528735" lon="139.2943718"><ele>197.55333333333337</ele><time>2023-12-27T00:28:17Z</time></trkpt><trkpt lat="35.852745" lon="139.2942018"><ele>200.85333333333332</ele><time>2023-12-27T00:28:53Z</time></trkpt><trkpt lat="35.8526338" lon="139.294011"><ele>205.21333333333334</ele><time>2023-12-27T00:29:33Z</time></trkpt><trkpt lat="35.8524567" lon="139.2939657"><ele>212.75</ele><time>2023-12-27T00:30:01Z</time></trkpt><trkpt lat="35.8523491" lon="139.2941495"><ele>218.1966666666667</ele><time>2023-12-27T00:31:16Z</time></trkpt><trkpt lat="35.8522792" lon="139.2943594"><ele>219.90666666666667</ele><time>2023-12-27T00:31:32Z</time></trkpt><trkpt lat="35.8521419" lon="139.2945151"><ele>218.24333333333334</ele><time>2023-12-27T00:32:14Z</time></trkpt><trkpt lat="35.8520719" lon="139.2947208"><ele>214.29666666666665</ele><time>2023-12-27T00:32:52Z</time></trkpt><trkpt lat="35.8519998" lon="139.2949291"><ele>207.73333333333332</ele><time>2023-12-27T00:33:28Z</time></trkpt><trkpt lat="35.8519182" lon="139.295131"><ele>199.85</ele><time>2023-12-27T00:34:05Z</time></trkpt><trkpt lat="35.8517911" lon="139.2952901"><ele>191.99333333333334</ele><time>2023-12-27T00:34:27Z</time></trkpt><trkpt lat="35.851638" lon="139.2954279"><ele>186.09</ele><time>2023-12-27T00:34:40Z</time></trkpt><trkpt lat="35.8514819" lon="139.2955407"><ele>181.10666666666668</ele><time>2023-12-27T00:35:03Z</time></trkpt><trkpt lat="35.8515123" lon="139.2953206"><ele>180.00333333333333</ele><time>2023-12-27T00:35:24Z</time></trkpt><trkpt lat="35.851495" lon="139.2950966"><ele>178.87333333333333</ele><time>2023-12-27T00:35:38Z</time></trkpt><trkpt lat="35.8513148" lon="139.2950439"><ele>176.39666666666668</ele><time>2023-12-27T00:35:53Z</time></trkpt><trkpt lat="35.8513573" lon="139.2952628"><ele>173.38333333333333</ele><time>2023-12-27T00:36:14Z</time></trkpt><trkpt lat="35.8511796" lon="139.2951699"><ele>167.12</ele><time>2023-12-27T00:36:33Z</time></trkpt><trkpt lat="35.8511293" lon="139.2953954"><ele>162.41333333333333</ele><time>2023-12-27T00:36:53Z</time></trkpt><trkpt lat="35.8509343" lon="139.295427"><ele>152.83333333333334</ele><time>2023-12-27T00:37:23Z</time></trkpt><trkpt lat="35.8507545" lon="139.2953658"><ele>146.67</ele><time>2023-12-27T00:37:59Z</time></trkpt><trkpt lat="35.8506086" lon="139.2952241"><ele>142.03333333333333</ele><time>2023-12-27T00:38:15Z</time></trkpt><trkpt lat="35.8505562" lon="139.2950061"><ele>141.85000000000002</ele><time>2023-12-27T00:38:36Z</time></trkpt><trkpt lat="35.8504798" lon="139.2948046"><ele>143.26666666666665</ele><time>2023-12-27T00:38:56Z</time></trkpt><trkpt lat="35.8504052" lon="139.2945943"><ele>145.87666666666667</ele><time>2023-12-27T00:39:50Z</time></trkpt><trkpt lat="35.8502815" lon="139.2943881"><ele>147.54999999999998</ele><time>2023-12-27T00:40:25Z</time></trkpt><trkpt lat="35.8501205" lon="139.2945428"><ele>148.38333333333333</ele><time>2023-12-27T00:40:39Z</time></trkpt><trkpt lat="35.8499479" lon="139.2946252"><ele>150.03333333333333</ele><time>2023-12-27T00:41:25Z</time></trkpt><trkpt lat="35.8497605" lon="139.2947012"><ele>153.31</ele><time>2023-12-27T00:41:49Z</time></trkpt><trkpt lat="35.8496758" lon="139.2944963"><ele>157.23333333333332</ele><time>2023-12-27T00:42:17Z</time></trkpt><trkpt lat="35.8495669" lon="139.2943197"><ele>159.99</ele><time>2023-12-27T00:42:27Z</time></trkpt><trkpt lat="35.8494057" lon="139.2942026"><ele>162.99</ele><time>2023-12-27T00:42:33Z</time></trkpt><trkpt lat="35.8494514" lon="139.2939784"><ele>169.85333333333335</ele><time>2023-12-27T00:42:48Z</time></trkpt><trkpt lat="35.8493373" lon="139.293782"><ele>179.15666666666667</ele><time>2023-12-27T00:43:03Z</time></trkpt><trkpt lat="35.8491853" lon="139.29392"><ele>185.4766666666667</ele><time>2023-12-27T00:43:12Z</time></trkpt><trkpt lat="35.8490011" lon="139.2939428"><ele>187.17</ele><time>2023-12-27T00:43:38Z</time></trkpt><trkpt lat="35.848908" lon="139.2937438"><ele>187.42666666666665</ele><time>2023-12-27T00:43:48Z</time></trkpt><trkpt lat="35.8488319" lon="139.2935431"><ele>188.85999999999999</ele><time>2023-12-27T00:44:02Z</time></trkpt><trkpt lat="35.8487828" lon="139.293327"><ele>190.20666666666668</ele><time>2023-12-27T00:44:15Z</time></trkpt><trkpt lat="35.8486348" lon="139.2931962"><ele>189.67333333333332</ele><time>2023-12-27T00:44:28Z</time></trkpt><trkpt lat="35.8486041" lon="139.2929752"><ele>189.04999999999998</ele><time>2023-12-27T00:44:38Z</time></trkpt><trkpt lat="35.8484949" lon="139.2927966"><ele>188.64</ele><time>2023-12-27T00:44:55Z</time></trkpt><trkpt lat="35.848445" lon="139.2925642"><ele>188.54</ele><time>2023-12-27T00:45:15Z</time></trkpt><trkpt lat="35.8484486" lon="139.2923392"><ele>188.71666666666667</ele><time>2023-12-27T00:45:29Z</time></trkpt><trkpt lat="35.8483052" lon="139.2921863"><ele>189.11</ele><time>2023-12-27T00:45:42Z</time></trkpt><trkpt lat="35.8483341" lon="139.291957"><ele>189.42999999999998</ele><time>2023-12-27T00:45:56Z</time></trkpt><trkpt lat="35.8482327" lon="139.2917695"><ele>189.81333333333336</ele><time>2023-12-27T00:46:10Z</time></trkpt><trkpt lat="35.8481224" lon="139.2915825"><ele>190.56333333333336</ele><time>2023-12-27T00:46:25Z</time></trkpt><trkpt lat="35.8480787" lon="139.2913648"><ele>191.7966666666667</ele><time>2023-12-27T00:46:40Z</time></trkpt><trkpt lat="35.8480388" lon="139.2911421"><ele>193.64</ele><time>2023-12-27T00:47:01Z</time></trkpt><trkpt lat="35.8480702" lon="139.2909155"><ele>195.60000000000002</ele><time>2023-12-27T00:47:14Z</time></trkpt><trkpt lat="35.8481959" lon="139.290749"><ele>197.29666666666665</ele><time>2023-12-27T00:47:26Z</time></trkpt><trkpt lat="35.8483185" lon="139.2905669"><ele>198.16333333333333</ele><time>2023-12-27T00:47:39Z</time></trkpt><trkpt lat="35.8482657" lon="139.2903394"><ele>198.58</ele><time>2023-12-27T00:47:45Z</time></trkpt><trkpt lat="35.8482293" lon="139.290101"><ele>198.75333333333333</ele><time>2023-12-27T00:48:12Z</time></trkpt><trkpt lat="35.8483632" lon="139.2899274"><ele>198.82333333333335</ele><time>2023-12-27T00:48:28Z</time></trkpt><trkpt lat="35.8485345" lon="139.2898264"><ele>198.64</ele><time>2023-12-27T00:48:50Z</time></trkpt><trkpt lat="35.8486629" lon="139.2896709"><ele>198.22333333333333</ele><time>2023-12-27T00:49:04Z</time></trkpt><trkpt lat="35.8486115" lon="139.2894509"><ele>198.12</ele><time>2023-12-27T00:49:19Z</time></trkpt><trkpt lat="35.8486044" lon="139.289224"><ele>197.9333333333333</ele><time>2023-12-27T00:49:39Z</time></trkpt><trkpt lat="35.8485634" lon="139.2890061"><ele>197.96</ele><time>2023-12-27T00:49:50Z</time></trkpt><trkpt lat="35.848608" lon="139.2887908"><ele>197.22333333333336</ele><time>2023-12-27T00:50:06Z</time></trkpt><trkpt lat="35.8487943" lon="139.2887682"><ele>195.51</ele><time>2023-12-27T00:50:24Z</time></trkpt><trkpt lat="35.8489868" lon="139.2887552"><ele>193.63333333333333</ele><time>2023-12-27T00:50:36Z</time></trkpt><trkpt lat="35.8490757" lon="139.2885537"><ele>192.44000000000003</ele><time>2023-12-27T00:50:49Z</time></trkpt><trkpt lat="35.8491125" lon="139.2883326"><ele>192.17666666666665</ele><time>2023-12-27T00:51:00Z</time></trkpt><trkpt lat="35.8492791" lon="139.288223"><ele>192.33333333333334</ele><time>2023-12-27T00:51:11Z</time></trkpt><trkpt lat="35.8493345" lon="139.2880088"><ele>192.26999999999998</ele><time>2023-12-27T00:51:27Z</time></trkpt><trkpt lat="35.8492153" lon="139.2878171"><ele>192.6</ele><time>2023-12-27T00:52:00Z</time></trkpt><trkpt lat="35.8493196" lon="139.2876057"><ele>193.06333333333336</ele><time>2023-12-27T00:52:10Z</time></trkpt><trkpt lat="35.8494924" lon="139.2875121"><ele>193.9433333333333</ele><time>2023-12-27T00:52:22Z</time></trkpt><trkpt lat="35.8496387" lon="139.2873668"><ele>194.98333333333332</ele><time>2023-12-27T00:52:36Z</time></trkpt><trkpt lat="35.8497895" lon="139.2872353"><ele>195.81333333333336</ele><time>2023-12-27T00:53:04Z</time></trkpt><trkpt lat="35.8499519" lon="139.2871274"><ele>196.31333333333336</ele><time>2023-12-27T00:53:16Z</time></trkpt><trkpt lat="35.849961" lon="139.2868977"><ele>195.57666666666668</ele><time>2023-12-27T00:53:27Z</time></trkpt><trkpt lat="35.850092" lon="139.2867383"><ele>194.3033333333333</ele><time>2023-12-27T00:53:51Z</time></trkpt><trkpt lat="35.8502535" lon="139.286619"><ele>194.36666666666667</ele><time>2023-12-27T00:54:05Z</time></trkpt><trkpt lat="35.8502775" lon="139.2863973"><ele>196.18666666666664</ele><time>2023-12-27T00:54:25Z</time></trkpt><trkpt lat="35.8503617" lon="139.2861826"><ele>198.77666666666664</ele><time>2023-12-27T00:54:39Z</time></trkpt><trkpt lat="35.850457" lon="139.2859929"><ele>200.38</ele><time>2023-12-27T00:55:01Z</time></trkpt><trkpt lat="35.8505188" lon="139.2857775"><ele>201.7166666666667</ele><time>2023-12-27T00:55:25Z</time></trkpt><trkpt lat="35.8504676" lon="139.2855612"><ele>202.92666666666665</ele><time>2023-12-27T00:55:46Z</time></trkpt><trkpt lat="35.8503493" lon="139.2853778"><ele>204.2966666666667</ele><time>2023-12-27T00:55:57Z</time></trkpt><trkpt lat="35.8502017" lon="139.2852227"><ele>205.41666666666666</ele><time>2023-12-27T00:56:07Z</time></trkpt><trkpt lat="35.8500958" lon="139.2854096"><ele>205.12</ele><time>2023-12-27T00:56:23Z</time></trkpt><trkpt lat="35.8502265" lon="139.2852563"><ele>205.4466666666667</ele><time>2023-12-27T00:57:05Z</time></trkpt><trkpt lat="35.8503318" lon="139.2850717"><ele>205.84333333333333</ele><time>2023-12-27T00:57:18Z</time></trkpt><trkpt lat="35.8504114" lon="139.2848644"><ele>207.64000000000001</ele><time>2023-12-27T00:57:34Z</time></trkpt><trkpt lat="35.8502664" lon="139.2847163"><ele>208.58333333333334</ele><time>2023-12-27T00:57:51Z</time></trkpt><trkpt lat="35.8503091" lon="139.284497"><ele>209.95000000000002</ele><time>2023-12-27T00:58:22Z</time></trkpt><trkpt lat="35.8504685" lon="139.2843864"><ele>211.38333333333333</ele><time>2023-12-27T00:58:35Z</time></trkpt><trkpt lat="35.8505352" lon="139.2841766"><ele>212.80666666666664</ele><time>2023-12-27T00:58:46Z</time></trkpt><trkpt lat="35.8506086" lon="139.2839729"><ele>213.25666666666666</ele><time>2023-12-27T00:59:01Z</time></trkpt><trkpt lat="35.8507627" lon="139.283844"><ele>212.62</ele><time>2023-12-27T00:59:17Z</time></trkpt><trkpt lat="35.850807" lon="139.2836285"><ele>212.49333333333334</ele><time>2023-12-27T00:59:34Z</time></trkpt><trkpt lat="35.8509242" lon="139.2834543"><ele>212.62</ele><time>2023-12-27T01:00:35Z</time></trkpt><trkpt lat="35.8511092" lon="139.2834326"><ele>213.36</ele><time>2023-12-27T01:00:55Z</time></trkpt><trkpt lat="35.8512473" lon="139.283278"><ele>213.23666666666668</ele><time>2023-12-27T01:01:11Z</time></trkpt><trkpt lat="35.8513749" lon="139.2831076"><ele>212.99</ele><time>2023-12-27T01:01:21Z</time></trkpt><trkpt lat="35.8515307" lon="139.2829841"><ele>212.57333333333335</ele><time>2023-12-27T01:01:34Z</time></trkpt><trkpt lat="35.8517049" lon="139.2829261"><ele>212.06333333333336</ele><time>2023-12-27T01:02:13Z</time></trkpt><trkpt lat="35.8518512" lon="139.2830668"><ele>210.7266666666667</ele><time>2023-12-27T01:02:26Z</time></trkpt><trkpt lat="35.8520241" lon="139.2830006"><ele>210.20000000000002</ele><time>2023-12-27T01:02:40Z</time></trkpt><trkpt lat="35.8522057" lon="139.2830207"><ele>209.74333333333334</ele><time>2023-12-27T01:02:54Z</time></trkpt><trkpt lat="35.8523903" lon="139.283008"><ele>210.17000000000004</ele><time>2023-12-27T01:03:11Z</time></trkpt><trkpt lat="35.8525628" lon="139.28294"><ele>212.03666666666672</ele><time>2023-12-27T01:03:28Z</time></trkpt><trkpt lat="35.8527347" lon="139.282873"><ele>214.72</ele><time>2023-12-27T01:03:47Z</time></trkpt><trkpt lat="35.852917" lon="139.2828606"><ele>218.09333333333336</ele><time>2023-12-27T01:04:01Z</time></trkpt><trkpt lat="35.8530977" lon="139.2828275"><ele>218.92</ele><time>2023-12-27T01:04:14Z</time></trkpt><trkpt lat="35.8532779" lon="139.2828904"><ele>216.92999999999998</ele><time>2023-12-27T01:04:27Z</time></trkpt><trkpt lat="35.853463" lon="139.2829301"><ele>214.25333333333333</ele><time>2023-12-27T01:04:42Z</time></trkpt><trkpt lat="35.8536485" lon="139.282946"><ele>214.62</ele><time>2023-12-27T01:04:57Z</time></trkpt><trkpt lat="35.8538317" lon="139.2829396"><ele>218.07333333333335</ele><time>2023-12-27T01:05:13Z</time></trkpt><trkpt lat="35.8540166" lon="139.2828754"><ele>220.30333333333337</ele><time>2023-12-27T01:05:41Z</time></trkpt><trkpt lat="35.8541414" lon="139.2827117"><ele>221.80333333333337</ele><time>2023-12-27T01:05:55Z</time></trkpt><trkpt lat="35.8543235" lon="139.2826714"><ele>223.31000000000003</ele><time>2023-12-27T01:06:24Z</time></trkpt><trkpt lat="35.8545037" lon="139.2827429"><ele>223.84333333333333</ele><time>2023-12-27T01:06:43Z</time></trkpt><trkpt lat="35.8546828" lon="139.2827908"><ele>222.83333333333334</ele><time>2023-12-27T01:06:58Z</time></trkpt><trkpt lat="35.8548609" lon="139.2827523"><ele>222.42999999999998</ele><time>2023-12-27T01:07:24Z</time></trkpt><trkpt lat="35.8549931" lon="139.2825829"><ele>225.77666666666667</ele><time>2023-12-27T01:07:36Z</time></trkpt><trkpt lat="35.8550366" lon="139.2823578"><ele>229.15333333333334</ele><time>2023-12-27T01:08:23Z</time></trkpt><trkpt lat="35.8551756" lon="139.2822028"><ele>231.80333333333337</ele><time>2023-12-27T01:08:40Z</time></trkpt><trkpt lat="35.8551905" lon="139.2819693"><ele>233.38000000000002</ele><time>2023-12-27T01:08:56Z</time></trkpt><trkpt lat="35.8551868" lon="139.281743"><ele>235.67999999999998</ele><time>2023-12-27T01:09:16Z</time></trkpt><trkpt lat="35.8552193" lon="139.2815184"><ele>238.53</ele><time>2023-12-27T01:09:52Z</time></trkpt><trkpt lat="35.8551474" lon="139.2813142"><ele>243.2266666666667</ele><time>2023-12-27T01:10:23Z</time></trkpt><trkpt lat="35.8549813" lon="139.2812069"><ele>247.11</ele><time>2023-12-27T01:10:36Z</time></trkpt><trkpt lat="35.8549249" lon="139.2809966"><ele>250.37333333333333</ele><time>2023-12-27T01:12:54Z</time></trkpt><trkpt lat="35.8549986" lon="139.2807903"><ele>251.96</ele><time>2023-12-27T01:13:10Z</time></trkpt><trkpt lat="35.8551014" lon="139.2806058"><ele>253.26</ele><time>2023-12-27T01:13:25Z</time></trkpt><trkpt lat="35.8552343" lon="139.2804349"><ele>254.42333333333332</ele><time>2023-12-27T01:13:42Z</time></trkpt><trkpt lat="35.8552199" lon="139.2802055"><ele>254.28333333333333</ele><time>2023-12-27T01:14:01Z</time></trkpt><trkpt lat="35.8552625" lon="139.2799897"><ele>256.56</ele><time>2023-12-27T01:14:37Z</time></trkpt><trkpt lat="35.8554321" lon="139.2799073"><ele>259.18</ele><time>2023-12-27T01:15:08Z</time></trkpt><trkpt lat="35.8555968" lon="139.2798092"><ele>262.68333333333334</ele><time>2023-12-27T01:15:19Z</time></trkpt><trkpt lat="35.8557463" lon="139.2796613"><ele>264.27666666666664</ele><time>2023-12-27T01:15:32Z</time></trkpt><trkpt lat="35.8559142" lon="139.2795658"><ele>265.18</ele><time>2023-12-27T01:15:46Z</time></trkpt><trkpt lat="35.8560997" lon="139.2795564"><ele>265.6366666666667</ele><time>2023-12-27T01:16:04Z</time></trkpt><trkpt lat="35.8562822" lon="139.2795515"><ele>265.62666666666667</ele><time>2023-12-27T01:16:18Z</time></trkpt><trkpt lat="35.8562984" lon="139.2793271"><ele>267.0333333333333</ele><time>2023-12-27T01:16:40Z</time></trkpt><trkpt lat="35.8563324" lon="139.2791051"><ele>268.7033333333333</ele><time>2023-12-27T01:17:03Z</time></trkpt><trkpt lat="35.8562688" lon="139.2788975"><ele>270.1366666666667</ele><time>2023-12-27T01:17:15Z</time></trkpt><trkpt lat="35.8563284" lon="139.2786821"><ele>270.81333333333333</ele><time>2023-12-27T01:17:31Z</time></trkpt><trkpt lat="35.8562795" lon="139.2784641"><ele>271.3</ele><time>2023-12-27T01:17:51Z</time></trkpt><trkpt lat="35.8562789" lon="139.2782334"><ele>272.62999999999994</ele><time>2023-12-27T01:18:07Z</time></trkpt><trkpt lat="35.8562015" lon="139.2780154"><ele>274.00333333333333</ele><time>2023-12-27T01:18:25Z</time></trkpt><trkpt lat="35.8561249" lon="139.2778131"><ele>276.85999999999996</ele><time>2023-12-27T01:18:53Z</time></trkpt><trkpt lat="35.8560632" lon="139.2775971"><ele>282.49333333333334</ele><time>2023-12-27T01:19:25Z</time></trkpt><trkpt lat="35.8560502" lon="139.2773754"><ele>287.82666666666665</ele><time>2023-12-27T01:19:42Z</time></trkpt><trkpt lat="35.8561372" lon="139.2775775"><ele>292.1166666666666</ele><time>2023-12-27T01:40:59Z</time></trkpt><trkpt lat="35.8560938" lon="139.2773546"><ele>294.4166666666667</ele><time>2023-12-27T01:45:17Z</time></trkpt><trkpt lat="35.8560037" lon="139.2775475"><ele>292.72666666666663</ele><time>2023-12-27T01:55:07Z</time></trkpt><trkpt lat="35.8561391" lon="139.2773315"><ele>294.0266666666667</ele><time>2023-12-27T02:17:28Z</time></trkpt><trkpt lat="35.8559882" lon="139.2774583"><ele>290.91333333333336</ele><time>2023-12-27T02:19:46Z</time></trkpt><trkpt lat="35.8561533" lon="139.2773313"><ele>295.26666666666665</ele><time>2023-12-27T02:20:37Z</time></trkpt><trkpt lat="35.856268" lon="139.2771564"><ele>294.73333333333335</ele><time>2023-12-27T02:21:28Z</time></trkpt><trkpt lat="35.8564325" lon="139.2769725"><ele>294.37000000000006</ele><time>2023-12-27T02:21:58Z</time></trkpt><trkpt lat="35.8563656" lon="139.2767407"><ele>288.7266666666667</ele><time>2023-12-27T02:22:34Z</time></trkpt><trkpt lat="35.8563488" lon="139.2764984"><ele>283.18</ele><time>2023-12-27T02:22:52Z</time></trkpt><trkpt lat="35.8563042" lon="139.2762774"><ele>280.8566666666666</ele><time>2023-12-27T02:23:31Z</time></trkpt><trkpt lat="35.8562222" lon="139.2760715"><ele>277.53999999999996</ele><time>2023-12-27T02:23:43Z</time></trkpt><trkpt lat="35.8563054" lon="139.2762716"><ele>277.82</ele><time>2023-12-27T02:25:34Z</time></trkpt><trkpt lat="35.85633" lon="139.2765445"><ele>277.57666666666665</ele><time>2023-12-27T02:26:07Z</time></trkpt><trkpt lat="35.8562275" lon="139.2767489"><ele>279.3466666666667</ele><time>2023-12-27T02:26:22Z</time></trkpt><trkpt lat="35.8560933" lon="139.2768981"><ele>279.97333333333336</ele><time>2023-12-27T02:26:40Z</time></trkpt><trkpt lat="35.855908" lon="139.2768085"><ele>279.40333333333336</ele><time>2023-12-27T02:27:13Z</time></trkpt><trkpt lat="35.8556841" lon="139.2766872"><ele>278.3333333333333</ele><time>2023-12-27T02:27:25Z</time></trkpt><trkpt lat="35.8554969" lon="139.2767348"><ele>275.7566666666667</ele><time>2023-12-27T02:27:37Z</time></trkpt><trkpt lat="35.8553156" lon="139.2768727"><ele>274.4533333333333</ele><time>2023-12-27T02:27:52Z</time></trkpt><trkpt lat="35.8551352" lon="139.2769733"><ele>272.15000000000003</ele><time>2023-12-27T02:28:15Z</time></trkpt><trkpt lat="35.8553244" lon="139.276879"><ele>272.52333333333337</ele><time>2023-12-27T02:30:19Z</time></trkpt><trkpt lat="35.8555033" lon="139.2769606"><ele>274.38000000000005</ele><time>2023-12-27T02:30:52Z</time></trkpt><trkpt lat="35.8556946" lon="139.276997"><ele>278.7866666666667</ele><time>2023-12-27T02:31:16Z</time></trkpt><trkpt lat="35.855869" lon="139.2770955"><ele>282.15000000000003</ele><time>2023-12-27T02:31:34Z</time></trkpt><trkpt lat="35.8560163" lon="139.2772523"><ele>286.63666666666666</ele><time>2023-12-27T02:32:19Z</time></trkpt><trkpt lat="35.8560984" lon="139.2774939"><ele>291.43333333333334</ele><time>2023-12-27T02:32:43Z</time></trkpt><trkpt lat="35.856171" lon="139.2777028"><ele>293.31</ele><time>2023-12-27T02:33:07Z</time></trkpt><trkpt lat="35.8561891" lon="139.277963"><ele>288.76666666666665</ele><time>2023-12-27T02:33:31Z</time></trkpt><trkpt lat="35.8563127" lon="139.2781776"><ele>281.94</ele><time>2023-12-27T02:33:55Z</time></trkpt><trkpt lat="35.856282" lon="139.2784266"><ele>275.63</ele><time>2023-12-27T02:34:10Z</time></trkpt><trkpt lat="35.8563372" lon="139.2786515"><ele>273.6133333333333</ele><time>2023-12-27T02:34:25Z</time></trkpt><trkpt lat="35.8563321" lon="139.2788811"><ele>272.0933333333333</ele><time>2023-12-27T02:34:40Z</time></trkpt><trkpt lat="35.8563277" lon="139.2791183"><ele>271.6066666666666</ele><time>2023-12-27T02:34:55Z</time></trkpt><trkpt lat="35.8562595" lon="139.2793415"><ele>270.49</ele><time>2023-12-27T02:35:31Z</time></trkpt><trkpt lat="35.8561427" lon="139.279541"><ele>268.56333333333333</ele><time>2023-12-27T02:35:46Z</time></trkpt><trkpt lat="35.8559766" lon="139.2796424"><ele>266.6966666666667</ele><time>2023-12-27T02:35:55Z</time></trkpt><trkpt lat="35.8557906" lon="139.2797075"><ele>265.09999999999997</ele><time>2023-12-27T02:36:16Z</time></trkpt><trkpt lat="35.8556257" lon="139.2798321"><ele>264.6433333333334</ele><time>2023-12-27T02:36:40Z</time></trkpt><trkpt lat="35.8554736" lon="139.2799575"><ele>264.0</ele><time>2023-12-27T02:36:46Z</time></trkpt><trkpt lat="35.8553366" lon="139.2801594"><ele>262.42333333333335</ele><time>2023-12-27T02:37:01Z</time></trkpt><trkpt lat="35.8552724" lon="139.2803754"><ele>260.1066666666666</ele><time>2023-12-27T02:37:22Z</time></trkpt><trkpt lat="35.8551565" lon="139.2805775"><ele>257.60999999999996</ele><time>2023-12-27T02:37:55Z</time></trkpt><trkpt lat="35.8550186" lon="139.2807646"><ele>255.61</ele><time>2023-12-27T02:38:16Z</time></trkpt><trkpt lat="35.8550278" lon="139.2809965"><ele>253.95666666666668</ele><time>2023-12-27T02:39:04Z</time></trkpt><trkpt lat="35.855147" lon="139.2812188"><ele>252.41666666666666</ele><time>2023-12-27T02:39:13Z</time></trkpt><trkpt lat="35.8552142" lon="139.2814787"><ele>249.53333333333333</ele><time>2023-12-27T02:39:25Z</time></trkpt><trkpt lat="35.8552611" lon="139.281765"><ele>244.30000000000004</ele><time>2023-12-27T02:39:49Z</time></trkpt><trkpt lat="35.8552749" lon="139.2820093"><ele>239.13</ele><time>2023-12-27T02:40:04Z</time></trkpt><trkpt lat="35.8553224" lon="139.282261"><ele>235.65666666666667</ele><time>2023-12-27T02:40:40Z</time></trkpt><trkpt lat="35.85542" lon="139.2824561"><ele>234.36333333333332</ele><time>2023-12-27T02:40:55Z</time></trkpt><trkpt lat="35.8556059" lon="139.2825574"><ele>233.49666666666667</ele><time>2023-12-27T02:41:10Z</time></trkpt><trkpt lat="35.855755" lon="139.2827535"><ele>232.70333333333335</ele><time>2023-12-27T02:41:25Z</time></trkpt><trkpt lat="35.855762" lon="139.282987"><ele>232.50333333333333</ele><time>2023-12-27T02:41:43Z</time></trkpt><trkpt lat="35.8558207" lon="139.2832138"><ele>231.79333333333338</ele><time>2023-12-27T02:42:04Z</time></trkpt><trkpt lat="35.8557947" lon="139.2834378"><ele>231.21666666666667</ele><time>2023-12-27T02:42:31Z</time></trkpt><trkpt lat="35.8558743" lon="139.2836575"><ele>230.5666666666667</ele><time>2023-12-27T02:42:52Z</time></trkpt><trkpt lat="35.8560305" lon="139.2838481"><ele>229.62333333333333</ele><time>2023-12-27T02:43:04Z</time></trkpt><trkpt lat="35.8560905" lon="139.2840634"><ele>227.97333333333336</ele><time>2023-12-27T02:43:22Z</time></trkpt><trkpt lat="35.856267" lon="139.28419"><ele>226.12333333333333</ele><time>2023-12-27T02:43:34Z</time></trkpt><trkpt lat="35.8563301" lon="139.284448"><ele>223.95333333333335</ele><time>2023-12-27T02:43:58Z</time></trkpt><trkpt lat="35.8565174" lon="139.2845081"><ele>222.5666666666667</ele><time>2023-12-27T02:44:07Z</time></trkpt><trkpt lat="35.8564892" lon="139.2847484"><ele>221.17333333333332</ele><time>2023-12-27T02:44:31Z</time></trkpt><trkpt lat="35.8564347" lon="139.2849886"><ele>219.61666666666667</ele><time>2023-12-27T02:44:46Z</time></trkpt><trkpt lat="35.8564309" lon="139.2852109"><ele>217.78</ele><time>2023-12-27T02:45:04Z</time></trkpt><trkpt lat="35.8564769" lon="139.2854262"><ele>217.59666666666666</ele><time>2023-12-27T02:45:31Z</time></trkpt><trkpt lat="35.8565177" lon="139.2856868"><ele>219.35333333333332</ele><time>2023-12-27T02:45:49Z</time></trkpt><trkpt lat="35.8566399" lon="139.2858599"><ele>221.70333333333335</ele><time>2023-12-27T02:46:10Z</time></trkpt><trkpt lat="35.8567679" lon="139.2860461"><ele>221.76666666666665</ele><time>2023-12-27T02:46:25Z</time></trkpt><trkpt lat="35.8569935" lon="139.2860733"><ele>219.65</ele><time>2023-12-27T02:46:52Z</time></trkpt><trkpt lat="35.8571723" lon="139.2860167"><ele>217.13666666666666</ele><time>2023-12-27T02:47:28Z</time></trkpt><trkpt lat="35.8573379" lon="139.28613"><ele>214.24</ele><time>2023-12-27T02:47:43Z</time></trkpt><trkpt lat="35.8574949" lon="139.2862625"><ele>212.85666666666665</ele><time>2023-12-27T02:48:01Z</time></trkpt><trkpt lat="35.8576073" lon="139.2864461"><ele>210.40666666666667</ele><time>2023-12-27T02:48:19Z</time></trkpt><trkpt lat="35.8577846" lon="139.2865233"><ele>210.04999999999998</ele><time>2023-12-27T02:48:31Z</time></trkpt><trkpt lat="35.8577533" lon="139.2867627"><ele>207.95000000000002</ele><time>2023-12-27T02:48:43Z</time></trkpt><trkpt lat="35.8578497" lon="139.2869816"><ele>206.55666666666664</ele><time>2023-12-27T02:49:01Z</time></trkpt><trkpt lat="35.8579525" lon="139.287213"><ele>204.11666666666667</ele><time>2023-12-27T02:49:19Z</time></trkpt><trkpt lat="35.8579635" lon="139.2874376"><ele>202.87</ele><time>2023-12-27T02:49:37Z</time></trkpt><trkpt lat="35.8579995" lon="139.2876825"><ele>200.9466666666667</ele><time>2023-12-27T02:49:58Z</time></trkpt><trkpt lat="35.8581457" lon="139.2878148"><ele>197.57666666666668</ele><time>2023-12-27T02:50:19Z</time></trkpt><trkpt lat="35.8583228" lon="139.2879243"><ele>192.98000000000002</ele><time>2023-12-27T02:50:31Z</time></trkpt><trkpt lat="35.8584907" lon="139.2880356"><ele>187.25333333333333</ele><time>2023-12-27T02:50:52Z</time></trkpt><trkpt lat="35.8586132" lon="139.2882005"><ele>181.64333333333332</ele><time>2023-12-27T02:52:00Z</time></trkpt><trkpt lat="35.8585577" lon="139.2879684"><ele>180.08666666666667</ele><time>2023-12-27T02:53:07Z</time></trkpt><trkpt lat="35.8586574" lon="139.2877676"><ele>177.08666666666667</ele><time>2023-12-27T02:54:07Z</time></trkpt><trkpt lat="35.8587861" lon="139.287955"><ele>176.18666666666664</ele><time>2023-12-27T02:54:34Z</time></trkpt><trkpt lat="35.8589004" lon="139.2881487"><ele>170.22333333333333</ele><time>2023-12-27T02:54:52Z</time></trkpt><trkpt lat="35.8589318" lon="139.2883779"><ele>168.43</ele><time>2023-12-27T02:55:25Z</time></trkpt><trkpt lat="35.8590904" lon="139.2885674"><ele>162.39666666666668</ele><time>2023-12-27T02:55:40Z</time></trkpt><trkpt lat="35.8592539" lon="139.2886882"><ele>156.35999999999999</ele><time>2023-12-27T02:56:10Z</time></trkpt><trkpt lat="35.8591096" lon="139.2889174"><ele>154.63333333333333</ele><time>2023-12-27T02:56:43Z</time></trkpt><trkpt lat="35.8588961" lon="139.2890033"><ele>157.22666666666666</ele><time>2023-12-27T02:56:58Z</time></trkpt><trkpt lat="35.8587081" lon="139.2889715"><ele>159.52</ele><time>2023-12-27T02:57:14Z</time></trkpt><trkpt lat="35.8585168" lon="139.2889483"><ele>154.1966666666667</ele><time>2023-12-27T02:57:27Z</time></trkpt><trkpt lat="35.8583057" lon="139.2889562"><ele>148.90333333333334</ele><time>2023-12-27T02:57:44Z</time></trkpt><trkpt lat="35.8581193" lon="139.2890008"><ele>146.10333333333332</ele><time>2023-12-27T02:58:20Z</time></trkpt><trkpt lat="35.8579543" lon="139.2888808"><ele>145.73</ele><time>2023-12-27T02:58:38Z</time></trkpt><trkpt lat="35.8577722" lon="139.2887767"><ele>146.41</ele><time>2023-12-27T02:58:56Z</time></trkpt><trkpt lat="35.8579628" lon="139.2887964"><ele>148.26333333333332</ele><time>2023-12-27T02:59:22Z</time></trkpt><trkpt lat="35.8581586" lon="139.2889205"><ele>149.84666666666666</ele><time>2023-12-27T02:59:43Z</time></trkpt><trkpt lat="35.8583717" lon="139.2889481"><ele>148.49333333333334</ele><time>2023-12-27T02:59:58Z</time></trkpt><trkpt lat="35.8584425" lon="139.2891891"><ele>144.19</ele><time>2023-12-27T03:00:04Z</time></trkpt><trkpt lat="35.8584059" lon="139.2894397"><ele>139.46</ele><time>2023-12-27T03:00:49Z</time></trkpt><trkpt lat="35.8583942" lon="139.2891606"><ele>137.11333333333332</ele><time>2023-12-27T03:01:25Z</time></trkpt><trkpt lat="35.8585705" lon="139.2890392"><ele>139.58333333333334</ele><time>2023-12-27T03:01:40Z</time></trkpt><trkpt lat="35.8587677" lon="139.289089"><ele>146.98999999999998</ele><time>2023-12-27T03:01:52Z</time></trkpt><trkpt lat="35.858944" lon="139.2891513"><ele>154.62666666666667</ele><time>2023-12-27T03:02:07Z</time></trkpt><trkpt lat="35.8591651" lon="139.289061"><ele>159.78333333333333</ele><time>2023-12-27T03:02:19Z</time></trkpt><trkpt lat="35.8592498" lon="139.2888566"><ele>158.85666666666665</ele><time>2023-12-27T03:02:34Z</time></trkpt><trkpt lat="35.8594158" lon="139.2886887"><ele>150.63666666666668</ele><time>2023-12-27T03:02:47Z</time></trkpt><trkpt lat="35.8595663" lon="139.2885402"><ele>141.22</ele><time>2023-12-27T03:02:59Z</time></trkpt><trkpt lat="35.8597114" lon="139.288383"><ele>136.48</ele><time>2023-12-27T03:03:13Z</time></trkpt><trkpt lat="35.8598659" lon="139.2882578"><ele>139.61333333333334</ele><time>2023-12-27T03:03:25Z</time></trkpt><trkpt lat="35.8600468" lon="139.2881763"><ele>143.66</ele><time>2023-12-27T03:03:38Z</time></trkpt><trkpt lat="35.8601946" lon="139.2883072"><ele>142.4366666666667</ele><time>2023-12-27T03:03:52Z</time></trkpt><trkpt lat="35.860125" lon="139.2885178"><ele>139.08666666666667</ele><time>2023-12-27T03:04:04Z</time></trkpt><trkpt lat="35.8600594" lon="139.2887366"><ele>134.92666666666665</ele><time>2023-12-27T03:04:21Z</time></trkpt><trkpt lat="35.8599277" lon="139.2889114"><ele>131.60333333333332</ele><time>2023-12-27T03:04:35Z</time></trkpt><trkpt lat="35.8598524" lon="139.2891319"><ele>128.67</ele><time>2023-12-27T03:04:53Z</time></trkpt><trkpt lat="35.8597325" lon="139.2893209"><ele>127.21666666666665</ele><time>2023-12-27T03:05:10Z</time></trkpt><trkpt lat="35.859589" lon="139.2894877"><ele>127.69666666666667</ele><time>2023-12-27T03:05:28Z</time></trkpt><trkpt lat="35.859441" lon="139.2896707"><ele>128.23333333333335</ele><time>2023-12-27T03:05:43Z</time></trkpt><trkpt lat="35.8593289" lon="139.2898513"><ele>128.48333333333335</ele><time>2023-12-27T03:05:58Z</time></trkpt><trkpt lat="35.8592038" lon="139.2900905"><ele>128.59</ele><time>2023-12-27T03:06:13Z</time></trkpt><trkpt lat="35.859074" lon="139.290267"><ele>128.44333333333336</ele><time>2023-12-27T03:06:25Z</time></trkpt><trkpt lat="35.8590508" lon="139.290521"><ele>127.50666666666667</ele><time>2023-12-27T03:06:37Z</time></trkpt><trkpt lat="35.8589371" lon="139.2907432"><ele>126.28333333333335</ele><time>2023-12-27T03:06:49Z</time></trkpt><trkpt lat="35.8588174" lon="139.290954"><ele>125.82666666666667</ele><time>2023-12-27T03:07:04Z</time></trkpt><trkpt lat="35.8587229" lon="139.2912203"><ele>126.36333333333334</ele><time>2023-12-27T03:07:22Z</time></trkpt><trkpt lat="35.8586424" lon="139.2914666"><ele>126.98333333333333</ele><time>2023-12-27T03:07:34Z</time></trkpt><trkpt lat="35.8585484" lon="139.2916858"><ele>126.89666666666669</ele><time>2023-12-27T03:07:46Z</time></trkpt><trkpt lat="35.8585179" lon="139.2919197"><ele>126.02</ele><time>2023-12-27T03:08:04Z</time></trkpt><trkpt lat="35.8584929" lon="139.2921657"><ele>125.02666666666666</ele><time>2023-12-27T03:08:22Z</time></trkpt><trkpt lat="35.8583982" lon="139.2923958"><ele>124.03333333333335</ele><time>2023-12-27T03:08:34Z</time></trkpt><trkpt lat="35.858287" lon="139.2925951"><ele>123.87666666666667</ele><time>2023-12-27T03:08:51Z</time></trkpt><trkpt lat="35.8582519" lon="139.2928823"><ele>124.01333333333334</ele><time>2023-12-27T03:09:06Z</time></trkpt><trkpt lat="35.8582011" lon="139.2931471"><ele>124.36666666666667</ele><time>2023-12-27T03:09:18Z</time></trkpt><trkpt lat="35.8583776" lon="139.2933024"><ele>123.91333333333334</ele><time>2023-12-27T03:09:51Z</time></trkpt><trkpt lat="35.8585414" lon="139.2934505"><ele>122.88</ele><time>2023-12-27T03:10:03Z</time></trkpt><trkpt lat="35.8587218" lon="139.293542"><ele>120.99666666666667</ele><time>2023-12-27T03:10:27Z</time></trkpt><trkpt lat="35.8588816" lon="139.2936553"><ele>117.2</ele><time>2023-12-27T03:10:57Z</time></trkpt><trkpt lat="35.8589598" lon="139.293889"><ele>113.3</ele><time>2023-12-27T03:11:18Z</time></trkpt><trkpt lat="35.8589678" lon="139.2941255"><ele>109.85333333333334</ele><time>2023-12-27T03:11:33Z</time></trkpt><trkpt lat="35.8590982" lon="139.2942977"><ele>107.50999999999999</ele><time>2023-12-27T03:12:09Z</time></trkpt><trkpt lat="35.8592569" lon="139.2944164"><ele>106.25</ele><time>2023-12-27T03:14:21Z</time></trkpt><trkpt lat="35.8594596" lon="139.2943212"><ele>107.20666666666666</ele><time>2023-12-27T03:15:06Z</time></trkpt><trkpt lat="35.8596594" lon="139.2942733"><ele>111.04333333333334</ele><time>2023-12-27T03:15:45Z</time></trkpt><trkpt lat="35.8597879" lon="139.2940285"><ele>115.64999999999999</ele><time>2023-12-27T03:15:57Z</time></trkpt><trkpt lat="35.859965" lon="139.2939161"><ele>118.60333333333334</ele><time>2023-12-27T03:16:18Z</time></trkpt><trkpt lat="35.8601016" lon="139.294076"><ele>120.09666666666665</ele><time>2023-12-27T03:16:36Z</time></trkpt><trkpt lat="35.860278" lon="139.2941353"><ele>120.36666666666667</ele><time>2023-12-27T03:16:45Z</time></trkpt><trkpt lat="35.8604562" lon="139.294206"><ele>120.53333333333335</ele><time>2023-12-27T03:17:00Z</time></trkpt><trkpt lat="35.8606385" lon="139.2942913"><ele>120.82333333333332</ele><time>2023-12-27T03:17:12Z</time></trkpt><trkpt lat="35.8606379" lon="139.2945471"><ele>120.88333333333333</ele><time>2023-12-27T03:17:24Z</time></trkpt><trkpt lat="35.8608484" lon="139.2945639"><ele>121.34333333333335</ele><time>2023-12-27T03:17:36Z</time></trkpt><trkpt lat="35.8608853" lon="139.2947883"><ele>121.69666666666666</ele><time>2023-12-27T03:17:57Z</time></trkpt><trkpt lat="35.8608119" lon="139.2950058"><ele>122.19</ele><time>2023-12-27T03:18:21Z</time></trkpt><trkpt lat="35.8607768" lon="139.2952323"><ele>122.56</ele><time>2023-12-27T03:18:30Z</time></trkpt><trkpt lat="35.8607253" lon="139.295474"><ele>122.95333333333333</ele><time>2023-12-27T03:18:48Z</time></trkpt><trkpt lat="35.8606465" lon="139.2957443"><ele>123.77000000000002</ele><time>2023-12-27T03:19:00Z</time></trkpt><trkpt lat="35.8604962" lon="139.2959577"><ele>124.04333333333334</ele><time>2023-12-27T03:19:12Z</time></trkpt><trkpt lat="35.8604776" lon="139.296192"><ele>124.14333333333333</ele><time>2023-12-27T03:19:27Z</time></trkpt><trkpt lat="35.86048" lon="139.2964792"><ele>123.97666666666667</ele><time>2023-12-27T03:19:45Z</time></trkpt><trkpt lat="35.8603726" lon="139.2966987"><ele>123.37</ele><time>2023-12-27T03:19:54Z</time></trkpt><trkpt lat="35.8603737" lon="139.2969477"><ele>122.25333333333333</ele><time>2023-12-27T03:20:09Z</time></trkpt><trkpt lat="35.8603755" lon="139.2972074"><ele>120.99333333333334</ele><time>2023-12-27T03:20:27Z</time></trkpt><trkpt lat="35.8602607" lon="139.297401"><ele>121.16333333333334</ele><time>2023-12-27T03:20:45Z</time></trkpt><trkpt lat="35.8604016" lon="139.2972553"><ele>121.00333333333333</ele><time>2023-12-27T03:21:15Z</time></trkpt><trkpt lat="35.8606261" lon="139.2972524"><ele>123.37666666666667</ele><time>2023-12-27T03:21:30Z</time></trkpt><trkpt lat="35.8607579" lon="139.2970986"><ele>125.87666666666667</ele><time>2023-12-27T03:21:51Z</time></trkpt><trkpt lat="35.8609341" lon="139.2969691"><ele>129.34</ele><time>2023-12-27T03:22:18Z</time></trkpt><trkpt lat="35.8611" lon="139.2968534"><ele>129.86333333333334</ele><time>2023-12-27T03:22:27Z</time></trkpt><trkpt lat="35.8612754" lon="139.2967211"><ele>128.88333333333333</ele><time>2023-12-27T03:22:42Z</time></trkpt><trkpt lat="35.8614691" lon="139.2967824"><ele>128.76</ele><time>2023-12-27T03:22:57Z</time></trkpt><trkpt lat="35.8616529" lon="139.2967376"><ele>128.71333333333334</ele><time>2023-12-27T03:23:09Z</time></trkpt><trkpt lat="35.8618347" lon="139.2967321"><ele>129.39000000000001</ele><time>2023-12-27T03:23:24Z</time></trkpt><trkpt lat="35.8620334" lon="139.2966216"><ele>128.82666666666668</ele><time>2023-12-27T03:23:39Z</time></trkpt><trkpt lat="35.8621873" lon="139.2964668"><ele>129.20666666666668</ele><time>2023-12-27T03:23:54Z</time></trkpt><trkpt lat="35.8623719" lon="139.2965051"><ele>129.36333333333334</ele><time>2023-12-27T03:24:12Z</time></trkpt><trkpt lat="35.8625453" lon="139.2965841"><ele>130.04</ele><time>2023-12-27T03:24:30Z</time></trkpt><trkpt lat="35.8627552" lon="139.2966051"><ele>131.22666666666666</ele><time>2023-12-27T03:24:45Z</time></trkpt><trkpt lat="35.8629382" lon="139.2965562"><ele>132.74666666666667</ele><time>2023-12-27T03:25:09Z</time></trkpt><trkpt lat="35.8631416" lon="139.2966242"><ele>134.55999999999997</ele><time>2023-12-27T03:25:45Z</time></trkpt><trkpt lat="35.8633234" lon="139.2965888"><ele>136.22666666666666</ele><time>2023-12-27T03:26:15Z</time></trkpt><trkpt lat="35.8635194" lon="139.2966163"><ele>138.8</ele><time>2023-12-27T03:26:52Z</time></trkpt><trkpt lat="35.8635927" lon="139.2968506"><ele>141.63333333333333</ele><time>2023-12-27T03:27:01Z</time></trkpt><trkpt lat="35.8637104" lon="139.2970225"><ele>144.74</ele><time>2023-12-27T03:28:07Z</time></trkpt><trkpt lat="35.8638915" lon="139.2969957"><ele>149.60333333333332</ele><time>2023-12-27T03:28:55Z</time></trkpt><trkpt lat="35.8639915" lon="139.2971838"><ele>154.63666666666666</ele><time>2023-12-27T03:29:34Z</time></trkpt><trkpt lat="35.8641749" lon="139.2972712"><ele>161.90333333333334</ele><time>2023-12-27T03:29:55Z</time></trkpt><trkpt lat="35.8643315" lon="139.2974038"><ele>167.79</ele><time>2023-12-27T03:30:49Z</time></trkpt><trkpt lat="35.8644144" lon="139.2971726"><ele>174.85</ele><time>2023-12-27T03:31:31Z</time></trkpt><trkpt lat="35.8645972" lon="139.2972081"><ele>180.58</ele><time>2023-12-27T03:31:58Z</time></trkpt><trkpt lat="35.8647871" lon="139.2973042"><ele>187.4766666666667</ele><time>2023-12-27T03:32:37Z</time></trkpt><trkpt lat="35.8649396" lon="139.2974696"><ele>194.0666666666667</ele><time>2023-12-27T03:33:46Z</time></trkpt><trkpt lat="35.8651065" lon="139.2976002"><ele>201.02</ele><time>2023-12-27T03:34:19Z</time></trkpt><trkpt lat="35.8652276" lon="139.297788"><ele>207.1966666666667</ele><time>2023-12-27T03:35:10Z</time></trkpt><trkpt lat="35.8652461" lon="139.2975339"><ele>212.91333333333333</ele><time>2023-12-27T03:35:46Z</time></trkpt><trkpt lat="35.8654094" lon="139.2976464"><ele>218.85</ele><time>2023-12-27T03:36:49Z</time></trkpt><trkpt lat="35.8654933" lon="139.2974482"><ele>225.63333333333333</ele><time>2023-12-27T03:38:04Z</time></trkpt><trkpt lat="35.8654359" lon="139.2976626"><ele>228.1533333333333</ele><time>2023-12-27T03:38:58Z</time></trkpt><trkpt lat="35.8655247" lon="139.2974378"><ele>231.01666666666665</ele><time>2023-12-27T03:40:55Z</time></trkpt><trkpt lat="35.8657394" lon="139.2973495"><ele>232.89999999999998</ele><time>2023-12-27T03:41:16Z</time></trkpt><trkpt lat="35.8659294" lon="139.2972967"><ele>237.61333333333332</ele><time>2023-12-27T03:41:46Z</time></trkpt><trkpt lat="35.8661297" lon="139.2972142"><ele>238.61333333333334</ele><time>2023-12-27T03:42:01Z</time></trkpt><trkpt lat="35.8663139" lon="139.2972275"><ele>238.57666666666668</ele><time>2023-12-27T03:42:22Z</time></trkpt><trkpt lat="35.8664903" lon="139.2973162"><ele>239.09</ele><time>2023-12-27T03:42:34Z</time></trkpt><trkpt lat="35.866646" lon="139.2971989"><ele>240.51999999999998</ele><time>2023-12-27T03:42:46Z</time></trkpt><trkpt lat="35.8668345" lon="139.2971521"><ele>241.06333333333336</ele><time>2023-12-27T03:43:07Z</time></trkpt><trkpt lat="35.8670552" lon="139.2971346"><ele>240.23333333333335</ele><time>2023-12-27T03:43:19Z</time></trkpt><trkpt lat="35.8672701" lon="139.2970747"><ele>239.06333333333336</ele><time>2023-12-27T03:43:43Z</time></trkpt><trkpt lat="35.8674791" lon="139.2971856"><ele>237.21666666666667</ele><time>2023-12-27T03:44:01Z</time></trkpt><trkpt lat="35.867661" lon="139.2972554"><ele>237.98</ele><time>2023-12-27T03:44:19Z</time></trkpt><trkpt lat="35.8678245" lon="139.2973512"><ele>240.49333333333334</ele><time>2023-12-27T03:44:43Z</time></trkpt><trkpt lat="35.8679914" lon="139.2975353"><ele>246.51</ele><time>2023-12-27T03:45:07Z</time></trkpt><trkpt lat="35.8679945" lon="139.2977806"><ele>254.85999999999999</ele><time>2023-12-27T03:45:49Z</time></trkpt><trkpt lat="35.8680703" lon="139.2979915"><ele>263.2</ele><time>2023-12-27T03:46:40Z</time></trkpt><trkpt lat="35.8680571" lon="139.2982268"><ele>267.40000000000003</ele><time>2023-12-27T03:50:19Z</time></trkpt><trkpt lat="35.8681643" lon="139.2984384"><ele>261.60666666666674</ele><time>2023-12-27T03:50:28Z</time></trkpt><trkpt lat="35.8683177" lon="139.2986175"><ele>252.49333333333334</ele><time>2023-12-27T03:51:46Z</time></trkpt><trkpt lat="35.8683637" lon="139.2988364"><ele>242.0666666666667</ele><time>2023-12-27T03:52:19Z</time></trkpt><trkpt lat="35.8683638" lon="139.2990775"><ele>235.57000000000002</ele><time>2023-12-27T03:52:34Z</time></trkpt><trkpt lat="35.8683725" lon="139.2992995"><ele>227.49333333333334</ele><time>2023-12-27T03:53:04Z</time></trkpt><trkpt lat="35.8684087" lon="139.2995306"><ele>220.90333333333334</ele><time>2023-12-27T03:53:19Z</time></trkpt><trkpt lat="35.8683854" lon="139.2997707"><ele>215.54</ele><time>2023-12-27T03:53:31Z</time></trkpt><trkpt lat="35.8683239" lon="139.3000347"><ele>212.81333333333336</ele><time>2023-12-27T03:53:49Z</time></trkpt><trkpt lat="35.8681881" lon="139.3002043"><ele>210.58666666666667</ele><time>2023-12-27T03:54:04Z</time></trkpt><trkpt lat="35.868187" lon="139.3004717"><ele>208.92333333333332</ele><time>2023-12-27T03:54:28Z</time></trkpt><trkpt lat="35.8681101" lon="139.3007142"><ele>208.26333333333332</ele><time>2023-12-27T03:54:43Z</time></trkpt><trkpt lat="35.8679661" lon="139.300874"><ele>208.86666666666667</ele><time>2023-12-27T03:54:58Z</time></trkpt><trkpt lat="35.8677905" lon="139.3009747"><ele>209.13333333333335</ele><time>2023-12-27T03:55:16Z</time></trkpt><trkpt lat="35.867663" lon="139.3011415"><ele>208.63666666666668</ele><time>2023-12-27T03:55:28Z</time></trkpt><trkpt lat="35.8675213" lon="139.3013088"><ele>207.62</ele><time>2023-12-27T03:55:43Z</time></trkpt><trkpt lat="35.8673372" lon="139.3014212"><ele>206.62666666666667</ele><time>2023-12-27T03:55:58Z</time></trkpt><trkpt lat="35.8671613" lon="139.3015294"><ele>205.97333333333333</ele><time>2023-12-27T03:56:13Z</time></trkpt><trkpt lat="35.8670134" lon="139.3017707"><ele>204.62666666666667</ele><time>2023-12-27T03:56:25Z</time></trkpt><trkpt lat="35.8669418" lon="139.301995"><ele>203.82333333333335</ele><time>2023-12-27T03:56:49Z</time></trkpt><trkpt lat="35.8668999" lon="139.3022286"><ele>202.82000000000002</ele><time>2023-12-27T03:57:01Z</time></trkpt><trkpt lat="35.8668107" lon="139.3024718"><ele>202.25</ele><time>2023-12-27T03:57:16Z</time></trkpt><trkpt lat="35.866673" lon="139.3026228"><ele>201.04333333333332</ele><time>2023-12-27T03:57:28Z</time></trkpt><trkpt lat="35.8665327" lon="139.3027811"><ele>199.65666666666667</ele><time>2023-12-27T03:57:40Z</time></trkpt><trkpt lat="35.8664641" lon="139.3030111"><ele>197.60666666666665</ele><time>2023-12-27T03:57:52Z</time></trkpt><trkpt lat="35.8662974" lon="139.3031042"><ele>195.22333333333333</ele><time>2023-12-27T03:58:04Z</time></trkpt><trkpt lat="35.8661059" lon="139.3030716"><ele>193.89999999999998</ele><time>2023-12-27T03:58:22Z</time></trkpt><trkpt lat="35.8659434" lon="139.3032034"><ele>192.04666666666665</ele><time>2023-12-27T03:58:40Z</time></trkpt><trkpt lat="35.8659227" lon="139.3034345"><ele>192.08</ele><time>2023-12-27T03:59:04Z</time></trkpt><trkpt lat="35.8657864" lon="139.303619"><ele>191.43333333333337</ele><time>2023-12-27T03:59:19Z</time></trkpt><trkpt lat="35.8656859" lon="139.3038207"><ele>190.8166666666667</ele><time>2023-12-27T03:59:34Z</time></trkpt><trkpt lat="35.8655328" lon="139.3039476"><ele>188.50666666666666</ele><time>2023-12-27T03:59:48Z</time></trkpt><trkpt lat="35.8653866" lon="139.304133"><ele>185.49</ele><time>2023-12-27T04:00:12Z</time></trkpt><trkpt lat="35.8652744" lon="139.3043141"><ele>182.95666666666668</ele><time>2023-12-27T04:00:25Z</time></trkpt><trkpt lat="35.8651602" lon="139.3045709"><ele>179.36333333333334</ele><time>2023-12-27T04:00:46Z</time></trkpt><trkpt lat="35.8650245" lon="139.3047736"><ele>175.57666666666668</ele><time>2023-12-27T04:01:20Z</time></trkpt><trkpt lat="35.8648892" lon="139.3049657"><ele>171.2966666666667</ele><time>2023-12-27T04:01:38Z</time></trkpt><trkpt lat="35.8648326" lon="139.3051992"><ele>167.38333333333333</ele><time>2023-12-27T04:01:56Z</time></trkpt><trkpt lat="35.8647197" lon="139.3054083"><ele>163.74</ele><time>2023-12-27T04:02:17Z</time></trkpt><trkpt lat="35.8646415" lon="139.305612"><ele>159.37</ele><time>2023-12-27T04:02:29Z</time></trkpt><trkpt lat="35.8645619" lon="139.3058422"><ele>154.12</ele><time>2023-12-27T04:02:53Z</time></trkpt><trkpt lat="35.864592" lon="139.3060791"><ele>148.18</ele><time>2023-12-27T04:03:14Z</time></trkpt><trkpt lat="35.8645521" lon="139.3063025"><ele>143.28</ele><time>2023-12-27T04:03:29Z</time></trkpt><trkpt lat="35.8643785" lon="139.3064217"><ele>140.82666666666668</ele><time>2023-12-27T04:03:50Z</time></trkpt><trkpt lat="35.8641982" lon="139.3065869"><ele>140.41</ele><time>2023-12-27T04:04:05Z</time></trkpt><trkpt lat="35.8641011" lon="139.3067987"><ele>138.3169616859947</ele><time>2023-12-27T04:04:23Z</time></trkpt><trkpt lat="35.8639393" lon="139.3069736"><ele>135.23550963996044</ele><time>2023-12-27T04:04:38Z</time></trkpt><trkpt lat="35.8637551" lon="139.3069849"><ele>132.84938908141314</ele><time>2023-12-27T04:04:50Z</time></trkpt><trkpt lat="35.8635542" lon="139.3069535"><ele>135.4285039563778</ele><time>2023-12-27T04:05:02Z</time></trkpt><trkpt lat="35.8633377" lon="139.3069091"><ele>138.48453633309114</ele><time>2023-12-27T04:05:17Z</time></trkpt><trkpt lat="35.8631052" lon="139.3068752"><ele>137.9671437962858</ele><time>2023-12-27T04:05:32Z</time></trkpt><trkpt lat="35.862917" lon="139.3068449"><ele>136.0466389844477</ele><time>2023-12-27T04:05:47Z</time></trkpt><trkpt lat="35.8627342" lon="139.3068989"><ele>136.11910720423563</ele><time>2023-12-27T04:06:05Z</time></trkpt><trkpt lat="35.8625623" lon="139.3069829"><ele>138.8986774050807</ele><time>2023-12-27T04:06:20Z</time></trkpt><trkpt lat="35.8623504" lon="139.3070258"><ele>139.89009373827392</ele><time>2023-12-27T04:06:41Z</time></trkpt><trkpt lat="35.8621491" lon="139.3069451"><ele>140.4544953736718</ele><time>2023-12-27T04:06:53Z</time></trkpt><trkpt lat="35.8619174" lon="139.3069393"><ele>138.96621967910127</ele><time>2023-12-27T04:07:14Z</time></trkpt><trkpt lat="35.8617342" lon="139.3069744"><ele>139.91982705721816</ele><time>2023-12-27T04:07:23Z</time></trkpt><trkpt lat="35.861565" lon="139.3070888"><ele>138.21312059345527</ele><time>2023-12-27T04:07:38Z</time></trkpt><trkpt lat="35.8613985" lon="139.3072203"><ele>137.93428301961916</ele><time>2023-12-27T04:07:53Z</time></trkpt><trkpt lat="35.8612143" lon="139.307301"><ele>135.57514112379735</ele><time>2023-12-27T04:08:05Z</time></trkpt><trkpt lat="35.8611029" lon="139.3074885"><ele>133.25412799179787</ele><time>2023-12-27T04:08:17Z</time></trkpt><trkpt lat="35.8610566" lon="139.3077435"><ele>131.22884179558287</ele><time>2023-12-27T04:08:35Z</time></trkpt><trkpt lat="35.8609281" lon="139.3079036"><ele>128.9677884752689</ele><time>2023-12-27T04:08:56Z</time></trkpt><trkpt lat="35.8607217" lon="139.3079892"><ele>128.13466717410432</ele><time>2023-12-27T04:09:11Z</time></trkpt><trkpt lat="35.8605565" lon="139.3081526"><ele>126.06840460521</ele><time>2023-12-27T04:09:26Z</time></trkpt><trkpt lat="35.8603438" lon="139.3082522"><ele>124.43560894786226</ele><time>2023-12-27T04:09:41Z</time></trkpt><trkpt lat="35.8601396" lon="139.3082973"><ele>122.83616051189915</ele><time>2023-12-27T04:09:56Z</time></trkpt><trkpt lat="35.8601247" lon="139.3085664"><ele>122.43647409957195</ele><time>2023-12-27T04:10:08Z</time></trkpt><trkpt lat="35.8599794" lon="139.3087327"><ele>120.9366682598655</ele><time>2023-12-27T04:10:26Z</time></trkpt><trkpt lat="35.8598196" lon="139.3088903"><ele>118.4367481104095</ele><time>2023-12-27T04:10:38Z</time></trkpt><trkpt lat="35.8597391" lon="139.3091367"><ele>116.10358484865445</ele><time>2023-12-27T04:10:53Z</time></trkpt><trkpt lat="35.8596713" lon="139.3093576"><ele>115.27029740648307</ele><time>2023-12-27T04:11:05Z</time></trkpt><trkpt lat="35.8595431" lon="139.3095418"><ele>115.40362575211502</ele><time>2023-12-27T04:11:20Z</time></trkpt><trkpt lat="35.8593906" lon="139.3096867"><ele>115.40375664860709</ele><time>2023-12-27T04:11:38Z</time></trkpt><trkpt lat="35.8594316" lon="139.3099147"><ele>115.2704152757414</ele><time>2023-12-27T04:11:56Z</time></trkpt><trkpt lat="35.8593769" lon="139.3101567"><ele>115.27029012957786</ele><time>2023-12-27T04:12:08Z</time></trkpt><trkpt lat="35.8593648" lon="139.3104012"><ele>115.53660533006168</ele><time>2023-12-27T04:12:23Z</time></trkpt><trkpt lat="35.8593859" lon="139.3106334"><ele>116.03627973492594</ele><time>2023-12-27T04:12:35Z</time></trkpt><trkpt lat="35.8593083" lon="139.3108766"><ele>116.40264377717108</ele><time>2023-12-27T04:12:50Z</time></trkpt><trkpt lat="35.8593077" lon="139.3111308"><ele>116.40232510048473</ele><time>2023-12-27T04:13:05Z</time></trkpt><trkpt lat="35.8593198" lon="139.3113778"><ele>116.33534361325057</ele><time>2023-12-27T04:13:17Z</time></trkpt><trkpt lat="35.8592312" lon="139.3116467"><ele>116.23502521990417</ele><time>2023-12-27T04:13:32Z</time></trkpt><trkpt lat="35.8592517" lon="139.3118948"><ele>115.96802338767134</ele><time>2023-12-27T04:13:50Z</time></trkpt><trkpt lat="35.8591187" lon="139.3120483"><ele>115.23457211566284</ele><time>2023-12-27T04:14:02Z</time></trkpt><trkpt lat="35.8589508" lon="139.3121947"><ele>114.53461338525433</ele><time>2023-12-27T04:14:11Z</time></trkpt><trkpt lat="35.8587556" lon="139.3120919"><ele>113.83509002659339</ele><time>2023-12-27T04:14:29Z</time></trkpt><trkpt lat="35.8585621" lon="139.3121466"><ele>113.50235845819554</ele><time>2023-12-27T04:14:47Z</time></trkpt><trkpt lat="35.8584373" lon="139.312371"><ele>113.16953296596462</ele><time>2023-12-27T04:14:59Z</time></trkpt><trkpt lat="35.8583307" lon="139.3125562"><ele>113.03644962681058</ele><time>2023-12-27T04:15:11Z</time></trkpt><trkpt lat="35.8581853" lon="139.312703"><ele>112.9032535112003</ele><time>2023-12-27T04:15:26Z</time></trkpt><trkpt lat="35.8580113" lon="139.3128301"><ele>112.77016603264242</ele><time>2023-12-27T04:15:38Z</time></trkpt><trkpt lat="35.8578264" lon="139.3128536"><ele>112.70392250655</ele><time>2023-12-27T04:15:53Z</time></trkpt><trkpt lat="35.8576222" lon="139.312863"><ele>112.60449652682009</ele><time>2023-12-27T04:16:05Z</time></trkpt><trkpt lat="35.8574408" lon="139.3129445"><ele>112.5051031846304</ele><time>2023-12-27T04:16:14Z</time></trkpt><trkpt lat="35.857226" lon="139.3129336"><ele>112.40576337545458</ele><time>2023-12-27T04:16:29Z</time></trkpt><trkpt lat="35.8570398" lon="139.3128867"><ele>111.83975889932765</ele><time>2023-12-27T04:16:44Z</time></trkpt><trkpt lat="35.8568595" lon="139.3129264"><ele>111.24852770451446</ele><time>2023-12-27T04:16:59Z</time></trkpt><trkpt lat="35.856652" lon="139.312927"><ele>110.74920060126242</ele><time>2023-12-27T04:17:11Z</time></trkpt><trkpt lat="35.8564916" lon="139.313082"><ele>110.74972987644327</ele><time>2023-12-27T04:17:29Z</time></trkpt><trkpt lat="35.856351" lon="139.3132713"><ele>110.74204558787166</ele><time>2023-12-27T04:17:47Z</time></trkpt><trkpt lat="35.8563963" lon="139.3135828"><ele>110.60863674035544</ele><time>2023-12-27T04:17:59Z</time></trkpt><trkpt lat="35.8562045" lon="139.3136993"><ele>110.1086207017009</ele><time>2023-12-27T04:18:08Z</time></trkpt><trkpt lat="35.8560234" lon="139.3137023"><ele>109.6420861216274</ele><time>2023-12-27T04:18:17Z</time></trkpt><trkpt lat="35.8558412" lon="139.3136981"><ele>109.20932871075085</ele><time>2023-12-27T04:18:29Z</time></trkpt><trkpt lat="35.8556471" lon="139.3135921"><ele>109.2100349926856</ele><time>2023-12-27T04:18:44Z</time></trkpt><trkpt lat="35.8554645" lon="139.3136858"><ele>108.7440263298379</ele><time>2023-12-27T04:19:05Z</time></trkpt><trkpt lat="35.8552672" lon="139.3136821"><ele>108.24469954311479</ele><time>2023-12-27T04:19:20Z</time></trkpt><trkpt lat="35.8551323" lon="139.3138565"><ele>108.11181098017646</ele><time>2023-12-27T04:19:35Z</time></trkpt><trkpt lat="35.8551397" lon="139.3140818"><ele>108.14529239088144</ele><time>2023-12-27T04:19:47Z</time></trkpt><trkpt lat="35.855113" lon="139.3143513"><ele>108.17841775958347</ele><time>2023-12-27T04:20:02Z</time></trkpt><trkpt lat="35.8549734" lon="139.3145658"><ele>107.87819044830583</ele><time>2023-12-27T04:20:14Z</time></trkpt><trkpt lat="35.8547931" lon="139.3146956"><ele>107.91156148161592</ele><time>2023-12-27T04:20:26Z</time></trkpt><trkpt lat="35.8547626" lon="139.3149672"><ele>108.07827070179322</ele><time>2023-12-27T04:20:38Z</time></trkpt><trkpt lat="35.8546753" lon="139.3151625"><ele>108.21159430544479</ele><time>2023-12-27T04:20:50Z</time></trkpt><trkpt lat="35.8545528" lon="139.3153552"><ele>108.41148421483979</ele><time>2023-12-27T04:21:05Z</time></trkpt><trkpt lat="35.8545059" lon="139.3155963"><ele>108.5447388864388</ele><time>2023-12-27T04:21:20Z</time></trkpt><trkpt lat="35.854459" lon="139.3158566"><ele>108.71124371852916</ele><time>2023-12-27T04:21:32Z</time></trkpt><trkpt lat="35.8543641" lon="139.3160585"><ele>108.77770944941375</ele><time>2023-12-27T04:21:47Z</time></trkpt><trkpt lat="35.8543296" lon="139.316308"><ele>108.8774907001767</ele><time>2023-12-27T04:21:59Z</time></trkpt><trkpt lat="35.8542728" lon="139.3165187"><ele>108.91064575335702</ele><time>2023-12-27T04:22:11Z</time></trkpt><trkpt lat="35.8542145" lon="139.3167783"><ele>108.94372448590859</ele><time>2023-12-27T04:22:29Z</time></trkpt><trkpt lat="35.8541382" lon="139.3169819"><ele>108.87687532515197</ele><time>2023-12-27T04:22:56Z</time></trkpt><trkpt lat="35.8539716" lon="139.3170895"><ele>108.81020381576575</ele><time>2023-12-27T04:23:05Z</time></trkpt><trkpt lat="35.8538189" lon="139.3172419"><ele>108.71036965310282</ele><time>2023-12-27T04:23:14Z</time></trkpt><trkpt lat="35.853697" lon="139.3174587"><ele>108.54391128486144</ele><time>2023-12-27T04:23:29Z</time></trkpt><trkpt lat="35.8535825" lon="139.3176554"><ele>108.37734020318403</ele><time>2023-12-27T04:23:50Z</time></trkpt><trkpt lat="35.8535211" lon="139.317883"><ele>108.1106201595183</ele><time>2023-12-27T04:24:11Z</time></trkpt><trkpt lat="35.8534379" lon="139.31812"><ele>107.87717892091871</ele><time>2023-12-27T04:24:26Z</time></trkpt><trkpt lat="35.853349" lon="139.3183764"><ele>107.6436720652544</ele><time>2023-12-27T04:24:38Z</time></trkpt><trkpt lat="35.8532597" lon="139.3186047"><ele>107.54352556641386</ele><time>2023-12-27T04:24:53Z</time></trkpt><trkpt lat="35.8532564" lon="139.3188285"><ele>107.27663137691036</ele><time>2023-12-27T04:25:05Z</time></trkpt><trkpt lat="35.8531671" lon="139.3190769"><ele>107.00974114755688</ele><time>2023-12-27T04:25:23Z</time></trkpt><trkpt lat="35.8531126" lon="139.319306"><ele>106.64281533527226</ele><time>2023-12-27T04:25:38Z</time></trkpt><trkpt lat="35.8529593" lon="139.3194533"><ele>106.5094308632551</ele><time>2023-12-27T04:25:50Z</time></trkpt><trkpt lat="35.8528536" lon="139.3196742"><ele>106.37607934428475</ele><time>2023-12-27T04:26:02Z</time></trkpt><trkpt lat="35.8527691" lon="139.3198779"><ele>106.34277044619739</ele><time>2023-12-27T04:26:17Z</time></trkpt><trkpt lat="35.8527021" lon="139.3200991"><ele>106.30932156949102</ele><time>2023-12-27T04:26:32Z</time></trkpt><trkpt lat="35.8525611" lon="139.3202392"><ele>106.24262831917417</ele><time>2023-12-27T04:26:50Z</time></trkpt><trkpt lat="35.852505" lon="139.3204769"><ele>106.17588243193347</ele><time>2023-12-27T04:27:08Z</time></trkpt><trkpt lat="35.8523292" lon="139.3205678"><ele>106.04266644133247</ele><time>2023-12-27T04:27:14Z</time></trkpt><trkpt lat="35.852115" lon="139.3205708"><ele>105.97627771549749</ele><time>2023-12-27T04:27:26Z</time></trkpt><trkpt lat="35.8519133" lon="139.320517"><ele>105.91022388227263</ele><time>2023-12-27T04:27:41Z</time></trkpt><trkpt lat="35.8517307" lon="139.3203849"><ele>105.9109806957692</ele><time>2023-12-27T04:27:56Z</time></trkpt><trkpt lat="35.8515291" lon="139.320288"><ele>105.91178663329036</ele><time>2023-12-27T04:28:11Z</time></trkpt><trkpt lat="35.8513244" lon="139.3202386"><ele>106.04592540932128</ele><time>2023-12-27T04:28:23Z</time></trkpt><trkpt lat="35.8511478" lon="139.3201578"><ele>106.0466957392801</ele><time>2023-12-27T04:28:38Z</time></trkpt></trkseg></trk></gpx>