<?xml version='1.0' encoding='UTF-8'?><gpx creator="YAMAP - https://yamap.com" xsi:schemaLocation="http://www.topografix.com/GPX/1/1 http://www.topografix.com/GPX/1/1/gpx.xsd" version="1.1" xmlns="http://www.topografix.com/GPX/1/1" xmlns:xsi="http://www.w3.org/2001/XMLSchema-instance"><metadata><bounds maxlat="35.7393647" maxlon="139.1438008" minlat="35.7197726" minlon="139.0308481"/></metadata><trk><name>浅間嶺</name><number>1</number><trkseg><trkpt lat="35.7376846" lon="139.0308481"><ele>1001.28</ele><time>2024-10-12T00:19:42Z</time></trkpt><trkpt lat="35.737481" lon="139.0309385"><ele>1000.005</ele><time>2024-10-12T00:20:07Z</time></trkpt><trkpt lat="35.7373194" lon="139.0310723"><ele>998.4766666666668</ele><time>2024-10-12T00:20:26Z</time></trkpt><trkpt lat="35.7375277" lon="139.0310767"><ele>996.8766666666667</ele><time>2024-10-12T00:20:50Z</time></trkpt><trkpt lat="35.7374914" lon="139.0313124"><ele>995.0233333333334</ele><time>2024-10-12T00:21:05Z</time></trkpt><trkpt lat="35.7374672" lon="139.0315723"><ele>993.75</ele><time>2024-10-12T00:21:19Z</time></trkpt><trkpt lat="35.7376036" lon="139.0317541"><ele>993.2666666666668</ele><time>2024-10-12T00:21:41Z</time></trkpt><trkpt lat="35.7376466" lon="139.0319752"><ele>994.19</ele><time>2024-10-12T00:21:55Z</time></trkpt><trkpt lat="35.7376915" lon="139.0322039"><ele>998.7466666666666</ele><time>2024-10-12T00:22:13Z</time></trkpt><trkpt lat="35.7376186" lon="139.0324308"><ele>1004.93</ele><time>2024-10-12T00:22:37Z</time></trkpt><trkpt lat="35.7375679" lon="139.0326851"><ele>1012.6133333333333</ele><time>2024-10-12T00:22:55Z</time></trkpt><trkpt lat="35.7374866" lon="139.032913"><ele>1017.9433333333333</ele><time>2024-10-12T00:23:15Z</time></trkpt><trkpt lat="35.7374025" lon="139.0331164"><ele>1022.0433333333334</ele><time>2024-10-12T00:23:26Z</time></trkpt><trkpt lat="35.7373121" lon="139.0333327"><ele>1021.0766666666667</ele><time>2024-10-12T00:23:40Z</time></trkpt><trkpt lat="35.737326" lon="139.0335612"><ele>1021.4333333333334</ele><time>2024-10-12T00:23:55Z</time></trkpt><trkpt lat="35.737374" lon="139.0338036"><ele>1018.7933333333334</ele><time>2024-10-12T00:24:16Z</time></trkpt><trkpt lat="35.7374673" lon="139.0340161"><ele>1020.3933333333333</ele><time>2024-10-12T00:24:37Z</time></trkpt><trkpt lat="35.7375847" lon="139.0342249"><ele>1019.66</ele><time>2024-10-12T00:24:57Z</time></trkpt><trkpt lat="35.7375861" lon="139.0344486"><ele>1019.69</ele><time>2024-10-12T00:25:12Z</time></trkpt><trkpt lat="35.7375675" lon="139.0346936"><ele>1018.59</ele><time>2024-10-12T00:25:26Z</time></trkpt><trkpt lat="35.7375293" lon="139.034933"><ele>1019.0766666666667</ele><time>2024-10-12T00:25:43Z</time></trkpt><trkpt lat="35.7374714" lon="139.0351506"><ele>1020.3266666666667</ele><time>2024-10-12T00:25:59Z</time></trkpt><trkpt lat="35.7373729" lon="139.0353504"><ele>1020.6700000000001</ele><time>2024-10-12T00:26:17Z</time></trkpt><trkpt lat="35.7372764" lon="139.0355713"><ele>1019.9900000000001</ele><time>2024-10-12T00:26:34Z</time></trkpt><trkpt lat="35.7371494" lon="139.0357941"><ele>1021.1566666666668</ele><time>2024-10-12T00:26:52Z</time></trkpt><trkpt lat="35.737" lon="139.0359293"><ele>1023.0066666666667</ele><time>2024-10-12T00:27:10Z</time></trkpt><trkpt lat="35.7368183" lon="139.0360527"><ele>1024.1166666666668</ele><time>2024-10-12T00:27:33Z</time></trkpt><trkpt lat="35.736744" lon="139.0362682"><ele>1023.7933333333334</ele><time>2024-10-12T00:27:49Z</time></trkpt><trkpt lat="35.7367771" lon="139.0365104"><ele>1025.0433333333333</ele><time>2024-10-12T00:28:08Z</time></trkpt><trkpt lat="35.7367604" lon="139.0367353"><ele>1026.77</ele><time>2024-10-12T00:28:25Z</time></trkpt><trkpt lat="35.7367449" lon="139.0370226"><ele>1026.9966666666667</ele><time>2024-10-12T00:28:47Z</time></trkpt><trkpt lat="35.7368201" lon="139.0372273"><ele>1026.7633333333333</ele><time>2024-10-12T00:29:04Z</time></trkpt><trkpt lat="35.7370109" lon="139.037292"><ele>1026.8833333333334</ele><time>2024-10-12T00:29:25Z</time></trkpt><trkpt lat="35.7372013" lon="139.0372052"><ele>1029.0366666666669</ele><time>2024-10-12T00:29:40Z</time></trkpt><trkpt lat="35.737353" lon="139.0370609"><ele>1030.716666666667</ele><time>2024-10-12T00:29:58Z</time></trkpt><trkpt lat="35.7375442" lon="139.0369429"><ele>1034.1566666666668</ele><time>2024-10-12T00:30:14Z</time></trkpt><trkpt lat="35.7377442" lon="139.0369134"><ele>1034.5733333333335</ele><time>2024-10-12T00:30:35Z</time></trkpt><trkpt lat="35.7379125" lon="139.0369938"><ele>1033.0966666666666</ele><time>2024-10-12T00:30:47Z</time></trkpt><trkpt lat="35.7380609" lon="139.0371804"><ele>1029.6566666666668</ele><time>2024-10-12T00:31:08Z</time></trkpt><trkpt lat="35.7382022" lon="139.0373235"><ele>1031.9433333333334</ele><time>2024-10-12T00:31:20Z</time></trkpt><trkpt lat="35.7382116" lon="139.0375507"><ele>1036.9133333333332</ele><time>2024-10-12T00:31:35Z</time></trkpt><trkpt lat="35.7382039" lon="139.0377793"><ele>1041.2066666666667</ele><time>2024-10-12T00:31:50Z</time></trkpt><trkpt lat="35.738259" lon="139.0380124"><ele>1041.07</ele><time>2024-10-12T00:32:07Z</time></trkpt><trkpt lat="35.7383596" lon="139.0382032"><ele>1039.32</ele><time>2024-10-12T00:32:23Z</time></trkpt><trkpt lat="35.7385379" lon="139.0383038"><ele>1038.0833333333333</ele><time>2024-10-12T00:32:44Z</time></trkpt><trkpt lat="35.7387468" lon="139.0382812"><ele>1037.7566666666667</ele><time>2024-10-12T00:33:01Z</time></trkpt><trkpt lat="35.7389344" lon="139.0382737"><ele>1038.09</ele><time>2024-10-12T00:33:16Z</time></trkpt><trkpt lat="35.7390896" lon="139.0383899"><ele>1036.9266666666667</ele><time>2024-10-12T00:33:43Z</time></trkpt><trkpt lat="35.7392726" lon="139.038477"><ele>1037.2133333333334</ele><time>2024-10-12T00:34:07Z</time></trkpt><trkpt lat="35.7393647" lon="139.0386821"><ele>1038.5666666666666</ele><time>2024-10-12T00:34:43Z</time></trkpt><trkpt lat="35.7393074" lon="139.0389159"><ele>1042.3866666666665</ele><time>2024-10-12T00:35:01Z</time></trkpt><trkpt lat="35.7392521" lon="139.0391858"><ele>1045.8333333333333</ele><time>2024-10-12T00:35:19Z</time></trkpt><trkpt lat="35.7391009" lon="139.0393115"><ele>1052.8033333333333</ele><time>2024-10-12T00:35:37Z</time></trkpt><trkpt lat="35.738983" lon="139.0394789"><ele>1060.716666666667</ele><time>2024-10-12T00:35:55Z</time></trkpt><trkpt lat="35.7389494" lon="139.0397234"><ele>1072.7966666666669</ele><time>2024-10-12T00:36:10Z</time></trkpt><trkpt lat="35.7389048" lon="139.0399464"><ele>1079.99</ele><time>2024-10-12T00:36:24Z</time></trkpt><trkpt lat="35.738702" lon="139.0400457"><ele>1080.95</ele><time>2024-10-12T00:36:39Z</time></trkpt><trkpt lat="35.7384982" lon="139.0401012"><ele>1072.2333333333333</ele><time>2024-10-12T00:36:57Z</time></trkpt><trkpt lat="35.7382848" lon="139.040088"><ele>1065.6366666666665</ele><time>2024-10-12T00:37:09Z</time></trkpt><trkpt lat="35.7380801" lon="139.0399884"><ele>1063.3333333333333</ele><time>2024-10-12T00:37:25Z</time></trkpt><trkpt lat="35.7379197" lon="139.0400915"><ele>1066.12</ele><time>2024-10-12T00:37:42Z</time></trkpt><trkpt lat="35.7378414" lon="139.0403175"><ele>1070.3433333333332</ele><time>2024-10-12T00:37:58Z</time></trkpt><trkpt lat="35.7378111" lon="139.040558"><ele>1074.8500000000001</ele><time>2024-10-12T00:38:13Z</time></trkpt><trkpt lat="35.7378923" lon="139.0408231"><ele>1082.1433333333334</ele><time>2024-10-12T00:38:33Z</time></trkpt><trkpt lat="35.7378185" lon="139.0410281"><ele>1083.66</ele><time>2024-10-12T00:38:48Z</time></trkpt><trkpt lat="35.7376501" lon="139.0411175"><ele>1083.2333333333333</ele><time>2024-10-12T00:39:03Z</time></trkpt><trkpt lat="35.7374217" lon="139.0411113"><ele>1079.57</ele><time>2024-10-12T00:39:22Z</time></trkpt><trkpt lat="35.7372443" lon="139.0410585"><ele>1079.76</ele><time>2024-10-12T00:39:33Z</time></trkpt><trkpt lat="35.7370467" lon="139.0410516"><ele>1082.0</ele><time>2024-10-12T00:39:48Z</time></trkpt><trkpt lat="35.7369375" lon="139.0412962"><ele>1086.49</ele><time>2024-10-12T00:40:07Z</time></trkpt><trkpt lat="35.7369171" lon="139.0415302"><ele>1089.9400000000003</ele><time>2024-10-12T00:40:19Z</time></trkpt><trkpt lat="35.7370417" lon="139.0417591"><ele>1092.0533333333333</ele><time>2024-10-12T00:40:35Z</time></trkpt><trkpt lat="35.7371642" lon="139.0419285"><ele>1089.9333333333334</ele><time>2024-10-12T00:40:50Z</time></trkpt><trkpt lat="35.7373236" lon="139.0420883"><ele>1088.72</ele><time>2024-10-12T00:41:08Z</time></trkpt><trkpt lat="35.7374923" lon="139.0422259"><ele>1090.6266666666668</ele><time>2024-10-12T00:41:20Z</time></trkpt><trkpt lat="35.7376266" lon="139.0423887"><ele>1095.92</ele><time>2024-10-12T00:41:35Z</time></trkpt><trkpt lat="35.7377829" lon="139.0425442"><ele>1102.1833333333334</ele><time>2024-10-12T00:41:53Z</time></trkpt><trkpt lat="35.7378555" lon="139.0427881"><ele>1106.2666666666667</ele><time>2024-10-12T00:42:09Z</time></trkpt><trkpt lat="35.7379272" lon="139.0430035"><ele>1109.24</ele><time>2024-10-12T00:42:29Z</time></trkpt><trkpt lat="35.737821" lon="139.043232"><ele>1112.8266666666668</ele><time>2024-10-12T00:42:42Z</time></trkpt><trkpt lat="35.7376349" lon="139.0433455"><ele>1112.1433333333334</ele><time>2024-10-12T00:42:59Z</time></trkpt><trkpt lat="35.7374801" lon="139.0435044"><ele>1112.18</ele><time>2024-10-12T00:43:15Z</time></trkpt><trkpt lat="35.7373981" lon="139.0437172"><ele>1111.5433333333333</ele><time>2024-10-12T00:43:26Z</time></trkpt><trkpt lat="35.7373734" lon="139.0439501"><ele>1114.8033333333335</ele><time>2024-10-12T00:43:42Z</time></trkpt><trkpt lat="35.737182" lon="139.0439119"><ele>1117.67</ele><time>2024-10-12T00:44:51Z</time></trkpt><trkpt lat="35.7369897" lon="139.0438837"><ele>1118.82</ele><time>2024-10-12T00:46:18Z</time></trkpt><trkpt lat="35.736789" lon="139.0439411"><ele>1119.2866666666666</ele><time>2024-10-12T00:47:01Z</time></trkpt><trkpt lat="35.7365937" lon="139.043949"><ele>1116.4233333333334</ele><time>2024-10-12T00:47:22Z</time></trkpt><trkpt lat="35.7364294" lon="139.0440419"><ele>1113.21</ele><time>2024-10-12T00:47:41Z</time></trkpt><trkpt lat="35.7362458" lon="139.0440962"><ele>1110.8866666666665</ele><time>2024-10-12T00:47:56Z</time></trkpt><trkpt lat="35.7360615" lon="139.0441385"><ele>1110.6266666666668</ele><time>2024-10-12T00:48:11Z</time></trkpt><trkpt lat="35.7358654" lon="139.0441883"><ele>1110.9966666666667</ele><time>2024-10-12T00:48:31Z</time></trkpt><trkpt lat="35.7356733" lon="139.0441942"><ele>1111.5600000000002</ele><time>2024-10-12T00:48:46Z</time></trkpt><trkpt lat="35.7354944" lon="139.0442218"><ele>1112.3166666666666</ele><time>2024-10-12T00:49:05Z</time></trkpt><trkpt lat="35.7353175" lon="139.044275"><ele>1112.9166666666667</ele><time>2024-10-12T00:49:29Z</time></trkpt><trkpt lat="35.7351871" lon="139.0444369"><ele>1111.2066666666667</ele><time>2024-10-12T00:49:50Z</time></trkpt><trkpt lat="35.7350587" lon="139.044618"><ele>1106.7366666666667</ele><time>2024-10-12T00:50:13Z</time></trkpt><trkpt lat="35.7349857" lon="139.0448738"><ele>1100.0366666666666</ele><time>2024-10-12T00:50:32Z</time></trkpt><trkpt lat="35.7349633" lon="139.0451057"><ele>1094.8799999999999</ele><time>2024-10-12T00:50:46Z</time></trkpt><trkpt lat="35.7350125" lon="139.0453212"><ele>1090.8666666666668</ele><time>2024-10-12T00:51:07Z</time></trkpt><trkpt lat="35.7351524" lon="139.0455764"><ele>1087.7</ele><time>2024-10-12T00:51:41Z</time></trkpt><trkpt lat="35.7351055" lon="139.0457923"><ele>1084.5233333333333</ele><time>2024-10-12T00:51:52Z</time></trkpt><trkpt lat="35.7350981" lon="139.0460187"><ele>1082.4866666666667</ele><time>2024-10-12T00:52:07Z</time></trkpt><trkpt lat="35.7350977" lon="139.0462539"><ele>1080.7533333333333</ele><time>2024-10-12T00:52:26Z</time></trkpt><trkpt lat="35.7350928" lon="139.0464859"><ele>1079.2433333333333</ele><time>2024-10-12T00:52:41Z</time></trkpt><trkpt lat="35.7350154" lon="139.046711"><ele>1075.71</ele><time>2024-10-12T00:52:56Z</time></trkpt><trkpt lat="35.7348832" lon="139.0468714"><ele>1073.0433333333333</ele><time>2024-10-12T00:53:07Z</time></trkpt><trkpt lat="35.734734" lon="139.047042"><ele>1071.1166666666666</ele><time>2024-10-12T00:53:26Z</time></trkpt><trkpt lat="35.734589" lon="139.0472137"><ele>1071.18</ele><time>2024-10-12T00:53:44Z</time></trkpt><trkpt lat="35.7344617" lon="139.0473804"><ele>1070.98</ele><time>2024-10-12T00:54:01Z</time></trkpt><trkpt lat="35.7343539" lon="139.0475901"><ele>1071.2466666666667</ele><time>2024-10-12T00:54:17Z</time></trkpt><trkpt lat="35.7342634" lon="139.0477904"><ele>1072.92</ele><time>2024-10-12T00:54:32Z</time></trkpt><trkpt lat="35.7341368" lon="139.0480273"><ele>1073.95</ele><time>2024-10-12T00:54:50Z</time></trkpt><trkpt lat="35.7340372" lon="139.0482124"><ele>1073.0266666666666</ele><time>2024-10-12T00:55:01Z</time></trkpt><trkpt lat="35.7338989" lon="139.0484057"><ele>1070.3133333333333</ele><time>2024-10-12T00:55:29Z</time></trkpt><trkpt lat="35.7337313" lon="139.0485628"><ele>1067.0933333333335</ele><time>2024-10-12T00:56:02Z</time></trkpt><trkpt lat="35.7335572" lon="139.0486583"><ele>1064.41</ele><time>2024-10-12T00:56:16Z</time></trkpt><trkpt lat="35.7334099" lon="139.0488113"><ele>1062.2733333333333</ele><time>2024-10-12T00:56:31Z</time></trkpt><trkpt lat="35.733253" lon="139.0489642"><ele>1061.0633333333335</ele><time>2024-10-12T00:56:47Z</time></trkpt><trkpt lat="35.733099" lon="139.0491197"><ele>1060.0233333333333</ele><time>2024-10-12T00:57:02Z</time></trkpt><trkpt lat="35.7329297" lon="139.0492198"><ele>1058.6899999999998</ele><time>2024-10-12T00:57:23Z</time></trkpt><trkpt lat="35.7327853" lon="139.0494067"><ele>1055.8500000000001</ele><time>2024-10-12T00:57:57Z</time></trkpt><trkpt lat="35.7327106" lon="139.0496145"><ele>1052.5533333333333</ele><time>2024-10-12T00:58:15Z</time></trkpt><trkpt lat="35.7327015" lon="139.0498423"><ele>1046.6633333333332</ele><time>2024-10-12T00:58:55Z</time></trkpt><trkpt lat="35.7327355" lon="139.0500699"><ele>1039.6433333333334</ele><time>2024-10-12T00:59:16Z</time></trkpt><trkpt lat="35.7326731" lon="139.0503099"><ele>1033.1466666666668</ele><time>2024-10-12T00:59:43Z</time></trkpt><trkpt lat="35.7325975" lon="139.0505257"><ele>1028.2466666666667</ele><time>2024-10-12T01:00:07Z</time></trkpt><trkpt lat="35.7326087" lon="139.0507562"><ele>1024.38</ele><time>2024-10-12T01:00:28Z</time></trkpt><trkpt lat="35.7325532" lon="139.0510082"><ele>1018.52</ele><time>2024-10-12T01:00:47Z</time></trkpt><trkpt lat="35.7324105" lon="139.0512131"><ele>1014.7133333333335</ele><time>2024-10-12T01:01:08Z</time></trkpt><trkpt lat="35.7322782" lon="139.0514134"><ele>1012.4966666666666</ele><time>2024-10-12T01:01:28Z</time></trkpt><trkpt lat="35.7321959" lon="139.0516537"><ele>1012.4533333333334</ele><time>2024-10-12T01:01:47Z</time></trkpt><trkpt lat="35.7321182" lon="139.0518878"><ele>1012.6233333333333</ele><time>2024-10-12T01:02:22Z</time></trkpt><trkpt lat="35.7321001" lon="139.0521083"><ele>1010.9333333333334</ele><time>2024-10-12T01:02:41Z</time></trkpt><trkpt lat="35.7321458" lon="139.0523438"><ele>1008.3933333333333</ele><time>2024-10-12T01:03:05Z</time></trkpt><trkpt lat="35.7322119" lon="139.052553"><ele>1004.5366666666667</ele><time>2024-10-12T01:03:22Z</time></trkpt><trkpt lat="35.7322901" lon="139.0527929"><ele>1000.9466666666667</ele><time>2024-10-12T01:03:41Z</time></trkpt><trkpt lat="35.7323833" lon="139.0529889"><ele>996.7400000000001</ele><time>2024-10-12T01:03:56Z</time></trkpt><trkpt lat="35.7323431" lon="139.0532045"><ele>991.7066666666668</ele><time>2024-10-12T01:04:16Z</time></trkpt><trkpt lat="35.7322294" lon="139.0533905"><ele>987.9200000000001</ele><time>2024-10-12T01:04:34Z</time></trkpt><trkpt lat="35.732157" lon="139.053617"><ele>984.5866666666667</ele><time>2024-10-12T01:04:49Z</time></trkpt><trkpt lat="35.7320894" lon="139.0538511"><ele>982.7533333333334</ele><time>2024-10-12T01:05:01Z</time></trkpt><trkpt lat="35.7320147" lon="139.0540739"><ele>981.1033333333335</ele><time>2024-10-12T01:05:16Z</time></trkpt><trkpt lat="35.7319826" lon="139.0542979"><ele>980.1366666666667</ele><time>2024-10-12T01:05:34Z</time></trkpt><trkpt lat="35.731981" lon="139.0545707"><ele>976.8100000000001</ele><time>2024-10-12T01:05:53Z</time></trkpt><trkpt lat="35.7319566" lon="139.0548053"><ele>971.9333333333334</ele><time>2024-10-12T01:06:10Z</time></trkpt><trkpt lat="35.7318425" lon="139.0549934"><ele>966.7199999999999</ele><time>2024-10-12T01:06:34Z</time></trkpt><trkpt lat="35.7316956" lon="139.0551682"><ele>963.6300000000001</ele><time>2024-10-12T01:06:55Z</time></trkpt><trkpt lat="35.7315843" lon="139.0553444"><ele>960.7033333333334</ele><time>2024-10-12T01:07:12Z</time></trkpt><trkpt lat="35.7314629" lon="139.0555273"><ele>956.25</ele><time>2024-10-12T01:07:30Z</time></trkpt><trkpt lat="35.7313575" lon="139.0557176"><ele>950.25</ele><time>2024-10-12T01:07:50Z</time></trkpt><trkpt lat="35.7312717" lon="139.055916"><ele>945.2666666666668</ele><time>2024-10-12T01:08:38Z</time></trkpt><trkpt lat="35.7312017" lon="139.0561352"><ele>941.9033333333333</ele><time>2024-10-12T01:09:02Z</time></trkpt><trkpt lat="35.7311248" lon="139.056366"><ele>938.8800000000001</ele><time>2024-10-12T01:09:28Z</time></trkpt><trkpt lat="35.7310472" lon="139.0565813"><ele>936.1133333333333</ele><time>2024-10-12T01:09:52Z</time></trkpt><trkpt lat="35.7309167" lon="139.0567696"><ele>934.3966666666666</ele><time>2024-10-12T01:10:13Z</time></trkpt><trkpt lat="35.7308008" lon="139.0570057"><ele>933.9666666666667</ele><time>2024-10-12T01:10:32Z</time></trkpt><trkpt lat="35.7307516" lon="139.057226"><ele>933.3433333333334</ele><time>2024-10-12T01:10:47Z</time></trkpt><trkpt lat="35.7308042" lon="139.0574645"><ele>932.1700000000001</ele><time>2024-10-12T01:11:11Z</time></trkpt><trkpt lat="35.7309022" lon="139.0576797"><ele>929.3133333333334</ele><time>2024-10-12T01:11:29Z</time></trkpt><trkpt lat="35.7310739" lon="139.0578622"><ele>927.1966666666667</ele><time>2024-10-12T01:11:43Z</time></trkpt><trkpt lat="35.7310958" lon="139.0580968"><ele>924.3366666666667</ele><time>2024-10-12T01:11:57Z</time></trkpt><trkpt lat="35.7309905" lon="139.0583213"><ele>923.1833333333333</ele><time>2024-10-12T01:12:14Z</time></trkpt><trkpt lat="35.7309412" lon="139.0585774"><ele>921.6</ele><time>2024-10-12T01:12:32Z</time></trkpt><trkpt lat="35.7309312" lon="139.0588122"><ele>920.9233333333333</ele><time>2024-10-12T01:12:47Z</time></trkpt><trkpt lat="35.7309139" lon="139.0590365"><ele>919.6033333333335</ele><time>2024-10-12T01:13:03Z</time></trkpt><trkpt lat="35.7309894" lon="139.0593136"><ele>916.9200000000001</ele><time>2024-10-12T01:13:39Z</time></trkpt><trkpt lat="35.7309984" lon="139.0595391"><ele>916.5666666666667</ele><time>2024-10-12T01:13:56Z</time></trkpt><trkpt lat="35.7310798" lon="139.0597724"><ele>918.0333333333333</ele><time>2024-10-12T01:14:17Z</time></trkpt><trkpt lat="35.7310775" lon="139.0599945"><ele>921.3299999999999</ele><time>2024-10-12T01:14:32Z</time></trkpt><trkpt lat="35.7309547" lon="139.0601912"><ele>920.1700000000001</ele><time>2024-10-12T01:15:02Z</time></trkpt><trkpt lat="35.730833" lon="139.0604267"><ele>918.58</ele><time>2024-10-12T01:15:15Z</time></trkpt><trkpt lat="35.7307197" lon="139.0606247"><ele>917.3000000000001</ele><time>2024-10-12T01:15:29Z</time></trkpt><trkpt lat="35.730646" lon="139.0608503"><ele>918.2800000000001</ele><time>2024-10-12T01:15:48Z</time></trkpt><trkpt lat="35.7305817" lon="139.0610761"><ele>917.7066666666666</ele><time>2024-10-12T01:16:02Z</time></trkpt><trkpt lat="35.7304614" lon="139.0612537"><ele>915.0066666666667</ele><time>2024-10-12T01:16:18Z</time></trkpt><trkpt lat="35.7303577" lon="139.0614441"><ele>913.0133333333333</ele><time>2024-10-12T01:16:33Z</time></trkpt><trkpt lat="35.7302769" lon="139.0616953"><ele>911.32</ele><time>2024-10-12T01:16:54Z</time></trkpt><trkpt lat="35.730292" lon="139.0619429"><ele>912.57</ele><time>2024-10-12T01:17:12Z</time></trkpt><trkpt lat="35.7302669" lon="139.062185"><ele>910.4866666666667</ele><time>2024-10-12T01:17:26Z</time></trkpt><trkpt lat="35.7301643" lon="139.0624195"><ele>907.4166666666666</ele><time>2024-10-12T01:17:42Z</time></trkpt><trkpt lat="35.7300299" lon="139.0625897"><ele>898.39</ele><time>2024-10-12T01:17:56Z</time></trkpt><trkpt lat="35.7298442" lon="139.0627151"><ele>889.2599999999999</ele><time>2024-10-12T01:18:15Z</time></trkpt><trkpt lat="35.7299582" lon="139.0628864"><ele>878.79</ele><time>2024-10-12T01:20:08Z</time></trkpt><trkpt lat="35.7301514" lon="139.0629711"><ele>871.0766666666667</ele><time>2024-10-12T01:20:27Z</time></trkpt><trkpt lat="35.7303339" lon="139.0629224"><ele>868.1133333333333</ele><time>2024-10-12T01:20:42Z</time></trkpt><trkpt lat="35.7306185" lon="139.0629568"><ele>868.2066666666666</ele><time>2024-10-12T01:21:28Z</time></trkpt><trkpt lat="35.7308329" lon="139.0630998"><ele>869.3733333333333</ele><time>2024-10-12T01:21:43Z</time></trkpt><trkpt lat="35.7309384" lon="139.0632823"><ele>870.2233333333334</ele><time>2024-10-12T01:21:56Z</time></trkpt><trkpt lat="35.7310151" lon="139.0634931"><ele>867.4033333333333</ele><time>2024-10-12T01:22:14Z</time></trkpt><trkpt lat="35.7311091" lon="139.0637078"><ele>863.0533333333333</ele><time>2024-10-12T01:22:37Z</time></trkpt><trkpt lat="35.7312197" lon="139.0639027"><ele>857.2366666666667</ele><time>2024-10-12T01:22:52Z</time></trkpt><trkpt lat="35.7313778" lon="139.0640259"><ele>855.8166666666666</ele><time>2024-10-12T01:23:29Z</time></trkpt><trkpt lat="35.7314793" lon="139.0642163"><ele>858.7466666666668</ele><time>2024-10-12T01:23:45Z</time></trkpt><trkpt lat="35.731591" lon="139.0643946"><ele>864.2599999999999</ele><time>2024-10-12T01:24:10Z</time></trkpt><trkpt lat="35.7316803" lon="139.0645885"><ele>870.37</ele><time>2024-10-12T01:24:37Z</time></trkpt><trkpt lat="35.7317305" lon="139.0648204"><ele>877.2066666666666</ele><time>2024-10-12T01:24:57Z</time></trkpt><trkpt lat="35.7317945" lon="139.0650284"><ele>881.4500000000002</ele><time>2024-10-12T01:25:14Z</time></trkpt><trkpt lat="35.7317937" lon="139.0652714"><ele>882.0533333333334</ele><time>2024-10-12T01:25:40Z</time></trkpt><trkpt lat="35.7317431" lon="139.0655488"><ele>876.11</ele><time>2024-10-12T01:26:16Z</time></trkpt><trkpt lat="35.7316253" lon="139.0657592"><ele>875.5433333333334</ele><time>2024-10-12T01:26:52Z</time></trkpt><trkpt lat="35.7314784" lon="139.0659334"><ele>879.8933333333333</ele><time>2024-10-12T01:27:13Z</time></trkpt><trkpt lat="35.7313049" lon="139.0660533"><ele>886.5533333333333</ele><time>2024-10-12T01:27:34Z</time></trkpt><trkpt lat="35.7311254" lon="139.066175"><ele>888.1199999999999</ele><time>2024-10-12T01:27:55Z</time></trkpt><trkpt lat="35.7310131" lon="139.0664062"><ele>886.1066666666667</ele><time>2024-10-12T01:28:24Z</time></trkpt><trkpt lat="35.7309465" lon="139.0666175"><ele>885.4000000000001</ele><time>2024-10-12T01:28:39Z</time></trkpt><trkpt lat="35.7308935" lon="139.0668456"><ele>883.4533333333334</ele><time>2024-10-12T01:29:01Z</time></trkpt><trkpt lat="35.7307719" lon="139.0670539"><ele>882.0566666666667</ele><time>2024-10-12T01:29:49Z</time></trkpt><trkpt lat="35.7306215" lon="139.0672227"><ele>878.6833333333334</ele><time>2024-10-12T01:30:30Z</time></trkpt><trkpt lat="35.7304354" lon="139.0673255"><ele>874.5966666666667</ele><time>2024-10-12T01:30:50Z</time></trkpt><trkpt lat="35.7302731" lon="139.0674217"><ele>869.6</ele><time>2024-10-12T01:31:08Z</time></trkpt><trkpt lat="35.7301916" lon="139.0676263"><ele>868.39</ele><time>2024-10-12T01:31:26Z</time></trkpt><trkpt lat="35.7300912" lon="139.0678424"><ele>868.7400000000001</ele><time>2024-10-12T01:31:46Z</time></trkpt><trkpt lat="35.7300089" lon="139.0680463"><ele>870.7066666666668</ele><time>2024-10-12T01:32:05Z</time></trkpt><trkpt lat="35.7299208" lon="139.0682925"><ele>871.0300000000001</ele><time>2024-10-12T01:32:23Z</time></trkpt><trkpt lat="35.7298676" lon="139.0685239"><ele>870.8933333333334</ele><time>2024-10-12T01:32:38Z</time></trkpt><trkpt lat="35.7297975" lon="139.0687524"><ele>870.1866666666668</ele><time>2024-10-12T01:32:53Z</time></trkpt><trkpt lat="35.7298221" lon="139.0689843"><ele>867.6</ele><time>2024-10-12T01:33:11Z</time></trkpt><trkpt lat="35.7297259" lon="139.0691728"><ele>865.3066666666667</ele><time>2024-10-12T01:33:28Z</time></trkpt><trkpt lat="35.729606" lon="139.0693618"><ele>865.4666666666667</ele><time>2024-10-12T01:33:49Z</time></trkpt><trkpt lat="35.7295053" lon="139.0695797"><ele>870.8933333333333</ele><time>2024-10-12T01:34:34Z</time></trkpt><trkpt lat="35.7293793" lon="139.0697802"><ele>878.1033333333335</ele><time>2024-10-12T01:34:53Z</time></trkpt><trkpt lat="35.7292191" lon="139.0699335"><ele>884.5133333333333</ele><time>2024-10-12T01:35:17Z</time></trkpt><trkpt lat="35.7290519" lon="139.0700972"><ele>888.7066666666666</ele><time>2024-10-12T01:35:41Z</time></trkpt><trkpt lat="35.7288757" lon="139.0702117"><ele>890.68</ele><time>2024-10-12T01:36:02Z</time></trkpt><trkpt lat="35.7287338" lon="139.070397"><ele>893.1666666666666</ele><time>2024-10-12T01:36:22Z</time></trkpt><trkpt lat="35.7288806" lon="139.0705587"><ele>896.0366666666667</ele><time>2024-10-12T01:38:43Z</time></trkpt><trkpt lat="35.7290954" lon="139.0707002"><ele>899.7766666666666</ele><time>2024-10-12T01:39:13Z</time></trkpt><trkpt lat="35.7292489" lon="139.0708438"><ele>898.6300000000001</ele><time>2024-10-12T01:39:28Z</time></trkpt><trkpt lat="35.7292468" lon="139.0710655"><ele>894.7399999999999</ele><time>2024-10-12T01:39:47Z</time></trkpt><trkpt lat="35.7291753" lon="139.0712872"><ele>890.1033333333335</ele><time>2024-10-12T01:40:04Z</time></trkpt><trkpt lat="35.7291412" lon="139.0715152"><ele>888.6133333333333</ele><time>2024-10-12T01:40:23Z</time></trkpt><trkpt lat="35.7292022" lon="139.0717287"><ele>886.4466666666667</ele><time>2024-10-12T01:40:47Z</time></trkpt><trkpt lat="35.7292535" lon="139.0719486"><ele>883.3833333333333</ele><time>2024-10-12T01:41:34Z</time></trkpt><trkpt lat="35.7293398" lon="139.0721574"><ele>880.6766666666667</ele><time>2024-10-12T01:42:00Z</time></trkpt><trkpt lat="35.7294653" lon="139.0723262"><ele>880.0366666666667</ele><time>2024-10-12T01:42:18Z</time></trkpt><trkpt lat="35.7296245" lon="139.0724761"><ele>880.1566666666666</ele><time>2024-10-12T01:42:36Z</time></trkpt><trkpt lat="35.7297499" lon="139.0726927"><ele>879.5933333333334</ele><time>2024-10-12T01:42:54Z</time></trkpt><trkpt lat="35.7299453" lon="139.0727528"><ele>876.6266666666667</ele><time>2024-10-12T01:43:13Z</time></trkpt><trkpt lat="35.7300913" lon="139.0728849"><ele>872.2433333333335</ele><time>2024-10-12T01:43:55Z</time></trkpt><trkpt lat="35.7300923" lon="139.0731363"><ele>866.9033333333333</ele><time>2024-10-12T01:44:25Z</time></trkpt><trkpt lat="35.7300843" lon="139.0733658"><ele>864.14</ele><time>2024-10-12T01:44:46Z</time></trkpt><trkpt lat="35.7300712" lon="139.0736397"><ele>864.2766666666666</ele><time>2024-10-12T01:45:19Z</time></trkpt><trkpt lat="35.7300402" lon="139.0738747"><ele>867.07</ele><time>2024-10-12T01:45:31Z</time></trkpt><trkpt lat="35.7301782" lon="139.0740632"><ele>869.2166666666667</ele><time>2024-10-12T01:45:52Z</time></trkpt><trkpt lat="35.7301843" lon="139.0743125"><ele>872.5100000000001</ele><time>2024-10-12T01:46:10Z</time></trkpt><trkpt lat="35.7301464" lon="139.074547"><ele>875.5033333333334</ele><time>2024-10-12T01:46:36Z</time></trkpt><trkpt lat="35.7301069" lon="139.0747869"><ele>880.7666666666668</ele><time>2024-10-12T01:47:00Z</time></trkpt><trkpt lat="35.7301034" lon="139.0750112"><ele>885.4200000000001</ele><time>2024-10-12T01:47:28Z</time></trkpt><trkpt lat="35.7300141" lon="139.0752071"><ele>887.5066666666667</ele><time>2024-10-12T01:47:46Z</time></trkpt><trkpt lat="35.7298013" lon="139.0753174"><ele>885.7333333333332</ele><time>2024-10-12T01:48:04Z</time></trkpt><trkpt lat="35.7296215" lon="139.0753424"><ele>885.1633333333334</ele><time>2024-10-12T01:48:15Z</time></trkpt><trkpt lat="35.729629" lon="139.0755682"><ele>888.8533333333335</ele><time>2024-10-12T01:48:48Z</time></trkpt><trkpt lat="35.7296465" lon="139.0758259"><ele>894.44</ele><time>2024-10-12T01:49:02Z</time></trkpt><trkpt lat="35.7297072" lon="139.0760395"><ele>899.0300000000001</ele><time>2024-10-12T01:49:22Z</time></trkpt><trkpt lat="35.7297674" lon="139.0762723"><ele>902.8866666666667</ele><time>2024-10-12T01:49:36Z</time></trkpt><trkpt lat="35.7297779" lon="139.0764955"><ele>907.4533333333334</ele><time>2024-10-12T01:49:51Z</time></trkpt><trkpt lat="35.7297811" lon="139.0767442"><ele>909.4699999999999</ele><time>2024-10-12T01:50:12Z</time></trkpt><trkpt lat="35.7297907" lon="139.0769794"><ele>908.7333333333332</ele><time>2024-10-12T01:50:32Z</time></trkpt><trkpt lat="35.72979" lon="139.0772587"><ele>908.5866666666667</ele><time>2024-10-12T01:50:51Z</time></trkpt><trkpt lat="35.729716" lon="139.0775258"><ele>908.0533333333333</ele><time>2024-10-12T01:51:38Z</time></trkpt><trkpt lat="35.7295493" lon="139.0776358"><ele>907.0333333333333</ele><time>2024-10-12T01:51:56Z</time></trkpt><trkpt lat="35.7294689" lon="139.0778753"><ele>900.6466666666665</ele><time>2024-10-12T01:52:16Z</time></trkpt><trkpt lat="35.7293539" lon="139.0780591"><ele>894.7400000000001</ele><time>2024-10-12T01:52:28Z</time></trkpt><trkpt lat="35.7292478" lon="139.0782416"><ele>890.3000000000001</ele><time>2024-10-12T01:52:41Z</time></trkpt><trkpt lat="35.7291347" lon="139.0784549"><ele>890.6933333333333</ele><time>2024-10-12T01:52:58Z</time></trkpt><trkpt lat="35.7290287" lon="139.0786556"><ele>891.96</ele><time>2024-10-12T01:53:17Z</time></trkpt><trkpt lat="35.7288632" lon="139.0787856"><ele>892.3633333333333</ele><time>2024-10-12T01:53:34Z</time></trkpt><trkpt lat="35.7286836" lon="139.0788697"><ele>892.34</ele><time>2024-10-12T01:53:49Z</time></trkpt><trkpt lat="35.7285354" lon="139.0790094"><ele>891.5466666666667</ele><time>2024-10-12T01:54:01Z</time></trkpt><trkpt lat="35.7284038" lon="139.0791859"><ele>894.4266666666667</ele><time>2024-10-12T01:54:16Z</time></trkpt><trkpt lat="35.7282621" lon="139.0793477"><ele>897.7566666666667</ele><time>2024-10-12T01:54:35Z</time></trkpt><trkpt lat="35.7281305" lon="139.0795695"><ele>902.44</ele><time>2024-10-12T01:54:53Z</time></trkpt><trkpt lat="35.7279952" lon="139.0797897"><ele>904.16</ele><time>2024-10-12T01:55:10Z</time></trkpt><trkpt lat="35.7278531" lon="139.0799715"><ele>905.8733333333333</ele><time>2024-10-12T01:55:25Z</time></trkpt><trkpt lat="35.7276943" lon="139.0801312"><ele>904.8833333333333</ele><time>2024-10-12T01:55:44Z</time></trkpt><trkpt lat="35.7275401" lon="139.0802975"><ele>904.9500000000002</ele><time>2024-10-12T01:56:01Z</time></trkpt><trkpt lat="35.7273701" lon="139.0804244"><ele>903.7666666666668</ele><time>2024-10-12T01:56:19Z</time></trkpt><trkpt lat="35.7272072" lon="139.0805691"><ele>904.1766666666666</ele><time>2024-10-12T01:56:35Z</time></trkpt><trkpt lat="35.7270359" lon="139.0806902"><ele>903.1366666666667</ele><time>2024-10-12T01:56:50Z</time></trkpt><trkpt lat="35.7268864" lon="139.0808371"><ele>904.2466666666668</ele><time>2024-10-12T01:57:27Z</time></trkpt><trkpt lat="35.7269734" lon="139.0810446"><ele>907.39</ele><time>2024-10-12T01:58:02Z</time></trkpt><trkpt lat="35.7271594" lon="139.081138"><ele>912.6300000000001</ele><time>2024-10-12T01:58:21Z</time></trkpt><trkpt lat="35.7273242" lon="139.0812723"><ele>913.6566666666668</ele><time>2024-10-12T01:58:42Z</time></trkpt><trkpt lat="35.7274231" lon="139.0815091"><ele>912.7133333333333</ele><time>2024-10-12T01:58:56Z</time></trkpt><trkpt lat="35.7273769" lon="139.0817308"><ele>907.8533333333334</ele><time>2024-10-12T01:59:14Z</time></trkpt><trkpt lat="35.7272275" lon="139.0819114"><ele>901.1366666666667</ele><time>2024-10-12T01:59:30Z</time></trkpt><trkpt lat="35.7270656" lon="139.0820953"><ele>892.2600000000001</ele><time>2024-10-12T01:59:48Z</time></trkpt><trkpt lat="35.7269207" lon="139.0822566"><ele>884.1633333333333</ele><time>2024-10-12T02:00:03Z</time></trkpt><trkpt lat="35.7267746" lon="139.0824239"><ele>880.5533333333333</ele><time>2024-10-12T02:00:20Z</time></trkpt><trkpt lat="35.7266922" lon="139.0826314"><ele>880.7366666666667</ele><time>2024-10-12T02:00:39Z</time></trkpt><trkpt lat="35.7265702" lon="139.08284"><ele>878.3033333333333</ele><time>2024-10-12T02:00:57Z</time></trkpt><trkpt lat="35.7264235" lon="139.0829953"><ele>874.6466666666669</ele><time>2024-10-12T02:01:09Z</time></trkpt><trkpt lat="35.726282" lon="139.0831617"><ele>869.5500000000001</ele><time>2024-10-12T02:01:26Z</time></trkpt><trkpt lat="35.726091" lon="139.083203"><ele>866.6166666666667</ele><time>2024-10-12T02:01:44Z</time></trkpt><trkpt lat="35.7259122" lon="139.0832675"><ele>863.9200000000001</ele><time>2024-10-12T02:02:18Z</time></trkpt><trkpt lat="35.7257184" lon="139.0832988"><ele>858.7933333333334</ele><time>2024-10-12T02:02:32Z</time></trkpt><trkpt lat="35.7255159" lon="139.0833388"><ele>855.5166666666668</ele><time>2024-10-12T02:02:48Z</time></trkpt><trkpt lat="35.7253526" lon="139.0834532"><ele>853.8166666666666</ele><time>2024-10-12T02:03:03Z</time></trkpt><trkpt lat="35.7252017" lon="139.083582"><ele>856.5100000000001</ele><time>2024-10-12T02:03:23Z</time></trkpt><trkpt lat="35.7250482" lon="139.0837148"><ele>861.5066666666667</ele><time>2024-10-12T02:03:38Z</time></trkpt><trkpt lat="35.7248801" lon="139.0838542"><ele>863.0933333333334</ele><time>2024-10-12T02:03:57Z</time></trkpt><trkpt lat="35.7247289" lon="139.0840571"><ele>859.57</ele><time>2024-10-12T02:04:12Z</time></trkpt><trkpt lat="35.7245395" lon="139.0841798"><ele>852.3533333333334</ele><time>2024-10-12T02:04:27Z</time></trkpt><trkpt lat="35.7243451" lon="139.0842773"><ele>847.3533333333334</ele><time>2024-10-12T02:04:44Z</time></trkpt><trkpt lat="35.7242214" lon="139.0844587"><ele>844.91</ele><time>2024-10-12T02:05:06Z</time></trkpt><trkpt lat="35.7241657" lon="139.0847037"><ele>843.1833333333334</ele><time>2024-10-12T02:05:26Z</time></trkpt><trkpt lat="35.7240521" lon="139.0849006"><ele>844.33</ele><time>2024-10-12T02:05:50Z</time></trkpt><trkpt lat="35.7238743" lon="139.0849604"><ele>848.1733333333333</ele><time>2024-10-12T02:06:11Z</time></trkpt><trkpt lat="35.7237093" lon="139.085072"><ele>854.3366666666667</ele><time>2024-10-12T02:06:30Z</time></trkpt><trkpt lat="35.7236151" lon="139.0853025"><ele>856.8933333333334</ele><time>2024-10-12T02:06:50Z</time></trkpt><trkpt lat="35.7235358" lon="139.0855133"><ele>857.87</ele><time>2024-10-12T02:07:08Z</time></trkpt><trkpt lat="35.7234492" lon="139.0857316"><ele>859.8333333333334</ele><time>2024-10-12T02:07:40Z</time></trkpt><trkpt lat="35.7233632" lon="139.0859639"><ele>864.6633333333333</ele><time>2024-10-12T02:08:18Z</time></trkpt><trkpt lat="35.7231807" lon="139.0861681"><ele>871.3100000000001</ele><time>2024-10-12T02:08:54Z</time></trkpt><trkpt lat="35.7230147" lon="139.0862573"><ele>878.7033333333334</ele><time>2024-10-12T02:09:40Z</time></trkpt><trkpt lat="35.7229354" lon="139.0864866"><ele>882.1433333333334</ele><time>2024-10-12T02:10:37Z</time></trkpt><trkpt lat="35.7227891" lon="139.0866528"><ele>885.3666666666668</ele><time>2024-10-12T02:11:39Z</time></trkpt><trkpt lat="35.722733" lon="139.0868741"><ele>882.3100000000001</ele><time>2024-10-12T02:12:13Z</time></trkpt><trkpt lat="35.7227551" lon="139.087115"><ele>877.0666666666666</ele><time>2024-10-12T02:12:51Z</time></trkpt><trkpt lat="35.7227276" lon="139.0873522"><ele>872.2700000000001</ele><time>2024-10-12T02:13:15Z</time></trkpt><trkpt lat="35.7227201" lon="139.0875762"><ele>869.0633333333334</ele><time>2024-10-12T02:13:54Z</time></trkpt><trkpt lat="35.7225974" lon="139.0877779"><ele>871.1999999999999</ele><time>2024-10-12T02:14:33Z</time></trkpt><trkpt lat="35.7224086" lon="139.0877808"><ele>874.2866666666667</ele><time>2024-10-12T02:14:51Z</time></trkpt><trkpt lat="35.7223847" lon="139.0880175"><ele>877.2966666666666</ele><time>2024-10-12T02:15:16Z</time></trkpt><trkpt lat="35.7224289" lon="139.0882537"><ele>875.0333333333333</ele><time>2024-10-12T02:15:27Z</time></trkpt><trkpt lat="35.722323" lon="139.0884381"><ele>873.6933333333333</ele><time>2024-10-12T02:15:43Z</time></trkpt><trkpt lat="35.7223232" lon="139.0886669"><ele>871.4966666666666</ele><time>2024-10-12T02:16:07Z</time></trkpt><trkpt lat="35.7222887" lon="139.0889088"><ele>872.1300000000001</ele><time>2024-10-12T02:16:19Z</time></trkpt><trkpt lat="35.7222941" lon="139.0891501"><ele>866.1700000000001</ele><time>2024-10-12T02:16:30Z</time></trkpt><trkpt lat="35.7222741" lon="139.0893705"><ele>861.2966666666666</ele><time>2024-10-12T02:16:42Z</time></trkpt><trkpt lat="35.7222088" lon="139.0896023"><ele>860.0033333333334</ele><time>2024-10-12T02:17:01Z</time></trkpt><trkpt lat="35.7221203" lon="139.0898192"><ele>863.2600000000001</ele><time>2024-10-12T02:17:19Z</time></trkpt><trkpt lat="35.722096" lon="139.0900864"><ele>864.6733333333333</ele><time>2024-10-12T02:17:37Z</time></trkpt><trkpt lat="35.7221233" lon="139.0903539"><ele>861.7666666666668</ele><time>2024-10-12T02:17:52Z</time></trkpt><trkpt lat="35.7220534" lon="139.0905744"><ele>858.0433333333334</ele><time>2024-10-12T02:18:10Z</time></trkpt><trkpt lat="35.7220854" lon="139.0908488"><ele>855.61</ele><time>2024-10-12T02:18:25Z</time></trkpt><trkpt lat="35.7220729" lon="139.0910724"><ele>855.8366666666667</ele><time>2024-10-12T02:18:39Z</time></trkpt><trkpt lat="35.7220545" lon="139.0913311"><ele>857.6533333333333</ele><time>2024-10-12T02:18:57Z</time></trkpt><trkpt lat="35.7220847" lon="139.0915499"><ele>858.2066666666666</ele><time>2024-10-12T02:19:13Z</time></trkpt><trkpt lat="35.7220851" lon="139.091821"><ele>858.6633333333333</ele><time>2024-10-12T02:19:34Z</time></trkpt><trkpt lat="35.7221029" lon="139.0920658"><ele>857.8133333333334</ele><time>2024-10-12T02:19:48Z</time></trkpt><trkpt lat="35.7221469" lon="139.0922963"><ele>858.1366666666667</ele><time>2024-10-12T02:20:03Z</time></trkpt><trkpt lat="35.7220559" lon="139.0925156"><ele>857.7366666666667</ele><time>2024-10-12T02:20:34Z</time></trkpt><trkpt lat="35.7219413" lon="139.0926961"><ele>853.5433333333334</ele><time>2024-10-12T02:20:56Z</time></trkpt><trkpt lat="35.7218224" lon="139.0928704"><ele>850.25</ele><time>2024-10-12T02:21:11Z</time></trkpt><trkpt lat="35.7216818" lon="139.0930442"><ele>847.5</ele><time>2024-10-12T02:21:26Z</time></trkpt><trkpt lat="35.7215947" lon="139.0932974"><ele>844.4066666666668</ele><time>2024-10-12T02:21:40Z</time></trkpt><trkpt lat="35.7215" lon="139.0934866"><ele>843.7233333333334</ele><time>2024-10-12T02:21:55Z</time></trkpt><trkpt lat="35.7214276" lon="139.0937234"><ele>841.7133333333335</ele><time>2024-10-12T02:22:20Z</time></trkpt><trkpt lat="35.7214176" lon="139.0939575"><ele>841.6066666666667</ele><time>2024-10-12T02:22:32Z</time></trkpt><trkpt lat="35.7214725" lon="139.0941826"><ele>839.5933333333334</ele><time>2024-10-12T02:22:44Z</time></trkpt><trkpt lat="35.7215266" lon="139.0944278"><ele>840.4033333333333</ele><time>2024-10-12T02:22:59Z</time></trkpt><trkpt lat="35.7214865" lon="139.0946626"><ele>845.12</ele><time>2024-10-12T02:23:14Z</time></trkpt><trkpt lat="35.7214854" lon="139.094906"><ele>850.21</ele><time>2024-10-12T02:23:28Z</time></trkpt><trkpt lat="35.7214781" lon="139.0951386"><ele>853.82</ele><time>2024-10-12T02:23:42Z</time></trkpt><trkpt lat="35.7214496" lon="139.0953677"><ele>854.7033333333334</ele><time>2024-10-12T02:23:56Z</time></trkpt><trkpt lat="35.7213775" lon="139.0956098"><ele>856.1666666666666</ele><time>2024-10-12T02:24:15Z</time></trkpt><trkpt lat="35.7213922" lon="139.0958408"><ele>855.89</ele><time>2024-10-12T02:24:47Z</time></trkpt><trkpt lat="35.7213326" lon="139.0960897"><ele>855.2600000000001</ele><time>2024-10-12T02:25:08Z</time></trkpt><trkpt lat="35.7213195" lon="139.0963305"><ele>853.0600000000001</ele><time>2024-10-12T02:25:24Z</time></trkpt><trkpt lat="35.721278" lon="139.0965682"><ele>852.11</ele><time>2024-10-12T02:25:59Z</time></trkpt><trkpt lat="35.721226" lon="139.0968037"><ele>850.12</ele><time>2024-10-12T02:26:17Z</time></trkpt><trkpt lat="35.7212404" lon="139.0970359"><ele>849.8133333333334</ele><time>2024-10-12T02:26:35Z</time></trkpt><trkpt lat="35.7212414" lon="139.0972583"><ele>850.33</ele><time>2024-10-12T02:26:53Z</time></trkpt><trkpt lat="35.7211118" lon="139.0974425"><ele>852.4266666666667</ele><time>2024-10-12T02:27:11Z</time></trkpt><trkpt lat="35.7210601" lon="139.0976554"><ele>852.8000000000001</ele><time>2024-10-12T02:27:24Z</time></trkpt><trkpt lat="35.720992" lon="139.0978754"><ele>853.75</ele><time>2024-10-12T02:27:38Z</time></trkpt><trkpt lat="35.7209006" lon="139.0980689"><ele>855.4333333333334</ele><time>2024-10-12T02:28:00Z</time></trkpt><trkpt lat="35.7208167" lon="139.0982712"><ele>858.7000000000002</ele><time>2024-10-12T02:28:20Z</time></trkpt><trkpt lat="35.7207342" lon="139.0984753"><ele>860.9266666666667</ele><time>2024-10-12T02:29:02Z</time></trkpt><trkpt lat="35.7205769" lon="139.0986131"><ele>862.9566666666666</ele><time>2024-10-12T02:29:18Z</time></trkpt><trkpt lat="35.7204536" lon="139.0988145"><ele>865.2266666666668</ele><time>2024-10-12T02:29:39Z</time></trkpt><trkpt lat="35.7202768" lon="139.0990115"><ele>868.73</ele><time>2024-10-12T02:30:41Z</time></trkpt><trkpt lat="35.7201959" lon="139.0992151"><ele>871.52</ele><time>2024-10-12T02:30:57Z</time></trkpt><trkpt lat="35.7201397" lon="139.0994326"><ele>873.8366666666667</ele><time>2024-10-12T02:31:17Z</time></trkpt><trkpt lat="35.7200435" lon="139.0996348"><ele>875.7299999999999</ele><time>2024-10-12T02:31:40Z</time></trkpt><trkpt lat="35.7199515" lon="139.0998312"><ele>878.65</ele><time>2024-10-12T02:32:04Z</time></trkpt><trkpt lat="35.7199131" lon="139.1000819"><ele>882.7466666666666</ele><time>2024-10-12T02:32:42Z</time></trkpt><trkpt lat="35.720002" lon="139.100283"><ele>886.5766666666667</ele><time>2024-10-12T02:33:06Z</time></trkpt><trkpt lat="35.7201123" lon="139.1004744"><ele>888.8000000000001</ele><time>2024-10-12T02:33:24Z</time></trkpt><trkpt lat="35.7201558" lon="139.1007062"><ele>890.5100000000001</ele><time>2024-10-12T02:33:41Z</time></trkpt><trkpt lat="35.7202405" lon="139.1009062"><ele>892.4266666666667</ele><time>2024-10-12T02:34:03Z</time></trkpt><trkpt lat="35.7203293" lon="139.1011028"><ele>894.0566666666667</ele><time>2024-10-12T02:34:20Z</time></trkpt><trkpt lat="35.7203815" lon="139.1013247"><ele>895.8333333333334</ele><time>2024-10-12T02:34:38Z</time></trkpt><trkpt lat="35.7203414" lon="139.101548"><ele>897.5600000000001</ele><time>2024-10-12T02:34:57Z</time></trkpt><trkpt lat="35.720202" lon="139.1017316"><ele>899.3100000000001</ele><time>2024-10-12T02:35:24Z</time></trkpt><trkpt lat="35.7200695" lon="139.1019004"><ele>900.16</ele><time>2024-10-12T02:35:41Z</time></trkpt><trkpt lat="35.7200197" lon="139.1021147"><ele>900.6300000000001</ele><time>2024-10-12T02:36:03Z</time></trkpt><trkpt lat="35.7200203" lon="139.1023367"><ele>901.4566666666666</ele><time>2024-10-12T02:36:38Z</time></trkpt><trkpt lat="35.7201438" lon="139.1025012"><ele>900.6866666666668</ele><time>2024-10-12T02:36:53Z</time></trkpt><trkpt lat="35.7201935" lon="139.1027281"><ele>896.2733333333334</ele><time>2024-10-12T02:37:10Z</time></trkpt><trkpt lat="35.7202778" lon="139.102941"><ele>892.0733333333334</ele><time>2024-10-12T02:37:28Z</time></trkpt><trkpt lat="35.7203902" lon="139.1031332"><ele>889.3866666666667</ele><time>2024-10-12T02:37:43Z</time></trkpt><trkpt lat="35.7205617" lon="139.1032565"><ele>889.7933333333334</ele><time>2024-10-12T02:38:23Z</time></trkpt><trkpt lat="35.7206669" lon="139.1034423"><ele>887.2833333333333</ele><time>2024-10-12T02:38:38Z</time></trkpt><trkpt lat="35.7208117" lon="139.1035796"><ele>882.62</ele><time>2024-10-12T02:39:02Z</time></trkpt><trkpt lat="35.7209361" lon="139.1037675"><ele>877.2133333333333</ele><time>2024-10-12T02:39:20Z</time></trkpt><trkpt lat="35.7210063" lon="139.1039739"><ele>873.5666666666666</ele><time>2024-10-12T02:39:37Z</time></trkpt><trkpt lat="35.7209305" lon="139.1042284"><ele>869.6933333333333</ele><time>2024-10-12T02:40:07Z</time></trkpt><trkpt lat="35.7209006" lon="139.1044681"><ele>865.7933333333334</ele><time>2024-10-12T02:44:03Z</time></trkpt><trkpt lat="35.720745" lon="139.1042994"><ele>863.9366666666668</ele><time>2024-10-12T02:48:41Z</time></trkpt><trkpt lat="35.7206061" lon="139.1041585"><ele>864.8366666666667</ele><time>2024-10-12T02:48:56Z</time></trkpt><trkpt lat="35.7204911" lon="139.1043536"><ele>867.1966666666667</ele><time>2024-10-12T02:49:35Z</time></trkpt><trkpt lat="35.7204172" lon="139.1045915"><ele>869.4499999999999</ele><time>2024-10-12T02:50:06Z</time></trkpt><trkpt lat="35.7204221" lon="139.1048179"><ele>873.1199999999999</ele><time>2024-10-12T02:50:39Z</time></trkpt><trkpt lat="35.7204564" lon="139.1050568"><ele>878.1366666666668</ele><time>2024-10-12T02:51:03Z</time></trkpt><trkpt lat="35.7204292" lon="139.1052756"><ele>883.6899999999999</ele><time>2024-10-12T02:51:42Z</time></trkpt><trkpt lat="35.7203868" lon="139.105527"><ele>886.2433333333333</ele><time>2024-10-12T02:53:56Z</time></trkpt><trkpt lat="35.720323" lon="139.1057485"><ele>887.1233333333333</ele><time>2024-10-12T02:54:10Z</time></trkpt><trkpt lat="35.720223" lon="139.1059582"><ele>887.5766666666667</ele><time>2024-10-12T02:54:32Z</time></trkpt><trkpt lat="35.7201883" lon="139.1061943"><ele>887.5933333333332</ele><time>2024-10-12T02:54:46Z</time></trkpt><trkpt lat="35.7201901" lon="139.1064298"><ele>887.0966666666667</ele><time>2024-10-12T02:55:02Z</time></trkpt><trkpt lat="35.7201677" lon="139.1066925"><ele>884.7266666666668</ele><time>2024-10-12T02:55:19Z</time></trkpt><trkpt lat="35.7201824" lon="139.1069286"><ele>881.0766666666667</ele><time>2024-10-12T02:55:44Z</time></trkpt><trkpt lat="35.7202208" lon="139.1071496"><ele>876.4200000000001</ele><time>2024-10-12T02:56:13Z</time></trkpt><trkpt lat="35.7202688" lon="139.1073734"><ele>870.9266666666666</ele><time>2024-10-12T02:56:31Z</time></trkpt><trkpt lat="35.7203775" lon="139.107577"><ele>867.3033333333333</ele><time>2024-10-12T02:56:49Z</time></trkpt><trkpt lat="35.7204479" lon="139.1078251"><ele>863.23</ele><time>2024-10-12T02:57:10Z</time></trkpt><trkpt lat="35.7205339" lon="139.1080241"><ele>858.4833333333332</ele><time>2024-10-12T02:57:28Z</time></trkpt><trkpt lat="35.7204969" lon="139.1082648"><ele>853.9900000000001</ele><time>2024-10-12T02:57:46Z</time></trkpt><trkpt lat="35.720419" lon="139.10849"><ele>851.4200000000001</ele><time>2024-10-12T02:58:26Z</time></trkpt><trkpt lat="35.7204159" lon="139.1087287"><ele>851.0666666666667</ele><time>2024-10-12T02:58:43Z</time></trkpt><trkpt lat="35.7203474" lon="139.1089626"><ele>851.8100000000001</ele><time>2024-10-12T02:59:05Z</time></trkpt><trkpt lat="35.7202582" lon="139.1091754"><ele>853.0866666666667</ele><time>2024-10-12T02:59:25Z</time></trkpt><trkpt lat="35.72014" lon="139.1093543"><ele>855.1333333333333</ele><time>2024-10-12T02:59:48Z</time></trkpt><trkpt lat="35.7200665" lon="139.1095821"><ele>857.1033333333334</ele><time>2024-10-12T03:00:09Z</time></trkpt><trkpt lat="35.7200083" lon="139.1098472"><ele>859.44</ele><time>2024-10-12T03:00:28Z</time></trkpt><trkpt lat="35.7199725" lon="139.110089"><ele>861.68</ele><time>2024-10-12T03:00:45Z</time></trkpt><trkpt lat="35.7199194" lon="139.1103186"><ele>864.1333333333333</ele><time>2024-10-12T03:01:25Z</time></trkpt><trkpt lat="35.7198723" lon="139.1105453"><ele>867.1833333333334</ele><time>2024-10-12T03:02:07Z</time></trkpt><trkpt lat="35.7199018" lon="139.1108012"><ele>872.0033333333334</ele><time>2024-10-12T03:03:17Z</time></trkpt><trkpt lat="35.7197726" lon="139.1109629"><ele>879.8533333333334</ele><time>2024-10-12T03:04:11Z</time></trkpt><trkpt lat="35.7198693" lon="139.1112078"><ele>890.1066666666667</ele><time>2024-10-12T03:05:32Z</time></trkpt><trkpt lat="35.7198076" lon="139.1114191"><ele>900.4433333333333</ele><time>2024-10-12T03:07:05Z</time></trkpt><trkpt lat="35.7199969" lon="139.1116272"><ele>910.0966666666667</ele><time>2024-10-12T03:08:10Z</time></trkpt><trkpt lat="35.7201039" lon="139.1118408"><ele>916.69</ele><time>2024-10-12T03:08:44Z</time></trkpt><trkpt lat="35.7202466" lon="139.1120053"><ele>920.8100000000001</ele><time>2024-10-12T03:09:26Z</time></trkpt><trkpt lat="35.720372" lon="139.112183"><ele>922.0766666666667</ele><time>2024-10-12T03:10:11Z</time></trkpt><trkpt lat="35.7204804" lon="139.1123953"><ele>922.29</ele><time>2024-10-12T03:10:34Z</time></trkpt><trkpt lat="35.7205248" lon="139.1126448"><ele>922.5066666666667</ele><time>2024-10-12T03:10:59Z</time></trkpt><trkpt lat="35.7206231" lon="139.1128644"><ele>921.48</ele><time>2024-10-12T03:11:35Z</time></trkpt><trkpt lat="35.7206292" lon="139.113099"><ele>921.2566666666668</ele><time>2024-10-12T03:11:58Z</time></trkpt><trkpt lat="35.720562" lon="139.1133045"><ele>923.0</ele><time>2024-10-12T03:12:38Z</time></trkpt><trkpt lat="35.7206039" lon="139.1130554"><ele>923.2933333333334</ele><time>2024-10-12T03:14:12Z</time></trkpt><trkpt lat="35.7206164" lon="139.1128167"><ele>922.5799999999999</ele><time>2024-10-12T03:14:26Z</time></trkpt><trkpt lat="35.7205632" lon="139.1125852"><ele>920.8366666666667</ele><time>2024-10-12T03:14:44Z</time></trkpt><trkpt lat="35.7204534" lon="139.1123585"><ele>922.0033333333334</ele><time>2024-10-12T03:15:05Z</time></trkpt><trkpt lat="35.7203483" lon="139.1121624"><ele>923.1166666666668</ele><time>2024-10-12T03:15:22Z</time></trkpt><trkpt lat="35.7202172" lon="139.1119701"><ele>922.7800000000001</ele><time>2024-10-12T03:15:45Z</time></trkpt><trkpt lat="35.7200804" lon="139.111793"><ele>921.7733333333332</ele><time>2024-10-12T03:16:07Z</time></trkpt><trkpt lat="35.7199568" lon="139.1116154"><ele>920.4966666666666</ele><time>2024-10-12T03:16:27Z</time></trkpt><trkpt lat="35.7198177" lon="139.1114685"><ele>917.6733333333333</ele><time>2024-10-12T03:17:06Z</time></trkpt><trkpt lat="35.719845" lon="139.1112469"><ele>911.2633333333334</ele><time>2024-10-12T03:17:50Z</time></trkpt><trkpt lat="35.71978" lon="139.1109952"><ele>901.62</ele><time>2024-10-12T03:18:54Z</time></trkpt><trkpt lat="35.719858" lon="139.1107262"><ele>889.5633333333334</ele><time>2024-10-12T03:19:54Z</time></trkpt><trkpt lat="35.719784" lon="139.1105153"><ele>879.1566666666666</ele><time>2024-10-12T03:20:19Z</time></trkpt><trkpt lat="35.7198734" lon="139.1103091"><ele>871.8866666666667</ele><time>2024-10-12T03:20:37Z</time></trkpt><trkpt lat="35.7200837" lon="139.1102889"><ele>867.18</ele><time>2024-10-12T03:21:00Z</time></trkpt><trkpt lat="35.72028" lon="139.1103148"><ele>862.3299999999999</ele><time>2024-10-12T03:21:18Z</time></trkpt><trkpt lat="35.7203795" lon="139.1105334"><ele>857.7766666666666</ele><time>2024-10-12T03:21:54Z</time></trkpt><trkpt lat="35.7205626" lon="139.1105139"><ele>852.25</ele><time>2024-10-12T03:22:15Z</time></trkpt><trkpt lat="35.720739" lon="139.1103976"><ele>847.0133333333333</ele><time>2024-10-12T03:22:33Z</time></trkpt><trkpt lat="35.7208644" lon="139.1102142"><ele>840.94</ele><time>2024-10-12T03:23:13Z</time></trkpt><trkpt lat="35.7210113" lon="139.1100438"><ele>836.9933333333333</ele><time>2024-10-12T03:23:37Z</time></trkpt><trkpt lat="35.7210986" lon="139.1098304"><ele>833.7566666666667</ele><time>2024-10-12T03:23:54Z</time></trkpt><trkpt lat="35.7211424" lon="139.1095689"><ele>828.8666666666667</ele><time>2024-10-12T03:24:12Z</time></trkpt><trkpt lat="35.7212783" lon="139.1093855"><ele>822.4566666666666</ele><time>2024-10-12T03:24:41Z</time></trkpt><trkpt lat="35.7214609" lon="139.1093792"><ele>816.0633333333334</ele><time>2024-10-12T03:25:04Z</time></trkpt><trkpt lat="35.7216424" lon="139.1094054"><ele>813.1233333333333</ele><time>2024-10-12T03:25:19Z</time></trkpt><trkpt lat="35.7218375" lon="139.1094658"><ele>811.1800000000002</ele><time>2024-10-12T03:25:37Z</time></trkpt><trkpt lat="35.7219652" lon="139.1096717"><ele>808.3000000000001</ele><time>2024-10-12T03:25:55Z</time></trkpt><trkpt lat="35.7220161" lon="139.1099203"><ele>805.82</ele><time>2024-10-12T03:26:13Z</time></trkpt><trkpt lat="35.7220966" lon="139.1101235"><ele>803.1866666666666</ele><time>2024-10-12T03:26:34Z</time></trkpt><trkpt lat="35.7221989" lon="139.1103122"><ele>800.48</ele><time>2024-10-12T03:27:10Z</time></trkpt><trkpt lat="35.7222791" lon="139.1105182"><ele>795.2166666666667</ele><time>2024-10-12T03:27:26Z</time></trkpt><trkpt lat="35.7223727" lon="139.1107338"><ele>790.15</ele><time>2024-10-12T03:27:43Z</time></trkpt><trkpt lat="35.7224299" lon="139.1109603"><ele>785.7966666666667</ele><time>2024-10-12T03:27:59Z</time></trkpt><trkpt lat="35.7224364" lon="139.1111945"><ele>781.75</ele><time>2024-10-12T03:28:37Z</time></trkpt><trkpt lat="35.7223659" lon="139.1114235"><ele>776.8100000000001</ele><time>2024-10-12T03:28:51Z</time></trkpt><trkpt lat="35.7221976" lon="139.1115537"><ele>773.8766666666667</ele><time>2024-10-12T03:29:12Z</time></trkpt><trkpt lat="35.7222276" lon="139.1118077"><ele>769.8000000000001</ele><time>2024-10-12T03:29:49Z</time></trkpt><trkpt lat="35.7222776" lon="139.1120235"><ele>766.94</ele><time>2024-10-12T03:30:10Z</time></trkpt><trkpt lat="35.7222619" lon="139.1122548"><ele>768.1833333333334</ele><time>2024-10-12T03:30:33Z</time></trkpt><trkpt lat="35.7223721" lon="139.1124577"><ele>769.1433333333334</ele><time>2024-10-12T03:30:51Z</time></trkpt><trkpt lat="35.7225538" lon="139.1125182"><ele>770.8333333333334</ele><time>2024-10-12T03:31:09Z</time></trkpt><trkpt lat="35.7227476" lon="139.1124717"><ele>763.8666666666667</ele><time>2024-10-12T03:31:40Z</time></trkpt><trkpt lat="35.7229113" lon="139.1125919"><ele>761.38</ele><time>2024-10-12T03:32:07Z</time></trkpt><trkpt lat="35.7230837" lon="139.1127318"><ele>758.8133333333334</ele><time>2024-10-12T03:32:25Z</time></trkpt><trkpt lat="35.7232137" lon="139.1128969"><ele>761.3833333333333</ele><time>2024-10-12T03:32:43Z</time></trkpt><trkpt lat="35.7234021" lon="139.1130237"><ele>761.8066666666667</ele><time>2024-10-12T03:33:05Z</time></trkpt><trkpt lat="35.7235983" lon="139.1131024"><ele>761.0933333333332</ele><time>2024-10-12T03:33:22Z</time></trkpt><trkpt lat="35.7237683" lon="139.1132096"><ele>759.1966666666666</ele><time>2024-10-12T03:33:41Z</time></trkpt><trkpt lat="35.72395" lon="139.1133473"><ele>754.89</ele><time>2024-10-12T03:33:58Z</time></trkpt><trkpt lat="35.7241234" lon="139.1134582"><ele>753.3766666666667</ele><time>2024-10-12T03:34:13Z</time></trkpt><trkpt lat="35.7243001" lon="139.1135072"><ele>750.13</ele><time>2024-10-12T03:34:38Z</time></trkpt><trkpt lat="35.724496" lon="139.1135544"><ele>750.1899999999999</ele><time>2024-10-12T03:34:53Z</time></trkpt><trkpt lat="35.7247291" lon="139.1135581"><ele>744.9066666666666</ele><time>2024-10-12T03:35:10Z</time></trkpt><trkpt lat="35.7248516" lon="139.1137351"><ele>741.4</ele><time>2024-10-12T03:35:35Z</time></trkpt><trkpt lat="35.7249246" lon="139.1139756"><ele>738.9333333333334</ele><time>2024-10-12T03:35:56Z</time></trkpt><trkpt lat="35.7249894" lon="139.1141907"><ele>739.43</ele><time>2024-10-12T03:36:13Z</time></trkpt><trkpt lat="35.7251122" lon="139.1143666"><ele>739.1533333333333</ele><time>2024-10-12T03:36:28Z</time></trkpt><trkpt lat="35.7251017" lon="139.1145882"><ele>736.2133333333335</ele><time>2024-10-12T03:36:44Z</time></trkpt><trkpt lat="35.7252219" lon="139.114767"><ele>733.4700000000001</ele><time>2024-10-12T03:37:17Z</time></trkpt><trkpt lat="35.7250789" lon="139.1149462"><ele>729.58</ele><time>2024-10-12T03:37:49Z</time></trkpt><trkpt lat="35.7250229" lon="139.1151854"><ele>723.5466666666666</ele><time>2024-10-12T03:38:04Z</time></trkpt><trkpt lat="35.7250668" lon="139.1154209"><ele>718.32</ele><time>2024-10-12T03:38:23Z</time></trkpt><trkpt lat="35.7251098" lon="139.1156583"><ele>713.5333333333333</ele><time>2024-10-12T03:38:43Z</time></trkpt><trkpt lat="35.7251129" lon="139.1158846"><ele>709.3566666666667</ele><time>2024-10-12T03:38:59Z</time></trkpt><trkpt lat="35.7251131" lon="139.1161162"><ele>702.41</ele><time>2024-10-12T03:39:17Z</time></trkpt><trkpt lat="35.7251787" lon="139.1163329"><ele>695.98</ele><time>2024-10-12T03:39:44Z</time></trkpt><trkpt lat="35.7253091" lon="139.1165262"><ele>691.2666666666668</ele><time>2024-10-12T03:40:08Z</time></trkpt><trkpt lat="35.7254269" lon="139.1167311"><ele>690.4766666666668</ele><time>2024-10-12T03:40:23Z</time></trkpt><trkpt lat="35.7253955" lon="139.1169693"><ele>684.3666666666667</ele><time>2024-10-12T03:40:44Z</time></trkpt><trkpt lat="35.7254955" lon="139.1171805"><ele>681.0333333333333</ele><time>2024-10-12T03:41:04Z</time></trkpt><trkpt lat="35.725628" lon="139.1174027"><ele>676.98</ele><time>2024-10-12T03:41:28Z</time></trkpt><trkpt lat="35.7257206" lon="139.1176523"><ele>679.57</ele><time>2024-10-12T03:41:44Z</time></trkpt><trkpt lat="35.7257636" lon="139.1178981"><ele>682.1266666666667</ele><time>2024-10-12T03:42:04Z</time></trkpt><trkpt lat="35.7256037" lon="139.1180583"><ele>674.4700000000001</ele><time>2024-10-12T03:42:40Z</time></trkpt><trkpt lat="35.7255439" lon="139.1182954"><ele>664.65</ele><time>2024-10-12T03:43:04Z</time></trkpt><trkpt lat="35.7256375" lon="139.1185011"><ele>652.0433333333334</ele><time>2024-10-12T03:43:23Z</time></trkpt><trkpt lat="35.7256663" lon="139.118749"><ele>643.7566666666667</ele><time>2024-10-12T03:44:03Z</time></trkpt><trkpt lat="35.7258057" lon="139.1189243"><ele>635.0366666666667</ele><time>2024-10-12T03:44:47Z</time></trkpt><trkpt lat="35.725912" lon="139.1191046"><ele>625.7200000000001</ele><time>2024-10-12T03:45:08Z</time></trkpt><trkpt lat="35.7259964" lon="139.119388"><ele>618.0166666666668</ele><time>2024-10-12T03:45:45Z</time></trkpt><trkpt lat="35.7261838" lon="139.1195196"><ele>611.69</ele><time>2024-10-12T03:46:12Z</time></trkpt><trkpt lat="35.7263358" lon="139.1196441"><ele>604.4466666666667</ele><time>2024-10-12T03:46:53Z</time></trkpt><trkpt lat="35.7265497" lon="139.1197409"><ele>599.2800000000001</ele><time>2024-10-12T03:47:35Z</time></trkpt><trkpt lat="35.7267633" lon="139.1197983"><ele>593.76</ele><time>2024-10-12T03:47:53Z</time></trkpt><trkpt lat="35.7269354" lon="139.1198948"><ele>589.7266666666667</ele><time>2024-10-12T03:48:08Z</time></trkpt><trkpt lat="35.7271285" lon="139.1199894"><ele>586.5033333333333</ele><time>2024-10-12T03:48:30Z</time></trkpt><trkpt lat="35.7272528" lon="139.1201747"><ele>583.33</ele><time>2024-10-12T03:48:48Z</time></trkpt><trkpt lat="35.7274012" lon="139.1203282"><ele>579.9166666666666</ele><time>2024-10-12T03:49:48Z</time></trkpt><trkpt lat="35.7275402" lon="139.120505"><ele>576.0866666666667</ele><time>2024-10-12T03:50:45Z</time></trkpt><trkpt lat="35.7276369" lon="139.1207364"><ele>572.3433333333334</ele><time>2024-10-12T03:51:02Z</time></trkpt><trkpt lat="35.7277752" lon="139.1208961"><ele>570.3000000000001</ele><time>2024-10-12T03:51:21Z</time></trkpt><trkpt lat="35.727922" lon="139.1210849"><ele>569.5333333333334</ele><time>2024-10-12T03:51:44Z</time></trkpt><trkpt lat="35.7280641" lon="139.1212576"><ele>570.1066666666667</ele><time>2024-10-12T03:52:09Z</time></trkpt><trkpt lat="35.7282029" lon="139.1214553"><ele>570.19</ele><time>2024-10-12T03:52:33Z</time></trkpt><trkpt lat="35.7283259" lon="139.1216361"><ele>569.0</ele><time>2024-10-12T03:52:51Z</time></trkpt><trkpt lat="35.7284348" lon="139.1218463"><ele>566.1833333333334</ele><time>2024-10-12T03:53:05Z</time></trkpt><trkpt lat="35.7285769" lon="139.1220131"><ele>563.6566666666666</ele><time>2024-10-12T03:53:20Z</time></trkpt><trkpt lat="35.7286787" lon="139.1222463"><ele>562.9366666666667</ele><time>2024-10-12T03:53:38Z</time></trkpt><trkpt lat="35.7287077" lon="139.12247"><ele>565.7533333333333</ele><time>2024-10-12T03:54:08Z</time></trkpt><trkpt lat="35.7288262" lon="139.1226585"><ele>568.4066666666666</ele><time>2024-10-12T03:54:32Z</time></trkpt><trkpt lat="35.7289555" lon="139.1228222"><ele>570.7566666666667</ele><time>2024-10-12T03:56:24Z</time></trkpt><trkpt lat="35.7289561" lon="139.123063"><ele>570.84</ele><time>2024-10-12T03:56:53Z</time></trkpt><trkpt lat="35.7289622" lon="139.1233162"><ele>571.4533333333334</ele><time>2024-10-12T03:57:17Z</time></trkpt><trkpt lat="35.7289348" lon="139.1235598"><ele>572.1566666666668</ele><time>2024-10-12T03:57:34Z</time></trkpt><trkpt lat="35.7290069" lon="139.1237992"><ele>573.1533333333333</ele><time>2024-10-12T03:57:52Z</time></trkpt><trkpt lat="35.7289505" lon="139.1240343"><ele>572.9599999999999</ele><time>2024-10-12T03:58:02Z</time></trkpt><trkpt lat="35.7290191" lon="139.124242"><ele>573.2866666666667</ele><time>2024-10-12T03:58:19Z</time></trkpt><trkpt lat="35.7290343" lon="139.1244829"><ele>573.61</ele><time>2024-10-12T03:58:35Z</time></trkpt><trkpt lat="35.7290513" lon="139.1247034"><ele>573.1500000000001</ele><time>2024-10-12T03:58:53Z</time></trkpt><trkpt lat="35.7290155" lon="139.1249465"><ele>569.4766666666668</ele><time>2024-10-12T03:59:05Z</time></trkpt><trkpt lat="35.7290458" lon="139.1251885"><ele>567.9866666666667</ele><time>2024-10-12T03:59:20Z</time></trkpt><trkpt lat="35.7290091" lon="139.1254066"><ele>563.3066666666667</ele><time>2024-10-12T03:59:44Z</time></trkpt><trkpt lat="35.7290013" lon="139.1256591"><ele>560.21</ele><time>2024-10-12T03:59:59Z</time></trkpt><trkpt lat="35.7290808" lon="139.1259475"><ele>557.6466666666666</ele><time>2024-10-12T04:00:17Z</time></trkpt><trkpt lat="35.729109" lon="139.1262078"><ele>560.16</ele><time>2024-10-12T04:00:31Z</time></trkpt><trkpt lat="35.7292751" lon="139.1263225"><ele>563.2333333333333</ele><time>2024-10-12T04:00:46Z</time></trkpt><trkpt lat="35.7294012" lon="139.1265369"><ele>563.9533333333334</ele><time>2024-10-12T04:01:03Z</time></trkpt><trkpt lat="35.7294684" lon="139.1267503"><ele>561.7366666666667</ele><time>2024-10-12T04:01:24Z</time></trkpt><trkpt lat="35.7295887" lon="139.1269546"><ele>559.6733333333333</ele><time>2024-10-12T04:01:39Z</time></trkpt><trkpt lat="35.7297122" lon="139.1271177"><ele>556.48</ele><time>2024-10-12T04:01:51Z</time></trkpt><trkpt lat="35.729806" lon="139.1273343"><ele>556.16</ele><time>2024-10-12T04:02:06Z</time></trkpt><trkpt lat="35.7298429" lon="139.1275663"><ele>554.47</ele><time>2024-10-12T04:02:21Z</time></trkpt><trkpt lat="35.7299223" lon="139.1277803"><ele>553.5</ele><time>2024-10-12T04:02:35Z</time></trkpt><trkpt lat="35.7298792" lon="139.1280092"><ele>551.5266666666666</ele><time>2024-10-12T04:02:50Z</time></trkpt><trkpt lat="35.7299369" lon="139.1282635"><ele>549.7733333333334</ele><time>2024-10-12T04:03:03Z</time></trkpt><trkpt lat="35.729933" lon="139.1284923"><ele>546.1133333333333</ele><time>2024-10-12T04:03:16Z</time></trkpt><trkpt lat="35.7298735" lon="139.1287505"><ele>543.3233333333334</ele><time>2024-10-12T04:03:30Z</time></trkpt><trkpt lat="35.729949" lon="139.1289617"><ele>542.1833333333334</ele><time>2024-10-12T04:03:45Z</time></trkpt><trkpt lat="35.7299942" lon="139.1291911"><ele>544.9366666666666</ele><time>2024-10-12T04:04:00Z</time></trkpt><trkpt lat="35.7300215" lon="139.1294465"><ele>548.8133333333334</ele><time>2024-10-12T04:04:21Z</time></trkpt><trkpt lat="35.7300547" lon="139.1297077"><ele>554.4866666666667</ele><time>2024-10-12T04:04:35Z</time></trkpt><trkpt lat="35.7302018" lon="139.129942"><ele>555.5333333333333</ele><time>2024-10-12T04:04:50Z</time></trkpt><trkpt lat="35.7303902" lon="139.1300419"><ele>550.9933333333333</ele><time>2024-10-12T04:05:03Z</time></trkpt><trkpt lat="35.7305913" lon="139.1299929"><ele>539.43</ele><time>2024-10-12T04:05:15Z</time></trkpt><trkpt lat="35.7307358" lon="139.1301258"><ele>533.3266666666667</ele><time>2024-10-12T04:05:27Z</time></trkpt><trkpt lat="35.7308785" lon="139.1303091"><ele>533.0233333333334</ele><time>2024-10-12T04:05:42Z</time></trkpt><trkpt lat="35.7310779" lon="139.1303668"><ele>535.9366666666666</ele><time>2024-10-12T04:05:57Z</time></trkpt><trkpt lat="35.7312689" lon="139.1303561"><ele>533.4499999999999</ele><time>2024-10-12T04:06:12Z</time></trkpt><trkpt lat="35.7314838" lon="139.1303432"><ele>527.6366666666667</ele><time>2024-10-12T04:06:31Z</time></trkpt><trkpt lat="35.7316801" lon="139.1303747"><ele>525.1666666666666</ele><time>2024-10-12T04:06:45Z</time></trkpt><trkpt lat="35.7318776" lon="139.130403"><ele>524.0933333333334</ele><time>2024-10-12T04:07:00Z</time></trkpt><trkpt lat="35.7320255" lon="139.1305678"><ele>526.0099999999999</ele><time>2024-10-12T04:07:13Z</time></trkpt><trkpt lat="35.7321835" lon="139.1307194"><ele>527.64</ele><time>2024-10-12T04:07:30Z</time></trkpt><trkpt lat="35.7322196" lon="139.1309385"><ele>530.64</ele><time>2024-10-12T04:08:48Z</time></trkpt><trkpt lat="35.7320374" lon="139.1310361"><ele>530.5066666666667</ele><time>2024-10-12T04:09:00Z</time></trkpt><trkpt lat="35.7318661" lon="139.1311395"><ele>529.8333333333334</ele><time>2024-10-12T04:09:12Z</time></trkpt><trkpt lat="35.7317044" lon="139.1312465"><ele>527.3066666666667</ele><time>2024-10-12T04:09:36Z</time></trkpt><trkpt lat="35.7315278" lon="139.1313047"><ele>524.3533333333334</ele><time>2024-10-12T04:10:00Z</time></trkpt><trkpt lat="35.7313383" lon="139.1314024"><ele>517.17</ele><time>2024-10-12T04:10:15Z</time></trkpt><trkpt lat="35.7312117" lon="139.131579"><ele>508.35666666666674</ele><time>2024-10-12T04:10:31Z</time></trkpt><trkpt lat="35.7311312" lon="139.1317902"><ele>501.8766666666667</ele><time>2024-10-12T04:10:43Z</time></trkpt><trkpt lat="35.7310928" lon="139.1320133"><ele>499.10999999999996</ele><time>2024-10-12T04:10:54Z</time></trkpt><trkpt lat="35.7311447" lon="139.1322342"><ele>496.49666666666667</ele><time>2024-10-12T04:11:09Z</time></trkpt><trkpt lat="35.7310788" lon="139.1324671"><ele>493.7033333333333</ele><time>2024-10-12T04:11:36Z</time></trkpt><trkpt lat="35.7309238" lon="139.1326458"><ele>489.49333333333334</ele><time>2024-10-12T04:12:12Z</time></trkpt><trkpt lat="35.7310829" lon="139.1327581"><ele>483.85666666666674</ele><time>2024-10-12T04:14:19Z</time></trkpt><trkpt lat="35.7310361" lon="139.1329793"><ele>475.19</ele><time>2024-10-12T04:14:44Z</time></trkpt><trkpt lat="35.7309115" lon="139.1331643"><ele>465.02666666666664</ele><time>2024-10-12T04:14:59Z</time></trkpt><trkpt lat="35.7308498" lon="139.1333838"><ele>456.2266666666667</ele><time>2024-10-12T04:15:28Z</time></trkpt><trkpt lat="35.7307698" lon="139.1336334"><ele>446.4433333333333</ele><time>2024-10-12T04:16:50Z</time></trkpt><trkpt lat="35.7306259" lon="139.1337732"><ele>437.0733333333333</ele><time>2024-10-12T04:17:49Z</time></trkpt><trkpt lat="35.7304533" lon="139.133898"><ele>429.5566666666667</ele><time>2024-10-12T04:18:04Z</time></trkpt><trkpt lat="35.7306383" lon="139.1339367"><ele>426.13000000000005</ele><time>2024-10-12T04:18:22Z</time></trkpt><trkpt lat="35.7308396" lon="139.1339711"><ele>424.18</ele><time>2024-10-12T04:18:37Z</time></trkpt><trkpt lat="35.7310426" lon="139.1339948"><ele>421.73</ele><time>2024-10-12T04:19:00Z</time></trkpt><trkpt lat="35.7312657" lon="139.1339633"><ele>415.82666666666665</ele><time>2024-10-12T04:19:28Z</time></trkpt><trkpt lat="35.7314016" lon="139.1337995"><ele>411.02</ele><time>2024-10-12T04:19:43Z</time></trkpt><trkpt lat="35.7315717" lon="139.1336782"><ele>409.27333333333337</ele><time>2024-10-12T04:20:00Z</time></trkpt><trkpt lat="35.7317536" lon="139.133649"><ele>410.09666666666664</ele><time>2024-10-12T04:20:18Z</time></trkpt><trkpt lat="35.7317614" lon="139.1338702"><ele>411.28666666666663</ele><time>2024-10-12T04:20:43Z</time></trkpt><trkpt lat="35.731536" lon="139.1338994"><ele>408.9766666666667</ele><time>2024-10-12T04:20:55Z</time></trkpt><trkpt lat="35.7313973" lon="139.134041"><ele>406.52666666666664</ele><time>2024-10-12T04:21:10Z</time></trkpt><trkpt lat="35.731343" lon="139.1342577"><ele>401.92333333333335</ele><time>2024-10-12T04:21:22Z</time></trkpt><trkpt lat="35.731227" lon="139.1344682"><ele>397.43333333333334</ele><time>2024-10-12T04:21:39Z</time></trkpt><trkpt lat="35.7310405" lon="139.1346097"><ele>393.99666666666667</ele><time>2024-10-12T04:21:57Z</time></trkpt><trkpt lat="35.7308652" lon="139.1347719"><ele>391.47333333333336</ele><time>2024-10-12T04:22:15Z</time></trkpt><trkpt lat="35.7307421" lon="139.1349582"><ele>391.42333333333335</ele><time>2024-10-12T04:22:29Z</time></trkpt><trkpt lat="35.7307388" lon="139.1351914"><ele>390.41333333333336</ele><time>2024-10-12T04:22:44Z</time></trkpt><trkpt lat="35.7307762" lon="139.1354191"><ele>386.0833333333333</ele><time>2024-10-12T04:23:10Z</time></trkpt><trkpt lat="35.7307225" lon="139.1356644"><ele>380.85666666666674</ele><time>2024-10-12T04:23:34Z</time></trkpt><trkpt lat="35.7306586" lon="139.1358732"><ele>374.81333333333333</ele><time>2024-10-12T04:23:52Z</time></trkpt><trkpt lat="35.730811" lon="139.1360389"><ele>370.3233333333333</ele><time>2024-10-12T04:24:23Z</time></trkpt><trkpt lat="35.7306259" lon="139.1361176"><ele>365.89000000000004</ele><time>2024-10-12T04:24:38Z</time></trkpt><trkpt lat="35.7305339" lon="139.1363207"><ele>361.6466666666667</ele><time>2024-10-12T04:24:53Z</time></trkpt><trkpt lat="35.7305218" lon="139.136566"><ele>358.73</ele><time>2024-10-12T04:25:08Z</time></trkpt><trkpt lat="35.7304636" lon="139.136817"><ele>354.57</ele><time>2024-10-12T04:25:29Z</time></trkpt><trkpt lat="35.7304357" lon="139.1370671"><ele>351.98</ele><time>2024-10-12T04:25:47Z</time></trkpt><trkpt lat="35.7303755" lon="139.1372973"><ele>348.04333333333335</ele><time>2024-10-12T04:26:04Z</time></trkpt><trkpt lat="35.7303629" lon="139.137525"><ele>345.45</ele><time>2024-10-12T04:26:19Z</time></trkpt><trkpt lat="35.730401" lon="139.1377473"><ele>340.32666666666665</ele><time>2024-10-12T04:26:50Z</time></trkpt><trkpt lat="35.7304422" lon="139.1380034"><ele>338.07</ele><time>2024-10-12T04:27:01Z</time></trkpt><trkpt lat="35.7304198" lon="139.138269"><ele>335.65000000000003</ele><time>2024-10-12T04:27:16Z</time></trkpt><trkpt lat="35.7303706" lon="139.1385117"><ele>332.8733333333334</ele><time>2024-10-12T04:27:38Z</time></trkpt><trkpt lat="35.7303651" lon="139.138745"><ele>328.81666666666666</ele><time>2024-10-12T04:27:57Z</time></trkpt><trkpt lat="35.7302674" lon="139.1389381"><ele>323.51000000000005</ele><time>2024-10-12T04:28:11Z</time></trkpt><trkpt lat="35.7301157" lon="139.1390837"><ele>321.2866666666667</ele><time>2024-10-12T04:28:33Z</time></trkpt><trkpt lat="35.7301377" lon="139.139312"><ele>319.70666666666665</ele><time>2024-10-12T04:28:45Z</time></trkpt><trkpt lat="35.7301329" lon="139.1395584"><ele>320.37666666666667</ele><time>2024-10-12T04:29:06Z</time></trkpt><trkpt lat="35.7301189" lon="139.1398048"><ele>319.7633333333333</ele><time>2024-10-12T04:29:24Z</time></trkpt><trkpt lat="35.7301948" lon="139.1400713"><ele>316.47666666666663</ele><time>2024-10-12T04:29:35Z</time></trkpt><trkpt lat="35.7302098" lon="139.1403397"><ele>313.01666666666665</ele><time>2024-10-12T04:29:53Z</time></trkpt><trkpt lat="35.730242" lon="139.1405894"><ele>308.56666666666666</ele><time>2024-10-12T04:30:11Z</time></trkpt><trkpt lat="35.7301898" lon="139.1408075"><ele>307.07666666666665</ele><time>2024-10-12T04:30:23Z</time></trkpt><trkpt lat="35.7301174" lon="139.1410513"><ele>304.6333333333334</ele><time>2024-10-12T04:30:37Z</time></trkpt><trkpt lat="35.7300374" lon="139.141262"><ele>302.7966666666667</ele><time>2024-10-12T04:30:48Z</time></trkpt><trkpt lat="35.7299637" lon="139.1415025"><ele>299.65333333333336</ele><time>2024-10-12T04:31:03Z</time></trkpt><trkpt lat="35.7298837" lon="139.1417013"><ele>296.64</ele><time>2024-10-12T04:31:30Z</time></trkpt><trkpt lat="35.7297617" lon="139.1418724"><ele>295.4166666666667</ele><time>2024-10-12T04:31:46Z</time></trkpt><trkpt lat="35.7297327" lon="139.1420915"><ele>291.59</ele><time>2024-10-12T04:32:04Z</time></trkpt><trkpt lat="35.7297073" lon="139.142324"><ele>286.81666666666666</ele><time>2024-10-12T04:32:24Z</time></trkpt><trkpt lat="35.7295426" lon="139.1424259"><ele>280.10999999999996</ele><time>2024-10-12T04:32:54Z</time></trkpt><trkpt lat="35.7293973" lon="139.142259"><ele>278.4166666666667</ele><time>2024-10-12T04:33:12Z</time></trkpt><trkpt lat="35.7292267" lon="139.1421555"><ele>279.3566666666667</ele><time>2024-10-12T04:33:27Z</time></trkpt><trkpt lat="35.7290451" lon="139.1421338"><ele>282.39666666666665</ele><time>2024-10-12T04:33:45Z</time></trkpt><trkpt lat="35.7288487" lon="139.1421717"><ele>285.44</ele><time>2024-10-12T04:34:09Z</time></trkpt><trkpt lat="35.7286526" lon="139.1421211"><ele>288.33666666666664</ele><time>2024-10-12T04:34:24Z</time></trkpt><trkpt lat="35.728454" lon="139.1420516"><ele>291.7366666666667</ele><time>2024-10-12T04:34:40Z</time></trkpt><trkpt lat="35.728304" lon="139.1419191"><ele>294.17333333333335</ele><time>2024-10-12T04:34:54Z</time></trkpt><trkpt lat="35.7281684" lon="139.1417573"><ele>294.0566666666667</ele><time>2024-10-12T04:35:13Z</time></trkpt><trkpt lat="35.7282477" lon="139.1415497"><ele>293.32666666666665</ele><time>2024-10-12T04:35:27Z</time></trkpt><trkpt lat="35.728412" lon="139.1414009"><ele>292.5266666666667</ele><time>2024-10-12T04:35:49Z</time></trkpt><trkpt lat="35.7285641" lon="139.1412444"><ele>295.27</ele><time>2024-10-12T04:36:10Z</time></trkpt><trkpt lat="35.7287487" lon="139.1411716"><ele>297.16</ele><time>2024-10-12T04:36:31Z</time></trkpt><trkpt lat="35.7289122" lon="139.14105"><ele>299.65333333333336</ele><time>2024-10-12T04:36:52Z</time></trkpt><trkpt lat="35.728965" lon="139.1408326"><ele>303.43333333333334</ele><time>2024-10-12T04:37:24Z</time></trkpt><trkpt lat="35.7288511" lon="139.1406362"><ele>306.65333333333336</ele><time>2024-10-12T04:37:47Z</time></trkpt><trkpt lat="35.728711" lon="139.1404708"><ele>308.68333333333334</ele><time>2024-10-12T04:38:08Z</time></trkpt><trkpt lat="35.7285293" lon="139.1403581"><ele>309.2366666666667</ele><time>2024-10-12T04:38:26Z</time></trkpt><trkpt lat="35.7283497" lon="139.1404552"><ele>308.2633333333333</ele><time>2024-10-12T04:38:41Z</time></trkpt><trkpt lat="35.7281676" lon="139.1404459"><ele>306.10999999999996</ele><time>2024-10-12T04:38:56Z</time></trkpt><trkpt lat="35.727958" lon="139.1403952"><ele>302.3966666666667</ele><time>2024-10-12T04:39:10Z</time></trkpt><trkpt lat="35.7277941" lon="139.1402516"><ele>301.56</ele><time>2024-10-12T04:39:23Z</time></trkpt><trkpt lat="35.7277501" lon="139.1400108"><ele>304.39000000000004</ele><time>2024-10-12T04:39:41Z</time></trkpt><trkpt lat="35.7276992" lon="139.1397413"><ele>309.0266666666667</ele><time>2024-10-12T04:40:00Z</time></trkpt><trkpt lat="35.7277065" lon="139.1395193"><ele>313.93333333333334</ele><time>2024-10-12T04:40:12Z</time></trkpt><trkpt lat="35.7276625" lon="139.139286"><ele>317.24666666666667</ele><time>2024-10-12T04:40:30Z</time></trkpt><trkpt lat="35.7274912" lon="139.1391141"><ele>324.0833333333333</ele><time>2024-10-12T04:42:12Z</time></trkpt><trkpt lat="35.7276316" lon="139.1392678"><ele>325.94666666666666</ele><time>2024-10-12T04:48:29Z</time></trkpt><trkpt lat="35.7277192" lon="139.1394902"><ele>325.19666666666666</ele><time>2024-10-12T04:50:17Z</time></trkpt><trkpt lat="35.7276832" lon="139.1397205"><ele>318.36</ele><time>2024-10-12T04:50:32Z</time></trkpt><trkpt lat="35.727777" lon="139.1399519"><ele>315.87</ele><time>2024-10-12T04:50:54Z</time></trkpt><trkpt lat="35.7278094" lon="139.1401967"><ele>311.5733333333333</ele><time>2024-10-12T04:51:17Z</time></trkpt><trkpt lat="35.7279506" lon="139.1403892"><ele>306.93666666666667</ele><time>2024-10-12T04:51:41Z</time></trkpt><trkpt lat="35.7281634" lon="139.1403889"><ele>302.17</ele><time>2024-10-12T04:51:53Z</time></trkpt><trkpt lat="35.7283576" lon="139.1403182"><ele>305.7966666666667</ele><time>2024-10-12T04:52:10Z</time></trkpt><trkpt lat="35.7285717" lon="139.1403423"><ele>309.31666666666666</ele><time>2024-10-12T04:52:25Z</time></trkpt><trkpt lat="35.7287739" lon="139.1404382"><ele>313.66</ele><time>2024-10-12T04:52:41Z</time></trkpt><trkpt lat="35.7289007" lon="139.1406329"><ele>314.43333333333334</ele><time>2024-10-12T04:52:56Z</time></trkpt><trkpt lat="35.7290161" lon="139.1408297"><ele>314.0733333333333</ele><time>2024-10-12T04:53:17Z</time></trkpt><trkpt lat="35.7290113" lon="139.1410939"><ele>313.34666666666664</ele><time>2024-10-12T04:53:42Z</time></trkpt><trkpt lat="35.7288709" lon="139.1412517"><ele>309.82</ele><time>2024-10-12T04:53:57Z</time></trkpt><trkpt lat="35.7286937" lon="139.1413061"><ele>305.5966666666667</ele><time>2024-10-12T04:54:12Z</time></trkpt><trkpt lat="35.7285121" lon="139.1412967"><ele>300.62333333333333</ele><time>2024-10-12T04:54:34Z</time></trkpt><trkpt lat="35.7283395" lon="139.1414274"><ele>296.31333333333333</ele><time>2024-10-12T04:54:49Z</time></trkpt><trkpt lat="35.7282063" lon="139.1416244"><ele>294.65</ele><time>2024-10-12T04:55:09Z</time></trkpt><trkpt lat="35.7282507" lon="139.1418544"><ele>293.3466666666667</ele><time>2024-10-12T04:55:36Z</time></trkpt><trkpt lat="35.7283985" lon="139.1420231"><ele>293.6033333333333</ele><time>2024-10-12T04:55:54Z</time></trkpt><trkpt lat="35.7285942" lon="139.1420714"><ele>294.55333333333334</ele><time>2024-10-12T04:56:10Z</time></trkpt><trkpt lat="35.7288001" lon="139.1420705"><ele>295.72999999999996</ele><time>2024-10-12T04:56:28Z</time></trkpt><trkpt lat="35.7289887" lon="139.1420685"><ele>295.18333333333334</ele><time>2024-10-12T04:56:49Z</time></trkpt><trkpt lat="35.729175" lon="139.1421283"><ele>290.81666666666666</ele><time>2024-10-12T04:57:01Z</time></trkpt><trkpt lat="35.7293298" lon="139.1422665"><ele>284.8933333333333</ele><time>2024-10-12T04:57:13Z</time></trkpt><trkpt lat="35.7294914" lon="139.1423866"><ele>278.5</ele><time>2024-10-12T04:57:30Z</time></trkpt><trkpt lat="35.7297004" lon="139.1424527"><ele>275.06333333333333</ele><time>2024-10-12T04:57:51Z</time></trkpt><trkpt lat="35.7297709" lon="139.1426764"><ele>271.1766666666667</ele><time>2024-10-12T04:58:07Z</time></trkpt><trkpt lat="35.7298749" lon="139.1428611"><ele>268.99</ele><time>2024-10-12T04:58:21Z</time></trkpt><trkpt lat="35.7299462" lon="139.1431116"><ele>269.46999999999997</ele><time>2024-10-12T04:58:37Z</time></trkpt><trkpt lat="35.7298331" lon="139.1433602"><ele>273.75</ele><time>2024-10-12T04:58:55Z</time></trkpt><trkpt lat="35.7297136" lon="139.1435602"><ele>278.18</ele><time>2024-10-12T04:59:10Z</time></trkpt><trkpt lat="35.729714" lon="139.1438008"><ele>278.53666666666663</ele><time>2024-10-12T04:59:28Z</time></trkpt></trkseg></trk></gpx>