<?xml version='1.0' encoding='UTF-8'?><gpx creator="YAMAP - https://yamap.com" xsi:schemaLocation="http://www.topografix.com/GPX/1/1 http://www.topografix.com/GPX/1/1/gpx.xsd" version="1.1" xmlns="http://www.topografix.com/GPX/1/1" xmlns:xsi="http://www.w3.org/2001/XMLSchema-instance"><metadata><bounds maxlat="35.9437218" maxlon="138.9506341" minlat="35.9211925" minlon="138.9265112"/></metadata><trk><name>三峯神社</name><number>1</number><trkseg><trkpt lat="35.9370359" lon="138.9497436"><ele>373.94</ele><time>2023-07-02T00:00:27Z</time></trkpt><trkpt lat="35.9368515" lon="138.9497382"><ele>371.13</ele><time>2023-07-02T00:00:55Z</time></trkpt><trkpt lat="35.9366698" lon="138.9497317"><ele>367.68666666666667</ele><time>2023-07-02T00:01:05Z</time></trkpt><trkpt lat="35.9364864" lon="138.949688"><ele>361.56666666666666</ele><time>2023-07-02T00:01:32Z</time></trkpt><trkpt lat="35.9363069" lon="138.9496224"><ele>362.93666666666667</ele><time>2023-07-02T00:01:48Z</time></trkpt><trkpt lat="35.9362624" lon="138.9493928"><ele>370.1433333333334</ele><time>2023-07-02T00:02:29Z</time></trkpt><trkpt lat="35.9361996" lon="138.9491724"><ele>382.73333333333335</ele><time>2023-07-02T00:02:45Z</time></trkpt><trkpt lat="35.9361777" lon="138.9489489"><ele>390.3833333333334</ele><time>2023-07-02T00:02:58Z</time></trkpt><trkpt lat="35.9361612" lon="138.9487272"><ele>395.84999999999997</ele><time>2023-07-02T00:03:14Z</time></trkpt><trkpt lat="35.9360924" lon="138.9485066"><ele>399.22</ele><time>2023-07-02T00:03:30Z</time></trkpt><trkpt lat="35.9360574" lon="138.9482835"><ele>401.8033333333333</ele><time>2023-07-02T00:03:50Z</time></trkpt><trkpt lat="35.9361004" lon="138.9480453"><ele>402.93</ele><time>2023-07-02T00:04:06Z</time></trkpt><trkpt lat="35.9361149" lon="138.9478126"><ele>400.28999999999996</ele><time>2023-07-02T00:04:24Z</time></trkpt><trkpt lat="35.9360227" lon="138.9476203"><ele>400.71000000000004</ele><time>2023-07-02T00:04:39Z</time></trkpt><trkpt lat="35.9358784" lon="138.9474803"><ele>404.86000000000007</ele><time>2023-07-02T00:04:54Z</time></trkpt><trkpt lat="35.9357532" lon="138.9473167"><ele>414.1366666666666</ele><time>2023-07-02T00:05:09Z</time></trkpt><trkpt lat="35.9356676" lon="138.94711"><ele>421.6033333333333</ele><time>2023-07-02T00:05:31Z</time></trkpt><trkpt lat="35.9356673" lon="138.9468824"><ele>424.06333333333333</ele><time>2023-07-02T00:06:08Z</time></trkpt><trkpt lat="35.9358389" lon="138.9467939"><ele>415.8333333333333</ele><time>2023-07-02T00:06:28Z</time></trkpt><trkpt lat="35.9357231" lon="138.9466003"><ele>407.7366666666667</ele><time>2023-07-02T00:07:20Z</time></trkpt><trkpt lat="35.9356791" lon="138.9463833"><ele>399.98</ele><time>2023-07-02T00:07:46Z</time></trkpt><trkpt lat="35.9356742" lon="138.9461468"><ele>395.6066666666666</ele><time>2023-07-02T00:07:59Z</time></trkpt><trkpt lat="35.9356319" lon="138.9459167"><ele>386.4633333333333</ele><time>2023-07-02T00:08:13Z</time></trkpt><trkpt lat="35.9355533" lon="138.9457123"><ele>378.0566666666667</ele><time>2023-07-02T00:08:31Z</time></trkpt><trkpt lat="35.9355112" lon="138.9454933"><ele>373.3866666666667</ele><time>2023-07-02T00:09:15Z</time></trkpt><trkpt lat="35.9353661" lon="138.9456268"><ele>375.1966666666667</ele><time>2023-07-02T00:09:40Z</time></trkpt><trkpt lat="35.9351982" lon="138.945545"><ele>382.3066666666667</ele><time>2023-07-02T00:10:16Z</time></trkpt><trkpt lat="35.9350989" lon="138.9457946"><ele>388.16333333333336</ele><time>2023-07-02T00:10:25Z</time></trkpt><trkpt lat="35.935284" lon="138.9457054"><ele>389.33</ele><time>2023-07-02T00:10:49Z</time></trkpt><trkpt lat="35.935473" lon="138.9456129"><ele>383.12999999999994</ele><time>2023-07-02T00:11:11Z</time></trkpt><trkpt lat="35.9355604" lon="138.945837"><ele>378.4866666666667</ele><time>2023-07-02T00:11:28Z</time></trkpt><trkpt lat="35.9357258" lon="138.9457463"><ele>371.6033333333333</ele><time>2023-07-02T00:12:22Z</time></trkpt><trkpt lat="35.9356277" lon="138.9455464"><ele>366.77</ele><time>2023-07-02T00:12:39Z</time></trkpt><trkpt lat="35.9356065" lon="138.9453246"><ele>366.8666666666666</ele><time>2023-07-02T00:13:32Z</time></trkpt><trkpt lat="35.9355703" lon="138.9451006"><ele>375.32666666666665</ele><time>2023-07-02T00:13:45Z</time></trkpt><trkpt lat="35.9356354" lon="138.9448842"><ele>383.0166666666667</ele><time>2023-07-02T00:13:59Z</time></trkpt><trkpt lat="35.9357591" lon="138.9447038"><ele>384.1000000000001</ele><time>2023-07-02T00:14:10Z</time></trkpt><trkpt lat="35.9358902" lon="138.9445413"><ele>373.84</ele><time>2023-07-02T00:14:23Z</time></trkpt><trkpt lat="35.9359193" lon="138.9443001"><ele>364.8533333333333</ele><time>2023-07-02T00:14:46Z</time></trkpt><trkpt lat="35.9360745" lon="138.9441863"><ele>357.61999999999995</ele><time>2023-07-02T00:15:00Z</time></trkpt><trkpt lat="35.9362082" lon="138.9439976"><ele>357.80333333333334</ele><time>2023-07-02T00:15:16Z</time></trkpt><trkpt lat="35.9363453" lon="138.9438517"><ele>358.17333333333335</ele><time>2023-07-02T00:15:43Z</time></trkpt><trkpt lat="35.9364796" lon="138.9437003"><ele>363.31666666666666</ele><time>2023-07-02T00:16:06Z</time></trkpt><trkpt lat="35.9366528" lon="138.9436268"><ele>369.5466666666667</ele><time>2023-07-02T00:16:25Z</time></trkpt><trkpt lat="35.9368274" lon="138.9437067"><ele>372.8733333333333</ele><time>2023-07-02T00:16:59Z</time></trkpt><trkpt lat="35.9370027" lon="138.9437623"><ele>372.71333333333337</ele><time>2023-07-02T00:17:22Z</time></trkpt><trkpt lat="35.937183" lon="138.9437809"><ele>375.87000000000006</ele><time>2023-07-02T00:17:37Z</time></trkpt><trkpt lat="35.9373802" lon="138.9437742"><ele>385.2266666666667</ele><time>2023-07-02T00:17:58Z</time></trkpt><trkpt lat="35.9375105" lon="138.9439608"><ele>393.74666666666667</ele><time>2023-07-02T00:18:45Z</time></trkpt><trkpt lat="35.9376729" lon="138.944059"><ele>399.3233333333333</ele><time>2023-07-02T00:18:58Z</time></trkpt><trkpt lat="35.9377894" lon="138.944229"><ele>401.44000000000005</ele><time>2023-07-02T00:19:13Z</time></trkpt><trkpt lat="35.9379343" lon="138.9443709"><ele>403.05</ele><time>2023-07-02T00:19:30Z</time></trkpt><trkpt lat="35.9380712" lon="138.9445175"><ele>403.8</ele><time>2023-07-02T00:19:57Z</time></trkpt><trkpt lat="35.9382558" lon="138.9445327"><ele>405.47</ele><time>2023-07-02T00:20:14Z</time></trkpt><trkpt lat="35.9383862" lon="138.9446913"><ele>408.56666666666666</ele><time>2023-07-02T00:20:32Z</time></trkpt><trkpt lat="35.938408" lon="138.9449296"><ele>407.8066666666667</ele><time>2023-07-02T00:20:38Z</time></trkpt><trkpt lat="35.9385798" lon="138.9450085"><ele>405.84</ele><time>2023-07-02T00:20:58Z</time></trkpt><trkpt lat="35.9387591" lon="138.9449747"><ele>402.24333333333334</ele><time>2023-07-02T00:21:11Z</time></trkpt><trkpt lat="35.9389327" lon="138.9448972"><ele>400.00333333333333</ele><time>2023-07-02T00:21:31Z</time></trkpt><trkpt lat="35.9390888" lon="138.944784"><ele>397.67333333333335</ele><time>2023-07-02T00:21:51Z</time></trkpt><trkpt lat="35.9392134" lon="138.9446155"><ele>396.74333333333334</ele><time>2023-07-02T00:22:03Z</time></trkpt><trkpt lat="35.9393708" lon="138.9445045"><ele>397.2733333333333</ele><time>2023-07-02T00:22:20Z</time></trkpt><trkpt lat="35.9395118" lon="138.9443582"><ele>397.1266666666666</ele><time>2023-07-02T00:22:29Z</time></trkpt><trkpt lat="35.9396841" lon="138.9442489"><ele>395.20666666666665</ele><time>2023-07-02T00:22:39Z</time></trkpt><trkpt lat="35.9398364" lon="138.9441213"><ele>392.62999999999994</ele><time>2023-07-02T00:23:01Z</time></trkpt><trkpt lat="35.9399771" lon="138.9442822"><ele>390.41</ele><time>2023-07-02T00:23:09Z</time></trkpt><trkpt lat="35.9401326" lon="138.9444228"><ele>388.7066666666667</ele><time>2023-07-02T00:23:20Z</time></trkpt><trkpt lat="35.9402801" lon="138.9442744"><ele>387.2666666666667</ele><time>2023-07-02T00:23:32Z</time></trkpt><trkpt lat="35.9403697" lon="138.9440732"><ele>386.6033333333334</ele><time>2023-07-02T00:23:48Z</time></trkpt><trkpt lat="35.9404668" lon="138.9438818"><ele>386.65000000000003</ele><time>2023-07-02T00:24:01Z</time></trkpt><trkpt lat="35.9405832" lon="138.9437024"><ele>387.52666666666664</ele><time>2023-07-02T00:24:17Z</time></trkpt><trkpt lat="35.9407027" lon="138.9435312"><ele>388.96333333333337</ele><time>2023-07-02T00:24:34Z</time></trkpt><trkpt lat="35.9408505" lon="138.9434004"><ele>390.49</ele><time>2023-07-02T00:24:46Z</time></trkpt><trkpt lat="35.9410136" lon="138.9432654"><ele>392.02000000000004</ele><time>2023-07-02T00:25:00Z</time></trkpt><trkpt lat="35.9410759" lon="138.9430444"><ele>393.95</ele><time>2023-07-02T00:25:14Z</time></trkpt><trkpt lat="35.9411893" lon="138.942861"><ele>395.4466666666667</ele><time>2023-07-02T00:25:30Z</time></trkpt><trkpt lat="35.9412805" lon="138.9426637"><ele>397.28000000000003</ele><time>2023-07-02T00:25:44Z</time></trkpt><trkpt lat="35.9414729" lon="138.9426525"><ele>397.1433333333334</ele><time>2023-07-02T00:25:56Z</time></trkpt><trkpt lat="35.9416013" lon="138.9424924"><ele>398.7633333333333</ele><time>2023-07-02T00:26:08Z</time></trkpt><trkpt lat="35.941785" lon="138.9424434"><ele>400.48333333333335</ele><time>2023-07-02T00:26:23Z</time></trkpt><trkpt lat="35.9419642" lon="138.9424133"><ele>400.98333333333335</ele><time>2023-07-02T00:26:35Z</time></trkpt><trkpt lat="35.9421255" lon="138.9422392"><ele>400.7266666666667</ele><time>2023-07-02T00:26:44Z</time></trkpt><trkpt lat="35.9422753" lon="138.9421155"><ele>400.96000000000004</ele><time>2023-07-02T00:27:11Z</time></trkpt><trkpt lat="35.9424352" lon="138.9419966"><ele>402.9866666666667</ele><time>2023-07-02T00:27:22Z</time></trkpt><trkpt lat="35.942615" lon="138.9419217"><ele>401.7033333333334</ele><time>2023-07-02T00:27:30Z</time></trkpt><trkpt lat="35.94278" lon="138.9418044"><ele>397.10999999999996</ele><time>2023-07-02T00:27:41Z</time></trkpt><trkpt lat="35.9429287" lon="138.9416693"><ele>391.7866666666667</ele><time>2023-07-02T00:27:53Z</time></trkpt><trkpt lat="35.9431092" lon="138.9416326"><ele>387.4166666666667</ele><time>2023-07-02T00:28:09Z</time></trkpt><trkpt lat="35.9433015" lon="138.9416473"><ele>383.1933333333333</ele><time>2023-07-02T00:28:21Z</time></trkpt><trkpt lat="35.9431844" lon="138.9414578"><ele>383.6766666666667</ele><time>2023-07-02T00:28:24Z</time></trkpt><trkpt lat="35.9433218" lon="138.9413134"><ele>386.81666666666666</ele><time>2023-07-02T00:28:53Z</time></trkpt><trkpt lat="35.9434917" lon="138.9412026"><ele>390.1933333333334</ele><time>2023-07-02T00:29:14Z</time></trkpt><trkpt lat="35.9436172" lon="138.9410294"><ele>390.1933333333334</ele><time>2023-07-02T00:29:19Z</time></trkpt><trkpt lat="35.9437218" lon="138.9408423"><ele>390.39000000000004</ele><time>2023-07-02T00:29:38Z</time></trkpt><trkpt lat="35.9436463" lon="138.9406357"><ele>395.9533333333334</ele><time>2023-07-02T00:30:17Z</time></trkpt><trkpt lat="35.9434632" lon="138.9405545"><ele>405.83666666666664</ele><time>2023-07-02T00:30:39Z</time></trkpt><trkpt lat="35.9433608" lon="138.9403717"><ele>415.42</ele><time>2023-07-02T00:31:06Z</time></trkpt><trkpt lat="35.9433614" lon="138.9401485"><ele>420.68666666666667</ele><time>2023-07-02T00:31:42Z</time></trkpt><trkpt lat="35.943265" lon="138.9399593"><ele>423.02666666666664</ele><time>2023-07-02T00:32:10Z</time></trkpt><trkpt lat="35.9431768" lon="138.9397647"><ele>425.0</ele><time>2023-07-02T00:32:36Z</time></trkpt><trkpt lat="35.9430445" lon="138.9396081"><ele>429.9466666666667</ele><time>2023-07-02T00:33:43Z</time></trkpt><trkpt lat="35.9429343" lon="138.9394286"><ele>437.40333333333336</ele><time>2023-07-02T00:34:12Z</time></trkpt><trkpt lat="35.9427698" lon="138.9395216"><ele>444.04333333333335</ele><time>2023-07-02T00:35:15Z</time></trkpt><trkpt lat="35.9426058" lon="138.939614"><ele>449.54</ele><time>2023-07-02T00:35:41Z</time></trkpt><trkpt lat="35.9424564" lon="138.9397426"><ele>454.16333333333336</ele><time>2023-07-02T00:36:38Z</time></trkpt><trkpt lat="35.942551" lon="138.9399429"><ele>461.05999999999995</ele><time>2023-07-02T00:37:41Z</time></trkpt><trkpt lat="35.9424564" lon="138.940137"><ele>469.72</ele><time>2023-07-02T00:38:19Z</time></trkpt><trkpt lat="35.9422818" lon="138.9402109"><ele>477.3333333333333</ele><time>2023-07-02T00:38:34Z</time></trkpt><trkpt lat="35.942095" lon="138.9402336"><ele>482.58</ele><time>2023-07-02T00:39:11Z</time></trkpt><trkpt lat="35.9419251" lon="138.9401406"><ele>486.99333333333334</ele><time>2023-07-02T00:39:30Z</time></trkpt><trkpt lat="35.9417525" lon="138.9402212"><ele>488.91</ele><time>2023-07-02T00:39:47Z</time></trkpt><trkpt lat="35.9415671" lon="138.9402423"><ele>489.99</ele><time>2023-07-02T00:40:08Z</time></trkpt><trkpt lat="35.941399" lon="138.9401437"><ele>490.09666666666664</ele><time>2023-07-02T00:40:29Z</time></trkpt><trkpt lat="35.941209" lon="138.9401187"><ele>492.06</ele><time>2023-07-02T00:40:44Z</time></trkpt><trkpt lat="35.9410634" lon="138.9399734"><ele>496.74666666666667</ele><time>2023-07-02T00:41:10Z</time></trkpt><trkpt lat="35.9408933" lon="138.9398808"><ele>503.7</ele><time>2023-07-02T00:41:29Z</time></trkpt><trkpt lat="35.9407449" lon="138.9397408"><ele>511.35999999999996</ele><time>2023-07-02T00:41:52Z</time></trkpt><trkpt lat="35.9405703" lon="138.9398002"><ele>519.1566666666666</ele><time>2023-07-02T00:42:42Z</time></trkpt><trkpt lat="35.9406756" lon="138.9396136"><ele>525.48</ele><time>2023-07-02T00:43:23Z</time></trkpt><trkpt lat="35.9405326" lon="138.939475"><ele>530.6833333333334</ele><time>2023-07-02T00:43:47Z</time></trkpt><trkpt lat="35.9405209" lon="138.9392528"><ele>539.2866666666667</ele><time>2023-07-02T00:45:20Z</time></trkpt><trkpt lat="35.9404745" lon="138.9390372"><ele>549.9233333333333</ele><time>2023-07-02T00:46:25Z</time></trkpt><trkpt lat="35.9405015" lon="138.9388178"><ele>565.0</ele><time>2023-07-02T00:47:23Z</time></trkpt><trkpt lat="35.9406905" lon="138.9388898"><ele>571.7900000000001</ele><time>2023-07-02T00:47:59Z</time></trkpt><trkpt lat="35.9407064" lon="138.9386656"><ele>575.5</ele><time>2023-07-02T00:49:09Z</time></trkpt><trkpt lat="35.940568" lon="138.93852"><ele>577.41</ele><time>2023-07-02T00:49:25Z</time></trkpt><trkpt lat="35.9404153" lon="138.938395"><ele>587.7766666666666</ele><time>2023-07-02T00:50:52Z</time></trkpt><trkpt lat="35.9402684" lon="138.9385332"><ele>597.27</ele><time>2023-07-02T00:51:26Z</time></trkpt><trkpt lat="35.9403815" lon="138.9383374"><ele>602.1833333333334</ele><time>2023-07-02T00:52:15Z</time></trkpt><trkpt lat="35.9402015" lon="138.938303"><ele>606.2833333333333</ele><time>2023-07-02T00:53:11Z</time></trkpt><trkpt lat="35.940093" lon="138.9384882"><ele>608.8033333333334</ele><time>2023-07-02T00:54:04Z</time></trkpt><trkpt lat="35.9399113" lon="138.9384613"><ele>616.8766666666667</ele><time>2023-07-02T00:54:38Z</time></trkpt><trkpt lat="35.9399188" lon="138.9382331"><ele>623.2233333333334</ele><time>2023-07-02T00:54:56Z</time></trkpt><trkpt lat="35.9398107" lon="138.9384106"><ele>630.7766666666666</ele><time>2023-07-02T00:56:12Z</time></trkpt><trkpt lat="35.939734" lon="138.9386121"><ele>632.6766666666666</ele><time>2023-07-02T00:57:16Z</time></trkpt><trkpt lat="35.9395536" lon="138.9385108"><ele>636.3033333333333</ele><time>2023-07-02T00:57:59Z</time></trkpt><trkpt lat="35.9394558" lon="138.938321"><ele>641.7800000000001</ele><time>2023-07-02T00:58:19Z</time></trkpt><trkpt lat="35.939412" lon="138.9381041"><ele>649.1133333333333</ele><time>2023-07-02T00:58:48Z</time></trkpt><trkpt lat="35.9392649" lon="138.937966"><ele>651.2866666666667</ele><time>2023-07-02T00:59:11Z</time></trkpt><trkpt lat="35.9392134" lon="138.9377422"><ele>653.1266666666667</ele><time>2023-07-02T00:59:53Z</time></trkpt><trkpt lat="35.9390898" lon="138.9375753"><ele>653.4766666666668</ele><time>2023-07-02T01:00:14Z</time></trkpt><trkpt lat="35.9392266" lon="138.937422"><ele>658.7833333333334</ele><time>2023-07-02T01:00:43Z</time></trkpt><trkpt lat="35.93913" lon="138.9372259"><ele>663.6866666666667</ele><time>2023-07-02T01:01:07Z</time></trkpt><trkpt lat="35.9390884" lon="138.9369926"><ele>670.8566666666667</ele><time>2023-07-02T01:01:58Z</time></trkpt><trkpt lat="35.938984" lon="138.9368101"><ele>674.1133333333333</ele><time>2023-07-02T01:02:19Z</time></trkpt><trkpt lat="35.9391571" lon="138.9368762"><ele>678.9966666666667</ele><time>2023-07-02T01:02:47Z</time></trkpt><trkpt lat="35.9391087" lon="138.9366588"><ele>683.54</ele><time>2023-07-02T01:03:09Z</time></trkpt><trkpt lat="35.9389667" lon="138.9365213"><ele>686.8066666666667</ele><time>2023-07-02T01:03:35Z</time></trkpt><trkpt lat="35.9390903" lon="138.9363597"><ele>690.8466666666667</ele><time>2023-07-02T01:04:32Z</time></trkpt><trkpt lat="35.9392129" lon="138.9361938"><ele>698.4499999999999</ele><time>2023-07-02T01:06:10Z</time></trkpt><trkpt lat="35.9393891" lon="138.9362844"><ele>708.5933333333334</ele><time>2023-07-02T01:06:29Z</time></trkpt><trkpt lat="35.9392706" lon="138.9360963"><ele>716.0300000000001</ele><time>2023-07-02T01:07:26Z</time></trkpt><trkpt lat="35.9391681" lon="138.9359123"><ele>718.7466666666668</ele><time>2023-07-02T01:07:49Z</time></trkpt><trkpt lat="35.9391025" lon="138.9356918"><ele>721.0866666666667</ele><time>2023-07-02T01:08:46Z</time></trkpt><trkpt lat="35.9390372" lon="138.9354848"><ele>724.0600000000001</ele><time>2023-07-02T01:08:59Z</time></trkpt><trkpt lat="35.9389339" lon="138.9352963"><ele>726.62</ele><time>2023-07-02T01:09:15Z</time></trkpt><trkpt lat="35.9388423" lon="138.9351034"><ele>728.9666666666667</ele><time>2023-07-02T01:09:42Z</time></trkpt><trkpt lat="35.9387305" lon="138.9349244"><ele>730.1999999999999</ele><time>2023-07-02T01:10:04Z</time></trkpt><trkpt lat="35.9386392" lon="138.934729"><ele>735.3333333333334</ele><time>2023-07-02T01:10:33Z</time></trkpt><trkpt lat="35.938564" lon="138.9345224"><ele>742.1233333333333</ele><time>2023-07-02T01:10:52Z</time></trkpt><trkpt lat="35.9383849" lon="138.9344597"><ele>745.5766666666667</ele><time>2023-07-02T01:11:05Z</time></trkpt><trkpt lat="35.9383618" lon="138.9342396"><ele>749.4233333333333</ele><time>2023-07-02T01:11:37Z</time></trkpt><trkpt lat="35.9382738" lon="138.934038"><ele>753.6333333333333</ele><time>2023-07-02T01:13:44Z</time></trkpt><trkpt lat="35.9381522" lon="138.9338652"><ele>761.0866666666667</ele><time>2023-07-02T01:14:08Z</time></trkpt><trkpt lat="35.9381204" lon="138.9336453"><ele>766.2033333333334</ele><time>2023-07-02T01:14:28Z</time></trkpt><trkpt lat="35.938" lon="138.9334747"><ele>770.36</ele><time>2023-07-02T01:15:21Z</time></trkpt><trkpt lat="35.9378365" lon="138.9333786"><ele>773.37</ele><time>2023-07-02T01:15:51Z</time></trkpt><trkpt lat="35.9376836" lon="138.9332503"><ele>777.11</ele><time>2023-07-02T01:16:23Z</time></trkpt><trkpt lat="35.9375082" lon="138.9331921"><ele>781.4333333333334</ele><time>2023-07-02T01:17:10Z</time></trkpt><trkpt lat="35.9374718" lon="138.9329722"><ele>791.2233333333334</ele><time>2023-07-02T01:18:10Z</time></trkpt><trkpt lat="35.9373054" lon="138.9328771"><ele>801.04</ele><time>2023-07-02T01:18:43Z</time></trkpt><trkpt lat="35.9372309" lon="138.9326705"><ele>811.9699999999999</ele><time>2023-07-02T01:20:24Z</time></trkpt><trkpt lat="35.9372712" lon="138.9324543"><ele>822.1033333333334</ele><time>2023-07-02T01:21:14Z</time></trkpt><trkpt lat="35.9371014" lon="138.9323757"><ele>831.8633333333333</ele><time>2023-07-02T01:22:31Z</time></trkpt><trkpt lat="35.9369907" lon="138.9325518"><ele>837.5433333333334</ele><time>2023-07-02T01:23:10Z</time></trkpt><trkpt lat="35.9369087" lon="138.932353"><ele>841.23</ele><time>2023-07-02T01:23:54Z</time></trkpt><trkpt lat="35.9368865" lon="138.9321249"><ele>846.52</ele><time>2023-07-02T01:24:29Z</time></trkpt><trkpt lat="35.9368687" lon="138.9319007"><ele>856.0366666666667</ele><time>2023-07-02T01:25:02Z</time></trkpt><trkpt lat="35.9368932" lon="138.9316744"><ele>862.7866666666667</ele><time>2023-07-02T01:25:31Z</time></trkpt><trkpt lat="35.9367376" lon="138.9317872"><ele>869.2633333333333</ele><time>2023-07-02T01:26:00Z</time></trkpt><trkpt lat="35.9366933" lon="138.9320046"><ele>871.5500000000001</ele><time>2023-07-02T01:26:27Z</time></trkpt><trkpt lat="35.9366089" lon="138.9322015"><ele>875.5433333333334</ele><time>2023-07-02T01:27:03Z</time></trkpt><trkpt lat="35.9365354" lon="138.9324142"><ele>876.9633333333333</ele><time>2023-07-02T01:27:19Z</time></trkpt><trkpt lat="35.9364968" lon="138.9326329"><ele>879.0733333333334</ele><time>2023-07-02T01:27:36Z</time></trkpt><trkpt lat="35.936313" lon="138.9326481"><ele>880.8266666666667</ele><time>2023-07-02T01:28:09Z</time></trkpt><trkpt lat="35.9363986" lon="138.9324484"><ele>883.06</ele><time>2023-07-02T01:29:16Z</time></trkpt><trkpt lat="35.9363689" lon="138.9322289"><ele>886.3066666666667</ele><time>2023-07-02T01:29:41Z</time></trkpt><trkpt lat="35.9362627" lon="138.932047"><ele>889.64</ele><time>2023-07-02T01:30:07Z</time></trkpt><trkpt lat="35.9362925" lon="138.9318279"><ele>892.5933333333334</ele><time>2023-07-02T01:30:53Z</time></trkpt><trkpt lat="35.9362553" lon="138.9315978"><ele>896.2000000000002</ele><time>2023-07-02T01:31:09Z</time></trkpt><trkpt lat="35.9361107" lon="138.9314608"><ele>899.1700000000001</ele><time>2023-07-02T01:31:47Z</time></trkpt><trkpt lat="35.9359919" lon="138.9312933"><ele>901.8866666666668</ele><time>2023-07-02T01:32:30Z</time></trkpt><trkpt lat="35.9360193" lon="138.9310675"><ele>904.5100000000001</ele><time>2023-07-02T01:33:05Z</time></trkpt><trkpt lat="35.9359666" lon="138.9308547"><ele>911.4566666666668</ele><time>2023-07-02T01:33:58Z</time></trkpt><trkpt lat="35.9359538" lon="138.9306324"><ele>919.7766666666668</ele><time>2023-07-02T01:35:31Z</time></trkpt><trkpt lat="35.9358572" lon="138.9304422"><ele>932.5733333333334</ele><time>2023-07-02T01:36:31Z</time></trkpt><trkpt lat="35.9358582" lon="138.9302157"><ele>945.2966666666667</ele><time>2023-07-02T01:37:05Z</time></trkpt><trkpt lat="35.935693" lon="138.9301235"><ele>955.5633333333334</ele><time>2023-07-02T01:38:32Z</time></trkpt><trkpt lat="35.9355869" lon="138.9299396"><ele>961.9833333333335</ele><time>2023-07-02T01:38:44Z</time></trkpt><trkpt lat="35.9354134" lon="138.929841"><ele>964.9266666666667</ele><time>2023-07-02T01:38:58Z</time></trkpt><trkpt lat="35.9352331" lon="138.9298287"><ele>966.1466666666666</ele><time>2023-07-02T01:39:12Z</time></trkpt><trkpt lat="35.9350681" lon="138.9297172"><ele>964.5766666666667</ele><time>2023-07-02T01:39:34Z</time></trkpt><trkpt lat="35.9349843" lon="138.9295208"><ele>965.02</ele><time>2023-07-02T01:39:50Z</time></trkpt><trkpt lat="35.9348236" lon="138.9294188"><ele>967.35</ele><time>2023-07-02T01:40:10Z</time></trkpt><trkpt lat="35.9347054" lon="138.9292329"><ele>975.59</ele><time>2023-07-02T01:40:35Z</time></trkpt><trkpt lat="35.9345222" lon="138.9292168"><ele>982.2433333333333</ele><time>2023-07-02T01:41:02Z</time></trkpt><trkpt lat="35.9343436" lon="138.9291705"><ele>990.0799999999999</ele><time>2023-07-02T01:41:18Z</time></trkpt><trkpt lat="35.9341612" lon="138.9291825"><ele>992.64</ele><time>2023-07-02T01:41:58Z</time></trkpt><trkpt lat="35.9339759" lon="138.9292539"><ele>993.2933333333334</ele><time>2023-07-02T01:42:22Z</time></trkpt><trkpt lat="35.9338045" lon="138.9293373"><ele>992.3666666666668</ele><time>2023-07-02T01:42:34Z</time></trkpt><trkpt lat="35.9336304" lon="138.9292595"><ele>993.1600000000002</ele><time>2023-07-02T01:42:50Z</time></trkpt><trkpt lat="35.9334527" lon="138.9292219"><ele>996.6066666666667</ele><time>2023-07-02T01:43:06Z</time></trkpt><trkpt lat="35.9332841" lon="138.929133"><ele>1001.1733333333335</ele><time>2023-07-02T01:43:23Z</time></trkpt><trkpt lat="35.933099" lon="138.9290703"><ele>1003.0</ele><time>2023-07-02T01:43:41Z</time></trkpt><trkpt lat="35.9330906" lon="138.928837"><ele>1007.4966666666668</ele><time>2023-07-02T01:44:30Z</time></trkpt><trkpt lat="35.9332688" lon="138.9287651"><ele>1015.04</ele><time>2023-07-02T01:44:45Z</time></trkpt><trkpt lat="35.9334502" lon="138.9288137"><ele>1023.59</ele><time>2023-07-02T01:44:58Z</time></trkpt><trkpt lat="35.9336272" lon="138.9288619"><ele>1026.01</ele><time>2023-07-02T01:45:24Z</time></trkpt><trkpt lat="35.933588" lon="138.9286351"><ele>1028.1033333333332</ele><time>2023-07-02T01:45:46Z</time></trkpt><trkpt lat="35.9334053" lon="138.9286234"><ele>1030.3966666666668</ele><time>2023-07-02T01:46:09Z</time></trkpt><trkpt lat="35.9332305" lon="138.9285293"><ele>1035.1733333333334</ele><time>2023-07-02T01:46:30Z</time></trkpt><trkpt lat="35.9330515" lon="138.928495"><ele>1035.0733333333333</ele><time>2023-07-02T01:46:45Z</time></trkpt><trkpt lat="35.9328966" lon="138.9283751"><ele>1036.4399999999998</ele><time>2023-07-02T01:47:05Z</time></trkpt><trkpt lat="35.9327608" lon="138.9282198"><ele>1038.1533333333334</ele><time>2023-07-02T01:47:25Z</time></trkpt><trkpt lat="35.9325783" lon="138.9282144"><ele>1040.07</ele><time>2023-07-02T01:47:49Z</time></trkpt><trkpt lat="35.932371" lon="138.92824"><ele>1038.2933333333333</ele><time>2023-07-02T01:48:12Z</time></trkpt><trkpt lat="35.9321918" lon="138.9281703"><ele>1037.59</ele><time>2023-07-02T01:48:23Z</time></trkpt><trkpt lat="35.9320133" lon="138.92809"><ele>1039.94</ele><time>2023-07-02T01:48:39Z</time></trkpt><trkpt lat="35.9321777" lon="138.927994"><ele>1046.256666666667</ele><time>2023-07-02T01:49:27Z</time></trkpt><trkpt lat="35.9323624" lon="138.9279881"><ele>1050.74</ele><time>2023-07-02T01:49:43Z</time></trkpt><trkpt lat="35.9325431" lon="138.92797"><ele>1053.5933333333335</ele><time>2023-07-02T01:49:57Z</time></trkpt><trkpt lat="35.9327244" lon="138.9279841"><ele>1053.8233333333333</ele><time>2023-07-02T01:50:19Z</time></trkpt><trkpt lat="35.9329016" lon="138.927913"><ele>1054.5333333333333</ele><time>2023-07-02T01:50:38Z</time></trkpt><trkpt lat="35.9330507" lon="138.9277616"><ele>1055.9533333333331</ele><time>2023-07-02T01:50:51Z</time></trkpt><trkpt lat="35.9330799" lon="138.9275293"><ele>1058.0633333333335</ele><time>2023-07-02T01:51:09Z</time></trkpt><trkpt lat="35.9330487" lon="138.927302"><ele>1063.2633333333333</ele><time>2023-07-02T01:51:38Z</time></trkpt><trkpt lat="35.9331391" lon="138.9271062"><ele>1066.7333333333333</ele><time>2023-07-02T01:51:51Z</time></trkpt><trkpt lat="35.9331102" lon="138.9268804"><ele>1073.0333333333333</ele><time>2023-07-02T01:52:17Z</time></trkpt><trkpt lat="35.9330385" lon="138.9270886"><ele>1075.5</ele><time>2023-07-02T01:52:58Z</time></trkpt><trkpt lat="35.9329036" lon="138.9272449"><ele>1078.9733333333334</ele><time>2023-07-02T01:53:18Z</time></trkpt><trkpt lat="35.93282" lon="138.9270435"><ele>1081.7466666666667</ele><time>2023-07-02T01:54:06Z</time></trkpt><trkpt lat="35.9326438" lon="138.9269795"><ele>1086.3533333333332</ele><time>2023-07-02T01:55:13Z</time></trkpt><trkpt lat="35.9324345" lon="138.9270789"><ele>1089.8</ele><time>2023-07-02T01:55:21Z</time></trkpt><trkpt lat="35.9322559" lon="138.9271196"><ele>1089.41</ele><time>2023-07-02T01:55:34Z</time></trkpt><trkpt lat="35.9320766" lon="138.9270923"><ele>1086.7366666666667</ele><time>2023-07-02T01:55:56Z</time></trkpt><trkpt lat="35.931945" lon="138.9269366"><ele>1085.38</ele><time>2023-07-02T01:56:51Z</time></trkpt><trkpt lat="35.9317619" lon="138.9269246"><ele>1084.8366666666666</ele><time>2023-07-02T01:57:17Z</time></trkpt><trkpt lat="35.9319531" lon="138.9269088"><ele>1085.7733333333333</ele><time>2023-07-02T01:58:22Z</time></trkpt><trkpt lat="35.931879" lon="138.9266993"><ele>1087.5733333333335</ele><time>2023-07-02T01:58:42Z</time></trkpt><trkpt lat="35.931746" lon="138.9265372"><ele>1091.2533333333333</ele><time>2023-07-02T01:59:01Z</time></trkpt><trkpt lat="35.9315604" lon="138.9265112"><ele>1094.0033333333333</ele><time>2023-07-02T01:59:17Z</time></trkpt><trkpt lat="35.9313749" lon="138.9265541"><ele>1095.87</ele><time>2023-07-02T01:59:29Z</time></trkpt><trkpt lat="35.9311853" lon="138.9265658"><ele>1096.3966666666668</ele><time>2023-07-02T01:59:57Z</time></trkpt><trkpt lat="35.930976" lon="138.9266164"><ele>1096.5433333333333</ele><time>2023-07-02T02:00:09Z</time></trkpt><trkpt lat="35.9307854" lon="138.9266262"><ele>1096.6666666666667</ele><time>2023-07-02T02:00:24Z</time></trkpt><trkpt lat="35.9306007" lon="138.9266249"><ele>1096.8100000000002</ele><time>2023-07-02T02:00:43Z</time></trkpt><trkpt lat="35.9304103" lon="138.9266361"><ele>1098.0633333333335</ele><time>2023-07-02T02:01:00Z</time></trkpt><trkpt lat="35.9302935" lon="138.9268068"><ele>1097.3966666666668</ele><time>2023-07-02T02:01:10Z</time></trkpt><trkpt lat="35.9301261" lon="138.9268898"><ele>1096.14</ele><time>2023-07-02T02:01:25Z</time></trkpt><trkpt lat="35.9299557" lon="138.9269713"><ele>1093.75</ele><time>2023-07-02T02:01:35Z</time></trkpt><trkpt lat="35.9297676" lon="138.9269844"><ele>1093.1333333333334</ele><time>2023-07-02T02:01:49Z</time></trkpt><trkpt lat="35.9296025" lon="138.9268837"><ele>1093.39</ele><time>2023-07-02T02:02:00Z</time></trkpt><trkpt lat="35.9294312" lon="138.9267957"><ele>1094.9033333333334</ele><time>2023-07-02T02:02:16Z</time></trkpt><trkpt lat="35.9292508" lon="138.9268985"><ele>1095.9633333333334</ele><time>2023-07-02T02:02:30Z</time></trkpt><trkpt lat="35.9290682" lon="138.926938"><ele>1096.0666666666666</ele><time>2023-07-02T02:02:41Z</time></trkpt><trkpt lat="35.9288889" lon="138.9268967"><ele>1095.9966666666667</ele><time>2023-07-02T02:02:55Z</time></trkpt><trkpt lat="35.9287065" lon="138.9268377"><ele>1096.86</ele><time>2023-07-02T02:03:10Z</time></trkpt><trkpt lat="35.9285247" lon="138.9268613"><ele>1097.7866666666666</ele><time>2023-07-02T02:03:23Z</time></trkpt><trkpt lat="35.9283424" lon="138.9268861"><ele>1097.5533333333333</ele><time>2023-07-02T02:03:38Z</time></trkpt><trkpt lat="35.9281789" lon="138.9269876"><ele>1096.4733333333334</ele><time>2023-07-02T02:04:30Z</time></trkpt><trkpt lat="35.9280292" lon="138.927123"><ele>1096.4033333333334</ele><time>2023-07-02T02:04:49Z</time></trkpt><trkpt lat="35.9278847" lon="138.9272689"><ele>1096.6399999999999</ele><time>2023-07-02T02:05:01Z</time></trkpt><trkpt lat="35.9277457" lon="138.927423"><ele>1097.24</ele><time>2023-07-02T02:05:14Z</time></trkpt><trkpt lat="35.9276107" lon="138.9275814"><ele>1096.3833333333334</ele><time>2023-07-02T02:05:23Z</time></trkpt><trkpt lat="35.9274353" lon="138.927649"><ele>1094.2700000000002</ele><time>2023-07-02T02:05:41Z</time></trkpt><trkpt lat="35.9272854" lon="138.9277878"><ele>1090.3233333333335</ele><time>2023-07-02T02:06:01Z</time></trkpt><trkpt lat="35.9271379" lon="138.9279491"><ele>1086.2766666666666</ele><time>2023-07-02T02:06:16Z</time></trkpt><trkpt lat="35.927207" lon="138.927742"><ele>1083.24</ele><time>2023-07-02T02:07:01Z</time></trkpt><trkpt lat="35.9273401" lon="138.9275901"><ele>1082.22</ele><time>2023-07-02T02:07:14Z</time></trkpt><trkpt lat="35.9275388" lon="138.9275361"><ele>1084.55</ele><time>2023-07-02T02:07:27Z</time></trkpt><trkpt lat="35.9276479" lon="138.9273578"><ele>1088.2466666666667</ele><time>2023-07-02T02:07:43Z</time></trkpt><trkpt lat="35.927824" lon="138.9273074"><ele>1093.42</ele><time>2023-07-02T02:07:55Z</time></trkpt><trkpt lat="35.9279606" lon="138.9271537"><ele>1095.53</ele><time>2023-07-02T02:08:09Z</time></trkpt><trkpt lat="35.9281059" lon="138.9270161"><ele>1096.7266666666667</ele><time>2023-07-02T02:08:21Z</time></trkpt><trkpt lat="35.9282823" lon="138.9269117"><ele>1095.9133333333334</ele><time>2023-07-02T02:08:36Z</time></trkpt><trkpt lat="35.9281865" lon="138.9271121"><ele>1096.97</ele><time>2023-07-02T02:09:12Z</time></trkpt><trkpt lat="35.9280436" lon="138.9272509"><ele>1098.0</ele><time>2023-07-02T02:09:26Z</time></trkpt><trkpt lat="35.9278779" lon="138.927339"><ele>1099.2766666666666</ele><time>2023-07-02T02:09:41Z</time></trkpt><trkpt lat="35.9277852" lon="138.9275336"><ele>1100.0200000000002</ele><time>2023-07-02T02:09:53Z</time></trkpt><trkpt lat="35.92764" lon="138.9276711"><ele>1100.6733333333334</ele><time>2023-07-02T02:10:06Z</time></trkpt><trkpt lat="35.9275306" lon="138.9278702"><ele>1101.9133333333334</ele><time>2023-07-02T02:10:19Z</time></trkpt><trkpt lat="35.9274149" lon="138.9280571"><ele>1101.4033333333334</ele><time>2023-07-02T02:10:30Z</time></trkpt><trkpt lat="35.92735" lon="138.9282662"><ele>1101.1433333333332</ele><time>2023-07-02T02:10:45Z</time></trkpt><trkpt lat="35.9271744" lon="138.9283296"><ele>1100.7233333333334</ele><time>2023-07-02T02:10:58Z</time></trkpt><trkpt lat="35.9269915" lon="138.9283817"><ele>1098.2233333333334</ele><time>2023-07-02T02:11:13Z</time></trkpt><trkpt lat="35.9268678" lon="138.9285537"><ele>1097.5</ele><time>2023-07-02T02:11:28Z</time></trkpt><trkpt lat="35.9267389" lon="138.9287146"><ele>1098.26</ele><time>2023-07-02T02:11:39Z</time></trkpt><trkpt lat="35.926577" lon="138.9288389"><ele>1100.8833333333334</ele><time>2023-07-02T02:11:50Z</time></trkpt><trkpt lat="35.9264369" lon="138.9290106"><ele>1100.256666666667</ele><time>2023-07-02T02:12:01Z</time></trkpt><trkpt lat="35.9262454" lon="138.9291078"><ele>1095.3000000000002</ele><time>2023-07-02T02:12:13Z</time></trkpt><trkpt lat="35.9260844" lon="138.929214"><ele>1088.8466666666666</ele><time>2023-07-02T02:12:29Z</time></trkpt><trkpt lat="35.925941" lon="138.9293674"><ele>1083.0666666666666</ele><time>2023-07-02T02:12:47Z</time></trkpt><trkpt lat="35.9257777" lon="138.929463"><ele>1077.5633333333333</ele><time>2023-07-02T02:12:59Z</time></trkpt><trkpt lat="35.9256385" lon="138.929609"><ele>1073.7033333333334</ele><time>2023-07-02T02:13:12Z</time></trkpt><trkpt lat="35.9256355" lon="138.9298336"><ele>1071.5566666666666</ele><time>2023-07-02T02:13:31Z</time></trkpt><trkpt lat="35.9254918" lon="138.9299841"><ele>1071.4833333333333</ele><time>2023-07-02T02:14:24Z</time></trkpt><trkpt lat="35.9255413" lon="138.9299021"><ele>1071.9933333333336</ele><time>2023-07-02T02:15:15Z</time></trkpt><trkpt lat="35.9254066" lon="138.9300549"><ele>1071.3966666666668</ele><time>2023-07-02T02:15:45Z</time></trkpt><trkpt lat="35.9252977" lon="138.9302357"><ele>1071.4166666666667</ele><time>2023-07-02T02:16:15Z</time></trkpt><trkpt lat="35.9251233" lon="138.9301141"><ele>1069.78</ele><time>2023-07-02T02:17:46Z</time></trkpt><trkpt lat="35.9250545" lon="138.9303244"><ele>1069.1299999999999</ele><time>2023-07-02T02:18:44Z</time></trkpt><trkpt lat="35.9250248" lon="138.9305454"><ele>1069.4233333333334</ele><time>2023-07-02T02:18:58Z</time></trkpt><trkpt lat="35.9252066" lon="138.9305758"><ele>1072.9033333333334</ele><time>2023-07-02T02:19:33Z</time></trkpt><trkpt lat="35.9252681" lon="138.9303474"><ele>1074.1066666666668</ele><time>2023-07-02T02:19:58Z</time></trkpt><trkpt lat="35.9252545" lon="138.9305837"><ele>1075.2</ele><time>2023-07-02T02:20:17Z</time></trkpt><trkpt lat="35.9251091" lon="138.9307374"><ele>1075.26</ele><time>2023-07-02T02:20:28Z</time></trkpt><trkpt lat="35.9250969" lon="138.9309604"><ele>1077.9</ele><time>2023-07-02T02:20:54Z</time></trkpt><trkpt lat="35.9249717" lon="138.9311256"><ele>1078.8333333333333</ele><time>2023-07-02T02:21:10Z</time></trkpt><trkpt lat="35.9248353" lon="138.9312707"><ele>1079.6066666666666</ele><time>2023-07-02T02:21:25Z</time></trkpt><trkpt lat="35.9246598" lon="138.931361"><ele>1078.6166666666668</ele><time>2023-07-02T02:21:41Z</time></trkpt><trkpt lat="35.9246521" lon="138.9315834"><ele>1078.9666666666667</ele><time>2023-07-02T02:21:53Z</time></trkpt><trkpt lat="35.9247361" lon="138.9318106"><ele>1080.12</ele><time>2023-07-02T02:22:07Z</time></trkpt><trkpt lat="35.9248292" lon="138.9320004"><ele>1082.4466666666667</ele><time>2023-07-02T02:22:30Z</time></trkpt><trkpt lat="35.9249757" lon="138.9318639"><ele>1085.1299999999999</ele><time>2023-07-02T02:22:45Z</time></trkpt><trkpt lat="35.9251088" lon="138.9317135"><ele>1088.16</ele><time>2023-07-02T02:23:09Z</time></trkpt><trkpt lat="35.9252364" lon="138.9315434"><ele>1090.43</ele><time>2023-07-02T02:23:38Z</time></trkpt><trkpt lat="35.9251191" lon="138.9317148"><ele>1091.4799999999998</ele><time>2023-07-02T02:24:00Z</time></trkpt><trkpt lat="35.9251131" lon="138.931937"><ele>1091.6000000000001</ele><time>2023-07-02T02:24:17Z</time></trkpt><trkpt lat="35.9251684" lon="138.9317201"><ele>1091.8500000000001</ele><time>2023-07-02T02:25:14Z</time></trkpt><trkpt lat="35.925046" lon="138.931888"><ele>1091.5133333333333</ele><time>2023-07-02T02:25:41Z</time></trkpt><trkpt lat="35.9248682" lon="138.9319287"><ele>1089.6466666666668</ele><time>2023-07-02T02:26:57Z</time></trkpt><trkpt lat="35.9246813" lon="138.9318966"><ele>1085.8</ele><time>2023-07-02T02:27:29Z</time></trkpt><trkpt lat="35.9245061" lon="138.9318176"><ele>1081.6566666666665</ele><time>2023-07-02T02:28:05Z</time></trkpt><trkpt lat="35.9246005" lon="138.9320092"><ele>1079.49</ele><time>2023-07-02T02:28:52Z</time></trkpt><trkpt lat="35.924655" lon="138.9322209"><ele>1080.2166666666667</ele><time>2023-07-02T02:29:10Z</time></trkpt><trkpt lat="35.924546" lon="138.9320276"><ele>1080.5333333333333</ele><time>2023-07-02T02:31:19Z</time></trkpt><trkpt lat="35.9243819" lon="138.9321216"><ele>1080.2633333333333</ele><time>2023-07-02T02:31:34Z</time></trkpt><trkpt lat="35.924208" lon="138.9322093"><ele>1078.6266666666668</ele><time>2023-07-02T02:31:48Z</time></trkpt><trkpt lat="35.9240344" lon="138.9322735"><ele>1078.0033333333333</ele><time>2023-07-02T02:32:00Z</time></trkpt><trkpt lat="35.9238468" lon="138.9322742"><ele>1076.22</ele><time>2023-07-02T02:32:13Z</time></trkpt><trkpt lat="35.9236687" lon="138.9323487"><ele>1074.88</ele><time>2023-07-02T02:32:29Z</time></trkpt><trkpt lat="35.9234821" lon="138.9323844"><ele>1073.7366666666667</ele><time>2023-07-02T02:32:42Z</time></trkpt><trkpt lat="35.9233019" lon="138.9323785"><ele>1072.96</ele><time>2023-07-02T02:32:56Z</time></trkpt><trkpt lat="35.923127" lon="138.9322915"><ele>1070.8433333333332</ele><time>2023-07-02T02:33:14Z</time></trkpt><trkpt lat="35.9229508" lon="138.932384"><ele>1068.1233333333332</ele><time>2023-07-02T02:33:53Z</time></trkpt><trkpt lat="35.9229469" lon="138.9326111"><ele>1067.9266666666667</ele><time>2023-07-02T02:34:36Z</time></trkpt><trkpt lat="35.9227714" lon="138.9325513"><ele>1067.0966666666666</ele><time>2023-07-02T02:35:04Z</time></trkpt><trkpt lat="35.9227058" lon="138.9327706"><ele>1067.7733333333333</ele><time>2023-07-02T02:36:04Z</time></trkpt><trkpt lat="35.9226108" lon="138.9329675"><ele>1066.4166666666667</ele><time>2023-07-02T02:36:40Z</time></trkpt><trkpt lat="35.9224307" lon="138.9330007"><ele>1066.0833333333333</ele><time>2023-07-02T02:37:24Z</time></trkpt><trkpt lat="35.9223622" lon="138.9332186"><ele>1067.1666666666667</ele><time>2023-07-02T02:38:05Z</time></trkpt><trkpt lat="35.9222349" lon="138.9333892"><ele>1069.4766666666667</ele><time>2023-07-02T02:38:16Z</time></trkpt><trkpt lat="35.9221086" lon="138.9335655"><ele>1072.94</ele><time>2023-07-02T02:38:23Z</time></trkpt><trkpt lat="35.9219911" lon="138.9337532"><ele>1074.1566666666665</ele><time>2023-07-02T02:38:42Z</time></trkpt><trkpt lat="35.921837" lon="138.9338994"><ele>1075.55</ele><time>2023-07-02T02:38:57Z</time></trkpt><trkpt lat="35.92169" lon="138.9340401"><ele>1075.88</ele><time>2023-07-02T02:39:12Z</time></trkpt><trkpt lat="35.9215646" lon="138.9342062"><ele>1076.2733333333333</ele><time>2023-07-02T02:39:25Z</time></trkpt><trkpt lat="35.9214458" lon="138.9343751"><ele>1075.3266666666668</ele><time>2023-07-02T02:39:39Z</time></trkpt><trkpt lat="35.9213197" lon="138.9345335"><ele>1075.6933333333334</ele><time>2023-07-02T02:39:53Z</time></trkpt><trkpt lat="35.9211925" lon="138.9347069"><ele>1075.9266666666665</ele><time>2023-07-02T02:40:05Z</time></trkpt><trkpt lat="35.9213016" lon="138.9345063"><ele>1075.5833333333335</ele><time>2023-07-02T02:40:39Z</time></trkpt><trkpt lat="35.9213553" lon="138.9342901"><ele>1073.0533333333335</ele><time>2023-07-02T02:40:47Z</time></trkpt><trkpt lat="35.9214076" lon="138.9340726"><ele>1069.4233333333334</ele><time>2023-07-02T02:40:59Z</time></trkpt><trkpt lat="35.9215678" lon="138.9339624"><ele>1066.2633333333333</ele><time>2023-07-02T02:41:16Z</time></trkpt><trkpt lat="35.9217449" lon="138.9339043"><ele>1068.11</ele><time>2023-07-02T02:41:30Z</time></trkpt><trkpt lat="35.921924" lon="138.9338668"><ele>1071.63</ele><time>2023-07-02T02:41:43Z</time></trkpt><trkpt lat="35.9220366" lon="138.9336873"><ele>1074.8833333333334</ele><time>2023-07-02T02:41:55Z</time></trkpt><trkpt lat="35.9221249" lon="138.9334862"><ele>1074.0900000000001</ele><time>2023-07-02T02:42:07Z</time></trkpt><trkpt lat="35.9222559" lon="138.9333319"><ele>1072.3100000000002</ele><time>2023-07-02T02:42:43Z</time></trkpt><trkpt lat="35.9223751" lon="138.933164"><ele>1070.1000000000001</ele><time>2023-07-02T02:42:51Z</time></trkpt><trkpt lat="35.9225673" lon="138.9331056"><ele>1070.2033333333331</ele><time>2023-07-02T02:44:35Z</time></trkpt><trkpt lat="35.922636" lon="138.9328958"><ele>1068.89</ele><time>2023-07-02T02:44:46Z</time></trkpt><trkpt lat="35.9227265" lon="138.9327005"><ele>1068.4066666666665</ele><time>2023-07-02T02:45:00Z</time></trkpt><trkpt lat="35.9228232" lon="138.9325075"><ele>1065.9533333333331</ele><time>2023-07-02T02:45:15Z</time></trkpt><trkpt lat="35.922912" lon="138.9323076"><ele>1065.1666666666667</ele><time>2023-07-02T02:45:45Z</time></trkpt><trkpt lat="35.9229518" lon="138.9320885"><ele>1063.8766666666668</ele><time>2023-07-02T02:45:58Z</time></trkpt><trkpt lat="35.9230533" lon="138.9322767"><ele>1064.3999999999999</ele><time>2023-07-02T02:46:42Z</time></trkpt><trkpt lat="35.9232347" lon="138.9322771"><ele>1065.6466666666668</ele><time>2023-07-02T02:46:57Z</time></trkpt><trkpt lat="35.9233733" lon="138.9324256"><ele>1071.3066666666666</ele><time>2023-07-02T02:47:13Z</time></trkpt><trkpt lat="35.9235451" lon="138.9323519"><ele>1073.68</ele><time>2023-07-02T02:47:29Z</time></trkpt><trkpt lat="35.9237321" lon="138.9323332"><ele>1075.75</ele><time>2023-07-02T02:48:00Z</time></trkpt><trkpt lat="35.9239125" lon="138.9323031"><ele>1074.3933333333334</ele><time>2023-07-02T02:48:11Z</time></trkpt><trkpt lat="35.924091" lon="138.9322175"><ele>1075.4033333333334</ele><time>2023-07-02T02:48:28Z</time></trkpt><trkpt lat="35.9242271" lon="138.9320625"><ele>1076.0033333333333</ele><time>2023-07-02T02:48:42Z</time></trkpt><trkpt lat="35.9244374" lon="138.932061"><ele>1077.1166666666666</ele><time>2023-07-02T02:49:01Z</time></trkpt><trkpt lat="35.9246028" lon="138.9321602"><ele>1078.61</ele><time>2023-07-02T02:49:20Z</time></trkpt><trkpt lat="35.9246833" lon="138.9323626"><ele>1081.0100000000002</ele><time>2023-07-02T02:49:37Z</time></trkpt><trkpt lat="35.9248623" lon="138.9323236"><ele>1082.19</ele><time>2023-07-02T02:49:54Z</time></trkpt><trkpt lat="35.9250511" lon="138.9323041"><ele>1082.53</ele><time>2023-07-02T02:50:21Z</time></trkpt><trkpt lat="35.9250825" lon="138.932524"><ele>1076.9866666666667</ele><time>2023-07-02T02:50:52Z</time></trkpt><trkpt lat="35.9251801" lon="138.9327113"><ele>1069.6633333333332</ele><time>2023-07-02T02:51:19Z</time></trkpt><trkpt lat="35.9252585" lon="138.9329158"><ele>1060.0733333333335</ele><time>2023-07-02T02:51:30Z</time></trkpt><trkpt lat="35.9253732" lon="138.9330942"><ele>1052.9966666666667</ele><time>2023-07-02T02:51:46Z</time></trkpt><trkpt lat="35.9255451" lon="138.9330088"><ele>1048.6366666666665</ele><time>2023-07-02T02:51:57Z</time></trkpt><trkpt lat="35.9256728" lon="138.9328416"><ele>1046.8533333333332</ele><time>2023-07-02T02:52:09Z</time></trkpt><trkpt lat="35.9258026" lon="138.9326819"><ele>1045.5866666666666</ele><time>2023-07-02T02:52:21Z</time></trkpt><trkpt lat="35.9258804" lon="138.932474"><ele>1046.8999999999999</ele><time>2023-07-02T02:52:34Z</time></trkpt><trkpt lat="35.9259583" lon="138.9326824"><ele>1042.6733333333334</ele><time>2023-07-02T02:52:48Z</time></trkpt><trkpt lat="35.9259498" lon="138.9329149"><ele>1038.7466666666667</ele><time>2023-07-02T02:52:59Z</time></trkpt><trkpt lat="35.9260099" lon="138.9331329"><ele>1029.59</ele><time>2023-07-02T02:53:41Z</time></trkpt><trkpt lat="35.9261477" lon="138.933285"><ele>1022.83</ele><time>2023-07-02T02:54:06Z</time></trkpt><trkpt lat="35.9262465" lon="138.9334793"><ele>1014.7333333333332</ele><time>2023-07-02T02:54:30Z</time></trkpt><trkpt lat="35.9262594" lon="138.9337059"><ele>1007.14</ele><time>2023-07-02T02:54:54Z</time></trkpt><trkpt lat="35.9263242" lon="138.9339156"><ele>997.87</ele><time>2023-07-02T02:55:11Z</time></trkpt><trkpt lat="35.9264719" lon="138.9340436"><ele>989.79</ele><time>2023-07-02T02:55:48Z</time></trkpt><trkpt lat="35.9262901" lon="138.9340697"><ele>984.0600000000001</ele><time>2023-07-02T02:55:57Z</time></trkpt><trkpt lat="35.9263514" lon="138.9343048"><ele>980.85</ele><time>2023-07-02T02:56:17Z</time></trkpt><trkpt lat="35.926395" lon="138.9345283"><ele>977.0300000000001</ele><time>2023-07-02T02:56:28Z</time></trkpt><trkpt lat="35.9264413" lon="138.934744"><ele>969.9233333333333</ele><time>2023-07-02T02:56:47Z</time></trkpt><trkpt lat="35.9263738" lon="138.9349572"><ele>962.87</ele><time>2023-07-02T02:57:20Z</time></trkpt><trkpt lat="35.9264915" lon="138.9351275"><ele>957.75</ele><time>2023-07-02T02:57:35Z</time></trkpt><trkpt lat="35.9266522" lon="138.9352417"><ele>954.5500000000001</ele><time>2023-07-02T02:57:57Z</time></trkpt><trkpt lat="35.9267214" lon="138.9354464"><ele>950.71</ele><time>2023-07-02T02:58:11Z</time></trkpt><trkpt lat="35.9268927" lon="138.9355158"><ele>944.1366666666668</ele><time>2023-07-02T02:58:29Z</time></trkpt><trkpt lat="35.926818" lon="138.9357222"><ele>936.5533333333334</ele><time>2023-07-02T02:58:40Z</time></trkpt><trkpt lat="35.9269233" lon="138.9359093"><ele>929.2133333333335</ele><time>2023-07-02T02:59:43Z</time></trkpt><trkpt lat="35.9271083" lon="138.935912"><ele>923.4433333333335</ele><time>2023-07-02T03:00:00Z</time></trkpt><trkpt lat="35.927291" lon="138.9358668"><ele>916.9933333333335</ele><time>2023-07-02T03:00:12Z</time></trkpt><trkpt lat="35.9274865" lon="138.9358986"><ele>911.3299999999999</ele><time>2023-07-02T03:00:45Z</time></trkpt><trkpt lat="35.9275811" lon="138.9360981"><ele>903.59</ele><time>2023-07-02T03:01:05Z</time></trkpt><trkpt lat="35.9277527" lon="138.936167"><ele>894.7266666666668</ele><time>2023-07-02T03:01:32Z</time></trkpt><trkpt lat="35.9279321" lon="138.9362139"><ele>884.4466666666667</ele><time>2023-07-02T03:01:45Z</time></trkpt><trkpt lat="35.9278014" lon="138.9363677"><ele>878.46</ele><time>2023-07-02T03:02:28Z</time></trkpt><trkpt lat="35.9276357" lon="138.9364649"><ele>876.0</ele><time>2023-07-02T03:02:45Z</time></trkpt><trkpt lat="35.9275713" lon="138.9366719"><ele>874.64</ele><time>2023-07-02T03:03:00Z</time></trkpt><trkpt lat="35.9277586" lon="138.9367276"><ele>872.0533333333334</ele><time>2023-07-02T03:03:18Z</time></trkpt><trkpt lat="35.9277839" lon="138.9369534"><ele>866.7733333333334</ele><time>2023-07-02T03:03:53Z</time></trkpt><trkpt lat="35.927967" lon="138.9370016"><ele>862.0666666666666</ele><time>2023-07-02T03:04:09Z</time></trkpt><trkpt lat="35.9281534" lon="138.9369495"><ele>858.2833333333334</ele><time>2023-07-02T03:04:24Z</time></trkpt><trkpt lat="35.9281222" lon="138.9371707"><ele>854.5933333333334</ele><time>2023-07-02T03:05:00Z</time></trkpt><trkpt lat="35.9282607" lon="138.9373208"><ele>847.7766666666666</ele><time>2023-07-02T03:06:07Z</time></trkpt><trkpt lat="35.9284484" lon="138.9373568"><ele>838.6766666666667</ele><time>2023-07-02T03:06:32Z</time></trkpt><trkpt lat="35.928616" lon="138.9374509"><ele>825.9433333333333</ele><time>2023-07-02T03:07:04Z</time></trkpt><trkpt lat="35.9286983" lon="138.9376503"><ele>815.4466666666667</ele><time>2023-07-02T03:07:26Z</time></trkpt><trkpt lat="35.9287078" lon="138.937872"><ele>804.7233333333334</ele><time>2023-07-02T03:07:58Z</time></trkpt><trkpt lat="35.9285262" lon="138.937834"><ele>801.3266666666668</ele><time>2023-07-02T03:08:15Z</time></trkpt><trkpt lat="35.9284628" lon="138.9380441"><ele>795.8066666666667</ele><time>2023-07-02T03:08:27Z</time></trkpt><trkpt lat="35.9286214" lon="138.9381683"><ele>790.0600000000001</ele><time>2023-07-02T03:08:43Z</time></trkpt><trkpt lat="35.9287947" lon="138.9380952"><ele>782.2866666666667</ele><time>2023-07-02T03:08:55Z</time></trkpt><trkpt lat="35.9289765" lon="138.9380949"><ele>776.8633333333333</ele><time>2023-07-02T03:09:42Z</time></trkpt><trkpt lat="35.9291577" lon="138.9381605"><ele>771.79</ele><time>2023-07-02T03:10:06Z</time></trkpt><trkpt lat="35.9293325" lon="138.9381001"><ele>764.0033333333334</ele><time>2023-07-02T03:10:20Z</time></trkpt><trkpt lat="35.9293178" lon="138.9383242"><ele>756.7766666666666</ele><time>2023-07-02T03:10:45Z</time></trkpt><trkpt lat="35.9294441" lon="138.9384843"><ele>747.7266666666668</ele><time>2023-07-02T03:11:04Z</time></trkpt><trkpt lat="35.9295769" lon="138.9386388"><ele>740.4766666666668</ele><time>2023-07-02T03:11:42Z</time></trkpt><trkpt lat="35.9297573" lon="138.9386482"><ele>733.3533333333334</ele><time>2023-07-02T03:12:31Z</time></trkpt><trkpt lat="35.9298818" lon="138.9388086"><ele>728.2733333333334</ele><time>2023-07-02T03:13:17Z</time></trkpt><trkpt lat="35.9298659" lon="138.9390329"><ele>722.1700000000001</ele><time>2023-07-02T03:13:50Z</time></trkpt><trkpt lat="35.9300221" lon="138.939156"><ele>717.0533333333333</ele><time>2023-07-02T03:14:04Z</time></trkpt><trkpt lat="35.9298507" lon="138.9392351"><ele>710.9433333333333</ele><time>2023-07-02T03:14:44Z</time></trkpt><trkpt lat="35.9297049" lon="138.939366"><ele>704.17</ele><time>2023-07-02T03:15:02Z</time></trkpt><trkpt lat="35.9297099" lon="138.9395889"><ele>693.9566666666666</ele><time>2023-07-02T03:15:48Z</time></trkpt><trkpt lat="35.9296497" lon="138.9398008"><ele>683.0799999999999</ele><time>2023-07-02T03:16:34Z</time></trkpt><trkpt lat="35.9298154" lon="138.9398913"><ele>672.1333333333333</ele><time>2023-07-02T03:17:31Z</time></trkpt><trkpt lat="35.9299436" lon="138.940053"><ele>662.1833333333333</ele><time>2023-07-02T03:18:05Z</time></trkpt><trkpt lat="35.9299112" lon="138.940272"><ele>653.2566666666667</ele><time>2023-07-02T03:19:07Z</time></trkpt><trkpt lat="35.9298295" lon="138.9404755"><ele>646.0366666666667</ele><time>2023-07-02T03:19:41Z</time></trkpt><trkpt lat="35.9299947" lon="138.9405789"><ele>637.48</ele><time>2023-07-02T03:20:28Z</time></trkpt><trkpt lat="35.9301761" lon="138.9405971"><ele>631.7033333333334</ele><time>2023-07-02T03:20:57Z</time></trkpt><trkpt lat="35.9303551" lon="138.9405284"><ele>628.2833333333333</ele><time>2023-07-02T03:21:14Z</time></trkpt><trkpt lat="35.93053" lon="138.9404723"><ele>628.9333333333334</ele><time>2023-07-02T03:21:54Z</time></trkpt><trkpt lat="35.9304878" lon="138.9406891"><ele>623.6633333333334</ele><time>2023-07-02T03:22:27Z</time></trkpt><trkpt lat="35.9304573" lon="138.9409167"><ele>612.8266666666667</ele><time>2023-07-02T03:23:12Z</time></trkpt><trkpt lat="35.9305288" lon="138.9411299"><ele>597.3966666666666</ele><time>2023-07-02T03:23:25Z</time></trkpt><trkpt lat="35.9303544" lon="138.9412232"><ele>588.0366666666667</ele><time>2023-07-02T03:24:28Z</time></trkpt><trkpt lat="35.9301794" lon="138.9413185"><ele>584.4166666666666</ele><time>2023-07-02T03:25:47Z</time></trkpt><trkpt lat="35.9303578" lon="138.9412742"><ele>583.6566666666666</ele><time>2023-07-02T03:27:15Z</time></trkpt><trkpt lat="35.9302906" lon="138.9414914"><ele>584.3933333333333</ele><time>2023-07-02T03:27:43Z</time></trkpt><trkpt lat="35.9304646" lon="138.9415713"><ele>584.1466666666666</ele><time>2023-07-02T03:28:29Z</time></trkpt><trkpt lat="35.9306374" lon="138.941679"><ele>585.1466666666666</ele><time>2023-07-02T03:28:43Z</time></trkpt><trkpt lat="35.930824" lon="138.9416572"><ele>583.7133333333333</ele><time>2023-07-02T03:28:56Z</time></trkpt><trkpt lat="35.9309589" lon="138.9415046"><ele>578.2399999999999</ele><time>2023-07-02T03:29:09Z</time></trkpt><trkpt lat="35.9310217" lon="138.9412944"><ele>570.5733333333334</ele><time>2023-07-02T03:29:28Z</time></trkpt><trkpt lat="35.9312" lon="138.9412466"><ele>561.4766666666666</ele><time>2023-07-02T03:29:55Z</time></trkpt><trkpt lat="35.9313826" lon="138.9412548"><ele>556.13</ele><time>2023-07-02T03:30:13Z</time></trkpt><trkpt lat="35.931563" lon="138.9412939"><ele>552.5066666666667</ele><time>2023-07-02T03:30:30Z</time></trkpt><trkpt lat="35.931664" lon="138.9414787"><ele>551.8533333333334</ele><time>2023-07-02T03:30:52Z</time></trkpt><trkpt lat="35.9316306" lon="138.9417037"><ele>555.88</ele><time>2023-07-02T03:31:13Z</time></trkpt><trkpt lat="35.9317219" lon="138.9418999"><ele>563.08</ele><time>2023-07-02T03:31:34Z</time></trkpt><trkpt lat="35.9319014" lon="138.9419356"><ele>562.4266666666666</ele><time>2023-07-02T03:31:50Z</time></trkpt><trkpt lat="35.9320845" lon="138.9420183"><ele>555.8033333333334</ele><time>2023-07-02T03:32:11Z</time></trkpt><trkpt lat="35.9322368" lon="138.9421431"><ele>550.7366666666667</ele><time>2023-07-02T03:33:03Z</time></trkpt><trkpt lat="35.9324058" lon="138.9422799"><ele>554.0166666666667</ele><time>2023-07-02T03:33:28Z</time></trkpt><trkpt lat="35.9325853" lon="138.9423015"><ele>557.2966666666666</ele><time>2023-07-02T03:34:09Z</time></trkpt><trkpt lat="35.9327715" lon="138.9423181"><ele>552.7433333333333</ele><time>2023-07-02T03:34:38Z</time></trkpt><trkpt lat="35.9328256" lon="138.9425297"><ele>546.9733333333334</ele><time>2023-07-02T03:35:28Z</time></trkpt><trkpt lat="35.9330032" lon="138.9425803"><ele>537.5833333333334</ele><time>2023-07-02T03:36:16Z</time></trkpt><trkpt lat="35.9331035" lon="138.9427712"><ele>531.27</ele><time>2023-07-02T03:37:07Z</time></trkpt><trkpt lat="35.9332906" lon="138.9427601"><ele>521.3266666666667</ele><time>2023-07-02T03:38:24Z</time></trkpt><trkpt lat="35.9334503" lon="138.9428657"><ele>514.5500000000001</ele><time>2023-07-02T03:39:26Z</time></trkpt><trkpt lat="35.9335912" lon="138.943011"><ele>506.30333333333334</ele><time>2023-07-02T03:40:09Z</time></trkpt><trkpt lat="35.9335725" lon="138.9432346"><ele>502.09</ele><time>2023-07-02T03:41:10Z</time></trkpt><trkpt lat="35.9336201" lon="138.9434747"><ele>496.48333333333335</ele><time>2023-07-02T03:41:24Z</time></trkpt><trkpt lat="35.9336914" lon="138.9436816"><ele>486.2733333333333</ele><time>2023-07-02T03:41:35Z</time></trkpt><trkpt lat="35.9337852" lon="138.94388"><ele>473.3333333333333</ele><time>2023-07-02T03:41:48Z</time></trkpt><trkpt lat="35.9338087" lon="138.944108"><ele>463.59999999999997</ele><time>2023-07-02T03:42:02Z</time></trkpt><trkpt lat="35.9336844" lon="138.9442759"><ele>460.79333333333335</ele><time>2023-07-02T03:42:16Z</time></trkpt><trkpt lat="35.9335204" lon="138.9443832"><ele>465.1433333333334</ele><time>2023-07-02T03:42:35Z</time></trkpt><trkpt lat="35.9336361" lon="138.9445559"><ele>467.43666666666667</ele><time>2023-07-02T03:43:21Z</time></trkpt><trkpt lat="35.9337496" lon="138.9447297"><ele>468.17666666666673</ele><time>2023-07-02T03:43:31Z</time></trkpt><trkpt lat="35.9338568" lon="138.9449233"><ele>464.1033333333333</ele><time>2023-07-02T03:43:42Z</time></trkpt><trkpt lat="35.9339033" lon="138.9451428"><ele>461.85999999999996</ele><time>2023-07-02T03:43:54Z</time></trkpt><trkpt lat="35.9340475" lon="138.9452795"><ele>457.01666666666665</ele><time>2023-07-02T03:44:07Z</time></trkpt><trkpt lat="35.9340781" lon="138.9455065"><ele>454.84999999999997</ele><time>2023-07-02T03:44:21Z</time></trkpt><trkpt lat="35.9341141" lon="138.9457331"><ele>452.2366666666667</ele><time>2023-07-02T03:47:09Z</time></trkpt><trkpt lat="35.9342864" lon="138.9458348"><ele>449.68666666666667</ele><time>2023-07-02T03:47:19Z</time></trkpt><trkpt lat="35.934463" lon="138.9458942"><ele>439.45666666666665</ele><time>2023-07-02T03:47:42Z</time></trkpt><trkpt lat="35.9345693" lon="138.9460787"><ele>433.65333333333336</ele><time>2023-07-02T03:47:54Z</time></trkpt><trkpt lat="35.934748" lon="138.946135"><ele>427.80999999999995</ele><time>2023-07-02T03:48:05Z</time></trkpt><trkpt lat="35.9349252" lon="138.9460705"><ele>424.50333333333333</ele><time>2023-07-02T03:48:17Z</time></trkpt><trkpt lat="35.9351051" lon="138.9461374"><ele>416.80999999999995</ele><time>2023-07-02T03:48:29Z</time></trkpt><trkpt lat="35.9352961" lon="138.9461388"><ele>412.51666666666665</ele><time>2023-07-02T03:48:51Z</time></trkpt><trkpt lat="35.9353695" lon="138.9463489"><ele>413.75666666666666</ele><time>2023-07-02T03:49:34Z</time></trkpt><trkpt lat="35.9354923" lon="138.9465214"><ele>414.89000000000004</ele><time>2023-07-02T03:50:23Z</time></trkpt><trkpt lat="35.9355816" lon="138.9467247"><ele>417.49666666666667</ele><time>2023-07-02T03:50:40Z</time></trkpt><trkpt lat="35.9356511" lon="138.9469297"><ele>419.29333333333335</ele><time>2023-07-02T03:50:50Z</time></trkpt><trkpt lat="35.9358253" lon="138.9470605"><ele>420.1666666666667</ele><time>2023-07-02T03:51:01Z</time></trkpt><trkpt lat="35.9358785" lon="138.9473103"><ele>419.18666666666667</ele><time>2023-07-02T03:51:18Z</time></trkpt><trkpt lat="35.9359654" lon="138.9475109"><ele>414.55999999999995</ele><time>2023-07-02T03:51:33Z</time></trkpt><trkpt lat="35.9361172" lon="138.9476317"><ele>406.23333333333335</ele><time>2023-07-02T03:51:41Z</time></trkpt><trkpt lat="35.9361577" lon="138.9478595"><ele>399.86999999999995</ele><time>2023-07-02T03:51:56Z</time></trkpt><trkpt lat="35.9362478" lon="138.948055"><ele>392.7366666666667</ele><time>2023-07-02T03:52:09Z</time></trkpt><trkpt lat="35.9362233" lon="138.9482929"><ele>392.08</ele><time>2023-07-02T03:52:21Z</time></trkpt><trkpt lat="35.9362805" lon="138.9485106"><ele>387.8933333333334</ele><time>2023-07-02T03:52:38Z</time></trkpt><trkpt lat="35.9362936" lon="138.948746"><ele>386.88000000000005</ele><time>2023-07-02T03:52:52Z</time></trkpt><trkpt lat="35.9362392" lon="138.9489589"><ele>387.40333333333336</ele><time>2023-07-02T03:53:08Z</time></trkpt><trkpt lat="35.9362613" lon="138.9491809"><ele>388.8633333333334</ele><time>2023-07-02T03:53:26Z</time></trkpt><trkpt lat="35.9362577" lon="138.9494313"><ele>386.1933333333334</ele><time>2023-07-02T03:53:44Z</time></trkpt><trkpt lat="35.9363515" lon="138.9496445"><ele>376.9633333333333</ele><time>2023-07-02T03:53:53Z</time></trkpt><trkpt lat="35.9365175" lon="138.9497383"><ele>366.36999999999995</ele><time>2023-07-02T03:54:25Z</time></trkpt><trkpt lat="35.9367028" lon="138.949697"><ele>360.49</ele><time>2023-07-02T03:54:40Z</time></trkpt><trkpt lat="35.9368855" lon="138.9497476"><ele>362.35999999999996</ele><time>2023-07-02T03:54:57Z</time></trkpt><trkpt lat="35.9369983" lon="138.9499226"><ele>367.91333333333336</ele><time>2023-07-02T03:55:13Z</time></trkpt><trkpt lat="35.9371414" lon="138.950058"><ele>372.3766666666667</ele><time>2023-07-02T03:55:28Z</time></trkpt><trkpt lat="35.937199" lon="138.9502708"><ele>373.6666666666667</ele><time>2023-07-02T03:55:48Z</time></trkpt><trkpt lat="35.9373414" lon="138.950415"><ele>375.05</ele><time>2023-07-02T03:56:05Z</time></trkpt><trkpt lat="35.9373966" lon="138.9506341"><ele>375.6666666666667</ele><time>2023-07-02T03:56:19Z</time></trkpt></trkseg></trk></gpx>