<?xml version='1.0' encoding='UTF-8'?><gpx creator="YAMAP - https://yamap.com" xsi:schemaLocation="http://www.topografix.com/GPX/1/1 http://www.topografix.com/GPX/1/1/gpx.xsd" version="1.1" xmlns="http://www.topografix.com/GPX/1/1" xmlns:xsi="http://www.w3.org/2001/XMLSchema-instance"><metadata><bounds maxlat="35.8090116" maxlon="139.1833432" minlat="35.7647565" minlon="139.0965691"/></metadata><trk><name>愛宕山・鋸山・オキノ中岩山・中岩山・大岳山・鍋割山・奥の院峰・御岳山</name><number>1</number><trkseg><trkpt lat="35.8090116" lon="139.0965897"><ele>341.89</ele><time>2023-04-08T22:27:55Z</time></trkpt><trkpt lat="35.808722" lon="139.0965691"><ele>341.77</ele><time>2023-04-08T22:28:11Z</time></trkpt><trkpt lat="35.8086174" lon="139.0967587"><ele>341.9633333333333</ele><time>2023-04-08T22:28:23Z</time></trkpt><trkpt lat="35.8085171" lon="139.0970018"><ele>342.5133333333333</ele><time>2023-04-08T22:28:37Z</time></trkpt><trkpt lat="35.8083377" lon="139.0970602"><ele>343.08666666666676</ele><time>2023-04-08T22:28:49Z</time></trkpt><trkpt lat="35.8082365" lon="139.0972706"><ele>343.3500000000001</ele><time>2023-04-08T22:29:04Z</time></trkpt><trkpt lat="35.8083652" lon="139.0974303"><ele>343.5733333333333</ele><time>2023-04-08T22:29:18Z</time></trkpt><trkpt lat="35.808166" lon="139.0974643"><ele>343.28999999999996</ele><time>2023-04-08T22:29:30Z</time></trkpt><trkpt lat="35.8080006" lon="139.0975619"><ele>342.6566666666667</ele><time>2023-04-08T22:29:41Z</time></trkpt><trkpt lat="35.8078036" lon="139.0976924"><ele>339.3333333333333</ele><time>2023-04-08T22:29:55Z</time></trkpt><trkpt lat="35.8076267" lon="139.0977639"><ele>329.9766666666667</ele><time>2023-04-08T22:30:07Z</time></trkpt><trkpt lat="35.8074609" lon="139.0978815"><ele>318.79333333333335</ele><time>2023-04-08T22:30:25Z</time></trkpt><trkpt lat="35.807366" lon="139.0980725"><ele>310.44666666666666</ele><time>2023-04-08T22:30:34Z</time></trkpt><trkpt lat="35.8072442" lon="139.0982367"><ele>310.2366666666667</ele><time>2023-04-08T22:30:45Z</time></trkpt><trkpt lat="35.8070732" lon="139.098333"><ele>318.79333333333335</ele><time>2023-04-08T22:30:55Z</time></trkpt><trkpt lat="35.8068981" lon="139.0982523"><ele>327.88000000000005</ele><time>2023-04-08T22:31:48Z</time></trkpt><trkpt lat="35.8067448" lon="139.098377"><ele>335.9433333333333</ele><time>2023-04-08T22:31:57Z</time></trkpt><trkpt lat="35.8066179" lon="139.098218"><ele>339.9533333333333</ele><time>2023-04-08T22:32:26Z</time></trkpt><trkpt lat="35.8065507" lon="139.0980025"><ele>348.45</ele><time>2023-04-08T22:32:58Z</time></trkpt><trkpt lat="35.8065884" lon="139.0977827"><ele>359.1933333333333</ele><time>2023-04-08T22:33:10Z</time></trkpt><trkpt lat="35.8064301" lon="139.097889"><ele>369.8866666666667</ele><time>2023-04-08T22:35:01Z</time></trkpt><trkpt lat="35.8062584" lon="139.097821"><ele>378.8733333333334</ele><time>2023-04-08T22:36:02Z</time></trkpt><trkpt lat="35.8060793" lon="139.0978559"><ele>388.3300000000001</ele><time>2023-04-08T22:36:27Z</time></trkpt><trkpt lat="35.8058967" lon="139.0978112"><ele>399.5733333333333</ele><time>2023-04-08T22:36:49Z</time></trkpt><trkpt lat="35.8057275" lon="139.0977265"><ele>407.9266666666667</ele><time>2023-04-08T22:37:16Z</time></trkpt><trkpt lat="35.8055609" lon="139.097639"><ele>414.47</ele><time>2023-04-08T22:38:12Z</time></trkpt><trkpt lat="35.8053813" lon="139.0975858"><ele>417.6666666666667</ele><time>2023-04-08T22:39:17Z</time></trkpt><trkpt lat="35.8052074" lon="139.0975177"><ele>422.1033333333333</ele><time>2023-04-08T22:39:55Z</time></trkpt><trkpt lat="35.8050319" lon="139.0974556"><ele>427.4066666666667</ele><time>2023-04-08T22:40:26Z</time></trkpt><trkpt lat="35.804854" lon="139.0974183"><ele>437.1466666666667</ele><time>2023-04-08T22:41:33Z</time></trkpt><trkpt lat="35.8047971" lon="139.0972078"><ele>448.31</ele><time>2023-04-08T22:44:40Z</time></trkpt><trkpt lat="35.8046373" lon="139.0971049"><ele>463.2033333333333</ele><time>2023-04-08T22:45:28Z</time></trkpt><trkpt lat="35.8044679" lon="139.0971866"><ele>475.7133333333333</ele><time>2023-04-08T22:46:49Z</time></trkpt><trkpt lat="35.8043094" lon="139.0973161"><ele>485.96000000000004</ele><time>2023-04-08T22:47:31Z</time></trkpt><trkpt lat="35.804123" lon="139.0973502"><ele>491.6266666666666</ele><time>2023-04-08T22:48:36Z</time></trkpt><trkpt lat="35.8039752" lon="139.0974802"><ele>490.5566666666666</ele><time>2023-04-08T22:49:03Z</time></trkpt><trkpt lat="35.80381" lon="139.0975749"><ele>486.9866666666667</ele><time>2023-04-08T22:49:59Z</time></trkpt><trkpt lat="35.8036429" lon="139.0976661"><ele>480.24</ele><time>2023-04-08T22:50:27Z</time></trkpt><trkpt lat="35.8034628" lon="139.0977355"><ele>476.3433333333334</ele><time>2023-04-08T22:50:40Z</time></trkpt><trkpt lat="35.8032868" lon="139.0977994"><ele>473.77333333333337</ele><time>2023-04-08T22:50:56Z</time></trkpt><trkpt lat="35.8031543" lon="139.0979776"><ele>473.31666666666666</ele><time>2023-04-08T22:51:16Z</time></trkpt><trkpt lat="35.8030252" lon="139.0981442"><ele>474.94000000000005</ele><time>2023-04-08T22:51:35Z</time></trkpt><trkpt lat="35.8028687" lon="139.0982581"><ele>477.43</ele><time>2023-04-08T22:51:50Z</time></trkpt><trkpt lat="35.8027072" lon="139.0983899"><ele>480.91333333333336</ele><time>2023-04-08T22:52:08Z</time></trkpt><trkpt lat="35.8025275" lon="139.0984354"><ele>484.15000000000003</ele><time>2023-04-08T22:52:49Z</time></trkpt><trkpt lat="35.8023441" lon="139.0984501"><ele>487.8933333333334</ele><time>2023-04-08T22:53:03Z</time></trkpt><trkpt lat="35.8021543" lon="139.0984436"><ele>490.79333333333335</ele><time>2023-04-08T22:53:22Z</time></trkpt><trkpt lat="35.8019959" lon="139.0985689"><ele>493.6966666666667</ele><time>2023-04-08T22:53:48Z</time></trkpt><trkpt lat="35.8018303" lon="139.0984741"><ele>495.7733333333333</ele><time>2023-04-08T22:54:00Z</time></trkpt><trkpt lat="35.8016533" lon="139.0985246"><ele>499.6566666666667</ele><time>2023-04-08T22:54:25Z</time></trkpt><trkpt lat="35.8014805" lon="139.0985946"><ele>503.48333333333335</ele><time>2023-04-08T22:55:42Z</time></trkpt><trkpt lat="35.8012971" lon="139.0985421"><ele>511.60999999999996</ele><time>2023-04-08T22:56:47Z</time></trkpt><trkpt lat="35.8011188" lon="139.0984963"><ele>519.7666666666667</ele><time>2023-04-08T22:57:28Z</time></trkpt><trkpt lat="35.800929" lon="139.0984771"><ele>529.5633333333333</ele><time>2023-04-08T22:58:09Z</time></trkpt><trkpt lat="35.8007505" lon="139.0985101"><ele>534.3033333333333</ele><time>2023-04-08T22:58:27Z</time></trkpt><trkpt lat="35.8006321" lon="139.0983415"><ele>539.0600000000001</ele><time>2023-04-08T22:58:48Z</time></trkpt><trkpt lat="35.8004183" lon="139.0983184"><ele>543.7566666666667</ele><time>2023-04-08T22:58:58Z</time></trkpt><trkpt lat="35.800236" lon="139.0983363"><ele>551.0733333333334</ele><time>2023-04-08T23:00:47Z</time></trkpt><trkpt lat="35.800056" lon="139.0983894"><ele>559.18</ele><time>2023-04-08T23:01:22Z</time></trkpt><trkpt lat="35.7998928" lon="139.0985166"><ele>566.2800000000001</ele><time>2023-04-08T23:01:59Z</time></trkpt><trkpt lat="35.7997616" lon="139.0986741"><ele>572.2066666666666</ele><time>2023-04-08T23:02:23Z</time></trkpt><trkpt lat="35.7996201" lon="139.0988138"><ele>577.2166666666667</ele><time>2023-04-08T23:03:41Z</time></trkpt><trkpt lat="35.7994765" lon="139.0989515"><ele>583.5533333333334</ele><time>2023-04-08T23:04:12Z</time></trkpt><trkpt lat="35.7994187" lon="139.0991628"><ele>589.9233333333333</ele><time>2023-04-08T23:04:49Z</time></trkpt><trkpt lat="35.7992868" lon="139.0993155"><ele>595.9633333333334</ele><time>2023-04-08T23:05:25Z</time></trkpt><trkpt lat="35.7991104" lon="139.0992315"><ele>602.0766666666667</ele><time>2023-04-08T23:07:05Z</time></trkpt><trkpt lat="35.7989455" lon="139.0993324"><ele>610.4566666666666</ele><time>2023-04-08T23:08:01Z</time></trkpt><trkpt lat="35.798978" lon="139.0991142"><ele>616.2533333333332</ele><time>2023-04-08T23:09:29Z</time></trkpt><trkpt lat="35.7988484" lon="139.0989394"><ele>623.8533333333334</ele><time>2023-04-08T23:10:17Z</time></trkpt><trkpt lat="35.7986647" lon="139.098981"><ele>631.9766666666667</ele><time>2023-04-08T23:10:56Z</time></trkpt><trkpt lat="35.7985406" lon="139.0988114"><ele>642.2933333333334</ele><time>2023-04-08T23:12:23Z</time></trkpt><trkpt lat="35.7983833" lon="139.0987032"><ele>651.6533333333333</ele><time>2023-04-08T23:13:03Z</time></trkpt><trkpt lat="35.7981963" lon="139.0987026"><ele>658.0600000000001</ele><time>2023-04-08T23:13:54Z</time></trkpt><trkpt lat="35.7980143" lon="139.0986533"><ele>664.7600000000001</ele><time>2023-04-08T23:14:19Z</time></trkpt><trkpt lat="35.7978653" lon="139.0985038"><ele>668.9200000000001</ele><time>2023-04-08T23:15:03Z</time></trkpt><trkpt lat="35.7976855" lon="139.0984614"><ele>673.8066666666667</ele><time>2023-04-08T23:15:25Z</time></trkpt><trkpt lat="35.7975258" lon="139.0983579"><ele>678.6266666666667</ele><time>2023-04-08T23:15:58Z</time></trkpt><trkpt lat="35.7973494" lon="139.0984036"><ele>683.75</ele><time>2023-04-08T23:16:25Z</time></trkpt><trkpt lat="35.7971633" lon="139.098402"><ele>688.8433333333334</ele><time>2023-04-08T23:16:37Z</time></trkpt><trkpt lat="35.7970034" lon="139.0982887"><ele>693.3800000000001</ele><time>2023-04-08T23:18:22Z</time></trkpt><trkpt lat="35.7968168" lon="139.0982861"><ele>699.09</ele><time>2023-04-08T23:18:37Z</time></trkpt><trkpt lat="35.7968688" lon="139.0985017"><ele>703.27</ele><time>2023-04-08T23:19:29Z</time></trkpt><trkpt lat="35.7966946" lon="139.0985706"><ele>710.2199999999999</ele><time>2023-04-08T23:21:19Z</time></trkpt><trkpt lat="35.7964955" lon="139.0985794"><ele>715.6700000000001</ele><time>2023-04-08T23:21:48Z</time></trkpt><trkpt lat="35.7963633" lon="139.0987378"><ele>720.6133333333333</ele><time>2023-04-08T23:22:06Z</time></trkpt><trkpt lat="35.796183" lon="139.0987564"><ele>722.4966666666666</ele><time>2023-04-08T23:22:40Z</time></trkpt><trkpt lat="35.7961018" lon="139.0989559"><ele>720.9633333333333</ele><time>2023-04-08T23:23:01Z</time></trkpt><trkpt lat="35.7959201" lon="139.0988804"><ele>724.18</ele><time>2023-04-08T23:23:17Z</time></trkpt><trkpt lat="35.7957362" lon="139.0988274"><ele>722.1566666666666</ele><time>2023-04-08T23:24:03Z</time></trkpt><trkpt lat="35.7956422" lon="139.0990167"><ele>724.4166666666666</ele><time>2023-04-08T23:26:48Z</time></trkpt><trkpt lat="35.7954607" lon="139.0990427"><ele>721.3133333333334</ele><time>2023-04-08T23:28:01Z</time></trkpt><trkpt lat="35.7952893" lon="139.0989692"><ele>722.75</ele><time>2023-04-08T23:29:05Z</time></trkpt><trkpt lat="35.7951554" lon="139.0991188"><ele>726.0166666666668</ele><time>2023-04-08T23:30:36Z</time></trkpt><trkpt lat="35.7950357" lon="139.0992854"><ele>732.1266666666667</ele><time>2023-04-08T23:32:43Z</time></trkpt><trkpt lat="35.7948556" lon="139.0993143"><ele>738.4200000000001</ele><time>2023-04-08T23:33:14Z</time></trkpt><trkpt lat="35.7946713" lon="139.0993552"><ele>741.0933333333332</ele><time>2023-04-08T23:34:22Z</time></trkpt><trkpt lat="35.7945148" lon="139.0994674"><ele>742.8100000000001</ele><time>2023-04-08T23:34:52Z</time></trkpt><trkpt lat="35.7944082" lon="139.0996465"><ele>746.91</ele><time>2023-04-08T23:36:46Z</time></trkpt><trkpt lat="35.7942401" lon="139.0997327"><ele>754.0266666666666</ele><time>2023-04-08T23:37:52Z</time></trkpt><trkpt lat="35.7941525" lon="139.0999367"><ele>762.8433333333332</ele><time>2023-04-08T23:39:30Z</time></trkpt><trkpt lat="35.7940125" lon="139.1000973"><ele>770.9266666666666</ele><time>2023-04-08T23:39:52Z</time></trkpt><trkpt lat="35.7938529" lon="139.1002057"><ele>774.5133333333333</ele><time>2023-04-08T23:40:08Z</time></trkpt><trkpt lat="35.7936702" lon="139.1002593"><ele>774.87</ele><time>2023-04-08T23:40:42Z</time></trkpt><trkpt lat="35.7934871" lon="139.1003243"><ele>772.96</ele><time>2023-04-08T23:40:57Z</time></trkpt><trkpt lat="35.7933659" lon="139.100148"><ele>769.8000000000001</ele><time>2023-04-08T23:41:17Z</time></trkpt><trkpt lat="35.7932185" lon="139.1002761"><ele>767.5933333333332</ele><time>2023-04-08T23:41:25Z</time></trkpt><trkpt lat="35.7931203" lon="139.1004666"><ele>768.02</ele><time>2023-04-08T23:41:38Z</time></trkpt><trkpt lat="35.7929869" lon="139.1006209"><ele>772.7666666666668</ele><time>2023-04-08T23:41:55Z</time></trkpt><trkpt lat="35.7928478" lon="139.1007684"><ele>778.6199999999999</ele><time>2023-04-08T23:42:46Z</time></trkpt><trkpt lat="35.7926693" lon="139.1008084"><ele>785.4766666666668</ele><time>2023-04-08T23:43:37Z</time></trkpt><trkpt lat="35.7925762" lon="139.1010015"><ele>794.39</ele><time>2023-04-08T23:44:23Z</time></trkpt><trkpt lat="35.7924974" lon="139.1012019"><ele>804.2966666666666</ele><time>2023-04-08T23:45:02Z</time></trkpt><trkpt lat="35.7924956" lon="139.1014253"><ele>812.5600000000001</ele><time>2023-04-08T23:47:02Z</time></trkpt><trkpt lat="35.7923729" lon="139.1015899"><ele>818.3233333333334</ele><time>2023-04-08T23:47:24Z</time></trkpt><trkpt lat="35.7921996" lon="139.1016558"><ele>822.3033333333333</ele><time>2023-04-08T23:47:40Z</time></trkpt><trkpt lat="35.7920187" lon="139.1016654"><ele>825.25</ele><time>2023-04-08T23:47:52Z</time></trkpt><trkpt lat="35.7918404" lon="139.1017377"><ele>825.57</ele><time>2023-04-08T23:48:05Z</time></trkpt><trkpt lat="35.7916539" lon="139.1017437"><ele>824.6933333333333</ele><time>2023-04-08T23:48:17Z</time></trkpt><trkpt lat="35.7915299" lon="139.1019202"><ele>821.7033333333334</ele><time>2023-04-08T23:48:37Z</time></trkpt><trkpt lat="35.7913576" lon="139.1020019"><ele>818.94</ele><time>2023-04-08T23:49:24Z</time></trkpt><trkpt lat="35.7912029" lon="139.1021283"><ele>815.5466666666667</ele><time>2023-04-08T23:49:34Z</time></trkpt><trkpt lat="35.7910675" lon="139.1022755"><ele>814.0866666666667</ele><time>2023-04-08T23:49:53Z</time></trkpt><trkpt lat="35.7908982" lon="139.1023555"><ele>815.3366666666667</ele><time>2023-04-08T23:50:22Z</time></trkpt><trkpt lat="35.7907281" lon="139.1024422"><ele>819.4900000000001</ele><time>2023-04-08T23:50:55Z</time></trkpt><trkpt lat="35.7905611" lon="139.1025406"><ele>824.6033333333334</ele><time>2023-04-08T23:51:21Z</time></trkpt><trkpt lat="35.7903824" lon="139.102575"><ele>829.8366666666667</ele><time>2023-04-08T23:51:50Z</time></trkpt><trkpt lat="35.7902048" lon="139.1025121"><ele>834.6300000000001</ele><time>2023-04-08T23:52:56Z</time></trkpt><trkpt lat="35.790022" lon="139.1025274"><ele>839.5933333333332</ele><time>2023-04-08T23:53:31Z</time></trkpt><trkpt lat="35.7898338" lon="139.102512"><ele>844.1633333333333</ele><time>2023-04-08T23:53:58Z</time></trkpt><trkpt lat="35.7896497" lon="139.1025192"><ele>848.8333333333334</ele><time>2023-04-08T23:54:16Z</time></trkpt><trkpt lat="35.7894778" lon="139.1026062"><ele>853.4266666666667</ele><time>2023-04-08T23:54:34Z</time></trkpt><trkpt lat="35.7893135" lon="139.1027093"><ele>857.7200000000001</ele><time>2023-04-08T23:55:15Z</time></trkpt><trkpt lat="35.7891228" lon="139.1027378"><ele>862.4900000000001</ele><time>2023-04-08T23:56:37Z</time></trkpt><trkpt lat="35.7889581" lon="139.1028309"><ele>867.23</ele><time>2023-04-08T23:56:56Z</time></trkpt><trkpt lat="35.7887846" lon="139.1029173"><ele>871.91</ele><time>2023-04-08T23:57:22Z</time></trkpt><trkpt lat="35.7885942" lon="139.1029155"><ele>875.3233333333334</ele><time>2023-04-08T23:57:43Z</time></trkpt><trkpt lat="35.788415" lon="139.1028754"><ele>879.3633333333332</ele><time>2023-04-08T23:58:17Z</time></trkpt><trkpt lat="35.7883381" lon="139.102675"><ele>884.65</ele><time>2023-04-08T23:59:06Z</time></trkpt><trkpt lat="35.7881488" lon="139.102678"><ele>890.4666666666667</ele><time>2023-04-08T23:59:34Z</time></trkpt><trkpt lat="35.7880438" lon="139.1024865"><ele>896.0033333333334</ele><time>2023-04-08T23:59:57Z</time></trkpt><trkpt lat="35.7878617" lon="139.1025219"><ele>901.2533333333334</ele><time>2023-04-09T00:00:55Z</time></trkpt><trkpt lat="35.7876814" lon="139.1025731"><ele>906.4766666666666</ele><time>2023-04-09T00:01:39Z</time></trkpt><trkpt lat="35.7875003" lon="139.1025725"><ele>912.7299999999999</ele><time>2023-04-09T00:02:03Z</time></trkpt><trkpt lat="35.7873114" lon="139.1025564"><ele>918.2866666666665</ele><time>2023-04-09T00:02:26Z</time></trkpt><trkpt lat="35.7871294" lon="139.102562"><ele>923.1533333333333</ele><time>2023-04-09T00:02:44Z</time></trkpt><trkpt lat="35.7869488" lon="139.1026382"><ele>926.29</ele><time>2023-04-09T00:03:21Z</time></trkpt><trkpt lat="35.7867706" lon="139.1025893"><ele>929.6633333333334</ele><time>2023-04-09T00:03:47Z</time></trkpt><trkpt lat="35.7865933" lon="139.1025422"><ele>933.9533333333334</ele><time>2023-04-09T00:04:15Z</time></trkpt><trkpt lat="35.7864108" lon="139.1025882"><ele>937.8100000000001</ele><time>2023-04-09T00:04:39Z</time></trkpt><trkpt lat="35.7862274" lon="139.1026209"><ele>940.44</ele><time>2023-04-09T00:04:54Z</time></trkpt><trkpt lat="35.7860412" lon="139.1026534"><ele>940.9833333333332</ele><time>2023-04-09T00:05:14Z</time></trkpt><trkpt lat="35.7858621" lon="139.1027224"><ele>938.8933333333334</ele><time>2023-04-09T00:05:32Z</time></trkpt><trkpt lat="35.785695" lon="139.1028063"><ele>937.7066666666666</ele><time>2023-04-09T00:06:13Z</time></trkpt><trkpt lat="35.785526" lon="139.1028919"><ele>938.5533333333333</ele><time>2023-04-09T00:06:53Z</time></trkpt><trkpt lat="35.7853575" lon="139.1029748"><ele>944.58</ele><time>2023-04-09T00:07:34Z</time></trkpt><trkpt lat="35.7851791" lon="139.1030292"><ele>951.2600000000001</ele><time>2023-04-09T00:08:47Z</time></trkpt><trkpt lat="35.7850815" lon="139.1032179"><ele>961.89</ele><time>2023-04-09T00:09:53Z</time></trkpt><trkpt lat="35.7849278" lon="139.103335"><ele>974.62</ele><time>2023-04-09T00:11:41Z</time></trkpt><trkpt lat="35.7847751" lon="139.1034613"><ele>988.5666666666666</ele><time>2023-04-09T00:12:42Z</time></trkpt><trkpt lat="35.7846035" lon="139.1035325"><ele>1000.4866666666667</ele><time>2023-04-09T00:13:19Z</time></trkpt><trkpt lat="35.7844266" lon="139.1035818"><ele>1008.21</ele><time>2023-04-09T00:13:58Z</time></trkpt><trkpt lat="35.7842457" lon="139.1035418"><ele>1012.9466666666667</ele><time>2023-04-09T00:14:54Z</time></trkpt><trkpt lat="35.7841251" lon="139.1037141"><ele>1016.4766666666668</ele><time>2023-04-09T00:15:07Z</time></trkpt><trkpt lat="35.7839913" lon="139.1038737"><ele>1019.1833333333334</ele><time>2023-04-09T00:15:22Z</time></trkpt><trkpt lat="35.7838483" lon="139.1040185"><ele>1020.4699999999999</ele><time>2023-04-09T00:15:43Z</time></trkpt><trkpt lat="35.7836653" lon="139.1039844"><ele>1021.0733333333334</ele><time>2023-04-09T00:15:54Z</time></trkpt><trkpt lat="35.7834963" lon="139.1040709"><ele>1021.96</ele><time>2023-04-09T00:16:11Z</time></trkpt><trkpt lat="35.7834092" lon="139.1042658"><ele>1028.7166666666667</ele><time>2023-04-09T00:18:12Z</time></trkpt><trkpt lat="35.7832503" lon="139.104381"><ele>1034.9433333333334</ele><time>2023-04-09T00:19:00Z</time></trkpt><trkpt lat="35.7831049" lon="139.1045145"><ele>1040.8166666666666</ele><time>2023-04-09T00:19:13Z</time></trkpt><trkpt lat="35.7829197" lon="139.1045654"><ele>1042.9733333333334</ele><time>2023-04-09T00:19:31Z</time></trkpt><trkpt lat="35.7827366" lon="139.1045448"><ele>1045.8566666666666</ele><time>2023-04-09T00:19:59Z</time></trkpt><trkpt lat="35.7825655" lon="139.1046224"><ele>1050.7566666666664</ele><time>2023-04-09T00:20:40Z</time></trkpt><trkpt lat="35.7824005" lon="139.1047342"><ele>1057.4033333333334</ele><time>2023-04-09T00:21:38Z</time></trkpt><trkpt lat="35.7822152" lon="139.1047773"><ele>1064.5366666666666</ele><time>2023-04-09T00:21:58Z</time></trkpt><trkpt lat="35.7820421" lon="139.1048684"><ele>1069.7733333333333</ele><time>2023-04-09T00:22:14Z</time></trkpt><trkpt lat="35.7818817" lon="139.1049709"><ele>1073.6866666666667</ele><time>2023-04-09T00:22:44Z</time></trkpt><trkpt lat="35.7817115" lon="139.1050746"><ele>1076.5666666666666</ele><time>2023-04-09T00:23:25Z</time></trkpt><trkpt lat="35.7815593" lon="139.1051961"><ele>1080.3033333333333</ele><time>2023-04-09T00:23:55Z</time></trkpt><trkpt lat="35.7813767" lon="139.1051904"><ele>1083.18</ele><time>2023-04-09T00:24:34Z</time></trkpt><trkpt lat="35.78121" lon="139.1052962"><ele>1086.3333333333333</ele><time>2023-04-09T00:24:51Z</time></trkpt><trkpt lat="35.7810295" lon="139.1053324"><ele>1088.88</ele><time>2023-04-09T00:25:03Z</time></trkpt><trkpt lat="35.7808685" lon="139.1054373"><ele>1091.49</ele><time>2023-04-09T00:25:19Z</time></trkpt><trkpt lat="35.7806985" lon="139.1055276"><ele>1091.8766666666668</ele><time>2023-04-09T00:25:56Z</time></trkpt><trkpt lat="35.7805267" lon="139.1055947"><ele>1090.3633333333335</ele><time>2023-04-09T00:26:33Z</time></trkpt><trkpt lat="35.7803426" lon="139.1055806"><ele>1086.5133333333333</ele><time>2023-04-09T00:26:48Z</time></trkpt><trkpt lat="35.7801713" lon="139.1055038"><ele>1083.5966666666666</ele><time>2023-04-09T00:28:07Z</time></trkpt><trkpt lat="35.779986" lon="139.1055282"><ele>1081.0733333333333</ele><time>2023-04-09T00:28:27Z</time></trkpt><trkpt lat="35.779796" lon="139.1055591"><ele>1081.2933333333333</ele><time>2023-04-09T00:29:06Z</time></trkpt><trkpt lat="35.7796157" lon="139.1056016"><ele>1082.5266666666666</ele><time>2023-04-09T00:30:11Z</time></trkpt><trkpt lat="35.7794854" lon="139.1057552"><ele>1088.2166666666665</ele><time>2023-04-09T00:31:33Z</time></trkpt><trkpt lat="35.7793217" lon="139.1058535"><ele>1095.46</ele><time>2023-04-09T00:32:09Z</time></trkpt><trkpt lat="35.7791481" lon="139.1059257"><ele>1102.32</ele><time>2023-04-09T00:37:20Z</time></trkpt><trkpt lat="35.7789629" lon="139.1059552"><ele>1103.92</ele><time>2023-04-09T00:37:34Z</time></trkpt><trkpt lat="35.7788996" lon="139.1061639"><ele>1102.47</ele><time>2023-04-09T00:37:57Z</time></trkpt><trkpt lat="35.7787405" lon="139.1062747"><ele>1098.5200000000002</ele><time>2023-04-09T00:38:13Z</time></trkpt><trkpt lat="35.7785816" lon="139.1063794"><ele>1093.3266666666666</ele><time>2023-04-09T00:38:58Z</time></trkpt><trkpt lat="35.7784032" lon="139.1064319"><ele>1082.5433333333333</ele><time>2023-04-09T00:39:35Z</time></trkpt><trkpt lat="35.7782286" lon="139.1064915"><ele>1071.9466666666667</ele><time>2023-04-09T00:40:47Z</time></trkpt><trkpt lat="35.7780671" lon="139.1066077"><ele>1062.7633333333333</ele><time>2023-04-09T00:41:09Z</time></trkpt><trkpt lat="35.7779572" lon="139.1067862"><ele>1057.6166666666668</ele><time>2023-04-09T00:41:30Z</time></trkpt><trkpt lat="35.777823" lon="139.1069433"><ele>1050.1233333333332</ele><time>2023-04-09T00:42:43Z</time></trkpt><trkpt lat="35.7776566" lon="139.1070525"><ele>1041.5433333333333</ele><time>2023-04-09T00:42:59Z</time></trkpt><trkpt lat="35.7775228" lon="139.1072034"><ele>1034.5966666666666</ele><time>2023-04-09T00:43:16Z</time></trkpt><trkpt lat="35.7773695" lon="139.1073207"><ele>1033.0333333333335</ele><time>2023-04-09T00:43:31Z</time></trkpt><trkpt lat="35.7771888" lon="139.1073211"><ele>1033.8333333333333</ele><time>2023-04-09T00:43:54Z</time></trkpt><trkpt lat="35.7771434" lon="139.1075372"><ele>1037.4</ele><time>2023-04-09T00:44:11Z</time></trkpt><trkpt lat="35.7770455" lon="139.107727"><ele>1040.5233333333333</ele><time>2023-04-09T00:44:27Z</time></trkpt><trkpt lat="35.7768739" lon="139.10782"><ele>1044.7966666666669</ele><time>2023-04-09T00:44:49Z</time></trkpt><trkpt lat="35.7767713" lon="139.1080076"><ele>1047.39</ele><time>2023-04-09T00:45:31Z</time></trkpt><trkpt lat="35.776619" lon="139.1081291"><ele>1050.0766666666666</ele><time>2023-04-09T00:46:15Z</time></trkpt><trkpt lat="35.7766511" lon="139.1083583"><ele>1053.0666666666666</ele><time>2023-04-09T00:46:50Z</time></trkpt><trkpt lat="35.7766067" lon="139.1085735"><ele>1056.3166666666666</ele><time>2023-04-09T00:47:28Z</time></trkpt><trkpt lat="35.7764704" lon="139.1087412"><ele>1058.8400000000001</ele><time>2023-04-09T00:47:46Z</time></trkpt><trkpt lat="35.7763643" lon="139.1089322"><ele>1060.1466666666665</ele><time>2023-04-09T00:48:02Z</time></trkpt><trkpt lat="35.7762468" lon="139.1091026"><ele>1060.8933333333332</ele><time>2023-04-09T00:48:16Z</time></trkpt><trkpt lat="35.7762074" lon="139.1093302"><ele>1060.1266666666668</ele><time>2023-04-09T00:48:29Z</time></trkpt><trkpt lat="35.7760269" lon="139.1094059"><ele>1060.8799999999999</ele><time>2023-04-09T00:48:40Z</time></trkpt><trkpt lat="35.7758873" lon="139.1095527"><ele>1061.76</ele><time>2023-04-09T00:49:01Z</time></trkpt><trkpt lat="35.7758061" lon="139.1097516"><ele>1063.2033333333331</ele><time>2023-04-09T00:49:19Z</time></trkpt><trkpt lat="35.7756527" lon="139.1098791"><ele>1063.89</ele><time>2023-04-09T00:49:40Z</time></trkpt><trkpt lat="35.7756046" lon="139.1101049"><ele>1064.1699999999998</ele><time>2023-04-09T00:49:56Z</time></trkpt><trkpt lat="35.7755339" lon="139.1103151"><ele>1065.5366666666669</ele><time>2023-04-09T00:50:07Z</time></trkpt><trkpt lat="35.7754301" lon="139.110496"><ele>1066.3866666666665</ele><time>2023-04-09T00:50:16Z</time></trkpt><trkpt lat="35.7753675" lon="139.1107061"><ele>1068.1866666666667</ele><time>2023-04-09T00:50:38Z</time></trkpt><trkpt lat="35.775243" lon="139.1108706"><ele>1070.91</ele><time>2023-04-09T00:51:06Z</time></trkpt><trkpt lat="35.7751911" lon="139.1111444"><ele>1075.45</ele><time>2023-04-09T00:52:00Z</time></trkpt><trkpt lat="35.7751301" lon="139.1113548"><ele>1079.9266666666665</ele><time>2023-04-09T00:52:14Z</time></trkpt><trkpt lat="35.7750975" lon="139.1115789"><ele>1084.2566666666664</ele><time>2023-04-09T00:52:54Z</time></trkpt><trkpt lat="35.7749463" lon="139.1117119"><ele>1088.6366666666665</ele><time>2023-04-09T00:54:15Z</time></trkpt><trkpt lat="35.7748637" lon="139.1119143"><ele>1094.0533333333333</ele><time>2023-04-09T00:54:38Z</time></trkpt><trkpt lat="35.774756" lon="139.1121059"><ele>1097.4433333333334</ele><time>2023-04-09T00:55:02Z</time></trkpt><trkpt lat="35.774637" lon="139.1122752"><ele>1097.18</ele><time>2023-04-09T00:55:21Z</time></trkpt><trkpt lat="35.7745457" lon="139.1124661"><ele>1094.5666666666666</ele><time>2023-04-09T00:55:41Z</time></trkpt><trkpt lat="35.7744752" lon="139.1126819"><ele>1092.2166666666667</ele><time>2023-04-09T00:55:58Z</time></trkpt><trkpt lat="35.7744076" lon="139.1128939"><ele>1091.3833333333334</ele><time>2023-04-09T00:56:14Z</time></trkpt><trkpt lat="35.7743326" lon="139.1131076"><ele>1090.676666666667</ele><time>2023-04-09T00:56:34Z</time></trkpt><trkpt lat="35.7742739" lon="139.1133249"><ele>1090.1366666666665</ele><time>2023-04-09T00:56:40Z</time></trkpt><trkpt lat="35.7741043" lon="139.113401"><ele>1090.8833333333334</ele><time>2023-04-09T00:56:50Z</time></trkpt><trkpt lat="35.7739161" lon="139.1134525"><ele>1092.4366666666667</ele><time>2023-04-09T00:57:08Z</time></trkpt><trkpt lat="35.7738121" lon="139.1136787"><ele>1093.4133333333334</ele><time>2023-04-09T00:57:18Z</time></trkpt><trkpt lat="35.7736803" lon="139.1138314"><ele>1091.4866666666667</ele><time>2023-04-09T00:57:35Z</time></trkpt><trkpt lat="35.7737553" lon="139.1140494"><ele>1089.6833333333334</ele><time>2023-04-09T00:57:57Z</time></trkpt><trkpt lat="35.7738106" lon="139.1142859"><ele>1087.9166666666667</ele><time>2023-04-09T00:58:07Z</time></trkpt><trkpt lat="35.7736327" lon="139.1143331"><ele>1086.3033333333333</ele><time>2023-04-09T00:58:31Z</time></trkpt><trkpt lat="35.7735177" lon="139.1145164"><ele>1086.2833333333333</ele><time>2023-04-09T00:58:49Z</time></trkpt><trkpt lat="35.7733674" lon="139.1146551"><ele>1087.6033333333335</ele><time>2023-04-09T00:59:20Z</time></trkpt><trkpt lat="35.7732024" lon="139.1147536"><ele>1090.5133333333333</ele><time>2023-04-09T00:59:34Z</time></trkpt><trkpt lat="35.7730254" lon="139.1148124"><ele>1091.8833333333334</ele><time>2023-04-09T00:59:48Z</time></trkpt><trkpt lat="35.7728437" lon="139.1148804"><ele>1094.07</ele><time>2023-04-09T01:00:13Z</time></trkpt><trkpt lat="35.7727469" lon="139.1150778"><ele>1096.7033333333336</ele><time>2023-04-09T01:00:32Z</time></trkpt><trkpt lat="35.7726342" lon="139.1152507"><ele>1098.6833333333334</ele><time>2023-04-09T01:00:47Z</time></trkpt><trkpt lat="35.7724743" lon="139.1153647"><ele>1101.4233333333334</ele><time>2023-04-09T01:01:53Z</time></trkpt><trkpt lat="35.7724391" lon="139.1155858"><ele>1105.05</ele><time>2023-04-09T01:03:55Z</time></trkpt><trkpt lat="35.7723402" lon="139.115778"><ele>1109.25</ele><time>2023-04-09T01:04:16Z</time></trkpt><trkpt lat="35.7722471" lon="139.1159699"><ele>1111.6533333333334</ele><time>2023-04-09T01:04:56Z</time></trkpt><trkpt lat="35.7721876" lon="139.1161909"><ele>1111.8</ele><time>2023-04-09T01:05:08Z</time></trkpt><trkpt lat="35.772051" lon="139.1163439"><ele>1111.6933333333334</ele><time>2023-04-09T01:05:25Z</time></trkpt><trkpt lat="35.7718861" lon="139.1164631"><ele>1111.4166666666667</ele><time>2023-04-09T01:05:37Z</time></trkpt><trkpt lat="35.7717398" lon="139.1166062"><ele>1113.7766666666666</ele><time>2023-04-09T01:05:55Z</time></trkpt><trkpt lat="35.7717261" lon="139.1168338"><ele>1117.1233333333332</ele><time>2023-04-09T01:06:24Z</time></trkpt><trkpt lat="35.7716296" lon="139.1170318"><ele>1118.9966666666667</ele><time>2023-04-09T01:06:39Z</time></trkpt><trkpt lat="35.7715527" lon="139.1172322"><ele>1118.3866666666665</ele><time>2023-04-09T01:07:07Z</time></trkpt><trkpt lat="35.7715132" lon="139.1174598"><ele>1118.0033333333333</ele><time>2023-04-09T01:07:18Z</time></trkpt><trkpt lat="35.771466" lon="139.1176749"><ele>1120.7</ele><time>2023-04-09T01:07:30Z</time></trkpt><trkpt lat="35.7715756" lon="139.1178546"><ele>1125.17</ele><time>2023-04-09T01:08:30Z</time></trkpt><trkpt lat="35.7715827" lon="139.1180863"><ele>1129.0466666666669</ele><time>2023-04-09T01:08:51Z</time></trkpt><trkpt lat="35.7715146" lon="139.1183009"><ele>1131.5200000000002</ele><time>2023-04-09T01:09:03Z</time></trkpt><trkpt lat="35.771429" lon="139.1185023"><ele>1133.1266666666668</ele><time>2023-04-09T01:09:14Z</time></trkpt><trkpt lat="35.7712574" lon="139.1185705"><ele>1134.1699999999998</ele><time>2023-04-09T01:09:27Z</time></trkpt><trkpt lat="35.7711242" lon="139.1187271"><ele>1135.46</ele><time>2023-04-09T01:09:44Z</time></trkpt><trkpt lat="35.7710061" lon="139.1189065"><ele>1136.7299999999998</ele><time>2023-04-09T01:09:59Z</time></trkpt><trkpt lat="35.7709206" lon="139.1191163"><ele>1138.2533333333333</ele><time>2023-04-09T01:10:17Z</time></trkpt><trkpt lat="35.7708642" lon="139.1193272"><ele>1138.1433333333334</ele><time>2023-04-09T01:10:33Z</time></trkpt><trkpt lat="35.7706816" lon="139.1193883"><ele>1138.5133333333335</ele><time>2023-04-09T01:10:54Z</time></trkpt><trkpt lat="35.7704972" lon="139.1194455"><ele>1138.1466666666665</ele><time>2023-04-09T01:11:10Z</time></trkpt><trkpt lat="35.7703056" lon="139.1194774"><ele>1137.7233333333334</ele><time>2023-04-09T01:11:24Z</time></trkpt><trkpt lat="35.7701157" lon="139.119518"><ele>1137.2366666666667</ele><time>2023-04-09T01:11:41Z</time></trkpt><trkpt lat="35.7700354" lon="139.1197221"><ele>1139.8766666666668</ele><time>2023-04-09T01:12:18Z</time></trkpt><trkpt lat="35.770102" lon="139.1199415"><ele>1143.5766666666668</ele><time>2023-04-09T01:12:47Z</time></trkpt><trkpt lat="35.7700991" lon="139.1201669"><ele>1143.7866666666666</ele><time>2023-04-09T01:12:53Z</time></trkpt><trkpt lat="35.7700791" lon="139.1204074"><ele>1140.57</ele><time>2023-04-09T01:13:23Z</time></trkpt><trkpt lat="35.7700714" lon="139.120639"><ele>1135.9366666666667</ele><time>2023-04-09T01:13:38Z</time></trkpt><trkpt lat="35.769949" lon="139.1208166"><ele>1133.9133333333332</ele><time>2023-04-09T01:13:55Z</time></trkpt><trkpt lat="35.7698198" lon="139.1209788"><ele>1131.9666666666667</ele><time>2023-04-09T01:14:09Z</time></trkpt><trkpt lat="35.7697731" lon="139.1211988"><ele>1129.0766666666666</ele><time>2023-04-09T01:14:28Z</time></trkpt><trkpt lat="35.7696923" lon="139.1213968"><ele>1126.4233333333334</ele><time>2023-04-09T01:14:41Z</time></trkpt><trkpt lat="35.7697046" lon="139.1216245"><ele>1123.6733333333334</ele><time>2023-04-09T01:15:01Z</time></trkpt><trkpt lat="35.7697238" lon="139.1218709"><ele>1121.26</ele><time>2023-04-09T01:15:12Z</time></trkpt><trkpt lat="35.7696869" lon="139.1221012"><ele>1119.8833333333332</ele><time>2023-04-09T01:15:36Z</time></trkpt><trkpt lat="35.7696949" lon="139.1223227"><ele>1119.4466666666667</ele><time>2023-04-09T01:15:54Z</time></trkpt><trkpt lat="35.7696542" lon="139.1225484"><ele>1121.6233333333334</ele><time>2023-04-09T01:16:18Z</time></trkpt><trkpt lat="35.7695716" lon="139.122749"><ele>1123.2466666666667</ele><time>2023-04-09T01:16:33Z</time></trkpt><trkpt lat="35.7695067" lon="139.1229621"><ele>1125.1666666666667</ele><time>2023-04-09T01:16:52Z</time></trkpt><trkpt lat="35.769398" lon="139.1231568"><ele>1127.5433333333333</ele><time>2023-04-09T01:17:06Z</time></trkpt><trkpt lat="35.7692132" lon="139.1232287"><ele>1129.3066666666666</ele><time>2023-04-09T01:17:26Z</time></trkpt><trkpt lat="35.7691706" lon="139.1234535"><ele>1131.07</ele><time>2023-04-09T01:18:16Z</time></trkpt><trkpt lat="35.7689914" lon="139.1234843"><ele>1130.1133333333335</ele><time>2023-04-09T01:18:24Z</time></trkpt><trkpt lat="35.7688698" lon="139.123665"><ele>1128.24</ele><time>2023-04-09T01:18:39Z</time></trkpt><trkpt lat="35.7687806" lon="139.1238584"><ele>1125.8766666666668</ele><time>2023-04-09T01:18:54Z</time></trkpt><trkpt lat="35.7687519" lon="139.1240923"><ele>1126.9366666666667</ele><time>2023-04-09T01:19:08Z</time></trkpt><trkpt lat="35.7686588" lon="139.1242994"><ele>1128.0533333333333</ele><time>2023-04-09T01:19:21Z</time></trkpt><trkpt lat="35.7685475" lon="139.1244741"><ele>1127.9033333333334</ele><time>2023-04-09T01:19:35Z</time></trkpt><trkpt lat="35.7684309" lon="139.1246473"><ele>1125.1133333333335</ele><time>2023-04-09T01:19:56Z</time></trkpt><trkpt lat="35.7682599" lon="139.1247236"><ele>1123.8066666666666</ele><time>2023-04-09T01:20:12Z</time></trkpt><trkpt lat="35.7681525" lon="139.1249038"><ele>1125.53</ele><time>2023-04-09T01:20:25Z</time></trkpt><trkpt lat="35.7679687" lon="139.1248891"><ele>1127.8266666666666</ele><time>2023-04-09T01:20:39Z</time></trkpt><trkpt lat="35.7677918" lon="139.1249684"><ele>1129.2366666666667</ele><time>2023-04-09T01:20:53Z</time></trkpt><trkpt lat="35.7676143" lon="139.1250397"><ele>1128.5600000000002</ele><time>2023-04-09T01:21:09Z</time></trkpt><trkpt lat="35.7674372" lon="139.1250907"><ele>1126.8999999999999</ele><time>2023-04-09T01:21:27Z</time></trkpt><trkpt lat="35.7673268" lon="139.1252764"><ele>1126.64</ele><time>2023-04-09T01:21:52Z</time></trkpt><trkpt lat="35.7673012" lon="139.1254979"><ele>1128.0166666666667</ele><time>2023-04-09T01:22:04Z</time></trkpt><trkpt lat="35.7672432" lon="139.1257185"><ele>1128.0900000000001</ele><time>2023-04-09T01:22:16Z</time></trkpt><trkpt lat="35.7672246" lon="139.1259418"><ele>1126.55</ele><time>2023-04-09T01:22:30Z</time></trkpt><trkpt lat="35.7673568" lon="139.1260963"><ele>1124.966666666667</ele><time>2023-04-09T01:23:00Z</time></trkpt><trkpt lat="35.7672493" lon="139.1262834"><ele>1125.78</ele><time>2023-04-09T01:23:26Z</time></trkpt><trkpt lat="35.7672561" lon="139.1265077"><ele>1130.0966666666666</ele><time>2023-04-09T01:25:30Z</time></trkpt><trkpt lat="35.7671099" lon="139.1266399"><ele>1134.8366666666668</ele><time>2023-04-09T01:27:45Z</time></trkpt><trkpt lat="35.7669979" lon="139.1268148"><ele>1142.5933333333335</ele><time>2023-04-09T01:28:10Z</time></trkpt><trkpt lat="35.766955" lon="139.1270357"><ele>1150.3433333333332</ele><time>2023-04-09T01:28:54Z</time></trkpt><trkpt lat="35.7668987" lon="139.1272503"><ele>1157.3100000000002</ele><time>2023-04-09T01:29:21Z</time></trkpt><trkpt lat="35.7668796" lon="139.1274784"><ele>1163.2266666666667</ele><time>2023-04-09T01:31:32Z</time></trkpt><trkpt lat="35.7669673" lon="139.1276762"><ele>1168.7</ele><time>2023-04-09T01:32:36Z</time></trkpt><trkpt lat="35.7669923" lon="139.1279423"><ele>1179.63</ele><time>2023-04-09T01:32:42Z</time></trkpt><trkpt lat="35.7669075" lon="139.1281454"><ele>1191.5566666666666</ele><time>2023-04-09T01:37:14Z</time></trkpt><trkpt lat="35.7667938" lon="139.1283279"><ele>1203.8400000000001</ele><time>2023-04-09T01:38:38Z</time></trkpt><trkpt lat="35.7666693" lon="139.1284904"><ele>1211.4433333333334</ele><time>2023-04-09T01:38:53Z</time></trkpt><trkpt lat="35.7665189" lon="139.1286189"><ele>1216.4966666666667</ele><time>2023-04-09T01:39:08Z</time></trkpt><trkpt lat="35.7664014" lon="139.1287915"><ele>1219.2900000000002</ele><time>2023-04-09T01:39:24Z</time></trkpt><trkpt lat="35.7662742" lon="139.128953"><ele>1220.6633333333334</ele><time>2023-04-09T01:39:41Z</time></trkpt><trkpt lat="35.7661046" lon="139.1290579"><ele>1222.1333333333332</ele><time>2023-04-09T01:40:02Z</time></trkpt><trkpt lat="35.7659431" lon="139.1291582"><ele>1223.6966666666667</ele><time>2023-04-09T01:40:43Z</time></trkpt><trkpt lat="35.765773" lon="139.1292549"><ele>1224.9166666666667</ele><time>2023-04-09T01:41:08Z</time></trkpt><trkpt lat="35.7656155" lon="139.1293625"><ele>1225.4800000000002</ele><time>2023-04-09T01:42:23Z</time></trkpt><trkpt lat="35.7654907" lon="139.1295225"><ele>1225.84</ele><time>2023-04-09T01:43:24Z</time></trkpt><trkpt lat="35.7654462" lon="139.1297375"><ele>1228.0600000000002</ele><time>2023-04-09T01:44:36Z</time></trkpt><trkpt lat="35.7653973" lon="139.1299617"><ele>1236.7</ele><time>2023-04-09T01:45:10Z</time></trkpt><trkpt lat="35.7653715" lon="139.130208"><ele>1248.0366666666666</ele><time>2023-04-09T01:45:36Z</time></trkpt><trkpt lat="35.7652505" lon="139.1303835"><ele>1258.4366666666667</ele><time>2023-04-09T01:45:59Z</time></trkpt><trkpt lat="35.7654051" lon="139.130259"><ele>1261.2333333333333</ele><time>2023-04-09T01:58:01Z</time></trkpt><trkpt lat="35.7652223" lon="139.1303375"><ele>1262.1533333333334</ele><time>2023-04-09T01:59:25Z</time></trkpt><trkpt lat="35.7653441" lon="139.1305044"><ele>1261.3933333333334</ele><time>2023-04-09T02:01:39Z</time></trkpt><trkpt lat="35.7651534" lon="139.1305292"><ele>1262.8933333333334</ele><time>2023-04-09T02:02:51Z</time></trkpt><trkpt lat="35.7651209" lon="139.1307482"><ele>1262.5533333333333</ele><time>2023-04-09T02:03:09Z</time></trkpt><trkpt lat="35.7649946" lon="139.1309081"><ele>1261.6866666666665</ele><time>2023-04-09T02:05:27Z</time></trkpt><trkpt lat="35.7649508" lon="139.1311241"><ele>1257.3666666666666</ele><time>2023-04-09T02:06:58Z</time></trkpt><trkpt lat="35.7648593" lon="139.1313169"><ele>1250.0233333333335</ele><time>2023-04-09T02:07:45Z</time></trkpt><trkpt lat="35.7648712" lon="139.1315418"><ele>1239.4766666666667</ele><time>2023-04-09T02:08:38Z</time></trkpt><trkpt lat="35.7650498" lon="139.131509"><ele>1231.4066666666665</ele><time>2023-04-09T02:09:41Z</time></trkpt><trkpt lat="35.7652288" lon="139.1314592"><ele>1226.5900000000001</ele><time>2023-04-09T02:09:59Z</time></trkpt><trkpt lat="35.7653164" lon="139.1316568"><ele>1221.1000000000001</ele><time>2023-04-09T02:10:33Z</time></trkpt><trkpt lat="35.7654722" lon="139.131772"><ele>1213.33</ele><time>2023-04-09T02:11:44Z</time></trkpt><trkpt lat="35.7654349" lon="139.1319914"><ele>1200.743333333333</ele><time>2023-04-09T02:12:22Z</time></trkpt><trkpt lat="35.7654192" lon="139.1322119"><ele>1191.7366666666667</ele><time>2023-04-09T02:12:48Z</time></trkpt><trkpt lat="35.7653581" lon="139.1324283"><ele>1183.1233333333332</ele><time>2023-04-09T02:14:13Z</time></trkpt><trkpt lat="35.7651709" lon="139.1324542"><ele>1177.9433333333334</ele><time>2023-04-09T02:14:46Z</time></trkpt><trkpt lat="35.7650057" lon="139.1325471"><ele>1172.8666666666668</ele><time>2023-04-09T02:15:03Z</time></trkpt><trkpt lat="35.7649257" lon="139.1327464"><ele>1168.34</ele><time>2023-04-09T02:15:22Z</time></trkpt><trkpt lat="35.7647565" lon="139.1328264"><ele>1164.5</ele><time>2023-04-09T02:15:40Z</time></trkpt><trkpt lat="35.7649395" lon="139.1327918"><ele>1162.2233333333334</ele><time>2023-04-09T02:17:35Z</time></trkpt><trkpt lat="35.7650321" lon="139.1329898"><ele>1160.4866666666667</ele><time>2023-04-09T02:18:09Z</time></trkpt><trkpt lat="35.7650941" lon="139.1332024"><ele>1158.0</ele><time>2023-04-09T02:18:25Z</time></trkpt><trkpt lat="35.7652246" lon="139.1333708"><ele>1151.9133333333332</ele><time>2023-04-09T02:18:51Z</time></trkpt><trkpt lat="35.7653258" lon="139.1335699"><ele>1143.6533333333334</ele><time>2023-04-09T02:19:06Z</time></trkpt><trkpt lat="35.7654757" lon="139.1337009"><ele>1134.4400000000003</ele><time>2023-04-09T02:19:36Z</time></trkpt><trkpt lat="35.7656101" lon="139.1338554"><ele>1131.3400000000001</ele><time>2023-04-09T02:19:51Z</time></trkpt><trkpt lat="35.7655878" lon="139.1340781"><ele>1130.0333333333335</ele><time>2023-04-09T02:21:53Z</time></trkpt><trkpt lat="35.7656098" lon="139.1343014"><ele>1136.0766666666666</ele><time>2023-04-09T02:22:30Z</time></trkpt><trkpt lat="35.7655904" lon="139.1345217"><ele>1136.39</ele><time>2023-04-09T02:22:48Z</time></trkpt><trkpt lat="35.7657366" lon="139.1346581"><ele>1135.1433333333332</ele><time>2023-04-09T02:23:37Z</time></trkpt><trkpt lat="35.765903" lon="139.1345686"><ele>1129.1066666666666</ele><time>2023-04-09T02:23:52Z</time></trkpt><trkpt lat="35.766078" lon="139.1344622"><ele>1128.006666666667</ele><time>2023-04-09T02:24:15Z</time></trkpt><trkpt lat="35.7662517" lon="139.1343927"><ele>1127.6966666666667</ele><time>2023-04-09T02:25:03Z</time></trkpt><trkpt lat="35.7664408" lon="139.1345004"><ele>1126.0566666666666</ele><time>2023-04-09T02:25:16Z</time></trkpt><trkpt lat="35.7665548" lon="139.1346742"><ele>1119.26</ele><time>2023-04-09T02:25:30Z</time></trkpt><trkpt lat="35.7667392" lon="139.1346432"><ele>1113.8466666666666</ele><time>2023-04-09T02:26:10Z</time></trkpt><trkpt lat="35.7669103" lon="139.1345432"><ele>1111.2533333333333</ele><time>2023-04-09T02:26:22Z</time></trkpt><trkpt lat="35.7670844" lon="139.1346208"><ele>1109.18</ele><time>2023-04-09T02:26:33Z</time></trkpt><trkpt lat="35.7672636" lon="139.1345948"><ele>1106.9466666666667</ele><time>2023-04-09T02:26:57Z</time></trkpt><trkpt lat="35.767446" lon="139.1345354"><ele>1103.39</ele><time>2023-04-09T02:27:28Z</time></trkpt><trkpt lat="35.7676255" lon="139.1345613"><ele>1100.2533333333333</ele><time>2023-04-09T02:27:43Z</time></trkpt><trkpt lat="35.7677747" lon="139.1346898"><ele>1098.4466666666665</ele><time>2023-04-09T02:28:16Z</time></trkpt><trkpt lat="35.7679666" lon="139.1347216"><ele>1098.9833333333333</ele><time>2023-04-09T02:28:31Z</time></trkpt><trkpt lat="35.7680494" lon="139.134921"><ele>1096.3100000000002</ele><time>2023-04-09T02:28:42Z</time></trkpt><trkpt lat="35.7682038" lon="139.1350939"><ele>1088.05</ele><time>2023-04-09T02:30:16Z</time></trkpt><trkpt lat="35.7683704" lon="139.1349745"><ele>1076.3433333333332</ele><time>2023-04-09T02:30:50Z</time></trkpt><trkpt lat="35.7684842" lon="139.1347974"><ele>1069.4266666666665</ele><time>2023-04-09T02:31:01Z</time></trkpt><trkpt lat="35.7686679" lon="139.1348144"><ele>1062.5966666666666</ele><time>2023-04-09T02:31:16Z</time></trkpt><trkpt lat="35.7687712" lon="139.134996"><ele>1053.5833333333333</ele><time>2023-04-09T02:31:58Z</time></trkpt><trkpt lat="35.7689879" lon="139.1349963"><ele>1043.7699999999998</ele><time>2023-04-09T02:32:15Z</time></trkpt><trkpt lat="35.7691667" lon="139.1350418"><ele>1038.9233333333334</ele><time>2023-04-09T02:32:22Z</time></trkpt><trkpt lat="35.7692299" lon="139.1352631"><ele>1038.2699999999998</ele><time>2023-04-09T02:32:36Z</time></trkpt><trkpt lat="35.7693569" lon="139.1354305"><ele>1039.08</ele><time>2023-04-09T02:32:51Z</time></trkpt><trkpt lat="35.7695154" lon="139.1355535"><ele>1039.81</ele><time>2023-04-09T02:33:03Z</time></trkpt><trkpt lat="35.7697021" lon="139.1354965"><ele>1039.2633333333333</ele><time>2023-04-09T02:33:10Z</time></trkpt><trkpt lat="35.7698974" lon="139.1355099"><ele>1037.8633333333335</ele><time>2023-04-09T02:33:16Z</time></trkpt><trkpt lat="35.7699112" lon="139.1357369"><ele>1038.0066666666667</ele><time>2023-04-09T02:33:37Z</time></trkpt><trkpt lat="35.7698911" lon="139.1359581"><ele>1036.13</ele><time>2023-04-09T02:34:00Z</time></trkpt><trkpt lat="35.7700738" lon="139.1359907"><ele>1037.7533333333333</ele><time>2023-04-09T02:34:15Z</time></trkpt><trkpt lat="35.770243" lon="139.1360876"><ele>1038.19</ele><time>2023-04-09T02:34:31Z</time></trkpt><trkpt lat="35.7703899" lon="139.136241"><ele>1040.89</ele><time>2023-04-09T02:34:47Z</time></trkpt><trkpt lat="35.7705022" lon="139.1364201"><ele>1040.8066666666666</ele><time>2023-04-09T02:35:07Z</time></trkpt><trkpt lat="35.7706486" lon="139.1365665"><ele>1040.79</ele><time>2023-04-09T02:35:19Z</time></trkpt><trkpt lat="35.7708218" lon="139.1366583"><ele>1041.3766666666668</ele><time>2023-04-09T02:35:31Z</time></trkpt><trkpt lat="35.7710068" lon="139.1366792"><ele>1042.34</ele><time>2023-04-09T02:35:46Z</time></trkpt><trkpt lat="35.7711975" lon="139.1366634"><ele>1043.0400000000002</ele><time>2023-04-09T02:36:00Z</time></trkpt><trkpt lat="35.7713701" lon="139.1367277"><ele>1043.4666666666667</ele><time>2023-04-09T02:36:13Z</time></trkpt><trkpt lat="35.7714891" lon="139.1369309"><ele>1045.2066666666667</ele><time>2023-04-09T02:36:33Z</time></trkpt><trkpt lat="35.7716753" lon="139.1369817"><ele>1047.9233333333334</ele><time>2023-04-09T02:37:00Z</time></trkpt><trkpt lat="35.7718036" lon="139.137153"><ele>1050.8266666666666</ele><time>2023-04-09T02:37:58Z</time></trkpt><trkpt lat="35.7719083" lon="139.1373387"><ele>1051.8333333333333</ele><time>2023-04-09T02:38:14Z</time></trkpt><trkpt lat="35.7720749" lon="139.1374502"><ele>1052.8433333333332</ele><time>2023-04-09T02:38:34Z</time></trkpt><trkpt lat="35.7722576" lon="139.137485"><ele>1052.8833333333334</ele><time>2023-04-09T02:39:25Z</time></trkpt><trkpt lat="35.7724288" lon="139.1375581"><ele>1053.11</ele><time>2023-04-09T02:39:39Z</time></trkpt><trkpt lat="35.772577" lon="139.1376938"><ele>1053.7966666666669</ele><time>2023-04-09T02:39:52Z</time></trkpt><trkpt lat="35.7727505" lon="139.1377917"><ele>1054.8533333333332</ele><time>2023-04-09T02:40:09Z</time></trkpt><trkpt lat="35.7729316" lon="139.1377821"><ele>1055.0166666666667</ele><time>2023-04-09T02:40:21Z</time></trkpt><trkpt lat="35.7731056" lon="139.1378566"><ele>1054.08</ele><time>2023-04-09T02:40:35Z</time></trkpt><trkpt lat="35.7732979" lon="139.1378823"><ele>1053.2266666666667</ele><time>2023-04-09T02:40:56Z</time></trkpt><trkpt lat="35.7734712" lon="139.1379547"><ele>1052.9366666666667</ele><time>2023-04-09T02:41:15Z</time></trkpt><trkpt lat="35.7736566" lon="139.1379465"><ele>1052.29</ele><time>2023-04-09T02:41:36Z</time></trkpt><trkpt lat="35.7738332" lon="139.1378886"><ele>1052.74</ele><time>2023-04-09T02:41:46Z</time></trkpt><trkpt lat="35.77399" lon="139.1377725"><ele>1054.42</ele><time>2023-04-09T02:42:04Z</time></trkpt><trkpt lat="35.7741111" lon="139.1376058"><ele>1055.0966666666666</ele><time>2023-04-09T02:42:21Z</time></trkpt><trkpt lat="35.7742963" lon="139.1376434"><ele>1056.6500000000003</ele><time>2023-04-09T02:42:33Z</time></trkpt><trkpt lat="35.7744421" lon="139.1377782"><ele>1059.6066666666668</ele><time>2023-04-09T02:42:46Z</time></trkpt><trkpt lat="35.7746155" lon="139.1377058"><ele>1064.4633333333334</ele><time>2023-04-09T02:43:34Z</time></trkpt><trkpt lat="35.7747816" lon="139.1376037"><ele>1067.6133333333335</ele><time>2023-04-09T02:44:03Z</time></trkpt><trkpt lat="35.7749664" lon="139.1375321"><ele>1069.4166666666667</ele><time>2023-04-09T02:45:02Z</time></trkpt><trkpt lat="35.7751456" lon="139.1374799"><ele>1070.6866666666667</ele><time>2023-04-09T02:45:24Z</time></trkpt><trkpt lat="35.7753221" lon="139.1375279"><ele>1071.4933333333336</ele><time>2023-04-09T02:45:37Z</time></trkpt><trkpt lat="35.7754897" lon="139.1374388"><ele>1070.45</ele><time>2023-04-09T02:45:52Z</time></trkpt><trkpt lat="35.7756848" lon="139.1374318"><ele>1068.9366666666667</ele><time>2023-04-09T02:46:16Z</time></trkpt><trkpt lat="35.7758711" lon="139.1373569"><ele>1065.25</ele><time>2023-04-09T02:46:31Z</time></trkpt><trkpt lat="35.7760496" lon="139.1374227"><ele>1062.5866666666668</ele><time>2023-04-09T02:46:39Z</time></trkpt><trkpt lat="35.7761962" lon="139.1375591"><ele>1061.0166666666667</ele><time>2023-04-09T02:46:52Z</time></trkpt><trkpt lat="35.7763572" lon="139.1374556"><ele>1060.3833333333332</ele><time>2023-04-09T02:47:07Z</time></trkpt><trkpt lat="35.7765368" lon="139.1374054"><ele>1060.81</ele><time>2023-04-09T02:47:21Z</time></trkpt><trkpt lat="35.7767168" lon="139.1374247"><ele>1060.6366666666665</ele><time>2023-04-09T02:47:52Z</time></trkpt><trkpt lat="35.7768854" lon="139.1373259"><ele>1063.49</ele><time>2023-04-09T02:48:09Z</time></trkpt><trkpt lat="35.7770357" lon="139.1372011"><ele>1065.6466666666668</ele><time>2023-04-09T02:49:09Z</time></trkpt><trkpt lat="35.7772156" lon="139.1371506"><ele>1068.83</ele><time>2023-04-09T02:49:31Z</time></trkpt><trkpt lat="35.7774018" lon="139.1371506"><ele>1069.1499999999999</ele><time>2023-04-09T02:49:57Z</time></trkpt><trkpt lat="35.7776042" lon="139.1370302"><ele>1064.9766666666665</ele><time>2023-04-09T02:50:15Z</time></trkpt><trkpt lat="35.7777913" lon="139.1369932"><ele>1061.6733333333334</ele><time>2023-04-09T02:50:24Z</time></trkpt><trkpt lat="35.7779725" lon="139.1370596"><ele>1063.9166666666667</ele><time>2023-04-09T02:50:39Z</time></trkpt><trkpt lat="35.7781532" lon="139.1370082"><ele>1070.6433333333334</ele><time>2023-04-09T02:51:45Z</time></trkpt><trkpt lat="35.7781681" lon="139.1372293"><ele>1076.75</ele><time>2023-04-09T02:52:43Z</time></trkpt><trkpt lat="35.7783056" lon="139.1373835"><ele>1075.1666666666667</ele><time>2023-04-09T02:53:19Z</time></trkpt><trkpt lat="35.7784654" lon="139.1374973"><ele>1069.7466666666667</ele><time>2023-04-09T02:53:54Z</time></trkpt><trkpt lat="35.7786275" lon="139.1376089"><ele>1056.5666666666666</ele><time>2023-04-09T02:54:12Z</time></trkpt><trkpt lat="35.7787648" lon="139.1377699"><ele>1044.1933333333334</ele><time>2023-04-09T02:54:24Z</time></trkpt><trkpt lat="35.7788012" lon="139.1379973"><ele>1038.5600000000002</ele><time>2023-04-09T02:54:33Z</time></trkpt><trkpt lat="35.7788312" lon="139.1382196"><ele>1038.3366666666668</ele><time>2023-04-09T02:54:43Z</time></trkpt><trkpt lat="35.778847" lon="139.1384425"><ele>1040.9433333333334</ele><time>2023-04-09T02:55:02Z</time></trkpt><trkpt lat="35.7789037" lon="139.1386606"><ele>1038.51</ele><time>2023-04-09T02:55:36Z</time></trkpt><trkpt lat="35.778889" lon="139.1388932"><ele>1035.14</ele><time>2023-04-09T02:55:46Z</time></trkpt><trkpt lat="35.7788531" lon="139.1391177"><ele>1030.7066666666667</ele><time>2023-04-09T02:55:55Z</time></trkpt><trkpt lat="35.7789675" lon="139.1392912"><ele>1026.2333333333333</ele><time>2023-04-09T02:56:08Z</time></trkpt><trkpt lat="35.778973" lon="139.1395154"><ele>1023.1</ele><time>2023-04-09T02:56:23Z</time></trkpt><trkpt lat="35.7788056" lon="139.1396791"><ele>1018.6433333333333</ele><time>2023-04-09T02:57:10Z</time></trkpt><trkpt lat="35.7789477" lon="139.1394233"><ele>1019.0</ele><time>2023-04-09T02:57:14Z</time></trkpt><trkpt lat="35.7790533" lon="139.1396171"><ele>1017.32</ele><time>2023-04-09T02:57:19Z</time></trkpt><trkpt lat="35.7789512" lon="139.139812"><ele>1016.86</ele><time>2023-04-09T02:57:51Z</time></trkpt><trkpt lat="35.7788818" lon="139.1400199"><ele>1013.15</ele><time>2023-04-09T02:58:10Z</time></trkpt><trkpt lat="35.7788594" lon="139.1402455"><ele>1015.23</ele><time>2023-04-09T02:59:13Z</time></trkpt><trkpt lat="35.778944" lon="139.1404437"><ele>1020.9266666666666</ele><time>2023-04-09T03:00:13Z</time></trkpt><trkpt lat="35.7790629" lon="139.1406126"><ele>1028.9033333333334</ele><time>2023-04-09T03:00:28Z</time></trkpt><trkpt lat="35.7792539" lon="139.1406523"><ele>1035.6433333333332</ele><time>2023-04-09T03:00:45Z</time></trkpt><trkpt lat="35.7793396" lon="139.1408518"><ele>1040.466666666667</ele><time>2023-04-09T03:01:22Z</time></trkpt><trkpt lat="35.7793671" lon="139.1410759"><ele>1042.2533333333333</ele><time>2023-04-09T03:01:39Z</time></trkpt><trkpt lat="35.7793774" lon="139.1412991"><ele>1043.1166666666666</ele><time>2023-04-09T03:02:51Z</time></trkpt><trkpt lat="35.7794067" lon="139.1415305"><ele>1048.2133333333334</ele><time>2023-04-09T03:03:21Z</time></trkpt><trkpt lat="35.779406" lon="139.141759"><ele>1053.64</ele><time>2023-04-09T03:03:44Z</time></trkpt><trkpt lat="35.7795658" lon="139.1418643"><ele>1060.6766666666665</ele><time>2023-04-09T03:04:50Z</time></trkpt><trkpt lat="35.7796934" lon="139.1420273"><ele>1062.6133333333335</ele><time>2023-04-09T03:05:10Z</time></trkpt><trkpt lat="35.7798381" lon="139.1421609"><ele>1064.51</ele><time>2023-04-09T03:06:14Z</time></trkpt><trkpt lat="35.7799778" lon="139.142303"><ele>1059.18</ele><time>2023-04-09T03:07:52Z</time></trkpt><trkpt lat="35.7801213" lon="139.1424373"><ele>1050.9733333333334</ele><time>2023-04-09T03:08:28Z</time></trkpt><trkpt lat="35.7802922" lon="139.1425276"><ele>1037.99</ele><time>2023-04-09T03:08:45Z</time></trkpt><trkpt lat="35.7802107" lon="139.1427268"><ele>1026.2333333333333</ele><time>2023-04-09T03:09:23Z</time></trkpt><trkpt lat="35.779769" lon="139.143019"><ele>1008.7800000000001</ele><time>2023-04-09T03:10:00Z</time></trkpt><trkpt lat="35.779477" lon="139.1428776"><ele>999.3433333333332</ele><time>2023-04-09T03:10:07Z</time></trkpt><trkpt lat="35.7798632" lon="139.1427072"><ele>997.6500000000001</ele><time>2023-04-09T03:10:08Z</time></trkpt><trkpt lat="35.7801945" lon="139.1426606"><ele>1008.5400000000001</ele><time>2023-04-09T03:10:11Z</time></trkpt><trkpt lat="35.7803786" lon="139.1426059"><ele>1014.5933333333334</ele><time>2023-04-09T03:10:20Z</time></trkpt><trkpt lat="35.7805608" lon="139.1425903"><ele>1012.5933333333334</ele><time>2023-04-09T03:11:41Z</time></trkpt><trkpt lat="35.7806849" lon="139.1424188"><ele>1006.2033333333334</ele><time>2023-04-09T03:12:08Z</time></trkpt><trkpt lat="35.7808545" lon="139.1424967"><ele>999.4433333333333</ele><time>2023-04-09T03:12:31Z</time></trkpt><trkpt lat="35.7809524" lon="139.142691"><ele>994.7466666666666</ele><time>2023-04-09T03:12:40Z</time></trkpt><trkpt lat="35.7810185" lon="139.1429037"><ele>987.21</ele><time>2023-04-09T03:13:45Z</time></trkpt><trkpt lat="35.7809361" lon="139.1431029"><ele>979.2033333333334</ele><time>2023-04-09T03:15:05Z</time></trkpt><trkpt lat="35.7808438" lon="139.1433089"><ele>965.4766666666668</ele><time>2023-04-09T03:15:24Z</time></trkpt><trkpt lat="35.7808003" lon="139.1435321"><ele>953.1199999999999</ele><time>2023-04-09T03:15:41Z</time></trkpt><trkpt lat="35.7808493" lon="139.1437452"><ele>943.6466666666666</ele><time>2023-04-09T03:15:55Z</time></trkpt><trkpt lat="35.7808973" lon="139.1439653"><ele>941.16</ele><time>2023-04-09T03:16:11Z</time></trkpt><trkpt lat="35.7809812" lon="139.1441618"><ele>940.8566666666667</ele><time>2023-04-09T03:16:26Z</time></trkpt><trkpt lat="35.7810079" lon="139.1443886"><ele>939.8833333333333</ele><time>2023-04-09T03:16:38Z</time></trkpt><trkpt lat="35.7810891" lon="139.1446"><ele>937.5166666666668</ele><time>2023-04-09T03:17:28Z</time></trkpt><trkpt lat="35.7811458" lon="139.1448267"><ele>934.0</ele><time>2023-04-09T03:17:51Z</time></trkpt><trkpt lat="35.781249" lon="139.1450084"><ele>928.7466666666666</ele><time>2023-04-09T03:18:20Z</time></trkpt><trkpt lat="35.7812383" lon="139.1452366"><ele>923.5133333333333</ele><time>2023-04-09T03:18:39Z</time></trkpt><trkpt lat="35.7813743" lon="139.1453882"><ele>916.4766666666666</ele><time>2023-04-09T03:18:58Z</time></trkpt><trkpt lat="35.7814586" lon="139.1455839"><ele>911.7233333333334</ele><time>2023-04-09T03:19:11Z</time></trkpt><trkpt lat="35.7815065" lon="139.1458061"><ele>909.4633333333335</ele><time>2023-04-09T03:19:38Z</time></trkpt><trkpt lat="35.781561" lon="139.1460346"><ele>910.3933333333334</ele><time>2023-04-09T03:19:54Z</time></trkpt><trkpt lat="35.7815857" lon="139.1462572"><ele>910.7433333333333</ele><time>2023-04-09T03:20:12Z</time></trkpt><trkpt lat="35.7814128" lon="139.1463333"><ele>907.9800000000001</ele><time>2023-04-09T03:20:27Z</time></trkpt><trkpt lat="35.781246" lon="139.1464183"><ele>900.7599999999999</ele><time>2023-04-09T03:20:39Z</time></trkpt><trkpt lat="35.7811877" lon="139.1466397"><ele>895.3666666666667</ele><time>2023-04-09T03:20:57Z</time></trkpt><trkpt lat="35.7811601" lon="139.1468605"><ele>892.7600000000001</ele><time>2023-04-09T03:21:22Z</time></trkpt><trkpt lat="35.7811501" lon="139.1470821"><ele>891.2266666666666</ele><time>2023-04-09T03:22:27Z</time></trkpt><trkpt lat="35.7812188" lon="139.147289"><ele>886.63</ele><time>2023-04-09T03:23:00Z</time></trkpt><trkpt lat="35.7813688" lon="139.1474175"><ele>880.1733333333333</ele><time>2023-04-09T03:23:29Z</time></trkpt><trkpt lat="35.7815497" lon="139.1474745"><ele>875.0600000000001</ele><time>2023-04-09T03:23:49Z</time></trkpt><trkpt lat="35.7817232" lon="139.1474095"><ele>873.6566666666666</ele><time>2023-04-09T03:24:03Z</time></trkpt><trkpt lat="35.7819" lon="139.147497"><ele>867.6966666666667</ele><time>2023-04-09T03:24:13Z</time></trkpt><trkpt lat="35.7820724" lon="139.1475691"><ele>860.0300000000001</ele><time>2023-04-09T03:24:46Z</time></trkpt><trkpt lat="35.7819903" lon="139.147776"><ele>853.1033333333334</ele><time>2023-04-09T03:25:04Z</time></trkpt><trkpt lat="35.7818657" lon="139.1479415"><ele>849.5133333333333</ele><time>2023-04-09T03:25:13Z</time></trkpt><trkpt lat="35.7817986" lon="139.14816"><ele>847.0233333333334</ele><time>2023-04-09T03:25:23Z</time></trkpt><trkpt lat="35.7818157" lon="139.1483814"><ele>843.2466666666666</ele><time>2023-04-09T03:25:35Z</time></trkpt><trkpt lat="35.7818016" lon="139.1486126"><ele>842.7966666666667</ele><time>2023-04-09T03:25:46Z</time></trkpt><trkpt lat="35.7818468" lon="139.1488382"><ele>847.0033333333334</ele><time>2023-04-09T03:26:00Z</time></trkpt><trkpt lat="35.7820237" lon="139.1489075"><ele>854.12</ele><time>2023-04-09T03:26:25Z</time></trkpt><trkpt lat="35.7820643" lon="139.1491414"><ele>861.6033333333334</ele><time>2023-04-09T03:26:43Z</time></trkpt><trkpt lat="35.7820135" lon="139.149361"><ele>863.2433333333333</ele><time>2023-04-09T03:26:52Z</time></trkpt><trkpt lat="35.7819918" lon="139.1495826"><ele>861.1933333333333</ele><time>2023-04-09T03:27:09Z</time></trkpt><trkpt lat="35.7821177" lon="139.1498325"><ele>866.0633333333334</ele><time>2023-04-09T03:27:44Z</time></trkpt><trkpt lat="35.7819348" lon="139.1498792"><ele>866.4933333333335</ele><time>2023-04-09T03:28:04Z</time></trkpt><trkpt lat="35.7819152" lon="139.1501063"><ele>871.6566666666668</ele><time>2023-04-09T03:28:43Z</time></trkpt><trkpt lat="35.7820087" lon="139.1503003"><ele>869.4000000000001</ele><time>2023-04-09T03:30:07Z</time></trkpt><trkpt lat="35.7821839" lon="139.1503967"><ele>878.44</ele><time>2023-04-09T03:30:22Z</time></trkpt><trkpt lat="35.7823455" lon="139.1505146"><ele>885.5833333333334</ele><time>2023-04-09T03:30:38Z</time></trkpt><trkpt lat="35.7823587" lon="139.1507487"><ele>888.1433333333334</ele><time>2023-04-09T03:30:58Z</time></trkpt><trkpt lat="35.7825567" lon="139.1507325"><ele>893.1166666666668</ele><time>2023-04-09T03:31:23Z</time></trkpt><trkpt lat="35.78271" lon="139.1508592"><ele>893.7400000000001</ele><time>2023-04-09T03:31:33Z</time></trkpt><trkpt lat="35.7828942" lon="139.1508802"><ele>897.0566666666667</ele><time>2023-04-09T03:31:46Z</time></trkpt><trkpt lat="35.7830712" lon="139.1508219"><ele>897.3966666666666</ele><time>2023-04-09T03:32:10Z</time></trkpt><trkpt lat="35.7832573" lon="139.1508292"><ele>898.1566666666668</ele><time>2023-04-09T03:32:28Z</time></trkpt><trkpt lat="35.7834228" lon="139.1509224"><ele>897.1566666666668</ele><time>2023-04-09T03:32:47Z</time></trkpt><trkpt lat="35.783493" lon="139.1507178"><ele>893.85</ele><time>2023-04-09T03:33:02Z</time></trkpt><trkpt lat="35.7833565" lon="139.15056"><ele>895.66</ele><time>2023-04-09T03:34:05Z</time></trkpt><trkpt lat="35.7832047" lon="139.150434"><ele>903.8233333333334</ele><time>2023-04-09T03:34:26Z</time></trkpt><trkpt lat="35.7830215" lon="139.1503898"><ele>913.1666666666666</ele><time>2023-04-09T03:34:57Z</time></trkpt><trkpt lat="35.7828584" lon="139.1502882"><ele>918.9233333333333</ele><time>2023-04-09T03:35:31Z</time></trkpt><trkpt lat="35.7827278" lon="139.1501083"><ele>921.57</ele><time>2023-04-09T03:37:36Z</time></trkpt><trkpt lat="35.7829029" lon="139.1500383"><ele>922.4266666666667</ele><time>2023-04-09T03:38:03Z</time></trkpt><trkpt lat="35.7827242" lon="139.1499931"><ele>922.8000000000001</ele><time>2023-04-09T03:39:05Z</time></trkpt><trkpt lat="35.7828266" lon="139.1497943"><ele>923.7933333333334</ele><time>2023-04-09T03:39:56Z</time></trkpt><trkpt lat="35.7828181" lon="139.1495672"><ele>925.5233333333334</ele><time>2023-04-09T03:40:08Z</time></trkpt><trkpt lat="35.7829068" lon="139.1493709"><ele>925.9866666666667</ele><time>2023-04-09T03:41:15Z</time></trkpt><trkpt lat="35.7829086" lon="139.1496052"><ele>926.13</ele><time>2023-04-09T03:42:17Z</time></trkpt><trkpt lat="35.7827564" lon="139.1497423"><ele>925.1266666666667</ele><time>2023-04-09T03:42:28Z</time></trkpt><trkpt lat="35.782686" lon="139.1499679"><ele>924.6633333333333</ele><time>2023-04-09T03:42:42Z</time></trkpt><trkpt lat="35.7828153" lon="139.1501568"><ele>923.62</ele><time>2023-04-09T03:42:55Z</time></trkpt><trkpt lat="35.7829176" lon="139.1503657"><ele>922.27</ele><time>2023-04-09T03:44:02Z</time></trkpt><trkpt lat="35.7830903" lon="139.1504319"><ele>920.2333333333332</ele><time>2023-04-09T03:44:56Z</time></trkpt><trkpt lat="35.7832456" lon="139.1506264"><ele>914.7666666666668</ele><time>2023-04-09T03:45:20Z</time></trkpt><trkpt lat="35.7833681" lon="139.1507958"><ele>905.6999999999999</ele><time>2023-04-09T03:45:38Z</time></trkpt><trkpt lat="35.7835563" lon="139.1508701"><ele>894.5900000000001</ele><time>2023-04-09T03:46:03Z</time></trkpt><trkpt lat="35.7837061" lon="139.1510001"><ele>884.1300000000001</ele><time>2023-04-09T03:46:17Z</time></trkpt><trkpt lat="35.783894" lon="139.1509914"><ele>877.2033333333334</ele><time>2023-04-09T03:46:48Z</time></trkpt><trkpt lat="35.7839058" lon="139.1512252"><ele>874.0133333333333</ele><time>2023-04-09T03:47:36Z</time></trkpt><trkpt lat="35.7840097" lon="139.151444"><ele>872.6466666666666</ele><time>2023-04-09T03:47:52Z</time></trkpt><trkpt lat="35.7838896" lon="139.1516148"><ele>871.8933333333333</ele><time>2023-04-09T03:49:09Z</time></trkpt><trkpt lat="35.783849" lon="139.1518388"><ele>869.35</ele><time>2023-04-09T03:49:22Z</time></trkpt><trkpt lat="35.7838763" lon="139.1520608"><ele>866.9266666666666</ele><time>2023-04-09T03:49:56Z</time></trkpt><trkpt lat="35.7840459" lon="139.1519812"><ele>864.3033333333333</ele><time>2023-04-09T03:50:50Z</time></trkpt><trkpt lat="35.7842192" lon="139.1519017"><ele>861.69</ele><time>2023-04-09T03:51:07Z</time></trkpt><trkpt lat="35.7843976" lon="139.1518589"><ele>860.04</ele><time>2023-04-09T03:51:49Z</time></trkpt><trkpt lat="35.7845528" lon="139.1519773"><ele>854.1866666666666</ele><time>2023-04-09T03:52:18Z</time></trkpt><trkpt lat="35.7847373" lon="139.1519845"><ele>850.2633333333333</ele><time>2023-04-09T03:52:48Z</time></trkpt><trkpt lat="35.784922" lon="139.1519735"><ele>846.8866666666667</ele><time>2023-04-09T03:52:59Z</time></trkpt><trkpt lat="35.7851134" lon="139.1520057"><ele>843.73</ele><time>2023-04-09T03:53:08Z</time></trkpt><trkpt lat="35.7852384" lon="139.1518356"><ele>841.0466666666666</ele><time>2023-04-09T03:53:26Z</time></trkpt><trkpt lat="35.785427" lon="139.1518091"><ele>836.5500000000001</ele><time>2023-04-09T03:53:39Z</time></trkpt><trkpt lat="35.7856146" lon="139.1518422"><ele>834.7900000000001</ele><time>2023-04-09T03:53:54Z</time></trkpt><trkpt lat="35.7857846" lon="139.1517684"><ele>830.9466666666667</ele><time>2023-04-09T03:54:07Z</time></trkpt><trkpt lat="35.7859502" lon="139.1516751"><ele>824.2466666666668</ele><time>2023-04-09T03:54:19Z</time></trkpt><trkpt lat="35.7860582" lon="139.1514883"><ele>819.7333333333335</ele><time>2023-04-09T03:54:37Z</time></trkpt><trkpt lat="35.7862254" lon="139.1515899"><ele>816.2633333333333</ele><time>2023-04-09T03:54:48Z</time></trkpt><trkpt lat="35.7862401" lon="139.1513693"><ele>818.3000000000001</ele><time>2023-04-09T03:55:02Z</time></trkpt><trkpt lat="35.7862023" lon="139.1511481"><ele>819.66</ele><time>2023-04-09T03:55:15Z</time></trkpt><trkpt lat="35.7863681" lon="139.151056"><ele>822.2966666666667</ele><time>2023-04-09T03:55:27Z</time></trkpt><trkpt lat="35.786557" lon="139.1510321"><ele>824.2133333333335</ele><time>2023-04-09T03:55:57Z</time></trkpt><trkpt lat="35.7867486" lon="139.1510468"><ele>827.1066666666667</ele><time>2023-04-09T03:56:11Z</time></trkpt><trkpt lat="35.7869154" lon="139.1511596"><ele>828.19</ele><time>2023-04-09T03:56:30Z</time></trkpt><trkpt lat="35.7870877" lon="139.1510577"><ele>828.8133333333334</ele><time>2023-04-09T03:56:43Z</time></trkpt><trkpt lat="35.7872246" lon="139.150905"><ele>830.4233333333335</ele><time>2023-04-09T03:57:00Z</time></trkpt><trkpt lat="35.7873518" lon="139.151066"><ele>830.39</ele><time>2023-04-09T03:57:09Z</time></trkpt><trkpt lat="35.7871755" lon="139.1511451"><ele>828.6966666666667</ele><time>2023-04-09T03:57:39Z</time></trkpt><trkpt lat="35.7870939" lon="139.1513461"><ele>823.61</ele><time>2023-04-09T03:57:53Z</time></trkpt><trkpt lat="35.7872772" lon="139.1513704"><ele>819.1966666666667</ele><time>2023-04-09T03:58:27Z</time></trkpt><trkpt lat="35.7874562" lon="139.1513182"><ele>817.0166666666668</ele><time>2023-04-09T03:58:42Z</time></trkpt><trkpt lat="35.787613" lon="139.1514369"><ele>818.1333333333333</ele><time>2023-04-09T03:59:03Z</time></trkpt><trkpt lat="35.7877112" lon="139.1516392"><ele>818.43</ele><time>2023-04-09T03:59:23Z</time></trkpt><trkpt lat="35.7877719" lon="139.1518695"><ele>815.2166666666667</ele><time>2023-04-09T03:59:49Z</time></trkpt><trkpt lat="35.7878955" lon="139.1520387"><ele>807.1266666666667</ele><time>2023-04-09T04:00:00Z</time></trkpt><trkpt lat="35.788083" lon="139.1520592"><ele>801.4</ele><time>2023-04-09T04:00:18Z</time></trkpt><trkpt lat="35.788064" lon="139.1522886"><ele>791.2933333333334</ele><time>2023-04-09T04:00:36Z</time></trkpt><trkpt lat="35.7878966" lon="139.152412"><ele>782.6333333333333</ele><time>2023-04-09T04:00:48Z</time></trkpt><trkpt lat="35.7877848" lon="139.1525974"><ele>772.8833333333333</ele><time>2023-04-09T04:01:03Z</time></trkpt><trkpt lat="35.7878158" lon="139.1528344"><ele>777.4233333333333</ele><time>2023-04-09T04:01:16Z</time></trkpt><trkpt lat="35.787912" lon="139.1530355"><ele>784.4</ele><time>2023-04-09T04:01:27Z</time></trkpt><trkpt lat="35.7880341" lon="139.1532007"><ele>792.3733333333333</ele><time>2023-04-09T04:01:39Z</time></trkpt><trkpt lat="35.7881258" lon="139.1533953"><ele>793.8600000000001</ele><time>2023-04-09T04:01:50Z</time></trkpt><trkpt lat="35.7880143" lon="139.1535775"><ele>790.3133333333334</ele><time>2023-04-09T04:02:00Z</time></trkpt><trkpt lat="35.7879623" lon="139.1537915"><ele>788.1833333333334</ele><time>2023-04-09T04:02:12Z</time></trkpt><trkpt lat="35.7880948" lon="139.1539465"><ele>788.8566666666667</ele><time>2023-04-09T04:02:24Z</time></trkpt><trkpt lat="35.7880184" lon="139.1541614"><ele>785.25</ele><time>2023-04-09T04:02:39Z</time></trkpt><trkpt lat="35.7880091" lon="139.1543838"><ele>778.15</ele><time>2023-04-09T04:02:51Z</time></trkpt><trkpt lat="35.7880959" lon="139.154592"><ele>769.0366666666667</ele><time>2023-04-09T04:03:01Z</time></trkpt><trkpt lat="35.7882308" lon="139.1547544"><ele>766.1466666666666</ele><time>2023-04-09T04:03:15Z</time></trkpt><trkpt lat="35.788385" lon="139.1548845"><ele>761.4066666666668</ele><time>2023-04-09T04:03:29Z</time></trkpt><trkpt lat="35.7885388" lon="139.154769"><ele>753.7733333333334</ele><time>2023-04-09T04:03:42Z</time></trkpt><trkpt lat="35.7887063" lon="139.1546672"><ele>748.6333333333333</ele><time>2023-04-09T04:03:56Z</time></trkpt><trkpt lat="35.7888859" lon="139.1545935"><ele>751.4066666666668</ele><time>2023-04-09T04:04:14Z</time></trkpt><trkpt lat="35.78886" lon="139.1548175"><ele>752.98</ele><time>2023-04-09T04:04:25Z</time></trkpt><trkpt lat="35.7890277" lon="139.1549285"><ele>755.7033333333334</ele><time>2023-04-09T04:04:39Z</time></trkpt><trkpt lat="35.789134" lon="139.1551145"><ele>755.5366666666667</ele><time>2023-04-09T04:04:57Z</time></trkpt><trkpt lat="35.7892019" lon="139.1553323"><ele>752.73</ele><time>2023-04-09T04:05:08Z</time></trkpt><trkpt lat="35.7892705" lon="139.1555374"><ele>747.9233333333333</ele><time>2023-04-09T04:05:19Z</time></trkpt><trkpt lat="35.7894572" lon="139.1555774"><ele>746.54</ele><time>2023-04-09T04:05:37Z</time></trkpt><trkpt lat="35.7896273" lon="139.1556778"><ele>746.3166666666666</ele><time>2023-04-09T04:05:45Z</time></trkpt><trkpt lat="35.7898482" lon="139.1556892"><ele>741.7166666666667</ele><time>2023-04-09T04:05:59Z</time></trkpt><trkpt lat="35.7900043" lon="139.1555766"><ele>732.54</ele><time>2023-04-09T04:06:08Z</time></trkpt><trkpt lat="35.7901585" lon="139.1554555"><ele>727.5066666666667</ele><time>2023-04-09T04:06:36Z</time></trkpt><trkpt lat="35.7903376" lon="139.1554852"><ele>727.3100000000001</ele><time>2023-04-09T04:06:48Z</time></trkpt><trkpt lat="35.7905132" lon="139.1555392"><ele>726.7599999999999</ele><time>2023-04-09T04:07:01Z</time></trkpt><trkpt lat="35.7905952" lon="139.155745"><ele>724.1666666666666</ele><time>2023-04-09T04:07:15Z</time></trkpt><trkpt lat="35.7906551" lon="139.1559566"><ele>719.5</ele><time>2023-04-09T04:07:27Z</time></trkpt><trkpt lat="35.7906412" lon="139.1561817"><ele>710.3100000000001</ele><time>2023-04-09T04:07:44Z</time></trkpt><trkpt lat="35.790762" lon="139.1563537"><ele>703.4233333333333</ele><time>2023-04-09T04:07:57Z</time></trkpt><trkpt lat="35.7908517" lon="139.1565543"><ele>698.3733333333333</ele><time>2023-04-09T04:08:11Z</time></trkpt><trkpt lat="35.7910409" lon="139.1565215"><ele>701.8000000000001</ele><time>2023-04-09T04:08:23Z</time></trkpt><trkpt lat="35.7912373" lon="139.1564554"><ele>702.19</ele><time>2023-04-09T04:08:36Z</time></trkpt><trkpt lat="35.7914052" lon="139.156343"><ele>699.71</ele><time>2023-04-09T04:08:49Z</time></trkpt><trkpt lat="35.7915488" lon="139.1561998"><ele>692.9699999999999</ele><time>2023-04-09T04:09:04Z</time></trkpt><trkpt lat="35.7916827" lon="139.1560311"><ele>691.1933333333333</ele><time>2023-04-09T04:09:24Z</time></trkpt><trkpt lat="35.7918116" lon="139.1558701"><ele>693.5333333333333</ele><time>2023-04-09T04:09:37Z</time></trkpt><trkpt lat="35.7919369" lon="139.1556948"><ele>696.9433333333333</ele><time>2023-04-09T04:09:47Z</time></trkpt><trkpt lat="35.7921244" lon="139.1557019"><ele>696.91</ele><time>2023-04-09T04:10:01Z</time></trkpt><trkpt lat="35.7922909" lon="139.1556159"><ele>694.4233333333333</ele><time>2023-04-09T04:10:15Z</time></trkpt><trkpt lat="35.7924295" lon="139.1554555"><ele>688.4899999999999</ele><time>2023-04-09T04:10:30Z</time></trkpt><trkpt lat="35.792602" lon="139.1555339"><ele>682.59</ele><time>2023-04-09T04:10:38Z</time></trkpt><trkpt lat="35.7925713" lon="139.1557583"><ele>679.6833333333333</ele><time>2023-04-09T04:10:50Z</time></trkpt><trkpt lat="35.7927532" lon="139.1557145"><ele>678.2933333333334</ele><time>2023-04-09T04:11:10Z</time></trkpt><trkpt lat="35.7928645" lon="139.1555349"><ele>675.7466666666668</ele><time>2023-04-09T04:11:21Z</time></trkpt><trkpt lat="35.7929578" lon="139.1553443"><ele>670.24</ele><time>2023-04-09T04:11:39Z</time></trkpt><trkpt lat="35.7931456" lon="139.1553982"><ele>665.6133333333333</ele><time>2023-04-09T04:11:50Z</time></trkpt><trkpt lat="35.7932723" lon="139.1555634"><ele>663.0500000000001</ele><time>2023-04-09T04:12:02Z</time></trkpt><trkpt lat="35.7931538" lon="139.1557313"><ele>662.67</ele><time>2023-04-09T04:12:12Z</time></trkpt><trkpt lat="35.7933375" lon="139.1557215"><ele>661.3866666666667</ele><time>2023-04-09T04:12:44Z</time></trkpt><trkpt lat="35.793482" lon="139.155572"><ele>658.7066666666668</ele><time>2023-04-09T04:12:54Z</time></trkpt><trkpt lat="35.793585" lon="139.1557556"><ele>653.8766666666667</ele><time>2023-04-09T04:13:11Z</time></trkpt><trkpt lat="35.7934457" lon="139.1559041"><ele>651.7800000000001</ele><time>2023-04-09T04:13:40Z</time></trkpt><trkpt lat="35.7934581" lon="139.1561256"><ele>647.5433333333334</ele><time>2023-04-09T04:13:55Z</time></trkpt><trkpt lat="35.793538" lon="139.15633"><ele>642.8933333333333</ele><time>2023-04-09T04:14:10Z</time></trkpt><trkpt lat="35.7934806" lon="139.156559"><ele>636.5500000000001</ele><time>2023-04-09T04:14:54Z</time></trkpt><trkpt lat="35.7934377" lon="139.1567949"><ele>632.6766666666666</ele><time>2023-04-09T04:14:56Z</time></trkpt><trkpt lat="35.7933892" lon="139.1570211"><ele>630.1766666666666</ele><time>2023-04-09T04:14:59Z</time></trkpt><trkpt lat="35.7933313" lon="139.1572646"><ele>628.8633333333333</ele><time>2023-04-09T04:15:05Z</time></trkpt><trkpt lat="35.7932962" lon="139.1574984"><ele>628.3533333333334</ele><time>2023-04-09T04:15:18Z</time></trkpt><trkpt lat="35.7933244" lon="139.1577185"><ele>626.38</ele><time>2023-04-09T04:15:26Z</time></trkpt><trkpt lat="35.7930798" lon="139.1578456"><ele>624.8533333333334</ele><time>2023-04-09T04:15:49Z</time></trkpt><trkpt lat="35.792947" lon="139.1580287"><ele>621.0799999999999</ele><time>2023-04-09T04:16:13Z</time></trkpt><trkpt lat="35.7930925" lon="139.1581748"><ele>616.1666666666666</ele><time>2023-04-09T04:16:41Z</time></trkpt><trkpt lat="35.7932767" lon="139.1581641"><ele>608.9866666666667</ele><time>2023-04-09T04:17:15Z</time></trkpt><trkpt lat="35.7934616" lon="139.1580659"><ele>604.4033333333333</ele><time>2023-04-09T04:17:30Z</time></trkpt><trkpt lat="35.7936175" lon="139.157949"><ele>602.66</ele><time>2023-04-09T04:17:39Z</time></trkpt><trkpt lat="35.7937976" lon="139.1579394"><ele>599.9166666666666</ele><time>2023-04-09T04:18:06Z</time></trkpt><trkpt lat="35.7939799" lon="139.1579553"><ele>593.7033333333334</ele><time>2023-04-09T04:18:15Z</time></trkpt><trkpt lat="35.7941728" lon="139.1578995"><ele>583.58</ele><time>2023-04-09T04:18:25Z</time></trkpt><trkpt lat="35.7939971" lon="139.1579865"><ele>578.8533333333334</ele><time>2023-04-09T04:18:55Z</time></trkpt><trkpt lat="35.7938322" lon="139.1580951"><ele>578.17</ele><time>2023-04-09T04:19:07Z</time></trkpt><trkpt lat="35.7937234" lon="139.1582884"><ele>580.3633333333333</ele><time>2023-04-09T04:19:18Z</time></trkpt><trkpt lat="35.7938723" lon="139.1584196"><ele>573.3633333333333</ele><time>2023-04-09T04:19:42Z</time></trkpt><trkpt lat="35.7939992" lon="139.1582547"><ele>567.8133333333334</ele><time>2023-04-09T04:19:57Z</time></trkpt><trkpt lat="35.7941877" lon="139.1582019"><ele>561.4133333333333</ele><time>2023-04-09T04:20:15Z</time></trkpt><trkpt lat="35.7943126" lon="139.1580423"><ele>560.81</ele><time>2023-04-09T04:20:24Z</time></trkpt><trkpt lat="35.7943679" lon="139.1582605"><ele>554.7566666666667</ele><time>2023-04-09T04:20:34Z</time></trkpt><trkpt lat="35.7942918" lon="139.1584677"><ele>549.4633333333333</ele><time>2023-04-09T04:20:59Z</time></trkpt><trkpt lat="35.7941225" lon="139.1585485"><ele>545.8166666666666</ele><time>2023-04-09T04:21:04Z</time></trkpt><trkpt lat="35.7940325" lon="139.1587439"><ele>542.7933333333334</ele><time>2023-04-09T04:21:24Z</time></trkpt><trkpt lat="35.7942455" lon="139.1587516"><ele>539.9133333333333</ele><time>2023-04-09T04:21:26Z</time></trkpt><trkpt lat="35.7944373" lon="139.1588277"><ele>532.29</ele><time>2023-04-09T04:21:37Z</time></trkpt><trkpt lat="35.794601" lon="139.1589267"><ele>523.2233333333334</ele><time>2023-04-09T04:21:47Z</time></trkpt><trkpt lat="35.7947703" lon="139.1588489"><ele>515.3066666666666</ele><time>2023-04-09T04:21:58Z</time></trkpt><trkpt lat="35.7948765" lon="139.1586682"><ele>512.0533333333333</ele><time>2023-04-09T04:22:09Z</time></trkpt><trkpt lat="35.7950587" lon="139.1587437"><ele>509.1366666666666</ele><time>2023-04-09T04:22:22Z</time></trkpt><trkpt lat="35.7949219" lon="139.1589029"><ele>506.28</ele><time>2023-04-09T04:22:40Z</time></trkpt><trkpt lat="35.7950958" lon="139.1588193"><ele>501.6133333333333</ele><time>2023-04-09T04:23:11Z</time></trkpt><trkpt lat="35.7952447" lon="139.1586941"><ele>498.56333333333333</ele><time>2023-04-09T04:23:27Z</time></trkpt><trkpt lat="35.7953785" lon="139.1585397"><ele>492.66</ele><time>2023-04-09T04:23:49Z</time></trkpt><trkpt lat="35.795359" lon="139.1587958"><ele>487.63000000000005</ele><time>2023-04-09T04:23:55Z</time></trkpt><trkpt lat="35.7953272" lon="139.1590141"><ele>483.0566666666667</ele><time>2023-04-09T04:24:12Z</time></trkpt><trkpt lat="35.7952004" lon="139.1591809"><ele>481.21000000000004</ele><time>2023-04-09T04:24:26Z</time></trkpt><trkpt lat="35.7950366" lon="139.1592823"><ele>478.69000000000005</ele><time>2023-04-09T04:24:41Z</time></trkpt><trkpt lat="35.7950794" lon="139.1594999"><ele>475.0</ele><time>2023-04-09T04:25:09Z</time></trkpt><trkpt lat="35.7952603" lon="139.1595101"><ele>467.82</ele><time>2023-04-09T04:25:24Z</time></trkpt><trkpt lat="35.7954386" lon="139.1594737"><ele>458.3733333333333</ele><time>2023-04-09T04:25:35Z</time></trkpt><trkpt lat="35.7954333" lon="139.1596968"><ele>449.8433333333334</ele><time>2023-04-09T04:26:10Z</time></trkpt><trkpt lat="35.7953006" lon="139.1598782"><ele>445.0333333333333</ele><time>2023-04-09T04:26:21Z</time></trkpt><trkpt lat="35.7954776" lon="139.1599457"><ele>439.8433333333333</ele><time>2023-04-09T04:26:35Z</time></trkpt><trkpt lat="35.79562" lon="139.1597949"><ele>435.56333333333333</ele><time>2023-04-09T04:26:45Z</time></trkpt><trkpt lat="35.795526" lon="139.1599927"><ele>432.07</ele><time>2023-04-09T04:27:12Z</time></trkpt><trkpt lat="35.7954577" lon="139.1602092"><ele>432.29333333333335</ele><time>2023-04-09T04:27:32Z</time></trkpt><trkpt lat="35.7955185" lon="139.1604204"><ele>430.40000000000003</ele><time>2023-04-09T04:27:51Z</time></trkpt><trkpt lat="35.7955475" lon="139.1606407"><ele>425.7666666666667</ele><time>2023-04-09T04:28:06Z</time></trkpt><trkpt lat="35.7956747" lon="139.1608056"><ele>419.7066666666667</ele><time>2023-04-09T04:28:22Z</time></trkpt><trkpt lat="35.7957542" lon="139.1610045"><ele>415.82666666666665</ele><time>2023-04-09T04:28:39Z</time></trkpt><trkpt lat="35.7959173" lon="139.161105"><ele>413.9166666666667</ele><time>2023-04-09T04:28:47Z</time></trkpt><trkpt lat="35.7958268" lon="139.1613106"><ele>411.69666666666666</ele><time>2023-04-09T04:29:03Z</time></trkpt><trkpt lat="35.795776" lon="139.1615761"><ele>408.05333333333334</ele><time>2023-04-09T04:29:33Z</time></trkpt><trkpt lat="35.7959026" lon="139.1617515"><ele>402.84999999999997</ele><time>2023-04-09T04:29:48Z</time></trkpt><trkpt lat="35.7960117" lon="139.1619451"><ele>396.91333333333336</ele><time>2023-04-09T04:30:22Z</time></trkpt><trkpt lat="35.7960638" lon="139.1621719"><ele>392.1666666666667</ele><time>2023-04-09T04:30:31Z</time></trkpt><trkpt lat="35.7962104" lon="139.1623007"><ele>387.92333333333335</ele><time>2023-04-09T04:31:00Z</time></trkpt><trkpt lat="35.796376" lon="139.1624273"><ele>386.4066666666667</ele><time>2023-04-09T04:31:14Z</time></trkpt><trkpt lat="35.7964929" lon="139.1626112"><ele>384.9466666666667</ele><time>2023-04-09T04:31:27Z</time></trkpt><trkpt lat="35.7965322" lon="139.1628433"><ele>382.8433333333333</ele><time>2023-04-09T04:31:40Z</time></trkpt><trkpt lat="35.7965729" lon="139.1630791"><ele>378.04333333333335</ele><time>2023-04-09T04:31:55Z</time></trkpt><trkpt lat="35.7967544" lon="139.1630653"><ele>375.62000000000006</ele><time>2023-04-09T04:32:11Z</time></trkpt><trkpt lat="35.7967254" lon="139.1633306"><ele>372.8433333333333</ele><time>2023-04-09T04:32:24Z</time></trkpt><trkpt lat="35.7967344" lon="139.1635599"><ele>371.1433333333334</ele><time>2023-04-09T04:32:30Z</time></trkpt><trkpt lat="35.7967857" lon="139.1637912"><ele>367.18</ele><time>2023-04-09T04:32:42Z</time></trkpt><trkpt lat="35.7968967" lon="139.1639868"><ele>365.55333333333334</ele><time>2023-04-09T04:32:56Z</time></trkpt><trkpt lat="35.7969534" lon="139.1642061"><ele>362.97</ele><time>2023-04-09T04:33:11Z</time></trkpt><trkpt lat="35.7970106" lon="139.164433"><ele>360.93666666666667</ele><time>2023-04-09T04:33:23Z</time></trkpt><trkpt lat="35.7970506" lon="139.1646574"><ele>357.8766666666666</ele><time>2023-04-09T04:33:35Z</time></trkpt><trkpt lat="35.7970566" lon="139.164886"><ele>354.74</ele><time>2023-04-09T04:33:50Z</time></trkpt><trkpt lat="35.7969248" lon="139.1650393"><ele>351.25</ele><time>2023-04-09T04:34:02Z</time></trkpt><trkpt lat="35.7969722" lon="139.1652593"><ele>347.8933333333334</ele><time>2023-04-09T04:34:17Z</time></trkpt><trkpt lat="35.7970893" lon="139.1654287"><ele>346.77333333333337</ele><time>2023-04-09T04:34:28Z</time></trkpt><trkpt lat="35.7971403" lon="139.1656691"><ele>345.6933333333334</ele><time>2023-04-09T04:34:44Z</time></trkpt><trkpt lat="35.796972" lon="139.1657617"><ele>343.6266666666667</ele><time>2023-04-09T04:34:52Z</time></trkpt><trkpt lat="35.7969788" lon="139.1659838"><ele>340.3766666666667</ele><time>2023-04-09T04:35:05Z</time></trkpt><trkpt lat="35.7970449" lon="139.1661938"><ele>336.4766666666667</ele><time>2023-04-09T04:35:16Z</time></trkpt><trkpt lat="35.7970314" lon="139.1664182"><ele>332.73333333333335</ele><time>2023-04-09T04:35:30Z</time></trkpt><trkpt lat="35.7970572" lon="139.1666388"><ele>329.01666666666665</ele><time>2023-04-09T04:35:42Z</time></trkpt><trkpt lat="35.7970884" lon="139.1668604"><ele>325.31</ele><time>2023-04-09T04:35:56Z</time></trkpt><trkpt lat="35.7972284" lon="139.1669998"><ele>321.7366666666667</ele><time>2023-04-09T04:36:10Z</time></trkpt><trkpt lat="35.7973083" lon="139.1672176"><ele>317.78333333333336</ele><time>2023-04-09T04:36:23Z</time></trkpt><trkpt lat="35.7972911" lon="139.1674434"><ele>314.79333333333335</ele><time>2023-04-09T04:36:32Z</time></trkpt><trkpt lat="35.7974508" lon="139.167574"><ele>312.15000000000003</ele><time>2023-04-09T04:36:48Z</time></trkpt><trkpt lat="35.7975756" lon="139.1677412"><ele>309.83666666666664</ele><time>2023-04-09T04:37:04Z</time></trkpt><trkpt lat="35.7976582" lon="139.1679447"><ele>307.23</ele><time>2023-04-09T04:37:23Z</time></trkpt><trkpt lat="35.7977041" lon="139.168169"><ele>304.32</ele><time>2023-04-09T04:37:38Z</time></trkpt><trkpt lat="35.7977869" lon="139.1683697"><ele>302.0833333333333</ele><time>2023-04-09T04:37:50Z</time></trkpt><trkpt lat="35.7979329" lon="139.1685195"><ele>298.86666666666673</ele><time>2023-04-09T04:38:03Z</time></trkpt><trkpt lat="35.7980524" lon="139.1687146"><ele>296.0266666666667</ele><time>2023-04-09T04:38:13Z</time></trkpt><trkpt lat="35.7981754" lon="139.1688903"><ele>292.9066666666667</ele><time>2023-04-09T04:38:24Z</time></trkpt><trkpt lat="35.7982752" lon="139.1690881"><ele>291.95666666666665</ele><time>2023-04-09T04:38:39Z</time></trkpt><trkpt lat="35.7984299" lon="139.1689732"><ele>291.56</ele><time>2023-04-09T04:40:22Z</time></trkpt><trkpt lat="35.7985929" lon="139.1690686"><ele>291.53666666666663</ele><time>2023-04-09T04:42:56Z</time></trkpt><trkpt lat="35.7987788" lon="139.1690681"><ele>289.7633333333333</ele><time>2023-04-09T04:43:09Z</time></trkpt><trkpt lat="35.7989624" lon="139.1691172"><ele>286.77</ele><time>2023-04-09T04:43:21Z</time></trkpt><trkpt lat="35.7991028" lon="139.1692579"><ele>283.1166666666667</ele><time>2023-04-09T04:43:33Z</time></trkpt><trkpt lat="35.7992368" lon="139.1694261"><ele>280.8</ele><time>2023-04-09T04:43:50Z</time></trkpt><trkpt lat="35.7994027" lon="139.1695232"><ele>279.9266666666667</ele><time>2023-04-09T04:44:05Z</time></trkpt><trkpt lat="35.7995714" lon="139.1696166"><ele>279.21000000000004</ele><time>2023-04-09T04:44:18Z</time></trkpt><trkpt lat="35.7997179" lon="139.1697552"><ele>277.92333333333335</ele><time>2023-04-09T04:44:29Z</time></trkpt><trkpt lat="35.7998199" lon="139.1699479"><ele>276.40333333333336</ele><time>2023-04-09T04:44:40Z</time></trkpt><trkpt lat="35.7998504" lon="139.1701723"><ele>275.4166666666667</ele><time>2023-04-09T04:44:52Z</time></trkpt><trkpt lat="35.7998496" lon="139.1704058"><ele>275.36999999999995</ele><time>2023-04-09T04:45:09Z</time></trkpt><trkpt lat="35.7998845" lon="139.1706317"><ele>275.7966666666667</ele><time>2023-04-09T04:45:23Z</time></trkpt><trkpt lat="35.8000029" lon="139.170817"><ele>274.9266666666667</ele><time>2023-04-09T04:45:38Z</time></trkpt><trkpt lat="35.8000919" lon="139.1710272"><ele>273.24</ele><time>2023-04-09T04:45:51Z</time></trkpt><trkpt lat="35.8002242" lon="139.1711974"><ele>270.23</ele><time>2023-04-09T04:46:02Z</time></trkpt><trkpt lat="35.8002898" lon="139.1714058"><ele>269.55333333333334</ele><time>2023-04-09T04:46:18Z</time></trkpt><trkpt lat="35.8004423" lon="139.1715446"><ele>269.3633333333334</ele><time>2023-04-09T04:46:33Z</time></trkpt><trkpt lat="35.8006178" lon="139.1716021"><ele>268.1766666666667</ele><time>2023-04-09T04:46:40Z</time></trkpt><trkpt lat="35.8006252" lon="139.1718259"><ele>266.0</ele><time>2023-04-09T04:46:54Z</time></trkpt><trkpt lat="35.800791" lon="139.1719249"><ele>262.5466666666666</ele><time>2023-04-09T04:47:05Z</time></trkpt><trkpt lat="35.8009617" lon="139.1719984"><ele>261.6166666666667</ele><time>2023-04-09T04:47:12Z</time></trkpt><trkpt lat="35.801135" lon="139.1720644"><ele>260.03666666666663</ele><time>2023-04-09T04:47:27Z</time></trkpt><trkpt lat="35.8012885" lon="139.1721932"><ele>259.82666666666665</ele><time>2023-04-09T04:47:38Z</time></trkpt><trkpt lat="35.8014624" lon="139.1722822"><ele>258.6333333333333</ele><time>2023-04-09T04:47:48Z</time></trkpt><trkpt lat="35.8016327" lon="139.1723661"><ele>256.96666666666664</ele><time>2023-04-09T04:48:00Z</time></trkpt><trkpt lat="35.8017939" lon="139.1724691"><ele>254.75</ele><time>2023-04-09T04:48:15Z</time></trkpt><trkpt lat="35.8018891" lon="139.1726646"><ele>252.70000000000002</ele><time>2023-04-09T04:48:30Z</time></trkpt><trkpt lat="35.8020478" lon="139.1727871"><ele>250.99666666666667</ele><time>2023-04-09T04:48:41Z</time></trkpt><trkpt lat="35.8021508" lon="139.1729773"><ele>249.60000000000002</ele><time>2023-04-09T04:48:51Z</time></trkpt><trkpt lat="35.8021856" lon="139.173201"><ele>249.08</ele><time>2023-04-09T04:49:05Z</time></trkpt><trkpt lat="35.8022263" lon="139.173421"><ele>248.6833333333333</ele><time>2023-04-09T04:49:14Z</time></trkpt><trkpt lat="35.8022739" lon="139.1736393"><ele>249.54</ele><time>2023-04-09T04:49:30Z</time></trkpt><trkpt lat="35.8022843" lon="139.1738754"><ele>250.31000000000003</ele><time>2023-04-09T04:49:43Z</time></trkpt><trkpt lat="35.8022561" lon="139.1741049"><ele>251.53333333333333</ele><time>2023-04-09T04:49:54Z</time></trkpt><trkpt lat="35.8022193" lon="139.174335"><ele>252.08333333333334</ele><time>2023-04-09T04:50:06Z</time></trkpt><trkpt lat="35.8021137" lon="139.1745209"><ele>252.6833333333333</ele><time>2023-04-09T04:50:26Z</time></trkpt><trkpt lat="35.8019436" lon="139.1746138"><ele>254.16</ele><time>2023-04-09T04:50:37Z</time></trkpt><trkpt lat="35.8018015" lon="139.1747615"><ele>254.9433333333333</ele><time>2023-04-09T04:50:48Z</time></trkpt><trkpt lat="35.8016129" lon="139.1747744"><ele>255.61999999999998</ele><time>2023-04-09T04:51:03Z</time></trkpt><trkpt lat="35.8014279" lon="139.1748118"><ele>255.04666666666665</ele><time>2023-04-09T04:51:12Z</time></trkpt><trkpt lat="35.8012499" lon="139.1748483"><ele>254.86333333333334</ele><time>2023-04-09T04:51:25Z</time></trkpt><trkpt lat="35.8010682" lon="139.1748102"><ele>254.55999999999997</ele><time>2023-04-09T04:51:38Z</time></trkpt><trkpt lat="35.8008753" lon="139.1748478"><ele>254.73333333333335</ele><time>2023-04-09T04:51:50Z</time></trkpt><trkpt lat="35.8006957" lon="139.174761"><ele>255.34</ele><time>2023-04-09T04:52:03Z</time></trkpt><trkpt lat="35.8005085" lon="139.1748406"><ele>255.4366666666667</ele><time>2023-04-09T04:52:12Z</time></trkpt><trkpt lat="35.8003272" lon="139.174897"><ele>255.07000000000002</ele><time>2023-04-09T04:52:24Z</time></trkpt><trkpt lat="35.8001596" lon="139.1749812"><ele>253.88000000000002</ele><time>2023-04-09T04:52:37Z</time></trkpt><trkpt lat="35.7999834" lon="139.1750332"><ele>253.69000000000003</ele><time>2023-04-09T04:52:47Z</time></trkpt><trkpt lat="35.7998145" lon="139.1751334"><ele>253.7266666666667</ele><time>2023-04-09T04:53:01Z</time></trkpt><trkpt lat="35.7996535" lon="139.1752396"><ele>252.51</ele><time>2023-04-09T04:53:15Z</time></trkpt><trkpt lat="35.7995127" lon="139.1754002"><ele>249.50666666666666</ele><time>2023-04-09T04:53:26Z</time></trkpt><trkpt lat="35.7993763" lon="139.175582"><ele>245.29</ele><time>2023-04-09T04:53:35Z</time></trkpt><trkpt lat="35.7992298" lon="139.1757285"><ele>242.87333333333333</ele><time>2023-04-09T04:53:47Z</time></trkpt><trkpt lat="35.7991095" lon="139.1758981"><ele>241.5233333333333</ele><time>2023-04-09T04:53:59Z</time></trkpt><trkpt lat="35.7989912" lon="139.1760737"><ele>241.59333333333333</ele><time>2023-04-09T04:54:11Z</time></trkpt><trkpt lat="35.7988703" lon="139.1762495"><ele>241.7266666666667</ele><time>2023-04-09T04:54:22Z</time></trkpt><trkpt lat="35.798777" lon="139.1764493"><ele>241.74666666666667</ele><time>2023-04-09T04:54:42Z</time></trkpt><trkpt lat="35.7986926" lon="139.1766652"><ele>242.03</ele><time>2023-04-09T04:54:53Z</time></trkpt><trkpt lat="35.7986074" lon="139.1768706"><ele>242.37</ele><time>2023-04-09T04:55:06Z</time></trkpt><trkpt lat="35.7986023" lon="139.1770921"><ele>242.85666666666668</ele><time>2023-04-09T04:55:20Z</time></trkpt><trkpt lat="35.7984703" lon="139.1772442"><ele>244.15</ele><time>2023-04-09T04:55:29Z</time></trkpt><trkpt lat="35.7985008" lon="139.177466"><ele>244.75</ele><time>2023-04-09T04:55:41Z</time></trkpt><trkpt lat="35.798532" lon="139.1776886"><ele>245.4666666666667</ele><time>2023-04-09T04:55:53Z</time></trkpt><trkpt lat="35.7985747" lon="139.1779081"><ele>244.54666666666665</ele><time>2023-04-09T04:56:05Z</time></trkpt><trkpt lat="35.7986335" lon="139.1781184"><ele>243.26666666666668</ele><time>2023-04-09T04:56:20Z</time></trkpt><trkpt lat="35.798711" lon="139.1783339"><ele>240.62333333333333</ele><time>2023-04-09T04:56:35Z</time></trkpt><trkpt lat="35.7988668" lon="139.1784499"><ele>237.52999999999997</ele><time>2023-04-09T04:56:44Z</time></trkpt><trkpt lat="35.7989333" lon="139.1786591"><ele>235.31000000000003</ele><time>2023-04-09T04:56:54Z</time></trkpt><trkpt lat="35.7990883" lon="139.1788115"><ele>234.26666666666665</ele><time>2023-04-09T04:57:02Z</time></trkpt><trkpt lat="35.7991329" lon="139.1790377"><ele>234.54</ele><time>2023-04-09T04:57:12Z</time></trkpt><trkpt lat="35.7992692" lon="139.1791885"><ele>234.2266666666667</ele><time>2023-04-09T04:57:25Z</time></trkpt><trkpt lat="35.7994227" lon="139.1793222"><ele>233.58</ele><time>2023-04-09T04:57:40Z</time></trkpt><trkpt lat="35.7995111" lon="139.1795193"><ele>232.45000000000002</ele><time>2023-04-09T04:57:53Z</time></trkpt><trkpt lat="35.799628" lon="139.1796949"><ele>231.80333333333337</ele><time>2023-04-09T04:58:01Z</time></trkpt><trkpt lat="35.7997695" lon="139.1798393"><ele>231.56333333333336</ele><time>2023-04-09T04:58:11Z</time></trkpt><trkpt lat="35.7998269" lon="139.1800611"><ele>231.58</ele><time>2023-04-09T04:58:24Z</time></trkpt><trkpt lat="35.7998345" lon="139.1802895"><ele>231.78666666666672</ele><time>2023-04-09T04:58:37Z</time></trkpt><trkpt lat="35.7998233" lon="139.1805145"><ele>232.55333333333337</ele><time>2023-04-09T04:58:48Z</time></trkpt><trkpt lat="35.7998458" lon="139.1807385"><ele>233.26666666666665</ele><time>2023-04-09T04:59:00Z</time></trkpt><trkpt lat="35.7998648" lon="139.1809669"><ele>233.44333333333336</ele><time>2023-04-09T04:59:13Z</time></trkpt><trkpt lat="35.7998056" lon="139.181185"><ele>233.54666666666665</ele><time>2023-04-09T04:59:27Z</time></trkpt><trkpt lat="35.7997982" lon="139.1814128"><ele>233.62333333333333</ele><time>2023-04-09T04:59:38Z</time></trkpt><trkpt lat="35.7997569" lon="139.1816297"><ele>234.33333333333334</ele><time>2023-04-09T04:59:50Z</time></trkpt><trkpt lat="35.7998385" lon="139.1818438"><ele>234.52333333333334</ele><time>2023-04-09T05:00:06Z</time></trkpt><trkpt lat="35.7997789" lon="139.1820586"><ele>234.90333333333334</ele><time>2023-04-09T05:00:18Z</time></trkpt><trkpt lat="35.7998344" lon="139.18227"><ele>234.64333333333335</ele><time>2023-04-09T05:00:33Z</time></trkpt><trkpt lat="35.7998261" lon="139.1825029"><ele>234.57333333333335</ele><time>2023-04-09T05:00:45Z</time></trkpt><trkpt lat="35.7998992" lon="139.182719"><ele>234.20333333333335</ele><time>2023-04-09T05:00:56Z</time></trkpt><trkpt lat="35.8000317" lon="139.1828723"><ele>233.71666666666667</ele><time>2023-04-09T05:01:07Z</time></trkpt><trkpt lat="35.8001422" lon="139.183074"><ele>232.66666666666666</ele><time>2023-04-09T05:01:19Z</time></trkpt><trkpt lat="35.8003254" lon="139.1832254"><ele>228.59333333333333</ele><time>2023-04-09T05:01:25Z</time></trkpt><trkpt lat="35.8005147" lon="139.1832384"><ele>221.65333333333334</ele><time>2023-04-09T05:01:31Z</time></trkpt><trkpt lat="35.8006589" lon="139.1830543"><ele>215.26999999999998</ele><time>2023-04-09T05:01:37Z</time></trkpt><trkpt lat="35.8008669" lon="139.1830248"><ele>213.10333333333335</ele><time>2023-04-09T05:01:42Z</time></trkpt><trkpt lat="35.801043" lon="139.1830894"><ele>219.48666666666668</ele><time>2023-04-09T05:01:45Z</time></trkpt><trkpt lat="35.8012224" lon="139.1831252"><ele>227.74333333333334</ele><time>2023-04-09T05:01:50Z</time></trkpt><trkpt lat="35.8013947" lon="139.1831941"><ele>236.55666666666664</ele><time>2023-04-09T05:02:00Z</time></trkpt><trkpt lat="35.8019776" lon="139.1833432"><ele>242.48333333333335</ele><time>2023-04-09T05:02:26Z</time></trkpt><trkpt lat="35.8018266" lon="139.1830094"><ele>246.54</ele><time>2023-04-09T05:02:34Z</time></trkpt><trkpt lat="35.8016175" lon="139.1828218"><ele>247.91</ele><time>2023-04-09T05:02:38Z</time></trkpt><trkpt lat="35.8015528" lon="139.1826137"><ele>246.62</ele><time>2023-04-09T05:02:53Z</time></trkpt></trkseg></trk></gpx>