<?xml version='1.0' encoding='UTF-8'?><gpx creator="YAMAP - https://yamap.com" xsi:schemaLocation="http://www.topografix.com/GPX/1/1 http://www.topografix.com/GPX/1/1/gpx.xsd" version="1.1" xmlns="http://www.topografix.com/GPX/1/1" xmlns:xsi="http://www.w3.org/2001/XMLSchema-instance"><metadata><bounds maxlat="35.4184885" maxlon="136.4068407" minlat="35.3940422" minlon="136.3825328"/></metadata><trk><name>伊吹山</name><number>1</number><trkseg><trkpt lat="35.3941408" lon="136.3827455"><ele>216.20000000000002</ele><time>2022-11-18T23:00:30Z</time></trkpt><trkpt lat="35.3940422" lon="136.3825328"><ele>214.96500000000003</ele><time>2022-11-18T23:01:32Z</time></trkpt><trkpt lat="35.3942974" lon="136.3827405"><ele>215.78</ele><time>2022-11-18T23:02:06Z</time></trkpt><trkpt lat="35.3941405" lon="136.3828501"><ele>215.90333333333334</ele><time>2022-11-18T23:02:22Z</time></trkpt><trkpt lat="35.3941302" lon="136.3830738"><ele>217.02</ele><time>2022-11-18T23:02:37Z</time></trkpt><trkpt lat="35.3942229" lon="136.3832654"><ele>217.40333333333334</ele><time>2022-11-18T23:02:57Z</time></trkpt><trkpt lat="35.3943591" lon="136.3834107"><ele>218.6833333333333</ele><time>2022-11-18T23:04:40Z</time></trkpt><trkpt lat="35.3944917" lon="136.3835798"><ele>221.81333333333336</ele><time>2022-11-18T23:05:18Z</time></trkpt><trkpt lat="35.394539" lon="136.3837923"><ele>229.29999999999998</ele><time>2022-11-18T23:05:52Z</time></trkpt><trkpt lat="35.3945642" lon="136.3840146"><ele>239.24333333333334</ele><time>2022-11-18T23:06:57Z</time></trkpt><trkpt lat="35.3947371" lon="136.3840805"><ele>250.41666666666666</ele><time>2022-11-18T23:07:22Z</time></trkpt><trkpt lat="35.394913" lon="136.3840248"><ele>257.87</ele><time>2022-11-18T23:07:51Z</time></trkpt><trkpt lat="35.3950948" lon="136.3840544"><ele>263.68333333333334</ele><time>2022-11-18T23:08:15Z</time></trkpt><trkpt lat="35.3952717" lon="136.3840969"><ele>266.89666666666665</ele><time>2022-11-18T23:08:35Z</time></trkpt><trkpt lat="35.3954503" lon="136.384154"><ele>269.1933333333333</ele><time>2022-11-18T23:09:03Z</time></trkpt><trkpt lat="35.3955938" lon="136.3842882"><ele>270.49333333333334</ele><time>2022-11-18T23:09:22Z</time></trkpt><trkpt lat="35.3956665" lon="136.3844927"><ele>271.96999999999997</ele><time>2022-11-18T23:09:57Z</time></trkpt><trkpt lat="35.3955138" lon="136.3846127"><ele>276.3</ele><time>2022-11-18T23:10:19Z</time></trkpt><trkpt lat="35.3953347" lon="136.3846595"><ele>284.17333333333335</ele><time>2022-11-18T23:11:57Z</time></trkpt><trkpt lat="35.3952126" lon="136.3848288"><ele>293.93</ele><time>2022-11-18T23:12:40Z</time></trkpt><trkpt lat="35.3953569" lon="136.3849621"><ele>300.75666666666666</ele><time>2022-11-18T23:13:25Z</time></trkpt><trkpt lat="35.3952236" lon="136.3851106"><ele>306.5433333333333</ele><time>2022-11-18T23:14:46Z</time></trkpt><trkpt lat="35.3950981" lon="136.3852713"><ele>312.1033333333333</ele><time>2022-11-18T23:15:43Z</time></trkpt><trkpt lat="35.3949793" lon="136.385442"><ele>320.3566666666666</ele><time>2022-11-18T23:17:11Z</time></trkpt><trkpt lat="35.3947999" lon="136.3855008"><ele>326.9066666666667</ele><time>2022-11-18T23:17:54Z</time></trkpt><trkpt lat="35.3946685" lon="136.3856552"><ele>332.83</ele><time>2022-11-18T23:18:20Z</time></trkpt><trkpt lat="35.3947991" lon="136.3858324"><ele>337.9066666666667</ele><time>2022-11-18T23:19:17Z</time></trkpt><trkpt lat="35.394957" lon="136.3859458"><ele>342.49</ele><time>2022-11-18T23:19:43Z</time></trkpt><trkpt lat="35.3951134" lon="136.386057"><ele>345.86666666666673</ele><time>2022-11-18T23:20:19Z</time></trkpt><trkpt lat="35.3952811" lon="136.3861466"><ele>347.92</ele><time>2022-11-18T23:20:52Z</time></trkpt><trkpt lat="35.3954363" lon="136.3862595"><ele>350.84999999999997</ele><time>2022-11-18T23:21:37Z</time></trkpt><trkpt lat="35.3955865" lon="136.3863833"><ele>353.8533333333333</ele><time>2022-11-18T23:22:02Z</time></trkpt><trkpt lat="35.3957181" lon="136.386537"><ele>357.98333333333335</ele><time>2022-11-18T23:22:56Z</time></trkpt><trkpt lat="35.3958151" lon="136.3867256"><ele>362.49</ele><time>2022-11-18T23:23:16Z</time></trkpt><trkpt lat="35.3956812" lon="136.3868767"><ele>369.2733333333333</ele><time>2022-11-18T23:24:51Z</time></trkpt><trkpt lat="35.3954975" lon="136.386897"><ele>375.09666666666664</ele><time>2022-11-18T23:25:12Z</time></trkpt><trkpt lat="35.3953095" lon="136.386877"><ele>380.07666666666665</ele><time>2022-11-18T23:25:39Z</time></trkpt><trkpt lat="35.3951527" lon="136.3869865"><ele>383.5166666666667</ele><time>2022-11-18T23:26:13Z</time></trkpt><trkpt lat="35.3950167" lon="136.3871314"><ele>388.27333333333337</ele><time>2022-11-18T23:27:01Z</time></trkpt><trkpt lat="35.394948" lon="136.3873382"><ele>393.54333333333335</ele><time>2022-11-18T23:27:45Z</time></trkpt><trkpt lat="35.394941" lon="136.3875583"><ele>400.14333333333326</ele><time>2022-11-18T23:28:05Z</time></trkpt><trkpt lat="35.3949849" lon="136.3877751"><ele>405.8433333333333</ele><time>2022-11-18T23:28:55Z</time></trkpt><trkpt lat="35.3949357" lon="136.38799"><ele>410.68333333333334</ele><time>2022-11-18T23:29:13Z</time></trkpt><trkpt lat="35.3950925" lon="136.3881218"><ele>413.6966666666667</ele><time>2022-11-18T23:29:46Z</time></trkpt><trkpt lat="35.3951618" lon="136.3883385"><ele>417.33666666666664</ele><time>2022-11-18T23:29:58Z</time></trkpt><trkpt lat="35.3952257" lon="136.3885474"><ele>421.7166666666667</ele><time>2022-11-18T23:30:29Z</time></trkpt><trkpt lat="35.3953242" lon="136.3887436"><ele>426.96000000000004</ele><time>2022-11-18T23:31:13Z</time></trkpt><trkpt lat="35.3953692" lon="136.3889672"><ele>431.56666666666666</ele><time>2022-11-18T23:31:45Z</time></trkpt><trkpt lat="35.3954921" lon="136.3891378"><ele>436.34666666666664</ele><time>2022-11-18T23:32:32Z</time></trkpt><trkpt lat="35.3955507" lon="136.3893487"><ele>440.44</ele><time>2022-11-18T23:32:42Z</time></trkpt><trkpt lat="35.3955473" lon="136.3895709"><ele>443.93</ele><time>2022-11-18T23:33:27Z</time></trkpt><trkpt lat="35.395657" lon="136.389786"><ele>447.94</ele><time>2022-11-18T23:33:59Z</time></trkpt><trkpt lat="35.3958324" lon="136.3898594"><ele>452.8833333333334</ele><time>2022-11-18T23:34:22Z</time></trkpt><trkpt lat="35.3959427" lon="136.3900353"><ele>459.46666666666664</ele><time>2022-11-18T23:35:30Z</time></trkpt><trkpt lat="35.3961169" lon="136.3900946"><ele>465.63333333333327</ele><time>2022-11-18T23:35:51Z</time></trkpt><trkpt lat="35.396247" lon="136.3902477"><ele>471.66333333333336</ele><time>2022-11-18T23:36:21Z</time></trkpt><trkpt lat="35.3963931" lon="136.3903831"><ele>477.6233333333334</ele><time>2022-11-18T23:37:23Z</time></trkpt><trkpt lat="35.3964717" lon="136.3905857"><ele>483.78000000000003</ele><time>2022-11-18T23:37:53Z</time></trkpt><trkpt lat="35.3966347" lon="136.3906911"><ele>490.26</ele><time>2022-11-18T23:38:29Z</time></trkpt><trkpt lat="35.3966533" lon="136.390916"><ele>496.0833333333333</ele><time>2022-11-18T23:39:16Z</time></trkpt><trkpt lat="35.3966525" lon="136.3911426"><ele>500.68666666666667</ele><time>2022-11-18T23:39:31Z</time></trkpt><trkpt lat="35.396644" lon="136.3913648"><ele>504.2966666666666</ele><time>2022-11-18T23:39:59Z</time></trkpt><trkpt lat="35.3967646" lon="136.3915421"><ele>507.95666666666665</ele><time>2022-11-18T23:40:44Z</time></trkpt><trkpt lat="35.3968664" lon="136.3917289"><ele>511.64333333333326</ele><time>2022-11-18T23:41:05Z</time></trkpt><trkpt lat="35.3970201" lon="136.3918656"><ele>515.4666666666667</ele><time>2022-11-18T23:41:45Z</time></trkpt><trkpt lat="35.3971627" lon="136.3920085"><ele>519.3233333333334</ele><time>2022-11-18T23:41:59Z</time></trkpt><trkpt lat="35.3972543" lon="136.3922071"><ele>524.0533333333333</ele><time>2022-11-18T23:42:45Z</time></trkpt><trkpt lat="35.3974086" lon="136.3923314"><ele>528.5266666666666</ele><time>2022-11-18T23:42:58Z</time></trkpt><trkpt lat="35.3975113" lon="136.3925213"><ele>532.7399999999999</ele><time>2022-11-18T23:43:33Z</time></trkpt><trkpt lat="35.3976586" lon="136.3926792"><ele>536.6999999999999</ele><time>2022-11-18T23:43:45Z</time></trkpt><trkpt lat="35.3977917" lon="136.3928329"><ele>540.66</ele><time>2022-11-18T23:44:30Z</time></trkpt><trkpt lat="35.3979313" lon="136.3929816"><ele>545.0633333333334</ele><time>2022-11-18T23:44:53Z</time></trkpt><trkpt lat="35.3979257" lon="136.3932093"><ele>549.4066666666666</ele><time>2022-11-18T23:45:16Z</time></trkpt><trkpt lat="35.3980983" lon="136.393323"><ele>555.2200000000001</ele><time>2022-11-18T23:46:03Z</time></trkpt><trkpt lat="35.3982568" lon="136.3934282"><ele>560.41</ele><time>2022-11-18T23:46:22Z</time></trkpt><trkpt lat="35.3984371" lon="136.3934365"><ele>566.2866666666667</ele><time>2022-11-18T23:46:59Z</time></trkpt><trkpt lat="35.3984974" lon="136.3936444"><ele>572.01</ele><time>2022-11-18T23:47:37Z</time></trkpt><trkpt lat="35.3984436" lon="136.3938573"><ele>576.7</ele><time>2022-11-18T23:48:15Z</time></trkpt><trkpt lat="35.3985294" lon="136.3940564"><ele>582.9033333333333</ele><time>2022-11-18T23:48:50Z</time></trkpt><trkpt lat="35.3987098" lon="136.3940308"><ele>589.74</ele><time>2022-11-18T23:50:15Z</time></trkpt><trkpt lat="35.3988115" lon="136.3938287"><ele>595.5500000000001</ele><time>2022-11-18T23:50:59Z</time></trkpt><trkpt lat="35.3989303" lon="136.3936533"><ele>598.9200000000001</ele><time>2022-11-18T23:51:12Z</time></trkpt><trkpt lat="35.3990849" lon="136.3935292"><ele>600.8866666666667</ele><time>2022-11-18T23:51:58Z</time></trkpt><trkpt lat="35.3992406" lon="136.3933896"><ele>605.4766666666666</ele><time>2022-11-18T23:52:16Z</time></trkpt><trkpt lat="35.3992373" lon="136.393161"><ele>606.9533333333333</ele><time>2022-11-18T23:52:56Z</time></trkpt><trkpt lat="35.3994242" lon="136.3931337"><ele>609.88</ele><time>2022-11-18T23:53:24Z</time></trkpt><trkpt lat="35.3996059" lon="136.393119"><ele>612.91</ele><time>2022-11-18T23:53:53Z</time></trkpt><trkpt lat="35.3997837" lon="136.3931747"><ele>620.0333333333333</ele><time>2022-11-18T23:54:26Z</time></trkpt><trkpt lat="35.3999667" lon="136.393153"><ele>625.9266666666667</ele><time>2022-11-18T23:55:14Z</time></trkpt><trkpt lat="35.400147" lon="136.393177"><ele>631.0366666666667</ele><time>2022-11-18T23:55:55Z</time></trkpt><trkpt lat="35.4001822" lon="136.3933936"><ele>637.92</ele><time>2022-11-18T23:56:42Z</time></trkpt><trkpt lat="35.4003538" lon="136.3934892"><ele>644.3033333333334</ele><time>2022-11-18T23:57:28Z</time></trkpt><trkpt lat="35.4005318" lon="136.3935607"><ele>650.4466666666666</ele><time>2022-11-18T23:57:46Z</time></trkpt><trkpt lat="35.4007357" lon="136.3935328"><ele>654.0500000000001</ele><time>2022-11-18T23:57:59Z</time></trkpt><trkpt lat="35.4008148" lon="136.3937364"><ele>659.4133333333333</ele><time>2022-11-18T23:58:38Z</time></trkpt><trkpt lat="35.4007375" lon="136.3939479"><ele>664.1166666666667</ele><time>2022-11-18T23:59:22Z</time></trkpt><trkpt lat="35.4007374" lon="136.3941718"><ele>669.1533333333333</ele><time>2022-11-18T23:59:55Z</time></trkpt><trkpt lat="35.4007223" lon="136.3943947"><ele>671.48</ele><time>2022-11-19T00:00:19Z</time></trkpt><trkpt lat="35.4007482" lon="136.394621"><ele>675.7133333333333</ele><time>2022-11-19T00:00:51Z</time></trkpt><trkpt lat="35.4008164" lon="136.3948271"><ele>679.4266666666667</ele><time>2022-11-19T00:01:32Z</time></trkpt><trkpt lat="35.4009246" lon="136.3950038"><ele>683.6133333333333</ele><time>2022-11-19T00:02:06Z</time></trkpt><trkpt lat="35.4011099" lon="136.3949562"><ele>686.6166666666667</ele><time>2022-11-19T00:02:27Z</time></trkpt><trkpt lat="35.4013092" lon="136.3950097"><ele>689.69</ele><time>2022-11-19T00:02:42Z</time></trkpt><trkpt lat="35.4014834" lon="136.3950815"><ele>692.8733333333333</ele><time>2022-11-19T00:02:55Z</time></trkpt><trkpt lat="35.4016096" lon="136.3952577"><ele>695.7333333333335</ele><time>2022-11-19T00:03:16Z</time></trkpt><trkpt lat="35.4016023" lon="136.3954876"><ele>697.2700000000001</ele><time>2022-11-19T00:04:09Z</time></trkpt><trkpt lat="35.4017115" lon="136.3956654"><ele>700.0099999999999</ele><time>2022-11-19T00:04:31Z</time></trkpt><trkpt lat="35.4016918" lon="136.3958908"><ele>704.1266666666667</ele><time>2022-11-19T00:04:55Z</time></trkpt><trkpt lat="35.4015725" lon="136.3960773"><ele>707.0033333333334</ele><time>2022-11-19T00:05:11Z</time></trkpt><trkpt lat="35.4016986" lon="136.3962376"><ele>710.9433333333333</ele><time>2022-11-19T00:05:41Z</time></trkpt><trkpt lat="35.4017792" lon="136.3964557"><ele>714.6233333333333</ele><time>2022-11-19T00:06:23Z</time></trkpt><trkpt lat="35.4019622" lon="136.3965056"><ele>721.4966666666666</ele><time>2022-11-19T00:07:19Z</time></trkpt><trkpt lat="35.4021068" lon="136.3966399"><ele>724.6666666666666</ele><time>2022-11-19T00:07:44Z</time></trkpt><trkpt lat="35.4022756" lon="136.3967353"><ele>726.3766666666667</ele><time>2022-11-19T00:07:54Z</time></trkpt><trkpt lat="35.4024548" lon="136.3966694"><ele>727.4333333333334</ele><time>2022-11-19T00:08:03Z</time></trkpt><trkpt lat="35.4026384" lon="136.3966935"><ele>729.9166666666666</ele><time>2022-11-19T00:08:20Z</time></trkpt><trkpt lat="35.4028153" lon="136.3966491"><ele>732.3133333333334</ele><time>2022-11-19T00:08:35Z</time></trkpt><trkpt lat="35.4030023" lon="136.3966254"><ele>734.1033333333335</ele><time>2022-11-19T00:09:06Z</time></trkpt><trkpt lat="35.403163" lon="136.396521"><ele>735.4133333333333</ele><time>2022-11-19T00:09:20Z</time></trkpt><trkpt lat="35.4033312" lon="136.3964249"><ele>737.1766666666667</ele><time>2022-11-19T00:09:37Z</time></trkpt><trkpt lat="35.4035124" lon="136.3963332"><ele>739.0133333333333</ele><time>2022-11-19T00:09:53Z</time></trkpt><trkpt lat="35.403693" lon="136.3963293"><ele>740.3133333333334</ele><time>2022-11-19T00:10:22Z</time></trkpt><trkpt lat="35.4038713" lon="136.3962885"><ele>742.1066666666667</ele><time>2022-11-19T00:10:31Z</time></trkpt><trkpt lat="35.4040472" lon="136.3961897"><ele>744.4466666666667</ele><time>2022-11-19T00:10:48Z</time></trkpt><trkpt lat="35.4042284" lon="136.3961612"><ele>747.0066666666668</ele><time>2022-11-19T00:11:11Z</time></trkpt><trkpt lat="35.4043771" lon="136.3962953"><ele>747.2333333333332</ele><time>2022-11-19T00:11:28Z</time></trkpt><trkpt lat="35.4045479" lon="136.3962082"><ele>747.4766666666668</ele><time>2022-11-19T00:11:41Z</time></trkpt><trkpt lat="35.4046872" lon="136.3960536"><ele>749.2266666666668</ele><time>2022-11-19T00:11:50Z</time></trkpt><trkpt lat="35.4048757" lon="136.3959987"><ele>752.7600000000001</ele><time>2022-11-19T00:12:22Z</time></trkpt><trkpt lat="35.4050236" lon="136.3958388"><ele>755.4033333333333</ele><time>2022-11-19T00:12:32Z</time></trkpt><trkpt lat="35.4051838" lon="136.395951"><ele>756.0833333333334</ele><time>2022-11-19T00:12:48Z</time></trkpt><trkpt lat="35.4053725" lon="136.3959452"><ele>757.0300000000001</ele><time>2022-11-19T00:13:05Z</time></trkpt><trkpt lat="35.4055791" lon="136.3960082"><ele>758.7833333333333</ele><time>2022-11-19T00:13:18Z</time></trkpt><trkpt lat="35.4057894" lon="136.3960351"><ele>761.7833333333333</ele><time>2022-11-19T00:13:26Z</time></trkpt><trkpt lat="35.4056127" lon="136.3959674"><ele>762.9499999999999</ele><time>2022-11-19T00:13:37Z</time></trkpt><trkpt lat="35.4057842" lon="136.3960744"><ele>764.0099999999999</ele><time>2022-11-19T00:13:54Z</time></trkpt><trkpt lat="35.4059818" lon="136.3961518"><ele>764.6133333333333</ele><time>2022-11-19T00:14:11Z</time></trkpt><trkpt lat="35.406098" lon="136.3963463"><ele>766.5633333333334</ele><time>2022-11-19T00:14:26Z</time></trkpt><trkpt lat="35.4062726" lon="136.396422"><ele>767.9633333333335</ele><time>2022-11-19T00:14:50Z</time></trkpt><trkpt lat="35.4064543" lon="136.3964822"><ele>769.3133333333334</ele><time>2022-11-19T00:14:56Z</time></trkpt><trkpt lat="35.4066365" lon="136.3964968"><ele>770.9833333333332</ele><time>2022-11-19T00:15:10Z</time></trkpt><trkpt lat="35.4068342" lon="136.3964815"><ele>772.89</ele><time>2022-11-19T00:15:22Z</time></trkpt><trkpt lat="35.4070323" lon="136.3964598"><ele>775.3733333333333</ele><time>2022-11-19T00:16:21Z</time></trkpt><trkpt lat="35.4072174" lon="136.3964167"><ele>778.1166666666668</ele><time>2022-11-19T00:16:32Z</time></trkpt><trkpt lat="35.4074059" lon="136.3964455"><ele>781.4733333333334</ele><time>2022-11-19T00:16:42Z</time></trkpt><trkpt lat="35.4075849" lon="136.3964889"><ele>784.6733333333333</ele><time>2022-11-19T00:17:19Z</time></trkpt><trkpt lat="35.4077607" lon="136.396424"><ele>788.1166666666668</ele><time>2022-11-19T00:17:47Z</time></trkpt><trkpt lat="35.4079432" lon="136.3964218"><ele>790.4133333333334</ele><time>2022-11-19T00:18:08Z</time></trkpt><trkpt lat="35.4080939" lon="136.3965593"><ele>793.1566666666668</ele><time>2022-11-19T00:18:24Z</time></trkpt><trkpt lat="35.4082751" lon="136.3965603"><ele>795.6366666666667</ele><time>2022-11-19T00:18:55Z</time></trkpt><trkpt lat="35.4084331" lon="136.3966874"><ele>800.25</ele><time>2022-11-19T00:19:13Z</time></trkpt><trkpt lat="35.4085985" lon="136.3968009"><ele>805.9633333333333</ele><time>2022-11-19T00:19:45Z</time></trkpt><trkpt lat="35.4087708" lon="136.3968889"><ele>812.8233333333334</ele><time>2022-11-19T00:20:38Z</time></trkpt><trkpt lat="35.4086499" lon="136.397064"><ele>818.7233333333334</ele><time>2022-11-19T00:21:26Z</time></trkpt><trkpt lat="35.4085325" lon="136.3972401"><ele>825.41</ele><time>2022-11-19T00:21:59Z</time></trkpt><trkpt lat="35.408491" lon="136.3974596"><ele>831.4266666666666</ele><time>2022-11-19T00:22:31Z</time></trkpt><trkpt lat="35.4086411" lon="136.3975816"><ele>838.8433333333332</ele><time>2022-11-19T00:23:44Z</time></trkpt><trkpt lat="35.4087909" lon="136.3977145"><ele>844.6866666666666</ele><time>2022-11-19T00:25:11Z</time></trkpt><trkpt lat="35.4089729" lon="136.3977377"><ele>850.9466666666667</ele><time>2022-11-19T00:25:27Z</time></trkpt><trkpt lat="35.4091557" lon="136.3977183"><ele>857.1166666666668</ele><time>2022-11-19T00:25:52Z</time></trkpt><trkpt lat="35.4092961" lon="136.3975777"><ele>861.87</ele><time>2022-11-19T00:26:20Z</time></trkpt><trkpt lat="35.4094794" lon="136.3975589"><ele>866.7533333333334</ele><time>2022-11-19T00:27:11Z</time></trkpt><trkpt lat="35.4095037" lon="136.3977823"><ele>870.5566666666667</ele><time>2022-11-19T00:27:38Z</time></trkpt><trkpt lat="35.4096654" lon="136.3978986"><ele>875.5833333333334</ele><time>2022-11-19T00:28:56Z</time></trkpt><trkpt lat="35.4098548" lon="136.3979347"><ele>880.1466666666666</ele><time>2022-11-19T00:29:16Z</time></trkpt><trkpt lat="35.4100335" lon="136.3979716"><ele>883.9666666666667</ele><time>2022-11-19T00:29:39Z</time></trkpt><trkpt lat="35.4102138" lon="136.3979198"><ele>887.5666666666666</ele><time>2022-11-19T00:30:27Z</time></trkpt><trkpt lat="35.4103751" lon="136.3980252"><ele>890.7866666666667</ele><time>2022-11-19T00:31:17Z</time></trkpt><trkpt lat="35.4105459" lon="136.3980982"><ele>894.69</ele><time>2022-11-19T00:32:01Z</time></trkpt><trkpt lat="35.4107264" lon="136.3980998"><ele>898.6</ele><time>2022-11-19T00:33:17Z</time></trkpt><trkpt lat="35.4108998" lon="136.3981674"><ele>903.33</ele><time>2022-11-19T00:33:41Z</time></trkpt><trkpt lat="35.4110571" lon="136.398277"><ele>908.8233333333334</ele><time>2022-11-19T00:34:38Z</time></trkpt><trkpt lat="35.4110877" lon="136.3984951"><ele>914.46</ele><time>2022-11-19T00:34:56Z</time></trkpt><trkpt lat="35.4112518" lon="136.3985936"><ele>920.1833333333334</ele><time>2022-11-19T00:35:44Z</time></trkpt><trkpt lat="35.4114333" lon="136.3986052"><ele>924.6266666666667</ele><time>2022-11-19T00:36:37Z</time></trkpt><trkpt lat="35.4115931" lon="136.3984919"><ele>929.5533333333334</ele><time>2022-11-19T00:37:08Z</time></trkpt><trkpt lat="35.411754" lon="136.3983789"><ele>933.9466666666667</ele><time>2022-11-19T00:37:38Z</time></trkpt><trkpt lat="35.4118217" lon="136.398172"><ele>937.0166666666668</ele><time>2022-11-19T00:38:30Z</time></trkpt><trkpt lat="35.4120033" lon="136.3982599"><ele>941.4200000000001</ele><time>2022-11-19T00:39:26Z</time></trkpt><trkpt lat="35.4120227" lon="136.3984861"><ele>945.4200000000001</ele><time>2022-11-19T00:40:00Z</time></trkpt><trkpt lat="35.4120758" lon="136.3987116"><ele>952.0833333333334</ele><time>2022-11-19T00:40:48Z</time></trkpt><trkpt lat="35.4121142" lon="136.3989279"><ele>956.1933333333333</ele><time>2022-11-19T00:40:58Z</time></trkpt><trkpt lat="35.4122895" lon="136.3988723"><ele>962.3266666666667</ele><time>2022-11-19T00:41:40Z</time></trkpt><trkpt lat="35.4123909" lon="136.399059"><ele>967.57</ele><time>2022-11-19T00:42:23Z</time></trkpt><trkpt lat="35.4125791" lon="136.3990029"><ele>974.4166666666666</ele><time>2022-11-19T00:43:33Z</time></trkpt><trkpt lat="35.4127435" lon="136.399105"><ele>980.3133333333334</ele><time>2022-11-19T00:44:23Z</time></trkpt><trkpt lat="35.4128617" lon="136.3992886"><ele>987.6466666666666</ele><time>2022-11-19T00:44:33Z</time></trkpt><trkpt lat="35.412915" lon="136.3995048"><ele>994.8866666666667</ele><time>2022-11-19T00:44:50Z</time></trkpt><trkpt lat="35.4130795" lon="136.3994102"><ele>1001.9266666666667</ele><time>2022-11-19T00:46:49Z</time></trkpt><trkpt lat="35.4132223" lon="136.3995447"><ele>1008.5766666666667</ele><time>2022-11-19T00:47:23Z</time></trkpt><trkpt lat="35.4132381" lon="136.3997683"><ele>1013.9466666666667</ele><time>2022-11-19T00:47:56Z</time></trkpt><trkpt lat="35.4130916" lon="136.3999673"><ele>1015.9566666666666</ele><time>2022-11-19T00:48:12Z</time></trkpt><trkpt lat="35.41323" lon="136.4001245"><ele>1018.3166666666667</ele><time>2022-11-19T00:48:44Z</time></trkpt><trkpt lat="35.4133811" lon="136.399974"><ele>1021.18</ele><time>2022-11-19T00:49:20Z</time></trkpt><trkpt lat="35.4135278" lon="136.4001358"><ele>1028.9433333333334</ele><time>2022-11-19T00:49:53Z</time></trkpt><trkpt lat="35.4134397" lon="136.4003543"><ele>1034.4633333333334</ele><time>2022-11-19T00:50:23Z</time></trkpt><trkpt lat="35.4135185" lon="136.4005652"><ele>1040.6</ele><time>2022-11-19T00:51:17Z</time></trkpt><trkpt lat="35.4135246" lon="136.4007985"><ele>1044.37</ele><time>2022-11-19T00:51:39Z</time></trkpt><trkpt lat="35.4136305" lon="136.4009931"><ele>1050.9433333333334</ele><time>2022-11-19T00:52:39Z</time></trkpt><trkpt lat="35.4134963" lon="136.4011457"><ele>1053.6466666666668</ele><time>2022-11-19T00:52:58Z</time></trkpt><trkpt lat="35.4136734" lon="136.4011874"><ele>1058.7533333333333</ele><time>2022-11-19T00:53:48Z</time></trkpt><trkpt lat="35.4137973" lon="136.4010246"><ele>1062.1666666666667</ele><time>2022-11-19T00:54:30Z</time></trkpt><trkpt lat="35.413879" lon="136.4008259"><ele>1067.1966666666667</ele><time>2022-11-19T00:54:53Z</time></trkpt><trkpt lat="35.4140423" lon="136.4007101"><ele>1072.3066666666666</ele><time>2022-11-19T00:55:42Z</time></trkpt><trkpt lat="35.4141668" lon="136.4008747"><ele>1078.8566666666666</ele><time>2022-11-19T00:56:47Z</time></trkpt><trkpt lat="35.4143476" lon="136.4008218"><ele>1087.5966666666666</ele><time>2022-11-19T00:58:17Z</time></trkpt><trkpt lat="35.4145353" lon="136.4007601"><ele>1096.8733333333332</ele><time>2022-11-19T00:58:46Z</time></trkpt><trkpt lat="35.4147028" lon="136.4008718"><ele>1106.2366666666667</ele><time>2022-11-19T00:59:38Z</time></trkpt><trkpt lat="35.4146289" lon="136.4010877"><ele>1113.49</ele><time>2022-11-19T01:00:22Z</time></trkpt><trkpt lat="35.4146523" lon="136.4013093"><ele>1118.5466666666669</ele><time>2022-11-19T01:01:25Z</time></trkpt><trkpt lat="35.4146728" lon="136.4015301"><ele>1123.82</ele><time>2022-11-19T01:02:37Z</time></trkpt><trkpt lat="35.4148551" lon="136.4015151"><ele>1131.3633333333335</ele><time>2022-11-19T01:03:10Z</time></trkpt><trkpt lat="35.4148951" lon="136.4017378"><ele>1140.25</ele><time>2022-11-19T01:03:52Z</time></trkpt><trkpt lat="35.4150519" lon="136.4018524"><ele>1149.16</ele><time>2022-11-19T01:05:47Z</time></trkpt><trkpt lat="35.4151989" lon="136.4019853"><ele>1160.76</ele><time>2022-11-19T01:07:31Z</time></trkpt><trkpt lat="35.4153696" lon="136.4020711"><ele>1175.5666666666666</ele><time>2022-11-19T01:09:03Z</time></trkpt><trkpt lat="35.4155204" lon="136.4021929"><ele>1190.5966666666666</ele><time>2022-11-19T01:10:41Z</time></trkpt><trkpt lat="35.4156288" lon="136.4023748"><ele>1204.14</ele><time>2022-11-19T01:12:04Z</time></trkpt><trkpt lat="35.4156545" lon="136.402593"><ele>1214.96</ele><time>2022-11-19T01:12:47Z</time></trkpt><trkpt lat="35.41578" lon="136.4024338"><ele>1223.9666666666665</ele><time>2022-11-19T01:13:59Z</time></trkpt><trkpt lat="35.4159107" lon="136.4022784"><ele>1229.4533333333331</ele><time>2022-11-19T01:16:42Z</time></trkpt><trkpt lat="35.416093" lon="136.4022393"><ele>1234.9033333333334</ele><time>2022-11-19T01:16:58Z</time></trkpt><trkpt lat="35.4161938" lon="136.4024304"><ele>1241.7566666666667</ele><time>2022-11-19T01:19:42Z</time></trkpt><trkpt lat="35.4163636" lon="136.4023557"><ele>1251.4533333333336</ele><time>2022-11-19T01:21:18Z</time></trkpt><trkpt lat="35.416518" lon="136.4024721"><ele>1261.6366666666665</ele><time>2022-11-19T01:22:05Z</time></trkpt><trkpt lat="35.4165666" lon="136.4026843"><ele>1274.92</ele><time>2022-11-19T01:24:03Z</time></trkpt><trkpt lat="35.4165178" lon="136.4028967"><ele>1286.9466666666667</ele><time>2022-11-19T01:26:05Z</time></trkpt><trkpt lat="35.4167004" lon="136.4028835"><ele>1298.8700000000001</ele><time>2022-11-19T01:26:52Z</time></trkpt><trkpt lat="35.4168792" lon="136.4028527"><ele>1306.7833333333335</ele><time>2022-11-19T01:28:26Z</time></trkpt><trkpt lat="35.4170022" lon="136.4026869"><ele>1313.0166666666667</ele><time>2022-11-19T01:29:21Z</time></trkpt><trkpt lat="35.4171763" lon="136.4025887"><ele>1317.4733333333334</ele><time>2022-11-19T01:29:52Z</time></trkpt><trkpt lat="35.417353" lon="136.4026374"><ele>1321.2633333333333</ele><time>2022-11-19T01:31:33Z</time></trkpt><trkpt lat="35.417462" lon="136.4028157"><ele>1328.7966666666666</ele><time>2022-11-19T01:32:18Z</time></trkpt><trkpt lat="35.4174463" lon="136.4030388"><ele>1335.46</ele><time>2022-11-19T01:33:01Z</time></trkpt><trkpt lat="35.4173472" lon="136.4032326"><ele>1340.86</ele><time>2022-11-19T01:33:22Z</time></trkpt><trkpt lat="35.4174812" lon="136.4033827"><ele>1344.2666666666667</ele><time>2022-11-19T01:33:34Z</time></trkpt><trkpt lat="35.4174988" lon="136.4036086"><ele>1346.8766666666668</ele><time>2022-11-19T01:33:57Z</time></trkpt><trkpt lat="35.4175806" lon="136.4038145"><ele>1350.2533333333333</ele><time>2022-11-19T01:34:34Z</time></trkpt><trkpt lat="35.4175529" lon="136.4040338"><ele>1353.7433333333336</ele><time>2022-11-19T01:34:54Z</time></trkpt><trkpt lat="35.4177334" lon="136.4039864"><ele>1356.4133333333334</ele><time>2022-11-19T01:35:13Z</time></trkpt><trkpt lat="35.4178396" lon="136.4041958"><ele>1359.756666666667</ele><time>2022-11-19T01:35:38Z</time></trkpt><trkpt lat="35.4178944" lon="136.4044084"><ele>1362.5100000000002</ele><time>2022-11-19T01:36:11Z</time></trkpt><trkpt lat="35.417841" lon="136.4046225"><ele>1366.36</ele><time>2022-11-19T01:36:39Z</time></trkpt><trkpt lat="35.4179914" lon="136.4047464"><ele>1368.6666666666667</ele><time>2022-11-19T01:37:22Z</time></trkpt><trkpt lat="35.4181591" lon="136.4048339"><ele>1369.926666666667</ele><time>2022-11-19T01:37:37Z</time></trkpt><trkpt lat="35.4181734" lon="136.4050551"><ele>1370.486666666667</ele><time>2022-11-19T01:42:02Z</time></trkpt><trkpt lat="35.4182964" lon="136.4052192"><ele>1370.3</ele><time>2022-11-19T01:43:28Z</time></trkpt><trkpt lat="35.4183839" lon="136.4054155"><ele>1370.1633333333332</ele><time>2022-11-19T01:44:21Z</time></trkpt><trkpt lat="35.4182045" lon="136.4054615"><ele>1370.4566666666667</ele><time>2022-11-19T01:45:00Z</time></trkpt><trkpt lat="35.4180584" lon="136.4055996"><ele>1371.4133333333332</ele><time>2022-11-19T01:45:29Z</time></trkpt><trkpt lat="35.4178687" lon="136.4055453"><ele>1372.3433333333335</ele><time>2022-11-19T01:45:36Z</time></trkpt><trkpt lat="35.4178788" lon="136.4057792"><ele>1372.7633333333333</ele><time>2022-11-19T01:47:12Z</time></trkpt><trkpt lat="35.4179064" lon="136.406001"><ele>1372.9166666666667</ele><time>2022-11-19T01:49:08Z</time></trkpt><trkpt lat="35.417922" lon="136.4062376"><ele>1373.3799999999999</ele><time>2022-11-19T01:49:22Z</time></trkpt><trkpt lat="35.4178895" lon="136.4064616"><ele>1373.8700000000001</ele><time>2022-11-19T01:50:26Z</time></trkpt><trkpt lat="35.4180521" lon="136.4065842"><ele>1373.45</ele><time>2022-11-19T01:50:36Z</time></trkpt><trkpt lat="35.4182112" lon="136.4067034"><ele>1372.2333333333333</ele><time>2022-11-19T01:51:00Z</time></trkpt><trkpt lat="35.4180702" lon="136.4068407"><ele>1371.5766666666668</ele><time>2022-11-19T01:51:19Z</time></trkpt><trkpt lat="35.4179688" lon="136.4066443"><ele>1372.1666666666667</ele><time>2022-11-19T01:52:02Z</time></trkpt><trkpt lat="35.4178544" lon="136.4064397"><ele>1373.7866666666669</ele><time>2022-11-19T01:52:10Z</time></trkpt><trkpt lat="35.4178297" lon="136.4062153"><ele>1374.95</ele><time>2022-11-19T01:52:59Z</time></trkpt><trkpt lat="35.4178615" lon="136.4059913"><ele>1375.2866666666669</ele><time>2022-11-19T01:53:07Z</time></trkpt><trkpt lat="35.4178929" lon="136.4057696"><ele>1374.5433333333333</ele><time>2022-11-19T01:53:36Z</time></trkpt><trkpt lat="35.417899" lon="136.4055455"><ele>1373.5800000000002</ele><time>2022-11-19T01:53:48Z</time></trkpt><trkpt lat="35.4179411" lon="136.4053168"><ele>1372.8533333333335</ele><time>2022-11-19T01:54:13Z</time></trkpt><trkpt lat="35.4180797" lon="136.4051636"><ele>1372.496666666667</ele><time>2022-11-19T01:54:24Z</time></trkpt><trkpt lat="35.4181477" lon="136.4049467"><ele>1371.74</ele><time>2022-11-19T01:55:25Z</time></trkpt><trkpt lat="35.4181868" lon="136.4047303"><ele>1370.92</ele><time>2022-11-19T01:55:37Z</time></trkpt><trkpt lat="35.4180079" lon="136.404779"><ele>1370.3933333333334</ele><time>2022-11-19T01:56:43Z</time></trkpt><trkpt lat="35.4178378" lon="136.4048589"><ele>1370.3233333333335</ele><time>2022-11-19T01:57:14Z</time></trkpt><trkpt lat="35.4176861" lon="136.4050036"><ele>1370.5100000000002</ele><time>2022-11-19T01:57:28Z</time></trkpt><trkpt lat="35.4178696" lon="136.4050016"><ele>1370.8100000000002</ele><time>2022-11-19T01:58:33Z</time></trkpt><trkpt lat="35.4180431" lon="136.4049332"><ele>1370.9866666666667</ele><time>2022-11-19T01:58:57Z</time></trkpt><trkpt lat="35.4178668" lon="136.404863"><ele>1371.006666666667</ele><time>2022-11-19T01:59:21Z</time></trkpt><trkpt lat="35.4177488" lon="136.4050424"><ele>1370.9000000000003</ele><time>2022-11-19T01:59:39Z</time></trkpt><trkpt lat="35.4179493" lon="136.405028"><ele>1370.9933333333336</ele><time>2022-11-19T02:06:57Z</time></trkpt><trkpt lat="35.4180636" lon="136.4048572"><ele>1371.0433333333333</ele><time>2022-11-19T02:07:39Z</time></trkpt><trkpt lat="35.4182215" lon="136.4047423"><ele>1370.7333333333333</ele><time>2022-11-19T02:09:27Z</time></trkpt><trkpt lat="35.4184885" lon="136.4047238"><ele>1368.0966666666666</ele><time>2022-11-19T02:10:03Z</time></trkpt><trkpt lat="35.4183368" lon="136.4045781"><ele>1366.79</ele><time>2022-11-19T02:10:46Z</time></trkpt><trkpt lat="35.4181535" lon="136.4045874"><ele>1366.4866666666667</ele><time>2022-11-19T02:10:59Z</time></trkpt><trkpt lat="35.4180297" lon="136.4047644"><ele>1368.78</ele><time>2022-11-19T02:11:15Z</time></trkpt><trkpt lat="35.4178458" lon="136.4046897"><ele>1369.5566666666666</ele><time>2022-11-19T02:13:21Z</time></trkpt><trkpt lat="35.4177335" lon="136.4048708"><ele>1370.0166666666667</ele><time>2022-11-19T02:13:56Z</time></trkpt><trkpt lat="35.4179343" lon="136.404839"><ele>1370.1066666666666</ele><time>2022-11-19T02:16:54Z</time></trkpt><trkpt lat="35.4179529" lon="136.4046163"><ele>1370.0733333333335</ele><time>2022-11-19T02:17:05Z</time></trkpt><trkpt lat="35.41788" lon="136.4044105"><ele>1368.74</ele><time>2022-11-19T02:17:18Z</time></trkpt><trkpt lat="35.4177489" lon="136.4042551"><ele>1365.9933333333336</ele><time>2022-11-19T02:17:53Z</time></trkpt><trkpt lat="35.4176609" lon="136.4040593"><ele>1362.3700000000001</ele><time>2022-11-19T02:18:20Z</time></trkpt><trkpt lat="35.4176159" lon="136.4038446"><ele>1358.4233333333334</ele><time>2022-11-19T02:18:47Z</time></trkpt><trkpt lat="35.4175628" lon="136.4036228"><ele>1354.65</ele><time>2022-11-19T02:20:17Z</time></trkpt><trkpt lat="35.4174897" lon="136.4034101"><ele>1351.16</ele><time>2022-11-19T02:20:29Z</time></trkpt><trkpt lat="35.4174586" lon="136.4031923"><ele>1348.3300000000002</ele><time>2022-11-19T02:20:51Z</time></trkpt><trkpt lat="35.4174792" lon="136.4029705"><ele>1345.2666666666667</ele><time>2022-11-19T02:21:28Z</time></trkpt><trkpt lat="35.4174498" lon="136.402752"><ele>1340.8233333333335</ele><time>2022-11-19T02:22:13Z</time></trkpt><trkpt lat="35.4173383" lon="136.4025785"><ele>1334.4666666666665</ele><time>2022-11-19T02:23:09Z</time></trkpt><trkpt lat="35.4171574" lon="136.4025684"><ele>1326.6733333333334</ele><time>2022-11-19T02:24:04Z</time></trkpt><trkpt lat="35.4170054" lon="136.4026869"><ele>1320.1766666666665</ele><time>2022-11-19T02:24:33Z</time></trkpt><trkpt lat="35.4168721" lon="136.4028403"><ele>1316.3866666666665</ele><time>2022-11-19T02:25:09Z</time></trkpt><trkpt lat="35.4166927" lon="136.4027685"><ele>1311.9033333333334</ele><time>2022-11-19T02:26:43Z</time></trkpt><trkpt lat="35.4165345" lon="136.402662"><ele>1302.36</ele><time>2022-11-19T02:29:25Z</time></trkpt><trkpt lat="35.4165071" lon="136.4024427"><ele>1288.0133333333333</ele><time>2022-11-19T02:30:27Z</time></trkpt><trkpt lat="35.4163231" lon="136.4024588"><ele>1272.9966666666667</ele><time>2022-11-19T02:31:49Z</time></trkpt><trkpt lat="35.4162091" lon="136.4022838"><ele>1260.9166666666667</ele><time>2022-11-19T02:32:54Z</time></trkpt><trkpt lat="35.4161051" lon="136.4021025"><ele>1248.5333333333335</ele><time>2022-11-19T02:35:03Z</time></trkpt><trkpt lat="35.41599" lon="136.4022845"><ele>1241.2833333333333</ele><time>2022-11-19T02:35:43Z</time></trkpt><trkpt lat="35.4158209" lon="136.4023814"><ele>1234.3733333333332</ele><time>2022-11-19T02:35:55Z</time></trkpt><trkpt lat="35.4156824" lon="136.4025236"><ele>1230.3233333333333</ele><time>2022-11-19T02:37:40Z</time></trkpt><trkpt lat="35.4155629" lon="136.402339"><ele>1220.9733333333334</ele><time>2022-11-19T02:38:48Z</time></trkpt><trkpt lat="35.4154604" lon="136.4021475"><ele>1211.14</ele><time>2022-11-19T02:40:50Z</time></trkpt><trkpt lat="35.4152811" lon="136.4021735"><ele>1198.86</ele><time>2022-11-19T02:42:24Z</time></trkpt><trkpt lat="35.4151931" lon="136.4019751"><ele>1186.7666666666667</ele><time>2022-11-19T02:42:57Z</time></trkpt><trkpt lat="35.4151237" lon="136.4017656"><ele>1173.9399999999998</ele><time>2022-11-19T02:45:00Z</time></trkpt><trkpt lat="35.4149426" lon="136.4017856"><ele>1162.7033333333334</ele><time>2022-11-19T02:45:38Z</time></trkpt><trkpt lat="35.4149784" lon="136.401565"><ele>1154.25</ele><time>2022-11-19T02:45:59Z</time></trkpt><trkpt lat="35.4148061" lon="136.4014816"><ele>1146.8566666666666</ele><time>2022-11-19T02:46:35Z</time></trkpt><trkpt lat="35.4146594" lon="136.4013418"><ele>1138.28</ele><time>2022-11-19T02:47:06Z</time></trkpt><trkpt lat="35.4145289" lon="136.4011844"><ele>1126.8066666666666</ele><time>2022-11-19T02:47:19Z</time></trkpt><trkpt lat="35.4146335" lon="136.4009678"><ele>1118.64</ele><time>2022-11-19T02:47:28Z</time></trkpt><trkpt lat="35.4146004" lon="136.400745"><ele>1112.6866666666667</ele><time>2022-11-19T02:47:46Z</time></trkpt><trkpt lat="35.4144265" lon="136.4008105"><ele>1107.6200000000001</ele><time>2022-11-19T02:48:38Z</time></trkpt><trkpt lat="35.4142471" lon="136.4007798"><ele>1099.6299999999999</ele><time>2022-11-19T02:48:54Z</time></trkpt><trkpt lat="35.4140684" lon="136.4008153"><ele>1090.1633333333332</ele><time>2022-11-19T02:50:15Z</time></trkpt><trkpt lat="35.4138936" lon="136.4008782"><ele>1081.8833333333334</ele><time>2022-11-19T02:50:28Z</time></trkpt><trkpt lat="35.4137319" lon="136.4009774"><ele>1072.6733333333334</ele><time>2022-11-19T02:50:39Z</time></trkpt><trkpt lat="35.4136878" lon="136.4012046"><ele>1068.59</ele><time>2022-11-19T02:50:59Z</time></trkpt><trkpt lat="35.4135129" lon="136.4012588"><ele>1062.256666666667</ele><time>2022-11-19T02:51:18Z</time></trkpt><trkpt lat="35.4135495" lon="136.4010384"><ele>1059.9466666666667</ele><time>2022-11-19T02:51:25Z</time></trkpt><trkpt lat="35.4136717" lon="136.4008706"><ele>1056.2600000000002</ele><time>2022-11-19T02:51:33Z</time></trkpt><trkpt lat="35.4136123" lon="136.4006583"><ele>1055.7</ele><time>2022-11-19T02:51:55Z</time></trkpt><trkpt lat="35.4135229" lon="136.4004617"><ele>1051.6866666666667</ele><time>2022-11-19T02:52:43Z</time></trkpt><trkpt lat="35.4135227" lon="136.4002037"><ele>1045.5466666666669</ele><time>2022-11-19T02:52:51Z</time></trkpt><trkpt lat="35.4134379" lon="136.4000084"><ele>1038.2933333333333</ele><time>2022-11-19T02:53:42Z</time></trkpt><trkpt lat="35.4133197" lon="136.4001783"><ele>1032.7333333333333</ele><time>2022-11-19T02:54:06Z</time></trkpt><trkpt lat="35.413286" lon="136.3999611"><ele>1027.6333333333334</ele><time>2022-11-19T02:54:21Z</time></trkpt><trkpt lat="35.4132505" lon="136.399744"><ele>1023.1833333333334</ele><time>2022-11-19T02:54:37Z</time></trkpt><trkpt lat="35.413239" lon="136.3995161"><ele>1019.23</ele><time>2022-11-19T02:54:48Z</time></trkpt><trkpt lat="35.4130613" lon="136.3995662"><ele>1014.4666666666667</ele><time>2022-11-19T02:55:25Z</time></trkpt><trkpt lat="35.4129077" lon="136.3996989"><ele>1009.7400000000001</ele><time>2022-11-19T02:55:51Z</time></trkpt><trkpt lat="35.4128243" lon="136.3995036"><ele>1002.8933333333334</ele><time>2022-11-19T02:56:25Z</time></trkpt><trkpt lat="35.4126946" lon="136.3993178"><ele>995.2600000000001</ele><time>2022-11-19T02:56:47Z</time></trkpt><trkpt lat="35.4126844" lon="136.3990794"><ele>988.5533333333334</ele><time>2022-11-19T02:56:53Z</time></trkpt><trkpt lat="35.412661" lon="136.3988523"><ele>984.0666666666667</ele><time>2022-11-19T02:57:04Z</time></trkpt><trkpt lat="35.4124761" lon="136.3989385"><ele>980.0366666666667</ele><time>2022-11-19T02:57:19Z</time></trkpt><trkpt lat="35.4125399" lon="136.3991486"><ele>978.5433333333334</ele><time>2022-11-19T02:57:55Z</time></trkpt><trkpt lat="35.4124633" lon="136.3989431"><ele>976.1966666666667</ele><time>2022-11-19T02:58:21Z</time></trkpt><trkpt lat="35.4123724" lon="136.3987527"><ele>974.7766666666666</ele><time>2022-11-19T02:58:29Z</time></trkpt><trkpt lat="35.4122142" lon="136.3988858"><ele>970.3166666666666</ele><time>2022-11-19T02:58:49Z</time></trkpt><trkpt lat="35.4120692" lon="136.3990216"><ele>965.8100000000001</ele><time>2022-11-19T02:59:28Z</time></trkpt><trkpt lat="35.4121285" lon="136.3988009"><ele>962.0466666666667</ele><time>2022-11-19T02:59:43Z</time></trkpt><trkpt lat="35.4120888" lon="136.398585"><ele>958.4433333333333</ele><time>2022-11-19T02:59:58Z</time></trkpt><trkpt lat="35.4120562" lon="136.3983677"><ele>954.6666666666666</ele><time>2022-11-19T03:00:07Z</time></trkpt><trkpt lat="35.4121152" lon="136.398157"><ele>951.6433333333333</ele><time>2022-11-19T03:00:22Z</time></trkpt><trkpt lat="35.4119312" lon="136.3981778"><ele>947.6999999999999</ele><time>2022-11-19T03:00:50Z</time></trkpt><trkpt lat="35.4117951" lon="136.39833"><ele>944.5733333333334</ele><time>2022-11-19T03:00:58Z</time></trkpt><trkpt lat="35.4116861" lon="136.3985056"><ele>940.36</ele><time>2022-11-19T03:01:15Z</time></trkpt><trkpt lat="35.4115254" lon="136.3986179"><ele>937.4733333333334</ele><time>2022-11-19T03:01:33Z</time></trkpt><trkpt lat="35.41136" lon="136.39871"><ele>934.2466666666666</ele><time>2022-11-19T03:01:47Z</time></trkpt><trkpt lat="35.4112206" lon="136.3985502"><ele>929.9433333333333</ele><time>2022-11-19T03:02:22Z</time></trkpt><trkpt lat="35.4110583" lon="136.3984493"><ele>924.8666666666667</ele><time>2022-11-19T03:02:47Z</time></trkpt><trkpt lat="35.4110653" lon="136.3982284"><ele>919.0866666666667</ele><time>2022-11-19T03:03:12Z</time></trkpt><trkpt lat="35.410893" lon="136.3981314"><ele>913.7666666666668</ele><time>2022-11-19T03:03:39Z</time></trkpt><trkpt lat="35.4107068" lon="136.3981156"><ele>908.13</ele><time>2022-11-19T03:03:55Z</time></trkpt><trkpt lat="35.4105212" lon="136.3980791"><ele>902.7800000000001</ele><time>2022-11-19T03:04:11Z</time></trkpt><trkpt lat="35.410364" lon="136.3979541"><ele>898.0433333333334</ele><time>2022-11-19T03:04:23Z</time></trkpt><trkpt lat="35.4101851" lon="136.397995"><ele>894.1833333333334</ele><time>2022-11-19T03:05:16Z</time></trkpt><trkpt lat="35.4100048" lon="136.3980263"><ele>890.94</ele><time>2022-11-19T03:06:05Z</time></trkpt><trkpt lat="35.4098118" lon="136.3979941"><ele>887.3366666666667</ele><time>2022-11-19T03:06:19Z</time></trkpt><trkpt lat="35.4096512" lon="136.3978734"><ele>883.6866666666668</ele><time>2022-11-19T03:06:26Z</time></trkpt><trkpt lat="35.4094721" lon="136.3979287"><ele>879.9566666666666</ele><time>2022-11-19T03:06:58Z</time></trkpt><trkpt lat="35.409492" lon="136.3977051"><ele>877.11</ele><time>2022-11-19T03:07:25Z</time></trkpt><trkpt lat="35.4094786" lon="136.397481"><ele>872.6433333333334</ele><time>2022-11-19T03:07:47Z</time></trkpt><trkpt lat="35.4093088" lon="136.3975692"><ele>868.9266666666667</ele><time>2022-11-19T03:07:59Z</time></trkpt><trkpt lat="35.4091345" lon="136.397682"><ele>865.4133333333333</ele><time>2022-11-19T03:08:25Z</time></trkpt><trkpt lat="35.4089528" lon="136.397691"><ele>861.87</ele><time>2022-11-19T03:08:46Z</time></trkpt><trkpt lat="35.4087913" lon="136.3978102"><ele>858.0533333333333</ele><time>2022-11-19T03:08:59Z</time></trkpt><trkpt lat="35.4086322" lon="136.3977031"><ele>851.91</ele><time>2022-11-19T03:09:31Z</time></trkpt><trkpt lat="35.4086708" lon="136.3974844"><ele>847.1666666666666</ele><time>2022-11-19T03:10:00Z</time></trkpt><trkpt lat="35.4084898" lon="136.3975184"><ele>842.5966666666667</ele><time>2022-11-19T03:10:13Z</time></trkpt><trkpt lat="35.4086049" lon="136.3973445"><ele>840.0733333333334</ele><time>2022-11-19T03:11:14Z</time></trkpt><trkpt lat="35.4085729" lon="136.3971107"><ele>835.0300000000001</ele><time>2022-11-19T03:11:20Z</time></trkpt><trkpt lat="35.4087379" lon="136.3970111"><ele>830.2666666666668</ele><time>2022-11-19T03:11:33Z</time></trkpt><trkpt lat="35.4089156" lon="136.39695"><ele>826.3833333333333</ele><time>2022-11-19T03:11:53Z</time></trkpt><trkpt lat="35.4087908" lon="136.396791"><ele>823.6066666666667</ele><time>2022-11-19T03:12:09Z</time></trkpt><trkpt lat="35.4086141" lon="136.3968412"><ele>820.1033333333335</ele><time>2022-11-19T03:12:44Z</time></trkpt><trkpt lat="35.4084417" lon="136.3967547"><ele>813.8233333333334</ele><time>2022-11-19T03:12:57Z</time></trkpt><trkpt lat="35.4082854" lon="136.3966362"><ele>807.25</ele><time>2022-11-19T03:13:10Z</time></trkpt><trkpt lat="35.4081068" lon="136.3965531"><ele>800.9066666666666</ele><time>2022-11-19T03:13:22Z</time></trkpt><trkpt lat="35.4079169" lon="136.3965599"><ele>796.3966666666665</ele><time>2022-11-19T03:13:43Z</time></trkpt><trkpt lat="35.4078106" lon="136.3963764"><ele>793.4366666666666</ele><time>2022-11-19T03:13:57Z</time></trkpt><trkpt lat="35.4076369" lon="136.396465"><ele>791.25</ele><time>2022-11-19T03:14:12Z</time></trkpt><trkpt lat="35.4074534" lon="136.3964707"><ele>788.5366666666667</ele><time>2022-11-19T03:14:23Z</time></trkpt><trkpt lat="35.4072723" lon="136.3964862"><ele>785.9499999999999</ele><time>2022-11-19T03:14:37Z</time></trkpt><trkpt lat="35.4071022" lon="136.396397"><ele>782.63</ele><time>2022-11-19T03:14:47Z</time></trkpt><trkpt lat="35.406924" lon="136.3965005"><ele>779.2666666666668</ele><time>2022-11-19T03:15:08Z</time></trkpt><trkpt lat="35.4067348" lon="136.3964672"><ele>776.3766666666667</ele><time>2022-11-19T03:15:16Z</time></trkpt><trkpt lat="35.4065659" lon="136.396553"><ele>774.0799999999999</ele><time>2022-11-19T03:15:24Z</time></trkpt><trkpt lat="35.4063958" lon="136.3964779"><ele>772.1533333333333</ele><time>2022-11-19T03:15:42Z</time></trkpt><trkpt lat="35.4062375" lon="136.3963653"><ele>770.5266666666666</ele><time>2022-11-19T03:15:54Z</time></trkpt><trkpt lat="35.4060502" lon="136.3963015"><ele>768.7333333333335</ele><time>2022-11-19T03:16:05Z</time></trkpt><trkpt lat="35.4058608" lon="136.3963082"><ele>767.4133333333333</ele><time>2022-11-19T03:16:13Z</time></trkpt><trkpt lat="35.4057423" lon="136.3961371"><ele>766.0333333333334</ele><time>2022-11-19T03:16:30Z</time></trkpt><trkpt lat="35.405552" lon="136.396117"><ele>763.9066666666668</ele><time>2022-11-19T03:16:45Z</time></trkpt><trkpt lat="35.4054612" lon="136.3959153"><ele>761.6633333333334</ele><time>2022-11-19T03:17:20Z</time></trkpt><trkpt lat="35.4052875" lon="136.3958372"><ele>759.5433333333334</ele><time>2022-11-19T03:17:32Z</time></trkpt><trkpt lat="35.405172" lon="136.3960159"><ele>757.8866666666667</ele><time>2022-11-19T03:17:43Z</time></trkpt><trkpt lat="35.4049878" lon="136.3959513"><ele>756.59</ele><time>2022-11-19T03:18:41Z</time></trkpt><trkpt lat="35.4048054" lon="136.3959452"><ele>755.8866666666667</ele><time>2022-11-19T03:19:58Z</time></trkpt><trkpt lat="35.4046219" lon="136.3960212"><ele>755.4733333333334</ele><time>2022-11-19T03:20:09Z</time></trkpt><trkpt lat="35.4044487" lon="136.3961009"><ele>754.29</ele><time>2022-11-19T03:20:21Z</time></trkpt><trkpt lat="35.4042568" lon="136.3961198"><ele>752.6233333333333</ele><time>2022-11-19T03:20:35Z</time></trkpt><trkpt lat="35.4040659" lon="136.3961318"><ele>750.3666666666667</ele><time>2022-11-19T03:20:55Z</time></trkpt><trkpt lat="35.4038915" lon="136.3962327"><ele>747.8433333333334</ele><time>2022-11-19T03:21:12Z</time></trkpt><trkpt lat="35.4037054" lon="136.3963078"><ele>744.5300000000001</ele><time>2022-11-19T03:21:21Z</time></trkpt><trkpt lat="35.4035065" lon="136.3963859"><ele>741.4733333333334</ele><time>2022-11-19T03:21:40Z</time></trkpt><trkpt lat="35.4033488" lon="136.3965072"><ele>739.0833333333334</ele><time>2022-11-19T03:21:53Z</time></trkpt><trkpt lat="35.4032041" lon="136.396678"><ele>736.5799999999999</ele><time>2022-11-19T03:22:05Z</time></trkpt><trkpt lat="35.403028" lon="136.3966187"><ele>735.46</ele><time>2022-11-19T03:22:25Z</time></trkpt><trkpt lat="35.4028357" lon="136.3965945"><ele>734.8566666666667</ele><time>2022-11-19T03:23:11Z</time></trkpt><trkpt lat="35.4026342" lon="136.3966275"><ele>735.3333333333334</ele><time>2022-11-19T03:23:21Z</time></trkpt><trkpt lat="35.4024168" lon="136.3966152"><ele>734.1300000000001</ele><time>2022-11-19T03:23:36Z</time></trkpt><trkpt lat="35.4022311" lon="136.3965052"><ele>732.0900000000001</ele><time>2022-11-19T03:23:42Z</time></trkpt><trkpt lat="35.4020444" lon="136.3964933"><ele>729.62</ele><time>2022-11-19T03:24:00Z</time></trkpt><trkpt lat="35.4018531" lon="136.3965002"><ele>726.91</ele><time>2022-11-19T03:24:12Z</time></trkpt><trkpt lat="35.4016837" lon="136.3964138"><ele>723.5233333333334</ele><time>2022-11-19T03:24:25Z</time></trkpt><trkpt lat="35.4017321" lon="136.3962005"><ele>720.5233333333334</ele><time>2022-11-19T03:24:44Z</time></trkpt><trkpt lat="35.4017234" lon="136.3959687"><ele>718.0166666666668</ele><time>2022-11-19T03:24:57Z</time></trkpt><trkpt lat="35.4017122" lon="136.3957483"><ele>713.7400000000001</ele><time>2022-11-19T03:25:17Z</time></trkpt><trkpt lat="35.4016904" lon="136.395516"><ele>708.07</ele><time>2022-11-19T03:25:28Z</time></trkpt><trkpt lat="35.401641" lon="136.3953025"><ele>701.8033333333333</ele><time>2022-11-19T03:25:46Z</time></trkpt><trkpt lat="35.4014946" lon="136.3951623"><ele>698.1133333333332</ele><time>2022-11-19T03:25:55Z</time></trkpt><trkpt lat="35.4013078" lon="136.3951576"><ele>695.0133333333333</ele><time>2022-11-19T03:26:03Z</time></trkpt><trkpt lat="35.4011416" lon="136.3950682"><ele>692.0500000000001</ele><time>2022-11-19T03:26:11Z</time></trkpt><trkpt lat="35.4009622" lon="136.395002"><ele>689.4900000000001</ele><time>2022-11-19T03:26:23Z</time></trkpt><trkpt lat="35.4007799" lon="136.394964"><ele>686.7866666666667</ele><time>2022-11-19T03:26:33Z</time></trkpt><trkpt lat="35.4007986" lon="136.3947204"><ele>684.3933333333334</ele><time>2022-11-19T03:26:50Z</time></trkpt><trkpt lat="35.4007949" lon="136.3944874"><ele>681.11</ele><time>2022-11-19T03:26:59Z</time></trkpt><trkpt lat="35.4007568" lon="136.3942641"><ele>678.04</ele><time>2022-11-19T03:27:07Z</time></trkpt><trkpt lat="35.4007505" lon="136.3940319"><ele>674.0133333333333</ele><time>2022-11-19T03:27:22Z</time></trkpt><trkpt lat="35.4006522" lon="136.3938377"><ele>668.55</ele><time>2022-11-19T03:28:06Z</time></trkpt><trkpt lat="35.4006362" lon="136.3936121"><ele>661.7766666666666</ele><time>2022-11-19T03:28:20Z</time></trkpt><trkpt lat="35.4004564" lon="136.3935459"><ele>655.5333333333334</ele><time>2022-11-19T03:28:36Z</time></trkpt><trkpt lat="35.4002791" lon="136.3934849"><ele>652.0366666666667</ele><time>2022-11-19T03:28:49Z</time></trkpt><trkpt lat="35.4001019" lon="136.3933976"><ele>648.5300000000001</ele><time>2022-11-19T03:29:02Z</time></trkpt><trkpt lat="35.4000592" lon="136.3931695"><ele>642.93</ele><time>2022-11-19T03:29:31Z</time></trkpt><trkpt lat="35.3998681" lon="136.3931553"><ele>635.2866666666667</ele><time>2022-11-19T03:30:07Z</time></trkpt><trkpt lat="35.3996976" lon="136.3932282"><ele>629.3933333333334</ele><time>2022-11-19T03:30:22Z</time></trkpt><trkpt lat="35.3995234" lon="136.393133"><ele>623.86</ele><time>2022-11-19T03:31:02Z</time></trkpt><trkpt lat="35.3993407" lon="136.3930764"><ele>617.2233333333334</ele><time>2022-11-19T03:31:13Z</time></trkpt><trkpt lat="35.399175" lon="136.3931636"><ele>608.9366666666666</ele><time>2022-11-19T03:31:31Z</time></trkpt><trkpt lat="35.3991967" lon="136.3933822"><ele>606.7833333333333</ele><time>2022-11-19T03:31:39Z</time></trkpt><trkpt lat="35.3991022" lon="136.393581"><ele>606.2666666666668</ele><time>2022-11-19T03:31:52Z</time></trkpt><trkpt lat="35.398985" lon="136.3937653"><ele>606.3366666666667</ele><time>2022-11-19T03:32:03Z</time></trkpt><trkpt lat="35.3988125" lon="136.3938426"><ele>601.7466666666668</ele><time>2022-11-19T03:32:25Z</time></trkpt><trkpt lat="35.3986795" lon="136.3940042"><ele>598.35</ele><time>2022-11-19T03:32:39Z</time></trkpt><trkpt lat="35.3985089" lon="136.3941073"><ele>595.6766666666666</ele><time>2022-11-19T03:32:54Z</time></trkpt><trkpt lat="35.3984702" lon="136.3938775"><ele>589.8666666666667</ele><time>2022-11-19T03:33:40Z</time></trkpt><trkpt lat="35.3984774" lon="136.3936555"><ele>582.6133333333333</ele><time>2022-11-19T03:33:56Z</time></trkpt><trkpt lat="35.3984122" lon="136.3934425"><ele>574.2533333333334</ele><time>2022-11-19T03:34:19Z</time></trkpt><trkpt lat="35.3982637" lon="136.3933141"><ele>569.3866666666667</ele><time>2022-11-19T03:34:42Z</time></trkpt><trkpt lat="35.3981416" lon="136.3931493"><ele>564.68</ele><time>2022-11-19T03:34:53Z</time></trkpt><trkpt lat="35.3979519" lon="136.3930985"><ele>559.9466666666666</ele><time>2022-11-19T03:35:03Z</time></trkpt><trkpt lat="35.3978908" lon="136.3928908"><ele>554.41</ele><time>2022-11-19T03:35:36Z</time></trkpt><trkpt lat="35.397814" lon="136.3926826"><ele>548.8433333333334</ele><time>2022-11-19T03:35:44Z</time></trkpt><trkpt lat="35.397665" lon="136.3925486"><ele>544.0333333333333</ele><time>2022-11-19T03:35:54Z</time></trkpt><trkpt lat="35.3975258" lon="136.3923989"><ele>539.8933333333334</ele><time>2022-11-19T03:36:10Z</time></trkpt><trkpt lat="35.3974108" lon="136.3922233"><ele>535.8733333333333</ele><time>2022-11-19T03:36:35Z</time></trkpt><trkpt lat="35.3972666" lon="136.3920911"><ele>531.86</ele><time>2022-11-19T03:36:51Z</time></trkpt><trkpt lat="35.3971173" lon="136.3919562"><ele>527.5033333333333</ele><time>2022-11-19T03:37:18Z</time></trkpt><trkpt lat="35.3970009" lon="136.3917848"><ele>522.93</ele><time>2022-11-19T03:37:34Z</time></trkpt><trkpt lat="35.3968576" lon="136.3916196"><ele>518.32</ele><time>2022-11-19T03:38:00Z</time></trkpt><trkpt lat="35.3967816" lon="136.3914148"><ele>514.7233333333334</ele><time>2022-11-19T03:38:11Z</time></trkpt><trkpt lat="35.3967155" lon="136.3912065"><ele>511.3</ele><time>2022-11-19T03:38:33Z</time></trkpt><trkpt lat="35.3966065" lon="136.3910257"><ele>506.6266666666667</ele><time>2022-11-19T03:38:49Z</time></trkpt><trkpt lat="35.3966057" lon="136.3907984"><ele>501.3066666666667</ele><time>2022-11-19T03:39:03Z</time></trkpt><trkpt lat="35.3965236" lon="136.3905969"><ele>495.39000000000004</ele><time>2022-11-19T03:39:37Z</time></trkpt><trkpt lat="35.3964639" lon="136.3903842"><ele>490.53</ele><time>2022-11-19T03:40:18Z</time></trkpt><trkpt lat="35.3963128" lon="136.3902297"><ele>485.00333333333333</ele><time>2022-11-19T03:40:28Z</time></trkpt><trkpt lat="35.3962183" lon="136.3900365"><ele>479.5366666666667</ele><time>2022-11-19T03:40:46Z</time></trkpt><trkpt lat="35.3960329" lon="136.3899774"><ele>473.1466666666667</ele><time>2022-11-19T03:41:05Z</time></trkpt><trkpt lat="35.395887" lon="136.3898376"><ele>466.58666666666664</ele><time>2022-11-19T03:41:29Z</time></trkpt><trkpt lat="35.3957302" lon="136.3897227"><ele>460.04333333333335</ele><time>2022-11-19T03:41:58Z</time></trkpt><trkpt lat="35.3955657" lon="136.3896166"><ele>454.17333333333335</ele><time>2022-11-19T03:42:25Z</time></trkpt><trkpt lat="35.3954857" lon="136.3894133"><ele>448.65000000000003</ele><time>2022-11-19T03:42:41Z</time></trkpt><trkpt lat="35.3954704" lon="136.3891806"><ele>444.3966666666667</ele><time>2022-11-19T03:42:55Z</time></trkpt><trkpt lat="35.3954044" lon="136.3889663"><ele>440.0933333333334</ele><time>2022-11-19T03:43:26Z</time></trkpt><trkpt lat="35.3953482" lon="136.388738"><ele>436.31666666666666</ele><time>2022-11-19T03:43:42Z</time></trkpt><trkpt lat="35.3951613" lon="136.3887376"><ele>431.85666666666674</ele><time>2022-11-19T03:43:57Z</time></trkpt><trkpt lat="35.3950022" lon="136.3888776"><ele>428.7366666666667</ele><time>2022-11-19T03:44:03Z</time></trkpt><trkpt lat="35.3949336" lon="136.3890938"><ele>427.64000000000004</ele><time>2022-11-19T03:44:28Z</time></trkpt><trkpt lat="35.3951058" lon="136.3890232"><ele>428.3733333333333</ele><time>2022-11-19T03:44:53Z</time></trkpt><trkpt lat="35.3951689" lon="136.3888129"><ele>429.1133333333334</ele><time>2022-11-19T03:45:31Z</time></trkpt><trkpt lat="35.3953373" lon="136.3887258"><ele>429.91333333333336</ele><time>2022-11-19T03:46:03Z</time></trkpt><trkpt lat="35.3953035" lon="136.3884785"><ele>428.4333333333334</ele><time>2022-11-19T03:46:14Z</time></trkpt><trkpt lat="35.3951938" lon="136.3883029"><ele>425.84</ele><time>2022-11-19T03:46:27Z</time></trkpt><trkpt lat="35.395108" lon="136.388104"><ele>420.99333333333334</ele><time>2022-11-19T03:46:38Z</time></trkpt><trkpt lat="35.3949921" lon="136.3879352"><ele>416.73</ele><time>2022-11-19T03:46:56Z</time></trkpt><trkpt lat="35.3949101" lon="136.3877361"><ele>413.14000000000004</ele><time>2022-11-19T03:47:18Z</time></trkpt><trkpt lat="35.3950406" lon="136.3875816"><ele>410.6366666666667</ele><time>2022-11-19T03:47:42Z</time></trkpt><trkpt lat="35.394913" lon="136.3874184"><ele>406.3633333333334</ele><time>2022-11-19T03:48:07Z</time></trkpt><trkpt lat="35.3950682" lon="136.3872997"><ele>403.40333333333336</ele><time>2022-11-19T03:48:27Z</time></trkpt><trkpt lat="35.3952027" lon="136.3871489"><ele>398.78999999999996</ele><time>2022-11-19T03:48:47Z</time></trkpt><trkpt lat="35.3953824" lon="136.3871272"><ele>396.53000000000003</ele><time>2022-11-19T03:49:04Z</time></trkpt><trkpt lat="35.3955627" lon="136.3871182"><ele>392.41333333333336</ele><time>2022-11-19T03:49:27Z</time></trkpt><trkpt lat="35.3957316" lon="136.3870404"><ele>388.6866666666667</ele><time>2022-11-19T03:49:51Z</time></trkpt><trkpt lat="35.3958599" lon="136.3868715"><ele>383.09</ele><time>2022-11-19T03:50:33Z</time></trkpt><trkpt lat="35.3958311" lon="136.3866497"><ele>375.08666666666664</ele><time>2022-11-19T03:50:58Z</time></trkpt><trkpt lat="35.3957212" lon="136.386475"><ele>366.77666666666664</ele><time>2022-11-19T03:51:15Z</time></trkpt><trkpt lat="35.3955778" lon="136.3863282"><ele>359.3</ele><time>2022-11-19T03:51:26Z</time></trkpt><trkpt lat="35.3954391" lon="136.3861823"><ele>355.00333333333333</ele><time>2022-11-19T03:51:43Z</time></trkpt><trkpt lat="35.3952623" lon="136.3861081"><ele>352.0233333333333</ele><time>2022-11-19T03:52:04Z</time></trkpt><trkpt lat="35.3950963" lon="136.3859899"><ele>349.27333333333337</ele><time>2022-11-19T03:52:21Z</time></trkpt><trkpt lat="35.3949574" lon="136.3858412"><ele>346.56666666666666</ele><time>2022-11-19T03:52:34Z</time></trkpt><trkpt lat="35.3947812" lon="136.385784"><ele>343.6666666666667</ele><time>2022-11-19T03:52:57Z</time></trkpt><trkpt lat="35.3946181" lon="136.3856626"><ele>340.5233333333333</ele><time>2022-11-19T03:53:15Z</time></trkpt><trkpt lat="35.3948002" lon="136.385647"><ele>337.8433333333333</ele><time>2022-11-19T03:53:40Z</time></trkpt><trkpt lat="35.3949827" lon="136.3856576"><ele>337.16333333333336</ele><time>2022-11-19T03:54:07Z</time></trkpt><trkpt lat="35.3951699" lon="136.3856394"><ele>336.4466666666667</ele><time>2022-11-19T03:54:21Z</time></trkpt><trkpt lat="35.3951777" lon="136.3854119"><ele>333.43</ele><time>2022-11-19T03:54:40Z</time></trkpt><trkpt lat="35.3950567" lon="136.3852443"><ele>327.2</ele><time>2022-11-19T03:54:58Z</time></trkpt><trkpt lat="35.3952226" lon="136.3851373"><ele>320.96000000000004</ele><time>2022-11-19T03:55:14Z</time></trkpt><trkpt lat="35.3953763" lon="136.3852549"><ele>317.3533333333333</ele><time>2022-11-19T03:55:34Z</time></trkpt><trkpt lat="35.3953944" lon="136.3850318"><ele>312.77333333333337</ele><time>2022-11-19T03:55:55Z</time></trkpt><trkpt lat="35.3953252" lon="136.384823"><ele>308.32666666666665</ele><time>2022-11-19T03:56:35Z</time></trkpt><trkpt lat="35.3954745" lon="136.3846994"><ele>300.0133333333333</ele><time>2022-11-19T03:57:15Z</time></trkpt><trkpt lat="35.3956501" lon="136.3846449"><ele>291.16333333333336</ele><time>2022-11-19T03:57:58Z</time></trkpt><trkpt lat="35.3957207" lon="136.3844348"><ele>279.85999999999996</ele><time>2022-11-19T03:58:28Z</time></trkpt><trkpt lat="35.3955954" lon="136.3842677"><ele>272.2966666666667</ele><time>2022-11-19T03:58:43Z</time></trkpt><trkpt lat="35.3954274" lon="136.3841862"><ele>268.95</ele><time>2022-11-19T03:59:01Z</time></trkpt><trkpt lat="35.3952614" lon="136.384089"><ele>269.4266666666667</ele><time>2022-11-19T03:59:14Z</time></trkpt><trkpt lat="35.3951015" lon="136.3839691"><ele>267.3533333333333</ele><time>2022-11-19T03:59:29Z</time></trkpt><trkpt lat="35.3949102" lon="136.3839796"><ele>263.09999999999997</ele><time>2022-11-19T03:59:54Z</time></trkpt><trkpt lat="35.39473" lon="136.3839986"><ele>257.97333333333336</ele><time>2022-11-19T04:00:11Z</time></trkpt><trkpt lat="35.3945523" lon="136.3839548"><ele>254.0</ele><time>2022-11-19T04:00:23Z</time></trkpt><trkpt lat="35.3943841" lon="136.3838649"><ele>248.86333333333334</ele><time>2022-11-19T04:00:37Z</time></trkpt><trkpt lat="35.3945466" lon="136.3837604"><ele>242.8166666666667</ele><time>2022-11-19T04:00:55Z</time></trkpt><trkpt lat="35.3945559" lon="136.3835287"><ele>235.16666666666666</ele><time>2022-11-19T04:01:29Z</time></trkpt><trkpt lat="35.3943954" lon="136.3834233"><ele>228.83666666666667</ele><time>2022-11-19T04:02:14Z</time></trkpt><trkpt lat="35.3943251" lon="136.3831758"><ele>223.57000000000002</ele><time>2022-11-19T04:02:53Z</time></trkpt><trkpt lat="35.3941162" lon="136.3830985"><ele>220.26666666666665</ele><time>2022-11-19T04:03:54Z</time></trkpt></trkseg></trk></gpx>