<?xml version='1.0' encoding='UTF-8'?><gpx creator="YAMAP - https://yamap.com" xsi:schemaLocation="http://www.topografix.com/GPX/1/1 http://www.topografix.com/GPX/1/1/gpx.xsd" version="1.1" xmlns="http://www.topografix.com/GPX/1/1" xmlns:xsi="http://www.w3.org/2001/XMLSchema-instance"><metadata><bounds maxlat="36.765084" maxlon="139.4927262" minlat="36.7413535" minlon="139.4867886"/></metadata><trk><name>日光男体山</name><number>1</number><trkseg><trkpt lat="36.7419547" lon="139.4869993"><ele>1290.8</ele><time>2023-10-20T20:59:28Z</time></trkpt><trkpt lat="36.7421336" lon="139.4869608"><ele>1294.94</ele><time>2023-10-20T21:00:08Z</time></trkpt><trkpt lat="36.7422382" lon="139.4871523"><ele>1297.2766666666666</ele><time>2023-10-20T21:00:26Z</time></trkpt><trkpt lat="36.7424238" lon="139.4871063"><ele>1303.7133333333334</ele><time>2023-10-20T21:01:26Z</time></trkpt><trkpt lat="36.7426101" lon="139.4871534"><ele>1310.0233333333335</ele><time>2023-10-20T21:02:06Z</time></trkpt><trkpt lat="36.7427607" lon="139.4872783"><ele>1316.7933333333333</ele><time>2023-10-20T21:03:00Z</time></trkpt><trkpt lat="36.7429247" lon="139.4873733"><ele>1322.0433333333333</ele><time>2023-10-20T21:03:40Z</time></trkpt><trkpt lat="36.7430586" lon="139.4875346"><ele>1326.0</ele><time>2023-10-20T21:04:15Z</time></trkpt><trkpt lat="36.7432228" lon="139.4876385"><ele>1331.3500000000001</ele><time>2023-10-20T21:04:41Z</time></trkpt><trkpt lat="36.7433743" lon="139.4877614"><ele>1337.7766666666666</ele><time>2023-10-20T21:05:22Z</time></trkpt><trkpt lat="36.7435339" lon="139.4878838"><ele>1344.8733333333332</ele><time>2023-10-20T21:06:12Z</time></trkpt><trkpt lat="36.7437074" lon="139.4879468"><ele>1351.3266666666668</ele><time>2023-10-20T21:07:02Z</time></trkpt><trkpt lat="36.7438552" lon="139.48808"><ele>1357.1566666666668</ele><time>2023-10-20T21:07:26Z</time></trkpt><trkpt lat="36.7440196" lon="139.4881735"><ele>1362.96</ele><time>2023-10-20T21:08:30Z</time></trkpt><trkpt lat="36.7442013" lon="139.4881897"><ele>1369.55</ele><time>2023-10-20T21:09:17Z</time></trkpt><trkpt lat="36.7443786" lon="139.4881485"><ele>1376.3466666666666</ele><time>2023-10-20T21:09:44Z</time></trkpt><trkpt lat="36.7445403" lon="139.488045"><ele>1383.6866666666667</ele><time>2023-10-20T21:11:11Z</time></trkpt><trkpt lat="36.7447123" lon="139.4881364"><ele>1390.1966666666667</ele><time>2023-10-20T21:11:57Z</time></trkpt><trkpt lat="36.7448816" lon="139.4882152"><ele>1397.9666666666665</ele><time>2023-10-20T21:12:25Z</time></trkpt><trkpt lat="36.7450533" lon="139.4881446"><ele>1404.9733333333334</ele><time>2023-10-20T21:13:27Z</time></trkpt><trkpt lat="36.745236" lon="139.4881365"><ele>1412.7699999999998</ele><time>2023-10-20T21:14:39Z</time></trkpt><trkpt lat="36.7454179" lon="139.4881326"><ele>1419.3333333333333</ele><time>2023-10-20T21:15:27Z</time></trkpt><trkpt lat="36.7456035" lon="139.4881272"><ele>1427.0266666666666</ele><time>2023-10-20T21:16:07Z</time></trkpt><trkpt lat="36.7457739" lon="139.4882038"><ele>1435.18</ele><time>2023-10-20T21:17:27Z</time></trkpt><trkpt lat="36.7459445" lon="139.4882827"><ele>1444.3733333333332</ele><time>2023-10-20T21:18:22Z</time></trkpt><trkpt lat="36.7461067" lon="139.4883815"><ele>1454.7133333333334</ele><time>2023-10-20T21:19:06Z</time></trkpt><trkpt lat="36.7462777" lon="139.4884637"><ele>1464.0533333333333</ele><time>2023-10-20T21:20:14Z</time></trkpt><trkpt lat="36.7464391" lon="139.4885643"><ele>1472.8500000000001</ele><time>2023-10-20T21:21:27Z</time></trkpt><trkpt lat="36.7465356" lon="139.4887561"><ele>1480.2666666666667</ele><time>2023-10-20T21:22:21Z</time></trkpt><trkpt lat="36.7466912" lon="139.4888733"><ele>1488.5533333333333</ele><time>2023-10-20T21:23:08Z</time></trkpt><trkpt lat="36.7468673" lon="139.4889254"><ele>1498.0233333333333</ele><time>2023-10-20T21:24:47Z</time></trkpt><trkpt lat="36.7470288" lon="139.4890351"><ele>1507.5166666666667</ele><time>2023-10-20T21:25:34Z</time></trkpt><trkpt lat="36.7471908" lon="139.489139"><ele>1516.0033333333333</ele><time>2023-10-20T21:26:40Z</time></trkpt><trkpt lat="36.747366" lon="139.4891945"><ele>1524.0666666666668</ele><time>2023-10-20T21:27:55Z</time></trkpt><trkpt lat="36.7475471" lon="139.4891669"><ele>1531.3366666666668</ele><time>2023-10-20T21:28:36Z</time></trkpt><trkpt lat="36.7477359" lon="139.4891681"><ele>1539.99</ele><time>2023-10-20T21:30:00Z</time></trkpt><trkpt lat="36.7478653" lon="139.4893251"><ele>1547.25</ele><time>2023-10-20T21:31:18Z</time></trkpt><trkpt lat="36.7478712" lon="139.4895669"><ele>1552.6233333333337</ele><time>2023-10-20T21:32:21Z</time></trkpt><trkpt lat="36.7478506" lon="139.4897916"><ele>1554.51</ele><time>2023-10-20T21:32:52Z</time></trkpt><trkpt lat="36.7479612" lon="139.4899712"><ele>1555.6000000000001</ele><time>2023-10-20T21:33:25Z</time></trkpt><trkpt lat="36.7480702" lon="139.4897897"><ele>1559.3133333333335</ele><time>2023-10-20T21:33:50Z</time></trkpt><trkpt lat="36.7481159" lon="139.4895596"><ele>1564.2533333333333</ele><time>2023-10-20T21:34:12Z</time></trkpt><trkpt lat="36.7481459" lon="139.4893374"><ele>1568.0666666666666</ele><time>2023-10-20T21:34:36Z</time></trkpt><trkpt lat="36.7480891" lon="139.4891206"><ele>1567.75</ele><time>2023-10-20T21:35:08Z</time></trkpt><trkpt lat="36.7481932" lon="139.4889353"><ele>1567.9133333333332</ele><time>2023-10-20T21:35:31Z</time></trkpt><trkpt lat="36.7482734" lon="139.4887099"><ele>1568.3666666666668</ele><time>2023-10-20T21:35:52Z</time></trkpt><trkpt lat="36.7482303" lon="139.488932"><ele>1570.206666666667</ele><time>2023-10-20T21:36:24Z</time></trkpt><trkpt lat="36.7482175" lon="139.489166"><ele>1570.92</ele><time>2023-10-20T21:36:46Z</time></trkpt><trkpt lat="36.7482328" lon="139.4894014"><ele>1571.75</ele><time>2023-10-20T21:37:08Z</time></trkpt><trkpt lat="36.7482465" lon="139.4896251"><ele>1573.9866666666667</ele><time>2023-10-20T21:37:31Z</time></trkpt><trkpt lat="36.7482534" lon="139.4898521"><ele>1575.7366666666667</ele><time>2023-10-20T21:37:56Z</time></trkpt><trkpt lat="36.7483332" lon="139.4900556"><ele>1578.2333333333333</ele><time>2023-10-20T21:38:11Z</time></trkpt><trkpt lat="36.7484943" lon="139.4901567"><ele>1579.55</ele><time>2023-10-20T21:38:31Z</time></trkpt><trkpt lat="36.7486544" lon="139.4902627"><ele>1582.5833333333333</ele><time>2023-10-20T21:38:50Z</time></trkpt><trkpt lat="36.7487047" lon="139.4904862"><ele>1584.4666666666665</ele><time>2023-10-20T21:39:13Z</time></trkpt><trkpt lat="36.7485648" lon="139.4906425"><ele>1585.0933333333332</ele><time>2023-10-20T21:39:34Z</time></trkpt><trkpt lat="36.7484119" lon="139.4907664"><ele>1582.7699999999998</ele><time>2023-10-20T21:39:57Z</time></trkpt><trkpt lat="36.748394" lon="139.4910076"><ele>1582.74</ele><time>2023-10-20T21:40:10Z</time></trkpt><trkpt lat="36.748462" lon="139.4912442"><ele>1585.6533333333334</ele><time>2023-10-20T21:40:25Z</time></trkpt><trkpt lat="36.7485093" lon="139.4914615"><ele>1589.0</ele><time>2023-10-20T21:40:42Z</time></trkpt><trkpt lat="36.748579" lon="139.4916763"><ele>1590.9433333333334</ele><time>2023-10-20T21:40:58Z</time></trkpt><trkpt lat="36.7486065" lon="139.4918983"><ele>1591.5866666666668</ele><time>2023-10-20T21:41:14Z</time></trkpt><trkpt lat="36.7486458" lon="139.4921177"><ele>1592.3466666666666</ele><time>2023-10-20T21:41:33Z</time></trkpt><trkpt lat="36.7486949" lon="139.4923333"><ele>1592.86</ele><time>2023-10-20T21:41:48Z</time></trkpt><trkpt lat="36.7487496" lon="139.4925522"><ele>1592.9866666666667</ele><time>2023-10-20T21:42:04Z</time></trkpt><trkpt lat="36.7488934" lon="139.4926901"><ele>1595.1366666666665</ele><time>2023-10-20T21:42:35Z</time></trkpt><trkpt lat="36.7490436" lon="139.4925601"><ele>1599.2666666666667</ele><time>2023-10-20T21:42:55Z</time></trkpt><trkpt lat="36.7490698" lon="139.4923361"><ele>1605.9133333333332</ele><time>2023-10-20T21:43:12Z</time></trkpt><trkpt lat="36.7489965" lon="139.4921246"><ele>1609.1166666666668</ele><time>2023-10-20T21:43:29Z</time></trkpt><trkpt lat="36.7490062" lon="139.4918867"><ele>1611.46</ele><time>2023-10-20T21:43:49Z</time></trkpt><trkpt lat="36.7490061" lon="139.4916577"><ele>1612.9399999999998</ele><time>2023-10-20T21:44:18Z</time></trkpt><trkpt lat="36.7490357" lon="139.491429"><ele>1616.83</ele><time>2023-10-20T21:44:41Z</time></trkpt><trkpt lat="36.7490262" lon="139.491204"><ele>1619.2966666666669</ele><time>2023-10-20T21:44:57Z</time></trkpt><trkpt lat="36.7490098" lon="139.4909751"><ele>1619.7366666666667</ele><time>2023-10-20T21:45:14Z</time></trkpt><trkpt lat="36.7491365" lon="139.491142"><ele>1622.5666666666668</ele><time>2023-10-20T21:45:43Z</time></trkpt><trkpt lat="36.749131" lon="139.4913669"><ele>1623.5400000000002</ele><time>2023-10-20T21:46:00Z</time></trkpt><trkpt lat="36.7491668" lon="139.4915866"><ele>1625.5200000000002</ele><time>2023-10-20T21:46:19Z</time></trkpt><trkpt lat="36.7492286" lon="139.4918038"><ele>1625.0333333333335</ele><time>2023-10-20T21:46:42Z</time></trkpt><trkpt lat="36.749307" lon="139.4920195"><ele>1627.4366666666667</ele><time>2023-10-20T21:47:00Z</time></trkpt><trkpt lat="36.7493593" lon="139.4922507"><ele>1629.71</ele><time>2023-10-20T21:47:21Z</time></trkpt><trkpt lat="36.7493994" lon="139.4924716"><ele>1630.8366666666668</ele><time>2023-10-20T21:47:37Z</time></trkpt><trkpt lat="36.7494745" lon="139.4926854"><ele>1630.7833333333335</ele><time>2023-10-20T21:47:55Z</time></trkpt><trkpt lat="36.7496491" lon="139.4926204"><ele>1632.9266666666665</ele><time>2023-10-20T21:48:17Z</time></trkpt><trkpt lat="36.7496989" lon="139.4924009"><ele>1638.9800000000002</ele><time>2023-10-20T21:48:29Z</time></trkpt><trkpt lat="36.749676" lon="139.4921763"><ele>1643.88</ele><time>2023-10-20T21:48:46Z</time></trkpt><trkpt lat="36.7496375" lon="139.4919511"><ele>1647.0233333333333</ele><time>2023-10-20T21:49:06Z</time></trkpt><trkpt lat="36.7496208" lon="139.4917223"><ele>1647.8700000000001</ele><time>2023-10-20T21:49:19Z</time></trkpt><trkpt lat="36.7496277" lon="139.4914976"><ele>1650.54</ele><time>2023-10-20T21:49:33Z</time></trkpt><trkpt lat="36.7496403" lon="139.4912692"><ele>1653.18</ele><time>2023-10-20T21:49:50Z</time></trkpt><trkpt lat="36.7496571" lon="139.4910382"><ele>1656.2</ele><time>2023-10-20T21:50:05Z</time></trkpt><trkpt lat="36.7495915" lon="139.4908209"><ele>1656.71</ele><time>2023-10-20T21:50:21Z</time></trkpt><trkpt lat="36.7497261" lon="139.4906703"><ele>1657.8266666666666</ele><time>2023-10-20T21:50:42Z</time></trkpt><trkpt lat="36.7498843" lon="139.4905414"><ele>1658.53</ele><time>2023-10-20T21:51:05Z</time></trkpt><trkpt lat="36.7499878" lon="139.4903558"><ele>1662.24</ele><time>2023-10-20T21:51:24Z</time></trkpt><trkpt lat="36.7500045" lon="139.4901233"><ele>1664.0766666666666</ele><time>2023-10-20T21:51:44Z</time></trkpt><trkpt lat="36.7498738" lon="139.4899497"><ele>1663.9766666666667</ele><time>2023-10-20T21:52:03Z</time></trkpt><trkpt lat="36.7497993" lon="139.4897333"><ele>1663.3333333333333</ele><time>2023-10-20T21:52:21Z</time></trkpt><trkpt lat="36.749663" lon="139.4895628"><ele>1661.9000000000003</ele><time>2023-10-20T21:52:45Z</time></trkpt><trkpt lat="36.7496889" lon="139.4893274"><ele>1663.1000000000001</ele><time>2023-10-20T21:52:55Z</time></trkpt><trkpt lat="36.749872" lon="139.4893056"><ele>1665.49</ele><time>2023-10-20T21:53:16Z</time></trkpt><trkpt lat="36.7500296" lon="139.4894357"><ele>1673.8733333333332</ele><time>2023-10-20T21:55:12Z</time></trkpt><trkpt lat="36.7502067" lon="139.4893864"><ele>1684.0966666666666</ele><time>2023-10-20T21:55:56Z</time></trkpt><trkpt lat="36.7503714" lon="139.4894831"><ele>1696.4766666666667</ele><time>2023-10-20T21:58:16Z</time></trkpt><trkpt lat="36.7505596" lon="139.4895015"><ele>1706.67</ele><time>2023-10-20T21:59:28Z</time></trkpt><trkpt lat="36.7507101" lon="139.4896329"><ele>1716.5866666666668</ele><time>2023-10-20T22:00:46Z</time></trkpt><trkpt lat="36.7508624" lon="139.4895127"><ele>1727.0266666666666</ele><time>2023-10-20T22:02:33Z</time></trkpt><trkpt lat="36.7510433" lon="139.4894833"><ele>1737.7699999999998</ele><time>2023-10-20T22:03:45Z</time></trkpt><trkpt lat="36.7511972" lon="139.4896035"><ele>1749.5333333333335</ele><time>2023-10-20T22:05:13Z</time></trkpt><trkpt lat="36.7513758" lon="139.4895732"><ele>1759.6500000000003</ele><time>2023-10-20T22:06:56Z</time></trkpt><trkpt lat="36.7515165" lon="139.4897178"><ele>1769.4033333333334</ele><time>2023-10-20T22:07:48Z</time></trkpt><trkpt lat="36.7517029" lon="139.4896816"><ele>1779.1466666666668</ele><time>2023-10-20T22:09:27Z</time></trkpt><trkpt lat="36.7518322" lon="139.4895243"><ele>1788.1833333333334</ele><time>2023-10-20T22:10:50Z</time></trkpt><trkpt lat="36.7520086" lon="139.4895787"><ele>1797.8200000000004</ele><time>2023-10-20T22:12:11Z</time></trkpt><trkpt lat="36.7521451" lon="139.4897254"><ele>1806.7233333333334</ele><time>2023-10-20T22:14:08Z</time></trkpt><trkpt lat="36.7523166" lon="139.4896484"><ele>1818.3833333333332</ele><time>2023-10-20T22:14:49Z</time></trkpt><trkpt lat="36.7524647" lon="139.4897819"><ele>1829.9266666666665</ele><time>2023-10-20T22:16:48Z</time></trkpt><trkpt lat="36.7525298" lon="139.4899928"><ele>1839.0666666666668</ele><time>2023-10-20T22:17:45Z</time></trkpt><trkpt lat="36.7527072" lon="139.4899521"><ele>1847.3033333333333</ele><time>2023-10-20T22:19:05Z</time></trkpt><trkpt lat="36.7528915" lon="139.4899566"><ele>1858.0733333333335</ele><time>2023-10-20T22:20:34Z</time></trkpt><trkpt lat="36.7530718" lon="139.4899706"><ele>1874.0199999999998</ele><time>2023-10-20T22:22:06Z</time></trkpt><trkpt lat="36.7532432" lon="139.4898746"><ele>1889.1366666666665</ele><time>2023-10-20T22:24:11Z</time></trkpt><trkpt lat="36.7533365" lon="139.4896786"><ele>1903.7033333333336</ele><time>2023-10-20T22:24:53Z</time></trkpt><trkpt lat="36.7534646" lon="139.4895154"><ele>1915.4233333333334</ele><time>2023-10-20T22:28:38Z</time></trkpt><trkpt lat="36.7536457" lon="139.4894627"><ele>1926.86</ele><time>2023-10-20T22:29:59Z</time></trkpt><trkpt lat="36.7537879" lon="139.4896141"><ele>1936.01</ele><time>2023-10-20T22:31:53Z</time></trkpt><trkpt lat="36.7539676" lon="139.4896334"><ele>1947.7900000000002</ele><time>2023-10-20T22:34:24Z</time></trkpt><trkpt lat="36.7541398" lon="139.4897025"><ele>1959.7933333333333</ele><time>2023-10-20T22:35:50Z</time></trkpt><trkpt lat="36.7542824" lon="139.4898494"><ele>1971.0600000000002</ele><time>2023-10-20T22:37:06Z</time></trkpt><trkpt lat="36.7544387" lon="139.4897208"><ele>1982.0433333333333</ele><time>2023-10-20T22:42:05Z</time></trkpt><trkpt lat="36.7545546" lon="139.4898946"><ele>1990.9933333333336</ele><time>2023-10-20T22:44:09Z</time></trkpt><trkpt lat="36.7547379" lon="139.4899137"><ele>2003.0200000000002</ele><time>2023-10-20T22:45:58Z</time></trkpt><trkpt lat="36.7549142" lon="139.4898597"><ele>2014.3566666666666</ele><time>2023-10-20T22:48:02Z</time></trkpt><trkpt lat="36.7550944" lon="139.4898114"><ele>2028.8400000000001</ele><time>2023-10-20T22:50:11Z</time></trkpt><trkpt lat="36.755272" lon="139.4897608"><ele>2043.3500000000004</ele><time>2023-10-20T22:52:47Z</time></trkpt><trkpt lat="36.7554432" lon="139.4898346"><ele>2056.2166666666667</ele><time>2023-10-20T22:55:11Z</time></trkpt><trkpt lat="36.7556229" lon="139.4897873"><ele>2070.3866666666668</ele><time>2023-10-20T22:59:00Z</time></trkpt><trkpt lat="36.7558025" lon="139.4897529"><ele>2082.4333333333334</ele><time>2023-10-20T23:01:36Z</time></trkpt><trkpt lat="36.7559848" lon="139.4897614"><ele>2096.9633333333336</ele><time>2023-10-20T23:04:38Z</time></trkpt><trkpt lat="36.7561611" lon="139.4898384"><ele>2111.9066666666668</ele><time>2023-10-20T23:05:22Z</time></trkpt><trkpt lat="36.7563332" lon="139.4897682"><ele>2126.846666666667</ele><time>2023-10-20T23:08:24Z</time></trkpt><trkpt lat="36.7565213" lon="139.4897384"><ele>2140.5333333333333</ele><time>2023-10-20T23:10:06Z</time></trkpt><trkpt lat="36.7567214" lon="139.4897511"><ele>2153.3533333333335</ele><time>2023-10-20T23:13:35Z</time></trkpt><trkpt lat="36.7569013" lon="139.4896769"><ele>2166.3033333333333</ele><time>2023-10-20T23:14:44Z</time></trkpt><trkpt lat="36.7570631" lon="139.4895736"><ele>2179.1233333333334</ele><time>2023-10-20T23:16:49Z</time></trkpt><trkpt lat="36.7572372" lon="139.4895081"><ele>2190.4466666666667</ele><time>2023-10-20T23:18:32Z</time></trkpt><trkpt lat="36.7574008" lon="139.4896049"><ele>2203.476666666667</ele><time>2023-10-20T23:22:14Z</time></trkpt><trkpt lat="36.757582" lon="139.4896161"><ele>2215.316666666667</ele><time>2023-10-20T23:25:11Z</time></trkpt><trkpt lat="36.7577692" lon="139.4896205"><ele>2228.1800000000003</ele><time>2023-10-20T23:26:15Z</time></trkpt><trkpt lat="36.7579201" lon="139.4894847"><ele>2237.9433333333336</ele><time>2023-10-20T23:26:57Z</time></trkpt><trkpt lat="36.7580714" lon="139.4893522"><ele>2246.0</ele><time>2023-10-20T23:27:33Z</time></trkpt><trkpt lat="36.7582419" lon="139.4892684"><ele>2251.6666666666665</ele><time>2023-10-20T23:28:16Z</time></trkpt><trkpt lat="36.7584149" lon="139.489187"><ele>2256.263333333334</ele><time>2023-10-20T23:28:43Z</time></trkpt><trkpt lat="36.7585635" lon="139.4890588"><ele>2260.956666666667</ele><time>2023-10-20T23:29:33Z</time></trkpt><trkpt lat="36.7587281" lon="139.4889635"><ele>2264.456666666667</ele><time>2023-10-20T23:30:29Z</time></trkpt><trkpt lat="36.7589039" lon="139.4889067"><ele>2268.9633333333336</ele><time>2023-10-20T23:31:22Z</time></trkpt><trkpt lat="36.7590681" lon="139.4890099"><ele>2273.7999999999997</ele><time>2023-10-20T23:32:30Z</time></trkpt><trkpt lat="36.7592227" lon="139.489133"><ele>2279.4666666666667</ele><time>2023-10-20T23:33:04Z</time></trkpt><trkpt lat="36.759403" lon="139.4891629"><ele>2284.8633333333332</ele><time>2023-10-20T23:34:19Z</time></trkpt><trkpt lat="36.7595834" lon="139.4891984"><ele>2289.61</ele><time>2023-10-20T23:35:18Z</time></trkpt><trkpt lat="36.7597643" lon="139.4891968"><ele>2294.7900000000004</ele><time>2023-10-20T23:37:45Z</time></trkpt><trkpt lat="36.7599503" lon="139.4891859"><ele>2301.58</ele><time>2023-10-20T23:39:05Z</time></trkpt><trkpt lat="36.760137" lon="139.4892062"><ele>2309.5366666666664</ele><time>2023-10-20T23:40:10Z</time></trkpt><trkpt lat="36.7603168" lon="139.4891776"><ele>2316.4966666666664</ele><time>2023-10-20T23:41:35Z</time></trkpt><trkpt lat="36.7604834" lon="139.4890837"><ele>2323.0033333333336</ele><time>2023-10-20T23:42:23Z</time></trkpt><trkpt lat="36.7606627" lon="139.4890485"><ele>2328.8433333333337</ele><time>2023-10-20T23:43:41Z</time></trkpt><trkpt lat="36.7608472" lon="139.4890981"><ele>2336.2933333333335</ele><time>2023-10-20T23:44:51Z</time></trkpt><trkpt lat="36.7610249" lon="139.4890391"><ele>2343.17</ele><time>2023-10-20T23:46:17Z</time></trkpt><trkpt lat="36.7612052" lon="139.4890344"><ele>2351.0200000000004</ele><time>2023-10-20T23:47:47Z</time></trkpt><trkpt lat="36.761391" lon="139.4890567"><ele>2358.1033333333335</ele><time>2023-10-20T23:48:25Z</time></trkpt><trkpt lat="36.7615752" lon="139.4890217"><ele>2364.25</ele><time>2023-10-20T23:49:30Z</time></trkpt><trkpt lat="36.7617572" lon="139.4890292"><ele>2369.096666666667</ele><time>2023-10-20T23:50:10Z</time></trkpt><trkpt lat="36.7619366" lon="139.4890024"><ele>2373.2433333333333</ele><time>2023-10-20T23:50:44Z</time></trkpt><trkpt lat="36.7621168" lon="139.488958"><ele>2377.33</ele><time>2023-10-20T23:51:17Z</time></trkpt><trkpt lat="36.7622959" lon="139.488909"><ele>2381.903333333333</ele><time>2023-10-20T23:51:49Z</time></trkpt><trkpt lat="36.7624732" lon="139.4889625"><ele>2387.66</ele><time>2023-10-20T23:53:27Z</time></trkpt><trkpt lat="36.7626505" lon="139.4890048"><ele>2393.536666666667</ele><time>2023-10-20T23:54:30Z</time></trkpt><trkpt lat="36.7628075" lon="139.4891274"><ele>2400.183333333333</ele><time>2023-10-20T23:55:54Z</time></trkpt><trkpt lat="36.7629779" lon="139.4892037"><ele>2407.7033333333334</ele><time>2023-10-20T23:56:54Z</time></trkpt><trkpt lat="36.7631249" lon="139.4890351"><ele>2413.98</ele><time>2023-10-20T23:57:50Z</time></trkpt><trkpt lat="36.7632348" lon="139.4893063"><ele>2421.2933333333335</ele><time>2023-10-20T23:58:08Z</time></trkpt><trkpt lat="36.7634164" lon="139.4893254"><ele>2426.75</ele><time>2023-10-20T23:59:44Z</time></trkpt><trkpt lat="36.7635553" lon="139.4894742"><ele>2435.956666666667</ele><time>2023-10-21T00:00:47Z</time></trkpt><trkpt lat="36.76374" lon="139.4894903"><ele>2443.653333333333</ele><time>2023-10-21T00:01:49Z</time></trkpt><trkpt lat="36.7639149" lon="139.4895464"><ele>2451.7933333333335</ele><time>2023-10-21T00:02:47Z</time></trkpt><trkpt lat="36.7640703" lon="139.4896619"><ele>2458.013333333334</ele><time>2023-10-21T00:03:59Z</time></trkpt><trkpt lat="36.7642399" lon="139.4897434"><ele>2463.226666666667</ele><time>2023-10-21T00:04:32Z</time></trkpt><trkpt lat="36.7644213" lon="139.4897776"><ele>2468.4866666666667</ele><time>2023-10-21T00:05:05Z</time></trkpt><trkpt lat="36.764525" lon="139.4899611"><ele>2473.11</ele><time>2023-10-21T00:05:32Z</time></trkpt><trkpt lat="36.7646563" lon="139.4897986"><ele>2477.32</ele><time>2023-10-21T00:05:59Z</time></trkpt><trkpt lat="36.7647031" lon="139.4900165"><ele>2479.2966666666666</ele><time>2023-10-21T00:06:29Z</time></trkpt><trkpt lat="36.764788" lon="139.4903004"><ele>2479.456666666667</ele><time>2023-10-21T00:08:07Z</time></trkpt><trkpt lat="36.7646765" lon="139.4901179"><ele>2479.3733333333334</ele><time>2023-10-21T00:09:00Z</time></trkpt><trkpt lat="36.7645886" lon="139.4899176"><ele>2479.1733333333336</ele><time>2023-10-21T00:09:18Z</time></trkpt><trkpt lat="36.7646736" lon="139.4901153"><ele>2479.8133333333335</ele><time>2023-10-21T00:10:32Z</time></trkpt><trkpt lat="36.7648136" lon="139.4902822"><ele>2478.443333333333</ele><time>2023-10-21T00:15:36Z</time></trkpt><trkpt lat="36.7647096" lon="139.490096"><ele>2478.6600000000003</ele><time>2023-10-21T00:18:32Z</time></trkpt><trkpt lat="36.7645991" lon="139.4899017"><ele>2478.4433333333336</ele><time>2023-10-21T00:18:49Z</time></trkpt><trkpt lat="36.7647523" lon="139.4897653"><ele>2479.3266666666664</ele><time>2023-10-21T00:19:32Z</time></trkpt><trkpt lat="36.7645538" lon="139.4896047"><ele>2477.5200000000004</ele><time>2023-10-21T00:20:14Z</time></trkpt><trkpt lat="36.7645538" lon="139.4898371"><ele>2477.5633333333335</ele><time>2023-10-21T00:20:49Z</time></trkpt><trkpt lat="36.7646381" lon="139.4900388"><ele>2478.07</ele><time>2023-10-21T00:21:13Z</time></trkpt><trkpt lat="36.7646936" lon="139.4902558"><ele>2479.6600000000003</ele><time>2023-10-21T00:21:48Z</time></trkpt><trkpt lat="36.7648136" lon="139.4904438"><ele>2478.85</ele><time>2023-10-21T00:23:59Z</time></trkpt><trkpt lat="36.7650015" lon="139.4905002"><ele>2477.9733333333334</ele><time>2023-10-21T00:24:32Z</time></trkpt><trkpt lat="36.7649618" lon="139.4907193"><ele>2478.6200000000003</ele><time>2023-10-21T00:24:49Z</time></trkpt><trkpt lat="36.765084" lon="139.4908969"><ele>2479.9900000000002</ele><time>2023-10-21T00:25:24Z</time></trkpt><trkpt lat="36.7649371" lon="139.4907647"><ele>2480.52</ele><time>2023-10-21T00:26:58Z</time></trkpt><trkpt lat="36.7650003" lon="139.4905536"><ele>2479.233333333333</ele><time>2023-10-21T00:28:24Z</time></trkpt><trkpt lat="36.7648345" lon="139.4904228"><ele>2477.8633333333332</ele><time>2023-10-21T00:28:59Z</time></trkpt><trkpt lat="36.7647666" lon="139.490205"><ele>2477.4733333333334</ele><time>2023-10-21T00:29:16Z</time></trkpt><trkpt lat="36.7646426" lon="139.4900407"><ele>2478.35</ele><time>2023-10-21T00:45:29Z</time></trkpt><trkpt lat="36.7646514" lon="139.4897785"><ele>2479.4166666666665</ele><time>2023-10-21T00:45:47Z</time></trkpt><trkpt lat="36.764618" lon="139.49"><ele>2480.1533333333336</ele><time>2023-10-21T00:46:29Z</time></trkpt><trkpt lat="36.7647136" lon="139.4902104"><ele>2480.1333333333337</ele><time>2023-10-21T00:47:29Z</time></trkpt><trkpt lat="36.7646797" lon="139.489976"><ele>2480.0333333333333</ele><time>2023-10-21T00:52:26Z</time></trkpt><trkpt lat="36.7646318" lon="139.4897588"><ele>2480.096666666667</ele><time>2023-10-21T00:52:37Z</time></trkpt><trkpt lat="36.7645397" lon="139.4899554"><ele>2479.88</ele><time>2023-10-21T00:53:43Z</time></trkpt><trkpt lat="36.7643831" lon="139.4898291"><ele>2477.5133333333333</ele><time>2023-10-21T00:54:08Z</time></trkpt><trkpt lat="36.7642091" lon="139.4897447"><ele>2473.3033333333333</ele><time>2023-10-21T00:54:40Z</time></trkpt><trkpt lat="36.7640279" lon="139.4896975"><ele>2467.7333333333336</ele><time>2023-10-21T00:55:21Z</time></trkpt><trkpt lat="36.7638901" lon="139.4895461"><ele>2462.8633333333332</ele><time>2023-10-21T00:56:00Z</time></trkpt><trkpt lat="36.7637091" lon="139.4894871"><ele>2456.94</ele><time>2023-10-21T00:56:48Z</time></trkpt><trkpt lat="36.7635267" lon="139.4894561"><ele>2450.2099999999996</ele><time>2023-10-21T00:57:59Z</time></trkpt><trkpt lat="36.7633699" lon="139.489606"><ele>2444.356666666667</ele><time>2023-10-21T00:59:05Z</time></trkpt><trkpt lat="36.7632447" lon="139.4894349"><ele>2438.14</ele><time>2023-10-21T00:59:25Z</time></trkpt><trkpt lat="36.7631109" lon="139.4892807"><ele>2431.516666666667</ele><time>2023-10-21T00:59:55Z</time></trkpt><trkpt lat="36.7632399" lon="139.4891174"><ele>2426.0033333333336</ele><time>2023-10-21T01:00:16Z</time></trkpt><trkpt lat="36.7630763" lon="139.4890227"><ele>2419.516666666667</ele><time>2023-10-21T01:00:38Z</time></trkpt><trkpt lat="36.7629281" lon="139.4891652"><ele>2416.1333333333337</ele><time>2023-10-21T01:00:52Z</time></trkpt><trkpt lat="36.7627477" lon="139.4891844"><ele>2409.5499999999997</ele><time>2023-10-21T01:01:06Z</time></trkpt><trkpt lat="36.7626352" lon="139.4890067"><ele>2405.1766666666667</ele><time>2023-10-21T01:01:48Z</time></trkpt><trkpt lat="36.7624534" lon="139.4889945"><ele>2398.7000000000003</ele><time>2023-10-21T01:02:09Z</time></trkpt><trkpt lat="36.7622573" lon="139.4890675"><ele>2392.826666666667</ele><time>2023-10-21T01:03:09Z</time></trkpt><trkpt lat="36.7621568" lon="139.48888"><ele>2387.3866666666668</ele><time>2023-10-21T01:03:26Z</time></trkpt><trkpt lat="36.7619786" lon="139.4889284"><ele>2381.883333333333</ele><time>2023-10-21T01:03:41Z</time></trkpt><trkpt lat="36.7618294" lon="139.4890675"><ele>2377.9933333333333</ele><time>2023-10-21T01:03:56Z</time></trkpt><trkpt lat="36.7616631" lon="139.4889737"><ele>2374.5733333333333</ele><time>2023-10-21T01:04:11Z</time></trkpt><trkpt lat="36.7614845" lon="139.4890236"><ele>2371.2133333333336</ele><time>2023-10-21T01:04:26Z</time></trkpt><trkpt lat="36.7613177" lon="139.4889361"><ele>2366.206666666667</ele><time>2023-10-21T01:05:00Z</time></trkpt><trkpt lat="36.7611569" lon="139.4890634"><ele>2360.8933333333334</ele><time>2023-10-21T01:05:15Z</time></trkpt><trkpt lat="36.761054" lon="139.4888734"><ele>2355.3633333333332</ele><time>2023-10-21T01:05:51Z</time></trkpt><trkpt lat="36.7608912" lon="139.4889722"><ele>2349.5366666666664</ele><time>2023-10-21T01:06:22Z</time></trkpt><trkpt lat="36.7607314" lon="139.4890826"><ele>2343.486666666666</ele><time>2023-10-21T01:06:50Z</time></trkpt><trkpt lat="36.7605514" lon="139.4890558"><ele>2337.6966666666667</ele><time>2023-10-21T01:07:27Z</time></trkpt><trkpt lat="36.760364" lon="139.4890783"><ele>2331.3233333333333</ele><time>2023-10-21T01:07:44Z</time></trkpt><trkpt lat="36.7601915" lon="139.4891447"><ele>2324.3233333333333</ele><time>2023-10-21T01:08:27Z</time></trkpt><trkpt lat="36.7600064" lon="139.4891291"><ele>2317.6733333333336</ele><time>2023-10-21T01:08:57Z</time></trkpt><trkpt lat="36.7598171" lon="139.489125"><ele>2311.1366666666668</ele><time>2023-10-21T01:09:43Z</time></trkpt><trkpt lat="36.7596345" lon="139.4891496"><ele>2304.11</ele><time>2023-10-21T01:10:03Z</time></trkpt><trkpt lat="36.7594525" lon="139.4891813"><ele>2297.2000000000003</ele><time>2023-10-21T01:10:39Z</time></trkpt><trkpt lat="36.7592798" lon="139.4890912"><ele>2291.103333333334</ele><time>2023-10-21T01:11:01Z</time></trkpt><trkpt lat="36.7590924" lon="139.4890882"><ele>2286.09</ele><time>2023-10-21T01:11:18Z</time></trkpt><trkpt lat="36.7589447" lon="139.4889575"><ele>2280.56</ele><time>2023-10-21T01:11:27Z</time></trkpt><trkpt lat="36.7587648" lon="139.4889143"><ele>2274.976666666667</ele><time>2023-10-21T01:12:11Z</time></trkpt><trkpt lat="36.7585759" lon="139.4889618"><ele>2269.116666666667</ele><time>2023-10-21T01:12:49Z</time></trkpt><trkpt lat="36.7584136" lon="139.4890792"><ele>2263.5</ele><time>2023-10-21T01:13:06Z</time></trkpt><trkpt lat="36.7582368" lon="139.4891975"><ele>2259.25</ele><time>2023-10-21T01:13:21Z</time></trkpt><trkpt lat="36.7580949" lon="139.4893529"><ele>2256.1433333333334</ele><time>2023-10-21T01:13:39Z</time></trkpt><trkpt lat="36.7579067" lon="139.4893869"><ele>2251.81</ele><time>2023-10-21T01:13:56Z</time></trkpt><trkpt lat="36.7577791" lon="139.4895496"><ele>2246.67</ele><time>2023-10-21T01:14:33Z</time></trkpt><trkpt lat="36.7575999" lon="139.4895772"><ele>2239.4266666666667</ele><time>2023-10-21T01:16:18Z</time></trkpt><trkpt lat="36.7574183" lon="139.4895979"><ele>2229.976666666667</ele><time>2023-10-21T01:19:03Z</time></trkpt><trkpt lat="36.7573457" lon="139.4893927"><ele>2220.116666666667</ele><time>2023-10-21T01:20:45Z</time></trkpt><trkpt lat="36.7571699" lon="139.489468"><ele>2208.1800000000003</ele><time>2023-10-21T01:22:19Z</time></trkpt><trkpt lat="36.7569717" lon="139.4895104"><ele>2197.7133333333336</ele><time>2023-10-21T01:25:08Z</time></trkpt><trkpt lat="36.7568195" lon="139.4896354"><ele>2184.9900000000002</ele><time>2023-10-21T01:25:55Z</time></trkpt><trkpt lat="36.7567403" lon="139.4898379"><ele>2175.5466666666666</ele><time>2023-10-21T01:27:53Z</time></trkpt><trkpt lat="36.7565801" lon="139.48973"><ele>2166.206666666667</ele><time>2023-10-21T01:29:22Z</time></trkpt><trkpt lat="36.7564029" lon="139.4896855"><ele>2156.1033333333335</ele><time>2023-10-21T01:31:34Z</time></trkpt><trkpt lat="36.7562216" lon="139.48973"><ele>2144.8333333333335</ele><time>2023-10-21T01:32:24Z</time></trkpt><trkpt lat="36.7560417" lon="139.4897585"><ele>2131.2966666666666</ele><time>2023-10-21T01:34:25Z</time></trkpt><trkpt lat="36.7558719" lon="139.4896671"><ele>2118.8033333333333</ele><time>2023-10-21T01:36:28Z</time></trkpt><trkpt lat="36.7556866" lon="139.4896739"><ele>2104.0033333333336</ele><time>2023-10-21T01:37:48Z</time></trkpt><trkpt lat="36.7555249" lon="139.4897763"><ele>2089.69</ele><time>2023-10-21T01:39:46Z</time></trkpt><trkpt lat="36.7553542" lon="139.4896909"><ele>2075.9266666666667</ele><time>2023-10-21T01:41:49Z</time></trkpt><trkpt lat="36.7551759" lon="139.4897438"><ele>2061.9599999999996</ele><time>2023-10-21T01:45:23Z</time></trkpt><trkpt lat="36.7549988" lon="139.4898046"><ele>2049.3033333333333</ele><time>2023-10-21T01:47:05Z</time></trkpt><trkpt lat="36.7548177" lon="139.4898146"><ele>2034.8333333333333</ele><time>2023-10-21T01:48:25Z</time></trkpt><trkpt lat="36.7546373" lon="139.4898093"><ele>2022.5233333333333</ele><time>2023-10-21T01:50:01Z</time></trkpt><trkpt lat="36.7544684" lon="139.4897279"><ele>2009.0333333333335</ele><time>2023-10-21T01:51:52Z</time></trkpt><trkpt lat="36.7543269" lon="139.4898704"><ele>1996.8333333333333</ele><time>2023-10-21T01:52:51Z</time></trkpt><trkpt lat="36.7542421" lon="139.4896701"><ele>1987.0833333333333</ele><time>2023-10-21T01:54:24Z</time></trkpt><trkpt lat="36.7540696" lon="139.4895946"><ele>1977.7766666666666</ele><time>2023-10-21T01:54:58Z</time></trkpt><trkpt lat="36.7538985" lon="139.48967"><ele>1968.6766666666665</ele><time>2023-10-21T01:56:39Z</time></trkpt><trkpt lat="36.7537377" lon="139.4895622"><ele>1954.7866666666669</ele><time>2023-10-21T01:59:01Z</time></trkpt><trkpt lat="36.7535566" lon="139.4895449"><ele>1942.75</ele><time>2023-10-21T01:59:51Z</time></trkpt><trkpt lat="36.7533762" lon="139.4895384"><ele>1930.11</ele><time>2023-10-21T02:01:51Z</time></trkpt><trkpt lat="36.7532204" lon="139.4896524"><ele>1918.1866666666665</ele><time>2023-10-21T02:03:10Z</time></trkpt><trkpt lat="36.7531456" lon="139.4898601"><ele>1906.5400000000002</ele><time>2023-10-21T02:03:34Z</time></trkpt><trkpt lat="36.753017" lon="139.4900362"><ele>1895.61</ele><time>2023-10-21T02:04:38Z</time></trkpt><trkpt lat="36.752843" lon="139.4899716"><ele>1883.5900000000001</ele><time>2023-10-21T02:05:37Z</time></trkpt><trkpt lat="36.7526625" lon="139.4899621"><ele>1870.1666666666667</ele><time>2023-10-21T02:06:50Z</time></trkpt><trkpt lat="36.7525654" lon="139.4897631"><ele>1857.1733333333334</ele><time>2023-10-21T02:07:26Z</time></trkpt><trkpt lat="36.7523895" lon="139.4897137"><ele>1846.5900000000001</ele><time>2023-10-21T02:08:06Z</time></trkpt><trkpt lat="36.7522575" lon="139.4895592"><ele>1836.7533333333333</ele><time>2023-10-21T02:08:27Z</time></trkpt><trkpt lat="36.7522001" lon="139.4897723"><ele>1828.47</ele><time>2023-10-21T02:08:48Z</time></trkpt><trkpt lat="36.7521795" lon="139.4895498"><ele>1823.6633333333332</ele><time>2023-10-21T02:09:04Z</time></trkpt><trkpt lat="36.7519942" lon="139.4894598"><ele>1816.3933333333334</ele><time>2023-10-21T02:10:00Z</time></trkpt><trkpt lat="36.7521494" lon="139.4895751"><ele>1814.78</ele><time>2023-10-21T02:10:15Z</time></trkpt><trkpt lat="36.751981" lon="139.4896623"><ele>1809.6333333333332</ele><time>2023-10-21T02:10:44Z</time></trkpt><trkpt lat="36.7518449" lon="139.4895116"><ele>1806.8433333333335</ele><time>2023-10-21T02:11:36Z</time></trkpt><trkpt lat="36.7517135" lon="139.489675"><ele>1797.8466666666666</ele><time>2023-10-21T02:12:37Z</time></trkpt><trkpt lat="36.7515328" lon="139.489683"><ele>1788.206666666667</ele><time>2023-10-21T02:13:33Z</time></trkpt><trkpt lat="36.7513625" lon="139.4896088"><ele>1779.17</ele><time>2023-10-21T02:14:23Z</time></trkpt><trkpt lat="36.7511801" lon="139.4895962"><ele>1768.0433333333333</ele><time>2023-10-21T02:15:43Z</time></trkpt><trkpt lat="36.7510719" lon="139.4894165"><ele>1759.3</ele><time>2023-10-21T02:17:09Z</time></trkpt><trkpt lat="36.7509207" lon="139.4895471"><ele>1750.75</ele><time>2023-10-21T02:17:43Z</time></trkpt><trkpt lat="36.7507449" lon="139.4894836"><ele>1741.95</ele><time>2023-10-21T02:18:12Z</time></trkpt><trkpt lat="36.7505687" lon="139.4895433"><ele>1730.1733333333334</ele><time>2023-10-21T02:19:47Z</time></trkpt><trkpt lat="36.7504371" lon="139.4893811"><ele>1717.9133333333332</ele><time>2023-10-21T02:21:16Z</time></trkpt><trkpt lat="36.7502987" lon="139.489236"><ele>1707.0566666666666</ele><time>2023-10-21T02:21:55Z</time></trkpt><trkpt lat="36.7501474" lon="139.4893629"><ele>1698.2300000000002</ele><time>2023-10-21T02:22:45Z</time></trkpt><trkpt lat="36.7499896" lon="139.4892405"><ele>1688.5600000000002</ele><time>2023-10-21T02:23:44Z</time></trkpt><trkpt lat="36.7498112" lon="139.4892085"><ele>1678.4633333333334</ele><time>2023-10-21T02:24:31Z</time></trkpt><trkpt lat="36.7497078" lon="139.489401"><ele>1670.1866666666665</ele><time>2023-10-21T02:25:18Z</time></trkpt><trkpt lat="36.7496516" lon="139.48963"><ele>1664.3066666666666</ele><time>2023-10-21T02:25:32Z</time></trkpt><trkpt lat="36.7497339" lon="139.4898386"><ele>1661.3066666666666</ele><time>2023-10-21T02:25:37Z</time></trkpt><trkpt lat="36.7497527" lon="139.4900642"><ele>1657.8766666666668</ele><time>2023-10-21T02:26:00Z</time></trkpt><trkpt lat="36.7498987" lon="139.4902195"><ele>1657.3666666666668</ele><time>2023-10-21T02:26:18Z</time></trkpt><trkpt lat="36.749807" lon="139.4904313"><ele>1656.2200000000003</ele><time>2023-10-21T02:26:35Z</time></trkpt><trkpt lat="36.7497568" lon="139.4906532"><ele>1658.1433333333334</ele><time>2023-10-21T02:26:53Z</time></trkpt><trkpt lat="36.7496225" lon="139.4908065"><ele>1657.8666666666668</ele><time>2023-10-21T02:27:07Z</time></trkpt><trkpt lat="36.7494435" lon="139.4908571"><ele>1655.2633333333333</ele><time>2023-10-21T02:27:18Z</time></trkpt><trkpt lat="36.7494429" lon="139.4910942"><ele>1650.6766666666665</ele><time>2023-10-21T02:27:31Z</time></trkpt><trkpt lat="36.7495572" lon="139.4912768"><ele>1648.5233333333333</ele><time>2023-10-21T02:27:46Z</time></trkpt><trkpt lat="36.7495119" lon="139.4915091"><ele>1647.9933333333336</ele><time>2023-10-21T02:27:57Z</time></trkpt><trkpt lat="36.7495341" lon="139.4917386"><ele>1646.7233333333334</ele><time>2023-10-21T02:28:15Z</time></trkpt><trkpt lat="36.7495567" lon="139.4919712"><ele>1643.956666666667</ele><time>2023-10-21T02:28:29Z</time></trkpt><trkpt lat="36.7495682" lon="139.4921983"><ele>1642.0833333333333</ele><time>2023-10-21T02:28:43Z</time></trkpt><trkpt lat="36.7495684" lon="139.4924244"><ele>1639.9099999999999</ele><time>2023-10-21T02:29:02Z</time></trkpt><trkpt lat="36.7496413" lon="139.4926348"><ele>1638.3133333333333</ele><time>2023-10-21T02:29:17Z</time></trkpt><trkpt lat="36.7495262" lon="139.4924619"><ele>1636.4466666666667</ele><time>2023-10-21T02:30:19Z</time></trkpt><trkpt lat="36.7494579" lon="139.4922519"><ele>1635.7733333333333</ele><time>2023-10-21T02:30:28Z</time></trkpt><trkpt lat="36.7493755" lon="139.4920486"><ele>1633.9099999999999</ele><time>2023-10-21T02:30:36Z</time></trkpt><trkpt lat="36.7492953" lon="139.4918206"><ele>1632.39</ele><time>2023-10-21T02:30:49Z</time></trkpt><trkpt lat="36.7492123" lon="139.4916123"><ele>1630.2366666666667</ele><time>2023-10-21T02:31:03Z</time></trkpt><trkpt lat="36.7491848" lon="139.4913748"><ele>1628.0600000000002</ele><time>2023-10-21T02:31:16Z</time></trkpt><trkpt lat="36.7491568" lon="139.4911523"><ele>1627.47</ele><time>2023-10-21T02:31:27Z</time></trkpt><trkpt lat="36.7490916" lon="139.4909301"><ele>1626.1133333333335</ele><time>2023-10-21T02:31:42Z</time></trkpt><trkpt lat="36.7489111" lon="139.4909467"><ele>1621.6800000000003</ele><time>2023-10-21T02:32:00Z</time></trkpt><trkpt lat="36.7489217" lon="139.4911823"><ele>1616.6966666666667</ele><time>2023-10-21T02:32:12Z</time></trkpt><trkpt lat="36.7489822" lon="139.4913941"><ele>1614.1200000000001</ele><time>2023-10-21T02:32:29Z</time></trkpt><trkpt lat="36.7489509" lon="139.491632"><ele>1614.21</ele><time>2023-10-21T02:32:43Z</time></trkpt><trkpt lat="36.7490197" lon="139.4918417"><ele>1614.8366666666668</ele><time>2023-10-21T02:32:53Z</time></trkpt><trkpt lat="36.7489437" lon="139.4920551"><ele>1611.3266666666666</ele><time>2023-10-21T02:33:13Z</time></trkpt><trkpt lat="36.7490401" lon="139.4922762"><ele>1609.4066666666668</ele><time>2023-10-21T02:33:28Z</time></trkpt><trkpt lat="36.74896" lon="139.4924916"><ele>1605.5933333333335</ele><time>2023-10-21T02:33:40Z</time></trkpt><trkpt lat="36.7489575" lon="139.4927262"><ele>1603.5766666666668</ele><time>2023-10-21T02:33:54Z</time></trkpt><trkpt lat="36.7488197" lon="139.492581"><ele>1599.91</ele><time>2023-10-21T02:34:17Z</time></trkpt><trkpt lat="36.7488558" lon="139.4923589"><ele>1598.2733333333333</ele><time>2023-10-21T02:34:31Z</time></trkpt><trkpt lat="36.7487105" lon="139.4922211"><ele>1596.3866666666665</ele><time>2023-10-21T02:34:52Z</time></trkpt><trkpt lat="36.7486975" lon="139.4919834"><ele>1595.92</ele><time>2023-10-21T02:35:03Z</time></trkpt><trkpt lat="36.7486968" lon="139.4917575"><ele>1595.6133333333335</ele><time>2023-10-21T02:35:16Z</time></trkpt><trkpt lat="36.7486297" lon="139.4915382"><ele>1596.3833333333332</ele><time>2023-10-21T02:35:34Z</time></trkpt><trkpt lat="36.7485645" lon="139.4913254"><ele>1596.5233333333333</ele><time>2023-10-21T02:35:48Z</time></trkpt><trkpt lat="36.7485286" lon="139.4911028"><ele>1595.9433333333334</ele><time>2023-10-21T02:36:02Z</time></trkpt><trkpt lat="36.7485402" lon="139.4908785"><ele>1594.8266666666666</ele><time>2023-10-21T02:36:16Z</time></trkpt><trkpt lat="36.7486744" lon="139.4907083"><ele>1595.1166666666668</ele><time>2023-10-21T02:36:34Z</time></trkpt><trkpt lat="36.748756" lon="139.4904924"><ele>1594.36</ele><time>2023-10-21T02:36:48Z</time></trkpt><trkpt lat="36.7486848" lon="139.4902712"><ele>1592.3100000000002</ele><time>2023-10-21T02:37:08Z</time></trkpt><trkpt lat="36.7485081" lon="139.4902232"><ele>1587.0433333333333</ele><time>2023-10-21T02:37:22Z</time></trkpt><trkpt lat="36.7483535" lon="139.4900647"><ele>1582.03</ele><time>2023-10-21T02:37:32Z</time></trkpt><trkpt lat="36.7482853" lon="139.4898531"><ele>1578.9966666666667</ele><time>2023-10-21T02:37:44Z</time></trkpt><trkpt lat="36.7482754" lon="139.4896258"><ele>1577.68</ele><time>2023-10-21T02:37:57Z</time></trkpt><trkpt lat="36.7483481" lon="139.4893986"><ele>1578.1233333333332</ele><time>2023-10-21T02:38:12Z</time></trkpt><trkpt lat="36.7483553" lon="139.4891724"><ele>1578.7733333333335</ele><time>2023-10-21T02:38:25Z</time></trkpt><trkpt lat="36.7483485" lon="139.4889428"><ele>1578.626666666667</ele><time>2023-10-21T02:38:41Z</time></trkpt><trkpt lat="36.7483094" lon="139.4887175"><ele>1576.55</ele><time>2023-10-21T02:38:55Z</time></trkpt><trkpt lat="36.7481436" lon="139.4888339"><ele>1571.9433333333334</ele><time>2023-10-21T02:39:16Z</time></trkpt><trkpt lat="36.7480529" lon="139.4890355"><ele>1567.9933333333336</ele><time>2023-10-21T02:39:28Z</time></trkpt><trkpt lat="36.7480499" lon="139.4892597"><ele>1564.9966666666667</ele><time>2023-10-21T02:39:38Z</time></trkpt><trkpt lat="36.7480261" lon="139.4894818"><ele>1563.5666666666666</ele><time>2023-10-21T02:39:52Z</time></trkpt><trkpt lat="36.7479605" lon="139.4896964"><ele>1561.2366666666667</ele><time>2023-10-21T02:40:07Z</time></trkpt><trkpt lat="36.7479421" lon="139.4899248"><ele>1558.8266666666668</ele><time>2023-10-21T02:40:20Z</time></trkpt><trkpt lat="36.7479719" lon="139.4896924"><ele>1558.8133333333333</ele><time>2023-10-21T02:41:04Z</time></trkpt><trkpt lat="36.7479771" lon="139.4894566"><ele>1560.05</ele><time>2023-10-21T02:41:18Z</time></trkpt><trkpt lat="36.7479496" lon="139.4892284"><ele>1560.0600000000002</ele><time>2023-10-21T02:41:30Z</time></trkpt><trkpt lat="36.7477779" lon="139.4891459"><ele>1557.0233333333333</ele><time>2023-10-21T02:41:42Z</time></trkpt><trkpt lat="36.7476362" lon="139.4890005"><ele>1551.6433333333334</ele><time>2023-10-21T02:42:28Z</time></trkpt><trkpt lat="36.7474825" lon="139.4891216"><ele>1545.1733333333334</ele><time>2023-10-21T02:42:53Z</time></trkpt><trkpt lat="36.7473044" lon="139.4891724"><ele>1537.6633333333336</ele><time>2023-10-21T02:43:51Z</time></trkpt><trkpt lat="36.7471633" lon="139.4890055"><ele>1530.3100000000002</ele><time>2023-10-21T02:44:10Z</time></trkpt><trkpt lat="36.7469919" lon="139.4889088"><ele>1521.5033333333333</ele><time>2023-10-21T02:44:45Z</time></trkpt><trkpt lat="36.7468986" lon="139.4886928"><ele>1513.55</ele><time>2023-10-21T02:45:09Z</time></trkpt><trkpt lat="36.7467304" lon="139.4887904"><ele>1505.96</ele><time>2023-10-21T02:45:46Z</time></trkpt><trkpt lat="36.7465785" lon="139.4886604"><ele>1497.71</ele><time>2023-10-21T02:46:30Z</time></trkpt><trkpt lat="36.7464879" lon="139.4884389"><ele>1489.79</ele><time>2023-10-21T02:46:50Z</time></trkpt><trkpt lat="36.7463081" lon="139.4883889"><ele>1480.33</ele><time>2023-10-21T02:47:48Z</time></trkpt><trkpt lat="36.7461269" lon="139.4883471"><ele>1473.2066666666667</ele><time>2023-10-21T02:48:19Z</time></trkpt><trkpt lat="36.7459512" lon="139.4882769"><ele>1463.7333333333336</ele><time>2023-10-21T02:49:06Z</time></trkpt><trkpt lat="36.7457686" lon="139.4882422"><ele>1454.7133333333334</ele><time>2023-10-21T02:49:44Z</time></trkpt><trkpt lat="36.7456285" lon="139.4880998"><ele>1445.33</ele><time>2023-10-21T02:50:43Z</time></trkpt><trkpt lat="36.7454809" lon="139.4879588"><ele>1436.4799999999998</ele><time>2023-10-21T02:51:16Z</time></trkpt><trkpt lat="36.7453028" lon="139.4880005"><ele>1428.6233333333332</ele><time>2023-10-21T02:51:41Z</time></trkpt><trkpt lat="36.7451176" lon="139.4880333"><ele>1420.66</ele><time>2023-10-21T02:52:33Z</time></trkpt><trkpt lat="36.7449377" lon="139.4880596"><ele>1414.346666666667</ele><time>2023-10-21T02:53:01Z</time></trkpt><trkpt lat="36.7447534" lon="139.4880313"><ele>1407.1133333333335</ele><time>2023-10-21T02:53:41Z</time></trkpt><trkpt lat="36.744585" lon="139.4879063"><ele>1399.0933333333332</ele><time>2023-10-21T02:54:06Z</time></trkpt><trkpt lat="36.7444081" lon="139.4879599"><ele>1391.3100000000002</ele><time>2023-10-21T02:54:40Z</time></trkpt><trkpt lat="36.7442253" lon="139.48801"><ele>1383.79</ele><time>2023-10-21T02:54:56Z</time></trkpt><trkpt lat="36.7440472" lon="139.4879605"><ele>1377.4133333333332</ele><time>2023-10-21T02:55:47Z</time></trkpt><trkpt lat="36.7438712" lon="139.4879002"><ele>1369.7699999999998</ele><time>2023-10-21T02:56:27Z</time></trkpt><trkpt lat="36.7437064" lon="139.4877961"><ele>1363.08</ele><time>2023-10-21T02:57:04Z</time></trkpt><trkpt lat="36.7435227" lon="139.4877547"><ele>1356.49</ele><time>2023-10-21T02:57:23Z</time></trkpt><trkpt lat="36.7433485" lon="139.4876735"><ele>1349.8366666666668</ele><time>2023-10-21T02:57:40Z</time></trkpt><trkpt lat="36.7432155" lon="139.4875199"><ele>1342.49</ele><time>2023-10-21T02:58:14Z</time></trkpt><trkpt lat="36.7430515" lon="139.4874084"><ele>1335.3833333333334</ele><time>2023-10-21T02:58:40Z</time></trkpt><trkpt lat="36.7429585" lon="139.4872004"><ele>1330.39</ele><time>2023-10-21T02:59:26Z</time></trkpt><trkpt lat="36.7427829" lon="139.4871045"><ele>1325.8366666666668</ele><time>2023-10-21T02:59:50Z</time></trkpt><trkpt lat="36.7425999" lon="139.4870353"><ele>1321.53</ele><time>2023-10-21T03:00:15Z</time></trkpt><trkpt lat="36.7424345" lon="139.4869427"><ele>1315.64</ele><time>2023-10-21T03:00:31Z</time></trkpt><trkpt lat="36.7422538" lon="139.4869552"><ele>1309.1166666666666</ele><time>2023-10-21T03:01:02Z</time></trkpt><trkpt lat="36.7420705" lon="139.486908"><ele>1302.4233333333334</ele><time>2023-10-21T03:01:15Z</time></trkpt><trkpt lat="36.7418895" lon="139.4868948"><ele>1295.7633333333333</ele><time>2023-10-21T03:01:30Z</time></trkpt><trkpt lat="36.7417111" lon="139.4869635"><ele>1290.7066666666667</ele><time>2023-10-21T03:02:03Z</time></trkpt><trkpt lat="36.7415204" lon="139.486895"><ele>1286.1233333333334</ele><time>2023-10-21T03:02:20Z</time></trkpt><trkpt lat="36.7413535" lon="139.4867886"><ele>1282.8999999999999</ele><time>2023-10-21T03:02:40Z</time></trkpt></trkseg></trk></gpx>