<?xml version='1.0' encoding='UTF-8'?><gpx creator="YAMAP - https://yamap.com" xsi:schemaLocation="http://www.topografix.com/GPX/1/1 http://www.topografix.com/GPX/1/1/gpx.xsd" version="1.1" xmlns="http://www.topografix.com/GPX/1/1" xmlns:xsi="http://www.w3.org/2001/XMLSchema-instance"><metadata><bounds maxlat="35.9085962" maxlon="139.3194222" minlat="35.8513162" minlon="139.2217779"/></metadata><trk><name>大高山・吾野ノ頭・天覚山・久須美山・久須美ケルン(永田山)・大黒山・多峯主山・水道山</name><number>1</number><trkseg><trkpt lat="35.9085588" lon="139.2264146"><ele>181.6</ele><time>2023-02-03T23:22:07Z</time></trkpt><trkpt lat="35.9085162" lon="139.2261811"><ele>182.26</ele><time>2023-02-03T23:22:37Z</time></trkpt><trkpt lat="35.9085701" lon="139.2259432"><ele>182.14</ele><time>2023-02-03T23:23:01Z</time></trkpt><trkpt lat="35.9085933" lon="139.2257099"><ele>181.66</ele><time>2023-02-03T23:23:10Z</time></trkpt><trkpt lat="35.9085944" lon="139.2254818"><ele>180.72</ele><time>2023-02-03T23:23:20Z</time></trkpt><trkpt lat="35.9084037" lon="139.2255002"><ele>181.17</ele><time>2023-02-03T23:23:50Z</time></trkpt><trkpt lat="35.9085962" lon="139.2253858"><ele>180.9466666666667</ele><time>2023-02-03T23:24:01Z</time></trkpt><trkpt lat="35.9083699" lon="139.2253664"><ele>182.35</ele><time>2023-02-03T23:24:14Z</time></trkpt><trkpt lat="35.9081779" lon="139.2253626"><ele>183.54999999999998</ele><time>2023-02-03T23:24:16Z</time></trkpt><trkpt lat="35.9081596" lon="139.2251329"><ele>186.7833333333333</ele><time>2023-02-03T23:24:28Z</time></trkpt><trkpt lat="35.9082999" lon="139.2249928"><ele>188.09</ele><time>2023-02-03T23:24:41Z</time></trkpt><trkpt lat="35.9081117" lon="139.2250442"><ele>189.08</ele><time>2023-02-03T23:24:58Z</time></trkpt><trkpt lat="35.9079859" lon="139.2252087"><ele>189.72</ele><time>2023-02-03T23:25:07Z</time></trkpt><trkpt lat="35.9078026" lon="139.2251764"><ele>191.97333333333336</ele><time>2023-02-03T23:25:40Z</time></trkpt><trkpt lat="35.9076395" lon="139.2250784"><ele>194.5566666666667</ele><time>2023-02-03T23:26:03Z</time></trkpt><trkpt lat="35.9074688" lon="139.2251624"><ele>198.15666666666667</ele><time>2023-02-03T23:26:45Z</time></trkpt><trkpt lat="35.9072969" lon="139.2250734"><ele>201.7266666666667</ele><time>2023-02-03T23:27:24Z</time></trkpt><trkpt lat="35.9071296" lon="139.2249832"><ele>205.41</ele><time>2023-02-03T23:28:24Z</time></trkpt><trkpt lat="35.9069466" lon="139.2250131"><ele>211.11666666666667</ele><time>2023-02-03T23:29:22Z</time></trkpt><trkpt lat="35.9067776" lon="139.2250958"><ele>220.97666666666666</ele><time>2023-02-03T23:30:30Z</time></trkpt><trkpt lat="35.9066065" lon="139.2250216"><ele>232.99666666666667</ele><time>2023-02-03T23:31:35Z</time></trkpt><trkpt lat="35.9064539" lon="139.2249034"><ele>243.0566666666667</ele><time>2023-02-03T23:32:24Z</time></trkpt><trkpt lat="35.9063838" lon="139.2251101"><ele>252.49</ele><time>2023-02-03T23:33:26Z</time></trkpt><trkpt lat="35.9063769" lon="139.2253376"><ele>260.41333333333336</ele><time>2023-02-03T23:33:52Z</time></trkpt><trkpt lat="35.9063829" lon="139.225562"><ele>268.10999999999996</ele><time>2023-02-03T23:34:52Z</time></trkpt><trkpt lat="35.906222" lon="139.225665"><ele>276.4166666666667</ele><time>2023-02-03T23:35:56Z</time></trkpt><trkpt lat="35.9060612" lon="139.2255637"><ele>286.0433333333333</ele><time>2023-02-03T23:37:18Z</time></trkpt><trkpt lat="35.9059309" lon="139.2254065"><ele>297.15</ele><time>2023-02-03T23:37:53Z</time></trkpt><trkpt lat="35.905789" lon="139.2252687"><ele>304.4666666666667</ele><time>2023-02-03T23:38:21Z</time></trkpt><trkpt lat="35.9056086" lon="139.2252061"><ele>309.81666666666666</ele><time>2023-02-03T23:39:05Z</time></trkpt><trkpt lat="35.9054996" lon="139.2250174"><ele>313.4033333333333</ele><time>2023-02-03T23:39:24Z</time></trkpt><trkpt lat="35.9054421" lon="139.2248016"><ele>316.60999999999996</ele><time>2023-02-03T23:40:05Z</time></trkpt><trkpt lat="35.9052723" lon="139.2247228"><ele>320.1433333333334</ele><time>2023-02-03T23:40:34Z</time></trkpt><trkpt lat="35.9051249" lon="139.2245909"><ele>323.9533333333333</ele><time>2023-02-03T23:41:22Z</time></trkpt><trkpt lat="35.9050323" lon="139.2243986"><ele>331.74333333333334</ele><time>2023-02-03T23:41:46Z</time></trkpt><trkpt lat="35.9049204" lon="139.2242043"><ele>338.74</ele><time>2023-02-03T23:42:10Z</time></trkpt><trkpt lat="35.9047328" lon="139.2242"><ele>346.42666666666673</ele><time>2023-02-03T23:43:43Z</time></trkpt><trkpt lat="35.9045522" lon="139.2241795"><ele>350.44000000000005</ele><time>2023-02-03T23:44:36Z</time></trkpt><trkpt lat="35.9043677" lon="139.2242094"><ele>355.0466666666667</ele><time>2023-02-03T23:45:04Z</time></trkpt><trkpt lat="35.9042088" lon="139.2240943"><ele>358.74</ele><time>2023-02-03T23:45:29Z</time></trkpt><trkpt lat="35.9040506" lon="139.2239834"><ele>362.27666666666664</ele><time>2023-02-03T23:45:49Z</time></trkpt><trkpt lat="35.903912" lon="139.223833"><ele>365.97333333333336</ele><time>2023-02-03T23:45:59Z</time></trkpt><trkpt lat="35.9037795" lon="139.2236736"><ele>370.0</ele><time>2023-02-03T23:46:14Z</time></trkpt><trkpt lat="35.9036167" lon="139.2237717"><ele>374.9333333333334</ele><time>2023-02-03T23:46:31Z</time></trkpt><trkpt lat="35.903435" lon="139.2237262"><ele>380.6466666666667</ele><time>2023-02-03T23:47:02Z</time></trkpt><trkpt lat="35.9032588" lon="139.2236612"><ele>386.64333333333326</ele><time>2023-02-03T23:47:42Z</time></trkpt><trkpt lat="35.9030826" lon="139.2235716"><ele>392.57</ele><time>2023-02-03T23:48:01Z</time></trkpt><trkpt lat="35.9029158" lon="139.2234872"><ele>396.81666666666666</ele><time>2023-02-03T23:48:13Z</time></trkpt><trkpt lat="35.9027249" lon="139.2234281"><ele>398.81</ele><time>2023-02-03T23:48:29Z</time></trkpt><trkpt lat="35.9025641" lon="139.2233167"><ele>399.24</ele><time>2023-02-03T23:48:44Z</time></trkpt><trkpt lat="35.9024716" lon="139.2231135"><ele>398.22</ele><time>2023-02-03T23:48:58Z</time></trkpt><trkpt lat="35.9023431" lon="139.2229553"><ele>399.7266666666667</ele><time>2023-02-03T23:49:12Z</time></trkpt><trkpt lat="35.9021949" lon="139.2228275"><ele>401.75</ele><time>2023-02-03T23:50:03Z</time></trkpt><trkpt lat="35.9020991" lon="139.2226381"><ele>407.31666666666666</ele><time>2023-02-03T23:50:31Z</time></trkpt><trkpt lat="35.9019728" lon="139.222477"><ele>412.7666666666667</ele><time>2023-02-03T23:50:51Z</time></trkpt><trkpt lat="35.9018344" lon="139.2223164"><ele>417.33666666666664</ele><time>2023-02-03T23:51:04Z</time></trkpt><trkpt lat="35.9016655" lon="139.2222153"><ele>420.3066666666667</ele><time>2023-02-03T23:51:23Z</time></trkpt><trkpt lat="35.9015044" lon="139.2223287"><ele>420.87999999999994</ele><time>2023-02-03T23:51:37Z</time></trkpt><trkpt lat="35.9014535" lon="139.2221107"><ele>422.3300000000001</ele><time>2023-02-03T23:52:07Z</time></trkpt><trkpt lat="35.9013028" lon="139.2219812"><ele>421.75333333333333</ele><time>2023-02-03T23:52:31Z</time></trkpt><trkpt lat="35.9011441" lon="139.221864"><ele>422.9766666666667</ele><time>2023-02-03T23:52:44Z</time></trkpt><trkpt lat="35.9009734" lon="139.2217779"><ele>424.91333333333336</ele><time>2023-02-03T23:53:04Z</time></trkpt><trkpt lat="35.9007901" lon="139.221784"><ele>427.81</ele><time>2023-02-03T23:53:23Z</time></trkpt><trkpt lat="35.900636" lon="139.2219056"><ele>429.76000000000005</ele><time>2023-02-03T23:53:54Z</time></trkpt><trkpt lat="35.9004856" lon="139.2220355"><ele>431.95</ele><time>2023-02-03T23:54:16Z</time></trkpt><trkpt lat="35.9003691" lon="139.2222077"><ele>435.6766666666667</ele><time>2023-02-03T23:54:36Z</time></trkpt><trkpt lat="35.9002692" lon="139.2224038"><ele>438.61666666666673</ele><time>2023-02-03T23:54:49Z</time></trkpt><trkpt lat="35.9001414" lon="139.2225625"><ele>438.2733333333333</ele><time>2023-02-03T23:55:03Z</time></trkpt><trkpt lat="35.9000418" lon="139.2227517"><ele>435.69</ele><time>2023-02-03T23:55:21Z</time></trkpt><trkpt lat="35.9000836" lon="139.2229763"><ele>433.73333333333335</ele><time>2023-02-03T23:55:40Z</time></trkpt><trkpt lat="35.9002181" lon="139.2231368"><ele>432.21000000000004</ele><time>2023-02-03T23:55:56Z</time></trkpt><trkpt lat="35.9002488" lon="139.2233581"><ele>431.88000000000005</ele><time>2023-02-03T23:56:09Z</time></trkpt><trkpt lat="35.9003161" lon="139.2235664"><ele>431.2366666666667</ele><time>2023-02-03T23:56:21Z</time></trkpt><trkpt lat="35.9003287" lon="139.2237913"><ele>431.15000000000003</ele><time>2023-02-03T23:56:35Z</time></trkpt><trkpt lat="35.9003824" lon="139.2240118"><ele>430.8066666666667</ele><time>2023-02-03T23:56:51Z</time></trkpt><trkpt lat="35.9003189" lon="139.2242198"><ele>430.60999999999996</ele><time>2023-02-03T23:57:09Z</time></trkpt><trkpt lat="35.9002446" lon="139.2244234"><ele>430.38000000000005</ele><time>2023-02-03T23:57:30Z</time></trkpt><trkpt lat="35.9002174" lon="139.2246461"><ele>428.40000000000003</ele><time>2023-02-03T23:57:53Z</time></trkpt><trkpt lat="35.9001981" lon="139.2248698"><ele>424.96333333333337</ele><time>2023-02-03T23:58:08Z</time></trkpt><trkpt lat="35.9001274" lon="139.2250846"><ele>419.88000000000005</ele><time>2023-02-03T23:58:23Z</time></trkpt><trkpt lat="35.9000979" lon="139.2253111"><ele>416.53000000000003</ele><time>2023-02-03T23:58:40Z</time></trkpt><trkpt lat="35.900177" lon="139.2255439"><ele>416.60666666666674</ele><time>2023-02-03T23:58:57Z</time></trkpt><trkpt lat="35.9001803" lon="139.225772"><ele>417.9666666666667</ele><time>2023-02-03T23:59:29Z</time></trkpt><trkpt lat="35.9000772" lon="139.2259593"><ele>420.28000000000003</ele><time>2023-02-03T23:59:46Z</time></trkpt><trkpt lat="35.8999672" lon="139.2261362"><ele>418.8333333333333</ele><time>2023-02-04T00:00:08Z</time></trkpt><trkpt lat="35.8999002" lon="139.2263427"><ele>415.62000000000006</ele><time>2023-02-04T00:00:51Z</time></trkpt><trkpt lat="35.8997322" lon="139.2264274"><ele>408.83</ele><time>2023-02-04T00:01:34Z</time></trkpt><trkpt lat="35.899652" lon="139.2266421"><ele>402.75333333333333</ele><time>2023-02-04T00:02:18Z</time></trkpt><trkpt lat="35.8996672" lon="139.2268755"><ele>398.8833333333334</ele><time>2023-02-04T00:02:31Z</time></trkpt><trkpt lat="35.8996465" lon="139.2271126"><ele>397.56666666666666</ele><time>2023-02-04T00:02:53Z</time></trkpt><trkpt lat="35.8996558" lon="139.2273359"><ele>399.06333333333333</ele><time>2023-02-04T00:03:26Z</time></trkpt><trkpt lat="35.8996798" lon="139.2275599"><ele>403.58666666666664</ele><time>2023-02-04T00:04:57Z</time></trkpt><trkpt lat="35.8996413" lon="139.227779"><ele>411.43666666666667</ele><time>2023-02-04T00:06:07Z</time></trkpt><trkpt lat="35.8995746" lon="139.2279953"><ele>417.23333333333335</ele><time>2023-02-04T00:06:36Z</time></trkpt><trkpt lat="35.8995124" lon="139.2282046"><ele>417.8966666666667</ele><time>2023-02-04T00:06:54Z</time></trkpt><trkpt lat="35.8995044" lon="139.2284528"><ele>415.1366666666666</ele><time>2023-02-04T00:07:14Z</time></trkpt><trkpt lat="35.8994278" lon="139.2286575"><ele>412.74666666666667</ele><time>2023-02-04T00:07:54Z</time></trkpt><trkpt lat="35.8993512" lon="139.2288703"><ele>412.34</ele><time>2023-02-04T00:08:11Z</time></trkpt><trkpt lat="35.8993142" lon="139.229098"><ele>411.7666666666667</ele><time>2023-02-04T00:08:24Z</time></trkpt><trkpt lat="35.8992241" lon="139.2292936"><ele>411.40000000000003</ele><time>2023-02-04T00:08:40Z</time></trkpt><trkpt lat="35.8992139" lon="139.2295199"><ele>413.14000000000004</ele><time>2023-02-04T00:08:58Z</time></trkpt><trkpt lat="35.899182" lon="139.2297441"><ele>416.66</ele><time>2023-02-04T00:09:43Z</time></trkpt><trkpt lat="35.8991246" lon="139.2299625"><ele>420.1133333333334</ele><time>2023-02-04T00:09:58Z</time></trkpt><trkpt lat="35.8990577" lon="139.2301708"><ele>421.90333333333336</ele><time>2023-02-04T00:10:12Z</time></trkpt><trkpt lat="35.8990477" lon="139.2303958"><ele>422.5833333333333</ele><time>2023-02-04T00:10:39Z</time></trkpt><trkpt lat="35.8990374" lon="139.2306203"><ele>423.6566666666667</ele><time>2023-02-04T00:10:53Z</time></trkpt><trkpt lat="35.8990625" lon="139.2308427"><ele>424.8</ele><time>2023-02-04T00:11:05Z</time></trkpt><trkpt lat="35.8990464" lon="139.2310641"><ele>425.97333333333336</ele><time>2023-02-04T00:11:20Z</time></trkpt><trkpt lat="35.8990937" lon="139.2312792"><ele>428.45</ele><time>2023-02-04T00:12:23Z</time></trkpt><trkpt lat="35.898994" lon="139.2314694"><ele>433.40333333333336</ele><time>2023-02-04T00:12:58Z</time></trkpt><trkpt lat="35.8988971" lon="139.2316767"><ele>438.5466666666667</ele><time>2023-02-04T00:13:08Z</time></trkpt><trkpt lat="35.8987835" lon="139.2318497"><ele>442.46000000000004</ele><time>2023-02-04T00:14:16Z</time></trkpt><trkpt lat="35.898715" lon="139.232057"><ele>446.1700000000001</ele><time>2023-02-04T00:15:08Z</time></trkpt><trkpt lat="35.8986247" lon="139.2322654"><ele>451.1233333333333</ele><time>2023-02-04T00:15:37Z</time></trkpt><trkpt lat="35.8984955" lon="139.2324243"><ele>458.41</ele><time>2023-02-04T00:17:20Z</time></trkpt><trkpt lat="35.8984578" lon="139.2326438"><ele>466.1333333333334</ele><time>2023-02-04T00:18:16Z</time></trkpt><trkpt lat="35.898372" lon="139.2328413"><ele>476.58</ele><time>2023-02-04T00:18:59Z</time></trkpt><trkpt lat="35.8981939" lon="139.232908"><ele>485.05</ele><time>2023-02-04T00:19:16Z</time></trkpt><trkpt lat="35.8980669" lon="139.2330689"><ele>489.99333333333334</ele><time>2023-02-04T00:20:10Z</time></trkpt><trkpt lat="35.8979685" lon="139.2332698"><ele>489.48</ele><time>2023-02-04T00:20:25Z</time></trkpt><trkpt lat="35.8978669" lon="139.2334658"><ele>486.61000000000007</ele><time>2023-02-04T00:20:40Z</time></trkpt><trkpt lat="35.8977282" lon="139.2336099"><ele>484.0</ele><time>2023-02-04T00:20:55Z</time></trkpt><trkpt lat="35.8975785" lon="139.2337532"><ele>481.90000000000003</ele><time>2023-02-04T00:21:14Z</time></trkpt><trkpt lat="35.8974545" lon="139.2339275"><ele>479.22666666666663</ele><time>2023-02-04T00:22:39Z</time></trkpt><trkpt lat="35.8973438" lon="139.2341025"><ele>475.51</ele><time>2023-02-04T00:23:01Z</time></trkpt><trkpt lat="35.8972406" lon="139.2342844"><ele>470.96000000000004</ele><time>2023-02-04T00:23:23Z</time></trkpt><trkpt lat="35.8971808" lon="139.2344949"><ele>468.9433333333333</ele><time>2023-02-04T00:23:47Z</time></trkpt><trkpt lat="35.8970003" lon="139.2345415"><ele>465.4333333333334</ele><time>2023-02-04T00:25:07Z</time></trkpt><trkpt lat="35.8968198" lon="139.2345149"><ele>458.5</ele><time>2023-02-04T00:26:50Z</time></trkpt><trkpt lat="35.8966394" lon="139.2345191"><ele>448.51000000000005</ele><time>2023-02-04T00:27:05Z</time></trkpt><trkpt lat="35.89646" lon="139.2345434"><ele>439.03000000000003</ele><time>2023-02-04T00:27:23Z</time></trkpt><trkpt lat="35.8962627" lon="139.2345487"><ele>432.23333333333335</ele><time>2023-02-04T00:28:44Z</time></trkpt><trkpt lat="35.8960826" lon="139.2345582"><ele>426.92333333333335</ele><time>2023-02-04T00:29:00Z</time></trkpt><trkpt lat="35.8959022" lon="139.2345913"><ele>421.27</ele><time>2023-02-04T00:29:55Z</time></trkpt><trkpt lat="35.8957224" lon="139.2345476"><ele>414.67333333333335</ele><time>2023-02-04T00:31:07Z</time></trkpt><trkpt lat="35.8955436" lon="139.2345158"><ele>408.1933333333333</ele><time>2023-02-04T00:31:20Z</time></trkpt><trkpt lat="35.895362" lon="139.2344884"><ele>404.47333333333336</ele><time>2023-02-04T00:31:36Z</time></trkpt><trkpt lat="35.8951829" lon="139.2344404"><ele>403.00333333333333</ele><time>2023-02-04T00:32:02Z</time></trkpt><trkpt lat="35.8950015" lon="139.234451"><ele>402.4533333333334</ele><time>2023-02-04T00:32:15Z</time></trkpt><trkpt lat="35.8948208" lon="139.2345042"><ele>401.22</ele><time>2023-02-04T00:33:02Z</time></trkpt><trkpt lat="35.8947245" lon="139.2346935"><ele>399.34666666666664</ele><time>2023-02-04T00:33:29Z</time></trkpt><trkpt lat="35.8946298" lon="139.2348885"><ele>395.3233333333333</ele><time>2023-02-04T00:33:46Z</time></trkpt><trkpt lat="35.8944819" lon="139.2350157"><ele>391.1633333333334</ele><time>2023-02-04T00:34:02Z</time></trkpt><trkpt lat="35.89438" lon="139.2351992"><ele>386.74000000000007</ele><time>2023-02-04T00:34:15Z</time></trkpt><trkpt lat="35.8942607" lon="139.2353655"><ele>381.57</ele><time>2023-02-04T00:34:33Z</time></trkpt><trkpt lat="35.8940882" lon="139.2352999"><ele>376.39000000000004</ele><time>2023-02-04T00:34:47Z</time></trkpt><trkpt lat="35.8939534" lon="139.2351247"><ele>372.66333333333336</ele><time>2023-02-04T00:35:01Z</time></trkpt><trkpt lat="35.8937872" lon="139.2350155"><ele>372.74</ele><time>2023-02-04T00:35:20Z</time></trkpt><trkpt lat="35.8936268" lon="139.2351171"><ele>375.22333333333336</ele><time>2023-02-04T00:35:51Z</time></trkpt><trkpt lat="35.8934841" lon="139.2352617"><ele>373.84999999999997</ele><time>2023-02-04T00:37:33Z</time></trkpt><trkpt lat="35.8933914" lon="139.2354524"><ele>369.68333333333334</ele><time>2023-02-04T00:38:04Z</time></trkpt><trkpt lat="35.893325" lon="139.2356685"><ele>364.2966666666666</ele><time>2023-02-04T00:38:20Z</time></trkpt><trkpt lat="35.8933037" lon="139.2358891"><ele>364.81333333333333</ele><time>2023-02-04T00:38:53Z</time></trkpt><trkpt lat="35.8932044" lon="139.2360744"><ele>369.55333333333334</ele><time>2023-02-04T00:39:35Z</time></trkpt><trkpt lat="35.8932032" lon="139.2362984"><ele>375.1033333333333</ele><time>2023-02-04T00:40:10Z</time></trkpt><trkpt lat="35.8933036" lon="139.236489"><ele>376.89000000000004</ele><time>2023-02-04T00:40:22Z</time></trkpt><trkpt lat="35.893123" lon="139.2365255"><ele>375.40000000000003</ele><time>2023-02-04T00:40:41Z</time></trkpt><trkpt lat="35.8930534" lon="139.2367405"><ele>371.1566666666667</ele><time>2023-02-04T00:41:10Z</time></trkpt><trkpt lat="35.8930059" lon="139.2369546"><ele>372.8866666666666</ele><time>2023-02-04T00:41:38Z</time></trkpt><trkpt lat="35.8929341" lon="139.237172"><ele>377.76</ele><time>2023-02-04T00:42:38Z</time></trkpt><trkpt lat="35.8929009" lon="139.2373925"><ele>385.6033333333333</ele><time>2023-02-04T00:43:30Z</time></trkpt><trkpt lat="35.8928694" lon="139.2376123"><ele>388.3500000000001</ele><time>2023-02-04T00:43:52Z</time></trkpt><trkpt lat="35.8928591" lon="139.2378443"><ele>384.6233333333334</ele><time>2023-02-04T00:44:38Z</time></trkpt><trkpt lat="35.8927235" lon="139.2380137"><ele>376.5</ele><time>2023-02-04T00:45:02Z</time></trkpt><trkpt lat="35.8926218" lon="139.2382007"><ele>369.3666666666666</ele><time>2023-02-04T00:45:27Z</time></trkpt><trkpt lat="35.892548" lon="139.238404"><ele>367.2033333333334</ele><time>2023-02-04T00:45:57Z</time></trkpt><trkpt lat="35.892573" lon="139.2386274"><ele>368.8333333333333</ele><time>2023-02-04T00:46:20Z</time></trkpt><trkpt lat="35.8926511" lon="139.2388403"><ele>372.0933333333333</ele><time>2023-02-04T00:46:34Z</time></trkpt><trkpt lat="35.8926234" lon="139.2390609"><ele>376.09999999999997</ele><time>2023-02-04T00:46:59Z</time></trkpt><trkpt lat="35.892634" lon="139.2392843"><ele>381.4866666666667</ele><time>2023-02-04T00:48:07Z</time></trkpt><trkpt lat="35.8925691" lon="139.2394941"><ele>387.25</ele><time>2023-02-04T00:48:54Z</time></trkpt><trkpt lat="35.8924109" lon="139.2396043"><ele>393.62999999999994</ele><time>2023-02-04T00:49:54Z</time></trkpt><trkpt lat="35.8923555" lon="139.2398288"><ele>400.6000000000001</ele><time>2023-02-04T00:51:23Z</time></trkpt><trkpt lat="35.8924029" lon="139.240043"><ele>403.8966666666667</ele><time>2023-02-04T00:51:55Z</time></trkpt><trkpt lat="35.8924694" lon="139.2402593"><ele>405.1366666666666</ele><time>2023-02-04T00:52:35Z</time></trkpt><trkpt lat="35.8923426" lon="139.240417"><ele>403.52</ele><time>2023-02-04T00:52:59Z</time></trkpt><trkpt lat="35.8922127" lon="139.2405723"><ele>403.56666666666666</ele><time>2023-02-04T00:53:21Z</time></trkpt><trkpt lat="35.8921099" lon="139.2407569"><ele>404.56</ele><time>2023-02-04T00:53:33Z</time></trkpt><trkpt lat="35.8919738" lon="139.2409075"><ele>406.71999999999997</ele><time>2023-02-04T00:53:53Z</time></trkpt><trkpt lat="35.8918042" lon="139.2409888"><ele>407.8999999999999</ele><time>2023-02-04T00:54:16Z</time></trkpt><trkpt lat="35.891618" lon="139.2410688"><ele>406.2366666666667</ele><time>2023-02-04T00:54:46Z</time></trkpt><trkpt lat="35.8914645" lon="139.2412177"><ele>401.52</ele><time>2023-02-04T00:54:58Z</time></trkpt><trkpt lat="35.8913612" lon="139.241432"><ele>396.25333333333333</ele><time>2023-02-04T00:55:44Z</time></trkpt><trkpt lat="35.8911839" lon="139.2414774"><ele>389.6033333333333</ele><time>2023-02-04T00:56:00Z</time></trkpt><trkpt lat="35.8910576" lon="139.2416365"><ele>384.3933333333334</ele><time>2023-02-04T00:56:32Z</time></trkpt><trkpt lat="35.8909561" lon="139.241826"><ele>379.0733333333333</ele><time>2023-02-04T00:56:48Z</time></trkpt><trkpt lat="35.8907907" lon="139.2419386"><ele>375.81666666666666</ele><time>2023-02-04T00:57:02Z</time></trkpt><trkpt lat="35.8906098" lon="139.241977"><ele>375.9333333333334</ele><time>2023-02-04T00:57:16Z</time></trkpt><trkpt lat="35.8904246" lon="139.2420547"><ele>378.1366666666667</ele><time>2023-02-04T00:57:29Z</time></trkpt><trkpt lat="35.8902707" lon="139.2421962"><ele>381.80333333333334</ele><time>2023-02-04T00:57:56Z</time></trkpt><trkpt lat="35.8900874" lon="139.2422227"><ele>383.4166666666667</ele><time>2023-02-04T00:58:13Z</time></trkpt><trkpt lat="35.889952" lon="139.2423725"><ele>384.8433333333333</ele><time>2023-02-04T00:58:27Z</time></trkpt><trkpt lat="35.8898671" lon="139.2425747"><ele>387.2366666666667</ele><time>2023-02-04T00:58:44Z</time></trkpt><trkpt lat="35.8897476" lon="139.2427528"><ele>389.96999999999997</ele><time>2023-02-04T00:59:09Z</time></trkpt><trkpt lat="35.8895957" lon="139.2428784"><ele>394.82</ele><time>2023-02-04T00:59:33Z</time></trkpt><trkpt lat="35.8894624" lon="139.2430282"><ele>399.46000000000004</ele><time>2023-02-04T01:00:39Z</time></trkpt><trkpt lat="35.889281" lon="139.2430074"><ele>404.00333333333333</ele><time>2023-02-04T01:01:13Z</time></trkpt><trkpt lat="35.8891221" lon="139.2431148"><ele>405.6766666666667</ele><time>2023-02-04T01:02:25Z</time></trkpt><trkpt lat="35.8889588" lon="139.2432161"><ele>404.6033333333333</ele><time>2023-02-04T01:02:41Z</time></trkpt><trkpt lat="35.8888299" lon="139.2433724"><ele>400.68</ele><time>2023-02-04T01:02:57Z</time></trkpt><trkpt lat="35.8887378" lon="139.2435666"><ele>393.7833333333333</ele><time>2023-02-04T01:04:30Z</time></trkpt><trkpt lat="35.8887265" lon="139.2437901"><ele>387.8066666666667</ele><time>2023-02-04T01:04:45Z</time></trkpt><trkpt lat="35.8887362" lon="139.2440135"><ele>383.5</ele><time>2023-02-04T01:05:09Z</time></trkpt><trkpt lat="35.8887471" lon="139.2442365"><ele>382.5933333333333</ele><time>2023-02-04T01:05:34Z</time></trkpt><trkpt lat="35.8887637" lon="139.2444612"><ele>382.33</ele><time>2023-02-04T01:05:55Z</time></trkpt><trkpt lat="35.8886999" lon="139.2446686"><ele>382.44000000000005</ele><time>2023-02-04T01:06:14Z</time></trkpt><trkpt lat="35.8887614" lon="139.2448915"><ele>382.78000000000003</ele><time>2023-02-04T01:06:27Z</time></trkpt><trkpt lat="35.8888019" lon="139.2451181"><ele>384.1233333333334</ele><time>2023-02-04T01:06:41Z</time></trkpt><trkpt lat="35.8888709" lon="139.2453263"><ele>386.2</ele><time>2023-02-04T01:07:02Z</time></trkpt><trkpt lat="35.8888898" lon="139.2455514"><ele>388.43666666666667</ele><time>2023-02-04T01:07:18Z</time></trkpt><trkpt lat="35.8888064" lon="139.2457497"><ele>388.65000000000003</ele><time>2023-02-04T01:07:31Z</time></trkpt><trkpt lat="35.8886533" lon="139.2458873"><ele>386.19</ele><time>2023-02-04T01:08:06Z</time></trkpt><trkpt lat="35.8885345" lon="139.2460649"><ele>381.52</ele><time>2023-02-04T01:08:42Z</time></trkpt><trkpt lat="35.888408" lon="139.2462261"><ele>376.68333333333334</ele><time>2023-02-04T01:08:51Z</time></trkpt><trkpt lat="35.8882477" lon="139.2463686"><ele>373.59</ele><time>2023-02-04T01:09:07Z</time></trkpt><trkpt lat="35.8882136" lon="139.2465864"><ele>374.87000000000006</ele><time>2023-02-04T01:09:27Z</time></trkpt><trkpt lat="35.8881441" lon="139.2468097"><ele>378.21000000000004</ele><time>2023-02-04T01:10:30Z</time></trkpt><trkpt lat="35.8879919" lon="139.2469436"><ele>382.48</ele><time>2023-02-04T01:10:45Z</time></trkpt><trkpt lat="35.8878123" lon="139.2469868"><ele>384.5366666666667</ele><time>2023-02-04T01:11:24Z</time></trkpt><trkpt lat="35.8876437" lon="139.2470817"><ele>388.25</ele><time>2023-02-04T01:11:47Z</time></trkpt><trkpt lat="35.8874913" lon="139.2472038"><ele>393.66333333333336</ele><time>2023-02-04T01:12:44Z</time></trkpt><trkpt lat="35.8873915" lon="139.247399"><ele>400.3533333333333</ele><time>2023-02-04T01:13:34Z</time></trkpt><trkpt lat="35.8873791" lon="139.2476509"><ele>405.10666666666674</ele><time>2023-02-04T01:13:42Z</time></trkpt><trkpt lat="35.8874503" lon="139.2478584"><ele>408.43</ele><time>2023-02-04T01:14:58Z</time></trkpt><trkpt lat="35.8873358" lon="139.2480419"><ele>410.1233333333334</ele><time>2023-02-04T01:15:20Z</time></trkpt><trkpt lat="35.8871953" lon="139.248191"><ele>412.3333333333333</ele><time>2023-02-04T01:15:37Z</time></trkpt><trkpt lat="35.8871804" lon="139.2484136"><ele>414.81333333333333</ele><time>2023-02-04T01:16:00Z</time></trkpt><trkpt lat="35.8871532" lon="139.2486328"><ele>419.1633333333334</ele><time>2023-02-04T01:16:26Z</time></trkpt><trkpt lat="35.8870221" lon="139.2487876"><ele>422.66333333333336</ele><time>2023-02-04T01:17:15Z</time></trkpt><trkpt lat="35.8868688" lon="139.2489195"><ele>427.43666666666667</ele><time>2023-02-04T01:18:01Z</time></trkpt><trkpt lat="35.886736" lon="139.2490737"><ele>432.74333333333334</ele><time>2023-02-04T01:18:29Z</time></trkpt><trkpt lat="35.8866542" lon="139.2492717"><ele>435.24666666666667</ele><time>2023-02-04T01:25:24Z</time></trkpt><trkpt lat="35.8865542" lon="139.2494564"><ele>431.9533333333334</ele><time>2023-02-04T01:26:40Z</time></trkpt><trkpt lat="35.8865012" lon="139.2496693"><ele>421.69000000000005</ele><time>2023-02-04T01:27:36Z</time></trkpt><trkpt lat="35.8863216" lon="139.2497071"><ele>411.2966666666667</ele><time>2023-02-04T01:28:07Z</time></trkpt><trkpt lat="35.8861818" lon="139.2498556"><ele>401.87999999999994</ele><time>2023-02-04T01:28:22Z</time></trkpt><trkpt lat="35.8860795" lon="139.2500444"><ele>396.5033333333334</ele><time>2023-02-04T01:28:36Z</time></trkpt><trkpt lat="35.8860027" lon="139.2502507"><ele>391.45</ele><time>2023-02-04T01:28:50Z</time></trkpt><trkpt lat="35.8858573" lon="139.2504023"><ele>388.0366666666667</ele><time>2023-02-04T01:29:06Z</time></trkpt><trkpt lat="35.8856743" lon="139.2504682"><ele>384.5366666666667</ele><time>2023-02-04T01:29:22Z</time></trkpt><trkpt lat="35.8854993" lon="139.2505384"><ele>384.3</ele><time>2023-02-04T01:29:37Z</time></trkpt><trkpt lat="35.8853602" lon="139.2506884"><ele>388.02666666666664</ele><time>2023-02-04T01:30:10Z</time></trkpt><trkpt lat="35.8853239" lon="139.250911"><ele>393.58666666666664</ele><time>2023-02-04T01:30:23Z</time></trkpt><trkpt lat="35.8852244" lon="139.2511003"><ele>398.72666666666663</ele><time>2023-02-04T01:30:40Z</time></trkpt><trkpt lat="35.8850513" lon="139.2511808"><ele>400.0233333333333</ele><time>2023-02-04T01:30:56Z</time></trkpt><trkpt lat="35.8848898" lon="139.2513075"><ele>400.25666666666666</ele><time>2023-02-04T01:31:18Z</time></trkpt><trkpt lat="35.8847395" lon="139.2514777"><ele>400.07</ele><time>2023-02-04T01:32:16Z</time></trkpt><trkpt lat="35.8846204" lon="139.2516498"><ele>400.09</ele><time>2023-02-04T01:32:20Z</time></trkpt><trkpt lat="35.8846084" lon="139.2518901"><ele>398.6933333333333</ele><time>2023-02-04T01:32:28Z</time></trkpt><trkpt lat="35.8845428" lon="139.2521033"><ele>394.7033333333333</ele><time>2023-02-04T01:32:48Z</time></trkpt><trkpt lat="35.8844189" lon="139.2522805"><ele>390.59</ele><time>2023-02-04T01:33:15Z</time></trkpt><trkpt lat="35.8843629" lon="139.2524958"><ele>388.72</ele><time>2023-02-04T01:33:29Z</time></trkpt><trkpt lat="35.8842111" lon="139.2526392"><ele>388.9766666666667</ele><time>2023-02-04T01:33:45Z</time></trkpt><trkpt lat="35.884099" lon="139.2528138"><ele>386.35999999999996</ele><time>2023-02-04T01:34:33Z</time></trkpt><trkpt lat="35.8839852" lon="139.2529864"><ele>380.56</ele><time>2023-02-04T01:35:45Z</time></trkpt><trkpt lat="35.8839098" lon="139.253194"><ele>371.45</ele><time>2023-02-04T01:36:00Z</time></trkpt><trkpt lat="35.8838464" lon="139.2534032"><ele>362.37999999999994</ele><time>2023-02-04T01:37:09Z</time></trkpt><trkpt lat="35.8838617" lon="139.2536269"><ele>352.1233333333333</ele><time>2023-02-04T01:38:22Z</time></trkpt><trkpt lat="35.883948" lon="139.2538245"><ele>344.0833333333333</ele><time>2023-02-04T01:38:58Z</time></trkpt><trkpt lat="35.8840299" lon="139.254022"><ele>337.90333333333336</ele><time>2023-02-04T01:39:16Z</time></trkpt><trkpt lat="35.8838424" lon="139.2540238"><ele>334.96333333333337</ele><time>2023-02-04T01:40:34Z</time></trkpt><trkpt lat="35.8836737" lon="139.2541543"><ele>329.75</ele><time>2023-02-04T01:40:58Z</time></trkpt><trkpt lat="35.8834996" lon="139.2542461"><ele>323.1333333333334</ele><time>2023-02-04T01:41:37Z</time></trkpt><trkpt lat="35.8834967" lon="139.2544726"><ele>314.6933333333333</ele><time>2023-02-04T01:42:01Z</time></trkpt><trkpt lat="35.8834419" lon="139.2546934"><ele>307.53000000000003</ele><time>2023-02-04T01:42:28Z</time></trkpt><trkpt lat="35.8833916" lon="139.254931"><ele>300.59999999999997</ele><time>2023-02-04T01:42:58Z</time></trkpt><trkpt lat="35.8834287" lon="139.2551558"><ele>294.58666666666664</ele><time>2023-02-04T01:43:16Z</time></trkpt><trkpt lat="35.8835243" lon="139.2553497"><ele>290.25</ele><time>2023-02-04T01:43:25Z</time></trkpt><trkpt lat="35.8834933" lon="139.2555681"><ele>287.99333333333334</ele><time>2023-02-04T01:43:41Z</time></trkpt><trkpt lat="35.8836664" lon="139.2556416"><ele>284.07666666666665</ele><time>2023-02-04T01:44:11Z</time></trkpt><trkpt lat="35.8838225" lon="139.255782"><ele>281.68333333333334</ele><time>2023-02-04T01:44:18Z</time></trkpt><trkpt lat="35.8839119" lon="139.2559747"><ele>280.67333333333335</ele><time>2023-02-04T01:44:33Z</time></trkpt><trkpt lat="35.8839561" lon="139.2561913"><ele>284.4566666666667</ele><time>2023-02-04T01:45:07Z</time></trkpt><trkpt lat="35.8839959" lon="139.2564112"><ele>290.8833333333333</ele><time>2023-02-04T01:46:17Z</time></trkpt><trkpt lat="35.8839795" lon="139.2566428"><ele>297.9433333333333</ele><time>2023-02-04T01:46:42Z</time></trkpt><trkpt lat="35.8839555" lon="139.2568688"><ele>305.32666666666665</ele><time>2023-02-04T01:47:05Z</time></trkpt><trkpt lat="35.8839644" lon="139.2571062"><ele>310.23333333333335</ele><time>2023-02-04T01:47:38Z</time></trkpt><trkpt lat="35.8839189" lon="139.2573263"><ele>315.1333333333333</ele><time>2023-02-04T01:48:29Z</time></trkpt><trkpt lat="35.8837961" lon="139.2575069"><ele>318.06</ele><time>2023-02-04T01:48:43Z</time></trkpt><trkpt lat="35.8836884" lon="139.2576953"><ele>320.37</ele><time>2023-02-04T01:49:08Z</time></trkpt><trkpt lat="35.8836012" lon="139.2578965"><ele>321.6333333333334</ele><time>2023-02-04T01:49:35Z</time></trkpt><trkpt lat="35.883525" lon="139.2581007"><ele>322.09</ele><time>2023-02-04T01:50:01Z</time></trkpt><trkpt lat="35.883397" lon="139.258259"><ele>321.7966666666667</ele><time>2023-02-04T01:50:18Z</time></trkpt><trkpt lat="35.8833316" lon="139.2584693"><ele>319.8</ele><time>2023-02-04T01:50:41Z</time></trkpt><trkpt lat="35.8832716" lon="139.2586807"><ele>318.54333333333335</ele><time>2023-02-04T01:51:06Z</time></trkpt><trkpt lat="35.8833065" lon="139.2589099"><ele>319.2366666666667</ele><time>2023-02-04T01:51:22Z</time></trkpt><trkpt lat="35.8834057" lon="139.259106"><ele>323.83666666666664</ele><time>2023-02-04T01:51:44Z</time></trkpt><trkpt lat="35.8833298" lon="139.259308"><ele>326.0566666666667</ele><time>2023-02-04T01:52:34Z</time></trkpt><trkpt lat="35.8832354" lon="139.2594967"><ele>327.47333333333336</ele><time>2023-02-04T01:53:19Z</time></trkpt><trkpt lat="35.8830881" lon="139.2596497"><ele>327.33666666666664</ele><time>2023-02-04T01:53:34Z</time></trkpt><trkpt lat="35.8829327" lon="139.259763"><ele>329.73</ele><time>2023-02-04T01:53:50Z</time></trkpt><trkpt lat="35.8828078" lon="139.25993"><ele>331.8066666666667</ele><time>2023-02-04T01:54:05Z</time></trkpt><trkpt lat="35.8827145" lon="139.2601197"><ele>333.09666666666664</ele><time>2023-02-04T01:54:29Z</time></trkpt><trkpt lat="35.8826274" lon="139.2603214"><ele>333.1666666666667</ele><time>2023-02-04T01:55:05Z</time></trkpt><trkpt lat="35.8824484" lon="139.260368"><ele>332.72666666666663</ele><time>2023-02-04T01:55:33Z</time></trkpt><trkpt lat="35.8822763" lon="139.2604775"><ele>329.2633333333333</ele><time>2023-02-04T01:56:02Z</time></trkpt><trkpt lat="35.8820896" lon="139.2604946"><ele>328.30333333333334</ele><time>2023-02-04T01:56:13Z</time></trkpt><trkpt lat="35.8819105" lon="139.2605321"><ele>327.97666666666663</ele><time>2023-02-04T01:56:28Z</time></trkpt><trkpt lat="35.8818507" lon="139.2607518"><ele>327.7266666666667</ele><time>2023-02-04T01:56:45Z</time></trkpt><trkpt lat="35.8818079" lon="139.260969"><ele>325.15</ele><time>2023-02-04T01:57:28Z</time></trkpt><trkpt lat="35.8818059" lon="139.2611908"><ele>321.7133333333333</ele><time>2023-02-04T01:57:42Z</time></trkpt><trkpt lat="35.8817341" lon="139.2613992"><ele>321.05333333333334</ele><time>2023-02-04T01:57:57Z</time></trkpt><trkpt lat="35.8816587" lon="139.261602"><ele>319.60999999999996</ele><time>2023-02-04T01:58:27Z</time></trkpt><trkpt lat="35.8815994" lon="139.2618113"><ele>316.3933333333334</ele><time>2023-02-04T01:59:23Z</time></trkpt><trkpt lat="35.8814727" lon="139.261979"><ele>309.5</ele><time>2023-02-04T01:59:51Z</time></trkpt><trkpt lat="35.8813448" lon="139.2621374"><ele>301.73</ele><time>2023-02-04T02:00:05Z</time></trkpt><trkpt lat="35.8814075" lon="139.2623492"><ele>293.9266666666667</ele><time>2023-02-04T02:00:30Z</time></trkpt><trkpt lat="35.8812999" lon="139.2625308"><ele>286.3066666666667</ele><time>2023-02-04T02:01:34Z</time></trkpt><trkpt lat="35.8812591" lon="139.2627575"><ele>278.87000000000006</ele><time>2023-02-04T02:02:35Z</time></trkpt><trkpt lat="35.8811423" lon="139.2629355"><ele>271.92333333333335</ele><time>2023-02-04T02:02:47Z</time></trkpt><trkpt lat="35.8810357" lon="139.2631279"><ele>269.8966666666667</ele><time>2023-02-04T02:03:24Z</time></trkpt><trkpt lat="35.8809694" lon="139.2633339"><ele>272.50666666666666</ele><time>2023-02-04T02:03:58Z</time></trkpt><trkpt lat="35.8808286" lon="139.2634791"><ele>280.46666666666664</ele><time>2023-02-04T02:04:54Z</time></trkpt><trkpt lat="35.880653" lon="139.2635661"><ele>286.7966666666666</ele><time>2023-02-04T02:05:13Z</time></trkpt><trkpt lat="35.8804729" lon="139.2635373"><ele>290.6466666666667</ele><time>2023-02-04T02:06:21Z</time></trkpt><trkpt lat="35.8804134" lon="139.263751"><ele>290.10999999999996</ele><time>2023-02-04T02:06:54Z</time></trkpt><trkpt lat="35.8803743" lon="139.2639698"><ele>286.99666666666667</ele><time>2023-02-04T02:07:05Z</time></trkpt><trkpt lat="35.880345" lon="139.2641937"><ele>283.68666666666667</ele><time>2023-02-04T02:07:21Z</time></trkpt><trkpt lat="35.880201" lon="139.2643507"><ele>281.72333333333336</ele><time>2023-02-04T02:07:38Z</time></trkpt><trkpt lat="35.8801613" lon="139.2645709"><ele>282.77333333333337</ele><time>2023-02-04T02:07:51Z</time></trkpt><trkpt lat="35.8800406" lon="139.2647379"><ele>285.22333333333336</ele><time>2023-02-04T02:08:45Z</time></trkpt><trkpt lat="35.8799717" lon="139.2649493"><ele>288.5</ele><time>2023-02-04T02:09:29Z</time></trkpt><trkpt lat="35.8799876" lon="139.2651971"><ele>291.78333333333336</ele><time>2023-02-04T02:10:11Z</time></trkpt><trkpt lat="35.8800884" lon="139.265402"><ele>294.8533333333333</ele><time>2023-02-04T02:10:24Z</time></trkpt><trkpt lat="35.8801104" lon="139.2656241"><ele>297.35333333333335</ele><time>2023-02-04T02:11:39Z</time></trkpt><trkpt lat="35.8799488" lon="139.265723"><ele>296.6166666666666</ele><time>2023-02-04T02:12:16Z</time></trkpt><trkpt lat="35.8797931" lon="139.2658511"><ele>292.51</ele><time>2023-02-04T02:12:31Z</time></trkpt><trkpt lat="35.8796194" lon="139.265914"><ele>288.2833333333333</ele><time>2023-02-04T02:13:13Z</time></trkpt><trkpt lat="35.8794228" lon="139.2659613"><ele>290.1766666666667</ele><time>2023-02-04T02:13:49Z</time></trkpt><trkpt lat="35.8794801" lon="139.266177"><ele>294.24</ele><time>2023-02-04T02:14:37Z</time></trkpt><trkpt lat="35.8794653" lon="139.2664052"><ele>297.8533333333333</ele><time>2023-02-04T02:14:47Z</time></trkpt><trkpt lat="35.879421" lon="139.2666225"><ele>298.39000000000004</ele><time>2023-02-04T02:15:45Z</time></trkpt><trkpt lat="35.8793606" lon="139.2668347"><ele>296.7166666666667</ele><time>2023-02-04T02:16:20Z</time></trkpt><trkpt lat="35.8792358" lon="139.2670011"><ele>294.2866666666667</ele><time>2023-02-04T02:16:29Z</time></trkpt><trkpt lat="35.879082" lon="139.2671172"><ele>292.4533333333333</ele><time>2023-02-04T02:17:10Z</time></trkpt><trkpt lat="35.8790935" lon="139.2673467"><ele>293.4833333333333</ele><time>2023-02-04T02:17:40Z</time></trkpt><trkpt lat="35.8790266" lon="139.2675576"><ele>296.3733333333334</ele><time>2023-02-04T02:17:51Z</time></trkpt><trkpt lat="35.8789275" lon="139.2677522"><ele>298.2333333333333</ele><time>2023-02-04T02:18:29Z</time></trkpt><trkpt lat="35.8787737" lon="139.267889"><ele>297.4433333333333</ele><time>2023-02-04T02:19:17Z</time></trkpt><trkpt lat="35.8786004" lon="139.2679644"><ele>295.19666666666666</ele><time>2023-02-04T02:19:29Z</time></trkpt><trkpt lat="35.8784227" lon="139.2680097"><ele>292.69666666666666</ele><time>2023-02-04T02:19:42Z</time></trkpt><trkpt lat="35.8783287" lon="139.2682005"><ele>291.13333333333327</ele><time>2023-02-04T02:19:56Z</time></trkpt><trkpt lat="35.8782961" lon="139.2684263"><ele>288.71333333333337</ele><time>2023-02-04T02:20:12Z</time></trkpt><trkpt lat="35.8784388" lon="139.268562"><ele>285.4433333333333</ele><time>2023-02-04T02:20:44Z</time></trkpt><trkpt lat="35.8784498" lon="139.2687906"><ele>283.66333333333336</ele><time>2023-02-04T02:21:01Z</time></trkpt><trkpt lat="35.8783594" lon="139.2689939"><ele>284.26666666666665</ele><time>2023-02-04T02:21:14Z</time></trkpt><trkpt lat="35.8783848" lon="139.2692185"><ele>287.03333333333336</ele><time>2023-02-04T02:21:32Z</time></trkpt><trkpt lat="35.8782937" lon="139.2694154"><ele>289.1666666666667</ele><time>2023-02-04T02:22:01Z</time></trkpt><trkpt lat="35.878141" lon="139.2695374"><ele>288.9266666666667</ele><time>2023-02-04T02:22:23Z</time></trkpt><trkpt lat="35.8779837" lon="139.2696557"><ele>285.6466666666667</ele><time>2023-02-04T02:22:38Z</time></trkpt><trkpt lat="35.8778005" lon="139.269645"><ele>282.6233333333333</ele><time>2023-02-04T02:22:51Z</time></trkpt><trkpt lat="35.8776193" lon="139.2696159"><ele>278.8066666666667</ele><time>2023-02-04T02:23:05Z</time></trkpt><trkpt lat="35.8774348" lon="139.2696441"><ele>275.3333333333333</ele><time>2023-02-04T02:23:25Z</time></trkpt><trkpt lat="35.8772505" lon="139.2696588"><ele>272.03000000000003</ele><time>2023-02-04T02:23:39Z</time></trkpt><trkpt lat="35.8770713" lon="139.2697126"><ele>268.50333333333333</ele><time>2023-02-04T02:23:53Z</time></trkpt><trkpt lat="35.8769956" lon="139.2699136"><ele>269.21000000000004</ele><time>2023-02-04T02:24:38Z</time></trkpt><trkpt lat="35.87687" lon="139.2701087"><ele>268.99333333333334</ele><time>2023-02-04T02:25:02Z</time></trkpt><trkpt lat="35.8767403" lon="139.2702706"><ele>268.56666666666666</ele><time>2023-02-04T02:25:14Z</time></trkpt><trkpt lat="35.876607" lon="139.270421"><ele>266.5266666666667</ele><time>2023-02-04T02:25:26Z</time></trkpt><trkpt lat="35.8765264" lon="139.2706205"><ele>265.59</ele><time>2023-02-04T02:25:39Z</time></trkpt><trkpt lat="35.8764633" lon="139.2708352"><ele>268.17333333333335</ele><time>2023-02-04T02:25:53Z</time></trkpt><trkpt lat="35.8764071" lon="139.271066"><ele>269.12333333333333</ele><time>2023-02-04T02:26:05Z</time></trkpt><trkpt lat="35.8762636" lon="139.2712052"><ele>268.2666666666667</ele><time>2023-02-04T02:26:27Z</time></trkpt><trkpt lat="35.8760796" lon="139.2712257"><ele>264.26</ele><time>2023-02-04T02:26:39Z</time></trkpt><trkpt lat="35.8759884" lon="139.2714219"><ele>261.68666666666667</ele><time>2023-02-04T02:26:49Z</time></trkpt><trkpt lat="35.8758852" lon="139.2716183"><ele>260.87000000000006</ele><time>2023-02-04T02:27:00Z</time></trkpt><trkpt lat="35.8758326" lon="139.2718408"><ele>261.31333333333333</ele><time>2023-02-04T02:27:06Z</time></trkpt><trkpt lat="35.8756414" lon="139.2718411"><ele>261.5133333333334</ele><time>2023-02-04T02:27:15Z</time></trkpt><trkpt lat="35.8754602" lon="139.2718072"><ele>260.24666666666667</ele><time>2023-02-04T02:27:24Z</time></trkpt><trkpt lat="35.8752948" lon="139.2719046"><ele>260.3</ele><time>2023-02-04T02:27:41Z</time></trkpt><trkpt lat="35.8751305" lon="139.2719989"><ele>261.4866666666667</ele><time>2023-02-04T02:27:56Z</time></trkpt><trkpt lat="35.8749705" lon="139.2721157"><ele>265.4666666666667</ele><time>2023-02-04T02:28:14Z</time></trkpt><trkpt lat="35.874875" lon="139.2723036"><ele>269.28333333333336</ele><time>2023-02-04T02:28:25Z</time></trkpt><trkpt lat="35.8748601" lon="139.2725262"><ele>271.24333333333334</ele><time>2023-02-04T02:28:35Z</time></trkpt><trkpt lat="35.8748979" lon="139.2727539"><ele>271.2866666666667</ele><time>2023-02-04T02:28:50Z</time></trkpt><trkpt lat="35.8750369" lon="139.272897"><ele>272.1433333333334</ele><time>2023-02-04T02:29:08Z</time></trkpt><trkpt lat="35.8749146" lon="139.2730625"><ele>270.1666666666667</ele><time>2023-02-04T02:30:01Z</time></trkpt><trkpt lat="35.8749023" lon="139.2732921"><ele>267.82</ele><time>2023-02-04T02:30:24Z</time></trkpt><trkpt lat="35.8749553" lon="139.2735332"><ele>264.21666666666664</ele><time>2023-02-04T02:30:39Z</time></trkpt><trkpt lat="35.87501" lon="139.2737556"><ele>263.55333333333334</ele><time>2023-02-04T02:30:51Z</time></trkpt><trkpt lat="35.8750299" lon="139.27398"><ele>262.8533333333333</ele><time>2023-02-04T02:31:04Z</time></trkpt><trkpt lat="35.8750127" lon="139.2742087"><ele>261.3333333333333</ele><time>2023-02-04T02:31:20Z</time></trkpt><trkpt lat="35.8749677" lon="139.2744318"><ele>259.23333333333335</ele><time>2023-02-04T02:31:32Z</time></trkpt><trkpt lat="35.8748317" lon="139.2746088"><ele>257.49</ele><time>2023-02-04T02:31:48Z</time></trkpt><trkpt lat="35.8746558" lon="139.2746854"><ele>255.73</ele><time>2023-02-04T02:32:03Z</time></trkpt><trkpt lat="35.8746266" lon="139.27492"><ele>254.61</ele><time>2023-02-04T02:32:24Z</time></trkpt><trkpt lat="35.8745561" lon="139.275125"><ele>253.70000000000002</ele><time>2023-02-04T02:32:54Z</time></trkpt><trkpt lat="35.8744246" lon="139.2752808"><ele>253.15333333333334</ele><time>2023-02-04T02:33:07Z</time></trkpt><trkpt lat="35.874308" lon="139.2754543"><ele>252.46</ele><time>2023-02-04T02:33:18Z</time></trkpt><trkpt lat="35.8741664" lon="139.2756067"><ele>251.44666666666663</ele><time>2023-02-04T02:33:32Z</time></trkpt><trkpt lat="35.8739927" lon="139.2757112"><ele>249.56333333333336</ele><time>2023-02-04T02:33:48Z</time></trkpt><trkpt lat="35.8739106" lon="139.2759137"><ele>247.56000000000003</ele><time>2023-02-04T02:34:02Z</time></trkpt><trkpt lat="35.8740045" lon="139.2761044"><ele>246.64666666666668</ele><time>2023-02-04T02:34:28Z</time></trkpt><trkpt lat="35.8738674" lon="139.2762573"><ele>248.35666666666665</ele><time>2023-02-04T02:34:42Z</time></trkpt><trkpt lat="35.8736822" lon="139.2763204"><ele>250.32000000000002</ele><time>2023-02-04T02:34:55Z</time></trkpt><trkpt lat="35.8735632" lon="139.2764918"><ele>253.01333333333332</ele><time>2023-02-04T02:35:14Z</time></trkpt><trkpt lat="35.8733946" lon="139.2765854"><ele>255.3066666666667</ele><time>2023-02-04T02:35:39Z</time></trkpt><trkpt lat="35.8732325" lon="139.2766875"><ele>258.53666666666663</ele><time>2023-02-04T02:36:12Z</time></trkpt><trkpt lat="35.8731613" lon="139.2768929"><ele>260.53000000000003</ele><time>2023-02-04T02:36:41Z</time></trkpt><trkpt lat="35.873017" lon="139.2770286"><ele>260.88333333333327</ele><time>2023-02-04T02:37:31Z</time></trkpt><trkpt lat="35.8728369" lon="139.277006"><ele>257.4566666666667</ele><time>2023-02-04T02:38:01Z</time></trkpt><trkpt lat="35.8726872" lon="139.2771324"><ele>251.76</ele><time>2023-02-04T02:38:23Z</time></trkpt><trkpt lat="35.8725782" lon="139.2773198"><ele>244.82000000000002</ele><time>2023-02-04T02:38:39Z</time></trkpt><trkpt lat="35.8725085" lon="139.2775355"><ele>238.88</ele><time>2023-02-04T02:38:52Z</time></trkpt><trkpt lat="35.8724661" lon="139.2777569"><ele>235.81000000000003</ele><time>2023-02-04T02:39:11Z</time></trkpt><trkpt lat="35.8724618" lon="139.2779816"><ele>238.16333333333333</ele><time>2023-02-04T02:39:26Z</time></trkpt><trkpt lat="35.8724829" lon="139.2782082"><ele>242.96666666666667</ele><time>2023-02-04T02:40:20Z</time></trkpt><trkpt lat="35.8724626" lon="139.2784304"><ele>246.5</ele><time>2023-02-04T02:40:57Z</time></trkpt><trkpt lat="35.8723734" lon="139.2786307"><ele>243.8166666666667</ele><time>2023-02-04T02:41:12Z</time></trkpt><trkpt lat="35.8723771" lon="139.2788575"><ele>240.21666666666667</ele><time>2023-02-04T02:41:32Z</time></trkpt><trkpt lat="35.8723846" lon="139.2790849"><ele>238.13666666666668</ele><time>2023-02-04T02:41:50Z</time></trkpt><trkpt lat="35.8724848" lon="139.2792758"><ele>239.42</ele><time>2023-02-04T02:42:13Z</time></trkpt><trkpt lat="35.8724206" lon="139.2794918"><ele>238.46333333333334</ele><time>2023-02-04T02:42:37Z</time></trkpt><trkpt lat="35.8725128" lon="139.2796909"><ele>237.29333333333338</ele><time>2023-02-04T02:42:52Z</time></trkpt><trkpt lat="35.8726644" lon="139.2798247"><ele>238.59666666666666</ele><time>2023-02-04T02:43:04Z</time></trkpt><trkpt lat="35.8727786" lon="139.2800165"><ele>243.8766666666667</ele><time>2023-02-04T02:43:18Z</time></trkpt><trkpt lat="35.8729343" lon="139.280132"><ele>249.8466666666667</ele><time>2023-02-04T02:43:36Z</time></trkpt><trkpt lat="35.873035" lon="139.2803339"><ele>253.57333333333335</ele><time>2023-02-04T02:44:08Z</time></trkpt><trkpt lat="35.8730867" lon="139.2805651"><ele>257.3066666666667</ele><time>2023-02-04T02:44:22Z</time></trkpt><trkpt lat="35.873059" lon="139.2807864"><ele>260.4866666666666</ele><time>2023-02-04T02:44:58Z</time></trkpt><trkpt lat="35.8730429" lon="139.2810189"><ele>263.35999999999996</ele><time>2023-02-04T02:45:15Z</time></trkpt><trkpt lat="35.8730451" lon="139.2812417"><ele>266.4433333333333</ele><time>2023-02-04T02:45:30Z</time></trkpt><trkpt lat="35.8730597" lon="139.2814736"><ele>269.5</ele><time>2023-02-04T02:45:45Z</time></trkpt><trkpt lat="35.8731722" lon="139.2816523"><ele>273.02333333333337</ele><time>2023-02-04T02:46:10Z</time></trkpt><trkpt lat="35.8729919" lon="139.2816642"><ele>273.2666666666667</ele><time>2023-02-04T02:46:46Z</time></trkpt><trkpt lat="35.8728133" lon="139.2815928"><ele>271.38</ele><time>2023-02-04T02:53:28Z</time></trkpt><trkpt lat="35.8726916" lon="139.281427"><ele>268.98333333333335</ele><time>2023-02-04T02:53:41Z</time></trkpt><trkpt lat="35.8726148" lon="139.2812232"><ele>267.6933333333333</ele><time>2023-02-04T02:53:51Z</time></trkpt><trkpt lat="35.8724698" lon="139.2810754"><ele>266.4566666666667</ele><time>2023-02-04T02:54:14Z</time></trkpt><trkpt lat="35.8722931" lon="139.28103"><ele>263.5966666666667</ele><time>2023-02-04T02:54:24Z</time></trkpt><trkpt lat="35.8721063" lon="139.2810448"><ele>258.12666666666667</ele><time>2023-02-04T02:54:38Z</time></trkpt><trkpt lat="35.8719818" lon="139.2808833"><ele>253.24333333333334</ele><time>2023-02-04T02:54:50Z</time></trkpt><trkpt lat="35.8718796" lon="139.2806771"><ele>246.78666666666666</ele><time>2023-02-04T02:55:02Z</time></trkpt><trkpt lat="35.8717014" lon="139.2806119"><ele>241.1</ele><time>2023-02-04T02:55:18Z</time></trkpt><trkpt lat="35.8715974" lon="139.2807935"><ele>237.22333333333333</ele><time>2023-02-04T02:55:38Z</time></trkpt><trkpt lat="35.8714046" lon="139.2807628"><ele>234.78666666666666</ele><time>2023-02-04T02:56:06Z</time></trkpt><trkpt lat="35.8712149" lon="139.280841"><ele>233.14333333333335</ele><time>2023-02-04T02:56:17Z</time></trkpt><trkpt lat="35.871048" lon="139.2809475"><ele>228.73</ele><time>2023-02-04T02:56:29Z</time></trkpt><trkpt lat="35.8709393" lon="139.2811423"><ele>225.37</ele><time>2023-02-04T02:56:45Z</time></trkpt><trkpt lat="35.8708175" lon="139.2813072"><ele>223.32666666666668</ele><time>2023-02-04T02:57:00Z</time></trkpt><trkpt lat="35.8706642" lon="139.2814261"><ele>222.65</ele><time>2023-02-04T02:57:17Z</time></trkpt><trkpt lat="35.8705321" lon="139.2816002"><ele>221.88333333333335</ele><time>2023-02-04T02:57:29Z</time></trkpt><trkpt lat="35.8704224" lon="139.2817806"><ele>220.74</ele><time>2023-02-04T02:57:52Z</time></trkpt><trkpt lat="35.8702512" lon="139.2818862"><ele>217.84333333333333</ele><time>2023-02-04T02:58:16Z</time></trkpt><trkpt lat="35.8701031" lon="139.2820272"><ele>214.44333333333336</ele><time>2023-02-04T02:58:34Z</time></trkpt><trkpt lat="35.869974" lon="139.2821921"><ele>209.95000000000002</ele><time>2023-02-04T02:58:50Z</time></trkpt><trkpt lat="35.8698225" lon="139.2823373"><ele>205.92666666666665</ele><time>2023-02-04T02:59:03Z</time></trkpt><trkpt lat="35.8697158" lon="139.2825221"><ele>202.3166666666667</ele><time>2023-02-04T02:59:26Z</time></trkpt><trkpt lat="35.8696094" lon="139.2827046"><ele>201.13</ele><time>2023-02-04T02:59:44Z</time></trkpt><trkpt lat="35.8694923" lon="139.282878"><ele>201.38666666666666</ele><time>2023-02-04T03:00:00Z</time></trkpt><trkpt lat="35.8693794" lon="139.2830586"><ele>202.76666666666665</ele><time>2023-02-04T03:00:24Z</time></trkpt><trkpt lat="35.8692335" lon="139.2831911"><ele>204.56333333333336</ele><time>2023-02-04T03:00:41Z</time></trkpt><trkpt lat="35.8691517" lon="139.2833916"><ele>209.36</ele><time>2023-02-04T03:02:03Z</time></trkpt><trkpt lat="35.8690655" lon="139.2835882"><ele>214.49333333333334</ele><time>2023-02-04T03:02:42Z</time></trkpt><trkpt lat="35.8689512" lon="139.2837674"><ele>217.18333333333337</ele><time>2023-02-04T03:03:11Z</time></trkpt><trkpt lat="35.8687719" lon="139.2838084"><ele>216.33666666666667</ele><time>2023-02-04T03:03:23Z</time></trkpt><trkpt lat="35.8685947" lon="139.2838694"><ele>213.68333333333337</ele><time>2023-02-04T03:03:36Z</time></trkpt><trkpt lat="35.8684445" lon="139.2839928"><ele>211.38</ele><time>2023-02-04T03:04:00Z</time></trkpt><trkpt lat="35.868306" lon="139.2841356"><ele>208.41666666666666</ele><time>2023-02-04T03:04:11Z</time></trkpt><trkpt lat="35.8682049" lon="139.2843322"><ele>206.08333333333334</ele><time>2023-02-04T03:04:29Z</time></trkpt><trkpt lat="35.8680823" lon="139.2845011"><ele>203.95333333333335</ele><time>2023-02-04T03:04:42Z</time></trkpt><trkpt lat="35.8679667" lon="139.284676"><ele>202.48333333333335</ele><time>2023-02-04T03:05:01Z</time></trkpt><trkpt lat="35.8678218" lon="139.2848091"><ele>199.49666666666667</ele><time>2023-02-04T03:05:13Z</time></trkpt><trkpt lat="35.8676969" lon="139.2849692"><ele>194.03</ele><time>2023-02-04T03:05:34Z</time></trkpt><trkpt lat="35.8678544" lon="139.2850924"><ele>189.42333333333332</ele><time>2023-02-04T03:05:59Z</time></trkpt><trkpt lat="35.867881" lon="139.2853226"><ele>184.49666666666667</ele><time>2023-02-04T03:06:24Z</time></trkpt><trkpt lat="35.8680177" lon="139.2854817"><ele>179.84333333333333</ele><time>2023-02-04T03:06:33Z</time></trkpt><trkpt lat="35.8681481" lon="139.2856579"><ele>172.60333333333332</ele><time>2023-02-04T03:07:14Z</time></trkpt><trkpt lat="35.868206" lon="139.2858817"><ele>164.99</ele><time>2023-02-04T03:08:00Z</time></trkpt><trkpt lat="35.8682841" lon="139.2861003"><ele>160.28</ele><time>2023-02-04T03:08:10Z</time></trkpt><trkpt lat="35.8683939" lon="139.2862814"><ele>157.95000000000002</ele><time>2023-02-04T03:08:21Z</time></trkpt><trkpt lat="35.8685307" lon="139.2864353"><ele>158.32333333333335</ele><time>2023-02-04T03:08:38Z</time></trkpt><trkpt lat="35.8685207" lon="139.2866672"><ele>158.26666666666668</ele><time>2023-02-04T03:08:51Z</time></trkpt><trkpt lat="35.8683715" lon="139.2868199"><ele>158.15</ele><time>2023-02-04T03:09:07Z</time></trkpt><trkpt lat="35.8681972" lon="139.2867201"><ele>156.99333333333334</ele><time>2023-02-04T03:09:24Z</time></trkpt><trkpt lat="35.8680428" lon="139.2865656"><ele>155.76666666666668</ele><time>2023-02-04T03:09:36Z</time></trkpt><trkpt lat="35.8678635" lon="139.2865062"><ele>153.72333333333333</ele><time>2023-02-04T03:09:46Z</time></trkpt><trkpt lat="35.8676751" lon="139.2864007"><ele>151.27666666666667</ele><time>2023-02-04T03:09:59Z</time></trkpt><trkpt lat="35.8675008" lon="139.2864609"><ele>148.48666666666665</ele><time>2023-02-04T03:10:11Z</time></trkpt><trkpt lat="35.867338" lon="139.2865568"><ele>145.09333333333333</ele><time>2023-02-04T03:10:21Z</time></trkpt><trkpt lat="35.8671664" lon="139.286633"><ele>141.85666666666665</ele><time>2023-02-04T03:10:32Z</time></trkpt><trkpt lat="35.8669799" lon="139.286692"><ele>139.04333333333332</ele><time>2023-02-04T03:10:46Z</time></trkpt><trkpt lat="35.8667946" lon="139.2867194"><ele>137.10666666666665</ele><time>2023-02-04T03:10:56Z</time></trkpt><trkpt lat="35.8666195" lon="139.2868195"><ele>136.83</ele><time>2023-02-04T03:11:10Z</time></trkpt><trkpt lat="35.8664394" lon="139.2868354"><ele>136.58</ele><time>2023-02-04T03:11:36Z</time></trkpt><trkpt lat="35.8663949" lon="139.2870551"><ele>138.1</ele><time>2023-02-04T03:11:52Z</time></trkpt><trkpt lat="35.8663598" lon="139.2872816"><ele>142.02</ele><time>2023-02-04T03:12:10Z</time></trkpt><trkpt lat="35.8663448" lon="139.2875167"><ele>146.71333333333334</ele><time>2023-02-04T03:12:27Z</time></trkpt><trkpt lat="35.8662192" lon="139.2876815"><ele>154.29666666666665</ele><time>2023-02-04T03:12:57Z</time></trkpt><trkpt lat="35.866174" lon="139.2878988"><ele>158.14666666666668</ele><time>2023-02-04T03:13:31Z</time></trkpt><trkpt lat="35.8661546" lon="139.2881202"><ele>161.53666666666666</ele><time>2023-02-04T03:13:43Z</time></trkpt><trkpt lat="35.8659867" lon="139.2882027"><ele>163.3166666666667</ele><time>2023-02-04T03:14:01Z</time></trkpt><trkpt lat="35.8658751" lon="139.2883858"><ele>167.32666666666668</ele><time>2023-02-04T03:14:34Z</time></trkpt><trkpt lat="35.8657893" lon="139.2885908"><ele>171.91</ele><time>2023-02-04T03:14:52Z</time></trkpt><trkpt lat="35.865744" lon="139.2888067"><ele>174.74666666666667</ele><time>2023-02-04T03:15:04Z</time></trkpt><trkpt lat="35.8656615" lon="139.2890164"><ele>177.34333333333333</ele><time>2023-02-04T03:15:20Z</time></trkpt><trkpt lat="35.8657177" lon="139.2892286"><ele>178.24666666666667</ele><time>2023-02-04T03:15:36Z</time></trkpt><trkpt lat="35.8655388" lon="139.2892681"><ele>183.1</ele><time>2023-02-04T03:15:56Z</time></trkpt><trkpt lat="35.8654631" lon="139.2894692"><ele>187.64000000000001</ele><time>2023-02-04T03:16:19Z</time></trkpt><trkpt lat="35.8654455" lon="139.2896921"><ele>193.64333333333335</ele><time>2023-02-04T03:16:46Z</time></trkpt><trkpt lat="35.8654294" lon="139.289913"><ele>196.71666666666667</ele><time>2023-02-04T03:17:47Z</time></trkpt><trkpt lat="35.8654104" lon="139.2901407"><ele>199.77333333333334</ele><time>2023-02-04T03:19:27Z</time></trkpt><trkpt lat="35.8653928" lon="139.290369"><ele>205.31333333333336</ele><time>2023-02-04T03:20:07Z</time></trkpt><trkpt lat="35.865234" lon="139.2904763"><ele>209.82666666666668</ele><time>2023-02-04T03:21:11Z</time></trkpt><trkpt lat="35.8651993" lon="139.2906978"><ele>215.42333333333332</ele><time>2023-02-04T03:21:39Z</time></trkpt><trkpt lat="35.8651761" lon="139.2909219"><ele>217.5566666666667</ele><time>2023-02-04T03:22:01Z</time></trkpt><trkpt lat="35.8651663" lon="139.2911505"><ele>217.42333333333332</ele><time>2023-02-04T03:22:38Z</time></trkpt><trkpt lat="35.8652398" lon="139.2913832"><ele>212.9466666666667</ele><time>2023-02-04T03:22:50Z</time></trkpt><trkpt lat="35.865309" lon="139.2915948"><ele>208.42</ele><time>2023-02-04T03:23:11Z</time></trkpt><trkpt lat="35.8654603" lon="139.2917312"><ele>206.58666666666667</ele><time>2023-02-04T03:23:26Z</time></trkpt><trkpt lat="35.8656405" lon="139.2917164"><ele>209.87</ele><time>2023-02-04T03:23:45Z</time></trkpt><trkpt lat="35.8657903" lon="139.2918479"><ele>215.51000000000002</ele><time>2023-02-04T03:24:17Z</time></trkpt><trkpt lat="35.8658554" lon="139.2920612"><ele>219.83</ele><time>2023-02-04T03:24:38Z</time></trkpt><trkpt lat="35.8657122" lon="139.2922062"><ele>219.89333333333335</ele><time>2023-02-04T03:25:15Z</time></trkpt><trkpt lat="35.8655793" lon="139.2923661"><ele>216.89333333333335</ele><time>2023-02-04T03:25:29Z</time></trkpt><trkpt lat="35.8654444" lon="139.292519"><ele>214.22333333333336</ele><time>2023-02-04T03:25:49Z</time></trkpt><trkpt lat="35.8654318" lon="139.2927533"><ele>214.57000000000002</ele><time>2023-02-04T03:26:07Z</time></trkpt><trkpt lat="35.8653429" lon="139.292946"><ele>217.02666666666667</ele><time>2023-02-04T03:26:43Z</time></trkpt><trkpt lat="35.8654106" lon="139.2931545"><ele>218.14333333333335</ele><time>2023-02-04T03:27:02Z</time></trkpt><trkpt lat="35.8655244" lon="139.2933369"><ele>214.1</ele><time>2023-02-04T03:27:15Z</time></trkpt><trkpt lat="35.8656834" lon="139.29345"><ele>209.21333333333334</ele><time>2023-02-04T03:27:27Z</time></trkpt><trkpt lat="35.8658637" lon="139.293503"><ele>204.07333333333335</ele><time>2023-02-04T03:27:46Z</time></trkpt><trkpt lat="35.8659978" lon="139.293652"><ele>197.11666666666667</ele><time>2023-02-04T03:28:48Z</time></trkpt><trkpt lat="35.8659623" lon="139.293876"><ele>186.42666666666665</ele><time>2023-02-04T03:29:44Z</time></trkpt><trkpt lat="35.8661007" lon="139.2940558"><ele>174.86</ele><time>2023-02-04T03:30:12Z</time></trkpt><trkpt lat="35.8659863" lon="139.2942272"><ele>169.20000000000002</ele><time>2023-02-04T03:30:59Z</time></trkpt><trkpt lat="35.8659873" lon="139.2944504"><ele>171.4766666666667</ele><time>2023-02-04T03:32:28Z</time></trkpt><trkpt lat="35.8660287" lon="139.2946663"><ele>180.2166666666667</ele><time>2023-02-04T03:33:34Z</time></trkpt><trkpt lat="35.8661455" lon="139.294846"><ele>190.16333333333333</ele><time>2023-02-04T03:34:07Z</time></trkpt><trkpt lat="35.8662551" lon="139.2950231"><ele>197.05333333333337</ele><time>2023-02-04T03:34:42Z</time></trkpt><trkpt lat="35.8663706" lon="139.2951991"><ele>200.16333333333333</ele><time>2023-02-04T03:35:03Z</time></trkpt><trkpt lat="35.8664108" lon="139.2954164"><ele>202.25333333333333</ele><time>2023-02-04T03:35:17Z</time></trkpt><trkpt lat="35.8664499" lon="139.2956329"><ele>204.92666666666665</ele><time>2023-02-04T03:35:33Z</time></trkpt><trkpt lat="35.8665194" lon="139.2958392"><ele>209.10999999999999</ele><time>2023-02-04T03:36:43Z</time></trkpt><trkpt lat="35.866538" lon="139.2960608"><ele>214.35666666666668</ele><time>2023-02-04T03:37:16Z</time></trkpt><trkpt lat="35.8665291" lon="139.2962854"><ele>219.73666666666668</ele><time>2023-02-04T03:37:41Z</time></trkpt><trkpt lat="35.8665835" lon="139.2964989"><ele>223.52999999999997</ele><time>2023-02-04T03:38:34Z</time></trkpt><trkpt lat="35.8666497" lon="139.2967068"><ele>227.78666666666666</ele><time>2023-02-04T03:39:20Z</time></trkpt><trkpt lat="35.8667313" lon="139.2969221"><ele>232.96333333333334</ele><time>2023-02-04T03:39:49Z</time></trkpt><trkpt lat="35.8668589" lon="139.2970812"><ele>238.12333333333333</ele><time>2023-02-04T03:40:03Z</time></trkpt><trkpt lat="35.8670134" lon="139.2971957"><ele>240.01666666666665</ele><time>2023-02-04T03:40:21Z</time></trkpt><trkpt lat="35.8671748" lon="139.2973079"><ele>237.73333333333335</ele><time>2023-02-04T03:40:38Z</time></trkpt><trkpt lat="35.8673396" lon="139.2971889"><ele>236.03666666666666</ele><time>2023-02-04T03:41:00Z</time></trkpt><trkpt lat="35.8675078" lon="139.2972719"><ele>235.25333333333333</ele><time>2023-02-04T03:45:43Z</time></trkpt><trkpt lat="35.8677177" lon="139.2973554"><ele>238.60999999999999</ele><time>2023-02-04T03:46:13Z</time></trkpt><trkpt lat="35.8678372" lon="139.2975335"><ele>242.76</ele><time>2023-02-04T03:46:37Z</time></trkpt><trkpt lat="35.8679401" lon="139.2977198"><ele>251.42333333333332</ele><time>2023-02-04T03:47:39Z</time></trkpt><trkpt lat="35.8680456" lon="139.2979055"><ele>259.3966666666667</ele><time>2023-02-04T03:48:23Z</time></trkpt><trkpt lat="35.868219" lon="139.2979741"><ele>266.6666666666667</ele><time>2023-02-04T03:50:13Z</time></trkpt><trkpt lat="35.8681031" lon="139.2981526"><ele>268.0133333333333</ele><time>2023-02-04T03:50:55Z</time></trkpt><trkpt lat="35.868117" lon="139.2983995"><ele>263.3566666666667</ele><time>2023-02-04T03:52:40Z</time></trkpt><trkpt lat="35.8681258" lon="139.2986234"><ele>254.09666666666666</ele><time>2023-02-04T03:53:41Z</time></trkpt><trkpt lat="35.8682647" lon="139.2987755"><ele>244.72333333333333</ele><time>2023-02-04T03:53:56Z</time></trkpt><trkpt lat="35.8682677" lon="139.298997"><ele>237.27333333333334</ele><time>2023-02-04T03:54:43Z</time></trkpt><trkpt lat="35.8682319" lon="139.2992178"><ele>229.4433333333333</ele><time>2023-02-04T03:55:08Z</time></trkpt><trkpt lat="35.8683857" lon="139.299347"><ele>222.09</ele><time>2023-02-04T03:55:27Z</time></trkpt><trkpt lat="35.8684669" lon="139.2995477"><ele>217.0566666666667</ele><time>2023-02-04T03:55:38Z</time></trkpt><trkpt lat="35.8683679" lon="139.2997441"><ele>214.99</ele><time>2023-02-04T03:55:52Z</time></trkpt><trkpt lat="35.8682809" lon="139.2999563"><ele>213.27333333333334</ele><time>2023-02-04T03:56:10Z</time></trkpt><trkpt lat="35.8681209" lon="139.3000614"><ele>210.48333333333335</ele><time>2023-02-04T03:56:37Z</time></trkpt><trkpt lat="35.8681423" lon="139.3002859"><ele>208.55000000000004</ele><time>2023-02-04T03:56:45Z</time></trkpt><trkpt lat="35.8680895" lon="139.3005072"><ele>207.29666666666665</ele><time>2023-02-04T03:56:56Z</time></trkpt><trkpt lat="35.8680057" lon="139.3007042"><ele>207.34333333333333</ele><time>2023-02-04T03:57:08Z</time></trkpt><trkpt lat="35.8678526" lon="139.3008353"><ele>207.9666666666667</ele><time>2023-02-04T03:57:24Z</time></trkpt><trkpt lat="35.8676666" lon="139.3009265"><ele>206.69000000000003</ele><time>2023-02-04T03:57:39Z</time></trkpt><trkpt lat="35.867575" lon="139.3011305"><ele>205.79</ele><time>2023-02-04T03:57:52Z</time></trkpt><trkpt lat="35.867431" lon="139.3012651"><ele>204.89666666666668</ele><time>2023-02-04T03:58:07Z</time></trkpt><trkpt lat="35.8672609" lon="139.3013604"><ele>205.40666666666667</ele><time>2023-02-04T03:58:23Z</time></trkpt><trkpt lat="35.867085" lon="139.3014397"><ele>205.24</ele><time>2023-02-04T03:58:36Z</time></trkpt><trkpt lat="35.8670834" lon="139.3017379"><ele>203.9766666666667</ele><time>2023-02-04T03:58:45Z</time></trkpt><trkpt lat="35.8669505" lon="139.3019058"><ele>203.5466666666667</ele><time>2023-02-04T03:59:03Z</time></trkpt><trkpt lat="35.8669329" lon="139.302128"><ele>202.76333333333335</ele><time>2023-02-04T03:59:20Z</time></trkpt><trkpt lat="35.8669886" lon="139.3023548"><ele>201.88666666666668</ele><time>2023-02-04T03:59:37Z</time></trkpt><trkpt lat="35.8668043" lon="139.3024627"><ele>201.20666666666668</ele><time>2023-02-04T03:59:42Z</time></trkpt><trkpt lat="35.8665996" lon="139.3025075"><ele>197.54666666666665</ele><time>2023-02-04T03:59:52Z</time></trkpt><trkpt lat="35.8664882" lon="139.3026908"><ele>194.4</ele><time>2023-02-04T04:00:08Z</time></trkpt><trkpt lat="35.8664337" lon="139.3029055"><ele>191.7266666666667</ele><time>2023-02-04T04:00:23Z</time></trkpt><trkpt lat="35.8660957" lon="139.3027836"><ele>190.86666666666667</ele><time>2023-02-04T04:00:36Z</time></trkpt><trkpt lat="35.8659448" lon="139.3029126"><ele>189.75</ele><time>2023-02-04T04:01:04Z</time></trkpt><trkpt lat="35.8658839" lon="139.3031333"><ele>186.76333333333332</ele><time>2023-02-04T04:01:22Z</time></trkpt><trkpt lat="35.8658637" lon="139.3033636"><ele>185.64333333333335</ele><time>2023-02-04T04:01:30Z</time></trkpt><trkpt lat="35.8657763" lon="139.3035759"><ele>187.28333333333333</ele><time>2023-02-04T04:01:36Z</time></trkpt><trkpt lat="35.8656409" lon="139.3037366"><ele>188.99333333333334</ele><time>2023-02-04T04:01:55Z</time></trkpt><trkpt lat="35.8654858" lon="139.3038684"><ele>189.15333333333334</ele><time>2023-02-04T04:02:12Z</time></trkpt><trkpt lat="35.8653462" lon="139.3040095"><ele>186.12666666666667</ele><time>2023-02-04T04:02:27Z</time></trkpt><trkpt lat="35.865244" lon="139.3041974"><ele>182.63333333333333</ele><time>2023-02-04T04:02:40Z</time></trkpt><trkpt lat="35.8651216" lon="139.3043729"><ele>178.53666666666666</ele><time>2023-02-04T04:02:53Z</time></trkpt><trkpt lat="35.8650833" lon="139.3045934"><ele>175.52</ele><time>2023-02-04T04:03:30Z</time></trkpt><trkpt lat="35.864985" lon="139.3047905"><ele>172.82333333333335</ele><time>2023-02-04T04:03:52Z</time></trkpt><trkpt lat="35.8648763" lon="139.3049729"><ele>170.76333333333332</ele><time>2023-02-04T04:04:06Z</time></trkpt><trkpt lat="35.8647601" lon="139.3051451"><ele>167.19000000000003</ele><time>2023-02-04T04:04:27Z</time></trkpt><trkpt lat="35.8646805" lon="139.3053519"><ele>163.93333333333334</ele><time>2023-02-04T04:04:36Z</time></trkpt><trkpt lat="35.8645791" lon="139.3055384"><ele>159.70333333333335</ele><time>2023-02-04T04:04:49Z</time></trkpt><trkpt lat="35.8645174" lon="139.3057481"><ele>155.11</ele><time>2023-02-04T04:05:13Z</time></trkpt><trkpt lat="35.8645644" lon="139.3059724"><ele>149.23000000000002</ele><time>2023-02-04T04:05:25Z</time></trkpt><trkpt lat="35.8644912" lon="139.3061825"><ele>144.52</ele><time>2023-02-04T04:06:03Z</time></trkpt><trkpt lat="35.8644311" lon="139.3063928"><ele>141.29666666666665</ele><time>2023-02-04T04:06:38Z</time></trkpt><trkpt lat="35.8642794" lon="139.3065202"><ele>140.91333333333333</ele><time>2023-02-04T04:06:50Z</time></trkpt><trkpt lat="35.8641809" lon="139.3067075"><ele>140.68666666666667</ele><time>2023-02-04T04:07:02Z</time></trkpt><trkpt lat="35.8640907" lon="139.3069155"><ele>140.40333333333334</ele><time>2023-02-04T04:07:28Z</time></trkpt><trkpt lat="35.8638874" lon="139.3069529"><ele>139.08333333333334</ele><time>2023-02-04T04:07:37Z</time></trkpt><trkpt lat="35.8637086" lon="139.3069099"><ele>138.38</ele><time>2023-02-04T04:08:00Z</time></trkpt><trkpt lat="35.8635299" lon="139.306848"><ele>137.78666666666666</ele><time>2023-02-04T04:08:13Z</time></trkpt><trkpt lat="35.8633464" lon="139.306812"><ele>136.87</ele><time>2023-02-04T04:08:23Z</time></trkpt><trkpt lat="35.8631624" lon="139.3068123"><ele>136.62</ele><time>2023-02-04T04:08:36Z</time></trkpt><trkpt lat="35.8629898" lon="139.3067422"><ele>135.90333333333334</ele><time>2023-02-04T04:08:47Z</time></trkpt><trkpt lat="35.8628303" lon="139.3066317"><ele>134.29666666666668</ele><time>2023-02-04T04:08:57Z</time></trkpt><trkpt lat="35.8626839" lon="139.3067809"><ele>132.24666666666667</ele><time>2023-02-04T04:10:00Z</time></trkpt><trkpt lat="35.8625096" lon="139.3068396"><ele>130.78666666666666</ele><time>2023-02-04T04:10:11Z</time></trkpt><trkpt lat="35.8623358" lon="139.3069074"><ele>130.98666666666668</ele><time>2023-02-04T04:10:28Z</time></trkpt><trkpt lat="35.8621434" lon="139.3068776"><ele>130.33333333333334</ele><time>2023-02-04T04:10:44Z</time></trkpt><trkpt lat="35.8619662" lon="139.3067916"><ele>129.65666666666667</ele><time>2023-02-04T04:11:16Z</time></trkpt><trkpt lat="35.8617831" lon="139.3068106"><ele>128.4</ele><time>2023-02-04T04:11:26Z</time></trkpt><trkpt lat="35.8616078" lon="139.3068961"><ele>127.60666666666668</ele><time>2023-02-04T04:11:39Z</time></trkpt><trkpt lat="35.8614595" lon="139.307035"><ele>127.74333333333334</ele><time>2023-02-04T04:11:53Z</time></trkpt><trkpt lat="35.8612655" lon="139.3070585"><ele>127.14666666666666</ele><time>2023-02-04T04:12:06Z</time></trkpt><trkpt lat="35.8610936" lon="139.3071447"><ele>126.86</ele><time>2023-02-04T04:12:20Z</time></trkpt><trkpt lat="35.8610295" lon="139.3073543"><ele>126.11666666666667</ele><time>2023-02-04T04:12:29Z</time></trkpt><trkpt lat="35.8609924" lon="139.307574"><ele>126.57333333333334</ele><time>2023-02-04T04:12:38Z</time></trkpt><trkpt lat="35.8609569" lon="139.3077982"><ele>127.86333333333334</ele><time>2023-02-04T04:12:46Z</time></trkpt><trkpt lat="35.8608286" lon="139.3079545"><ele>128.28666666666666</ele><time>2023-02-04T04:13:03Z</time></trkpt><trkpt lat="35.860675" lon="139.308085"><ele>127.83666666666666</ele><time>2023-02-04T04:13:15Z</time></trkpt><trkpt lat="35.8605089" lon="139.3081874"><ele>125.94333333333334</ele><time>2023-02-04T04:13:27Z</time></trkpt><trkpt lat="35.8603127" lon="139.3082232"><ele>123.48000000000002</ele><time>2023-02-04T04:13:46Z</time></trkpt><trkpt lat="35.8601642" lon="139.3083495"><ele>121.38333333333333</ele><time>2023-02-04T04:13:58Z</time></trkpt><trkpt lat="35.8600862" lon="139.3085605"><ele>120.48333333333335</ele><time>2023-02-04T04:14:08Z</time></trkpt><trkpt lat="35.8599442" lon="139.3087018"><ele>120.02333333333335</ele><time>2023-02-04T04:14:22Z</time></trkpt><trkpt lat="35.8598193" lon="139.3088672"><ele>118.80666666666667</ele><time>2023-02-04T04:14:37Z</time></trkpt><trkpt lat="35.8597354" lon="139.3090692"><ele>116.83666666666666</ele><time>2023-02-04T04:14:50Z</time></trkpt><trkpt lat="35.8596612" lon="139.309277"><ele>115.75</ele><time>2023-02-04T04:15:01Z</time></trkpt><trkpt lat="35.8595319" lon="139.3094355"><ele>115.17</ele><time>2023-02-04T04:15:11Z</time></trkpt><trkpt lat="35.8593712" lon="139.3095363"><ele>114.69</ele><time>2023-02-04T04:15:26Z</time></trkpt><trkpt lat="35.8593567" lon="139.3097816"><ele>114.99666666666667</ele><time>2023-02-04T04:15:39Z</time></trkpt><trkpt lat="35.8593484" lon="139.3100123"><ele>115.81666666666666</ele><time>2023-02-04T04:15:50Z</time></trkpt><trkpt lat="35.8593331" lon="139.3102391"><ele>116.96</ele><time>2023-02-04T04:16:24Z</time></trkpt><trkpt lat="35.8593102" lon="139.3104746"><ele>117.44</ele><time>2023-02-04T04:16:46Z</time></trkpt><trkpt lat="35.859347" lon="139.310698"><ele>118.12</ele><time>2023-02-04T04:16:56Z</time></trkpt><trkpt lat="35.8593596" lon="139.3109318"><ele>118.45333333333333</ele><time>2023-02-04T04:17:08Z</time></trkpt><trkpt lat="35.859319" lon="139.3111724"><ele>117.90666666666668</ele><time>2023-02-04T04:17:21Z</time></trkpt><trkpt lat="35.8594195" lon="139.311357"><ele>117.25</ele><time>2023-02-04T04:17:36Z</time></trkpt><trkpt lat="35.8593871" lon="139.3115877"><ele>116.55</ele><time>2023-02-04T04:17:57Z</time></trkpt><trkpt lat="35.8592513" lon="139.3117513"><ele>116.16666666666667</ele><time>2023-02-04T04:18:08Z</time></trkpt><trkpt lat="35.8592853" lon="139.3119717"><ele>115.96</ele><time>2023-02-04T04:18:23Z</time></trkpt><trkpt lat="35.8593833" lon="139.3121679"><ele>116.23333333333333</ele><time>2023-02-04T04:18:32Z</time></trkpt><trkpt lat="35.859303" lon="139.3123727"><ele>116.93333333333334</ele><time>2023-02-04T04:18:43Z</time></trkpt><trkpt lat="35.8592536" lon="139.3125895"><ele>117.58333333333333</ele><time>2023-02-04T04:18:56Z</time></trkpt><trkpt lat="35.85922" lon="139.3128354"><ele>117.97333333333334</ele><time>2023-02-04T04:19:09Z</time></trkpt><trkpt lat="35.859037" lon="139.312913"><ele>117.96333333333332</ele><time>2023-02-04T04:20:15Z</time></trkpt><trkpt lat="35.8588511" lon="139.3129204"><ele>117.50666666666666</ele><time>2023-02-04T04:20:24Z</time></trkpt><trkpt lat="35.8586825" lon="139.3130573"><ele>116.88</ele><time>2023-02-04T04:20:41Z</time></trkpt><trkpt lat="35.8585052" lon="139.3129858"><ele>116.25333333333333</ele><time>2023-02-04T04:20:51Z</time></trkpt><trkpt lat="35.858297" lon="139.3129189"><ele>115.63666666666667</ele><time>2023-02-04T04:21:02Z</time></trkpt><trkpt lat="35.858125" lon="139.3128393"><ele>114.95333333333333</ele><time>2023-02-04T04:21:19Z</time></trkpt><trkpt lat="35.8580829" lon="139.3130571"><ele>114.41333333333334</ele><time>2023-02-04T04:21:22Z</time></trkpt><trkpt lat="35.8579195" lon="139.3131619"><ele>114.05333333333334</ele><time>2023-02-04T04:21:32Z</time></trkpt><trkpt lat="35.8577362" lon="139.3131852"><ele>113.76333333333334</ele><time>2023-02-04T04:21:48Z</time></trkpt><trkpt lat="35.8576109" lon="139.3133463"><ele>113.42666666666666</ele><time>2023-02-04T04:21:56Z</time></trkpt><trkpt lat="35.8574596" lon="139.313485"><ele>113.05666666666667</ele><time>2023-02-04T04:22:07Z</time></trkpt><trkpt lat="35.8572706" lon="139.3135556"><ele>112.79</ele><time>2023-02-04T04:22:20Z</time></trkpt><trkpt lat="35.8570914" lon="139.3136263"><ele>112.52333333333335</ele><time>2023-02-04T04:22:29Z</time></trkpt><trkpt lat="35.8569025" lon="139.3136264"><ele>112.20666666666666</ele><time>2023-02-04T04:22:46Z</time></trkpt><trkpt lat="35.8567274" lon="139.3137157"><ele>111.86</ele><time>2023-02-04T04:22:59Z</time></trkpt><trkpt lat="35.8565434" lon="139.3136706"><ele>111.50666666666666</ele><time>2023-02-04T04:23:12Z</time></trkpt><trkpt lat="35.8563481" lon="139.3136839"><ele>111.16333333333334</ele><time>2023-02-04T04:23:23Z</time></trkpt><trkpt lat="35.8561666" lon="139.3136784"><ele>110.8</ele><time>2023-02-04T04:23:34Z</time></trkpt><trkpt lat="35.8559789" lon="139.3137085"><ele>110.43333333333334</ele><time>2023-02-04T04:23:46Z</time></trkpt><trkpt lat="35.8557967" lon="139.3136995"><ele>109.74000000000001</ele><time>2023-02-04T04:23:58Z</time></trkpt><trkpt lat="35.855617" lon="139.3136359"><ele>108.91333333333334</ele><time>2023-02-04T04:24:10Z</time></trkpt><trkpt lat="35.855439" lon="139.3135864"><ele>107.87666666666667</ele><time>2023-02-04T04:24:22Z</time></trkpt><trkpt lat="35.8552722" lon="139.313699"><ele>107.55666666666667</ele><time>2023-02-04T04:24:33Z</time></trkpt><trkpt lat="35.855205" lon="139.3139076"><ele>107.42</ele><time>2023-02-04T04:24:43Z</time></trkpt><trkpt lat="35.8551238" lon="139.3141202"><ele>107.31666666666666</ele><time>2023-02-04T04:24:59Z</time></trkpt><trkpt lat="35.8550249" lon="139.3143073"><ele>106.92333333333333</ele><time>2023-02-04T04:25:08Z</time></trkpt><trkpt lat="35.8550108" lon="139.3145403"><ele>107.06666666666666</ele><time>2023-02-04T04:25:18Z</time></trkpt><trkpt lat="35.8549104" lon="139.31473"><ele>107.74666666666667</ele><time>2023-02-04T04:25:29Z</time></trkpt><trkpt lat="35.8548364" lon="139.3149373"><ele>108.58666666666666</ele><time>2023-02-04T04:25:47Z</time></trkpt><trkpt lat="35.8546873" lon="139.3150816"><ele>108.99000000000001</ele><time>2023-02-04T04:26:00Z</time></trkpt><trkpt lat="35.8545735" lon="139.3152815"><ele>109.43333333333334</ele><time>2023-02-04T04:26:10Z</time></trkpt><trkpt lat="35.8544396" lon="139.3154407"><ele>109.79666666666668</ele><time>2023-02-04T04:26:23Z</time></trkpt><trkpt lat="35.8543579" lon="139.3156507"><ele>110.12666666666667</ele><time>2023-02-04T04:26:39Z</time></trkpt><trkpt lat="35.8543698" lon="139.3158795"><ele>110.22000000000001</ele><time>2023-02-04T04:26:54Z</time></trkpt><trkpt lat="35.8542459" lon="139.3160693"><ele>110.18333333333334</ele><time>2023-02-04T04:27:10Z</time></trkpt><trkpt lat="35.8540716" lon="139.3161299"><ele>110.08333333333333</ele><time>2023-02-04T04:27:35Z</time></trkpt><trkpt lat="35.853913" lon="139.3160119"><ele>109.84666666666668</ele><time>2023-02-04T04:27:46Z</time></trkpt><trkpt lat="35.8537353" lon="139.3159676"><ele>109.61000000000001</ele><time>2023-02-04T04:27:58Z</time></trkpt><trkpt lat="35.8536187" lon="139.3157896"><ele>109.34666666666668</ele><time>2023-02-04T04:28:13Z</time></trkpt><trkpt lat="35.8535001" lon="139.3156099"><ele>109.04</ele><time>2023-02-04T04:28:25Z</time></trkpt><trkpt lat="35.8533229" lon="139.3155019"><ele>108.67333333333333</ele><time>2023-02-04T04:28:36Z</time></trkpt><trkpt lat="35.8532403" lon="139.3152973"><ele>108.21999999999998</ele><time>2023-02-04T04:28:47Z</time></trkpt><trkpt lat="35.8530636" lon="139.3153638"><ele>107.82333333333334</ele><time>2023-02-04T04:29:05Z</time></trkpt><trkpt lat="35.8529197" lon="139.3155128"><ele>107.56333333333333</ele><time>2023-02-04T04:29:13Z</time></trkpt><trkpt lat="35.8529383" lon="139.3157344"><ele>107.49000000000001</ele><time>2023-02-04T04:29:26Z</time></trkpt><trkpt lat="35.852947" lon="139.3159724"><ele>107.44666666666667</ele><time>2023-02-04T04:29:37Z</time></trkpt><trkpt lat="35.8529679" lon="139.3161961"><ele>107.38333333333333</ele><time>2023-02-04T04:29:47Z</time></trkpt><trkpt lat="35.8528145" lon="139.3163503"><ele>107.31333333333333</ele><time>2023-02-04T04:30:02Z</time></trkpt><trkpt lat="35.8526193" lon="139.3163469"><ele>107.20666666666666</ele><time>2023-02-04T04:30:14Z</time></trkpt><trkpt lat="35.8524201" lon="139.3163744"><ele>107.0</ele><time>2023-02-04T04:30:21Z</time></trkpt><trkpt lat="35.852262" lon="139.3164931"><ele>106.72666666666667</ele><time>2023-02-04T04:30:44Z</time></trkpt><trkpt lat="35.8521954" lon="139.316706"><ele>106.55333333333333</ele><time>2023-02-04T04:30:58Z</time></trkpt><trkpt lat="35.8521484" lon="139.3169204"><ele>106.47333333333334</ele><time>2023-02-04T04:31:10Z</time></trkpt><trkpt lat="35.8520065" lon="139.3170725"><ele>106.38</ele><time>2023-02-04T04:31:27Z</time></trkpt><trkpt lat="35.8519167" lon="139.3172854"><ele>106.24666666666667</ele><time>2023-02-04T04:31:45Z</time></trkpt><trkpt lat="35.8518756" lon="139.3175047"><ele>106.10000000000001</ele><time>2023-02-04T04:31:51Z</time></trkpt><trkpt lat="35.8517935" lon="139.3177054"><ele>105.98666666666668</ele><time>2023-02-04T04:32:02Z</time></trkpt><trkpt lat="35.8517135" lon="139.3179281"><ele>105.89666666666666</ele><time>2023-02-04T04:32:14Z</time></trkpt><trkpt lat="35.8516722" lon="139.3181511"><ele>105.83666666666666</ele><time>2023-02-04T04:32:27Z</time></trkpt><trkpt lat="35.8516333" lon="139.318372"><ele>105.82</ele><time>2023-02-04T04:32:42Z</time></trkpt><trkpt lat="35.8515664" lon="139.3185804"><ele>105.8</ele><time>2023-02-04T04:32:52Z</time></trkpt><trkpt lat="35.8515386" lon="139.3187994"><ele>105.77333333333333</ele><time>2023-02-04T04:33:04Z</time></trkpt><trkpt lat="35.8514882" lon="139.3190191"><ele>105.71666666666665</ele><time>2023-02-04T04:33:15Z</time></trkpt><trkpt lat="35.8514332" lon="139.3192409"><ele>105.69</ele><time>2023-02-04T04:33:30Z</time></trkpt><trkpt lat="35.8513162" lon="139.3194222"><ele>105.66000000000001</ele><time>2023-02-04T04:33:44Z</time></trkpt></trkseg></trk></gpx>