<?xml version='1.0' encoding='UTF-8'?><gpx creator="YAMAP - https://yamap.com" xsi:schemaLocation="http://www.topografix.com/GPX/1/1 http://www.topografix.com/GPX/1/1/gpx.xsd" version="1.1" xmlns="http://www.topografix.com/GPX/1/1" xmlns:xsi="http://www.w3.org/2001/XMLSchema-instance"><metadata><bounds maxlat="35.7033976" maxlon="139.1534156" minlat="35.6514482" minlon="139.1087126"/></metadata><trk><name>上川乗バス停から生藤山</name><number>1</number><trkseg><trkpt lat="35.7033976" lon="139.1129153"><ele>410.0189708304307</ele><time>2024-03-16T23:48:35Z</time></trkpt><trkpt lat="35.7032779" lon="139.1126776"><ele>410.01845426442384</ele><time>2024-03-16T23:49:29Z</time></trkpt><trkpt lat="35.7031291" lon="139.1125088"><ele>410.7514013944157</ele><time>2024-03-16T23:49:44Z</time></trkpt><trkpt lat="35.7030271" lon="139.1122989"><ele>411.2172046533333</ele><time>2024-03-16T23:49:56Z</time></trkpt><trkpt lat="35.7029123" lon="139.1120902"><ele>411.94971406197516</ele><time>2024-03-16T23:50:08Z</time></trkpt><trkpt lat="35.7027771" lon="139.1119173"><ele>412.0155475732781</ele><time>2024-03-16T23:50:20Z</time></trkpt><trkpt lat="35.7025947" lon="139.1118521"><ele>412.44833766579404</ele><time>2024-03-16T23:50:32Z</time></trkpt><trkpt lat="35.7023885" lon="139.1117791"><ele>412.5480933703284</ele><time>2024-03-16T23:50:47Z</time></trkpt><trkpt lat="35.7022078" lon="139.1117222"><ele>412.7480736460661</ele><time>2024-03-16T23:51:02Z</time></trkpt><trkpt lat="35.7020218" lon="139.1116624"><ele>412.748061453178</ele><time>2024-03-16T23:51:14Z</time></trkpt><trkpt lat="35.7018384" lon="139.111621"><ele>415.2480907421561</ele><time>2024-03-16T23:51:27Z</time></trkpt><trkpt lat="35.7016765" lon="139.1114827"><ele>415.24796126989526</ele><time>2024-03-16T23:51:44Z</time></trkpt><trkpt lat="35.701555" lon="139.1113021"><ele>417.6809152407109</ele><time>2024-03-16T23:51:59Z</time></trkpt><trkpt lat="35.701521" lon="139.1110674"><ele>417.68009593945857</ele><time>2024-03-16T23:52:05Z</time></trkpt><trkpt lat="35.7015324" lon="139.1108394"><ele>418.1456813439957</ele><time>2024-03-16T23:52:13Z</time></trkpt><trkpt lat="35.7013688" lon="139.1107214"><ele>418.2647197557471</ele><time>2024-03-16T23:52:28Z</time></trkpt><trkpt lat="35.7012158" lon="139.1105922"><ele>418.2640257685329</ele><time>2024-03-16T23:52:41Z</time></trkpt><trkpt lat="35.7010311" lon="139.1106231"><ele>420.1305726701402</ele><time>2024-03-16T23:52:51Z</time></trkpt><trkpt lat="35.7009873" lon="139.1108438"><ele>420.0110155997907</ele><time>2024-03-16T23:53:05Z</time></trkpt><trkpt lat="35.7010566" lon="139.11105"><ele>420.0119324861455</ele><time>2024-03-16T23:53:19Z</time></trkpt><trkpt lat="35.7011424" lon="139.1112464"><ele>422.82431375950455</ele><time>2024-03-16T23:53:31Z</time></trkpt><trkpt lat="35.7012051" lon="139.1114606"><ele>422.82531390180634</ele><time>2024-03-16T23:53:44Z</time></trkpt><trkpt lat="35.7012637" lon="139.1116742"><ele>422.82633093093483</ele><time>2024-03-16T23:53:56Z</time></trkpt><trkpt lat="35.7011843" lon="139.1118771"><ele>420.01614159669333</ele><time>2024-03-16T23:54:08Z</time></trkpt><trkpt lat="35.7010012" lon="139.1118399"><ele>420.0169455194448</ele><time>2024-03-16T23:54:23Z</time></trkpt><trkpt lat="35.700874" lon="139.1116619"><ele>420.0171436040891</ele><time>2024-03-16T23:54:39Z</time></trkpt><trkpt lat="35.7008276" lon="139.1114239"><ele>420.0165210198123</ele><time>2024-03-16T23:54:50Z</time></trkpt><trkpt lat="35.7006819" lon="139.1112877"><ele>420.01569379511153</ele><time>2024-03-16T23:55:05Z</time></trkpt><trkpt lat="35.7005863" lon="139.1110888"><ele>426.3891867035191</ele><time>2024-03-16T23:55:45Z</time></trkpt><trkpt lat="35.7004045" lon="139.1111576"><ele>426.38893403298954</ele><time>2024-03-16T23:56:08Z</time></trkpt><trkpt lat="35.700247" lon="139.1112872"><ele>437.84464911984827</ele><time>2024-03-16T23:56:31Z</time></trkpt><trkpt lat="35.700085" lon="139.1113863"><ele>447.20948688462136</ele><time>2024-03-16T23:57:38Z</time></trkpt><trkpt lat="35.6999111" lon="139.1114536"><ele>467.24789742559705</ele><time>2024-03-16T23:58:29Z</time></trkpt><trkpt lat="35.699887" lon="139.1112234"><ele>475.05439483129527</ele><time>2024-03-16T23:59:23Z</time></trkpt><trkpt lat="35.6999174" lon="139.1109979"><ele>479.3623681338986</ele><time>2024-03-17T00:00:15Z</time></trkpt><trkpt lat="35.699754" lon="139.1110924"><ele>481.775351015006</ele><time>2024-03-17T00:00:56Z</time></trkpt><trkpt lat="35.6996108" lon="139.1112343"><ele>489.4396971750448</ele><time>2024-03-17T00:01:52Z</time></trkpt><trkpt lat="35.6994605" lon="139.1110933"><ele>496.5259557153997</ele><time>2024-03-17T00:03:08Z</time></trkpt><trkpt lat="35.6992958" lon="139.1110034"><ele>501.2919867751498</ele><time>2024-03-17T00:03:24Z</time></trkpt><trkpt lat="35.6991299" lon="139.1108832"><ele>501.5950938964217</ele><time>2024-03-17T00:03:39Z</time></trkpt><trkpt lat="35.6990579" lon="139.1106684"><ele>504.4279391972112</ele><time>2024-03-17T00:03:57Z</time></trkpt><trkpt lat="35.699332" lon="139.1111323"><ele>507.55699163485406</ele><time>2024-03-17T00:03:59Z</time></trkpt><trkpt lat="35.6992387" lon="139.1109407"><ele>517.9653856367584</ele><time>2024-03-17T00:06:35Z</time></trkpt><trkpt lat="35.6992176" lon="139.1107205"><ele>528.9694148657371</ele><time>2024-03-17T00:07:30Z</time></trkpt><trkpt lat="35.6990366" lon="139.1106783"><ele>544.4252952684684</ele><time>2024-03-17T00:08:20Z</time></trkpt><trkpt lat="35.6989973" lon="139.1104571"><ele>555.6150669831666</ele><time>2024-03-17T00:09:56Z</time></trkpt><trkpt lat="35.698942" lon="139.110231"><ele>565.1468784694372</ele><time>2024-03-17T00:10:46Z</time></trkpt><trkpt lat="35.6987614" lon="139.11023"><ele>573.3362353276144</ele><time>2024-03-17T00:11:30Z</time></trkpt><trkpt lat="35.6985796" lon="139.110227"><ele>578.8863597984176</ele><time>2024-03-17T00:12:16Z</time></trkpt><trkpt lat="35.6983936" lon="139.1101394"><ele>584.8901150862474</ele><time>2024-03-17T00:13:43Z</time></trkpt><trkpt lat="35.6985692" lon="139.1100835"><ele>589.2490750745504</ele><time>2024-03-17T00:14:01Z</time></trkpt><trkpt lat="35.6983966" lon="139.1100185"><ele>595.3159217982642</ele><time>2024-03-17T00:15:05Z</time></trkpt><trkpt lat="35.6982094" lon="139.1100182"><ele>604.3861068285796</ele><time>2024-03-17T00:15:33Z</time></trkpt><trkpt lat="35.698027" lon="139.1100582"><ele>610.8226002019793</ele><time>2024-03-17T00:16:02Z</time></trkpt><trkpt lat="35.6978461" lon="139.1100555"><ele>617.3545916223356</ele><time>2024-03-17T00:17:00Z</time></trkpt><trkpt lat="35.6976613" lon="139.110181"><ele>618.564923470855</ele><time>2024-03-17T00:17:33Z</time></trkpt><trkpt lat="35.6974851" lon="139.1102282"><ele>620.4849445321146</ele><time>2024-03-17T00:18:21Z</time></trkpt><trkpt lat="35.6973623" lon="139.1100458"><ele>626.1479693623663</ele><time>2024-03-17T00:20:27Z</time></trkpt><trkpt lat="35.6974147" lon="139.1098238"><ele>637.8578976956513</ele><time>2024-03-17T00:21:45Z</time></trkpt><trkpt lat="35.697523" lon="139.1096408"><ele>650.3964734757596</ele><time>2024-03-17T00:22:11Z</time></trkpt><trkpt lat="35.6976085" lon="139.1094458"><ele>657.9427699556944</ele><time>2024-03-17T00:22:46Z</time></trkpt><trkpt lat="35.6974327" lon="139.1093904"><ele>657.4940163146903</ele><time>2024-03-17T00:23:13Z</time></trkpt><trkpt lat="35.6972524" lon="139.1093999"><ele>658.9643026024128</ele><time>2024-03-17T00:23:48Z</time></trkpt><trkpt lat="35.6970795" lon="139.1094653"><ele>662.0928033353083</ele><time>2024-03-17T00:24:27Z</time></trkpt><trkpt lat="35.6969005" lon="139.1095155"><ele>668.5715653665247</ele><time>2024-03-17T00:24:59Z</time></trkpt><trkpt lat="35.6967201" lon="139.1095158"><ele>674.9270193428216</ele><time>2024-03-17T00:25:38Z</time></trkpt><trkpt lat="35.6965365" lon="139.1095133"><ele>678.4496233901772</ele><time>2024-03-17T00:26:03Z</time></trkpt><trkpt lat="35.696384" lon="139.10965"><ele>683.3886480470319</ele><time>2024-03-17T00:26:59Z</time></trkpt><trkpt lat="35.6962155" lon="139.1097553"><ele>685.8360530653808</ele><time>2024-03-17T00:27:34Z</time></trkpt><trkpt lat="35.6961013" lon="139.1099298"><ele>690.5891210743883</ele><time>2024-03-17T00:28:17Z</time></trkpt><trkpt lat="35.6959945" lon="139.1101213"><ele>696.212157471269</ele><time>2024-03-17T00:29:09Z</time></trkpt><trkpt lat="35.6958128" lon="139.1101921"><ele>703.1532491477905</ele><time>2024-03-17T00:30:10Z</time></trkpt><trkpt lat="35.6956537" lon="139.110083"><ele>707.5979115794839</ele><time>2024-03-17T00:30:35Z</time></trkpt><trkpt lat="35.6954736" lon="139.1101322"><ele>711.4199253302401</ele><time>2024-03-17T00:31:27Z</time></trkpt><trkpt lat="35.6953055" lon="139.1102387"><ele>715.3857642124536</ele><time>2024-03-17T00:31:51Z</time></trkpt><trkpt lat="35.6951426" lon="139.1103339"><ele>719.1703669010458</ele><time>2024-03-17T00:32:10Z</time></trkpt><trkpt lat="35.6949753" lon="139.1104219"><ele>721.592413906064</ele><time>2024-03-17T00:32:28Z</time></trkpt><trkpt lat="35.6947889" lon="139.1104427"><ele>724.4264495741694</ele><time>2024-03-17T00:33:03Z</time></trkpt><trkpt lat="35.69464" lon="139.110568"><ele>726.9811236911759</ele><time>2024-03-17T00:33:24Z</time></trkpt><trkpt lat="35.6944605" lon="139.110597"><ele>729.0742606506137</ele><time>2024-03-17T00:33:59Z</time></trkpt><trkpt lat="35.6942795" lon="139.1105803"><ele>730.9867391066126</ele><time>2024-03-17T00:34:20Z</time></trkpt><trkpt lat="35.6940987" lon="139.1105351"><ele>735.9727005025712</ele><time>2024-03-17T00:34:44Z</time></trkpt><trkpt lat="35.6939143" lon="139.1105749"><ele>740.4960391184372</ele><time>2024-03-17T00:35:11Z</time></trkpt><trkpt lat="35.693733" lon="139.110572"><ele>744.1498984942708</ele><time>2024-03-17T00:35:43Z</time></trkpt><trkpt lat="35.6935572" lon="139.1105067"><ele>746.5858192674001</ele><time>2024-03-17T00:36:03Z</time></trkpt><trkpt lat="35.6933787" lon="139.1105524"><ele>748.1045140759967</ele><time>2024-03-17T00:36:25Z</time></trkpt><trkpt lat="35.6932001" lon="139.1105082"><ele>751.5136674784866</ele><time>2024-03-17T00:36:51Z</time></trkpt><trkpt lat="35.6930201" lon="139.1104781"><ele>754.6657313290002</ele><time>2024-03-17T00:37:23Z</time></trkpt><trkpt lat="35.6928417" lon="139.1104442"><ele>756.6867560332956</ele><time>2024-03-17T00:38:02Z</time></trkpt><trkpt lat="35.6926668" lon="139.1103907"><ele>756.8931570496076</ele><time>2024-03-17T00:38:46Z</time></trkpt><trkpt lat="35.6924847" lon="139.1103634"><ele>759.98</ele><time>2024-03-17T00:39:17Z</time></trkpt><trkpt lat="35.6922985" lon="139.1103661"><ele>766.1266666666667</ele><time>2024-03-17T00:39:46Z</time></trkpt><trkpt lat="35.6921203" lon="139.1104163"><ele>772.0166666666668</ele><time>2024-03-17T00:40:10Z</time></trkpt><trkpt lat="35.6919235" lon="139.1104403"><ele>775.4500000000002</ele><time>2024-03-17T00:40:48Z</time></trkpt><trkpt lat="35.6917441" lon="139.110508"><ele>778.2833333333334</ele><time>2024-03-17T00:41:24Z</time></trkpt><trkpt lat="35.6915749" lon="139.1104036"><ele>781.98</ele><time>2024-03-17T00:42:05Z</time></trkpt><trkpt lat="35.6914262" lon="139.1102437"><ele>783.44</ele><time>2024-03-17T00:42:22Z</time></trkpt><trkpt lat="35.6912566" lon="139.110144"><ele>784.71</ele><time>2024-03-17T00:43:09Z</time></trkpt><trkpt lat="35.6910953" lon="139.1100396"><ele>786.0766666666668</ele><time>2024-03-17T00:43:25Z</time></trkpt><trkpt lat="35.6909248" lon="139.1099644"><ele>788.5566666666667</ele><time>2024-03-17T00:43:46Z</time></trkpt><trkpt lat="35.6907641" lon="139.10986"><ele>790.9766666666668</ele><time>2024-03-17T00:44:25Z</time></trkpt><trkpt lat="35.6905931" lon="139.109943"><ele>797.3233333333334</ele><time>2024-03-17T00:45:03Z</time></trkpt><trkpt lat="35.69043" lon="139.1098474"><ele>805.1133333333333</ele><time>2024-03-17T00:45:43Z</time></trkpt><trkpt lat="35.6902706" lon="139.1097188"><ele>815.2033333333333</ele><time>2024-03-17T00:46:14Z</time></trkpt><trkpt lat="35.6901522" lon="139.109552"><ele>821.7866666666665</ele><time>2024-03-17T00:46:38Z</time></trkpt><trkpt lat="35.6901077" lon="139.109334"><ele>827.5966666666667</ele><time>2024-03-17T00:47:26Z</time></trkpt><trkpt lat="35.6900273" lon="139.1091264"><ele>832.2666666666668</ele><time>2024-03-17T00:47:42Z</time></trkpt><trkpt lat="35.6899077" lon="139.1089546"><ele>833.68</ele><time>2024-03-17T00:47:58Z</time></trkpt><trkpt lat="35.6897429" lon="139.108856"><ele>832.3317768413705</ele><time>2024-03-17T00:48:16Z</time></trkpt><trkpt lat="35.6896007" lon="139.1087126"><ele>832.7962320021544</ele><time>2024-03-17T00:49:01Z</time></trkpt><trkpt lat="35.6894228" lon="139.1087717"><ele>833.5089812763931</ele><time>2024-03-17T00:49:40Z</time></trkpt><trkpt lat="35.6893312" lon="139.1089744"><ele>838.2372044350226</ele><time>2024-03-17T00:50:24Z</time></trkpt><trkpt lat="35.6892258" lon="139.10918"><ele>840.1127492742386</ele><time>2024-03-17T00:51:04Z</time></trkpt><trkpt lat="35.6890997" lon="139.1093511"><ele>843.5666666666666</ele><time>2024-03-17T00:51:32Z</time></trkpt><trkpt lat="35.6889845" lon="139.1095361"><ele>845.71</ele><time>2024-03-17T00:51:49Z</time></trkpt><trkpt lat="35.6888453" lon="139.1096839"><ele>846.0566666666667</ele><time>2024-03-17T00:52:28Z</time></trkpt><trkpt lat="35.6886664" lon="139.1097481"><ele>844.6700000000001</ele><time>2024-03-17T00:52:45Z</time></trkpt><trkpt lat="35.6885097" lon="139.1098588"><ele>844.6366666666667</ele><time>2024-03-17T00:53:01Z</time></trkpt><trkpt lat="35.6884798" lon="139.1100866"><ele>847.38</ele><time>2024-03-17T00:53:23Z</time></trkpt><trkpt lat="35.6885262" lon="139.1103017"><ele>850.3966666666666</ele><time>2024-03-17T00:53:40Z</time></trkpt><trkpt lat="35.6883512" lon="139.1103908"><ele>852.1833333333334</ele><time>2024-03-17T00:53:55Z</time></trkpt><trkpt lat="35.6883026" lon="139.1106206"><ele>855.0500000000001</ele><time>2024-03-17T00:54:21Z</time></trkpt><trkpt lat="35.6882467" lon="139.1108532"><ele>858.7599999999999</ele><time>2024-03-17T00:54:50Z</time></trkpt><trkpt lat="35.6880998" lon="139.110991"><ele>861.6733333333333</ele><time>2024-03-17T00:55:02Z</time></trkpt><trkpt lat="35.6880159" lon="139.1111881"><ele>859.07</ele><time>2024-03-17T00:55:25Z</time></trkpt><trkpt lat="35.6878697" lon="139.1110566"><ele>857.4866666666667</ele><time>2024-03-17T00:55:45Z</time></trkpt><trkpt lat="35.6876818" lon="139.1110506"><ele>855.0333333333333</ele><time>2024-03-17T00:56:06Z</time></trkpt><trkpt lat="35.6874943" lon="139.1109779"><ele>856.12</ele><time>2024-03-17T00:56:21Z</time></trkpt><trkpt lat="35.6873112" lon="139.1109528"><ele>855.1466666666666</ele><time>2024-03-17T00:56:40Z</time></trkpt><trkpt lat="35.6871455" lon="139.1110577"><ele>853.5300000000001</ele><time>2024-03-17T00:57:12Z</time></trkpt><trkpt lat="35.6869591" lon="139.1110884"><ele>850.8666666666667</ele><time>2024-03-17T00:57:26Z</time></trkpt><trkpt lat="35.686782" lon="139.1111377"><ele>847.5666666666666</ele><time>2024-03-17T00:57:37Z</time></trkpt><trkpt lat="35.6866094" lon="139.111209"><ele>845.2966666666667</ele><time>2024-03-17T00:57:53Z</time></trkpt><trkpt lat="35.6864604" lon="139.1113407"><ele>844.3033333333333</ele><time>2024-03-17T00:58:06Z</time></trkpt><trkpt lat="35.6863391" lon="139.1115144"><ele>846.3333333333334</ele><time>2024-03-17T00:58:21Z</time></trkpt><trkpt lat="35.6862245" lon="139.1116948"><ele>851.2199999999999</ele><time>2024-03-17T00:58:52Z</time></trkpt><trkpt lat="35.6860723" lon="139.1118255"><ele>856.52</ele><time>2024-03-17T00:59:35Z</time></trkpt><trkpt lat="35.6859305" lon="139.1119647"><ele>861.8299999999999</ele><time>2024-03-17T01:00:11Z</time></trkpt><trkpt lat="35.6858144" lon="139.1121661"><ele>866.69</ele><time>2024-03-17T01:00:42Z</time></trkpt><trkpt lat="35.6856643" lon="139.1122897"><ele>871.2133333333335</ele><time>2024-03-17T01:00:58Z</time></trkpt><trkpt lat="35.6855078" lon="139.1124255"><ele>874.0033333333334</ele><time>2024-03-17T01:01:14Z</time></trkpt><trkpt lat="35.685339" lon="139.1125159"><ele>874.0733333333334</ele><time>2024-03-17T01:01:28Z</time></trkpt><trkpt lat="35.6852067" lon="139.1126717"><ele>870.4666666666667</ele><time>2024-03-17T01:01:45Z</time></trkpt><trkpt lat="35.6850312" lon="139.112757"><ele>865.1066666666666</ele><time>2024-03-17T01:02:05Z</time></trkpt><trkpt lat="35.6848739" lon="139.1128849"><ele>857.6433333333333</ele><time>2024-03-17T01:03:15Z</time></trkpt><trkpt lat="35.6846802" lon="139.1128802"><ele>850.9033333333333</ele><time>2024-03-17T01:03:47Z</time></trkpt><trkpt lat="35.6845228" lon="139.1130203"><ele>843.5066666666667</ele><time>2024-03-17T01:04:03Z</time></trkpt><trkpt lat="35.6844156" lon="139.1132133"><ele>837.6300000000001</ele><time>2024-03-17T01:04:26Z</time></trkpt><trkpt lat="35.6843419" lon="139.1134361"><ele>835.2033333333334</ele><time>2024-03-17T01:04:45Z</time></trkpt><trkpt lat="35.6842274" lon="139.113631"><ele>837.1466666666666</ele><time>2024-03-17T01:05:03Z</time></trkpt><trkpt lat="35.6842181" lon="139.113852"><ele>841.6300000000001</ele><time>2024-03-17T01:05:19Z</time></trkpt><trkpt lat="35.6843039" lon="139.114048"><ele>848.0533333333333</ele><time>2024-03-17T01:05:34Z</time></trkpt><trkpt lat="35.6844102" lon="139.1142361"><ele>854.2033333333334</ele><time>2024-03-17T01:06:28Z</time></trkpt><trkpt lat="35.6843033" lon="139.1144244"><ele>860.7333333333335</ele><time>2024-03-17T01:07:45Z</time></trkpt><trkpt lat="35.6841906" lon="139.1146042"><ele>865.6466666666666</ele><time>2024-03-17T01:07:58Z</time></trkpt><trkpt lat="35.6840596" lon="139.114756"><ele>867.3733333333333</ele><time>2024-03-17T01:08:21Z</time></trkpt><trkpt lat="35.6839587" lon="139.1149417"><ele>866.6533333333333</ele><time>2024-03-17T01:08:44Z</time></trkpt><trkpt lat="35.6839559" lon="139.1151685"><ele>863.3666666666667</ele><time>2024-03-17T01:09:03Z</time></trkpt><trkpt lat="35.6838573" lon="139.1153589"><ele>859.96</ele><time>2024-03-17T01:09:19Z</time></trkpt><trkpt lat="35.6838137" lon="139.1155826"><ele>856.36</ele><time>2024-03-17T01:09:34Z</time></trkpt><trkpt lat="35.6837504" lon="139.1158024"><ele>854.2533333333332</ele><time>2024-03-17T01:09:54Z</time></trkpt><trkpt lat="35.6837773" lon="139.1160264"><ele>855.7600000000001</ele><time>2024-03-17T01:10:12Z</time></trkpt><trkpt lat="35.6837935" lon="139.1162587"><ele>858.61</ele><time>2024-03-17T01:10:34Z</time></trkpt><trkpt lat="35.6836826" lon="139.1164439"><ele>858.7566666666667</ele><time>2024-03-17T01:11:09Z</time></trkpt><trkpt lat="35.6835117" lon="139.1165528"><ele>853.8299999999999</ele><time>2024-03-17T01:11:34Z</time></trkpt><trkpt lat="35.6833908" lon="139.1167234"><ele>848.41</ele><time>2024-03-17T01:11:51Z</time></trkpt><trkpt lat="35.6832478" lon="139.1168716"><ele>842.8066666666667</ele><time>2024-03-17T01:12:22Z</time></trkpt><trkpt lat="35.683072" lon="139.1169477"><ele>838.6899999999999</ele><time>2024-03-17T01:12:36Z</time></trkpt><trkpt lat="35.6828806" lon="139.1169729"><ele>833.7800000000001</ele><time>2024-03-17T01:12:52Z</time></trkpt><trkpt lat="35.6828759" lon="139.1171948"><ele>830.8933333333334</ele><time>2024-03-17T01:13:13Z</time></trkpt><trkpt lat="35.6828191" lon="139.1174114"><ele>826.5600000000001</ele><time>2024-03-17T01:13:33Z</time></trkpt><trkpt lat="35.6827117" lon="139.1176002"><ele>823.5533333333333</ele><time>2024-03-17T01:13:45Z</time></trkpt><trkpt lat="35.682536" lon="139.1176868"><ele>822.0466666666667</ele><time>2024-03-17T01:14:05Z</time></trkpt><trkpt lat="35.6823887" lon="139.1178215"><ele>825.9866666666667</ele><time>2024-03-17T01:14:41Z</time></trkpt><trkpt lat="35.6822228" lon="139.1179432"><ele>830.9233333333335</ele><time>2024-03-17T01:15:30Z</time></trkpt><trkpt lat="35.6820715" lon="139.1180758"><ele>836.18</ele><time>2024-03-17T01:16:03Z</time></trkpt><trkpt lat="35.681928" lon="139.1182423"><ele>841.1733333333333</ele><time>2024-03-17T01:16:24Z</time></trkpt><trkpt lat="35.6818103" lon="139.1184262"><ele>847.4866666666667</ele><time>2024-03-17T01:16:39Z</time></trkpt><trkpt lat="35.6816423" lon="139.1185614"><ele>853.7666666666668</ele><time>2024-03-17T01:16:57Z</time></trkpt><trkpt lat="35.6814928" lon="139.1187004"><ele>858.14</ele><time>2024-03-17T01:17:15Z</time></trkpt><trkpt lat="35.6813425" lon="139.1188432"><ele>857.1033333333335</ele><time>2024-03-17T01:17:33Z</time></trkpt><trkpt lat="35.6811832" lon="139.1189525"><ele>852.0666666666667</ele><time>2024-03-17T01:17:48Z</time></trkpt><trkpt lat="35.681026" lon="139.1190609"><ele>846.2366666666667</ele><time>2024-03-17T01:18:04Z</time></trkpt><trkpt lat="35.6808288" lon="139.1190436"><ele>845.3266666666667</ele><time>2024-03-17T01:18:48Z</time></trkpt><trkpt lat="35.680641" lon="139.1190993"><ele>846.7733333333334</ele><time>2024-03-17T01:19:00Z</time></trkpt><trkpt lat="35.680474" lon="139.1191881"><ele>850.1633333333333</ele><time>2024-03-17T01:19:15Z</time></trkpt><trkpt lat="35.6802975" lon="139.1192767"><ele>852.7600000000001</ele><time>2024-03-17T01:20:00Z</time></trkpt><trkpt lat="35.6801502" lon="139.1194234"><ele>856.0233333333332</ele><time>2024-03-17T01:20:13Z</time></trkpt><trkpt lat="35.6800162" lon="139.1195782"><ele>858.3833333333333</ele><time>2024-03-17T01:20:27Z</time></trkpt><trkpt lat="35.6799454" lon="139.1197961"><ele>859.7033333333334</ele><time>2024-03-17T01:20:42Z</time></trkpt><trkpt lat="35.6799263" lon="139.1200162"><ele>861.0</ele><time>2024-03-17T01:21:04Z</time></trkpt><trkpt lat="35.6798292" lon="139.1202366"><ele>861.9966666666668</ele><time>2024-03-17T01:21:37Z</time></trkpt><trkpt lat="35.6796939" lon="139.120387"><ele>863.5066666666667</ele><time>2024-03-17T01:22:25Z</time></trkpt><trkpt lat="35.6795559" lon="139.1205326"><ele>865.7800000000001</ele><time>2024-03-17T01:23:10Z</time></trkpt><trkpt lat="35.6794184" lon="139.1206784"><ele>871.32</ele><time>2024-03-17T01:23:43Z</time></trkpt><trkpt lat="35.6792797" lon="139.1208224"><ele>878.21</ele><time>2024-03-17T01:24:15Z</time></trkpt><trkpt lat="35.6791838" lon="139.1210125"><ele>885.4333333333334</ele><time>2024-03-17T01:25:34Z</time></trkpt><trkpt lat="35.6791412" lon="139.1212299"><ele>891.9766666666666</ele><time>2024-03-17T01:26:51Z</time></trkpt><trkpt lat="35.6790342" lon="139.1214258"><ele>899.4</ele><time>2024-03-17T01:27:02Z</time></trkpt><trkpt lat="35.67894" lon="139.1216149"><ele>906.1533333333333</ele><time>2024-03-17T01:27:14Z</time></trkpt><trkpt lat="35.6788133" lon="139.1217881"><ele>911.3933333333334</ele><time>2024-03-17T01:27:55Z</time></trkpt><trkpt lat="35.6787066" lon="139.1219669"><ele>914.6333333333333</ele><time>2024-03-17T01:28:25Z</time></trkpt><trkpt lat="35.6785782" lon="139.1221243"><ele>918.2233333333334</ele><time>2024-03-17T01:29:25Z</time></trkpt><trkpt lat="35.6784399" lon="139.122269"><ele>921.7266666666666</ele><time>2024-03-17T01:29:47Z</time></trkpt><trkpt lat="35.6783116" lon="139.122442"><ele>924.9966666666668</ele><time>2024-03-17T01:30:03Z</time></trkpt><trkpt lat="35.6781607" lon="139.122586"><ele>927.6733333333333</ele><time>2024-03-17T01:30:21Z</time></trkpt><trkpt lat="35.6780294" lon="139.122745"><ele>930.6300000000001</ele><time>2024-03-17T01:30:45Z</time></trkpt><trkpt lat="35.6778532" lon="139.1228304"><ele>932.6233333333333</ele><time>2024-03-17T01:31:14Z</time></trkpt><trkpt lat="35.6776865" lon="139.1229519"><ele>934.2033333333334</ele><time>2024-03-17T01:31:34Z</time></trkpt><trkpt lat="35.6775353" lon="139.1230886"><ele>937.7033333333333</ele><time>2024-03-17T01:33:14Z</time></trkpt><trkpt lat="35.6773765" lon="139.123208"><ele>943.2933333333334</ele><time>2024-03-17T01:33:44Z</time></trkpt><trkpt lat="35.6772932" lon="139.1234047"><ele>948.8100000000001</ele><time>2024-03-17T01:33:54Z</time></trkpt><trkpt lat="35.6772471" lon="139.1236243"><ele>951.3166666666666</ele><time>2024-03-17T01:34:09Z</time></trkpt><trkpt lat="35.6772247" lon="139.123846"><ele>949.7433333333333</ele><time>2024-03-17T01:34:26Z</time></trkpt><trkpt lat="35.6773815" lon="139.1239613"><ele>949.9666666666667</ele><time>2024-03-17T01:34:39Z</time></trkpt><trkpt lat="35.6775356" lon="139.1241027"><ele>951.5033333333334</ele><time>2024-03-17T01:34:55Z</time></trkpt><trkpt lat="35.6776426" lon="139.124286"><ele>956.87</ele><time>2024-03-17T01:35:22Z</time></trkpt><trkpt lat="35.6776035" lon="139.124509"><ele>958.9900000000001</ele><time>2024-03-17T01:36:51Z</time></trkpt><trkpt lat="35.6774712" lon="139.1246603"><ele>955.9500000000002</ele><time>2024-03-17T01:37:39Z</time></trkpt><trkpt lat="35.6774748" lon="139.1248932"><ele>951.2533333333334</ele><time>2024-03-17T01:38:02Z</time></trkpt><trkpt lat="35.6773661" lon="139.1250814"><ele>944.6133333333333</ele><time>2024-03-17T01:38:33Z</time></trkpt><trkpt lat="35.6772499" lon="139.1252546"><ele>941.2133333333335</ele><time>2024-03-17T01:38:51Z</time></trkpt><trkpt lat="35.6771722" lon="139.1254571"><ele>936.4166666666666</ele><time>2024-03-17T01:39:09Z</time></trkpt><trkpt lat="35.6770725" lon="139.125648"><ele>933.1300000000001</ele><time>2024-03-17T01:39:28Z</time></trkpt><trkpt lat="35.6770088" lon="139.1258668"><ele>930.2933333333334</ele><time>2024-03-17T01:39:45Z</time></trkpt><trkpt lat="35.6769122" lon="139.1260572"><ele>931.2266666666668</ele><time>2024-03-17T01:40:05Z</time></trkpt><trkpt lat="35.6768869" lon="139.1262864"><ele>934.9766666666668</ele><time>2024-03-17T01:40:22Z</time></trkpt><trkpt lat="35.6768259" lon="139.1265011"><ele>942.1533333333333</ele><time>2024-03-17T01:41:27Z</time></trkpt><trkpt lat="35.6767019" lon="139.1266686"><ele>948.9366666666666</ele><time>2024-03-17T01:41:56Z</time></trkpt><trkpt lat="35.6766479" lon="139.1268899"><ele>957.2233333333334</ele><time>2024-03-17T01:42:59Z</time></trkpt><trkpt lat="35.6765156" lon="139.1270418"><ele>962.8433333333332</ele><time>2024-03-17T01:44:15Z</time></trkpt><trkpt lat="35.6763485" lon="139.1271487"><ele>964.29</ele><time>2024-03-17T01:44:45Z</time></trkpt><trkpt lat="35.676232" lon="139.1273244"><ele>959.5366666666665</ele><time>2024-03-17T01:45:09Z</time></trkpt><trkpt lat="35.6762159" lon="139.1275475"><ele>954.4866666666667</ele><time>2024-03-17T01:45:22Z</time></trkpt><trkpt lat="35.6761053" lon="139.1277409"><ele>950.19</ele><time>2024-03-17T01:45:36Z</time></trkpt><trkpt lat="35.6759664" lon="139.1278924"><ele>947.2366666666667</ele><time>2024-03-17T01:45:58Z</time></trkpt><trkpt lat="35.675782" lon="139.1279085"><ele>942.5400000000001</ele><time>2024-03-17T01:46:19Z</time></trkpt><trkpt lat="35.6757158" lon="139.1281149"><ele>940.9333333333334</ele><time>2024-03-17T01:46:40Z</time></trkpt><trkpt lat="35.6755626" lon="139.128235"><ele>942.3666666666668</ele><time>2024-03-17T01:47:08Z</time></trkpt><trkpt lat="35.6754403" lon="139.1284084"><ele>946.65</ele><time>2024-03-17T01:47:24Z</time></trkpt><trkpt lat="35.6752834" lon="139.1285299"><ele>948.9633333333335</ele><time>2024-03-17T01:47:44Z</time></trkpt><trkpt lat="35.6752057" lon="139.1287416"><ele>950.1033333333334</ele><time>2024-03-17T01:48:50Z</time></trkpt><trkpt lat="35.6750208" lon="139.1287737"><ele>947.1633333333333</ele><time>2024-03-17T01:49:46Z</time></trkpt><trkpt lat="35.6748455" lon="139.1288809"><ele>939.7733333333334</ele><time>2024-03-17T01:50:38Z</time></trkpt><trkpt lat="35.6746799" lon="139.1289729"><ele>931.0233333333334</ele><time>2024-03-17T01:50:57Z</time></trkpt><trkpt lat="35.674559" lon="139.1291447"><ele>924.7833333333333</ele><time>2024-03-17T01:51:15Z</time></trkpt><trkpt lat="35.6745126" lon="139.1293671"><ele>923.0033333333332</ele><time>2024-03-17T01:51:31Z</time></trkpt><trkpt lat="35.6743389" lon="139.1294339"><ele>922.4066666666666</ele><time>2024-03-17T01:51:45Z</time></trkpt><trkpt lat="35.6741508" lon="139.1294899"><ele>921.6966666666667</ele><time>2024-03-17T01:52:01Z</time></trkpt><trkpt lat="35.6739651" lon="139.1294618"><ele>919.4833333333332</ele><time>2024-03-17T01:52:19Z</time></trkpt><trkpt lat="35.6737734" lon="139.1293943"><ele>912.6866666666666</ele><time>2024-03-17T01:52:32Z</time></trkpt><trkpt lat="35.6736258" lon="139.1295306"><ele>908.7566666666667</ele><time>2024-03-17T01:52:47Z</time></trkpt><trkpt lat="35.6734707" lon="139.1296564"><ele>906.7066666666666</ele><time>2024-03-17T01:53:43Z</time></trkpt><trkpt lat="35.6733278" lon="139.1297965"><ele>911.81</ele><time>2024-03-17T01:54:43Z</time></trkpt><trkpt lat="35.6732371" lon="139.1300027"><ele>919.2999999999998</ele><time>2024-03-17T01:56:18Z</time></trkpt><trkpt lat="35.6731548" lon="139.1302081"><ele>929.4433333333333</ele><time>2024-03-17T01:57:34Z</time></trkpt><trkpt lat="35.6730151" lon="139.1303527"><ele>938.4233333333333</ele><time>2024-03-17T01:57:54Z</time></trkpt><trkpt lat="35.6728351" lon="139.1304152"><ele>942.12</ele><time>2024-03-17T01:58:17Z</time></trkpt><trkpt lat="35.672669" lon="139.1305101"><ele>943.9333333333334</ele><time>2024-03-17T01:58:38Z</time></trkpt><trkpt lat="35.6725307" lon="139.1306615"><ele>946.0833333333334</ele><time>2024-03-17T01:58:58Z</time></trkpt><trkpt lat="35.6723699" lon="139.1307668"><ele>948.9133333333334</ele><time>2024-03-17T01:59:14Z</time></trkpt><trkpt lat="35.6722067" lon="139.1308746"><ele>951.21</ele><time>2024-03-17T01:59:29Z</time></trkpt><trkpt lat="35.6720237" lon="139.1308781"><ele>952.8966666666666</ele><time>2024-03-17T01:59:50Z</time></trkpt><trkpt lat="35.6718393" lon="139.1308954"><ele>955.4133333333333</ele><time>2024-03-17T02:00:15Z</time></trkpt><trkpt lat="35.6717843" lon="139.1311185"><ele>957.1666666666666</ele><time>2024-03-17T02:01:21Z</time></trkpt><trkpt lat="35.6718349" lon="139.1313321"><ele>956.4966666666666</ele><time>2024-03-17T02:01:35Z</time></trkpt><trkpt lat="35.6718957" lon="139.1315436"><ele>953.6266666666667</ele><time>2024-03-17T02:02:22Z</time></trkpt><trkpt lat="35.6720315" lon="139.1317022"><ele>952.3733333333333</ele><time>2024-03-17T02:02:44Z</time></trkpt><trkpt lat="35.6721367" lon="139.1318952"><ele>953.6233333333333</ele><time>2024-03-17T02:03:34Z</time></trkpt><trkpt lat="35.6722558" lon="139.132066"><ele>960.9000000000001</ele><time>2024-03-17T02:04:38Z</time></trkpt><trkpt lat="35.6723483" lon="139.1322729"><ele>971.0233333333334</ele><time>2024-03-17T02:06:12Z</time></trkpt><trkpt lat="35.67244" lon="139.1324634"><ele>981.85</ele><time>2024-03-17T02:06:53Z</time></trkpt><trkpt lat="35.6725181" lon="139.1326627"><ele>985.9133333333334</ele><time>2024-03-17T02:10:28Z</time></trkpt><trkpt lat="35.672649" lon="139.1328263"><ele>985.0366666666667</ele><time>2024-03-17T02:10:43Z</time></trkpt><trkpt lat="35.672607" lon="139.133053"><ele>981.7600000000001</ele><time>2024-03-17T02:11:09Z</time></trkpt><trkpt lat="35.6726057" lon="139.1332772"><ele>979.2066666666666</ele><time>2024-03-17T02:11:36Z</time></trkpt><trkpt lat="35.6727296" lon="139.1334467"><ele>979.1933333333333</ele><time>2024-03-17T02:12:31Z</time></trkpt><trkpt lat="35.6727528" lon="139.1336658"><ele>979.5033333333334</ele><time>2024-03-17T02:13:49Z</time></trkpt><trkpt lat="35.6726704" lon="139.133866"><ele>976.6833333333334</ele><time>2024-03-17T02:16:31Z</time></trkpt><trkpt lat="35.6726523" lon="139.1341155"><ele>970.8233333333334</ele><time>2024-03-17T02:17:04Z</time></trkpt><trkpt lat="35.6725701" lon="139.1343453"><ele>964.0666666666666</ele><time>2024-03-17T02:17:37Z</time></trkpt><trkpt lat="35.6724569" lon="139.1345569"><ele>960.3333333333334</ele><time>2024-03-17T02:17:52Z</time></trkpt><trkpt lat="35.6724093" lon="139.1347872"><ele>959.1533333333333</ele><time>2024-03-17T02:18:07Z</time></trkpt><trkpt lat="35.6723382" lon="139.135003"><ele>961.9833333333332</ele><time>2024-03-17T02:18:31Z</time></trkpt><trkpt lat="35.6724502" lon="139.1351941"><ele>965.9966666666666</ele><time>2024-03-17T02:18:50Z</time></trkpt><trkpt lat="35.6725448" lon="139.1353889"><ele>968.0799999999999</ele><time>2024-03-17T02:19:11Z</time></trkpt><trkpt lat="35.6723637" lon="139.1354045"><ele>970.2233333333334</ele><time>2024-03-17T02:20:25Z</time></trkpt><trkpt lat="35.6722178" lon="139.1355358"><ele>973.6566666666668</ele><time>2024-03-17T02:21:10Z</time></trkpt><trkpt lat="35.672261" lon="139.135752"><ele>980.4966666666668</ele><time>2024-03-17T02:21:57Z</time></trkpt><trkpt lat="35.6721528" lon="139.1359342"><ele>986.0400000000001</ele><time>2024-03-17T02:22:37Z</time></trkpt><trkpt lat="35.6721919" lon="139.1361504"><ele>992.2700000000001</ele><time>2024-03-17T02:24:05Z</time></trkpt><trkpt lat="35.672235" lon="139.1363677"><ele>1000.3299999999999</ele><time>2024-03-17T02:25:09Z</time></trkpt><trkpt lat="35.6723358" lon="139.1365595"><ele>1006.9200000000001</ele><time>2024-03-17T02:27:47Z</time></trkpt><trkpt lat="35.672312" lon="139.1367811"><ele>1009.0633333333334</ele><time>2024-03-17T02:28:57Z</time></trkpt><trkpt lat="35.6721816" lon="139.1369362"><ele>1004.2066666666668</ele><time>2024-03-17T02:29:30Z</time></trkpt><trkpt lat="35.6720076" lon="139.1370209"><ele>995.8466666666667</ele><time>2024-03-17T02:29:51Z</time></trkpt><trkpt lat="35.6718595" lon="139.1371472"><ele>989.1033333333334</ele><time>2024-03-17T02:30:14Z</time></trkpt><trkpt lat="35.6717056" lon="139.1372631"><ele>983.9866666666667</ele><time>2024-03-17T02:31:00Z</time></trkpt><trkpt lat="35.6716189" lon="139.1374663"><ele>980.5100000000001</ele><time>2024-03-17T02:31:17Z</time></trkpt><trkpt lat="35.6714849" lon="139.1376156"><ele>976.4733333333334</ele><time>2024-03-17T02:31:30Z</time></trkpt><trkpt lat="35.6713594" lon="139.1377755"><ele>973.6</ele><time>2024-03-17T02:31:42Z</time></trkpt><trkpt lat="35.6712624" lon="139.137975"><ele>972.5766666666667</ele><time>2024-03-17T02:31:59Z</time></trkpt><trkpt lat="35.6711254" lon="139.1381464"><ele>972.9233333333333</ele><time>2024-03-17T02:32:15Z</time></trkpt><trkpt lat="35.6709516" lon="139.1382485"><ele>972.9200000000001</ele><time>2024-03-17T02:32:36Z</time></trkpt><trkpt lat="35.6708166" lon="139.1384196"><ele>972.96</ele><time>2024-03-17T02:32:53Z</time></trkpt><trkpt lat="35.6706828" lon="139.1385703"><ele>973.6700000000001</ele><time>2024-03-17T02:33:19Z</time></trkpt><trkpt lat="35.6705048" lon="139.1386158"><ele>975.98</ele><time>2024-03-17T02:33:46Z</time></trkpt><trkpt lat="35.6704983" lon="139.1388537"><ele>979.2166666666667</ele><time>2024-03-17T02:34:17Z</time></trkpt><trkpt lat="35.67039" lon="139.1390403"><ele>981.9366666666668</ele><time>2024-03-17T02:34:29Z</time></trkpt><trkpt lat="35.6703063" lon="139.1392458"><ele>982.9333333333334</ele><time>2024-03-17T02:34:48Z</time></trkpt><trkpt lat="35.6703482" lon="139.1394627"><ele>982.2533333333334</ele><time>2024-03-17T02:35:03Z</time></trkpt><trkpt lat="35.6703963" lon="139.1396889"><ele>981.1133333333333</ele><time>2024-03-17T02:35:15Z</time></trkpt><trkpt lat="35.6703743" lon="139.1399222"><ele>978.7433333333333</ele><time>2024-03-17T02:35:32Z</time></trkpt><trkpt lat="35.670427" lon="139.1401405"><ele>975.9766666666668</ele><time>2024-03-17T02:35:54Z</time></trkpt><trkpt lat="35.670522" lon="139.140334"><ele>973.5066666666667</ele><time>2024-03-17T02:36:10Z</time></trkpt><trkpt lat="35.6705467" lon="139.1405693"><ele>974.7033333333333</ele><time>2024-03-17T02:36:31Z</time></trkpt><trkpt lat="35.6705039" lon="139.1407857"><ele>978.19</ele><time>2024-03-17T02:36:44Z</time></trkpt><trkpt lat="35.6703596" lon="139.1409327"><ele>983.27</ele><time>2024-03-17T02:37:06Z</time></trkpt><trkpt lat="35.6702953" lon="139.1411407"><ele>987.8666666666668</ele><time>2024-03-17T02:38:44Z</time></trkpt><trkpt lat="35.6702632" lon="139.1413607"><ele>993.4233333333333</ele><time>2024-03-17T02:39:19Z</time></trkpt><trkpt lat="35.6701851" lon="139.1415657"><ele>998.2566666666667</ele><time>2024-03-17T02:39:31Z</time></trkpt><trkpt lat="35.6701151" lon="139.1417775"><ele>1002.59</ele><time>2024-03-17T02:40:04Z</time></trkpt><trkpt lat="35.6700766" lon="139.141994"><ele>1006.0366666666667</ele><time>2024-03-17T02:40:20Z</time></trkpt><trkpt lat="35.6700058" lon="139.1422104"><ele>1008.6166666666667</ele><time>2024-03-17T02:40:37Z</time></trkpt><trkpt lat="35.6700888" lon="139.1424133"><ele>1010.0900000000001</ele><time>2024-03-17T02:41:03Z</time></trkpt><trkpt lat="35.6699185" lon="139.1425204"><ele>1010.3533333333335</ele><time>2024-03-17T02:41:20Z</time></trkpt><trkpt lat="35.669872" lon="139.142749"><ele>1010.5766666666667</ele><time>2024-03-17T02:41:50Z</time></trkpt><trkpt lat="35.6696841" lon="139.1427369"><ele>1010.7266666666668</ele><time>2024-03-17T02:42:13Z</time></trkpt><trkpt lat="35.6695034" lon="139.1427104"><ele>1010.5666666666666</ele><time>2024-03-17T02:42:28Z</time></trkpt><trkpt lat="35.6693082" lon="139.1427163"><ele>1010.5300000000001</ele><time>2024-03-17T02:42:42Z</time></trkpt><trkpt lat="35.6691413" lon="139.142812"><ele>1009.9433333333333</ele><time>2024-03-17T02:42:54Z</time></trkpt><trkpt lat="35.6690801" lon="139.1430296"><ele>1010.0333333333333</ele><time>2024-03-17T02:43:07Z</time></trkpt><trkpt lat="35.6689534" lon="139.1432034"><ele>1010.0133333333333</ele><time>2024-03-17T02:43:28Z</time></trkpt><trkpt lat="35.6688351" lon="139.1433795"><ele>1010.4200000000001</ele><time>2024-03-17T02:43:43Z</time></trkpt><trkpt lat="35.6687066" lon="139.1435501"><ele>1007.36</ele><time>2024-03-17T02:44:16Z</time></trkpt><trkpt lat="35.6687499" lon="139.143765"><ele>1001.5633333333334</ele><time>2024-03-17T02:44:47Z</time></trkpt><trkpt lat="35.6686287" lon="139.1439341"><ele>994.1966666666667</ele><time>2024-03-17T02:45:04Z</time></trkpt><trkpt lat="35.6685022" lon="139.1441039"><ele>989.0</ele><time>2024-03-17T02:45:37Z</time></trkpt><trkpt lat="35.6684598" lon="139.144327"><ele>986.0433333333334</ele><time>2024-03-17T02:46:25Z</time></trkpt><trkpt lat="35.668346" lon="139.1445122"><ele>984.4566666666666</ele><time>2024-03-17T02:46:40Z</time></trkpt><trkpt lat="35.6682269" lon="139.1446821"><ele>983.0466666666667</ele><time>2024-03-17T02:47:01Z</time></trkpt><trkpt lat="35.6681061" lon="139.1448525"><ele>981.5266666666666</ele><time>2024-03-17T02:47:26Z</time></trkpt><trkpt lat="35.6679266" lon="139.1449109"><ele>976.2766666666666</ele><time>2024-03-17T02:48:05Z</time></trkpt><trkpt lat="35.6678491" lon="139.144706"><ele>970.4966666666666</ele><time>2024-03-17T02:48:24Z</time></trkpt><trkpt lat="35.6678015" lon="139.1449201"><ele>963.5233333333334</ele><time>2024-03-17T02:48:46Z</time></trkpt><trkpt lat="35.6679402" lon="139.1450823"><ele>962.08</ele><time>2024-03-17T02:49:02Z</time></trkpt><trkpt lat="35.6677545" lon="139.1450356"><ele>958.7600000000001</ele><time>2024-03-17T02:49:32Z</time></trkpt><trkpt lat="35.6677507" lon="139.1452578"><ele>956.2666666666668</ele><time>2024-03-17T02:49:55Z</time></trkpt><trkpt lat="35.6675685" lon="139.1452669"><ele>950.8033333333334</ele><time>2024-03-17T02:50:21Z</time></trkpt><trkpt lat="35.6673904" lon="139.1453467"><ele>945.5433333333334</ele><time>2024-03-17T02:50:34Z</time></trkpt><trkpt lat="35.6673673" lon="139.1455738"><ele>941.6433333333333</ele><time>2024-03-17T02:50:50Z</time></trkpt><trkpt lat="35.6672974" lon="139.1457881"><ele>937.9266666666667</ele><time>2024-03-17T02:51:05Z</time></trkpt><trkpt lat="35.6671312" lon="139.1458801"><ele>936.2866666666667</ele><time>2024-03-17T02:51:28Z</time></trkpt><trkpt lat="35.6670086" lon="139.1460517"><ele>933.54</ele><time>2024-03-17T02:51:40Z</time></trkpt><trkpt lat="35.6670201" lon="139.1462757"><ele>930.5300000000001</ele><time>2024-03-17T02:52:13Z</time></trkpt><trkpt lat="35.6669317" lon="139.1464698"><ele>926.2566666666667</ele><time>2024-03-17T02:52:42Z</time></trkpt><trkpt lat="35.6669389" lon="139.1467018"><ele>917.9933333333333</ele><time>2024-03-17T02:52:58Z</time></trkpt><trkpt lat="35.6667993" lon="139.1468487"><ele>912.19</ele><time>2024-03-17T02:53:34Z</time></trkpt><trkpt lat="35.6667521" lon="139.1470826"><ele>906.3933333333334</ele><time>2024-03-17T02:53:48Z</time></trkpt><trkpt lat="35.6666148" lon="139.1472397"><ele>902.82</ele><time>2024-03-17T02:54:12Z</time></trkpt><trkpt lat="35.6666504" lon="139.1474577"><ele>898.0433333333334</ele><time>2024-03-17T02:54:28Z</time></trkpt><trkpt lat="35.6666661" lon="139.1476783"><ele>894.7866666666667</ele><time>2024-03-17T02:54:59Z</time></trkpt><trkpt lat="35.6667339" lon="139.1478937"><ele>893.1300000000001</ele><time>2024-03-17T02:56:20Z</time></trkpt><trkpt lat="35.6666746" lon="139.1481098"><ele>890.9000000000001</ele><time>2024-03-17T02:56:33Z</time></trkpt><trkpt lat="35.6667024" lon="139.1483447"><ele>886.7433333333333</ele><time>2024-03-17T02:56:50Z</time></trkpt><trkpt lat="35.6667935" lon="139.1485534"><ele>881.0799999999999</ele><time>2024-03-17T02:57:16Z</time></trkpt><trkpt lat="35.6668404" lon="139.1487758"><ele>874.58</ele><time>2024-03-17T02:57:41Z</time></trkpt><trkpt lat="35.6666956" lon="139.148641"><ele>870.7666666666668</ele><time>2024-03-17T02:57:55Z</time></trkpt><trkpt lat="35.6666222" lon="139.1488457"><ele>866.0566666666667</ele><time>2024-03-17T02:58:27Z</time></trkpt><trkpt lat="35.6667346" lon="139.1490235"><ele>861.0233333333334</ele><time>2024-03-17T02:59:25Z</time></trkpt><trkpt lat="35.6666168" lon="139.149194"><ele>853.1700000000001</ele><time>2024-03-17T02:59:59Z</time></trkpt><trkpt lat="35.6666455" lon="139.1494177"><ele>845.1266666666667</ele><time>2024-03-17T03:00:58Z</time></trkpt><trkpt lat="35.6666372" lon="139.1496401"><ele>838.7233333333334</ele><time>2024-03-17T03:01:22Z</time></trkpt><trkpt lat="35.666593" lon="139.1498579"><ele>832.43</ele><time>2024-03-17T03:01:59Z</time></trkpt><trkpt lat="35.6666779" lon="139.1500555"><ele>828.41</ele><time>2024-03-17T03:02:17Z</time></trkpt><trkpt lat="35.6667606" lon="139.1502598"><ele>822.7166666666667</ele><time>2024-03-17T03:02:42Z</time></trkpt><trkpt lat="35.6667342" lon="139.1504938"><ele>818.3000000000001</ele><time>2024-03-17T03:02:57Z</time></trkpt><trkpt lat="35.6666556" lon="139.1506964"><ele>812.3733333333333</ele><time>2024-03-17T03:03:23Z</time></trkpt><trkpt lat="35.6665909" lon="139.1509153"><ele>807.5500000000001</ele><time>2024-03-17T03:03:45Z</time></trkpt><trkpt lat="35.6665863" lon="139.1511418"><ele>804.9200000000001</ele><time>2024-03-17T03:04:00Z</time></trkpt><trkpt lat="35.6664036" lon="139.1511618"><ele>802.9566666666666</ele><time>2024-03-17T03:06:49Z</time></trkpt><trkpt lat="35.666186" lon="139.151151"><ele>795.6933333333333</ele><time>2024-03-17T03:08:23Z</time></trkpt><trkpt lat="35.6660227" lon="139.1512474"><ele>782.6066666666667</ele><time>2024-03-17T03:09:26Z</time></trkpt><trkpt lat="35.6659743" lon="139.151464"><ele>768.7033333333334</ele><time>2024-03-17T03:09:52Z</time></trkpt><trkpt lat="35.6658022" lon="139.1515453"><ele>756.1066666666667</ele><time>2024-03-17T03:11:01Z</time></trkpt><trkpt lat="35.6658443" lon="139.1513146"><ele>749.6433333333334</ele><time>2024-03-17T03:11:25Z</time></trkpt><trkpt lat="35.6656697" lon="139.1512566"><ele>742.2400000000001</ele><time>2024-03-17T03:11:53Z</time></trkpt><trkpt lat="35.6655321" lon="139.151402"><ele>734.7933333333334</ele><time>2024-03-17T03:12:23Z</time></trkpt><trkpt lat="35.6653934" lon="139.151551"><ele>722.4666666666666</ele><time>2024-03-17T03:12:52Z</time></trkpt><trkpt lat="35.6653427" lon="139.1517673"><ele>713.8000000000001</ele><time>2024-03-17T03:13:16Z</time></trkpt><trkpt lat="35.6651625" lon="139.1518295"><ele>705.7433333333333</ele><time>2024-03-17T03:13:52Z</time></trkpt><trkpt lat="35.665035" lon="139.1516683"><ele>695.9499999999999</ele><time>2024-03-17T03:14:41Z</time></trkpt><trkpt lat="35.6648838" lon="139.1518056"><ele>683.9133333333333</ele><time>2024-03-17T03:15:14Z</time></trkpt><trkpt lat="35.664784" lon="139.1516177"><ele>672.5500000000001</ele><time>2024-03-17T03:15:59Z</time></trkpt><trkpt lat="35.6649586" lon="139.1515326"><ele>669.3133333333334</ele><time>2024-03-17T03:16:09Z</time></trkpt><trkpt lat="35.6649745" lon="139.1513086"><ele>669.5300000000001</ele><time>2024-03-17T03:16:24Z</time></trkpt><trkpt lat="35.6648666" lon="139.1514911"><ele>670.93</ele><time>2024-03-17T03:16:49Z</time></trkpt><trkpt lat="35.6648567" lon="139.1512691"><ele>668.5133333333333</ele><time>2024-03-17T03:17:01Z</time></trkpt><trkpt lat="35.664808" lon="139.1510503"><ele>662.6366666666667</ele><time>2024-03-17T03:17:27Z</time></trkpt><trkpt lat="35.664818" lon="139.1508104"><ele>659.2733333333333</ele><time>2024-03-17T03:17:54Z</time></trkpt><trkpt lat="35.6647514" lon="139.1505979"><ele>656.9666666666667</ele><time>2024-03-17T03:18:11Z</time></trkpt><trkpt lat="35.6646073" lon="139.150453"><ele>656.8933333333333</ele><time>2024-03-17T03:18:25Z</time></trkpt><trkpt lat="35.6647576" lon="139.1507235"><ele>655.4333333333334</ele><time>2024-03-17T03:18:28Z</time></trkpt><trkpt lat="35.6645739" lon="139.1506814"><ele>652.36</ele><time>2024-03-17T03:18:48Z</time></trkpt><trkpt lat="35.6643919" lon="139.1506615"><ele>649.3000000000001</ele><time>2024-03-17T03:19:05Z</time></trkpt><trkpt lat="35.6642884" lon="139.1508564"><ele>645.3733333333333</ele><time>2024-03-17T03:19:52Z</time></trkpt><trkpt lat="35.6640954" lon="139.150816"><ele>644.5433333333334</ele><time>2024-03-17T03:20:13Z</time></trkpt><trkpt lat="35.6639257" lon="139.1509135"><ele>641.1833333333333</ele><time>2024-03-17T03:20:36Z</time></trkpt><trkpt lat="35.6637542" lon="139.150813"><ele>639.8266666666667</ele><time>2024-03-17T03:20:52Z</time></trkpt><trkpt lat="35.6638772" lon="139.150982"><ele>635.0066666666667</ele><time>2024-03-17T03:21:14Z</time></trkpt><trkpt lat="35.6637256" lon="139.1511028"><ele>629.52</ele><time>2024-03-17T03:21:43Z</time></trkpt><trkpt lat="35.6635692" lon="139.1509734"><ele>623.71</ele><time>2024-03-17T03:22:04Z</time></trkpt><trkpt lat="35.6633903" lon="139.1510256"><ele>618.5033333333334</ele><time>2024-03-17T03:22:25Z</time></trkpt><trkpt lat="35.6632282" lon="139.1509181"><ele>616.8766666666667</ele><time>2024-03-17T03:22:43Z</time></trkpt><trkpt lat="35.6630448" lon="139.1509411"><ele>610.7633333333333</ele><time>2024-03-17T03:23:00Z</time></trkpt><trkpt lat="35.6629007" lon="139.1507859"><ele>602.5533333333333</ele><time>2024-03-17T03:25:11Z</time></trkpt><trkpt lat="35.6628742" lon="139.1510242"><ele>592.5933333333334</ele><time>2024-03-17T03:26:01Z</time></trkpt><trkpt lat="35.6629077" lon="139.15125"><ele>585.9866666666667</ele><time>2024-03-17T03:26:12Z</time></trkpt><trkpt lat="35.6630837" lon="139.1513073"><ele>582.2233333333334</ele><time>2024-03-17T03:26:24Z</time></trkpt><trkpt lat="35.6632519" lon="139.1514078"><ele>579.8066666666667</ele><time>2024-03-17T03:26:43Z</time></trkpt><trkpt lat="35.6633534" lon="139.1515958"><ele>576.07</ele><time>2024-03-17T03:27:02Z</time></trkpt><trkpt lat="35.6631827" lon="139.1515207"><ele>572.4</ele><time>2024-03-17T03:27:52Z</time></trkpt><trkpt lat="35.6630062" lon="139.1514537"><ele>569.0933333333334</ele><time>2024-03-17T03:28:08Z</time></trkpt><trkpt lat="35.6628508" lon="139.1515758"><ele>563.5400000000001</ele><time>2024-03-17T03:28:22Z</time></trkpt><trkpt lat="35.6626997" lon="139.151704"><ele>556.2833333333334</ele><time>2024-03-17T03:28:49Z</time></trkpt><trkpt lat="35.6626349" lon="139.1519155"><ele>549.39</ele><time>2024-03-17T03:29:19Z</time></trkpt><trkpt lat="35.6624472" lon="139.1518264"><ele>544.7733333333333</ele><time>2024-03-17T03:30:06Z</time></trkpt><trkpt lat="35.6622587" lon="139.1517693"><ele>540.38</ele><time>2024-03-17T03:30:57Z</time></trkpt><trkpt lat="35.6620677" lon="139.1517497"><ele>533.52</ele><time>2024-03-17T03:31:10Z</time></trkpt><trkpt lat="35.661881" lon="139.1517038"><ele>530.5033333333334</ele><time>2024-03-17T03:31:24Z</time></trkpt><trkpt lat="35.6616954" lon="139.1517516"><ele>527.2066666666666</ele><time>2024-03-17T03:31:39Z</time></trkpt><trkpt lat="35.6615199" lon="139.1518163"><ele>522.7733333333333</ele><time>2024-03-17T03:31:59Z</time></trkpt><trkpt lat="35.661369" lon="139.1519373"><ele>515.6166666666667</ele><time>2024-03-17T03:32:13Z</time></trkpt><trkpt lat="35.6612048" lon="139.1520351"><ele>509.15333333333336</ele><time>2024-03-17T03:32:31Z</time></trkpt><trkpt lat="35.6610389" lon="139.1521323"><ele>504.6666666666667</ele><time>2024-03-17T03:32:50Z</time></trkpt><trkpt lat="35.6608727" lon="139.1522236"><ele>501.0533333333333</ele><time>2024-03-17T03:33:11Z</time></trkpt><trkpt lat="35.6606937" lon="139.1521907"><ele>500.1000000000001</ele><time>2024-03-17T03:33:32Z</time></trkpt><trkpt lat="35.6605311" lon="139.1523014"><ele>497.9066666666667</ele><time>2024-03-17T03:33:47Z</time></trkpt><trkpt lat="35.6603756" lon="139.1521853"><ele>497.22333333333336</ele><time>2024-03-17T03:33:59Z</time></trkpt><trkpt lat="35.6601856" lon="139.1521665"><ele>492.34</ele><time>2024-03-17T03:34:32Z</time></trkpt><trkpt lat="35.6600152" lon="139.1522755"><ele>486.6033333333333</ele><time>2024-03-17T03:34:45Z</time></trkpt><trkpt lat="35.6598343" lon="139.1522588"><ele>479.4666666666667</ele><time>2024-03-17T03:34:57Z</time></trkpt><trkpt lat="35.6596382" lon="139.1522557"><ele>473.7866666666667</ele><time>2024-03-17T03:35:11Z</time></trkpt><trkpt lat="35.6594691" lon="139.1521753"><ele>471.0733333333333</ele><time>2024-03-17T03:35:25Z</time></trkpt><trkpt lat="35.6592862" lon="139.1522"><ele>465.93666666666667</ele><time>2024-03-17T03:35:40Z</time></trkpt><trkpt lat="35.6591422" lon="139.1520578"><ele>463.8766666666667</ele><time>2024-03-17T03:35:58Z</time></trkpt><trkpt lat="35.6589598" lon="139.1520357"><ele>459.8866666666667</ele><time>2024-03-17T03:36:11Z</time></trkpt><trkpt lat="35.6587623" lon="139.1520483"><ele>458.1466666666667</ele><time>2024-03-17T03:36:30Z</time></trkpt><trkpt lat="35.6586323" lon="139.1518904"><ele>454.0366666666667</ele><time>2024-03-17T03:36:48Z</time></trkpt><trkpt lat="35.6584985" lon="139.152044"><ele>448.97333333333336</ele><time>2024-03-17T03:37:13Z</time></trkpt><trkpt lat="35.6584522" lon="139.1522611"><ele>442.79333333333335</ele><time>2024-03-17T03:37:24Z</time></trkpt><trkpt lat="35.6583075" lon="139.1523983"><ele>436.8833333333334</ele><time>2024-03-17T03:37:38Z</time></trkpt><trkpt lat="35.6581167" lon="139.1523591"><ele>431.6966666666667</ele><time>2024-03-17T03:37:55Z</time></trkpt><trkpt lat="35.6579328" lon="139.1524224"><ele>427.55</ele><time>2024-03-17T03:38:13Z</time></trkpt><trkpt lat="35.6577444" lon="139.1524652"><ele>423.34</ele><time>2024-03-17T03:38:27Z</time></trkpt><trkpt lat="35.6576275" lon="139.1526438"><ele>419.5733333333333</ele><time>2024-03-17T03:38:45Z</time></trkpt><trkpt lat="35.6574648" lon="139.1527461"><ele>416.1133333333334</ele><time>2024-03-17T03:38:58Z</time></trkpt><trkpt lat="35.6573328" lon="139.1529131"><ele>412.9866666666667</ele><time>2024-03-17T03:39:16Z</time></trkpt><trkpt lat="35.6571611" lon="139.1529868"><ele>410.60999999999996</ele><time>2024-03-17T03:39:34Z</time></trkpt><trkpt lat="35.656986" lon="139.1529257"><ele>407.19000000000005</ele><time>2024-03-17T03:39:49Z</time></trkpt><trkpt lat="35.6568136" lon="139.153002"><ele>403.49000000000007</ele><time>2024-03-17T03:40:03Z</time></trkpt><trkpt lat="35.6566445" lon="139.1531191"><ele>399.0933333333333</ele><time>2024-03-17T03:40:17Z</time></trkpt><trkpt lat="35.6564516" lon="139.1531012"><ele>396.0466666666667</ele><time>2024-03-17T03:40:37Z</time></trkpt><trkpt lat="35.656298" lon="139.1532359"><ele>392.99666666666667</ele><time>2024-03-17T03:40:50Z</time></trkpt><trkpt lat="35.6561819" lon="139.1534156"><ele>390.55333333333334</ele><time>2024-03-17T03:41:03Z</time></trkpt><trkpt lat="35.656061" lon="139.1532495"><ele>388.9766666666667</ele><time>2024-03-17T03:41:36Z</time></trkpt><trkpt lat="35.6558867" lon="139.1531611"><ele>385.87000000000006</ele><time>2024-03-17T03:41:48Z</time></trkpt><trkpt lat="35.6556993" lon="139.1531087"><ele>383.3333333333333</ele><time>2024-03-17T03:41:59Z</time></trkpt><trkpt lat="35.6555135" lon="139.1531317"><ele>380.2966666666667</ele><time>2024-03-17T03:42:11Z</time></trkpt><trkpt lat="35.6553696" lon="139.1529973"><ele>379.5533333333333</ele><time>2024-03-17T03:42:24Z</time></trkpt><trkpt lat="35.6552461" lon="139.1528246"><ele>379.53666666666663</ele><time>2024-03-17T03:42:42Z</time></trkpt><trkpt lat="35.6551872" lon="139.1526113"><ele>380.15000000000003</ele><time>2024-03-17T03:42:53Z</time></trkpt><trkpt lat="35.6550887" lon="139.152424"><ele>380.6566666666667</ele><time>2024-03-17T03:43:07Z</time></trkpt><trkpt lat="35.6549099" lon="139.152367"><ele>379.2033333333334</ele><time>2024-03-17T03:43:20Z</time></trkpt><trkpt lat="35.6547195" lon="139.1523909"><ele>376.7366666666667</ele><time>2024-03-17T03:43:36Z</time></trkpt><trkpt lat="35.6545362" lon="139.1523905"><ele>374.07666666666665</ele><time>2024-03-17T03:44:15Z</time></trkpt><trkpt lat="35.6543595" lon="139.1522989"><ele>372.64333333333326</ele><time>2024-03-17T03:44:27Z</time></trkpt><trkpt lat="35.6541737" lon="139.1522309"><ele>371.53</ele><time>2024-03-17T03:44:41Z</time></trkpt><trkpt lat="35.6540654" lon="139.1520425"><ele>370.89000000000004</ele><time>2024-03-17T03:44:58Z</time></trkpt><trkpt lat="35.653882" lon="139.1519575"><ele>370.3733333333333</ele><time>2024-03-17T03:45:11Z</time></trkpt><trkpt lat="35.6537009" lon="139.1519528"><ele>369.52666666666664</ele><time>2024-03-17T03:45:25Z</time></trkpt><trkpt lat="35.6535175" lon="139.1519609"><ele>367.6266666666667</ele><time>2024-03-17T03:45:37Z</time></trkpt><trkpt lat="35.6534762" lon="139.1517209"><ele>366.35999999999996</ele><time>2024-03-17T03:45:51Z</time></trkpt><trkpt lat="35.6535429" lon="139.1515013"><ele>365.8833333333334</ele><time>2024-03-17T03:46:05Z</time></trkpt><trkpt lat="35.6535513" lon="139.1512719"><ele>365.56</ele><time>2024-03-17T03:46:24Z</time></trkpt><trkpt lat="35.6535591" lon="139.1510496"><ele>364.19000000000005</ele><time>2024-03-17T03:46:39Z</time></trkpt><trkpt lat="35.6535912" lon="139.1508241"><ele>362.0333333333333</ele><time>2024-03-17T03:46:55Z</time></trkpt><trkpt lat="35.6535804" lon="139.1505886"><ele>360.6466666666667</ele><time>2024-03-17T03:47:08Z</time></trkpt><trkpt lat="35.6534733" lon="139.1504075"><ele>361.18333333333334</ele><time>2024-03-17T03:47:19Z</time></trkpt><trkpt lat="35.6533163" lon="139.1502885"><ele>361.42333333333335</ele><time>2024-03-17T03:47:30Z</time></trkpt><trkpt lat="35.6531774" lon="139.1501373"><ele>361.78000000000003</ele><time>2024-03-17T03:47:41Z</time></trkpt><trkpt lat="35.6529982" lon="139.1500813"><ele>360.5433333333333</ele><time>2024-03-17T03:47:57Z</time></trkpt><trkpt lat="35.6528169" lon="139.1500312"><ele>359.2333333333333</ele><time>2024-03-17T03:48:09Z</time></trkpt><trkpt lat="35.6526355" lon="139.1500064"><ele>357.82666666666665</ele><time>2024-03-17T03:48:22Z</time></trkpt><trkpt lat="35.6524529" lon="139.1500551"><ele>357.81333333333333</ele><time>2024-03-17T03:48:36Z</time></trkpt><trkpt lat="35.6522842" lon="139.1501469"><ele>359.69000000000005</ele><time>2024-03-17T03:48:50Z</time></trkpt><trkpt lat="35.6520995" lon="139.1501206"><ele>361.57666666666665</ele><time>2024-03-17T03:49:05Z</time></trkpt><trkpt lat="35.6519443" lon="139.149984"><ele>360.04333333333335</ele><time>2024-03-17T03:49:17Z</time></trkpt><trkpt lat="35.6517895" lon="139.1498448"><ele>358.1166666666666</ele><time>2024-03-17T03:49:29Z</time></trkpt><trkpt lat="35.6516839" lon="139.1496629"><ele>355.5833333333333</ele><time>2024-03-17T03:49:51Z</time></trkpt><trkpt lat="35.6516214" lon="139.1494498"><ele>354.62000000000006</ele><time>2024-03-17T03:50:04Z</time></trkpt><trkpt lat="35.6515873" lon="139.1492305"><ele>352.51000000000005</ele><time>2024-03-17T03:50:20Z</time></trkpt><trkpt lat="35.6515977" lon="139.1490085"><ele>349.6266666666667</ele><time>2024-03-17T03:50:36Z</time></trkpt><trkpt lat="35.6514482" lon="139.1488838"><ele>347.3666666666666</ele><time>2024-03-17T03:50:49Z</time></trkpt></trkseg></trk></gpx>