<?xml version='1.0' encoding='UTF-8'?><gpx creator="YAMAP - https://yamap.com" xsi:schemaLocation="http://www.topografix.com/GPX/1/1 http://www.topografix.com/GPX/1/1/gpx.xsd" version="1.1" xmlns="http://www.topografix.com/GPX/1/1" xmlns:xsi="http://www.w3.org/2001/XMLSchema-instance"><metadata><bounds maxlat="35.5499924" maxlon="138.8469995" minlat="35.4984139" minlon="138.7684697"/></metadata><trk><name>三ッ峠山（開運山）・木無山・木山・霜山・天上山</name><number>1</number><trkseg><trkpt lat="35.5238717" lon="138.8452012"><ele>614.5</ele><time>2023-08-11T23:58:48Z</time></trkpt><trkpt lat="35.523933" lon="138.845413"><ele>614.585</ele><time>2023-08-11T23:59:18Z</time></trkpt><trkpt lat="35.5239288" lon="138.8456354"><ele>614.61</ele><time>2023-08-11T23:59:30Z</time></trkpt><trkpt lat="35.523957" lon="138.8458568"><ele>614.6633333333333</ele><time>2023-08-11T23:59:37Z</time></trkpt><trkpt lat="35.5238619" lon="138.8460531"><ele>614.67</ele><time>2023-08-11T23:59:48Z</time></trkpt><trkpt lat="35.5239188" lon="138.8462724"><ele>614.6133333333333</ele><time>2023-08-12T00:00:02Z</time></trkpt><trkpt lat="35.5240039" lon="138.8464874"><ele>614.4833333333333</ele><time>2023-08-12T00:00:14Z</time></trkpt><trkpt lat="35.5241267" lon="138.8466567"><ele>614.2199999999999</ele><time>2023-08-12T00:00:23Z</time></trkpt><trkpt lat="35.5242581" lon="138.8468088"><ele>613.9633333333334</ele><time>2023-08-12T00:00:34Z</time></trkpt><trkpt lat="35.5243598" lon="138.8469995"><ele>613.6466666666666</ele><time>2023-08-12T00:00:45Z</time></trkpt><trkpt lat="35.5244614" lon="138.8468133"><ele>613.39</ele><time>2023-08-12T00:01:02Z</time></trkpt><trkpt lat="35.5245586" lon="138.846601"><ele>613.0233333333334</ele><time>2023-08-12T00:01:13Z</time></trkpt><trkpt lat="35.5247625" lon="138.8465752"><ele>612.5366666666667</ele><time>2023-08-12T00:01:19Z</time></trkpt><trkpt lat="35.5249498" lon="138.8465338"><ele>611.96</ele><time>2023-08-12T00:01:30Z</time></trkpt><trkpt lat="35.5251198" lon="138.8464409"><ele>611.32</ele><time>2023-08-12T00:01:42Z</time></trkpt><trkpt lat="35.5252934" lon="138.8463311"><ele>610.75</ele><time>2023-08-12T00:01:52Z</time></trkpt><trkpt lat="35.525412" lon="138.8461494"><ele>609.82</ele><time>2023-08-12T00:02:05Z</time></trkpt><trkpt lat="35.5255907" lon="138.8460483"><ele>609.3066666666667</ele><time>2023-08-12T00:02:18Z</time></trkpt><trkpt lat="35.5257516" lon="138.8459293"><ele>609.3333333333334</ele><time>2023-08-12T00:02:31Z</time></trkpt><trkpt lat="35.52587" lon="138.8457598"><ele>610.0833333333334</ele><time>2023-08-12T00:02:45Z</time></trkpt><trkpt lat="35.5260265" lon="138.8456278"><ele>610.8533333333334</ele><time>2023-08-12T00:02:57Z</time></trkpt><trkpt lat="35.5261942" lon="138.8455118"><ele>611.4166666666666</ele><time>2023-08-12T00:03:11Z</time></trkpt><trkpt lat="35.5262982" lon="138.845311"><ele>612.0</ele><time>2023-08-12T00:03:24Z</time></trkpt><trkpt lat="35.5264136" lon="138.8451361"><ele>612.5466666666666</ele><time>2023-08-12T00:03:45Z</time></trkpt><trkpt lat="35.5265403" lon="138.8449766"><ele>613.15</ele><time>2023-08-12T00:04:00Z</time></trkpt><trkpt lat="35.5266756" lon="138.8447861"><ele>613.7200000000001</ele><time>2023-08-12T00:04:13Z</time></trkpt><trkpt lat="35.5267696" lon="138.8445925"><ele>614.3233333333334</ele><time>2023-08-12T00:04:29Z</time></trkpt><trkpt lat="35.5268505" lon="138.84438"><ele>614.9566666666666</ele><time>2023-08-12T00:04:39Z</time></trkpt><trkpt lat="35.5270237" lon="138.8442334"><ele>615.6933333333333</ele><time>2023-08-12T00:04:50Z</time></trkpt><trkpt lat="35.5271595" lon="138.8440518"><ele>616.3266666666667</ele><time>2023-08-12T00:05:01Z</time></trkpt><trkpt lat="35.5272958" lon="138.8438983"><ele>616.7533333333332</ele><time>2023-08-12T00:05:12Z</time></trkpt><trkpt lat="35.5273879" lon="138.8437044"><ele>616.9733333333334</ele><time>2023-08-12T00:05:24Z</time></trkpt><trkpt lat="35.5274644" lon="138.8434988"><ele>617.2666666666667</ele><time>2023-08-12T00:05:38Z</time></trkpt><trkpt lat="35.5275923" lon="138.8433186"><ele>617.82</ele><time>2023-08-12T00:05:51Z</time></trkpt><trkpt lat="35.5277758" lon="138.8432885"><ele>618.26</ele><time>2023-08-12T00:06:03Z</time></trkpt><trkpt lat="35.5279706" lon="138.8432773"><ele>618.4499999999999</ele><time>2023-08-12T00:06:15Z</time></trkpt><trkpt lat="35.5281467" lon="138.8432227"><ele>618.4133333333333</ele><time>2023-08-12T00:06:29Z</time></trkpt><trkpt lat="35.528165" lon="138.8429992"><ele>618.6633333333333</ele><time>2023-08-12T00:06:39Z</time></trkpt><trkpt lat="35.5280857" lon="138.8427937"><ele>619.4233333333333</ele><time>2023-08-12T00:06:46Z</time></trkpt><trkpt lat="35.5280312" lon="138.8425729"><ele>620.43</ele><time>2023-08-12T00:06:59Z</time></trkpt><trkpt lat="35.528044" lon="138.8423402"><ele>621.6666666666667</ele><time>2023-08-12T00:07:11Z</time></trkpt><trkpt lat="35.5281567" lon="138.8421531"><ele>622.7800000000001</ele><time>2023-08-12T00:07:20Z</time></trkpt><trkpt lat="35.528277" lon="138.8419823"><ele>623.6700000000001</ele><time>2023-08-12T00:07:35Z</time></trkpt><trkpt lat="35.528421" lon="138.8418226"><ele>624.07</ele><time>2023-08-12T00:07:47Z</time></trkpt><trkpt lat="35.5285575" lon="138.8416574"><ele>624.1899999999999</ele><time>2023-08-12T00:08:02Z</time></trkpt><trkpt lat="35.5287046" lon="138.8415191"><ele>624.23</ele><time>2023-08-12T00:08:10Z</time></trkpt><trkpt lat="35.5288598" lon="138.8413711"><ele>624.07</ele><time>2023-08-12T00:08:31Z</time></trkpt><trkpt lat="35.5290296" lon="138.8412917"><ele>623.5533333333334</ele><time>2023-08-12T00:08:43Z</time></trkpt><trkpt lat="35.5292105" lon="138.841251"><ele>622.8333333333334</ele><time>2023-08-12T00:08:55Z</time></trkpt><trkpt lat="35.5292882" lon="138.8410352"><ele>622.39</ele><time>2023-08-12T00:09:05Z</time></trkpt><trkpt lat="35.5294135" lon="138.8408493"><ele>622.9</ele><time>2023-08-12T00:09:15Z</time></trkpt><trkpt lat="35.5295949" lon="138.8407854"><ele>623.5266666666668</ele><time>2023-08-12T00:09:30Z</time></trkpt><trkpt lat="35.529632" lon="138.8405529"><ele>625.1566666666666</ele><time>2023-08-12T00:09:39Z</time></trkpt><trkpt lat="35.5297818" lon="138.8404246"><ele>625.8466666666667</ele><time>2023-08-12T00:09:51Z</time></trkpt><trkpt lat="35.5298823" lon="138.840241"><ele>626.9133333333334</ele><time>2023-08-12T00:10:03Z</time></trkpt><trkpt lat="35.5299086" lon="138.8400076"><ele>627.4966666666668</ele><time>2023-08-12T00:10:13Z</time></trkpt><trkpt lat="35.5299708" lon="138.839788"><ele>628.5600000000001</ele><time>2023-08-12T00:10:25Z</time></trkpt><trkpt lat="35.5299961" lon="138.8395608"><ele>629.5466666666666</ele><time>2023-08-12T00:10:38Z</time></trkpt><trkpt lat="35.53006" lon="138.839346"><ele>630.4433333333333</ele><time>2023-08-12T00:10:50Z</time></trkpt><trkpt lat="35.5301088" lon="138.8391249"><ele>631.4833333333335</ele><time>2023-08-12T00:11:03Z</time></trkpt><trkpt lat="35.5301455" lon="138.8389023"><ele>632.7066666666668</ele><time>2023-08-12T00:11:15Z</time></trkpt><trkpt lat="35.5301518" lon="138.8386731"><ele>633.85</ele><time>2023-08-12T00:11:27Z</time></trkpt><trkpt lat="35.5301236" lon="138.8384525"><ele>635.0733333333334</ele><time>2023-08-12T00:11:38Z</time></trkpt><trkpt lat="35.5300335" lon="138.8382483"><ele>636.4900000000001</ele><time>2023-08-12T00:11:53Z</time></trkpt><trkpt lat="35.5300369" lon="138.8380255"><ele>637.77</ele><time>2023-08-12T00:12:07Z</time></trkpt><trkpt lat="35.5299598" lon="138.8378189"><ele>639.3000000000001</ele><time>2023-08-12T00:12:21Z</time></trkpt><trkpt lat="35.5298548" lon="138.8376322"><ele>640.8666666666667</ele><time>2023-08-12T00:12:34Z</time></trkpt><trkpt lat="35.5298016" lon="138.8373963"><ele>642.9699999999999</ele><time>2023-08-12T00:12:48Z</time></trkpt><trkpt lat="35.5297638" lon="138.8371649"><ele>644.9033333333333</ele><time>2023-08-12T00:13:03Z</time></trkpt><trkpt lat="35.5298069" lon="138.8369489"><ele>646.21</ele><time>2023-08-12T00:13:19Z</time></trkpt><trkpt lat="35.5297314" lon="138.8367391"><ele>647.0833333333334</ele><time>2023-08-12T00:13:34Z</time></trkpt><trkpt lat="35.5297813" lon="138.8365238"><ele>647.8000000000001</ele><time>2023-08-12T00:13:48Z</time></trkpt><trkpt lat="35.529841" lon="138.8363085"><ele>648.3233333333334</ele><time>2023-08-12T00:14:03Z</time></trkpt><trkpt lat="35.5299722" lon="138.8361484"><ele>648.4866666666667</ele><time>2023-08-12T00:14:18Z</time></trkpt><trkpt lat="35.5300474" lon="138.8359344"><ele>649.53</ele><time>2023-08-12T00:14:33Z</time></trkpt><trkpt lat="35.529908" lon="138.835793"><ele>650.73</ele><time>2023-08-12T00:15:10Z</time></trkpt><trkpt lat="35.5299012" lon="138.8355658"><ele>654.9066666666666</ele><time>2023-08-12T00:15:21Z</time></trkpt><trkpt lat="35.5298206" lon="138.8353303"><ele>658.17</ele><time>2023-08-12T00:15:34Z</time></trkpt><trkpt lat="35.5298459" lon="138.8351042"><ele>661.5100000000001</ele><time>2023-08-12T00:15:47Z</time></trkpt><trkpt lat="35.5299638" lon="138.8349363"><ele>663.2966666666666</ele><time>2023-08-12T00:16:03Z</time></trkpt><trkpt lat="35.529876" lon="138.834741"><ele>664.4233333333333</ele><time>2023-08-12T00:16:19Z</time></trkpt><trkpt lat="35.5297384" lon="138.8345567"><ele>667.6366666666667</ele><time>2023-08-12T00:16:33Z</time></trkpt><trkpt lat="35.5296245" lon="138.8343827"><ele>669.7266666666666</ele><time>2023-08-12T00:16:47Z</time></trkpt><trkpt lat="35.5295662" lon="138.834161"><ele>673.1033333333334</ele><time>2023-08-12T00:17:08Z</time></trkpt><trkpt lat="35.5295127" lon="138.8339419"><ele>677.4233333333333</ele><time>2023-08-12T00:17:30Z</time></trkpt><trkpt lat="35.529407" lon="138.8337605"><ele>682.1666666666666</ele><time>2023-08-12T00:17:50Z</time></trkpt><trkpt lat="35.5292773" lon="138.8335988"><ele>686.5733333333334</ele><time>2023-08-12T00:18:16Z</time></trkpt><trkpt lat="35.529151" lon="138.8334321"><ele>688.0066666666667</ele><time>2023-08-12T00:18:40Z</time></trkpt><trkpt lat="35.5291025" lon="138.8332091"><ele>690.7666666666668</ele><time>2023-08-12T00:18:58Z</time></trkpt><trkpt lat="35.5289601" lon="138.833055"><ele>692.2233333333334</ele><time>2023-08-12T00:19:15Z</time></trkpt><trkpt lat="35.5288762" lon="138.8328572"><ele>693.8333333333334</ele><time>2023-08-12T00:19:28Z</time></trkpt><trkpt lat="35.5287663" lon="138.8326788"><ele>692.7733333333334</ele><time>2023-08-12T00:19:42Z</time></trkpt><trkpt lat="35.528695" lon="138.8324747"><ele>692.6033333333334</ele><time>2023-08-12T00:19:56Z</time></trkpt><trkpt lat="35.528662" lon="138.8322567"><ele>692.7933333333334</ele><time>2023-08-12T00:20:08Z</time></trkpt><trkpt lat="35.528681" lon="138.8320246"><ele>695.0133333333333</ele><time>2023-08-12T00:20:24Z</time></trkpt><trkpt lat="35.5287702" lon="138.8318313"><ele>699.87</ele><time>2023-08-12T00:20:45Z</time></trkpt><trkpt lat="35.5287989" lon="138.8315979"><ele>705.0666666666666</ele><time>2023-08-12T00:21:09Z</time></trkpt><trkpt lat="35.5288386" lon="138.8313809"><ele>710.11</ele><time>2023-08-12T00:21:33Z</time></trkpt><trkpt lat="35.5288709" lon="138.8311575"><ele>711.1766666666666</ele><time>2023-08-12T00:21:51Z</time></trkpt><trkpt lat="35.5289837" lon="138.8309829"><ele>714.2166666666667</ele><time>2023-08-12T00:22:15Z</time></trkpt><trkpt lat="35.5290278" lon="138.8307519"><ele>716.2166666666667</ele><time>2023-08-12T00:22:28Z</time></trkpt><trkpt lat="35.5289778" lon="138.8305366"><ele>716.7033333333334</ele><time>2023-08-12T00:22:41Z</time></trkpt><trkpt lat="35.5290917" lon="138.8303639"><ele>716.11</ele><time>2023-08-12T00:23:00Z</time></trkpt><trkpt lat="35.5291761" lon="138.8301658"><ele>715.9366666666666</ele><time>2023-08-12T00:23:18Z</time></trkpt><trkpt lat="35.5292356" lon="138.8299449"><ele>718.4633333333333</ele><time>2023-08-12T00:23:35Z</time></trkpt><trkpt lat="35.5293375" lon="138.8297567"><ele>719.5733333333334</ele><time>2023-08-12T00:23:53Z</time></trkpt><trkpt lat="35.5295015" lon="138.8296528"><ele>721.1</ele><time>2023-08-12T00:24:10Z</time></trkpt><trkpt lat="35.5294247" lon="138.8298592"><ele>721.5266666666666</ele><time>2023-08-12T00:24:53Z</time></trkpt><trkpt lat="35.5296093" lon="138.8298897"><ele>725.0499999999998</ele><time>2023-08-12T00:25:10Z</time></trkpt><trkpt lat="35.5297737" lon="138.8297622"><ele>728.41</ele><time>2023-08-12T00:25:23Z</time></trkpt><trkpt lat="35.5299286" lon="138.8296485"><ele>734.9366666666666</ele><time>2023-08-12T00:25:40Z</time></trkpt><trkpt lat="35.5300942" lon="138.8295497"><ele>739.2933333333334</ele><time>2023-08-12T00:25:55Z</time></trkpt><trkpt lat="35.5302735" lon="138.8294543"><ele>744.48</ele><time>2023-08-12T00:26:12Z</time></trkpt><trkpt lat="35.5304379" lon="138.8293388"><ele>748.3633333333333</ele><time>2023-08-12T00:26:30Z</time></trkpt><trkpt lat="35.5306145" lon="138.8292388"><ele>751.23</ele><time>2023-08-12T00:26:43Z</time></trkpt><trkpt lat="35.5306623" lon="138.8290106"><ele>751.8299999999999</ele><time>2023-08-12T00:27:02Z</time></trkpt><trkpt lat="35.5307786" lon="138.8288373"><ele>751.8533333333335</ele><time>2023-08-12T00:27:25Z</time></trkpt><trkpt lat="35.5309673" lon="138.8288253"><ele>753.5333333333334</ele><time>2023-08-12T00:27:38Z</time></trkpt><trkpt lat="35.5311433" lon="138.8287721"><ele>758.1333333333333</ele><time>2023-08-12T00:27:56Z</time></trkpt><trkpt lat="35.5312659" lon="138.8286039"><ele>763.0366666666667</ele><time>2023-08-12T00:28:23Z</time></trkpt><trkpt lat="35.5314254" lon="138.8284988"><ele>766.73</ele><time>2023-08-12T00:28:45Z</time></trkpt><trkpt lat="35.5316009" lon="138.8284004"><ele>770.65</ele><time>2023-08-12T00:29:05Z</time></trkpt><trkpt lat="35.5317094" lon="138.8282143"><ele>772.3566666666667</ele><time>2023-08-12T00:29:21Z</time></trkpt><trkpt lat="35.531884" lon="138.8281019"><ele>774.9366666666666</ele><time>2023-08-12T00:29:38Z</time></trkpt><trkpt lat="35.5320653" lon="138.8280447"><ele>775.3466666666667</ele><time>2023-08-12T00:29:52Z</time></trkpt><trkpt lat="35.5322224" lon="138.8279193"><ele>778.0566666666667</ele><time>2023-08-12T00:30:10Z</time></trkpt><trkpt lat="35.5323373" lon="138.8277295"><ele>779.0433333333334</ele><time>2023-08-12T00:30:25Z</time></trkpt><trkpt lat="35.5324858" lon="138.8275905"><ele>780.0866666666667</ele><time>2023-08-12T00:30:42Z</time></trkpt><trkpt lat="35.5326229" lon="138.8274419"><ele>781.7199999999999</ele><time>2023-08-12T00:30:59Z</time></trkpt><trkpt lat="35.5327583" lon="138.8272901"><ele>784.8466666666667</ele><time>2023-08-12T00:31:17Z</time></trkpt><trkpt lat="35.5328921" lon="138.8271406"><ele>788.14</ele><time>2023-08-12T00:31:29Z</time></trkpt><trkpt lat="35.5330409" lon="138.8270122"><ele>791.0300000000001</ele><time>2023-08-12T00:31:43Z</time></trkpt><trkpt lat="35.533093" lon="138.8267931"><ele>793.2633333333333</ele><time>2023-08-12T00:32:00Z</time></trkpt><trkpt lat="35.5330947" lon="138.8265674"><ele>794.8766666666667</ele><time>2023-08-12T00:32:19Z</time></trkpt><trkpt lat="35.5332354" lon="138.8264237"><ele>797.4233333333333</ele><time>2023-08-12T00:32:40Z</time></trkpt><trkpt lat="35.5333484" lon="138.8262512"><ele>800.4666666666667</ele><time>2023-08-12T00:32:58Z</time></trkpt><trkpt lat="35.5334027" lon="138.8260324"><ele>803.0266666666666</ele><time>2023-08-12T00:33:17Z</time></trkpt><trkpt lat="35.5335093" lon="138.8258513"><ele>805.08</ele><time>2023-08-12T00:33:36Z</time></trkpt><trkpt lat="35.5336628" lon="138.8257204"><ele>806.9333333333334</ele><time>2023-08-12T00:33:53Z</time></trkpt><trkpt lat="35.5338221" lon="138.8258298"><ele>810.9000000000001</ele><time>2023-08-12T00:34:21Z</time></trkpt><trkpt lat="35.5339771" lon="138.8259499"><ele>815.6233333333333</ele><time>2023-08-12T00:34:54Z</time></trkpt><trkpt lat="35.5341467" lon="138.8258643"><ele>820.3333333333334</ele><time>2023-08-12T00:35:09Z</time></trkpt><trkpt lat="35.5343273" lon="138.8258309"><ele>824.6933333333333</ele><time>2023-08-12T00:35:27Z</time></trkpt><trkpt lat="35.5345012" lon="138.8257435"><ele>828.0500000000001</ele><time>2023-08-12T00:35:47Z</time></trkpt><trkpt lat="35.534506" lon="138.8255138"><ele>830.4933333333333</ele><time>2023-08-12T00:36:09Z</time></trkpt><trkpt lat="35.5345449" lon="138.8252977"><ele>831.44</ele><time>2023-08-12T00:36:35Z</time></trkpt><trkpt lat="35.5346523" lon="138.8251136"><ele>832.3966666666666</ele><time>2023-08-12T00:36:49Z</time></trkpt><trkpt lat="35.5347952" lon="138.8249674"><ele>834.96</ele><time>2023-08-12T00:37:05Z</time></trkpt><trkpt lat="35.534874" lon="138.8247566"><ele>838.13</ele><time>2023-08-12T00:37:24Z</time></trkpt><trkpt lat="35.5350452" lon="138.8246556"><ele>841.86</ele><time>2023-08-12T00:37:42Z</time></trkpt><trkpt lat="35.5351874" lon="138.8245162"><ele>845.18</ele><time>2023-08-12T00:38:08Z</time></trkpt><trkpt lat="35.5353174" lon="138.824352"><ele>849.4733333333334</ele><time>2023-08-12T00:38:23Z</time></trkpt><trkpt lat="35.5353863" lon="138.8241423"><ele>853.33</ele><time>2023-08-12T00:38:40Z</time></trkpt><trkpt lat="35.5353925" lon="138.8239139"><ele>856.8533333333335</ele><time>2023-08-12T00:39:05Z</time></trkpt><trkpt lat="35.5355811" lon="138.8238888"><ele>860.19</ele><time>2023-08-12T00:39:31Z</time></trkpt><trkpt lat="35.5357655" lon="138.8239378"><ele>862.8333333333334</ele><time>2023-08-12T00:39:50Z</time></trkpt><trkpt lat="35.535946" lon="138.8239571"><ele>865.5466666666667</ele><time>2023-08-12T00:40:06Z</time></trkpt><trkpt lat="35.5360616" lon="138.8237648"><ele>868.0266666666666</ele><time>2023-08-12T00:40:29Z</time></trkpt><trkpt lat="35.5361926" lon="138.823608"><ele>871.5733333333334</ele><time>2023-08-12T00:40:40Z</time></trkpt><trkpt lat="35.5363236" lon="138.8234214"><ele>875.5733333333334</ele><time>2023-08-12T00:40:56Z</time></trkpt><trkpt lat="35.5363918" lon="138.8232164"><ele>879.86</ele><time>2023-08-12T00:41:16Z</time></trkpt><trkpt lat="35.5365106" lon="138.8233869"><ele>882.9700000000001</ele><time>2023-08-12T00:41:57Z</time></trkpt><trkpt lat="35.5366911" lon="138.8234663"><ele>884.8433333333334</ele><time>2023-08-12T00:42:15Z</time></trkpt><trkpt lat="35.5368344" lon="138.823314"><ele>887.2900000000001</ele><time>2023-08-12T00:42:47Z</time></trkpt><trkpt lat="35.5369292" lon="138.8231091"><ele>891.4166666666666</ele><time>2023-08-12T00:43:04Z</time></trkpt><trkpt lat="35.5370378" lon="138.8229149"><ele>895.8933333333333</ele><time>2023-08-12T00:43:17Z</time></trkpt><trkpt lat="35.5370967" lon="138.8226919"><ele>898.8533333333335</ele><time>2023-08-12T00:43:32Z</time></trkpt><trkpt lat="35.5371373" lon="138.8224655"><ele>900.9666666666667</ele><time>2023-08-12T00:43:54Z</time></trkpt><trkpt lat="35.5373201" lon="138.8224528"><ele>903.8433333333332</ele><time>2023-08-12T00:44:23Z</time></trkpt><trkpt lat="35.5374114" lon="138.822644"><ele>906.9166666666666</ele><time>2023-08-12T00:44:46Z</time></trkpt><trkpt lat="35.5375848" lon="138.8225479"><ele>911.0833333333334</ele><time>2023-08-12T00:45:05Z</time></trkpt><trkpt lat="35.5377018" lon="138.8223658"><ele>916.6566666666668</ele><time>2023-08-12T00:45:18Z</time></trkpt><trkpt lat="35.5376936" lon="138.8221424"><ele>921.5266666666666</ele><time>2023-08-12T00:45:41Z</time></trkpt><trkpt lat="35.5377251" lon="138.8219246"><ele>922.4433333333333</ele><time>2023-08-12T00:46:01Z</time></trkpt><trkpt lat="35.537787" lon="138.8221382"><ele>923.1300000000001</ele><time>2023-08-12T00:46:19Z</time></trkpt><trkpt lat="35.5379833" lon="138.8221415"><ele>927.8766666666667</ele><time>2023-08-12T00:46:43Z</time></trkpt><trkpt lat="35.5381517" lon="138.8220486"><ele>936.1966666666667</ele><time>2023-08-12T00:46:59Z</time></trkpt><trkpt lat="35.5383144" lon="138.821915"><ele>943.5466666666666</ele><time>2023-08-12T00:47:16Z</time></trkpt><trkpt lat="35.5383991" lon="138.8217166"><ele>945.7866666666665</ele><time>2023-08-12T00:47:35Z</time></trkpt><trkpt lat="35.5384877" lon="138.8215102"><ele>944.8266666666667</ele><time>2023-08-12T00:47:56Z</time></trkpt><trkpt lat="35.5386305" lon="138.8216494"><ele>945.4699999999999</ele><time>2023-08-12T00:48:28Z</time></trkpt><trkpt lat="35.5387377" lon="138.8214585"><ele>946.7933333333334</ele><time>2023-08-12T00:48:44Z</time></trkpt><trkpt lat="35.5388293" lon="138.8212464"><ele>949.1700000000001</ele><time>2023-08-12T00:49:50Z</time></trkpt><trkpt lat="35.5390095" lon="138.8212079"><ele>950.0933333333334</ele><time>2023-08-12T00:50:28Z</time></trkpt><trkpt lat="35.5391887" lon="138.8212516"><ele>953.4033333333333</ele><time>2023-08-12T00:50:49Z</time></trkpt><trkpt lat="35.5393537" lon="138.821341"><ele>958.5866666666667</ele><time>2023-08-12T00:51:22Z</time></trkpt><trkpt lat="35.539452" lon="138.821138"><ele>963.87</ele><time>2023-08-12T00:51:51Z</time></trkpt><trkpt lat="35.5394302" lon="138.8209172"><ele>971.2433333333333</ele><time>2023-08-12T00:52:06Z</time></trkpt><trkpt lat="35.5395949" lon="138.821025"><ele>977.6266666666667</ele><time>2023-08-12T00:54:03Z</time></trkpt><trkpt lat="35.5397301" lon="138.8208739"><ele>988.8766666666667</ele><time>2023-08-12T00:54:41Z</time></trkpt><trkpt lat="35.5398463" lon="138.8207017"><ele>1001.0766666666667</ele><time>2023-08-12T00:55:38Z</time></trkpt><trkpt lat="35.5398578" lon="138.8204652"><ele>1014.61</ele><time>2023-08-12T00:57:00Z</time></trkpt><trkpt lat="35.540039" lon="138.820434"><ele>1023.5966666666667</ele><time>2023-08-12T00:57:49Z</time></trkpt><trkpt lat="35.5402046" lon="138.8205225"><ele>1030.7366666666667</ele><time>2023-08-12T00:59:02Z</time></trkpt><trkpt lat="35.540385" lon="138.8205679"><ele>1037.7366666666667</ele><time>2023-08-12T01:00:28Z</time></trkpt><trkpt lat="35.5405767" lon="138.820567"><ele>1044.3933333333332</ele><time>2023-08-12T01:00:47Z</time></trkpt><trkpt lat="35.540734" lon="138.8204247"><ele>1049.82</ele><time>2023-08-12T01:01:19Z</time></trkpt><trkpt lat="35.5407395" lon="138.8202026"><ele>1056.6433333333332</ele><time>2023-08-12T01:02:50Z</time></trkpt><trkpt lat="35.5408126" lon="138.8199972"><ele>1064.3266666666666</ele><time>2023-08-12T01:03:54Z</time></trkpt><trkpt lat="35.5409672" lon="138.8198833"><ele>1073.83</ele><time>2023-08-12T01:04:39Z</time></trkpt><trkpt lat="35.5409541" lon="138.81966"><ele>1081.0500000000002</ele><time>2023-08-12T01:05:30Z</time></trkpt><trkpt lat="35.5411284" lon="138.8196033"><ele>1088.95</ele><time>2023-08-12T01:06:10Z</time></trkpt><trkpt lat="35.5411883" lon="138.8193486"><ele>1095.9533333333336</ele><time>2023-08-12T01:07:24Z</time></trkpt><trkpt lat="35.5413205" lon="138.8195006"><ele>1103.1266666666668</ele><time>2023-08-12T01:08:44Z</time></trkpt><trkpt lat="35.5414362" lon="138.8193313"><ele>1109.7833333333335</ele><time>2023-08-12T01:09:19Z</time></trkpt><trkpt lat="35.5415434" lon="138.8191517"><ele>1116.6000000000001</ele><time>2023-08-12T01:10:05Z</time></trkpt><trkpt lat="35.5416838" lon="138.8190102"><ele>1125.9366666666667</ele><time>2023-08-12T01:11:48Z</time></trkpt><trkpt lat="35.5418673" lon="138.8189985"><ele>1134.0400000000002</ele><time>2023-08-12T01:12:29Z</time></trkpt><trkpt lat="35.5420514" lon="138.8190225"><ele>1140.0733333333335</ele><time>2023-08-12T01:12:53Z</time></trkpt><trkpt lat="35.5422325" lon="138.8190204"><ele>1144.7533333333333</ele><time>2023-08-12T01:14:01Z</time></trkpt><trkpt lat="35.5423993" lon="138.8191082"><ele>1150.05</ele><time>2023-08-12T01:15:03Z</time></trkpt><trkpt lat="35.5425756" lon="138.8191564"><ele>1157.8100000000002</ele><time>2023-08-12T01:16:02Z</time></trkpt><trkpt lat="35.5426862" lon="138.8189817"><ele>1166.2433333333336</ele><time>2023-08-12T01:17:23Z</time></trkpt><trkpt lat="35.5427035" lon="138.8187544"><ele>1176.76</ele><time>2023-08-12T01:17:53Z</time></trkpt><trkpt lat="35.542708" lon="138.8185228"><ele>1186.3766666666668</ele><time>2023-08-12T01:19:04Z</time></trkpt><trkpt lat="35.5425835" lon="138.8183445"><ele>1196.4933333333333</ele><time>2023-08-12T01:19:29Z</time></trkpt><trkpt lat="35.5424478" lon="138.8181939"><ele>1201.8300000000002</ele><time>2023-08-12T01:20:27Z</time></trkpt><trkpt lat="35.5423156" lon="138.817995"><ele>1204.76</ele><time>2023-08-12T01:21:02Z</time></trkpt><trkpt lat="35.5424971" lon="138.8179689"><ele>1207.8366666666668</ele><time>2023-08-12T01:27:07Z</time></trkpt><trkpt lat="35.5426754" lon="138.8180069"><ele>1213.6266666666668</ele><time>2023-08-12T01:28:32Z</time></trkpt><trkpt lat="35.5428476" lon="138.8180827"><ele>1224.1633333333336</ele><time>2023-08-12T01:29:20Z</time></trkpt><trkpt lat="35.5429427" lon="138.8178859"><ele>1234.48</ele><time>2023-08-12T01:30:44Z</time></trkpt><trkpt lat="35.5430826" lon="138.8177362"><ele>1245.8533333333335</ele><time>2023-08-12T01:31:02Z</time></trkpt><trkpt lat="35.5432477" lon="138.8178382"><ele>1254.9533333333334</ele><time>2023-08-12T01:32:40Z</time></trkpt><trkpt lat="35.5433923" lon="138.8179757"><ele>1262.0366666666666</ele><time>2023-08-12T01:33:30Z</time></trkpt><trkpt lat="35.5435664" lon="138.8180428"><ele>1267.6266666666668</ele><time>2023-08-12T01:34:08Z</time></trkpt><trkpt lat="35.5437515" lon="138.8180409"><ele>1272.4033333333332</ele><time>2023-08-12T01:34:56Z</time></trkpt><trkpt lat="35.5439269" lon="138.8179564"><ele>1278.28</ele><time>2023-08-12T01:35:54Z</time></trkpt><trkpt lat="35.543788" lon="138.8177945"><ele>1285.53</ele><time>2023-08-12T01:36:37Z</time></trkpt><trkpt lat="35.5439458" lon="138.8176778"><ele>1293.3066666666666</ele><time>2023-08-12T01:38:07Z</time></trkpt><trkpt lat="35.5440851" lon="138.8175351"><ele>1300.7833333333335</ele><time>2023-08-12T01:39:07Z</time></trkpt><trkpt lat="35.5442674" lon="138.8174876"><ele>1306.8066666666666</ele><time>2023-08-12T01:40:04Z</time></trkpt><trkpt lat="35.5444336" lon="138.8173898"><ele>1311.57</ele><time>2023-08-12T01:40:37Z</time></trkpt><trkpt lat="35.5445954" lon="138.8172779"><ele>1315.7066666666667</ele><time>2023-08-12T01:41:02Z</time></trkpt><trkpt lat="35.5447487" lon="138.8171343"><ele>1319.0600000000002</ele><time>2023-08-12T01:41:58Z</time></trkpt><trkpt lat="35.5449221" lon="138.817054"><ele>1322.2366666666667</ele><time>2023-08-12T01:42:55Z</time></trkpt><trkpt lat="35.5451016" lon="138.8170193"><ele>1323.7266666666667</ele><time>2023-08-12T01:43:37Z</time></trkpt><trkpt lat="35.5452336" lon="138.8168679"><ele>1326.9866666666667</ele><time>2023-08-12T01:44:16Z</time></trkpt><trkpt lat="35.5452015" lon="138.8166496"><ele>1332.6233333333332</ele><time>2023-08-12T01:45:15Z</time></trkpt><trkpt lat="35.5453256" lon="138.8164767"><ele>1343.7833333333335</ele><time>2023-08-12T01:47:31Z</time></trkpt><trkpt lat="35.5454625" lon="138.8163185"><ele>1357.86</ele><time>2023-08-12T01:49:47Z</time></trkpt><trkpt lat="35.5454734" lon="138.8160957"><ele>1372.0266666666666</ele><time>2023-08-12T01:50:55Z</time></trkpt><trkpt lat="35.5456531" lon="138.8160736"><ele>1385.53</ele><time>2023-08-12T01:52:18Z</time></trkpt><trkpt lat="35.5458284" lon="138.8161277"><ele>1393.71</ele><time>2023-08-12T01:52:57Z</time></trkpt><trkpt lat="35.5460038" lon="138.8161905"><ele>1402.3666666666668</ele><time>2023-08-12T01:54:43Z</time></trkpt><trkpt lat="35.546012" lon="138.8159688"><ele>1410.3566666666666</ele><time>2023-08-12T01:56:12Z</time></trkpt><trkpt lat="35.5459895" lon="138.8157359"><ele>1422.59</ele><time>2023-08-12T01:57:44Z</time></trkpt><trkpt lat="35.5461478" lon="138.8156294"><ele>1434.466666666667</ele><time>2023-08-12T01:58:32Z</time></trkpt><trkpt lat="35.546238" lon="138.8154367"><ele>1445.68</ele><time>2023-08-12T02:02:11Z</time></trkpt><trkpt lat="35.5464043" lon="138.8153176"><ele>1457.4000000000003</ele><time>2023-08-12T02:03:13Z</time></trkpt><trkpt lat="35.5465716" lon="138.8151823"><ele>1469.3300000000002</ele><time>2023-08-12T02:04:55Z</time></trkpt><trkpt lat="35.5466618" lon="138.8149904"><ele>1481.0166666666667</ele><time>2023-08-12T02:06:45Z</time></trkpt><trkpt lat="35.5468393" lon="138.8149126"><ele>1491.7333333333333</ele><time>2023-08-12T02:08:33Z</time></trkpt><trkpt lat="35.5469774" lon="138.8147692"><ele>1502.9566666666667</ele><time>2023-08-12T02:10:04Z</time></trkpt><trkpt lat="35.5471428" lon="138.8148728"><ele>1513.93</ele><time>2023-08-12T02:12:24Z</time></trkpt><trkpt lat="35.5473064" lon="138.8149741"><ele>1522.86</ele><time>2023-08-12T02:13:15Z</time></trkpt><trkpt lat="35.5474778" lon="138.8150488"><ele>1531.5</ele><time>2023-08-12T02:14:00Z</time></trkpt><trkpt lat="35.5475653" lon="138.8148471"><ele>1540.0366666666669</ele><time>2023-08-12T02:15:39Z</time></trkpt><trkpt lat="35.547724" lon="138.8147392"><ele>1548.1000000000001</ele><time>2023-08-12T02:17:49Z</time></trkpt><trkpt lat="35.5478686" lon="138.8146075"><ele>1555.7399999999998</ele><time>2023-08-12T02:18:52Z</time></trkpt><trkpt lat="35.5480304" lon="138.8145094"><ele>1565.39</ele><time>2023-08-12T02:24:43Z</time></trkpt><trkpt lat="35.5481538" lon="138.8143306"><ele>1576.5933333333335</ele><time>2023-08-12T02:25:33Z</time></trkpt><trkpt lat="35.5482377" lon="138.8141204"><ele>1587.706666666667</ele><time>2023-08-12T02:25:48Z</time></trkpt><trkpt lat="35.5481724" lon="138.8139055"><ele>1592.4466666666667</ele><time>2023-08-12T02:26:04Z</time></trkpt><trkpt lat="35.5482737" lon="138.8137204"><ele>1595.3633333333335</ele><time>2023-08-12T02:26:22Z</time></trkpt><trkpt lat="35.5483273" lon="138.8135088"><ele>1593.096666666667</ele><time>2023-08-12T02:27:36Z</time></trkpt><trkpt lat="35.5484841" lon="138.8133965"><ele>1592.8133333333333</ele><time>2023-08-12T02:27:55Z</time></trkpt><trkpt lat="35.5486666" lon="138.8133706"><ele>1592.4033333333334</ele><time>2023-08-12T02:28:09Z</time></trkpt><trkpt lat="35.5487802" lon="138.8131923"><ele>1592.7966666666669</ele><time>2023-08-12T02:28:24Z</time></trkpt><trkpt lat="35.5489611" lon="138.8132378"><ele>1596.1633333333332</ele><time>2023-08-12T02:29:34Z</time></trkpt><trkpt lat="35.5491413" lon="138.8131288"><ele>1600.2366666666667</ele><time>2023-08-12T02:30:25Z</time></trkpt><trkpt lat="35.5493257" lon="138.8131404"><ele>1608.6500000000003</ele><time>2023-08-12T02:31:03Z</time></trkpt><trkpt lat="35.5494909" lon="138.8130352"><ele>1617.0366666666669</ele><time>2023-08-12T02:31:39Z</time></trkpt><trkpt lat="35.5495716" lon="138.8128368"><ele>1620.8766666666668</ele><time>2023-08-12T02:32:03Z</time></trkpt><trkpt lat="35.5494612" lon="138.8126443"><ele>1616.6633333333332</ele><time>2023-08-12T02:33:01Z</time></trkpt><trkpt lat="35.5493057" lon="138.8125268"><ele>1608.506666666667</ele><time>2023-08-12T02:33:24Z</time></trkpt><trkpt lat="35.5492797" lon="138.8123049"><ele>1607.8166666666666</ele><time>2023-08-12T02:34:02Z</time></trkpt><trkpt lat="35.5491299" lon="138.8121713"><ele>1609.6899999999998</ele><time>2023-08-12T02:34:41Z</time></trkpt><trkpt lat="35.5490472" lon="138.8119598"><ele>1614.5199999999998</ele><time>2023-08-12T02:34:55Z</time></trkpt><trkpt lat="35.5489633" lon="138.811762"><ele>1614.5333333333335</ele><time>2023-08-12T02:35:11Z</time></trkpt><trkpt lat="35.5487924" lon="138.8116902"><ele>1614.7833333333335</ele><time>2023-08-12T02:35:35Z</time></trkpt><trkpt lat="35.5488684" lon="138.8114855"><ele>1617.3533333333332</ele><time>2023-08-12T02:36:29Z</time></trkpt><trkpt lat="35.5487133" lon="138.8113501"><ele>1623.3500000000001</ele><time>2023-08-12T02:36:44Z</time></trkpt><trkpt lat="35.5485807" lon="138.8115011"><ele>1624.756666666667</ele><time>2023-08-12T02:37:12Z</time></trkpt><trkpt lat="35.5487395" lon="138.8113858"><ele>1628.1899999999998</ele><time>2023-08-12T02:38:38Z</time></trkpt><trkpt lat="35.5487191" lon="138.8111617"><ele>1633.18</ele><time>2023-08-12T02:41:12Z</time></trkpt><trkpt lat="35.5486466" lon="138.8109517"><ele>1649.1466666666665</ele><time>2023-08-12T02:41:33Z</time></trkpt><trkpt lat="35.5484902" lon="138.8108169"><ele>1656.4766666666667</ele><time>2023-08-12T02:41:49Z</time></trkpt><trkpt lat="35.5483153" lon="138.8108794"><ele>1656.1566666666665</ele><time>2023-08-12T02:42:03Z</time></trkpt><trkpt lat="35.5481299" lon="138.8108626"><ele>1648.7866666666666</ele><time>2023-08-12T02:42:26Z</time></trkpt><trkpt lat="35.5479519" lon="138.8109165"><ele>1641.72</ele><time>2023-08-12T02:42:47Z</time></trkpt><trkpt lat="35.5480406" lon="138.8107033"><ele>1637.506666666667</ele><time>2023-08-12T02:43:33Z</time></trkpt><trkpt lat="35.5482018" lon="138.810586"><ele>1637.53</ele><time>2023-08-12T02:43:47Z</time></trkpt><trkpt lat="35.5482481" lon="138.8103619"><ele>1639.88</ele><time>2023-08-12T02:44:43Z</time></trkpt><trkpt lat="35.5483927" lon="138.8102257"><ele>1647.0133333333333</ele><time>2023-08-12T02:45:44Z</time></trkpt><trkpt lat="35.5482879" lon="138.8100433"><ele>1649.506666666667</ele><time>2023-08-12T02:46:15Z</time></trkpt><trkpt lat="35.5482447" lon="138.8098267"><ele>1658.53</ele><time>2023-08-12T02:46:42Z</time></trkpt><trkpt lat="35.5480705" lon="138.809922"><ele>1656.4466666666667</ele><time>2023-08-12T02:46:55Z</time></trkpt><trkpt lat="35.548039" lon="138.809698"><ele>1661.1533333333334</ele><time>2023-08-12T02:47:38Z</time></trkpt><trkpt lat="35.5481802" lon="138.8095581"><ele>1661.3266666666668</ele><time>2023-08-12T02:48:13Z</time></trkpt><trkpt lat="35.5483313" lon="138.8094159"><ele>1668.97</ele><time>2023-08-12T02:48:56Z</time></trkpt><trkpt lat="35.5484366" lon="138.8092268"><ele>1674.8999999999999</ele><time>2023-08-12T02:49:14Z</time></trkpt><trkpt lat="35.5485497" lon="138.8090452"><ele>1677.1166666666668</ele><time>2023-08-12T02:49:36Z</time></trkpt><trkpt lat="35.5486116" lon="138.8088299"><ele>1675.4033333333334</ele><time>2023-08-12T02:49:56Z</time></trkpt><trkpt lat="35.5487635" lon="138.8086995"><ele>1672.716666666667</ele><time>2023-08-12T02:50:13Z</time></trkpt><trkpt lat="35.5488047" lon="138.8084838"><ele>1666.6066666666666</ele><time>2023-08-12T02:51:09Z</time></trkpt><trkpt lat="35.5489165" lon="138.8083036"><ele>1658.3366666666668</ele><time>2023-08-12T02:51:22Z</time></trkpt><trkpt lat="35.5490142" lon="138.8081078"><ele>1652.073333333333</ele><time>2023-08-12T02:51:37Z</time></trkpt><trkpt lat="35.5489409" lon="138.8079043"><ele>1648.3799999999999</ele><time>2023-08-12T02:52:20Z</time></trkpt><trkpt lat="35.5489029" lon="138.8076854"><ele>1652.2233333333334</ele><time>2023-08-12T02:53:27Z</time></trkpt><trkpt lat="35.5490849" lon="138.8076814"><ele>1657.72</ele><time>2023-08-12T02:55:11Z</time></trkpt><trkpt lat="35.5492392" lon="138.8075617"><ele>1669.0766666666666</ele><time>2023-08-12T02:57:53Z</time></trkpt><trkpt lat="35.5494127" lon="138.8076283"><ele>1681.006666666667</ele><time>2023-08-12T02:59:18Z</time></trkpt><trkpt lat="35.5495904" lon="138.8076752"><ele>1690.6866666666665</ele><time>2023-08-12T02:59:48Z</time></trkpt><trkpt lat="35.5497472" lon="138.8075637"><ele>1699.5566666666666</ele><time>2023-08-12T03:01:22Z</time></trkpt><trkpt lat="35.5496397" lon="138.8073795"><ele>1707.426666666667</ele><time>2023-08-12T03:01:52Z</time></trkpt><trkpt lat="35.5498309" lon="138.8073927"><ele>1714.4133333333332</ele><time>2023-08-12T03:03:25Z</time></trkpt><trkpt lat="35.5499924" lon="138.8075323"><ele>1719.14</ele><time>2023-08-12T03:03:49Z</time></trkpt><trkpt lat="35.549888" lon="138.8077163"><ele>1723.6366666666665</ele><time>2023-08-12T03:04:09Z</time></trkpt><trkpt lat="35.5497348" lon="138.8078427"><ele>1726.4366666666667</ele><time>2023-08-12T03:04:38Z</time></trkpt><trkpt lat="35.5498767" lon="138.8079804"><ele>1732.8700000000001</ele><time>2023-08-12T03:05:33Z</time></trkpt><trkpt lat="35.5498721" lon="138.8082056"><ele>1738.9466666666667</ele><time>2023-08-12T03:06:38Z</time></trkpt><trkpt lat="35.5497905" lon="138.8084054"><ele>1748.0033333333333</ele><time>2023-08-12T03:07:39Z</time></trkpt><trkpt lat="35.549669" lon="138.8085731"><ele>1754.4800000000002</ele><time>2023-08-12T03:08:08Z</time></trkpt><trkpt lat="35.5495581" lon="138.8087477"><ele>1761.4866666666667</ele><time>2023-08-12T03:08:59Z</time></trkpt><trkpt lat="35.5495032" lon="138.8089592"><ele>1767.9433333333334</ele><time>2023-08-12T03:09:45Z</time></trkpt><trkpt lat="35.5493365" lon="138.8090457"><ele>1773.8333333333333</ele><time>2023-08-12T03:10:43Z</time></trkpt><trkpt lat="35.5493211" lon="138.8092844"><ele>1777.8666666666668</ele><time>2023-08-12T03:11:03Z</time></trkpt><trkpt lat="35.5492909" lon="138.8090442"><ele>1779.1966666666667</ele><time>2023-08-12T03:15:13Z</time></trkpt><trkpt lat="35.5492119" lon="138.8092468"><ele>1779.8566666666666</ele><time>2023-08-12T03:16:35Z</time></trkpt><trkpt lat="35.5493673" lon="138.8091314"><ele>1780.2366666666667</ele><time>2023-08-12T03:17:45Z</time></trkpt><trkpt lat="35.5492082" lon="138.8089939"><ele>1777.7366666666667</ele><time>2023-08-12T03:18:21Z</time></trkpt><trkpt lat="35.5493752" lon="138.8090846"><ele>1777.9033333333334</ele><time>2023-08-12T03:18:52Z</time></trkpt><trkpt lat="35.5495121" lon="138.8089372"><ele>1775.7466666666667</ele><time>2023-08-12T03:19:33Z</time></trkpt><trkpt lat="35.5496647" lon="138.808814"><ele>1774.5066666666664</ele><time>2023-08-12T03:19:53Z</time></trkpt><trkpt lat="35.5497973" lon="138.8086638"><ele>1768.5666666666666</ele><time>2023-08-12T03:20:12Z</time></trkpt><trkpt lat="35.54993" lon="138.8085135"><ele>1762.743333333333</ele><time>2023-08-12T03:20:25Z</time></trkpt><trkpt lat="35.5498559" lon="138.808311"><ele>1757.7066666666667</ele><time>2023-08-12T03:20:35Z</time></trkpt><trkpt lat="35.5499105" lon="138.8080972"><ele>1751.506666666667</ele><time>2023-08-12T03:21:01Z</time></trkpt><trkpt lat="35.5497544" lon="138.807977"><ele>1745.8366666666668</ele><time>2023-08-12T03:21:36Z</time></trkpt><trkpt lat="35.5498894" lon="138.80782"><ele>1739.6433333333334</ele><time>2023-08-12T03:21:56Z</time></trkpt><trkpt lat="35.5499906" lon="138.8076305"><ele>1733.58</ele><time>2023-08-12T03:22:14Z</time></trkpt><trkpt lat="35.5499585" lon="138.8074069"><ele>1727.2700000000002</ele><time>2023-08-12T03:22:32Z</time></trkpt><trkpt lat="35.5498339" lon="138.8072461"><ele>1723.6900000000003</ele><time>2023-08-12T03:22:45Z</time></trkpt><trkpt lat="35.549656" lon="138.807193"><ele>1721.99</ele><time>2023-08-12T03:22:59Z</time></trkpt><trkpt lat="35.5495217" lon="138.8070244"><ele>1721.8666666666668</ele><time>2023-08-12T03:27:11Z</time></trkpt><trkpt lat="35.5493534" lon="138.8069434"><ele>1722.7466666666667</ele><time>2023-08-12T03:27:25Z</time></trkpt><trkpt lat="35.549175" lon="138.8068949"><ele>1726.0433333333333</ele><time>2023-08-12T03:27:43Z</time></trkpt><trkpt lat="35.5491081" lon="138.8066695"><ele>1730.9366666666667</ele><time>2023-08-12T03:28:03Z</time></trkpt><trkpt lat="35.5490519" lon="138.8064501"><ele>1734.2233333333334</ele><time>2023-08-12T03:28:15Z</time></trkpt><trkpt lat="35.5489518" lon="138.8062181"><ele>1734.7733333333333</ele><time>2023-08-12T03:33:57Z</time></trkpt><trkpt lat="35.5490675" lon="138.8063915"><ele>1734.28</ele><time>2023-08-12T03:34:30Z</time></trkpt><trkpt lat="35.5488869" lon="138.8063635"><ele>1734.2533333333333</ele><time>2023-08-12T03:37:19Z</time></trkpt><trkpt lat="35.5487042" lon="138.8062912"><ele>1734.3933333333334</ele><time>2023-08-12T03:37:35Z</time></trkpt><trkpt lat="35.5485226" lon="138.8061939"><ele>1733.7466666666667</ele><time>2023-08-12T03:37:56Z</time></trkpt><trkpt lat="35.5483642" lon="138.8060872"><ele>1732.3966666666668</ele><time>2023-08-12T03:38:36Z</time></trkpt><trkpt lat="35.548194" lon="138.806009"><ele>1729.4666666666665</ele><time>2023-08-12T03:39:08Z</time></trkpt><trkpt lat="35.5483033" lon="138.805824"><ele>1727.7933333333333</ele><time>2023-08-12T03:39:38Z</time></trkpt><trkpt lat="35.5482167" lon="138.8056079"><ele>1724.7333333333333</ele><time>2023-08-12T03:39:59Z</time></trkpt><trkpt lat="35.5480791" lon="138.8054651"><ele>1723.5033333333333</ele><time>2023-08-12T03:40:10Z</time></trkpt><trkpt lat="35.548005" lon="138.8052608"><ele>1721.4233333333334</ele><time>2023-08-12T03:40:25Z</time></trkpt><trkpt lat="35.5479725" lon="138.805031"><ele>1720.5533333333333</ele><time>2023-08-12T03:42:20Z</time></trkpt><trkpt lat="35.5479573" lon="138.8048035"><ele>1720.9966666666667</ele><time>2023-08-12T03:42:30Z</time></trkpt><trkpt lat="35.5479222" lon="138.8045852"><ele>1721.5133333333333</ele><time>2023-08-12T03:42:46Z</time></trkpt><trkpt lat="35.5477997" lon="138.8044187"><ele>1722.6333333333332</ele><time>2023-08-12T03:43:00Z</time></trkpt><trkpt lat="35.5476918" lon="138.8042393"><ele>1722.9099999999999</ele><time>2023-08-12T03:43:20Z</time></trkpt><trkpt lat="35.547572" lon="138.8040666"><ele>1723.1899999999998</ele><time>2023-08-12T03:43:33Z</time></trkpt><trkpt lat="35.5474262" lon="138.8039357"><ele>1724.8466666666666</ele><time>2023-08-12T03:43:46Z</time></trkpt><trkpt lat="35.5472682" lon="138.8038276"><ele>1727.1899999999998</ele><time>2023-08-12T03:44:07Z</time></trkpt><trkpt lat="35.5471921" lon="138.8036181"><ele>1729.3033333333333</ele><time>2023-08-12T03:44:23Z</time></trkpt><trkpt lat="35.5470653" lon="138.8034337"><ele>1728.7333333333333</ele><time>2023-08-12T03:44:39Z</time></trkpt><trkpt lat="35.546898" lon="138.8033145"><ele>1726.7</ele><time>2023-08-12T03:44:52Z</time></trkpt><trkpt lat="35.5467686" lon="138.8031513"><ele>1726.256666666667</ele><time>2023-08-12T03:45:02Z</time></trkpt><trkpt lat="35.5466835" lon="138.8029395"><ele>1727.03</ele><time>2023-08-12T03:45:13Z</time></trkpt><trkpt lat="35.5464925" lon="138.8029553"><ele>1728.43</ele><time>2023-08-12T03:45:31Z</time></trkpt><trkpt lat="35.5463094" lon="138.8029317"><ele>1726.7333333333333</ele><time>2023-08-12T03:45:57Z</time></trkpt><trkpt lat="35.5461406" lon="138.802846"><ele>1724.6566666666668</ele><time>2023-08-12T03:46:11Z</time></trkpt><trkpt lat="35.5459693" lon="138.8027594"><ele>1722.5333333333335</ele><time>2023-08-12T03:46:24Z</time></trkpt><trkpt lat="35.5457832" lon="138.8026688"><ele>1722.2633333333335</ele><time>2023-08-12T03:46:40Z</time></trkpt><trkpt lat="35.5455971" lon="138.8026393"><ele>1722.0433333333333</ele><time>2023-08-12T03:46:58Z</time></trkpt><trkpt lat="35.5454143" lon="138.802603"><ele>1721.3133333333335</ele><time>2023-08-12T03:47:09Z</time></trkpt><trkpt lat="35.5452343" lon="138.8026448"><ele>1719.5833333333333</ele><time>2023-08-12T03:47:23Z</time></trkpt><trkpt lat="35.5450799" lon="138.80276"><ele>1716.18</ele><time>2023-08-12T03:47:56Z</time></trkpt><trkpt lat="35.544892" lon="138.8028168"><ele>1711.24</ele><time>2023-08-12T03:48:09Z</time></trkpt><trkpt lat="35.5447717" lon="138.8029829"><ele>1705.9133333333332</ele><time>2023-08-12T03:48:25Z</time></trkpt><trkpt lat="35.5445984" lon="138.8030656"><ele>1701.38</ele><time>2023-08-12T03:48:43Z</time></trkpt><trkpt lat="35.5444439" lon="138.803197"><ele>1697.4233333333334</ele><time>2023-08-12T03:48:59Z</time></trkpt><trkpt lat="35.5442911" lon="138.8033312"><ele>1693.39</ele><time>2023-08-12T03:49:14Z</time></trkpt><trkpt lat="35.5441258" lon="138.8034217"><ele>1689.4133333333332</ele><time>2023-08-12T03:50:05Z</time></trkpt><trkpt lat="35.5439441" lon="138.8034447"><ele>1686.59</ele><time>2023-08-12T03:50:16Z</time></trkpt><trkpt lat="35.5437707" lon="138.8035442"><ele>1684.4800000000002</ele><time>2023-08-12T03:50:32Z</time></trkpt><trkpt lat="35.5435864" lon="138.803508"><ele>1682.62</ele><time>2023-08-12T03:50:51Z</time></trkpt><trkpt lat="35.5434103" lon="138.8035698"><ele>1680.4533333333331</ele><time>2023-08-12T03:51:03Z</time></trkpt><trkpt lat="35.5432766" lon="138.8037207"><ele>1677.2366666666667</ele><time>2023-08-12T03:51:16Z</time></trkpt><trkpt lat="35.543094" lon="138.8037711"><ele>1674.2833333333335</ele><time>2023-08-12T03:51:31Z</time></trkpt><trkpt lat="35.5429387" lon="138.8038955"><ele>1670.6333333333332</ele><time>2023-08-12T03:51:50Z</time></trkpt><trkpt lat="35.5428252" lon="138.804078"><ele>1666.1633333333332</ele><time>2023-08-12T03:52:12Z</time></trkpt><trkpt lat="35.5426727" lon="138.8042046"><ele>1659.8333333333333</ele><time>2023-08-12T03:52:30Z</time></trkpt><trkpt lat="35.5424966" lon="138.8042801"><ele>1652.97</ele><time>2023-08-12T03:53:14Z</time></trkpt><trkpt lat="35.5423217" lon="138.8043364"><ele>1645.1733333333334</ele><time>2023-08-12T03:53:46Z</time></trkpt><trkpt lat="35.5421842" lon="138.804481"><ele>1637.0733333333335</ele><time>2023-08-12T03:54:17Z</time></trkpt><trkpt lat="35.5420576" lon="138.8046382"><ele>1628.2066666666667</ele><time>2023-08-12T03:54:45Z</time></trkpt><trkpt lat="35.5418847" lon="138.8047298"><ele>1620.6566666666668</ele><time>2023-08-12T03:55:18Z</time></trkpt><trkpt lat="35.5416972" lon="138.8046931"><ele>1613.1766666666665</ele><time>2023-08-12T03:55:38Z</time></trkpt><trkpt lat="35.5415091" lon="138.8047073"><ele>1605.6000000000001</ele><time>2023-08-12T03:56:09Z</time></trkpt><trkpt lat="35.5413675" lon="138.8045613"><ele>1597.8400000000001</ele><time>2023-08-12T03:56:26Z</time></trkpt><trkpt lat="35.5412162" lon="138.8046965"><ele>1591.0833333333333</ele><time>2023-08-12T03:56:42Z</time></trkpt><trkpt lat="35.5410611" lon="138.8048274"><ele>1586.3400000000001</ele><time>2023-08-12T03:57:15Z</time></trkpt><trkpt lat="35.5409464" lon="138.8050005"><ele>1583.5266666666666</ele><time>2023-08-12T03:57:26Z</time></trkpt><trkpt lat="35.540781" lon="138.805091"><ele>1581.86</ele><time>2023-08-12T03:57:40Z</time></trkpt><trkpt lat="35.5406085" lon="138.8051733"><ele>1580.25</ele><time>2023-08-12T03:57:55Z</time></trkpt><trkpt lat="35.5404196" lon="138.8052713"><ele>1577.4866666666667</ele><time>2023-08-12T03:58:10Z</time></trkpt><trkpt lat="35.5402436" lon="138.8052195"><ele>1574.2266666666667</ele><time>2023-08-12T03:58:25Z</time></trkpt><trkpt lat="35.5400586" lon="138.8052518"><ele>1571.2033333333331</ele><time>2023-08-12T03:58:44Z</time></trkpt><trkpt lat="35.5398995" lon="138.8051309"><ele>1567.3866666666665</ele><time>2023-08-12T03:58:57Z</time></trkpt><trkpt lat="35.5397065" lon="138.8051437"><ele>1564.5833333333333</ele><time>2023-08-12T03:59:13Z</time></trkpt><trkpt lat="35.5395363" lon="138.8052499"><ele>1561.1900000000003</ele><time>2023-08-12T03:59:25Z</time></trkpt><trkpt lat="35.5394142" lon="138.8054303"><ele>1560.3466666666666</ele><time>2023-08-12T03:59:40Z</time></trkpt><trkpt lat="35.5392312" lon="138.8054157"><ele>1558.2900000000002</ele><time>2023-08-12T03:59:54Z</time></trkpt><trkpt lat="35.5390476" lon="138.8054291"><ele>1555.9066666666668</ele><time>2023-08-12T04:00:12Z</time></trkpt><trkpt lat="35.5388653" lon="138.8054192"><ele>1551.8700000000001</ele><time>2023-08-12T04:00:25Z</time></trkpt><trkpt lat="35.5387695" lon="138.8056107"><ele>1549.743333333333</ele><time>2023-08-12T04:00:40Z</time></trkpt><trkpt lat="35.5385752" lon="138.8055738"><ele>1547.29</ele><time>2023-08-12T04:00:48Z</time></trkpt><trkpt lat="35.5383942" lon="138.8055894"><ele>1545.2266666666667</ele><time>2023-08-12T04:01:05Z</time></trkpt><trkpt lat="35.5382344" lon="138.8054833"><ele>1540.7299999999998</ele><time>2023-08-12T04:01:16Z</time></trkpt><trkpt lat="35.5380491" lon="138.8054822"><ele>1537.4666666666665</ele><time>2023-08-12T04:01:30Z</time></trkpt><trkpt lat="35.5378724" lon="138.8055389"><ele>1534.7299999999998</ele><time>2023-08-12T04:01:47Z</time></trkpt><trkpt lat="35.5376953" lon="138.8054925"><ele>1533.6000000000001</ele><time>2023-08-12T04:02:03Z</time></trkpt><trkpt lat="35.5375183" lon="138.8054318"><ele>1532.2233333333334</ele><time>2023-08-12T04:02:18Z</time></trkpt><trkpt lat="35.5373418" lon="138.8053281"><ele>1529.86</ele><time>2023-08-12T04:02:32Z</time></trkpt><trkpt lat="35.5372069" lon="138.8051764"><ele>1526.75</ele><time>2023-08-12T04:02:46Z</time></trkpt><trkpt lat="35.53702" lon="138.8052098"><ele>1524.6333333333332</ele><time>2023-08-12T04:03:00Z</time></trkpt><trkpt lat="35.5368821" lon="138.8053534"><ele>1525.32</ele><time>2023-08-12T04:03:12Z</time></trkpt><trkpt lat="35.5367343" lon="138.8054952"><ele>1528.03</ele><time>2023-08-12T04:03:27Z</time></trkpt><trkpt lat="35.5365925" lon="138.8056514"><ele>1530.4800000000002</ele><time>2023-08-12T04:03:44Z</time></trkpt><trkpt lat="35.5364155" lon="138.8057168"><ele>1532.43</ele><time>2023-08-12T04:04:00Z</time></trkpt><trkpt lat="35.5362313" lon="138.8056541"><ele>1533.5533333333335</ele><time>2023-08-12T04:04:17Z</time></trkpt><trkpt lat="35.5360447" lon="138.8056406"><ele>1535.9000000000003</ele><time>2023-08-12T04:04:50Z</time></trkpt><trkpt lat="35.5359059" lon="138.8054958"><ele>1537.39</ele><time>2023-08-12T04:05:01Z</time></trkpt><trkpt lat="35.5357461" lon="138.8053917"><ele>1539.5666666666666</ele><time>2023-08-12T04:05:19Z</time></trkpt><trkpt lat="35.5355699" lon="138.805439"><ele>1541.8633333333335</ele><time>2023-08-12T04:05:37Z</time></trkpt><trkpt lat="35.5353873" lon="138.8054757"><ele>1544.7700000000002</ele><time>2023-08-12T04:05:56Z</time></trkpt><trkpt lat="35.5352085" lon="138.8054459"><ele>1547.7266666666667</ele><time>2023-08-12T04:06:28Z</time></trkpt><trkpt lat="35.5350698" lon="138.805593"><ele>1549.3633333333335</ele><time>2023-08-12T04:06:42Z</time></trkpt><trkpt lat="35.5349729" lon="138.8057805"><ele>1550.2433333333336</ele><time>2023-08-12T04:06:55Z</time></trkpt><trkpt lat="35.5347955" lon="138.8057346"><ele>1548.24</ele><time>2023-08-12T04:07:10Z</time></trkpt><trkpt lat="35.5346278" lon="138.8058222"><ele>1544.756666666667</ele><time>2023-08-12T04:07:32Z</time></trkpt><trkpt lat="35.5344649" lon="138.8059179"><ele>1539.3733333333332</ele><time>2023-08-12T04:07:57Z</time></trkpt><trkpt lat="35.5343984" lon="138.8061252"><ele>1534.8500000000001</ele><time>2023-08-12T04:08:18Z</time></trkpt><trkpt lat="35.5342953" lon="138.8063126"><ele>1530.37</ele><time>2023-08-12T04:08:31Z</time></trkpt><trkpt lat="35.5341323" lon="138.8064315"><ele>1526.8866666666665</ele><time>2023-08-12T04:08:58Z</time></trkpt><trkpt lat="35.5339573" lon="138.8064989"><ele>1522.8733333333332</ele><time>2023-08-12T04:09:14Z</time></trkpt><trkpt lat="35.533782" lon="138.8065837"><ele>1519.5933333333332</ele><time>2023-08-12T04:09:35Z</time></trkpt><trkpt lat="35.5336036" lon="138.8066182"><ele>1515.6899999999998</ele><time>2023-08-12T04:09:56Z</time></trkpt><trkpt lat="35.5334267" lon="138.8065571"><ele>1510.6766666666665</ele><time>2023-08-12T04:10:12Z</time></trkpt><trkpt lat="35.5332356" lon="138.806564"><ele>1504.58</ele><time>2023-08-12T04:10:28Z</time></trkpt><trkpt lat="35.5330563" lon="138.8066141"><ele>1499.1166666666668</ele><time>2023-08-12T04:11:01Z</time></trkpt><trkpt lat="35.5328817" lon="138.8065426"><ele>1495.0333333333335</ele><time>2023-08-12T04:11:11Z</time></trkpt><trkpt lat="35.532696" lon="138.8065616"><ele>1490.8133333333333</ele><time>2023-08-12T04:11:34Z</time></trkpt><trkpt lat="35.532518" lon="138.8064813"><ele>1486.6899999999998</ele><time>2023-08-12T04:11:48Z</time></trkpt><trkpt lat="35.5323679" lon="138.8063532"><ele>1483.6566666666668</ele><time>2023-08-12T04:12:00Z</time></trkpt><trkpt lat="35.5322335" lon="138.8061991"><ele>1482.6266666666668</ele><time>2023-08-12T04:12:13Z</time></trkpt><trkpt lat="35.5320518" lon="138.8062574"><ele>1481.62</ele><time>2023-08-12T04:12:33Z</time></trkpt><trkpt lat="35.5318696" lon="138.8062824"><ele>1481.7333333333333</ele><time>2023-08-12T04:12:45Z</time></trkpt><trkpt lat="35.5316879" lon="138.8062656"><ele>1481.3066666666666</ele><time>2023-08-12T04:13:02Z</time></trkpt><trkpt lat="35.5315195" lon="138.8063573"><ele>1478.4466666666667</ele><time>2023-08-12T04:13:14Z</time></trkpt><trkpt lat="35.5313528" lon="138.8062556"><ele>1475.0200000000002</ele><time>2023-08-12T04:13:27Z</time></trkpt><trkpt lat="35.531191" lon="138.806144"><ele>1473.3966666666668</ele><time>2023-08-12T04:13:44Z</time></trkpt><trkpt lat="35.5309955" lon="138.8060676"><ele>1473.61</ele><time>2023-08-12T04:14:01Z</time></trkpt><trkpt lat="35.5308866" lon="138.8058793"><ele>1471.9966666666667</ele><time>2023-08-12T04:14:12Z</time></trkpt><trkpt lat="35.5308917" lon="138.8056587"><ele>1468.3533333333335</ele><time>2023-08-12T04:14:24Z</time></trkpt><trkpt lat="35.5308743" lon="138.805438"><ele>1464.5933333333332</ele><time>2023-08-12T04:15:02Z</time></trkpt><trkpt lat="35.530713" lon="138.8053343"><ele>1459.2466666666667</ele><time>2023-08-12T04:15:13Z</time></trkpt><trkpt lat="35.5306089" lon="138.8051496"><ele>1451.5</ele><time>2023-08-12T04:16:01Z</time></trkpt><trkpt lat="35.5306867" lon="138.8049427"><ele>1444.3033333333333</ele><time>2023-08-12T04:16:12Z</time></trkpt><trkpt lat="35.5307444" lon="138.8047308"><ele>1440.55</ele><time>2023-08-12T04:16:26Z</time></trkpt><trkpt lat="35.5305562" lon="138.8047525"><ele>1437.3966666666668</ele><time>2023-08-12T04:16:59Z</time></trkpt><trkpt lat="35.5304208" lon="138.8049035"><ele>1434.0333333333335</ele><time>2023-08-12T04:17:20Z</time></trkpt><trkpt lat="35.530284" lon="138.805054"><ele>1430.7166666666665</ele><time>2023-08-12T04:17:45Z</time></trkpt><trkpt lat="35.5301031" lon="138.8050038"><ele>1427.54</ele><time>2023-08-12T04:17:59Z</time></trkpt><trkpt lat="35.5299206" lon="138.8049701"><ele>1425.1433333333334</ele><time>2023-08-12T04:18:13Z</time></trkpt><trkpt lat="35.5297855" lon="138.8048129"><ele>1419.716666666667</ele><time>2023-08-12T04:18:28Z</time></trkpt><trkpt lat="35.5296083" lon="138.804767"><ele>1416.6066666666668</ele><time>2023-08-12T04:18:44Z</time></trkpt><trkpt lat="35.5294374" lon="138.8048467"><ele>1415.0133333333333</ele><time>2023-08-12T04:18:56Z</time></trkpt><trkpt lat="35.52926" lon="138.804893"><ele>1415.9133333333332</ele><time>2023-08-12T04:19:13Z</time></trkpt><trkpt lat="35.5290816" lon="138.8048347"><ele>1415.256666666667</ele><time>2023-08-12T04:19:29Z</time></trkpt><trkpt lat="35.5289441" lon="138.8046895"><ele>1410.5333333333335</ele><time>2023-08-12T04:19:42Z</time></trkpt><trkpt lat="35.5287738" lon="138.8046053"><ele>1405.4000000000003</ele><time>2023-08-12T04:19:59Z</time></trkpt><trkpt lat="35.5285774" lon="138.8045828"><ele>1402.0666666666666</ele><time>2023-08-12T04:20:28Z</time></trkpt><trkpt lat="35.5284204" lon="138.804468"><ele>1400.55</ele><time>2023-08-12T04:20:39Z</time></trkpt><trkpt lat="35.5282704" lon="138.8043413"><ele>1397.7266666666667</ele><time>2023-08-12T04:20:53Z</time></trkpt><trkpt lat="35.5280855" lon="138.8042789"><ele>1394.1899999999998</ele><time>2023-08-12T04:21:20Z</time></trkpt><trkpt lat="35.5279318" lon="138.8041555"><ele>1389.7566666666664</ele><time>2023-08-12T04:21:28Z</time></trkpt><trkpt lat="35.5277485" lon="138.8041393"><ele>1385.3533333333335</ele><time>2023-08-12T04:21:45Z</time></trkpt><trkpt lat="35.5275559" lon="138.8041268"><ele>1380.2133333333334</ele><time>2023-08-12T04:22:02Z</time></trkpt><trkpt lat="35.5273951" lon="138.8040205"><ele>1375.95</ele><time>2023-08-12T04:22:19Z</time></trkpt><trkpt lat="35.5272388" lon="138.8039048"><ele>1373.5900000000001</ele><time>2023-08-12T04:22:30Z</time></trkpt><trkpt lat="35.5270961" lon="138.8037537"><ele>1372.4866666666667</ele><time>2023-08-12T04:22:50Z</time></trkpt><trkpt lat="35.5269187" lon="138.8037138"><ele>1372.6899999999998</ele><time>2023-08-12T04:23:03Z</time></trkpt><trkpt lat="35.5267361" lon="138.8036964"><ele>1372.1566666666668</ele><time>2023-08-12T04:23:15Z</time></trkpt><trkpt lat="35.5265706" lon="138.8036054"><ele>1371.88</ele><time>2023-08-12T04:23:42Z</time></trkpt><trkpt lat="35.5264471" lon="138.8034402"><ele>1371.92</ele><time>2023-08-12T04:23:53Z</time></trkpt><trkpt lat="35.5263107" lon="138.8032863"><ele>1373.1333333333334</ele><time>2023-08-12T04:24:05Z</time></trkpt><trkpt lat="35.526134" lon="138.8032154"><ele>1374.0266666666666</ele><time>2023-08-12T04:24:19Z</time></trkpt><trkpt lat="35.5259615" lon="138.8031131"><ele>1374.0200000000002</ele><time>2023-08-12T04:24:33Z</time></trkpt><trkpt lat="35.5258045" lon="138.8029971"><ele>1373.1500000000003</ele><time>2023-08-12T04:24:46Z</time></trkpt><trkpt lat="35.5256472" lon="138.8028746"><ele>1372.13</ele><time>2023-08-12T04:24:58Z</time></trkpt><trkpt lat="35.525508" lon="138.8027266"><ele>1371.4066666666668</ele><time>2023-08-12T04:25:10Z</time></trkpt><trkpt lat="35.5253406" lon="138.8026433"><ele>1370.4399999999998</ele><time>2023-08-12T04:25:25Z</time></trkpt><trkpt lat="35.5251555" lon="138.802604"><ele>1368.8799999999999</ele><time>2023-08-12T04:26:00Z</time></trkpt><trkpt lat="35.5250116" lon="138.8024709"><ele>1366.506666666667</ele><time>2023-08-12T04:26:09Z</time></trkpt><trkpt lat="35.5248598" lon="138.802348"><ele>1364.01</ele><time>2023-08-12T04:26:26Z</time></trkpt><trkpt lat="35.5247152" lon="138.8022141"><ele>1362.3266666666668</ele><time>2023-08-12T04:26:37Z</time></trkpt><trkpt lat="35.5245427" lon="138.8021478"><ele>1361.1533333333334</ele><time>2023-08-12T04:26:48Z</time></trkpt><trkpt lat="35.5244273" lon="138.8019751"><ele>1359.6966666666667</ele><time>2023-08-12T04:27:00Z</time></trkpt><trkpt lat="35.5243748" lon="138.8017624"><ele>1356.8533333333332</ele><time>2023-08-12T04:28:06Z</time></trkpt><trkpt lat="35.5241946" lon="138.8017461"><ele>1354.42</ele><time>2023-08-12T04:28:17Z</time></trkpt><trkpt lat="35.5241378" lon="138.801536"><ele>1352.18</ele><time>2023-08-12T04:29:53Z</time></trkpt><trkpt lat="35.5242137" lon="138.8013318"><ele>1348.6166666666668</ele><time>2023-08-12T04:30:38Z</time></trkpt><trkpt lat="35.524115" lon="138.8011323"><ele>1344.5133333333333</ele><time>2023-08-12T04:30:51Z</time></trkpt><trkpt lat="35.5240233" lon="138.800928"><ele>1339.56</ele><time>2023-08-12T04:31:03Z</time></trkpt><trkpt lat="35.5239645" lon="138.8007143"><ele>1335.9066666666668</ele><time>2023-08-12T04:31:19Z</time></trkpt><trkpt lat="35.5239576" lon="138.8004866"><ele>1332.7633333333333</ele><time>2023-08-12T04:31:37Z</time></trkpt><trkpt lat="35.5238922" lon="138.8002689"><ele>1329.7666666666667</ele><time>2023-08-12T04:31:51Z</time></trkpt><trkpt lat="35.5237862" lon="138.8000867"><ele>1326.4366666666667</ele><time>2023-08-12T04:32:06Z</time></trkpt><trkpt lat="35.5235813" lon="138.8000655"><ele>1323.66</ele><time>2023-08-12T04:32:17Z</time></trkpt><trkpt lat="35.5234143" lon="138.799933"><ele>1320.3666666666666</ele><time>2023-08-12T04:33:48Z</time></trkpt><trkpt lat="35.5232621" lon="138.7997719"><ele>1317.5933333333335</ele><time>2023-08-12T04:33:58Z</time></trkpt><trkpt lat="35.5231243" lon="138.7996229"><ele>1314.3366666666668</ele><time>2023-08-12T04:34:23Z</time></trkpt><trkpt lat="35.5229731" lon="138.7994708"><ele>1313.1266666666668</ele><time>2023-08-12T04:34:32Z</time></trkpt><trkpt lat="35.5228896" lon="138.7992708"><ele>1313.3999999999999</ele><time>2023-08-12T04:34:45Z</time></trkpt><trkpt lat="35.5227907" lon="138.7990737"><ele>1314.8966666666665</ele><time>2023-08-12T04:34:57Z</time></trkpt><trkpt lat="35.5226363" lon="138.7989561"><ele>1316.5533333333333</ele><time>2023-08-12T04:35:09Z</time></trkpt><trkpt lat="35.5224513" lon="138.7989813"><ele>1317.7833333333335</ele><time>2023-08-12T04:35:21Z</time></trkpt><trkpt lat="35.5223085" lon="138.7988453"><ele>1318.08</ele><time>2023-08-12T04:35:32Z</time></trkpt><trkpt lat="35.5221363" lon="138.7987671"><ele>1318.0766666666666</ele><time>2023-08-12T04:35:46Z</time></trkpt><trkpt lat="35.5219704" lon="138.7986657"><ele>1317.6466666666665</ele><time>2023-08-12T04:35:57Z</time></trkpt><trkpt lat="35.5219044" lon="138.7984523"><ele>1317.0633333333335</ele><time>2023-08-12T04:36:10Z</time></trkpt><trkpt lat="35.521788" lon="138.7982651"><ele>1316.9266666666667</ele><time>2023-08-12T04:36:20Z</time></trkpt><trkpt lat="35.5217156" lon="138.7980617"><ele>1317.6466666666665</ele><time>2023-08-12T04:36:41Z</time></trkpt><trkpt lat="35.5216285" lon="138.7978633"><ele>1317.5033333333333</ele><time>2023-08-12T04:36:56Z</time></trkpt><trkpt lat="35.5215292" lon="138.7976665"><ele>1317.05</ele><time>2023-08-12T04:37:10Z</time></trkpt><trkpt lat="35.5214749" lon="138.7974446"><ele>1314.7266666666667</ele><time>2023-08-12T04:37:22Z</time></trkpt><trkpt lat="35.5213886" lon="138.7972386"><ele>1313.8933333333334</ele><time>2023-08-12T04:37:35Z</time></trkpt><trkpt lat="35.5212543" lon="138.7970809"><ele>1312.8366666666668</ele><time>2023-08-12T04:37:51Z</time></trkpt><trkpt lat="35.5210857" lon="138.7969722"><ele>1313.1966666666667</ele><time>2023-08-12T04:38:03Z</time></trkpt><trkpt lat="35.5210497" lon="138.796749"><ele>1312.1066666666668</ele><time>2023-08-12T04:38:18Z</time></trkpt><trkpt lat="35.5209545" lon="138.7965547"><ele>1310.1133333333335</ele><time>2023-08-12T04:38:30Z</time></trkpt><trkpt lat="35.5207937" lon="138.7964373"><ele>1308.5333333333335</ele><time>2023-08-12T04:38:42Z</time></trkpt><trkpt lat="35.5207035" lon="138.7962334"><ele>1306.8966666666668</ele><time>2023-08-12T04:38:57Z</time></trkpt><trkpt lat="35.5205599" lon="138.79608"><ele>1305.94</ele><time>2023-08-12T04:39:09Z</time></trkpt><trkpt lat="35.5203949" lon="138.7959553"><ele>1304.22</ele><time>2023-08-12T04:39:24Z</time></trkpt><trkpt lat="35.5202353" lon="138.7958384"><ele>1303.0900000000001</ele><time>2023-08-12T04:39:37Z</time></trkpt><trkpt lat="35.520048" lon="138.7958523"><ele>1301.5366666666666</ele><time>2023-08-12T04:39:53Z</time></trkpt><trkpt lat="35.5200094" lon="138.7956338"><ele>1299.8999999999999</ele><time>2023-08-12T04:41:28Z</time></trkpt><trkpt lat="35.5200176" lon="138.795405"><ele>1297.0033333333333</ele><time>2023-08-12T04:41:44Z</time></trkpt><trkpt lat="35.5200323" lon="138.7951807"><ele>1294.8466666666666</ele><time>2023-08-12T04:41:56Z</time></trkpt><trkpt lat="35.5199934" lon="138.7949605"><ele>1295.1366666666665</ele><time>2023-08-12T04:42:09Z</time></trkpt><trkpt lat="35.5199201" lon="138.7947576"><ele>1297.4533333333334</ele><time>2023-08-12T04:42:22Z</time></trkpt><trkpt lat="35.5199199" lon="138.794528"><ele>1298.1133333333335</ele><time>2023-08-12T04:42:44Z</time></trkpt><trkpt lat="35.5199014" lon="138.7943074"><ele>1293.3066666666666</ele><time>2023-08-12T04:43:01Z</time></trkpt><trkpt lat="35.5198929" lon="138.794081"><ele>1285.8999999999999</ele><time>2023-08-12T04:43:14Z</time></trkpt><trkpt lat="35.5199195" lon="138.7938625"><ele>1278.6566666666668</ele><time>2023-08-12T04:43:30Z</time></trkpt><trkpt lat="35.5198398" lon="138.7936586"><ele>1274.2133333333334</ele><time>2023-08-12T04:43:45Z</time></trkpt><trkpt lat="35.5196415" lon="138.7936864"><ele>1270.43</ele><time>2023-08-12T04:43:59Z</time></trkpt><trkpt lat="35.5195145" lon="138.7935191"><ele>1266.6333333333334</ele><time>2023-08-12T04:44:42Z</time></trkpt><trkpt lat="35.5194193" lon="138.7933266"><ele>1262.0266666666666</ele><time>2023-08-12T04:45:04Z</time></trkpt><trkpt lat="35.5192673" lon="138.7932022"><ele>1256.4633333333334</ele><time>2023-08-12T04:45:18Z</time></trkpt><trkpt lat="35.5191131" lon="138.793069"><ele>1250.6466666666668</ele><time>2023-08-12T04:45:43Z</time></trkpt><trkpt lat="35.518971" lon="138.7929292"><ele>1245.6266666666668</ele><time>2023-08-12T04:46:02Z</time></trkpt><trkpt lat="35.5188635" lon="138.7927444"><ele>1242.37</ele><time>2023-08-12T04:46:23Z</time></trkpt><trkpt lat="35.518702" lon="138.7926416"><ele>1239.7866666666666</ele><time>2023-08-12T04:46:37Z</time></trkpt><trkpt lat="35.5185314" lon="138.792566"><ele>1236.7366666666667</ele><time>2023-08-12T04:46:50Z</time></trkpt><trkpt lat="35.5183737" lon="138.7924209"><ele>1233.3933333333334</ele><time>2023-08-12T04:47:01Z</time></trkpt><trkpt lat="35.5182498" lon="138.7922522"><ele>1229.4566666666667</ele><time>2023-08-12T04:47:16Z</time></trkpt><trkpt lat="35.5181853" lon="138.7920433"><ele>1226.0066666666664</ele><time>2023-08-12T04:47:32Z</time></trkpt><trkpt lat="35.5179869" lon="138.7919763"><ele>1223.1033333333332</ele><time>2023-08-12T04:47:46Z</time></trkpt><trkpt lat="35.5178003" lon="138.7918984"><ele>1219.8899999999999</ele><time>2023-08-12T04:48:05Z</time></trkpt><trkpt lat="35.5176551" lon="138.7917421"><ele>1216.2299999999998</ele><time>2023-08-12T04:48:18Z</time></trkpt><trkpt lat="35.5174758" lon="138.7916597"><ele>1211.5133333333333</ele><time>2023-08-12T04:48:30Z</time></trkpt><trkpt lat="35.5172938" lon="138.7916307"><ele>1207.8733333333332</ele><time>2023-08-12T04:48:44Z</time></trkpt><trkpt lat="35.5171724" lon="138.7914546"><ele>1206.4733333333334</ele><time>2023-08-12T04:48:58Z</time></trkpt><trkpt lat="35.5169959" lon="138.7915329"><ele>1204.1566666666668</ele><time>2023-08-12T04:49:14Z</time></trkpt><trkpt lat="35.5169116" lon="138.7913369"><ele>1204.1866666666667</ele><time>2023-08-12T04:49:33Z</time></trkpt><trkpt lat="35.516793" lon="138.7911636"><ele>1204.0</ele><time>2023-08-12T04:49:44Z</time></trkpt><trkpt lat="35.5166115" lon="138.7910949"><ele>1204.4033333333334</ele><time>2023-08-12T04:49:59Z</time></trkpt><trkpt lat="35.5164676" lon="138.7909618"><ele>1204.1466666666668</ele><time>2023-08-12T04:50:12Z</time></trkpt><trkpt lat="35.5163136" lon="138.7908344"><ele>1202.69</ele><time>2023-08-12T04:50:37Z</time></trkpt><trkpt lat="35.5161705" lon="138.7906836"><ele>1204.2333333333333</ele><time>2023-08-12T04:50:49Z</time></trkpt><trkpt lat="35.5159942" lon="138.7906241"><ele>1205.59</ele><time>2023-08-12T04:51:03Z</time></trkpt><trkpt lat="35.5158035" lon="138.7906375"><ele>1205.8766666666668</ele><time>2023-08-12T04:51:18Z</time></trkpt><trkpt lat="35.5156206" lon="138.7906683"><ele>1205.0133333333333</ele><time>2023-08-12T04:51:30Z</time></trkpt><trkpt lat="35.5154723" lon="138.7905307"><ele>1204.2833333333335</ele><time>2023-08-12T04:51:43Z</time></trkpt><trkpt lat="35.5154371" lon="138.7903012"><ele>1205.6699999999998</ele><time>2023-08-12T04:52:07Z</time></trkpt><trkpt lat="35.5152974" lon="138.7901618"><ele>1206.7166666666665</ele><time>2023-08-12T04:52:17Z</time></trkpt><trkpt lat="35.5151267" lon="138.7900839"><ele>1206.27</ele><time>2023-08-12T04:52:26Z</time></trkpt><trkpt lat="35.5150344" lon="138.789894"><ele>1204.7733333333333</ele><time>2023-08-12T04:52:40Z</time></trkpt><trkpt lat="35.5149032" lon="138.7897363"><ele>1202.7</ele><time>2023-08-12T04:52:57Z</time></trkpt><trkpt lat="35.5147275" lon="138.7896472"><ele>1199.93</ele><time>2023-08-12T04:53:17Z</time></trkpt><trkpt lat="35.5145716" lon="138.7895216"><ele>1199.1366666666668</ele><time>2023-08-12T04:53:32Z</time></trkpt><trkpt lat="35.5144195" lon="138.7893944"><ele>1201.6866666666667</ele><time>2023-08-12T04:53:52Z</time></trkpt><trkpt lat="35.5143073" lon="138.7892182"><ele>1202.9533333333331</ele><time>2023-08-12T04:54:08Z</time></trkpt><trkpt lat="35.5141803" lon="138.7890481"><ele>1199.3233333333335</ele><time>2023-08-12T04:54:21Z</time></trkpt><trkpt lat="35.5140944" lon="138.7888419"><ele>1191.67</ele><time>2023-08-12T04:54:35Z</time></trkpt><trkpt lat="35.5140414" lon="138.7886305"><ele>1188.5766666666666</ele><time>2023-08-12T04:54:49Z</time></trkpt><trkpt lat="35.5139113" lon="138.788477"><ele>1190.2733333333333</ele><time>2023-08-12T04:55:15Z</time></trkpt><trkpt lat="35.5137444" lon="138.7883771"><ele>1192.7866666666666</ele><time>2023-08-12T04:55:31Z</time></trkpt><trkpt lat="35.5136137" lon="138.7882209"><ele>1192.3366666666666</ele><time>2023-08-12T04:55:42Z</time></trkpt><trkpt lat="35.513523" lon="138.788029"><ele>1190.29</ele><time>2023-08-12T04:55:58Z</time></trkpt><trkpt lat="35.5133675" lon="138.7879134"><ele>1187.4033333333334</ele><time>2023-08-12T04:56:17Z</time></trkpt><trkpt lat="35.5131808" lon="138.7878686"><ele>1184.3633333333335</ele><time>2023-08-12T04:57:13Z</time></trkpt><trkpt lat="35.5130156" lon="138.7877583"><ele>1179.78</ele><time>2023-08-12T04:57:24Z</time></trkpt><trkpt lat="35.512888" lon="138.7875958"><ele>1179.72</ele><time>2023-08-12T04:57:34Z</time></trkpt><trkpt lat="35.512707" lon="138.7875222"><ele>1180.3566666666668</ele><time>2023-08-12T04:57:47Z</time></trkpt><trkpt lat="35.5125598" lon="138.7873773"><ele>1181.71</ele><time>2023-08-12T04:58:02Z</time></trkpt><trkpt lat="35.5124095" lon="138.7872"><ele>1178.9433333333334</ele><time>2023-08-12T04:58:14Z</time></trkpt><trkpt lat="35.5122443" lon="138.787054"><ele>1173.5866666666668</ele><time>2023-08-12T04:58:23Z</time></trkpt><trkpt lat="35.5120907" lon="138.7869356"><ele>1170.6566666666665</ele><time>2023-08-12T04:58:37Z</time></trkpt><trkpt lat="35.5119111" lon="138.7869821"><ele>1165.8166666666666</ele><time>2023-08-12T04:58:51Z</time></trkpt><trkpt lat="35.5117213" lon="138.7869681"><ele>1162.17</ele><time>2023-08-12T04:59:06Z</time></trkpt><trkpt lat="35.5116518" lon="138.7867393"><ele>1159.8833333333334</ele><time>2023-08-12T04:59:19Z</time></trkpt><trkpt lat="35.5115345" lon="138.7869126"><ele>1158.6233333333334</ele><time>2023-08-12T04:59:33Z</time></trkpt><trkpt lat="35.5113739" lon="138.7870133"><ele>1159.28</ele><time>2023-08-12T04:59:45Z</time></trkpt><trkpt lat="35.5111983" lon="138.7869054"><ele>1157.68</ele><time>2023-08-12T04:59:58Z</time></trkpt><trkpt lat="35.51102" lon="138.7868613"><ele>1157.6733333333334</ele><time>2023-08-12T05:00:14Z</time></trkpt><trkpt lat="35.5108457" lon="138.7867944"><ele>1154.5733333333333</ele><time>2023-08-12T05:00:31Z</time></trkpt><trkpt lat="35.5106593" lon="138.7867836"><ele>1150.08</ele><time>2023-08-12T05:00:41Z</time></trkpt><trkpt lat="35.5104714" lon="138.7867573"><ele>1143.6966666666665</ele><time>2023-08-12T05:00:54Z</time></trkpt><trkpt lat="35.5102728" lon="138.7868046"><ele>1140.1999999999998</ele><time>2023-08-12T05:01:07Z</time></trkpt><trkpt lat="35.510115" lon="138.7869422"><ele>1137.0633333333335</ele><time>2023-08-12T05:01:21Z</time></trkpt><trkpt lat="35.5099384" lon="138.7868919"><ele>1133.9833333333333</ele><time>2023-08-12T05:01:32Z</time></trkpt><trkpt lat="35.5097529" lon="138.7869049"><ele>1130.5733333333335</ele><time>2023-08-12T05:02:18Z</time></trkpt><trkpt lat="35.5095666" lon="138.7869018"><ele>1126.83</ele><time>2023-08-12T05:02:29Z</time></trkpt><trkpt lat="35.5094888" lon="138.786698"><ele>1124.3366666666668</ele><time>2023-08-12T05:02:55Z</time></trkpt><trkpt lat="35.5093189" lon="138.7866236"><ele>1121.7666666666667</ele><time>2023-08-12T05:03:04Z</time></trkpt><trkpt lat="35.509141" lon="138.7865448"><ele>1119.3700000000001</ele><time>2023-08-12T05:03:14Z</time></trkpt><trkpt lat="35.5089552" lon="138.7865178"><ele>1117.45</ele><time>2023-08-12T05:03:24Z</time></trkpt><trkpt lat="35.5087739" lon="138.7865243"><ele>1115.8600000000001</ele><time>2023-08-12T05:03:35Z</time></trkpt><trkpt lat="35.5085914" lon="138.7865354"><ele>1114.5166666666667</ele><time>2023-08-12T05:03:49Z</time></trkpt><trkpt lat="35.5084229" lon="138.7866304"><ele>1113.506666666667</ele><time>2023-08-12T05:04:00Z</time></trkpt><trkpt lat="35.5082708" lon="138.7867695"><ele>1112.34</ele><time>2023-08-12T05:04:16Z</time></trkpt><trkpt lat="35.5080972" lon="138.7867006"><ele>1111.46</ele><time>2023-08-12T05:04:38Z</time></trkpt><trkpt lat="35.5080058" lon="138.7865092"><ele>1110.32</ele><time>2023-08-12T05:04:49Z</time></trkpt><trkpt lat="35.5079577" lon="138.7862729"><ele>1108.31</ele><time>2023-08-12T05:05:00Z</time></trkpt><trkpt lat="35.5079065" lon="138.7860573"><ele>1105.6066666666668</ele><time>2023-08-12T05:05:11Z</time></trkpt><trkpt lat="35.5077955" lon="138.7858807"><ele>1103.4933333333333</ele><time>2023-08-12T05:05:23Z</time></trkpt><trkpt lat="35.5076526" lon="138.7857443"><ele>1104.16</ele><time>2023-08-12T05:05:39Z</time></trkpt><trkpt lat="35.5074782" lon="138.7856816"><ele>1108.5733333333335</ele><time>2023-08-12T05:06:15Z</time></trkpt><trkpt lat="35.5073514" lon="138.7855225"><ele>1115.0933333333335</ele><time>2023-08-12T05:06:59Z</time></trkpt><trkpt lat="35.5071827" lon="138.7854175"><ele>1121.37</ele><time>2023-08-12T05:09:35Z</time></trkpt><trkpt lat="35.5070094" lon="138.7853275"><ele>1126.1133333333335</ele><time>2023-08-12T05:09:45Z</time></trkpt><trkpt lat="35.50692" lon="138.7851293"><ele>1129.8733333333332</ele><time>2023-08-12T05:10:02Z</time></trkpt><trkpt lat="35.5067493" lon="138.7850125"><ele>1133.24</ele><time>2023-08-12T05:10:24Z</time></trkpt><trkpt lat="35.5066363" lon="138.784839"><ele>1137.2966666666666</ele><time>2023-08-12T05:10:50Z</time></trkpt><trkpt lat="35.5065321" lon="138.7846488"><ele>1141.5033333333333</ele><time>2023-08-12T05:11:35Z</time></trkpt><trkpt lat="35.5064371" lon="138.7844577"><ele>1146.1866666666667</ele><time>2023-08-12T05:12:03Z</time></trkpt><trkpt lat="35.5063699" lon="138.7842454"><ele>1147.68</ele><time>2023-08-12T05:12:14Z</time></trkpt><trkpt lat="35.50627" lon="138.7840538"><ele>1146.72</ele><time>2023-08-12T05:12:29Z</time></trkpt><trkpt lat="35.5062894" lon="138.7838317"><ele>1144.8999999999999</ele><time>2023-08-12T05:12:42Z</time></trkpt><trkpt lat="35.5061497" lon="138.7836885"><ele>1143.4933333333336</ele><time>2023-08-12T05:12:53Z</time></trkpt><trkpt lat="35.5059861" lon="138.7835606"><ele>1143.0166666666667</ele><time>2023-08-12T05:13:05Z</time></trkpt><trkpt lat="35.5058327" lon="138.7834422"><ele>1141.8333333333333</ele><time>2023-08-12T05:13:22Z</time></trkpt><trkpt lat="35.5056969" lon="138.783277"><ele>1140.3833333333332</ele><time>2023-08-12T05:13:37Z</time></trkpt><trkpt lat="35.5055851" lon="138.7831031"><ele>1136.8366666666668</ele><time>2023-08-12T05:14:07Z</time></trkpt><trkpt lat="35.5054236" lon="138.7829785"><ele>1132.7</ele><time>2023-08-12T05:14:20Z</time></trkpt><trkpt lat="35.5052747" lon="138.7828445"><ele>1128.9066666666668</ele><time>2023-08-12T05:14:40Z</time></trkpt><trkpt lat="35.5051169" lon="138.7827262"><ele>1126.6166666666668</ele><time>2023-08-12T05:14:52Z</time></trkpt><trkpt lat="35.5049675" lon="138.7825948"><ele>1124.88</ele><time>2023-08-12T05:15:04Z</time></trkpt><trkpt lat="35.5047825" lon="138.7825534"><ele>1123.3466666666666</ele><time>2023-08-12T05:15:21Z</time></trkpt><trkpt lat="35.5046319" lon="138.7824288"><ele>1121.8233333333335</ele><time>2023-08-12T05:15:34Z</time></trkpt><trkpt lat="35.5045425" lon="138.7822173"><ele>1119.74</ele><time>2023-08-12T05:15:45Z</time></trkpt><trkpt lat="35.5045035" lon="138.7819885"><ele>1117.2666666666667</ele><time>2023-08-12T05:16:09Z</time></trkpt><trkpt lat="35.5043741" lon="138.781825"><ele>1115.45</ele><time>2023-08-12T05:16:18Z</time></trkpt><trkpt lat="35.5042392" lon="138.7816694"><ele>1115.756666666667</ele><time>2023-08-12T05:16:30Z</time></trkpt><trkpt lat="35.5041356" lon="138.7814771"><ele>1117.9866666666667</ele><time>2023-08-12T05:16:45Z</time></trkpt><trkpt lat="35.5040222" lon="138.7812987"><ele>1121.0033333333333</ele><time>2023-08-12T05:17:15Z</time></trkpt><trkpt lat="35.5038904" lon="138.7811358"><ele>1123.7933333333333</ele><time>2023-08-12T05:18:49Z</time></trkpt><trkpt lat="35.5038147" lon="138.7809283"><ele>1126.8700000000001</ele><time>2023-08-12T05:20:00Z</time></trkpt><trkpt lat="35.5036287" lon="138.7808674"><ele>1130.38</ele><time>2023-08-12T05:20:13Z</time></trkpt><trkpt lat="35.5035052" lon="138.7807067"><ele>1134.7666666666667</ele><time>2023-08-12T05:20:25Z</time></trkpt><trkpt lat="35.5034069" lon="138.7805201"><ele>1138.0233333333333</ele><time>2023-08-12T05:20:38Z</time></trkpt><trkpt lat="35.5032451" lon="138.7804225"><ele>1139.29</ele><time>2023-08-12T05:24:26Z</time></trkpt><trkpt lat="35.5033446" lon="138.7802339"><ele>1138.4166666666667</ele><time>2023-08-12T05:24:53Z</time></trkpt><trkpt lat="35.5034703" lon="138.7800663"><ele>1137.0466666666669</ele><time>2023-08-12T05:25:07Z</time></trkpt><trkpt lat="35.5035152" lon="138.7798287"><ele>1134.9133333333334</ele><time>2023-08-12T05:25:18Z</time></trkpt><trkpt lat="35.5034895" lon="138.779593"><ele>1130.3700000000001</ele><time>2023-08-12T05:25:29Z</time></trkpt><trkpt lat="35.5035324" lon="138.779366"><ele>1124.1633333333332</ele><time>2023-08-12T05:25:41Z</time></trkpt><trkpt lat="35.5035708" lon="138.7791395"><ele>1118.7066666666667</ele><time>2023-08-12T05:25:56Z</time></trkpt><trkpt lat="35.5035852" lon="138.7789189"><ele>1115.9766666666667</ele><time>2023-08-12T05:26:08Z</time></trkpt><trkpt lat="35.5036059" lon="138.7786952"><ele>1114.3500000000001</ele><time>2023-08-12T05:26:20Z</time></trkpt><trkpt lat="35.5036819" lon="138.7784876"><ele>1113.4833333333333</ele><time>2023-08-12T05:26:34Z</time></trkpt><trkpt lat="35.5036422" lon="138.7782722"><ele>1111.8533333333335</ele><time>2023-08-12T05:26:46Z</time></trkpt><trkpt lat="35.5037719" lon="138.7781177"><ele>1111.3166666666666</ele><time>2023-08-12T05:27:11Z</time></trkpt><trkpt lat="35.5038094" lon="138.7778993"><ele>1109.47</ele><time>2023-08-12T05:28:48Z</time></trkpt><trkpt lat="35.503805" lon="138.7776745"><ele>1107.1466666666665</ele><time>2023-08-12T05:28:59Z</time></trkpt><trkpt lat="35.5037014" lon="138.7774902"><ele>1100.8166666666666</ele><time>2023-08-12T05:29:18Z</time></trkpt><trkpt lat="35.5036407" lon="138.7772639"><ele>1094.22</ele><time>2023-08-12T05:29:50Z</time></trkpt><trkpt lat="35.5035292" lon="138.7770853"><ele>1087.8366666666668</ele><time>2023-08-12T05:30:02Z</time></trkpt><trkpt lat="35.5034963" lon="138.776865"><ele>1083.9266666666665</ele><time>2023-08-12T05:30:51Z</time></trkpt><trkpt lat="35.5035192" lon="138.7766455"><ele>1082.1666666666667</ele><time>2023-08-12T05:31:10Z</time></trkpt><trkpt lat="35.5034189" lon="138.776462"><ele>1079.33</ele><time>2023-08-12T05:31:40Z</time></trkpt><trkpt lat="35.5032727" lon="138.7763308"><ele>1076.7766666666666</ele><time>2023-08-12T05:32:05Z</time></trkpt><trkpt lat="35.5030991" lon="138.7762595"><ele>1071.8100000000002</ele><time>2023-08-12T05:32:47Z</time></trkpt><trkpt lat="35.5029618" lon="138.776105"><ele>1065.89</ele><time>2023-08-12T05:33:00Z</time></trkpt><trkpt lat="35.5029681" lon="138.7758727"><ele>1059.2833333333333</ele><time>2023-08-12T05:33:27Z</time></trkpt><trkpt lat="35.5028854" lon="138.7756639"><ele>1050.4733333333336</ele><time>2023-08-12T05:33:54Z</time></trkpt><trkpt lat="35.5028237" lon="138.7754527"><ele>1042.2466666666667</ele><time>2023-08-12T05:34:43Z</time></trkpt><trkpt lat="35.5028805" lon="138.7752385"><ele>1032.5033333333333</ele><time>2023-08-12T05:34:58Z</time></trkpt><trkpt lat="35.5028012" lon="138.7750384"><ele>1025.23</ele><time>2023-08-12T05:35:07Z</time></trkpt><trkpt lat="35.5027203" lon="138.7748358"><ele>1018.8100000000001</ele><time>2023-08-12T05:35:19Z</time></trkpt><trkpt lat="35.5026054" lon="138.7746326"><ele>1014.4700000000001</ele><time>2023-08-12T05:35:35Z</time></trkpt><trkpt lat="35.5025882" lon="138.7744025"><ele>1009.3833333333333</ele><time>2023-08-12T05:35:50Z</time></trkpt><trkpt lat="35.5025895" lon="138.7741774"><ele>1004.54</ele><time>2023-08-12T05:36:06Z</time></trkpt><trkpt lat="35.5024371" lon="138.7740325"><ele>999.2700000000001</ele><time>2023-08-12T05:36:20Z</time></trkpt><trkpt lat="35.5022782" lon="138.7739163"><ele>993.4300000000002</ele><time>2023-08-12T05:37:03Z</time></trkpt><trkpt lat="35.502271" lon="138.7736827"><ele>987.6066666666667</ele><time>2023-08-12T05:37:10Z</time></trkpt><trkpt lat="35.5021997" lon="138.7734717"><ele>981.4633333333333</ele><time>2023-08-12T05:37:26Z</time></trkpt><trkpt lat="35.5023599" lon="138.7733652"><ele>977.2266666666668</ele><time>2023-08-12T05:37:36Z</time></trkpt><trkpt lat="35.5022311" lon="138.7732078"><ele>973.4066666666668</ele><time>2023-08-12T05:37:48Z</time></trkpt><trkpt lat="35.5021101" lon="138.7730416"><ele>967.8933333333333</ele><time>2023-08-12T05:38:03Z</time></trkpt><trkpt lat="35.5020979" lon="138.7728199"><ele>961.8533333333335</ele><time>2023-08-12T05:38:25Z</time></trkpt><trkpt lat="35.5020778" lon="138.7725958"><ele>956.1433333333334</ele><time>2023-08-12T05:38:42Z</time></trkpt><trkpt lat="35.5020717" lon="138.7723668"><ele>953.7933333333334</ele><time>2023-08-12T05:38:54Z</time></trkpt><trkpt lat="35.5021032" lon="138.7721433"><ele>952.82</ele><time>2023-08-12T05:39:12Z</time></trkpt><trkpt lat="35.5020742" lon="138.771913"><ele>952.0833333333334</ele><time>2023-08-12T05:40:20Z</time></trkpt><trkpt lat="35.5020558" lon="138.7716761"><ele>951.2800000000001</ele><time>2023-08-12T05:40:33Z</time></trkpt><trkpt lat="35.5020784" lon="138.7714565"><ele>949.0466666666666</ele><time>2023-08-12T05:40:52Z</time></trkpt><trkpt lat="35.5020257" lon="138.7712348"><ele>946.1133333333333</ele><time>2023-08-12T05:41:17Z</time></trkpt><trkpt lat="35.5020456" lon="138.7710122"><ele>942.6466666666666</ele><time>2023-08-12T05:41:28Z</time></trkpt><trkpt lat="35.5022013" lon="138.7709"><ele>937.6533333333333</ele><time>2023-08-12T05:42:08Z</time></trkpt><trkpt lat="35.5022564" lon="138.7706845"><ele>930.48</ele><time>2023-08-12T05:42:38Z</time></trkpt><trkpt lat="35.5022048" lon="138.7704691"><ele>922.6</ele><time>2023-08-12T05:42:55Z</time></trkpt><trkpt lat="35.5022512" lon="138.770241"><ele>913.8366666666667</ele><time>2023-08-12T05:43:17Z</time></trkpt><trkpt lat="35.502397" lon="138.7701107"><ele>905.4366666666666</ele><time>2023-08-12T05:43:37Z</time></trkpt><trkpt lat="35.5023113" lon="138.7699097"><ele>897.4133333333333</ele><time>2023-08-12T05:44:29Z</time></trkpt><trkpt lat="35.5022157" lon="138.769708"><ele>891.0099999999999</ele><time>2023-08-12T05:44:43Z</time></trkpt><trkpt lat="35.5022884" lon="138.7695061"><ele>884.7633333333333</ele><time>2023-08-12T05:45:38Z</time></trkpt><trkpt lat="35.5022381" lon="138.7692895"><ele>877.9633333333333</ele><time>2023-08-12T05:46:22Z</time></trkpt><trkpt lat="35.5020922" lon="138.7694422"><ele>872.6266666666667</ele><time>2023-08-12T05:46:46Z</time></trkpt><trkpt lat="35.5019248" lon="138.7695456"><ele>868.44</ele><time>2023-08-12T05:47:00Z</time></trkpt><trkpt lat="35.5017409" lon="138.7695712"><ele>863.3800000000001</ele><time>2023-08-12T05:47:15Z</time></trkpt><trkpt lat="35.5015555" lon="138.7695337"><ele>859.12</ele><time>2023-08-12T05:47:31Z</time></trkpt><trkpt lat="35.5013779" lon="138.7694873"><ele>854.9533333333334</ele><time>2023-08-12T05:47:48Z</time></trkpt><trkpt lat="35.5012046" lon="138.7695508"><ele>853.2266666666668</ele><time>2023-08-12T05:48:05Z</time></trkpt><trkpt lat="35.5011248" lon="138.7697489"><ele>852.4366666666666</ele><time>2023-08-12T05:48:14Z</time></trkpt><trkpt lat="35.5010745" lon="138.769962"><ele>855.6366666666667</ele><time>2023-08-12T05:48:27Z</time></trkpt><trkpt lat="35.5009364" lon="138.7701225"><ele>857.5166666666668</ele><time>2023-08-12T05:48:38Z</time></trkpt><trkpt lat="35.5008698" lon="138.7703332"><ele>858.5333333333334</ele><time>2023-08-12T05:48:51Z</time></trkpt><trkpt lat="35.500669" lon="138.7703071"><ele>855.37</ele><time>2023-08-12T05:49:06Z</time></trkpt><trkpt lat="35.5005608" lon="138.7700814"><ele>852.7933333333334</ele><time>2023-08-12T05:49:24Z</time></trkpt><trkpt lat="35.5004975" lon="138.7698475"><ele>850.2466666666666</ele><time>2023-08-12T05:49:38Z</time></trkpt><trkpt lat="35.5003569" lon="138.7697011"><ele>849.7266666666666</ele><time>2023-08-12T05:49:55Z</time></trkpt><trkpt lat="35.5002704" lon="138.769502"><ele>850.3366666666667</ele><time>2023-08-12T05:50:05Z</time></trkpt><trkpt lat="35.5002734" lon="138.7692779"><ele>851.1366666666667</ele><time>2023-08-12T05:50:20Z</time></trkpt><trkpt lat="35.5002611" lon="138.7690375"><ele>851.7833333333333</ele><time>2023-08-12T05:50:32Z</time></trkpt><trkpt lat="35.5004561" lon="138.7690473"><ele>851.5533333333334</ele><time>2023-08-12T05:51:06Z</time></trkpt><trkpt lat="35.500302" lon="138.7688652"><ele>851.62</ele><time>2023-08-12T05:51:16Z</time></trkpt><trkpt lat="35.5002189" lon="138.7686674"><ele>851.9966666666666</ele><time>2023-08-12T05:51:23Z</time></trkpt><trkpt lat="35.500052" lon="138.7685562"><ele>853.4200000000001</ele><time>2023-08-12T05:51:36Z</time></trkpt><trkpt lat="35.4998381" lon="138.7685008"><ele>854.46</ele><time>2023-08-12T05:51:48Z</time></trkpt><trkpt lat="35.499649" lon="138.7684697"><ele>855.08</ele><time>2023-08-12T05:52:03Z</time></trkpt><trkpt lat="35.4994606" lon="138.7685064"><ele>855.2966666666667</ele><time>2023-08-12T05:52:19Z</time></trkpt><trkpt lat="35.4992868" lon="138.7686119"><ele>855.4333333333334</ele><time>2023-08-12T05:52:28Z</time></trkpt><trkpt lat="35.4991242" lon="138.7687197"><ele>855.4533333333334</ele><time>2023-08-12T05:52:39Z</time></trkpt><trkpt lat="35.4989344" lon="138.7687326"><ele>855.3699999999999</ele><time>2023-08-12T05:52:50Z</time></trkpt><trkpt lat="35.4987486" lon="138.7687284"><ele>855.23</ele><time>2023-08-12T05:53:00Z</time></trkpt><trkpt lat="35.4986521" lon="138.7689249"><ele>855.08</ele><time>2023-08-12T05:53:33Z</time></trkpt><trkpt lat="35.498595" lon="138.7691437"><ele>854.9733333333334</ele><time>2023-08-12T05:53:42Z</time></trkpt><trkpt lat="35.4984139" lon="138.7691077"><ele>854.9033333333333</ele><time>2023-08-12T05:54:06Z</time></trkpt></trkseg></trk></gpx>