<?xml version='1.0' encoding='UTF-8'?><gpx creator="YAMAP - https://yamap.com" xsi:schemaLocation="http://www.topografix.com/GPX/1/1 http://www.topografix.com/GPX/1/1/gpx.xsd" version="1.1" xmlns="http://www.topografix.com/GPX/1/1" xmlns:xsi="http://www.w3.org/2001/XMLSchema-instance"><metadata><bounds maxlat="35.7897762" maxlon="139.153504" minlat="35.7646398" minlon="139.1301599"/></metadata><trk><name>大岳山</name><number>1</number><trkseg><trkpt lat="35.7896147" lon="139.1530192"><ele>853.1800000000001</ele><time>2024-11-16T23:53:15Z</time></trkpt><trkpt lat="35.7894695" lon="139.1528817"><ele>856.9300000000001</ele><time>2024-11-16T23:53:50Z</time></trkpt><trkpt lat="35.7892579" lon="139.1528767"><ele>858.4700000000001</ele><time>2024-11-16T23:54:08Z</time></trkpt><trkpt lat="35.7890709" lon="139.1528848"><ele>860.7199999999999</ele><time>2024-11-16T23:54:23Z</time></trkpt><trkpt lat="35.7888906" lon="139.1528028"><ele>859.32</ele><time>2024-11-16T23:54:41Z</time></trkpt><trkpt lat="35.7887193" lon="139.1527177"><ele>856.0166666666668</ele><time>2024-11-16T23:54:56Z</time></trkpt><trkpt lat="35.7886276" lon="139.1525209"><ele>850.0066666666667</ele><time>2024-11-16T23:55:11Z</time></trkpt><trkpt lat="35.7887135" lon="139.152323"><ele>847.02</ele><time>2024-11-16T23:55:29Z</time></trkpt><trkpt lat="35.7886511" lon="139.1520837"><ele>843.8000000000001</ele><time>2024-11-16T23:56:08Z</time></trkpt><trkpt lat="35.7886807" lon="139.1518534"><ele>842.89</ele><time>2024-11-16T23:56:23Z</time></trkpt><trkpt lat="35.7886819" lon="139.1516209"><ele>843.1433333333334</ele><time>2024-11-16T23:56:38Z</time></trkpt><trkpt lat="35.7886014" lon="139.1513935"><ele>846.4566666666666</ele><time>2024-11-16T23:56:56Z</time></trkpt><trkpt lat="35.7884205" lon="139.1513784"><ele>845.7266666666668</ele><time>2024-11-16T23:57:14Z</time></trkpt><trkpt lat="35.788237" lon="139.1514089"><ele>841.2400000000001</ele><time>2024-11-16T23:57:32Z</time></trkpt><trkpt lat="35.7880509" lon="139.1512735"><ele>838.46</ele><time>2024-11-16T23:57:50Z</time></trkpt><trkpt lat="35.7878871" lon="139.1511299"><ele>840.8733333333333</ele><time>2024-11-16T23:58:05Z</time></trkpt><trkpt lat="35.7876959" lon="139.1510174"><ele>843.4433333333333</ele><time>2024-11-16T23:58:23Z</time></trkpt><trkpt lat="35.7875272" lon="139.1509048"><ele>842.11</ele><time>2024-11-16T23:58:35Z</time></trkpt><trkpt lat="35.7873164" lon="139.1509481"><ele>837.7733333333334</ele><time>2024-11-16T23:58:50Z</time></trkpt><trkpt lat="35.7871223" lon="139.1510088"><ele>833.9900000000001</ele><time>2024-11-16T23:59:02Z</time></trkpt><trkpt lat="35.7869191" lon="139.1510491"><ele>830.86</ele><time>2024-11-16T23:59:17Z</time></trkpt><trkpt lat="35.7867117" lon="139.1509667"><ele>830.6233333333333</ele><time>2024-11-16T23:59:35Z</time></trkpt><trkpt lat="35.7865116" lon="139.1510292"><ele>829.3133333333334</ele><time>2024-11-16T23:59:47Z</time></trkpt><trkpt lat="35.7863263" lon="139.1510962"><ele>826.98</ele><time>2024-11-17T00:00:05Z</time></trkpt><trkpt lat="35.7861819" lon="139.1512636"><ele>823.7333333333332</ele><time>2024-11-17T00:00:23Z</time></trkpt><trkpt lat="35.7862519" lon="139.1514973"><ele>820.9066666666668</ele><time>2024-11-17T00:00:53Z</time></trkpt><trkpt lat="35.7860399" lon="139.1515618"><ele>818.3233333333334</ele><time>2024-11-17T00:01:35Z</time></trkpt><trkpt lat="35.7858901" lon="139.1517415"><ele>817.07</ele><time>2024-11-17T00:01:50Z</time></trkpt><trkpt lat="35.7856835" lon="139.1517915"><ele>821.4166666666666</ele><time>2024-11-17T00:02:14Z</time></trkpt><trkpt lat="35.7854906" lon="139.1518086"><ele>827.64</ele><time>2024-11-17T00:02:35Z</time></trkpt><trkpt lat="35.7853071" lon="139.1517477"><ele>835.5300000000001</ele><time>2024-11-17T00:02:53Z</time></trkpt><trkpt lat="35.7851103" lon="139.1518035"><ele>839.3933333333334</ele><time>2024-11-17T00:03:26Z</time></trkpt><trkpt lat="35.7849211" lon="139.1519214"><ele>844.3266666666667</ele><time>2024-11-17T00:04:56Z</time></trkpt><trkpt lat="35.7847166" lon="139.1519331"><ele>847.7666666666668</ele><time>2024-11-17T00:05:17Z</time></trkpt><trkpt lat="35.7845315" lon="139.1519298"><ele>849.7633333333333</ele><time>2024-11-17T00:05:38Z</time></trkpt><trkpt lat="35.7843327" lon="139.1518811"><ele>853.14</ele><time>2024-11-17T00:06:23Z</time></trkpt><trkpt lat="35.7841406" lon="139.1519389"><ele>856.4933333333333</ele><time>2024-11-17T00:06:59Z</time></trkpt><trkpt lat="35.7839965" lon="139.1520753"><ele>860.2233333333334</ele><time>2024-11-17T00:07:32Z</time></trkpt><trkpt lat="35.7838366" lon="139.1519323"><ele>862.0566666666667</ele><time>2024-11-17T00:08:02Z</time></trkpt><trkpt lat="35.7839333" lon="139.15173"><ele>864.4066666666666</ele><time>2024-11-17T00:08:23Z</time></trkpt><trkpt lat="35.7840172" lon="139.1515188"><ele>867.7933333333334</ele><time>2024-11-17T00:08:44Z</time></trkpt><trkpt lat="35.7839798" lon="139.1512916"><ele>870.4500000000002</ele><time>2024-11-17T00:09:14Z</time></trkpt><trkpt lat="35.7839059" lon="139.1510656"><ele>872.4166666666666</ele><time>2024-11-17T00:09:41Z</time></trkpt><trkpt lat="35.7837506" lon="139.1509254"><ele>873.7866666666667</ele><time>2024-11-17T00:10:23Z</time></trkpt><trkpt lat="35.7835715" lon="139.1507973"><ele>876.4666666666667</ele><time>2024-11-17T00:10:56Z</time></trkpt><trkpt lat="35.7833841" lon="139.1508038"><ele>883.0</ele><time>2024-11-17T00:11:23Z</time></trkpt><trkpt lat="35.7832159" lon="139.1506918"><ele>892.3866666666667</ele><time>2024-11-17T00:11:44Z</time></trkpt><trkpt lat="35.7830312" lon="139.1507103"><ele>901.3933333333334</ele><time>2024-11-17T00:12:00Z</time></trkpt><trkpt lat="35.7828526" lon="139.1508382"><ele>903.59</ele><time>2024-11-17T00:12:16Z</time></trkpt><trkpt lat="35.7826581" lon="139.150886"><ele>901.5066666666668</ele><time>2024-11-17T00:12:31Z</time></trkpt><trkpt lat="35.7824872" lon="139.1507566"><ele>897.9333333333334</ele><time>2024-11-17T00:12:46Z</time></trkpt><trkpt lat="35.7823981" lon="139.1505356"><ele>896.75</ele><time>2024-11-17T00:13:10Z</time></trkpt><trkpt lat="35.7822514" lon="139.1503593"><ele>895.69</ele><time>2024-11-17T00:13:25Z</time></trkpt><trkpt lat="35.7821186" lon="139.1502045"><ele>892.0600000000001</ele><time>2024-11-17T00:13:43Z</time></trkpt><trkpt lat="35.7820083" lon="139.1500187"><ele>885.0033333333334</ele><time>2024-11-17T00:14:01Z</time></trkpt><trkpt lat="35.7820846" lon="139.1498034"><ele>877.5833333333334</ele><time>2024-11-17T00:14:25Z</time></trkpt><trkpt lat="35.7821554" lon="139.1495999"><ele>874.5233333333332</ele><time>2024-11-17T00:14:43Z</time></trkpt><trkpt lat="35.7821182" lon="139.149328"><ele>874.6733333333333</ele><time>2024-11-17T00:14:58Z</time></trkpt><trkpt lat="35.7821129" lon="139.1491054"><ele>876.4166666666666</ele><time>2024-11-17T00:15:13Z</time></trkpt><trkpt lat="35.782045" lon="139.1488746"><ele>874.0900000000001</ele><time>2024-11-17T00:15:32Z</time></trkpt><trkpt lat="35.7819349" lon="139.1486402"><ele>868.3866666666668</ele><time>2024-11-17T00:15:47Z</time></trkpt><trkpt lat="35.7819202" lon="139.1484189"><ele>860.48</ele><time>2024-11-17T00:16:08Z</time></trkpt><trkpt lat="35.7819486" lon="139.1481927"><ele>853.39</ele><time>2024-11-17T00:16:26Z</time></trkpt><trkpt lat="35.7819764" lon="139.1479576"><ele>852.3733333333333</ele><time>2024-11-17T00:16:41Z</time></trkpt><trkpt lat="35.7819324" lon="139.14773"><ele>852.3133333333334</ele><time>2024-11-17T00:16:56Z</time></trkpt><trkpt lat="35.7817153" lon="139.147689"><ele>854.1366666666667</ele><time>2024-11-17T00:17:17Z</time></trkpt><trkpt lat="35.7815282" lon="139.1476267"><ele>855.4333333333334</ele><time>2024-11-17T00:17:35Z</time></trkpt><trkpt lat="35.7813212" lon="139.147588"><ele>859.1233333333333</ele><time>2024-11-17T00:17:50Z</time></trkpt><trkpt lat="35.7811421" lon="139.1475235"><ele>861.7399999999999</ele><time>2024-11-17T00:18:04Z</time></trkpt><trkpt lat="35.7809801" lon="139.1473864"><ele>862.4133333333334</ele><time>2024-11-17T00:18:20Z</time></trkpt><trkpt lat="35.7808687" lon="139.1471925"><ele>863.4933333333333</ele><time>2024-11-17T00:18:38Z</time></trkpt><trkpt lat="35.7807231" lon="139.1470469"><ele>864.3100000000001</ele><time>2024-11-17T00:18:56Z</time></trkpt><trkpt lat="35.7806467" lon="139.1468176"><ele>862.4500000000002</ele><time>2024-11-17T00:19:14Z</time></trkpt><trkpt lat="35.7806667" lon="139.1465971"><ele>857.4633333333335</ele><time>2024-11-17T00:19:32Z</time></trkpt><trkpt lat="35.7807514" lon="139.1464007"><ele>853.79</ele><time>2024-11-17T00:19:47Z</time></trkpt><trkpt lat="35.780827" lon="139.1461656"><ele>853.06</ele><time>2024-11-17T00:20:17Z</time></trkpt><trkpt lat="35.7808841" lon="139.1459458"><ele>856.81</ele><time>2024-11-17T00:20:35Z</time></trkpt><trkpt lat="35.7807561" lon="139.1457527"><ele>860.61</ele><time>2024-11-17T00:20:50Z</time></trkpt><trkpt lat="35.7805959" lon="139.1455627"><ele>865.19</ele><time>2024-11-17T00:21:08Z</time></trkpt><trkpt lat="35.7804014" lon="139.1454598"><ele>865.8133333333334</ele><time>2024-11-17T00:21:29Z</time></trkpt><trkpt lat="35.7802537" lon="139.1453321"><ele>866.3100000000001</ele><time>2024-11-17T00:21:44Z</time></trkpt><trkpt lat="35.7801803" lon="139.1450867"><ele>864.9066666666668</ele><time>2024-11-17T00:22:05Z</time></trkpt><trkpt lat="35.7801942" lon="139.1448619"><ele>864.0933333333334</ele><time>2024-11-17T00:22:21Z</time></trkpt><trkpt lat="35.7802273" lon="139.1446322"><ele>865.7266666666668</ele><time>2024-11-17T00:22:37Z</time></trkpt><trkpt lat="35.7802621" lon="139.1444099"><ele>869.32</ele><time>2024-11-17T00:22:55Z</time></trkpt><trkpt lat="35.78009" lon="139.1442372"><ele>872.5233333333334</ele><time>2024-11-17T00:23:28Z</time></trkpt><trkpt lat="35.7799031" lon="139.1442815"><ele>871.5</ele><time>2024-11-17T00:23:40Z</time></trkpt><trkpt lat="35.7797237" lon="139.1443252"><ele>873.0033333333334</ele><time>2024-11-17T00:23:58Z</time></trkpt><trkpt lat="35.7795295" lon="139.1443367"><ele>873.2866666666667</ele><time>2024-11-17T00:24:22Z</time></trkpt><trkpt lat="35.779373" lon="139.1442077"><ele>876.54</ele><time>2024-11-17T00:24:43Z</time></trkpt><trkpt lat="35.7791858" lon="139.1441224"><ele>877.8833333333333</ele><time>2024-11-17T00:25:04Z</time></trkpt><trkpt lat="35.7789846" lon="139.1441304"><ele>882.3166666666666</ele><time>2024-11-17T00:25:22Z</time></trkpt><trkpt lat="35.7787834" lon="139.1441708"><ele>884.2533333333334</ele><time>2024-11-17T00:25:43Z</time></trkpt><trkpt lat="35.7785894" lon="139.1441896"><ele>885.6300000000001</ele><time>2024-11-17T00:26:12Z</time></trkpt><trkpt lat="35.778429" lon="139.1443065"><ele>886.1166666666667</ele><time>2024-11-17T00:26:31Z</time></trkpt><trkpt lat="35.7783195" lon="139.1444908"><ele>886.9233333333333</ele><time>2024-11-17T00:26:55Z</time></trkpt><trkpt lat="35.7781399" lon="139.1446152"><ele>886.5266666666666</ele><time>2024-11-17T00:27:22Z</time></trkpt><trkpt lat="35.7780185" lon="139.1448022"><ele>886.4933333333333</ele><time>2024-11-17T00:27:46Z</time></trkpt><trkpt lat="35.7778348" lon="139.1448435"><ele>886.7300000000001</ele><time>2024-11-17T00:28:13Z</time></trkpt><trkpt lat="35.7777922" lon="139.1446044"><ele>886.9</ele><time>2024-11-17T00:28:34Z</time></trkpt><trkpt lat="35.7778347" lon="139.1443587"><ele>885.2166666666667</ele><time>2024-11-17T00:28:55Z</time></trkpt><trkpt lat="35.7778298" lon="139.1440965"><ele>887.9</ele><time>2024-11-17T00:29:16Z</time></trkpt><trkpt lat="35.777779" lon="139.1438663"><ele>890.7433333333333</ele><time>2024-11-17T00:29:37Z</time></trkpt><trkpt lat="35.7775926" lon="139.1437572"><ele>892.0566666666667</ele><time>2024-11-17T00:29:58Z</time></trkpt><trkpt lat="35.777416" lon="139.1436857"><ele>885.2366666666667</ele><time>2024-11-17T00:30:16Z</time></trkpt><trkpt lat="35.7775012" lon="139.1434513"><ele>880.2800000000001</ele><time>2024-11-17T00:30:40Z</time></trkpt><trkpt lat="35.7774124" lon="139.1432384"><ele>877.4133333333334</ele><time>2024-11-17T00:31:01Z</time></trkpt><trkpt lat="35.7774061" lon="139.1430156"><ele>880.3233333333334</ele><time>2024-11-17T00:31:22Z</time></trkpt><trkpt lat="35.77723" lon="139.1429385"><ele>882.4966666666668</ele><time>2024-11-17T00:31:40Z</time></trkpt><trkpt lat="35.7770415" lon="139.1429734"><ele>883.1133333333333</ele><time>2024-11-17T00:32:04Z</time></trkpt><trkpt lat="35.7768685" lon="139.1428753"><ele>883.1066666666667</ele><time>2024-11-17T00:32:34Z</time></trkpt><trkpt lat="35.7768227" lon="139.1426376"><ele>882.12</ele><time>2024-11-17T00:33:01Z</time></trkpt><trkpt lat="35.7767843" lon="139.1424148"><ele>881.54</ele><time>2024-11-17T00:33:22Z</time></trkpt><trkpt lat="35.776623" lon="139.1425428"><ele>878.89</ele><time>2024-11-17T00:34:25Z</time></trkpt><trkpt lat="35.7764231" lon="139.142566"><ele>876.0733333333334</ele><time>2024-11-17T00:34:55Z</time></trkpt><trkpt lat="35.776237" lon="139.1425772"><ele>874.9633333333333</ele><time>2024-11-17T00:35:10Z</time></trkpt><trkpt lat="35.7760455" lon="139.1425183"><ele>876.0433333333334</ele><time>2024-11-17T00:35:37Z</time></trkpt><trkpt lat="35.7758661" lon="139.1424552"><ele>877.3833333333332</ele><time>2024-11-17T00:36:04Z</time></trkpt><trkpt lat="35.7756927" lon="139.1423283"><ele>881.85</ele><time>2024-11-17T00:36:25Z</time></trkpt><trkpt lat="35.775517" lon="139.1422615"><ele>886.6033333333334</ele><time>2024-11-17T00:36:52Z</time></trkpt><trkpt lat="35.7752964" lon="139.1422138"><ele>890.8800000000001</ele><time>2024-11-17T00:37:31Z</time></trkpt><trkpt lat="35.775111" lon="139.1421549"><ele>894.0066666666667</ele><time>2024-11-17T00:37:53Z</time></trkpt><trkpt lat="35.7749473" lon="139.14205"><ele>896.8066666666667</ele><time>2024-11-17T00:38:23Z</time></trkpt><trkpt lat="35.7747925" lon="139.1419122"><ele>901.57</ele><time>2024-11-17T00:38:47Z</time></trkpt><trkpt lat="35.7746181" lon="139.1418308"><ele>903.18</ele><time>2024-11-17T00:39:17Z</time></trkpt><trkpt lat="35.7745575" lon="139.1416206"><ele>905.4966666666668</ele><time>2024-11-17T00:39:41Z</time></trkpt><trkpt lat="35.7743775" lon="139.1416036"><ele>907.4933333333333</ele><time>2024-11-17T00:40:17Z</time></trkpt><trkpt lat="35.774364" lon="139.1418305"><ele>913.15</ele><time>2024-11-17T00:40:32Z</time></trkpt><trkpt lat="35.774378" lon="139.1420591"><ele>916.3933333333334</ele><time>2024-11-17T00:40:56Z</time></trkpt><trkpt lat="35.7743619" lon="139.1422871"><ele>922.6933333333333</ele><time>2024-11-17T00:41:26Z</time></trkpt><trkpt lat="35.7742674" lon="139.1420847"><ele>926.44</ele><time>2024-11-17T00:42:23Z</time></trkpt><trkpt lat="35.7741388" lon="139.141905"><ele>932.79</ele><time>2024-11-17T00:42:56Z</time></trkpt><trkpt lat="35.7740104" lon="139.1417405"><ele>937.5566666666667</ele><time>2024-11-17T00:43:20Z</time></trkpt><trkpt lat="35.7740181" lon="139.1414971"><ele>941.91</ele><time>2024-11-17T00:43:53Z</time></trkpt><trkpt lat="35.7738956" lon="139.141333"><ele>945.3566666666667</ele><time>2024-11-17T00:44:17Z</time></trkpt><trkpt lat="35.773745" lon="139.1411943"><ele>948.85</ele><time>2024-11-17T00:44:50Z</time></trkpt><trkpt lat="35.7735998" lon="139.1410091"><ele>953.5833333333334</ele><time>2024-11-17T00:45:23Z</time></trkpt><trkpt lat="35.7734738" lon="139.140834"><ele>956.2199999999999</ele><time>2024-11-17T00:45:47Z</time></trkpt><trkpt lat="35.7733189" lon="139.1407018"><ele>958.4966666666668</ele><time>2024-11-17T00:46:14Z</time></trkpt><trkpt lat="35.7731345" lon="139.140669"><ele>963.89</ele><time>2024-11-17T00:46:41Z</time></trkpt><trkpt lat="35.7730373" lon="139.140468"><ele>970.6933333333333</ele><time>2024-11-17T00:47:14Z</time></trkpt><trkpt lat="35.7729065" lon="139.1402964"><ele>976.62</ele><time>2024-11-17T00:47:44Z</time></trkpt><trkpt lat="35.7727349" lon="139.1401924"><ele>981.48</ele><time>2024-11-17T00:48:17Z</time></trkpt><trkpt lat="35.7725939" lon="139.1400536"><ele>988.16</ele><time>2024-11-17T00:48:59Z</time></trkpt><trkpt lat="35.7724409" lon="139.1399196"><ele>994.32</ele><time>2024-11-17T00:49:26Z</time></trkpt><trkpt lat="35.7722992" lon="139.1397823"><ele>998.6700000000001</ele><time>2024-11-17T00:49:50Z</time></trkpt><trkpt lat="35.772212" lon="139.1395822"><ele>1002.8233333333334</ele><time>2024-11-17T00:50:11Z</time></trkpt><trkpt lat="35.7720952" lon="139.1393689"><ele>1006.4466666666667</ele><time>2024-11-17T00:50:33Z</time></trkpt><trkpt lat="35.7721416" lon="139.1391475"><ele>1010.9566666666666</ele><time>2024-11-17T00:50:55Z</time></trkpt><trkpt lat="35.7720971" lon="139.1389288"><ele>1015.7833333333334</ele><time>2024-11-17T00:51:31Z</time></trkpt><trkpt lat="35.7719726" lon="139.1387636"><ele>1021.0933333333334</ele><time>2024-11-17T00:52:16Z</time></trkpt><trkpt lat="35.77189" lon="139.1385533"><ele>1027.4866666666667</ele><time>2024-11-17T00:52:43Z</time></trkpt><trkpt lat="35.7718321" lon="139.138343"><ele>1032.3866666666668</ele><time>2024-11-17T00:53:19Z</time></trkpt><trkpt lat="35.7719118" lon="139.1381286"><ele>1036.9633333333334</ele><time>2024-11-17T00:54:04Z</time></trkpt><trkpt lat="35.7719894" lon="139.1379271"><ele>1039.9333333333334</ele><time>2024-11-17T00:54:40Z</time></trkpt><trkpt lat="35.7720001" lon="139.1376975"><ele>1042.6000000000001</ele><time>2024-11-17T00:54:55Z</time></trkpt><trkpt lat="35.7719526" lon="139.1374685"><ele>1045.92</ele><time>2024-11-17T00:55:16Z</time></trkpt><trkpt lat="35.7718155" lon="139.1373197"><ele>1047.9333333333334</ele><time>2024-11-17T00:55:34Z</time></trkpt><trkpt lat="35.7717797" lon="139.1370974"><ele>1050.2233333333334</ele><time>2024-11-17T00:56:01Z</time></trkpt><trkpt lat="35.7716507" lon="139.1368967"><ele>1050.6566666666668</ele><time>2024-11-17T00:56:19Z</time></trkpt><trkpt lat="35.7714787" lon="139.1367775"><ele>1049.5</ele><time>2024-11-17T00:56:37Z</time></trkpt><trkpt lat="35.7713288" lon="139.1366257"><ele>1045.8166666666666</ele><time>2024-11-17T00:57:04Z</time></trkpt><trkpt lat="35.7711273" lon="139.1365695"><ele>1042.9766666666667</ele><time>2024-11-17T00:57:25Z</time></trkpt><trkpt lat="35.7709307" lon="139.1365484"><ele>1041.9966666666667</ele><time>2024-11-17T00:57:46Z</time></trkpt><trkpt lat="35.7707457" lon="139.1364632"><ele>1042.4433333333334</ele><time>2024-11-17T00:58:04Z</time></trkpt><trkpt lat="35.7706196" lon="139.1362711"><ele>1042.42</ele><time>2024-11-17T00:58:25Z</time></trkpt><trkpt lat="35.7704756" lon="139.1360973"><ele>1042.0266666666666</ele><time>2024-11-17T00:58:43Z</time></trkpt><trkpt lat="35.7703036" lon="139.136006"><ele>1041.6066666666666</ele><time>2024-11-17T00:59:01Z</time></trkpt><trkpt lat="35.7701394" lon="139.1358676"><ele>1041.1499999999999</ele><time>2024-11-17T00:59:19Z</time></trkpt><trkpt lat="35.7699799" lon="139.1357455"><ele>1040.5966666666666</ele><time>2024-11-17T00:59:37Z</time></trkpt><trkpt lat="35.7698537" lon="139.1355651"><ele>1038.89</ele><time>2024-11-17T00:59:58Z</time></trkpt><trkpt lat="35.7696871" lon="139.1354242"><ele>1038.3033333333335</ele><time>2024-11-17T01:00:16Z</time></trkpt><trkpt lat="35.7694997" lon="139.1353724"><ele>1038.5633333333333</ele><time>2024-11-17T01:00:34Z</time></trkpt><trkpt lat="35.76934" lon="139.1352613"><ele>1040.256666666667</ele><time>2024-11-17T01:00:58Z</time></trkpt><trkpt lat="35.7692814" lon="139.1350351"><ele>1038.8133333333333</ele><time>2024-11-17T01:01:16Z</time></trkpt><trkpt lat="35.7690916" lon="139.1349292"><ele>1036.45</ele><time>2024-11-17T01:01:37Z</time></trkpt><trkpt lat="35.7689044" lon="139.1348268"><ele>1035.256666666667</ele><time>2024-11-17T01:02:01Z</time></trkpt><trkpt lat="35.7687267" lon="139.1347801"><ele>1041.2066666666667</ele><time>2024-11-17T01:02:31Z</time></trkpt><trkpt lat="35.76856" lon="139.1346679"><ele>1051.3333333333333</ele><time>2024-11-17T01:03:16Z</time></trkpt><trkpt lat="35.7683965" lon="139.1347756"><ele>1062.7233333333334</ele><time>2024-11-17T01:03:55Z</time></trkpt><trkpt lat="35.7682333" lon="139.1348865"><ele>1073.02</ele><time>2024-11-17T01:04:58Z</time></trkpt><trkpt lat="35.7680694" lon="139.1350395"><ele>1079.5666666666666</ele><time>2024-11-17T01:05:37Z</time></trkpt><trkpt lat="35.7680084" lon="139.1348106"><ele>1086.4566666666667</ele><time>2024-11-17T01:07:16Z</time></trkpt><trkpt lat="35.7678638" lon="139.1346759"><ele>1092.3066666666668</ele><time>2024-11-17T01:07:34Z</time></trkpt><trkpt lat="35.7677251" lon="139.1345257"><ele>1099.41</ele><time>2024-11-17T01:08:13Z</time></trkpt><trkpt lat="35.7675595" lon="139.1344085"><ele>1104.69</ele><time>2024-11-17T01:08:52Z</time></trkpt><trkpt lat="35.7673619" lon="139.134389"><ele>1107.1533333333334</ele><time>2024-11-17T01:09:31Z</time></trkpt><trkpt lat="35.7671533" lon="139.1344091"><ele>1110.1233333333332</ele><time>2024-11-17T01:10:07Z</time></trkpt><trkpt lat="35.7669638" lon="139.1344403"><ele>1113.49</ele><time>2024-11-17T01:10:34Z</time></trkpt><trkpt lat="35.7667773" lon="139.1345087"><ele>1116.7833333333335</ele><time>2024-11-17T01:10:58Z</time></trkpt><trkpt lat="35.7665766" lon="139.1344891"><ele>1119.7466666666667</ele><time>2024-11-17T01:11:49Z</time></trkpt><trkpt lat="35.7664128" lon="139.1343694"><ele>1124.3833333333332</ele><time>2024-11-17T01:12:18Z</time></trkpt><trkpt lat="35.7662271" lon="139.1342975"><ele>1128.4766666666667</ele><time>2024-11-17T01:12:40Z</time></trkpt><trkpt lat="35.7660319" lon="139.1342899"><ele>1135.2966666666669</ele><time>2024-11-17T01:13:13Z</time></trkpt><trkpt lat="35.7658738" lon="139.1344058"><ele>1140.0033333333333</ele><time>2024-11-17T01:14:28Z</time></trkpt><trkpt lat="35.765753" lon="139.1345876"><ele>1140.4166666666667</ele><time>2024-11-17T01:14:52Z</time></trkpt><trkpt lat="35.7656144" lon="139.1344317"><ele>1140.5366666666666</ele><time>2024-11-17T01:16:01Z</time></trkpt><trkpt lat="35.765633" lon="139.134207"><ele>1139.3066666666666</ele><time>2024-11-17T01:16:55Z</time></trkpt><trkpt lat="35.7656304" lon="139.1339735"><ele>1140.6933333333334</ele><time>2024-11-17T01:18:16Z</time></trkpt><trkpt lat="35.7656516" lon="139.1337166"><ele>1138.0500000000002</ele><time>2024-11-17T01:19:55Z</time></trkpt><trkpt lat="35.7656281" lon="139.1334885"><ele>1141.99</ele><time>2024-11-17T01:20:16Z</time></trkpt><trkpt lat="35.7654666" lon="139.1333557"><ele>1148.8466666666666</ele><time>2024-11-17T01:20:34Z</time></trkpt><trkpt lat="35.7652889" lon="139.1332774"><ele>1155.97</ele><time>2024-11-17T01:21:01Z</time></trkpt><trkpt lat="35.7651374" lon="139.1331459"><ele>1158.92</ele><time>2024-11-17T01:21:31Z</time></trkpt><trkpt lat="35.765007" lon="139.1329914"><ele>1159.6833333333334</ele><time>2024-11-17T01:22:04Z</time></trkpt><trkpt lat="35.7650182" lon="139.1327587"><ele>1161.7266666666667</ele><time>2024-11-17T01:22:43Z</time></trkpt><trkpt lat="35.7648357" lon="139.1327532"><ele>1161.3066666666666</ele><time>2024-11-17T01:24:43Z</time></trkpt><trkpt lat="35.7646398" lon="139.1327992"><ele>1160.5933333333332</ele><time>2024-11-17T01:25:04Z</time></trkpt><trkpt lat="35.7648441" lon="139.1328018"><ele>1160.0766666666666</ele><time>2024-11-17T01:26:25Z</time></trkpt><trkpt lat="35.7650358" lon="139.1327678"><ele>1160.5933333333332</ele><time>2024-11-17T01:26:55Z</time></trkpt><trkpt lat="35.7650866" lon="139.1325351"><ele>1164.89</ele><time>2024-11-17T01:27:43Z</time></trkpt><trkpt lat="35.7652641" lon="139.132439"><ele>1169.5333333333335</ele><time>2024-11-17T01:28:25Z</time></trkpt><trkpt lat="35.7653905" lon="139.1322768"><ele>1175.7</ele><time>2024-11-17T01:29:28Z</time></trkpt><trkpt lat="35.7655108" lon="139.132033"><ele>1182.5633333333335</ele><time>2024-11-17T01:30:07Z</time></trkpt><trkpt lat="35.7656138" lon="139.1318441"><ele>1191.39</ele><time>2024-11-17T01:30:58Z</time></trkpt><trkpt lat="35.7656384" lon="139.1316195"><ele>1203.05</ele><time>2024-11-17T01:32:07Z</time></trkpt><trkpt lat="35.7655059" lon="139.1314578"><ele>1213.716666666667</ele><time>2024-11-17T01:32:52Z</time></trkpt><trkpt lat="35.7652585" lon="139.1313824"><ele>1220.7466666666667</ele><time>2024-11-17T01:33:58Z</time></trkpt><trkpt lat="35.7650872" lon="139.1314633"><ele>1224.01</ele><time>2024-11-17T01:34:31Z</time></trkpt><trkpt lat="35.764896" lon="139.1313722"><ele>1230.0933333333332</ele><time>2024-11-17T01:37:37Z</time></trkpt><trkpt lat="35.7649425" lon="139.1311385"><ele>1239.27</ele><time>2024-11-17T01:40:31Z</time></trkpt><trkpt lat="35.7650091" lon="139.1309038"><ele>1250.0233333333333</ele><time>2024-11-17T01:41:34Z</time></trkpt><trkpt lat="35.7651433" lon="139.1307462"><ele>1257.3666666666668</ele><time>2024-11-17T01:42:22Z</time></trkpt><trkpt lat="35.7652465" lon="139.1305627"><ele>1261.68</ele><time>2024-11-17T01:42:43Z</time></trkpt><trkpt lat="35.7652974" lon="139.1303461"><ele>1263.3066666666666</ele><time>2024-11-17T01:45:37Z</time></trkpt><trkpt lat="35.7654412" lon="139.1301599"><ele>1261.65</ele><time>2024-11-17T01:46:37Z</time></trkpt><trkpt lat="35.7652987" lon="139.1303092"><ele>1261.4433333333334</ele><time>2024-11-17T02:00:02Z</time></trkpt><trkpt lat="35.7652328" lon="139.1305207"><ele>1261.4466666666667</ele><time>2024-11-17T02:07:26Z</time></trkpt><trkpt lat="35.7651377" lon="139.1307337"><ele>1263.1033333333332</ele><time>2024-11-17T02:08:08Z</time></trkpt><trkpt lat="35.7650145" lon="139.1308959"><ele>1261.68</ele><time>2024-11-17T02:08:56Z</time></trkpt><trkpt lat="35.7649414" lon="139.1311004"><ele>1257.8733333333332</ele><time>2024-11-17T02:10:26Z</time></trkpt><trkpt lat="35.7648777" lon="139.1313074"><ele>1250.53</ele><time>2024-11-17T02:15:02Z</time></trkpt><trkpt lat="35.7649605" lon="139.131519"><ele>1240.7733333333335</ele><time>2024-11-17T02:16:59Z</time></trkpt><trkpt lat="35.765189" lon="139.1315405"><ele>1230.2166666666667</ele><time>2024-11-17T02:20:05Z</time></trkpt><trkpt lat="35.7653655" lon="139.1315855"><ele>1221.3433333333335</ele><time>2024-11-17T02:20:44Z</time></trkpt><trkpt lat="35.7655553" lon="139.1316634"><ele>1214.8933333333334</ele><time>2024-11-17T02:21:29Z</time></trkpt><trkpt lat="35.7655584" lon="139.1319018"><ele>1206.4233333333334</ele><time>2024-11-17T02:22:56Z</time></trkpt><trkpt lat="35.7654139" lon="139.1320652"><ele>1197.0900000000001</ele><time>2024-11-17T02:23:35Z</time></trkpt><trkpt lat="35.7653599" lon="139.1322913"><ele>1186.8533333333332</ele><time>2024-11-17T02:24:20Z</time></trkpt><trkpt lat="35.7652885" lon="139.1324947"><ele>1180.0733333333335</ele><time>2024-11-17T02:25:20Z</time></trkpt><trkpt lat="35.7651068" lon="139.1325616"><ele>1174.6666666666667</ele><time>2024-11-17T02:26:17Z</time></trkpt><trkpt lat="35.7649962" lon="139.1327743"><ele>1169.2666666666667</ele><time>2024-11-17T02:26:56Z</time></trkpt><trkpt lat="35.765039" lon="139.1330159"><ele>1163.3433333333335</ele><time>2024-11-17T02:27:47Z</time></trkpt><trkpt lat="35.7651619" lon="139.1332088"><ele>1159.1066666666668</ele><time>2024-11-17T02:28:44Z</time></trkpt><trkpt lat="35.7653473" lon="139.1333617"><ele>1154.9866666666667</ele><time>2024-11-17T02:29:23Z</time></trkpt><trkpt lat="35.7655312" lon="139.1334078"><ele>1155.5233333333333</ele><time>2024-11-17T02:29:44Z</time></trkpt><trkpt lat="35.7656421" lon="139.133646"><ele>1149.9366666666665</ele><time>2024-11-17T02:30:41Z</time></trkpt><trkpt lat="35.7656035" lon="139.1338805"><ele>1144.3666666666666</ele><time>2024-11-17T02:31:26Z</time></trkpt><trkpt lat="35.7656602" lon="139.1341192"><ele>1137.4366666666667</ele><time>2024-11-17T02:32:17Z</time></trkpt><trkpt lat="35.7656212" lon="139.1343473"><ele>1138.7933333333333</ele><time>2024-11-17T02:32:47Z</time></trkpt><trkpt lat="35.7656866" lon="139.1345795"><ele>1138.5666666666666</ele><time>2024-11-17T02:33:14Z</time></trkpt><trkpt lat="35.7658644" lon="139.1345288"><ele>1138.0666666666666</ele><time>2024-11-17T02:34:47Z</time></trkpt><trkpt lat="35.7660406" lon="139.134441"><ele>1133.9800000000002</ele><time>2024-11-17T02:36:05Z</time></trkpt><trkpt lat="35.76626" lon="139.1344086"><ele>1131.2166666666665</ele><time>2024-11-17T02:37:17Z</time></trkpt><trkpt lat="35.7664611" lon="139.1344452"><ele>1127.9633333333334</ele><time>2024-11-17T02:37:44Z</time></trkpt><trkpt lat="35.7666361" lon="139.1345347"><ele>1125.0266666666666</ele><time>2024-11-17T02:38:05Z</time></trkpt><trkpt lat="35.7668106" lon="139.1346014"><ele>1120.04</ele><time>2024-11-17T02:38:41Z</time></trkpt><trkpt lat="35.7669979" lon="139.1345279"><ele>1114.97</ele><time>2024-11-17T02:39:16Z</time></trkpt><trkpt lat="35.7671828" lon="139.1344837"><ele>1110.3866666666665</ele><time>2024-11-17T02:39:35Z</time></trkpt><trkpt lat="35.7673647" lon="139.1344959"><ele>1108.1966666666665</ele><time>2024-11-17T02:39:56Z</time></trkpt><trkpt lat="35.7675444" lon="139.1344275"><ele>1106.8733333333332</ele><time>2024-11-17T02:40:14Z</time></trkpt><trkpt lat="35.7676974" lon="139.1345677"><ele>1103.7</ele><time>2024-11-17T02:40:53Z</time></trkpt><trkpt lat="35.7678782" lon="139.134679"><ele>1102.73</ele><time>2024-11-17T02:41:35Z</time></trkpt><trkpt lat="35.7679797" lon="139.1348658"><ele>1097.5866666666668</ele><time>2024-11-17T02:42:23Z</time></trkpt><trkpt lat="35.7679669" lon="139.1350946"><ele>1091.5766666666666</ele><time>2024-11-17T02:43:20Z</time></trkpt><trkpt lat="35.7681526" lon="139.1350305"><ele>1084.7733333333333</ele><time>2024-11-17T02:44:01Z</time></trkpt><trkpt lat="35.7683586" lon="139.1349156"><ele>1077.0833333333333</ele><time>2024-11-17T02:44:52Z</time></trkpt><trkpt lat="35.7685258" lon="139.1348289"><ele>1070.08</ele><time>2024-11-17T02:45:34Z</time></trkpt><trkpt lat="35.7686985" lon="139.1347576"><ele>1060.7366666666667</ele><time>2024-11-17T02:46:40Z</time></trkpt><trkpt lat="35.7688654" lon="139.134845"><ele>1051.4033333333334</ele><time>2024-11-17T02:47:13Z</time></trkpt><trkpt lat="35.769041" lon="139.1349055"><ele>1042.87</ele><time>2024-11-17T02:47:31Z</time></trkpt><trkpt lat="35.7692199" lon="139.134997"><ele>1036.9199999999998</ele><time>2024-11-17T02:47:49Z</time></trkpt><trkpt lat="35.7693542" lon="139.1351449"><ele>1035.54</ele><time>2024-11-17T02:48:04Z</time></trkpt><trkpt lat="35.7694177" lon="139.13537"><ele>1037.5933333333332</ele><time>2024-11-17T02:49:40Z</time></trkpt><trkpt lat="35.7696232" lon="139.1354001"><ele>1039.5533333333333</ele><time>2024-11-17T02:50:01Z</time></trkpt><trkpt lat="35.7698314" lon="139.1354918"><ele>1038.5766666666666</ele><time>2024-11-17T02:50:19Z</time></trkpt><trkpt lat="35.7699463" lon="139.1356815"><ele>1038.22</ele><time>2024-11-17T02:50:37Z</time></trkpt><trkpt lat="35.7701003" lon="139.1358236"><ele>1038.2233333333334</ele><time>2024-11-17T02:50:58Z</time></trkpt><trkpt lat="35.770257" lon="139.1359833"><ele>1040.54</ele><time>2024-11-17T02:51:16Z</time></trkpt><trkpt lat="35.7704254" lon="139.1360648"><ele>1040.97</ele><time>2024-11-17T02:51:34Z</time></trkpt><trkpt lat="35.770588" lon="139.136206"><ele>1041.4666666666665</ele><time>2024-11-17T02:51:49Z</time></trkpt><trkpt lat="35.7707132" lon="139.1363661"><ele>1041.9733333333334</ele><time>2024-11-17T02:52:01Z</time></trkpt><trkpt lat="35.7708845" lon="139.1365313"><ele>1042.4766666666667</ele><time>2024-11-17T02:52:19Z</time></trkpt><trkpt lat="35.7710557" lon="139.1366177"><ele>1043.0333333333335</ele><time>2024-11-17T02:52:34Z</time></trkpt><trkpt lat="35.7712533" lon="139.1366505"><ele>1042.756666666667</ele><time>2024-11-17T02:52:46Z</time></trkpt><trkpt lat="35.7714185" lon="139.1367722"><ele>1043.1833333333334</ele><time>2024-11-17T02:53:01Z</time></trkpt><trkpt lat="35.7715944" lon="139.1368873"><ele>1045.5166666666667</ele><time>2024-11-17T02:53:16Z</time></trkpt><trkpt lat="35.7717587" lon="139.1370629"><ele>1048.9333333333334</ele><time>2024-11-17T02:53:31Z</time></trkpt><trkpt lat="35.771848" lon="139.137305"><ele>1050.6566666666668</ele><time>2024-11-17T02:53:46Z</time></trkpt><trkpt lat="35.7720023" lon="139.1374665"><ele>1051.0333333333335</ele><time>2024-11-17T02:54:04Z</time></trkpt><trkpt lat="35.7720617" lon="139.1376821"><ele>1050.14</ele><time>2024-11-17T02:54:19Z</time></trkpt><trkpt lat="35.7720333" lon="139.1379034"><ele>1049.7266666666667</ele><time>2024-11-17T02:54:34Z</time></trkpt><trkpt lat="35.7719399" lon="139.138096"><ele>1047.426666666667</ele><time>2024-11-17T02:54:49Z</time></trkpt><trkpt lat="35.7718542" lon="139.1383162"><ele>1043.29</ele><time>2024-11-17T02:55:07Z</time></trkpt><trkpt lat="35.771851" lon="139.1385674"><ele>1037.8700000000001</ele><time>2024-11-17T02:55:31Z</time></trkpt><trkpt lat="35.7719492" lon="139.1387699"><ele>1031.4633333333334</ele><time>2024-11-17T02:55:49Z</time></trkpt><trkpt lat="35.772007" lon="139.1389869"><ele>1026.38</ele><time>2024-11-17T02:56:28Z</time></trkpt><trkpt lat="35.7720856" lon="139.1391906"><ele>1019.8400000000001</ele><time>2024-11-17T02:56:52Z</time></trkpt><trkpt lat="35.7721541" lon="139.139399"><ele>1013.0733333333334</ele><time>2024-11-17T02:57:22Z</time></trkpt><trkpt lat="35.7722865" lon="139.1395903"><ele>1004.5233333333334</ele><time>2024-11-17T02:57:43Z</time></trkpt><trkpt lat="35.772377" lon="139.1397835"><ele>999.2066666666666</ele><time>2024-11-17T02:57:58Z</time></trkpt><trkpt lat="35.7725173" lon="139.139946"><ele>995.4499999999999</ele><time>2024-11-17T02:58:16Z</time></trkpt><trkpt lat="35.7726415" lon="139.1401142"><ele>993.6066666666667</ele><time>2024-11-17T02:58:37Z</time></trkpt><trkpt lat="35.77281" lon="139.1402174"><ele>990.2966666666667</ele><time>2024-11-17T02:59:06Z</time></trkpt><trkpt lat="35.7729661" lon="139.1403336"><ele>984.7599999999999</ele><time>2024-11-17T02:59:40Z</time></trkpt><trkpt lat="35.7730952" lon="139.1405077"><ele>978.8866666666667</ele><time>2024-11-17T03:00:07Z</time></trkpt><trkpt lat="35.7732233" lon="139.1406746"><ele>972.7866666666667</ele><time>2024-11-17T03:00:40Z</time></trkpt><trkpt lat="35.7734092" lon="139.1406964"><ele>964.4366666666666</ele><time>2024-11-17T03:01:04Z</time></trkpt><trkpt lat="35.7735415" lon="139.1408715"><ele>956.9933333333333</ele><time>2024-11-17T03:01:31Z</time></trkpt><trkpt lat="35.7736517" lon="139.1410522"><ele>952.0666666666667</ele><time>2024-11-17T03:01:49Z</time></trkpt><trkpt lat="35.7737853" lon="139.1412234"><ele>951.8066666666667</ele><time>2024-11-17T03:02:16Z</time></trkpt><trkpt lat="35.773935" lon="139.1413833"><ele>950.6733333333333</ele><time>2024-11-17T03:02:49Z</time></trkpt><trkpt lat="35.7739931" lon="139.141623"><ele>947.9866666666667</ele><time>2024-11-17T03:03:16Z</time></trkpt><trkpt lat="35.774055" lon="139.1418333"><ele>944.0133333333333</ele><time>2024-11-17T03:03:37Z</time></trkpt><trkpt lat="35.7742137" lon="139.1419871"><ele>939.6566666666668</ele><time>2024-11-17T03:03:55Z</time></trkpt><trkpt lat="35.7742842" lon="139.1421928"><ele>936.2433333333333</ele><time>2024-11-17T03:04:16Z</time></trkpt><trkpt lat="35.774385" lon="139.142383"><ele>931.98</ele><time>2024-11-17T03:04:31Z</time></trkpt><trkpt lat="35.7744022" lon="139.1421473"><ele>927.2133333333333</ele><time>2024-11-17T03:04:55Z</time></trkpt><trkpt lat="35.7744337" lon="139.1419221"><ele>920.5099999999999</ele><time>2024-11-17T03:05:19Z</time></trkpt><trkpt lat="35.7744682" lon="139.1416867"><ele>913.9200000000001</ele><time>2024-11-17T03:05:37Z</time></trkpt><trkpt lat="35.7745691" lon="139.1419295"><ele>908.7633333333333</ele><time>2024-11-17T03:06:40Z</time></trkpt><trkpt lat="35.7747249" lon="139.1420534"><ele>902.8033333333334</ele><time>2024-11-17T03:07:01Z</time></trkpt><trkpt lat="35.7748645" lon="139.1422173"><ele>897.9</ele><time>2024-11-17T03:07:22Z</time></trkpt><trkpt lat="35.7750311" lon="139.1423503"><ele>892.8433333333332</ele><time>2024-11-17T03:07:49Z</time></trkpt><trkpt lat="35.7752294" lon="139.142337"><ele>889.9866666666667</ele><time>2024-11-17T03:08:10Z</time></trkpt><trkpt lat="35.7754153" lon="139.1423757"><ele>887.1566666666668</ele><time>2024-11-17T03:08:31Z</time></trkpt><trkpt lat="35.7755759" lon="139.1424871"><ele>884.1700000000001</ele><time>2024-11-17T03:08:49Z</time></trkpt><trkpt lat="35.7757737" lon="139.1425315"><ele>881.1633333333334</ele><time>2024-11-17T03:09:10Z</time></trkpt><trkpt lat="35.7758886" lon="139.142733"><ele>877.5100000000001</ele><time>2024-11-17T03:09:37Z</time></trkpt><trkpt lat="35.7760763" lon="139.1426888"><ele>874.75</ele><time>2024-11-17T03:10:43Z</time></trkpt><trkpt lat="35.7762755" lon="139.1427872"><ele>871.04</ele><time>2024-11-17T03:11:34Z</time></trkpt><trkpt lat="35.7762342" lon="139.1430391"><ele>871.1166666666667</ele><time>2024-11-17T03:12:19Z</time></trkpt><trkpt lat="35.7761204" lon="139.1432787"><ele>870.07</ele><time>2024-11-17T03:13:01Z</time></trkpt><trkpt lat="35.7762904" lon="139.1431186"><ele>869.7333333333335</ele><time>2024-11-17T03:13:55Z</time></trkpt><trkpt lat="35.7764706" lon="139.1430889"><ele>867.6033333333334</ele><time>2024-11-17T03:15:52Z</time></trkpt><trkpt lat="35.7763796" lon="139.1433017"><ele>864.8800000000001</ele><time>2024-11-17T03:19:52Z</time></trkpt><trkpt lat="35.7762843" lon="139.1434961"><ele>861.5733333333334</ele><time>2024-11-17T03:20:13Z</time></trkpt><trkpt lat="35.7763971" lon="139.1436915"><ele>857.5100000000001</ele><time>2024-11-17T03:20:40Z</time></trkpt><trkpt lat="35.7765462" lon="139.1438208"><ele>854.0533333333334</ele><time>2024-11-17T03:23:19Z</time></trkpt><trkpt lat="35.7766872" lon="139.1439843"><ele>849.3333333333334</ele><time>2024-11-17T03:23:55Z</time></trkpt><trkpt lat="35.7768391" lon="139.1441284"><ele>841.8466666666667</ele><time>2024-11-17T03:24:31Z</time></trkpt><trkpt lat="35.7769775" lon="139.1442897"><ele>835.4233333333333</ele><time>2024-11-17T03:25:58Z</time></trkpt><trkpt lat="35.7770481" lon="139.1445008"><ele>830.7766666666668</ele><time>2024-11-17T03:26:19Z</time></trkpt><trkpt lat="35.7768615" lon="139.1445429"><ele>829.68</ele><time>2024-11-17T03:27:43Z</time></trkpt><trkpt lat="35.7767889" lon="139.1447456"><ele>828.8400000000001</ele><time>2024-11-17T03:28:55Z</time></trkpt><trkpt lat="35.7766101" lon="139.1448085"><ele>830.6366666666668</ele><time>2024-11-17T03:30:13Z</time></trkpt><trkpt lat="35.7766265" lon="139.1450333"><ele>829.1433333333334</ele><time>2024-11-17T03:31:01Z</time></trkpt><trkpt lat="35.7765814" lon="139.1452657"><ele>826.84</ele><time>2024-11-17T03:31:37Z</time></trkpt><trkpt lat="35.7765377" lon="139.1454875"><ele>821.13</ele><time>2024-11-17T03:32:25Z</time></trkpt><trkpt lat="35.7763933" lon="139.1453284"><ele>819.62</ele><time>2024-11-17T03:33:10Z</time></trkpt><trkpt lat="35.7765418" lon="139.1454767"><ele>818.3433333333334</ele><time>2024-11-17T03:33:49Z</time></trkpt><trkpt lat="35.7764215" lon="139.1456624"><ele>815.7433333333333</ele><time>2024-11-17T03:34:41Z</time></trkpt><trkpt lat="35.7762456" lon="139.1457114"><ele>812.7000000000002</ele><time>2024-11-17T03:35:05Z</time></trkpt><trkpt lat="35.7761223" lon="139.14591"><ele>807.6133333333333</ele><time>2024-11-17T03:35:38Z</time></trkpt><trkpt lat="35.7759208" lon="139.1458938"><ele>807.3299999999999</ele><time>2024-11-17T03:36:32Z</time></trkpt><trkpt lat="35.7757602" lon="139.1460446"><ele>803.57</ele><time>2024-11-17T03:36:59Z</time></trkpt><trkpt lat="35.7755902" lon="139.1461559"><ele>800.9</ele><time>2024-11-17T03:37:41Z</time></trkpt><trkpt lat="35.7754394" lon="139.1462998"><ele>795.62</ele><time>2024-11-17T03:38:11Z</time></trkpt><trkpt lat="35.7755151" lon="139.14653"><ele>792.3166666666667</ele><time>2024-11-17T03:39:29Z</time></trkpt><trkpt lat="35.775396" lon="139.1467074"><ele>788.9133333333334</ele><time>2024-11-17T03:39:59Z</time></trkpt><trkpt lat="35.7754503" lon="139.1469879"><ele>785.96</ele><time>2024-11-17T03:41:26Z</time></trkpt><trkpt lat="35.7753817" lon="139.1471954"><ele>783.0566666666667</ele><time>2024-11-17T03:41:45Z</time></trkpt><trkpt lat="35.7753552" lon="139.1474262"><ele>781.5300000000001</ele><time>2024-11-17T03:42:09Z</time></trkpt><trkpt lat="35.7753774" lon="139.147666"><ele>779.5033333333334</ele><time>2024-11-17T03:44:51Z</time></trkpt><trkpt lat="35.7754247" lon="139.1479169"><ele>777.8633333333333</ele><time>2024-11-17T03:45:12Z</time></trkpt><trkpt lat="35.7755869" lon="139.1480392"><ele>776.5733333333334</ele><time>2024-11-17T03:45:27Z</time></trkpt><trkpt lat="35.77572" lon="139.1482068"><ele>772.2333333333335</ele><time>2024-11-17T03:46:48Z</time></trkpt><trkpt lat="35.775933" lon="139.148217"><ele>766.61</ele><time>2024-11-17T03:47:39Z</time></trkpt><trkpt lat="35.7761167" lon="139.148129"><ele>760.2433333333333</ele><time>2024-11-17T03:47:57Z</time></trkpt><trkpt lat="35.776342" lon="139.1480492"><ele>756.5799999999999</ele><time>2024-11-17T03:48:12Z</time></trkpt><trkpt lat="35.7764929" lon="139.1479224"><ele>756.8133333333334</ele><time>2024-11-17T03:48:30Z</time></trkpt><trkpt lat="35.7766609" lon="139.1480772"><ele>754.93</ele><time>2024-11-17T03:48:48Z</time></trkpt><trkpt lat="35.7768464" lon="139.1480075"><ele>757.6366666666667</ele><time>2024-11-17T03:49:42Z</time></trkpt><trkpt lat="35.7767334" lon="139.1481813"><ele>754.29</ele><time>2024-11-17T03:50:18Z</time></trkpt><trkpt lat="35.7768973" lon="139.1480792"><ele>756.6</ele><time>2024-11-17T03:51:09Z</time></trkpt><trkpt lat="35.777079" lon="139.1480928"><ele>755.1866666666666</ele><time>2024-11-17T03:51:33Z</time></trkpt><trkpt lat="35.7772601" lon="139.148022"><ele>759.1700000000001</ele><time>2024-11-17T03:52:12Z</time></trkpt><trkpt lat="35.7774252" lon="139.1478434"><ele>763.8966666666666</ele><time>2024-11-17T03:52:24Z</time></trkpt><trkpt lat="35.7776066" lon="139.1477325"><ele>766.9200000000001</ele><time>2024-11-17T03:52:39Z</time></trkpt><trkpt lat="35.7778059" lon="139.14768"><ele>771.7066666666666</ele><time>2024-11-17T03:53:06Z</time></trkpt><trkpt lat="35.7780001" lon="139.1476179"><ele>773.9500000000002</ele><time>2024-11-17T03:53:33Z</time></trkpt><trkpt lat="35.7780958" lon="139.1474239"><ele>778.7800000000001</ele><time>2024-11-17T03:54:45Z</time></trkpt><trkpt lat="35.7782832" lon="139.1475081"><ele>772.8766666666667</ele><time>2024-11-17T03:57:24Z</time></trkpt><trkpt lat="35.7782873" lon="139.1477376"><ele>767.2633333333333</ele><time>2024-11-17T03:57:54Z</time></trkpt><trkpt lat="35.778354" lon="139.1479756"><ele>755.4966666666666</ele><time>2024-11-17T03:58:56Z</time></trkpt><trkpt lat="35.7785129" lon="139.1480903"><ele>745.57</ele><time>2024-11-17T04:00:26Z</time></trkpt><trkpt lat="35.7787055" lon="139.1481531"><ele>728.4699999999999</ele><time>2024-11-17T04:01:38Z</time></trkpt><trkpt lat="35.7787247" lon="139.148382"><ele>716.6433333333334</ele><time>2024-11-17T04:05:02Z</time></trkpt><trkpt lat="35.7788661" lon="139.1482381"><ele>705.7533333333334</ele><time>2024-11-17T04:11:41Z</time></trkpt><trkpt lat="35.7789528" lon="139.1480353"><ele>699.88</ele><time>2024-11-17T04:12:29Z</time></trkpt><trkpt lat="35.7790688" lon="139.1478473"><ele>696.35</ele><time>2024-11-17T04:13:17Z</time></trkpt><trkpt lat="35.779288" lon="139.1479626"><ele>701.2866666666667</ele><time>2024-11-17T04:15:11Z</time></trkpt><trkpt lat="35.7793077" lon="139.1477394"><ele>709.32</ele><time>2024-11-17T04:15:53Z</time></trkpt><trkpt lat="35.7793169" lon="139.1474924"><ele>718.9833333333332</ele><time>2024-11-17T04:16:44Z</time></trkpt><trkpt lat="35.7794042" lon="139.1472914"><ele>728.0400000000001</ele><time>2024-11-17T04:17:35Z</time></trkpt><trkpt lat="35.7795051" lon="139.1474753"><ele>735.81</ele><time>2024-11-17T04:18:59Z</time></trkpt><trkpt lat="35.7796758" lon="139.1477089"><ele>744.4</ele><time>2024-11-17T04:20:07Z</time></trkpt><trkpt lat="35.7797439" lon="139.1479296"><ele>751.9766666666668</ele><time>2024-11-17T04:21:07Z</time></trkpt><trkpt lat="35.7799305" lon="139.1480783"><ele>762.1233333333333</ele><time>2024-11-17T04:24:15Z</time></trkpt><trkpt lat="35.7800952" lon="139.14817"><ele>773.7966666666667</ele><time>2024-11-17T04:25:45Z</time></trkpt><trkpt lat="35.7802615" lon="139.1483064"><ele>785.0866666666667</ele><time>2024-11-17T04:26:34Z</time></trkpt><trkpt lat="35.7804577" lon="139.1483217"><ele>795.7133333333335</ele><time>2024-11-17T04:26:58Z</time></trkpt><trkpt lat="35.7806445" lon="139.1483105"><ele>801.5966666666667</ele><time>2024-11-17T04:27:19Z</time></trkpt><trkpt lat="35.7808182" lon="139.1482402"><ele>809.23</ele><time>2024-11-17T04:28:40Z</time></trkpt><trkpt lat="35.7810034" lon="139.14832"><ele>811.6366666666667</ele><time>2024-11-17T04:29:19Z</time></trkpt><trkpt lat="35.7812228" lon="139.1483368"><ele>813.81</ele><time>2024-11-17T04:29:37Z</time></trkpt><trkpt lat="35.7813907" lon="139.1484844"><ele>812.0799999999999</ele><time>2024-11-17T04:30:20Z</time></trkpt><trkpt lat="35.7815552" lon="139.148744"><ele>818.1866666666666</ele><time>2024-11-17T04:31:32Z</time></trkpt><trkpt lat="35.7817165" lon="139.1489456"><ele>826.9766666666668</ele><time>2024-11-17T04:32:44Z</time></trkpt><trkpt lat="35.7818002" lon="139.1491553"><ele>836.5933333333332</ele><time>2024-11-17T04:33:20Z</time></trkpt><trkpt lat="35.781982" lon="139.149397"><ele>846.3966666666666</ele><time>2024-11-17T04:34:47Z</time></trkpt><trkpt lat="35.7819824" lon="139.1496207"><ele>852.2199999999999</ele><time>2024-11-17T04:35:26Z</time></trkpt><trkpt lat="35.781941" lon="139.1498474"><ele>858.1833333333334</ele><time>2024-11-17T04:35:59Z</time></trkpt><trkpt lat="35.7818969" lon="139.1500648"><ele>862.3266666666667</ele><time>2024-11-17T04:36:37Z</time></trkpt><trkpt lat="35.7817725" lon="139.1502721"><ele>866.4833333333332</ele><time>2024-11-17T04:37:32Z</time></trkpt><trkpt lat="35.7816244" lon="139.1504406"><ele>868.9200000000001</ele><time>2024-11-17T04:37:50Z</time></trkpt><trkpt lat="35.7814595" lon="139.1506035"><ele>866.8366666666667</ele><time>2024-11-17T04:38:08Z</time></trkpt><trkpt lat="35.7812534" lon="139.150692"><ele>864.1433333333333</ele><time>2024-11-17T04:38:23Z</time></trkpt><trkpt lat="35.7810458" lon="139.1507662"><ele>861.79</ele><time>2024-11-17T04:38:50Z</time></trkpt><trkpt lat="35.7808735" lon="139.150859"><ele>861.0400000000001</ele><time>2024-11-17T04:39:29Z</time></trkpt><trkpt lat="35.7807799" lon="139.1510547"><ele>860.75</ele><time>2024-11-17T04:41:32Z</time></trkpt><trkpt lat="35.7807049" lon="139.1512635"><ele>860.2900000000001</ele><time>2024-11-17T04:41:50Z</time></trkpt><trkpt lat="35.780574" lon="139.1514434"><ele>858.3466666666667</ele><time>2024-11-17T04:42:54Z</time></trkpt><trkpt lat="35.780403" lon="139.1516038"><ele>855.0066666666667</ele><time>2024-11-17T04:44:03Z</time></trkpt><trkpt lat="35.7802404" lon="139.1517387"><ele>853.2866666666667</ele><time>2024-11-17T04:44:15Z</time></trkpt><trkpt lat="35.7801805" lon="139.1519782"><ele>854.3733333333333</ele><time>2024-11-17T04:44:39Z</time></trkpt><trkpt lat="35.7801252" lon="139.1522062"><ele>857.3966666666666</ele><time>2024-11-17T04:44:51Z</time></trkpt><trkpt lat="35.7800305" lon="139.1524235"><ele>859.9766666666668</ele><time>2024-11-17T04:45:09Z</time></trkpt><trkpt lat="35.7799142" lon="139.1526296"><ele>859.48</ele><time>2024-11-17T04:47:51Z</time></trkpt><trkpt lat="35.7800002" lon="139.1524309"><ele>859.3766666666667</ele><time>2024-11-17T04:48:39Z</time></trkpt><trkpt lat="35.7800985" lon="139.1522203"><ele>859.4333333333334</ele><time>2024-11-17T04:55:36Z</time></trkpt><trkpt lat="35.7801807" lon="139.1519992"><ele>859.93</ele><time>2024-11-17T04:55:54Z</time></trkpt><trkpt lat="35.7802375" lon="139.1517723"><ele>857.3966666666666</ele><time>2024-11-17T04:56:12Z</time></trkpt><trkpt lat="35.7803564" lon="139.1515983"><ele>854.06</ele><time>2024-11-17T04:56:27Z</time></trkpt><trkpt lat="35.7805072" lon="139.151464"><ele>852.0499999999998</ele><time>2024-11-17T04:56:39Z</time></trkpt><trkpt lat="35.7806492" lon="139.1513202"><ele>853.77</ele><time>2024-11-17T04:56:54Z</time></trkpt><trkpt lat="35.780734" lon="139.1511032"><ele>857.1700000000001</ele><time>2024-11-17T04:57:12Z</time></trkpt><trkpt lat="35.7808594" lon="139.1509267"><ele>860.0366666666667</ele><time>2024-11-17T04:57:30Z</time></trkpt><trkpt lat="35.7810029" lon="139.1507875"><ele>861.48</ele><time>2024-11-17T04:57:45Z</time></trkpt><trkpt lat="35.7811819" lon="139.1507184"><ele>861.7266666666668</ele><time>2024-11-17T05:00:39Z</time></trkpt><trkpt lat="35.7813603" lon="139.1506517"><ele>861.9033333333333</ele><time>2024-11-17T05:00:57Z</time></trkpt><trkpt lat="35.7815265" lon="139.1504983"><ele>861.2333333333332</ele><time>2024-11-17T05:01:15Z</time></trkpt><trkpt lat="35.7816993" lon="139.1503216"><ele>863.0799999999999</ele><time>2024-11-17T05:01:33Z</time></trkpt><trkpt lat="35.7818596" lon="139.150196"><ele>866.5333333333333</ele><time>2024-11-17T05:01:48Z</time></trkpt><trkpt lat="35.782061" lon="139.1501582"><ele>873.65</ele><time>2024-11-17T05:03:18Z</time></trkpt><trkpt lat="35.7822338" lon="139.1503089"><ele>881.41</ele><time>2024-11-17T05:03:36Z</time></trkpt><trkpt lat="35.7823546" lon="139.1505039"><ele>888.89</ele><time>2024-11-17T05:03:57Z</time></trkpt><trkpt lat="35.7824595" lon="139.1507216"><ele>894.0166666666668</ele><time>2024-11-17T05:04:21Z</time></trkpt><trkpt lat="35.7826424" lon="139.1508184"><ele>897.37</ele><time>2024-11-17T05:04:42Z</time></trkpt><trkpt lat="35.7828245" lon="139.1508465"><ele>899.1333333333333</ele><time>2024-11-17T05:05:00Z</time></trkpt><trkpt lat="35.783001" lon="139.1507491"><ele>902.4133333333334</ele><time>2024-11-17T05:05:18Z</time></trkpt><trkpt lat="35.7832045" lon="139.1507681"><ele>904.2066666666666</ele><time>2024-11-17T05:05:39Z</time></trkpt><trkpt lat="35.7833646" lon="139.1508743"><ele>900.9533333333334</ele><time>2024-11-17T05:05:54Z</time></trkpt><trkpt lat="35.7832901" lon="139.1506447"><ele>899.9833333333332</ele><time>2024-11-17T05:07:00Z</time></trkpt><trkpt lat="35.783169" lon="139.1504725"><ele>903.0433333333334</ele><time>2024-11-17T05:07:39Z</time></trkpt><trkpt lat="35.7829256" lon="139.1503863"><ele>913.1666666666666</ele><time>2024-11-17T05:08:15Z</time></trkpt><trkpt lat="35.7828199" lon="139.1502005"><ele>919.4166666666666</ele><time>2024-11-17T05:08:57Z</time></trkpt><trkpt lat="35.782759" lon="139.1499648"><ele>922.3866666666667</ele><time>2024-11-17T05:11:36Z</time></trkpt><trkpt lat="35.7827973" lon="139.1497277"><ele>923.9266666666667</ele><time>2024-11-17T05:11:57Z</time></trkpt><trkpt lat="35.7828294" lon="139.1495054"><ele>925.7033333333334</ele><time>2024-11-17T05:12:18Z</time></trkpt><trkpt lat="35.7828806" lon="139.1492812"><ele>925.0400000000001</ele><time>2024-11-17T05:13:27Z</time></trkpt><trkpt lat="35.7829063" lon="139.1495258"><ele>925.5966666666667</ele><time>2024-11-17T05:13:57Z</time></trkpt><trkpt lat="35.7827914" lon="139.149727"><ele>924.7833333333334</ele><time>2024-11-17T05:14:48Z</time></trkpt><trkpt lat="35.7827179" lon="139.1499539"><ele>925.1266666666667</ele><time>2024-11-17T05:15:30Z</time></trkpt><trkpt lat="35.7828147" lon="139.1501553"><ele>923.81</ele><time>2024-11-17T05:16:36Z</time></trkpt><trkpt lat="35.7829272" lon="139.1503539"><ele>922.27</ele><time>2024-11-17T05:17:24Z</time></trkpt><trkpt lat="35.7830759" lon="139.1505051"><ele>920.2333333333332</ele><time>2024-11-17T05:17:48Z</time></trkpt><trkpt lat="35.7832607" lon="139.150571"><ele>915.88</ele><time>2024-11-17T05:18:12Z</time></trkpt><trkpt lat="35.7833905" lon="139.1507521"><ele>907.8433333333334</ele><time>2024-11-17T05:18:39Z</time></trkpt><trkpt lat="35.7835485" lon="139.1508791"><ele>896.7333333333332</ele><time>2024-11-17T05:19:12Z</time></trkpt><trkpt lat="35.7837552" lon="139.1509618"><ele>885.16</ele><time>2024-11-17T05:19:48Z</time></trkpt><trkpt lat="35.7839279" lon="139.1508761"><ele>876.2866666666667</ele><time>2024-11-17T05:20:18Z</time></trkpt><trkpt lat="35.783918" lon="139.1511112"><ele>872.82</ele><time>2024-11-17T05:20:51Z</time></trkpt><trkpt lat="35.7839892" lon="139.151344"><ele>871.5266666666666</ele><time>2024-11-17T05:21:14Z</time></trkpt><trkpt lat="35.7839735" lon="139.1515881"><ele>871.7133333333333</ele><time>2024-11-17T05:22:12Z</time></trkpt><trkpt lat="35.7838897" lon="139.1518014"><ele>869.8866666666668</ele><time>2024-11-17T05:22:27Z</time></trkpt><trkpt lat="35.7838791" lon="139.1520264"><ele>867.73</ele><time>2024-11-17T05:24:12Z</time></trkpt><trkpt lat="35.7841039" lon="139.152094"><ele>863.48</ele><time>2024-11-17T05:25:06Z</time></trkpt><trkpt lat="35.7842794" lon="139.1519362"><ele>859.4366666666666</ele><time>2024-11-17T05:26:00Z</time></trkpt><trkpt lat="35.7844533" lon="139.1518587"><ele>856.9766666666668</ele><time>2024-11-17T05:26:15Z</time></trkpt><trkpt lat="35.7845779" lon="139.1520392"><ele>852.7266666666668</ele><time>2024-11-17T05:26:39Z</time></trkpt><trkpt lat="35.7847561" lon="139.1519845"><ele>849.9900000000001</ele><time>2024-11-17T05:27:03Z</time></trkpt><trkpt lat="35.784963" lon="139.1519533"><ele>846.1966666666667</ele><time>2024-11-17T05:27:21Z</time></trkpt><trkpt lat="35.7851436" lon="139.1518584"><ele>845.62</ele><time>2024-11-17T05:27:57Z</time></trkpt><trkpt lat="35.7853382" lon="139.1517627"><ele>843.44</ele><time>2024-11-17T05:28:12Z</time></trkpt><trkpt lat="35.7855293" lon="139.1518275"><ele>838.8033333333334</ele><time>2024-11-17T05:28:30Z</time></trkpt><trkpt lat="35.7857111" lon="139.1518415"><ele>833.8400000000001</ele><time>2024-11-17T05:28:45Z</time></trkpt><trkpt lat="35.7858942" lon="139.1518165"><ele>825.6866666666666</ele><time>2024-11-17T05:29:00Z</time></trkpt><trkpt lat="35.7860373" lon="139.1516598"><ele>819.5233333333334</ele><time>2024-11-17T05:29:18Z</time></trkpt><trkpt lat="35.7862415" lon="139.1515949"><ele>815.5633333333334</ele><time>2024-11-17T05:29:39Z</time></trkpt><trkpt lat="35.7861897" lon="139.1513812"><ele>816.6066666666667</ele><time>2024-11-17T05:29:54Z</time></trkpt><trkpt lat="35.7862759" lon="139.1511821"><ele>819.43</ele><time>2024-11-17T05:30:21Z</time></trkpt><trkpt lat="35.786431" lon="139.1510314"><ele>822.5300000000001</ele><time>2024-11-17T05:32:39Z</time></trkpt><trkpt lat="35.7866201" lon="139.1509861"><ele>825.66</ele><time>2024-11-17T05:33:00Z</time></trkpt><trkpt lat="35.7868108" lon="139.1510339"><ele>828.3066666666667</ele><time>2024-11-17T05:33:18Z</time></trkpt><trkpt lat="35.7870007" lon="139.1510141"><ele>830.2266666666668</ele><time>2024-11-17T05:33:33Z</time></trkpt><trkpt lat="35.7872066" lon="139.1509315"><ele>832.1266666666667</ele><time>2024-11-17T05:33:51Z</time></trkpt><trkpt lat="35.787419" lon="139.1509681"><ele>833.29</ele><time>2024-11-17T05:34:09Z</time></trkpt><trkpt lat="35.7876065" lon="139.1510979"><ele>835.0466666666667</ele><time>2024-11-17T05:34:24Z</time></trkpt><trkpt lat="35.7877776" lon="139.1512035"><ele>834.98</ele><time>2024-11-17T05:34:42Z</time></trkpt><trkpt lat="35.7879498" lon="139.1513466"><ele>836.3066666666667</ele><time>2024-11-17T05:34:57Z</time></trkpt><trkpt lat="35.7881239" lon="139.1514477"><ele>835.8166666666666</ele><time>2024-11-17T05:35:12Z</time></trkpt><trkpt lat="35.7883116" lon="139.1513881"><ele>836.1999999999999</ele><time>2024-11-17T05:35:30Z</time></trkpt><trkpt lat="35.7884947" lon="139.1514687"><ele>835.4033333333333</ele><time>2024-11-17T05:35:48Z</time></trkpt><trkpt lat="35.7886483" lon="139.1516246"><ele>839.6666666666666</ele><time>2024-11-17T05:36:06Z</time></trkpt><trkpt lat="35.7886921" lon="139.1518561"><ele>840.93</ele><time>2024-11-17T05:36:21Z</time></trkpt><trkpt lat="35.7886361" lon="139.1520881"><ele>840.6733333333333</ele><time>2024-11-17T05:36:36Z</time></trkpt><trkpt lat="35.7887147" lon="139.1523078"><ele>839.9900000000001</ele><time>2024-11-17T05:36:54Z</time></trkpt><trkpt lat="35.7886875" lon="139.1525369"><ele>843.0566666666667</ele><time>2024-11-17T05:37:09Z</time></trkpt><trkpt lat="35.788598" lon="139.1527457"><ele>845.46</ele><time>2024-11-17T05:37:24Z</time></trkpt><trkpt lat="35.7887236" lon="139.1529484"><ele>845.02</ele><time>2024-11-17T05:37:42Z</time></trkpt><trkpt lat="35.7889033" lon="139.1530647"><ele>844.2933333333334</ele><time>2024-11-17T05:38:00Z</time></trkpt><trkpt lat="35.7890643" lon="139.1531819"><ele>844.7066666666666</ele><time>2024-11-17T05:38:18Z</time></trkpt><trkpt lat="35.7892488" lon="139.1532681"><ele>843.5233333333334</ele><time>2024-11-17T05:38:36Z</time></trkpt><trkpt lat="35.7894279" lon="139.1533542"><ele>840.9533333333334</ele><time>2024-11-17T05:38:57Z</time></trkpt><trkpt lat="35.7896169" lon="139.1533717"><ele>839.6433333333334</ele><time>2024-11-17T05:39:18Z</time></trkpt><trkpt lat="35.7897762" lon="139.153504"><ele>837.8100000000001</ele><time>2024-11-17T05:40:48Z</time></trkpt></trkseg></trk></gpx>