<?xml version='1.0' encoding='UTF-8'?><gpx creator="YAMAP - https://yamap.com" xsi:schemaLocation="http://www.topografix.com/GPX/1/1 http://www.topografix.com/GPX/1/1/gpx.xsd" version="1.1" xmlns="http://www.topografix.com/GPX/1/1" xmlns:xsi="http://www.w3.org/2001/XMLSchema-instance"><metadata><bounds maxlat="34.9762372" maxlon="138.8574191" minlat="34.9201202" minlon="138.8316561"/></metadata><trk><name>爆風の西伊豆スカイライン</name><number>1</number><trkseg><trkpt lat="34.9201453" lon="138.8574191"><ele>437.7</ele><time>2023-12-16T01:04:18Z</time></trkpt><trkpt lat="34.9201202" lon="138.8571912"><ele>437.405</ele><time>2023-12-16T01:05:15Z</time></trkpt><trkpt lat="34.9201775" lon="138.8569685"><ele>437.83</ele><time>2023-12-16T01:05:31Z</time></trkpt><trkpt lat="34.9202569" lon="138.8567576"><ele>438.96999999999997</ele><time>2023-12-16T01:05:37Z</time></trkpt><trkpt lat="34.9202497" lon="138.8565363"><ele>440.4266666666667</ele><time>2023-12-16T01:05:49Z</time></trkpt><trkpt lat="34.9202775" lon="138.8563102"><ele>441.40333333333336</ele><time>2023-12-16T01:06:02Z</time></trkpt><trkpt lat="34.9203397" lon="138.8561001"><ele>442.25666666666666</ele><time>2023-12-16T01:06:15Z</time></trkpt><trkpt lat="34.9203583" lon="138.8558779"><ele>443.12999999999994</ele><time>2023-12-16T01:06:34Z</time></trkpt><trkpt lat="34.9205479" lon="138.8557642"><ele>445.33666666666664</ele><time>2023-12-16T01:06:51Z</time></trkpt><trkpt lat="34.9206295" lon="138.8555646"><ele>448.24</ele><time>2023-12-16T01:07:17Z</time></trkpt><trkpt lat="34.9204736" lon="138.8554182"><ele>451.67</ele><time>2023-12-16T01:07:33Z</time></trkpt><trkpt lat="34.9203296" lon="138.855255"><ele>453.21999999999997</ele><time>2023-12-16T01:07:46Z</time></trkpt><trkpt lat="34.9201958" lon="138.8550676"><ele>451.9433333333333</ele><time>2023-12-16T01:07:56Z</time></trkpt><trkpt lat="34.9203644" lon="138.8549865"><ele>452.1033333333333</ele><time>2023-12-16T01:08:07Z</time></trkpt><trkpt lat="34.9204775" lon="138.8548112"><ele>452.91333333333336</ele><time>2023-12-16T01:08:37Z</time></trkpt><trkpt lat="34.9204278" lon="138.8545736"><ele>454.6233333333334</ele><time>2023-12-16T01:08:48Z</time></trkpt><trkpt lat="34.920804" lon="138.8544354"><ele>457.69</ele><time>2023-12-16T01:08:58Z</time></trkpt><trkpt lat="34.9209735" lon="138.8543584"><ele>461.49</ele><time>2023-12-16T01:09:08Z</time></trkpt><trkpt lat="34.9208365" lon="138.8541893"><ele>466.4633333333333</ele><time>2023-12-16T01:09:13Z</time></trkpt><trkpt lat="34.9206683" lon="138.8540304"><ele>469.98333333333335</ele><time>2023-12-16T01:09:21Z</time></trkpt><trkpt lat="34.9204848" lon="138.8539012"><ele>471.82</ele><time>2023-12-16T01:09:33Z</time></trkpt><trkpt lat="34.920454" lon="138.8536773"><ele>473.58666666666664</ele><time>2023-12-16T01:09:47Z</time></trkpt><trkpt lat="34.9205391" lon="138.8534776"><ele>473.90000000000003</ele><time>2023-12-16T01:10:05Z</time></trkpt><trkpt lat="34.9205985" lon="138.8532707"><ele>474.8233333333333</ele><time>2023-12-16T01:10:20Z</time></trkpt><trkpt lat="34.9207218" lon="138.8531105"><ele>475.51666666666665</ele><time>2023-12-16T01:10:35Z</time></trkpt><trkpt lat="34.9208587" lon="138.8529582"><ele>476.2833333333333</ele><time>2023-12-16T01:10:48Z</time></trkpt><trkpt lat="34.921022" lon="138.8528416"><ele>477.1333333333334</ele><time>2023-12-16T01:11:00Z</time></trkpt><trkpt lat="34.9211455" lon="138.8526658"><ele>478.1033333333334</ele><time>2023-12-16T01:11:16Z</time></trkpt><trkpt lat="34.9212882" lon="138.8525254"><ele>480.1333333333334</ele><time>2023-12-16T01:11:24Z</time></trkpt><trkpt lat="34.9212681" lon="138.8523045"><ele>481.3500000000001</ele><time>2023-12-16T01:11:32Z</time></trkpt><trkpt lat="34.9212672" lon="138.8520815"><ele>481.46000000000004</ele><time>2023-12-16T01:11:46Z</time></trkpt><trkpt lat="34.9212052" lon="138.8518732"><ele>481.24333333333334</ele><time>2023-12-16T01:12:00Z</time></trkpt><trkpt lat="34.9212391" lon="138.8516533"><ele>482.28</ele><time>2023-12-16T01:12:12Z</time></trkpt><trkpt lat="34.9213136" lon="138.851448"><ele>485.06</ele><time>2023-12-16T01:12:24Z</time></trkpt><trkpt lat="34.9213232" lon="138.8512195"><ele>486.21000000000004</ele><time>2023-12-16T01:12:37Z</time></trkpt><trkpt lat="34.9213031" lon="138.8509904"><ele>488.59</ele><time>2023-12-16T01:12:51Z</time></trkpt><trkpt lat="34.9212555" lon="138.850759"><ele>488.70000000000005</ele><time>2023-12-16T01:13:02Z</time></trkpt><trkpt lat="34.9212789" lon="138.85054"><ele>490.6666666666667</ele><time>2023-12-16T01:13:14Z</time></trkpt><trkpt lat="34.9213149" lon="138.8503247"><ele>490.8233333333333</ele><time>2023-12-16T01:13:28Z</time></trkpt><trkpt lat="34.9213164" lon="138.8500957"><ele>492.51000000000005</ele><time>2023-12-16T01:13:42Z</time></trkpt><trkpt lat="34.9213913" lon="138.8498801"><ele>493.7533333333334</ele><time>2023-12-16T01:13:56Z</time></trkpt><trkpt lat="34.9214994" lon="138.8496997"><ele>495.1566666666667</ele><time>2023-12-16T01:14:13Z</time></trkpt><trkpt lat="34.9216408" lon="138.8495542"><ele>495.7966666666666</ele><time>2023-12-16T01:14:27Z</time></trkpt><trkpt lat="34.9218201" lon="138.8495223"><ele>496.06666666666666</ele><time>2023-12-16T01:14:44Z</time></trkpt><trkpt lat="34.9218152" lon="138.8492982"><ele>496.19</ele><time>2023-12-16T01:14:52Z</time></trkpt><trkpt lat="34.9216562" lon="138.8491903"><ele>497.6133333333334</ele><time>2023-12-16T01:15:00Z</time></trkpt><trkpt lat="34.9215075" lon="138.8490466"><ele>499.61666666666673</ele><time>2023-12-16T01:15:11Z</time></trkpt><trkpt lat="34.9214207" lon="138.8488463"><ele>502.6666666666667</ele><time>2023-12-16T01:15:23Z</time></trkpt><trkpt lat="34.921411" lon="138.8486269"><ele>505.8233333333333</ele><time>2023-12-16T01:15:36Z</time></trkpt><trkpt lat="34.9214974" lon="138.8484303"><ele>508.45666666666665</ele><time>2023-12-16T01:15:52Z</time></trkpt><trkpt lat="34.9215469" lon="138.8482051"><ele>509.26666666666665</ele><time>2023-12-16T01:16:08Z</time></trkpt><trkpt lat="34.9216307" lon="138.8480032"><ele>509.81</ele><time>2023-12-16T01:16:23Z</time></trkpt><trkpt lat="34.9217167" lon="138.8478067"><ele>509.07666666666665</ele><time>2023-12-16T01:16:39Z</time></trkpt><trkpt lat="34.9217858" lon="138.8475967"><ele>509.6033333333334</ele><time>2023-12-16T01:16:53Z</time></trkpt><trkpt lat="34.9219464" lon="138.8474703"><ele>509.8433333333334</ele><time>2023-12-16T01:17:05Z</time></trkpt><trkpt lat="34.9221269" lon="138.8474612"><ele>511.2366666666667</ele><time>2023-12-16T01:17:19Z</time></trkpt><trkpt lat="34.9223149" lon="138.847487"><ele>512.9499999999999</ele><time>2023-12-16T01:17:33Z</time></trkpt><trkpt lat="34.9224844" lon="138.8473935"><ele>514.7166666666667</ele><time>2023-12-16T01:17:40Z</time></trkpt><trkpt lat="34.922629" lon="138.8472514"><ele>516.8366666666667</ele><time>2023-12-16T01:17:49Z</time></trkpt><trkpt lat="34.9227611" lon="138.8470664"><ele>519.5433333333334</ele><time>2023-12-16T01:18:08Z</time></trkpt><trkpt lat="34.9229411" lon="138.8470278"><ele>522.8633333333333</ele><time>2023-12-16T01:18:20Z</time></trkpt><trkpt lat="34.9230402" lon="138.8468384"><ele>524.4966666666666</ele><time>2023-12-16T01:18:34Z</time></trkpt><trkpt lat="34.9231936" lon="138.8466849"><ele>525.5666666666666</ele><time>2023-12-16T01:18:47Z</time></trkpt><trkpt lat="34.9233039" lon="138.8465097"><ele>525.1233333333333</ele><time>2023-12-16T01:18:57Z</time></trkpt><trkpt lat="34.9234526" lon="138.8463714"><ele>525.88</ele><time>2023-12-16T01:19:07Z</time></trkpt><trkpt lat="34.923596" lon="138.8462335"><ele>526.0966666666667</ele><time>2023-12-16T01:19:22Z</time></trkpt><trkpt lat="34.923754" lon="138.8460993"><ele>527.3866666666667</ele><time>2023-12-16T01:19:39Z</time></trkpt><trkpt lat="34.9239049" lon="138.8459742"><ele>528.5</ele><time>2023-12-16T01:19:52Z</time></trkpt><trkpt lat="34.9240375" lon="138.8458244"><ele>531.48</ele><time>2023-12-16T01:20:04Z</time></trkpt><trkpt lat="34.9241566" lon="138.8456353"><ele>534.73</ele><time>2023-12-16T01:20:14Z</time></trkpt><trkpt lat="34.9243013" lon="138.8455023"><ele>538.5600000000001</ele><time>2023-12-16T01:20:27Z</time></trkpt><trkpt lat="34.9243583" lon="138.8452915"><ele>538.42</ele><time>2023-12-16T01:20:39Z</time></trkpt><trkpt lat="34.9245078" lon="138.8451645"><ele>537.5266666666666</ele><time>2023-12-16T01:20:53Z</time></trkpt><trkpt lat="34.9246608" lon="138.8450442"><ele>537.0366666666667</ele><time>2023-12-16T01:21:07Z</time></trkpt><trkpt lat="34.9248164" lon="138.8449293"><ele>538.3633333333333</ele><time>2023-12-16T01:21:20Z</time></trkpt><trkpt lat="34.9249589" lon="138.8447879"><ele>540.4</ele><time>2023-12-16T01:21:34Z</time></trkpt><trkpt lat="34.9250616" lon="138.8445973"><ele>539.77</ele><time>2023-12-16T01:21:47Z</time></trkpt><trkpt lat="34.9251444" lon="138.8443906"><ele>540.27</ele><time>2023-12-16T01:21:59Z</time></trkpt><trkpt lat="34.9252355" lon="138.8441989"><ele>540.97</ele><time>2023-12-16T01:22:10Z</time></trkpt><trkpt lat="34.9252283" lon="138.8439708"><ele>541.8666666666667</ele><time>2023-12-16T01:22:23Z</time></trkpt><trkpt lat="34.9250625" lon="138.8438741"><ele>540.59</ele><time>2023-12-16T01:22:31Z</time></trkpt><trkpt lat="34.9248795" lon="138.8438394"><ele>539.3733333333333</ele><time>2023-12-16T01:22:38Z</time></trkpt><trkpt lat="34.9247015" lon="138.8437731"><ele>540.6</ele><time>2023-12-16T01:22:50Z</time></trkpt><trkpt lat="34.9245048" lon="138.8437761"><ele>543.7666666666668</ele><time>2023-12-16T01:23:03Z</time></trkpt><trkpt lat="34.9243274" lon="138.8438153"><ele>547.6500000000001</ele><time>2023-12-16T01:23:16Z</time></trkpt><trkpt lat="34.9241634" lon="138.8439332"><ele>550.6600000000001</ele><time>2023-12-16T01:23:32Z</time></trkpt><trkpt lat="34.9239879" lon="138.8439837"><ele>553.6066666666667</ele><time>2023-12-16T01:23:42Z</time></trkpt><trkpt lat="34.9237989" lon="138.8440225"><ele>554.39</ele><time>2023-12-16T01:23:55Z</time></trkpt><trkpt lat="34.9236191" lon="138.8440894"><ele>554.9933333333333</ele><time>2023-12-16T01:24:06Z</time></trkpt><trkpt lat="34.923442" lon="138.8441456"><ele>555.3666666666667</ele><time>2023-12-16T01:24:20Z</time></trkpt><trkpt lat="34.9232782" lon="138.8442386"><ele>555.9066666666666</ele><time>2023-12-16T01:24:33Z</time></trkpt><trkpt lat="34.9230926" lon="138.8442681"><ele>556.5633333333334</ele><time>2023-12-16T01:24:47Z</time></trkpt><trkpt lat="34.9229133" lon="138.8443046"><ele>556.4233333333333</ele><time>2023-12-16T01:24:59Z</time></trkpt><trkpt lat="34.9227334" lon="138.8442083"><ele>557.54</ele><time>2023-12-16T01:25:11Z</time></trkpt><trkpt lat="34.9225412" lon="138.8442027"><ele>559.6866666666666</ele><time>2023-12-16T01:25:30Z</time></trkpt><trkpt lat="34.9223638" lon="138.8441479"><ele>563.4033333333333</ele><time>2023-12-16T01:25:44Z</time></trkpt><trkpt lat="34.9221705" lon="138.8440317"><ele>565.2833333333334</ele><time>2023-12-16T01:25:59Z</time></trkpt><trkpt lat="34.9221567" lon="138.8437845"><ele>566.0266666666666</ele><time>2023-12-16T01:26:21Z</time></trkpt><trkpt lat="34.9220748" lon="138.8435746"><ele>565.4933333333333</ele><time>2023-12-16T01:26:33Z</time></trkpt><trkpt lat="34.9219404" lon="138.8434225"><ele>565.42</ele><time>2023-12-16T01:26:46Z</time></trkpt><trkpt lat="34.9218836" lon="138.8432133"><ele>565.28</ele><time>2023-12-16T01:26:58Z</time></trkpt><trkpt lat="34.9218812" lon="138.8429846"><ele>565.4933333333333</ele><time>2023-12-16T01:27:19Z</time></trkpt><trkpt lat="34.9217846" lon="138.8427924"><ele>566.3433333333334</ele><time>2023-12-16T01:27:33Z</time></trkpt><trkpt lat="34.9217103" lon="138.8425648"><ele>567.3833333333333</ele><time>2023-12-16T01:27:49Z</time></trkpt><trkpt lat="34.9217479" lon="138.8423319"><ele>569.5433333333334</ele><time>2023-12-16T01:28:00Z</time></trkpt><trkpt lat="34.9218585" lon="138.8421566"><ele>572.4</ele><time>2023-12-16T01:28:12Z</time></trkpt><trkpt lat="34.9219533" lon="138.8419614"><ele>575.31</ele><time>2023-12-16T01:28:26Z</time></trkpt><trkpt lat="34.9219806" lon="138.8417367"><ele>576.9533333333334</ele><time>2023-12-16T01:28:34Z</time></trkpt><trkpt lat="34.9221225" lon="138.8415994"><ele>577.7966666666667</ele><time>2023-12-16T01:29:08Z</time></trkpt><trkpt lat="34.9222853" lon="138.8414856"><ele>578.1733333333333</ele><time>2023-12-16T01:29:44Z</time></trkpt><trkpt lat="34.9224391" lon="138.8415999"><ele>580.6966666666667</ele><time>2023-12-16T01:30:04Z</time></trkpt><trkpt lat="34.9224841" lon="138.8418156"><ele>587.25</ele><time>2023-12-16T01:30:16Z</time></trkpt><trkpt lat="34.9226595" lon="138.8419024"><ele>595.6999999999999</ele><time>2023-12-16T01:30:45Z</time></trkpt><trkpt lat="34.9228" lon="138.8420577"><ele>603.0933333333334</ele><time>2023-12-16T01:31:18Z</time></trkpt><trkpt lat="34.922936" lon="138.8422032"><ele>607.8633333333333</ele><time>2023-12-16T01:31:54Z</time></trkpt><trkpt lat="34.9231128" lon="138.8422576"><ele>612.7966666666666</ele><time>2023-12-16T01:32:47Z</time></trkpt><trkpt lat="34.9232672" lon="138.8421308"><ele>617.3000000000001</ele><time>2023-12-16T01:33:24Z</time></trkpt><trkpt lat="34.9234491" lon="138.8421746"><ele>620.37</ele><time>2023-12-16T01:33:36Z</time></trkpt><trkpt lat="34.9235878" lon="138.8420295"><ele>622.1266666666667</ele><time>2023-12-16T01:34:06Z</time></trkpt><trkpt lat="34.9237528" lon="138.8419361"><ele>622.3466666666667</ele><time>2023-12-16T01:34:30Z</time></trkpt><trkpt lat="34.9239359" lon="138.8419323"><ele>621.21</ele><time>2023-12-16T01:34:43Z</time></trkpt><trkpt lat="34.9240891" lon="138.8418132"><ele>618.3233333333334</ele><time>2023-12-16T01:34:57Z</time></trkpt><trkpt lat="34.9242687" lon="138.841763"><ele>615.3666666666667</ele><time>2023-12-16T01:35:16Z</time></trkpt><trkpt lat="34.9243451" lon="138.8415569"><ele>613.5633333333334</ele><time>2023-12-16T01:35:38Z</time></trkpt><trkpt lat="34.9244762" lon="138.8414031"><ele>612.6666666666666</ele><time>2023-12-16T01:35:55Z</time></trkpt><trkpt lat="34.9246488" lon="138.8413249"><ele>612.9233333333333</ele><time>2023-12-16T01:36:07Z</time></trkpt><trkpt lat="34.9247874" lon="138.8411717"><ele>613.0233333333334</ele><time>2023-12-16T01:36:38Z</time></trkpt><trkpt lat="34.9248873" lon="138.8409852"><ele>613.0366666666667</ele><time>2023-12-16T01:36:49Z</time></trkpt><trkpt lat="34.9249716" lon="138.8407906"><ele>612.4066666666666</ele><time>2023-12-16T01:37:03Z</time></trkpt><trkpt lat="34.9251708" lon="138.8408414"><ele>614.0466666666666</ele><time>2023-12-16T01:37:16Z</time></trkpt><trkpt lat="34.9253224" lon="138.8409617"><ele>616.75</ele><time>2023-12-16T01:37:24Z</time></trkpt><trkpt lat="34.9254517" lon="138.8411262"><ele>619.6266666666667</ele><time>2023-12-16T01:37:39Z</time></trkpt><trkpt lat="34.9255528" lon="138.8413121"><ele>620.6933333333334</ele><time>2023-12-16T01:37:53Z</time></trkpt><trkpt lat="34.9257202" lon="138.8412283"><ele>621.1766666666667</ele><time>2023-12-16T01:38:12Z</time></trkpt><trkpt lat="34.9257629" lon="138.841012"><ele>622.3633333333333</ele><time>2023-12-16T01:38:23Z</time></trkpt><trkpt lat="34.9257873" lon="138.8407933"><ele>624.1566666666666</ele><time>2023-12-16T01:38:41Z</time></trkpt><trkpt lat="34.925876" lon="138.8405889"><ele>627.0266666666668</ele><time>2023-12-16T01:38:59Z</time></trkpt><trkpt lat="34.9260123" lon="138.8404318"><ele>630.2933333333334</ele><time>2023-12-16T01:39:10Z</time></trkpt><trkpt lat="34.9261989" lon="138.8404112"><ele>633.27</ele><time>2023-12-16T01:39:25Z</time></trkpt><trkpt lat="34.9263295" lon="138.8402372"><ele>634.7066666666666</ele><time>2023-12-16T01:39:48Z</time></trkpt><trkpt lat="34.9265009" lon="138.8401622"><ele>636.2399999999999</ele><time>2023-12-16T01:40:08Z</time></trkpt><trkpt lat="34.9266853" lon="138.8401129"><ele>638.7800000000001</ele><time>2023-12-16T01:40:29Z</time></trkpt><trkpt lat="34.9268373" lon="138.8399946"><ele>647.2033333333334</ele><time>2023-12-16T01:42:08Z</time></trkpt><trkpt lat="34.9270143" lon="138.8399169"><ele>656.9133333333333</ele><time>2023-12-16T01:42:39Z</time></trkpt><trkpt lat="34.927195" lon="138.8399025"><ele>667.0200000000001</ele><time>2023-12-16T01:43:03Z</time></trkpt><trkpt lat="34.9273877" lon="138.8399"><ele>672.5500000000001</ele><time>2023-12-16T01:43:40Z</time></trkpt><trkpt lat="34.9275805" lon="138.8399044"><ele>676.8866666666667</ele><time>2023-12-16T01:43:59Z</time></trkpt><trkpt lat="34.9277605" lon="138.8399438"><ele>679.24</ele><time>2023-12-16T01:44:14Z</time></trkpt><trkpt lat="34.9279622" lon="138.8400045"><ele>680.5533333333333</ele><time>2023-12-16T01:44:35Z</time></trkpt><trkpt lat="34.9281497" lon="138.8399864"><ele>680.9200000000001</ele><time>2023-12-16T01:44:53Z</time></trkpt><trkpt lat="34.9283283" lon="138.839941"><ele>681.4266666666667</ele><time>2023-12-16T01:45:05Z</time></trkpt><trkpt lat="34.9284737" lon="138.8398113"><ele>681.6466666666666</ele><time>2023-12-16T01:45:19Z</time></trkpt><trkpt lat="34.9286335" lon="138.8396965"><ele>681.3933333333334</ele><time>2023-12-16T01:45:38Z</time></trkpt><trkpt lat="34.9287322" lon="138.8394902"><ele>680.0033333333334</ele><time>2023-12-16T01:46:09Z</time></trkpt><trkpt lat="34.9288452" lon="138.8393155"><ele>679.63</ele><time>2023-12-16T01:46:25Z</time></trkpt><trkpt lat="34.9289882" lon="138.8391805"><ele>679.9033333333333</ele><time>2023-12-16T01:46:44Z</time></trkpt><trkpt lat="34.9291393" lon="138.83905"><ele>681.2433333333333</ele><time>2023-12-16T01:47:05Z</time></trkpt><trkpt lat="34.929313" lon="138.8391292"><ele>681.7966666666666</ele><time>2023-12-16T01:47:19Z</time></trkpt><trkpt lat="34.9294577" lon="138.8392749"><ele>681.8666666666667</ele><time>2023-12-16T01:47:33Z</time></trkpt><trkpt lat="34.929537" lon="138.8394921"><ele>683.2866666666667</ele><time>2023-12-16T01:47:49Z</time></trkpt><trkpt lat="34.9296975" lon="138.8396097"><ele>685.3533333333334</ele><time>2023-12-16T01:48:10Z</time></trkpt><trkpt lat="34.9298066" lon="138.8397844"><ele>687.7933333333334</ele><time>2023-12-16T01:48:22Z</time></trkpt><trkpt lat="34.9299113" lon="138.8399814"><ele>687.8833333333333</ele><time>2023-12-16T01:48:37Z</time></trkpt><trkpt lat="34.9300544" lon="138.8401151"><ele>687.4533333333334</ele><time>2023-12-16T01:48:51Z</time></trkpt><trkpt lat="34.9302218" lon="138.8402005"><ele>686.4033333333333</ele><time>2023-12-16T01:49:07Z</time></trkpt><trkpt lat="34.9303959" lon="138.8402909"><ele>686.5033333333334</ele><time>2023-12-16T01:49:21Z</time></trkpt><trkpt lat="34.9305648" lon="138.8403738"><ele>689.4033333333333</ele><time>2023-12-16T01:49:39Z</time></trkpt><trkpt lat="34.930753" lon="138.8403764"><ele>694.15</ele><time>2023-12-16T01:49:54Z</time></trkpt><trkpt lat="34.9309072" lon="138.840491"><ele>698.6533333333333</ele><time>2023-12-16T01:50:08Z</time></trkpt><trkpt lat="34.9310803" lon="138.8405768"><ele>700.2266666666666</ele><time>2023-12-16T01:50:21Z</time></trkpt><trkpt lat="34.931267" lon="138.8405345"><ele>700.4766666666666</ele><time>2023-12-16T01:50:37Z</time></trkpt><trkpt lat="34.9314365" lon="138.8404547"><ele>700.7066666666666</ele><time>2023-12-16T01:50:49Z</time></trkpt><trkpt lat="34.9316115" lon="138.840397"><ele>701.11</ele><time>2023-12-16T01:51:04Z</time></trkpt><trkpt lat="34.9317875" lon="138.8404545"><ele>702.5133333333333</ele><time>2023-12-16T01:51:17Z</time></trkpt><trkpt lat="34.9319696" lon="138.8404427"><ele>705.6300000000001</ele><time>2023-12-16T01:51:32Z</time></trkpt><trkpt lat="34.9321465" lon="138.8403599"><ele>709.59</ele><time>2023-12-16T01:51:48Z</time></trkpt><trkpt lat="34.9323261" lon="138.8403012"><ele>713.48</ele><time>2023-12-16T01:52:03Z</time></trkpt><trkpt lat="34.9324992" lon="138.8402283"><ele>716.0033333333332</ele><time>2023-12-16T01:52:17Z</time></trkpt><trkpt lat="34.9326293" lon="138.8400764"><ele>718.1066666666667</ele><time>2023-12-16T01:52:29Z</time></trkpt><trkpt lat="34.9327469" lon="138.8399013"><ele>720.2766666666666</ele><time>2023-12-16T01:52:43Z</time></trkpt><trkpt lat="34.9328409" lon="138.8397073"><ele>723.9766666666668</ele><time>2023-12-16T01:52:57Z</time></trkpt><trkpt lat="34.9328183" lon="138.8394766"><ele>725.87</ele><time>2023-12-16T01:53:09Z</time></trkpt><trkpt lat="34.9327428" lon="138.8392647"><ele>726.1966666666667</ele><time>2023-12-16T01:53:20Z</time></trkpt><trkpt lat="34.9326836" lon="138.8390551"><ele>724.5666666666666</ele><time>2023-12-16T01:53:32Z</time></trkpt><trkpt lat="34.9326161" lon="138.8388507"><ele>723.5966666666667</ele><time>2023-12-16T01:53:45Z</time></trkpt><trkpt lat="34.9325413" lon="138.8386475"><ele>723.7666666666668</ele><time>2023-12-16T01:54:00Z</time></trkpt><trkpt lat="34.9324821" lon="138.8384284"><ele>725.5866666666667</ele><time>2023-12-16T01:54:15Z</time></trkpt><trkpt lat="34.9324009" lon="138.8382301"><ele>728.2233333333334</ele><time>2023-12-16T01:54:28Z</time></trkpt><trkpt lat="34.9323607" lon="138.8379835"><ele>728.9499999999999</ele><time>2023-12-16T01:55:01Z</time></trkpt><trkpt lat="34.9323206" lon="138.8377473"><ele>727.56</ele><time>2023-12-16T01:55:27Z</time></trkpt><trkpt lat="34.9324219" lon="138.8375613"><ele>725.6300000000001</ele><time>2023-12-16T01:55:34Z</time></trkpt><trkpt lat="34.9325877" lon="138.8374699"><ele>725.41</ele><time>2023-12-16T01:55:46Z</time></trkpt><trkpt lat="34.9327695" lon="138.8374638"><ele>728.2666666666668</ele><time>2023-12-16T01:56:01Z</time></trkpt><trkpt lat="34.9329564" lon="138.8374704"><ele>734.1266666666667</ele><time>2023-12-16T01:56:12Z</time></trkpt><trkpt lat="34.9331231" lon="138.8373724"><ele>740.9366666666666</ele><time>2023-12-16T01:56:24Z</time></trkpt><trkpt lat="34.9332439" lon="138.8372062"><ele>745.7133333333333</ele><time>2023-12-16T01:56:42Z</time></trkpt><trkpt lat="34.9333798" lon="138.8370574"><ele>748.52</ele><time>2023-12-16T01:56:55Z</time></trkpt><trkpt lat="34.9334434" lon="138.8368486"><ele>750.77</ele><time>2023-12-16T01:57:14Z</time></trkpt><trkpt lat="34.9335171" lon="138.8366434"><ele>753.65</ele><time>2023-12-16T01:57:26Z</time></trkpt><trkpt lat="34.933585" lon="138.8364346"><ele>756.09</ele><time>2023-12-16T01:57:41Z</time></trkpt><trkpt lat="34.9335787" lon="138.8362142"><ele>755.09</ele><time>2023-12-16T01:57:57Z</time></trkpt><trkpt lat="34.9335685" lon="138.8359947"><ele>754.3766666666667</ele><time>2023-12-16T01:58:08Z</time></trkpt><trkpt lat="34.9335362" lon="138.8357774"><ele>755.7233333333334</ele><time>2023-12-16T01:58:23Z</time></trkpt><trkpt lat="34.9334654" lon="138.8355722"><ele>758.2333333333335</ele><time>2023-12-16T01:58:36Z</time></trkpt><trkpt lat="34.9334619" lon="138.8353454"><ele>759.9666666666667</ele><time>2023-12-16T01:58:55Z</time></trkpt><trkpt lat="34.9335978" lon="138.8351987"><ele>761.4633333333333</ele><time>2023-12-16T01:59:13Z</time></trkpt><trkpt lat="34.9337056" lon="138.8350099"><ele>764.7066666666668</ele><time>2023-12-16T01:59:30Z</time></trkpt><trkpt lat="34.9337261" lon="138.8347734"><ele>767.75</ele><time>2023-12-16T01:59:49Z</time></trkpt><trkpt lat="34.9334703" lon="138.8347286"><ele>767.1333333333333</ele><time>2023-12-16T01:59:57Z</time></trkpt><trkpt lat="34.9332971" lon="138.8346551"><ele>765.6933333333333</ele><time>2023-12-16T02:00:02Z</time></trkpt><trkpt lat="34.9331646" lon="138.8345049"><ele>763.9499999999999</ele><time>2023-12-16T02:00:20Z</time></trkpt><trkpt lat="34.9330106" lon="138.8343715"><ele>763.8633333333333</ele><time>2023-12-16T02:00:31Z</time></trkpt><trkpt lat="34.9328614" lon="138.8342462"><ele>764.2600000000001</ele><time>2023-12-16T02:00:39Z</time></trkpt><trkpt lat="34.9326829" lon="138.8341804"><ele>764.6833333333334</ele><time>2023-12-16T02:01:01Z</time></trkpt><trkpt lat="34.9325927" lon="138.8339835"><ele>764.67</ele><time>2023-12-16T02:01:17Z</time></trkpt><trkpt lat="34.9326882" lon="138.8337855"><ele>764.9900000000001</ele><time>2023-12-16T02:01:35Z</time></trkpt><trkpt lat="34.9328327" lon="138.8336341"><ele>765.54</ele><time>2023-12-16T02:01:49Z</time></trkpt><trkpt lat="34.9330169" lon="138.8335928"><ele>765.96</ele><time>2023-12-16T02:02:03Z</time></trkpt><trkpt lat="34.933187" lon="138.8336756"><ele>767.7199999999999</ele><time>2023-12-16T02:02:17Z</time></trkpt><trkpt lat="34.9333389" lon="138.8338074"><ele>770.0300000000001</ele><time>2023-12-16T02:02:34Z</time></trkpt><trkpt lat="34.9334887" lon="138.8339312"><ele>772.3166666666666</ele><time>2023-12-16T02:02:49Z</time></trkpt><trkpt lat="34.9336611" lon="138.8340097"><ele>774.1166666666667</ele><time>2023-12-16T02:03:03Z</time></trkpt><trkpt lat="34.9338381" lon="138.8340753"><ele>776.1866666666666</ele><time>2023-12-16T02:03:17Z</time></trkpt><trkpt lat="34.93402" lon="138.8340185"><ele>779.9366666666666</ele><time>2023-12-16T02:03:31Z</time></trkpt><trkpt lat="34.9341674" lon="138.8338753"><ele>781.9866666666667</ele><time>2023-12-16T02:03:43Z</time></trkpt><trkpt lat="34.9342513" lon="138.8336744"><ele>783.2466666666666</ele><time>2023-12-16T02:03:54Z</time></trkpt><trkpt lat="34.9342855" lon="138.833459"><ele>784.2366666666667</ele><time>2023-12-16T02:04:04Z</time></trkpt><trkpt lat="34.9343656" lon="138.8332581"><ele>788.52</ele><time>2023-12-16T02:04:17Z</time></trkpt><trkpt lat="34.9344871" lon="138.8330813"><ele>793.2033333333333</ele><time>2023-12-16T02:04:32Z</time></trkpt><trkpt lat="34.9345309" lon="138.832855"><ele>796.2666666666668</ele><time>2023-12-16T02:04:47Z</time></trkpt><trkpt lat="34.9345407" lon="138.8326362"><ele>794.9666666666667</ele><time>2023-12-16T02:05:01Z</time></trkpt><trkpt lat="34.9345662" lon="138.832417"><ele>791.7933333333334</ele><time>2023-12-16T02:05:16Z</time></trkpt><trkpt lat="34.9346116" lon="138.8322016"><ele>790.5266666666666</ele><time>2023-12-16T02:05:31Z</time></trkpt><trkpt lat="34.9346037" lon="138.831977"><ele>792.2166666666667</ele><time>2023-12-16T02:05:45Z</time></trkpt><trkpt lat="34.9345532" lon="138.8317561"><ele>794.7233333333334</ele><time>2023-12-16T02:06:04Z</time></trkpt><trkpt lat="34.9347167" lon="138.8316561"><ele>796.0466666666666</ele><time>2023-12-16T02:06:46Z</time></trkpt><trkpt lat="34.9348976" lon="138.8316944"><ele>795.68</ele><time>2023-12-16T02:06:58Z</time></trkpt><trkpt lat="34.9350826" lon="138.8317096"><ele>795.2000000000002</ele><time>2023-12-16T02:07:11Z</time></trkpt><trkpt lat="34.9351809" lon="138.8319084"><ele>796.6866666666668</ele><time>2023-12-16T02:07:23Z</time></trkpt><trkpt lat="34.9353213" lon="138.8320579"><ele>799.87</ele><time>2023-12-16T02:07:39Z</time></trkpt><trkpt lat="34.9353638" lon="138.8322836"><ele>805.4200000000001</ele><time>2023-12-16T02:08:17Z</time></trkpt><trkpt lat="34.9354504" lon="138.832476"><ele>810.62</ele><time>2023-12-16T02:09:42Z</time></trkpt><trkpt lat="34.9355226" lon="138.8326864"><ele>817.5</ele><time>2023-12-16T02:10:21Z</time></trkpt><trkpt lat="34.9355608" lon="138.8329011"><ele>824.4933333333335</ele><time>2023-12-16T02:11:03Z</time></trkpt><trkpt lat="34.9356421" lon="138.8330965"><ele>831.86</ele><time>2023-12-16T02:11:25Z</time></trkpt><trkpt lat="34.9357316" lon="138.8332898"><ele>839.0566666666667</ele><time>2023-12-16T02:11:55Z</time></trkpt><trkpt lat="34.9357865" lon="138.8334996"><ele>845.4233333333333</ele><time>2023-12-16T02:12:22Z</time></trkpt><trkpt lat="34.9359428" lon="138.8336133"><ele>850.5033333333334</ele><time>2023-12-16T02:13:13Z</time></trkpt><trkpt lat="34.9361128" lon="138.8336949"><ele>853.4533333333334</ele><time>2023-12-16T02:13:29Z</time></trkpt><trkpt lat="34.9362961" lon="138.8337132"><ele>856.2666666666668</ele><time>2023-12-16T02:13:41Z</time></trkpt><trkpt lat="34.9364774" lon="138.8337426"><ele>859.32</ele><time>2023-12-16T02:13:54Z</time></trkpt><trkpt lat="34.9366611" lon="138.8337504"><ele>862.5733333333334</ele><time>2023-12-16T02:14:09Z</time></trkpt><trkpt lat="34.936822" lon="138.8338715"><ele>865.02</ele><time>2023-12-16T02:14:36Z</time></trkpt><trkpt lat="34.9368983" lon="138.8340699"><ele>867.8533333333335</ele><time>2023-12-16T02:14:57Z</time></trkpt><trkpt lat="34.9369559" lon="138.8342815"><ele>870.44</ele><time>2023-12-16T02:15:15Z</time></trkpt><trkpt lat="34.9371071" lon="138.8344105"><ele>872.9500000000002</ele><time>2023-12-16T02:15:57Z</time></trkpt><trkpt lat="34.9372709" lon="138.8345455"><ele>874.3000000000001</ele><time>2023-12-16T02:16:10Z</time></trkpt><trkpt lat="34.9374039" lon="138.8347096"><ele>875.8066666666667</ele><time>2023-12-16T02:16:22Z</time></trkpt><trkpt lat="34.9375858" lon="138.8347443"><ele>877.0833333333334</ele><time>2023-12-16T02:16:39Z</time></trkpt><trkpt lat="34.9377613" lon="138.8348074"><ele>877.3033333333334</ele><time>2023-12-16T02:16:56Z</time></trkpt><trkpt lat="34.9378975" lon="138.8349541"><ele>877.1633333333334</ele><time>2023-12-16T02:17:12Z</time></trkpt><trkpt lat="34.9380423" lon="138.8350886"><ele>878.6733333333335</ele><time>2023-12-16T02:17:31Z</time></trkpt><trkpt lat="34.9382364" lon="138.8351316"><ele>881.5366666666667</ele><time>2023-12-16T02:17:44Z</time></trkpt><trkpt lat="34.9384095" lon="138.8352009"><ele>884.37</ele><time>2023-12-16T02:17:56Z</time></trkpt><trkpt lat="34.9385938" lon="138.8352466"><ele>885.5300000000001</ele><time>2023-12-16T02:18:14Z</time></trkpt><trkpt lat="34.9387717" lon="138.8351959"><ele>886.07</ele><time>2023-12-16T02:18:27Z</time></trkpt><trkpt lat="34.938961" lon="138.8351456"><ele>885.9333333333334</ele><time>2023-12-16T02:18:42Z</time></trkpt><trkpt lat="34.9391064" lon="138.8350018"><ele>885.7833333333333</ele><time>2023-12-16T02:18:53Z</time></trkpt><trkpt lat="34.9392883" lon="138.8350274"><ele>885.65</ele><time>2023-12-16T02:19:05Z</time></trkpt><trkpt lat="34.9394441" lon="138.8351583"><ele>886.1366666666667</ele><time>2023-12-16T02:19:23Z</time></trkpt><trkpt lat="34.9394505" lon="138.8353888"><ele>887.7233333333334</ele><time>2023-12-16T02:19:34Z</time></trkpt><trkpt lat="34.9394717" lon="138.8356116"><ele>889.5266666666666</ele><time>2023-12-16T02:19:50Z</time></trkpt><trkpt lat="34.939517" lon="138.8358326"><ele>890.94</ele><time>2023-12-16T02:20:05Z</time></trkpt><trkpt lat="34.9395904" lon="138.8360345"><ele>891.5033333333334</ele><time>2023-12-16T02:20:19Z</time></trkpt><trkpt lat="34.939694" lon="138.8362149"><ele>892.0933333333334</ele><time>2023-12-16T02:20:30Z</time></trkpt><trkpt lat="34.9398149" lon="138.8363809"><ele>893.0233333333334</ele><time>2023-12-16T02:20:43Z</time></trkpt><trkpt lat="34.939962" lon="138.8365158"><ele>893.9666666666666</ele><time>2023-12-16T02:20:56Z</time></trkpt><trkpt lat="34.9401428" lon="138.8365764"><ele>895.0266666666666</ele><time>2023-12-16T02:21:10Z</time></trkpt><trkpt lat="34.940241" lon="138.8367735"><ele>896.6899999999999</ele><time>2023-12-16T02:21:24Z</time></trkpt><trkpt lat="34.9403859" lon="138.8369166"><ele>898.9433333333333</ele><time>2023-12-16T02:21:38Z</time></trkpt><trkpt lat="34.9405548" lon="138.8370293"><ele>901.7400000000001</ele><time>2023-12-16T02:21:53Z</time></trkpt><trkpt lat="34.9407453" lon="138.8370621"><ele>904.1166666666667</ele><time>2023-12-16T02:22:09Z</time></trkpt><trkpt lat="34.940926" lon="138.8371276"><ele>906.0799999999999</ele><time>2023-12-16T02:22:20Z</time></trkpt><trkpt lat="34.9411116" lon="138.837142"><ele>907.65</ele><time>2023-12-16T02:23:06Z</time></trkpt><trkpt lat="34.9412924" lon="138.8370988"><ele>909.2399999999999</ele><time>2023-12-16T02:23:25Z</time></trkpt><trkpt lat="34.9414811" lon="138.8370633"><ele>911.1666666666666</ele><time>2023-12-16T02:23:39Z</time></trkpt><trkpt lat="34.9416434" lon="138.8369492"><ele>912.8333333333334</ele><time>2023-12-16T02:23:58Z</time></trkpt><trkpt lat="34.94182" lon="138.8368893"><ele>914.7933333333334</ele><time>2023-12-16T02:24:09Z</time></trkpt><trkpt lat="34.941988" lon="138.8369923"><ele>916.29</ele><time>2023-12-16T02:24:27Z</time></trkpt><trkpt lat="34.9421854" lon="138.8370226"><ele>918.0233333333334</ele><time>2023-12-16T02:24:43Z</time></trkpt><trkpt lat="34.9423666" lon="138.8369934"><ele>918.93</ele><time>2023-12-16T02:24:58Z</time></trkpt><trkpt lat="34.9425502" lon="138.836998"><ele>919.4866666666667</ele><time>2023-12-16T02:25:13Z</time></trkpt><trkpt lat="34.9427369" lon="138.8369654"><ele>920.0600000000001</ele><time>2023-12-16T02:25:32Z</time></trkpt><trkpt lat="34.9429104" lon="138.8370331"><ele>920.73</ele><time>2023-12-16T02:25:49Z</time></trkpt><trkpt lat="34.9430262" lon="138.8372049"><ele>921.3366666666667</ele><time>2023-12-16T02:26:02Z</time></trkpt><trkpt lat="34.9431664" lon="138.8373507"><ele>921.3033333333333</ele><time>2023-12-16T02:26:20Z</time></trkpt><trkpt lat="34.9433236" lon="138.8374872"><ele>921.7700000000001</ele><time>2023-12-16T02:26:36Z</time></trkpt><trkpt lat="34.9434428" lon="138.8376518"><ele>923.1733333333333</ele><time>2023-12-16T02:26:59Z</time></trkpt><trkpt lat="34.9435589" lon="138.8378248"><ele>923.8533333333335</ele><time>2023-12-16T02:27:12Z</time></trkpt><trkpt lat="34.9436646" lon="138.8380044"><ele>924.6366666666667</ele><time>2023-12-16T02:27:26Z</time></trkpt><trkpt lat="34.9438368" lon="138.8380782"><ele>925.3566666666666</ele><time>2023-12-16T02:27:39Z</time></trkpt><trkpt lat="34.9440038" lon="138.8381725"><ele>927.3933333333333</ele><time>2023-12-16T02:27:54Z</time></trkpt><trkpt lat="34.9441742" lon="138.8382464"><ele>929.39</ele><time>2023-12-16T02:28:11Z</time></trkpt><trkpt lat="34.9442311" lon="138.8384557"><ele>931.0666666666667</ele><time>2023-12-16T02:28:38Z</time></trkpt><trkpt lat="34.9443826" lon="138.8385858"><ele>932.7599999999999</ele><time>2023-12-16T02:28:50Z</time></trkpt><trkpt lat="34.944572" lon="138.8386058"><ele>932.6033333333334</ele><time>2023-12-16T02:29:05Z</time></trkpt><trkpt lat="34.9447278" lon="138.8387322"><ele>932.1999999999999</ele><time>2023-12-16T02:29:18Z</time></trkpt><trkpt lat="34.9449183" lon="138.8387461"><ele>930.6866666666666</ele><time>2023-12-16T02:29:31Z</time></trkpt><trkpt lat="34.9451009" lon="138.8388653"><ele>930.2966666666666</ele><time>2023-12-16T02:29:52Z</time></trkpt><trkpt lat="34.945265" lon="138.8387645"><ele>925.36</ele><time>2023-12-16T02:30:27Z</time></trkpt><trkpt lat="34.9454611" lon="138.8387788"><ele>920.5433333333334</ele><time>2023-12-16T02:31:10Z</time></trkpt><trkpt lat="34.945602" lon="138.8386376"><ele>914.5400000000001</ele><time>2023-12-16T02:31:23Z</time></trkpt><trkpt lat="34.9457346" lon="138.8384873"><ele>912.68</ele><time>2023-12-16T02:31:33Z</time></trkpt><trkpt lat="34.9457336" lon="138.8382599"><ele>913.04</ele><time>2023-12-16T02:31:45Z</time></trkpt><trkpt lat="34.9458414" lon="138.8380801"><ele>915.93</ele><time>2023-12-16T02:31:59Z</time></trkpt><trkpt lat="34.9460044" lon="138.8379779"><ele>915.5333333333333</ele><time>2023-12-16T02:32:40Z</time></trkpt><trkpt lat="34.9461467" lon="138.8381163"><ele>910.7366666666667</ele><time>2023-12-16T02:32:53Z</time></trkpt><trkpt lat="34.9463337" lon="138.8381338"><ele>902.1233333333333</ele><time>2023-12-16T02:33:18Z</time></trkpt><trkpt lat="34.9465201" lon="138.8381041"><ele>896.0900000000001</ele><time>2023-12-16T02:33:41Z</time></trkpt><trkpt lat="34.9467005" lon="138.8381035"><ele>892.3800000000001</ele><time>2023-12-16T02:33:54Z</time></trkpt><trkpt lat="34.9468943" lon="138.8379955"><ele>891.6133333333333</ele><time>2023-12-16T02:34:07Z</time></trkpt><trkpt lat="34.9470824" lon="138.8380023"><ele>892.1666666666666</ele><time>2023-12-16T02:34:16Z</time></trkpt><trkpt lat="34.9472579" lon="138.8379349"><ele>893.1333333333333</ele><time>2023-12-16T02:34:30Z</time></trkpt><trkpt lat="34.9474314" lon="138.8380022"><ele>893.96</ele><time>2023-12-16T02:34:39Z</time></trkpt><trkpt lat="34.9476192" lon="138.8380064"><ele>893.6366666666667</ele><time>2023-12-16T02:34:49Z</time></trkpt><trkpt lat="34.9478135" lon="138.8379499"><ele>893.0933333333332</ele><time>2023-12-16T02:35:10Z</time></trkpt><trkpt lat="34.9479916" lon="138.8380144"><ele>891.0166666666665</ele><time>2023-12-16T02:35:22Z</time></trkpt><trkpt lat="34.9481703" lon="138.8379737"><ele>888.5933333333332</ele><time>2023-12-16T02:35:34Z</time></trkpt><trkpt lat="34.948355" lon="138.8380258"><ele>886.2766666666666</ele><time>2023-12-16T02:35:49Z</time></trkpt><trkpt lat="34.9485071" lon="138.838146"><ele>885.3000000000001</ele><time>2023-12-16T02:35:59Z</time></trkpt><trkpt lat="34.9486459" lon="138.8382888"><ele>884.4966666666668</ele><time>2023-12-16T02:36:17Z</time></trkpt><trkpt lat="34.9488362" lon="138.8382694"><ele>883.6033333333334</ele><time>2023-12-16T02:36:34Z</time></trkpt><trkpt lat="34.9490042" lon="138.838167"><ele>882.8266666666667</ele><time>2023-12-16T02:36:49Z</time></trkpt><trkpt lat="34.9491853" lon="138.8381068"><ele>882.27</ele><time>2023-12-16T02:36:59Z</time></trkpt><trkpt lat="34.9493485" lon="138.8379837"><ele>882.2633333333333</ele><time>2023-12-16T02:37:12Z</time></trkpt><trkpt lat="34.9495383" lon="138.8379617"><ele>881.7233333333334</ele><time>2023-12-16T02:37:24Z</time></trkpt><trkpt lat="34.9497224" lon="138.8379418"><ele>881.8366666666667</ele><time>2023-12-16T02:37:42Z</time></trkpt><trkpt lat="34.9499643" lon="138.8379254"><ele>882.0300000000001</ele><time>2023-12-16T02:38:29Z</time></trkpt><trkpt lat="34.950157" lon="138.8380257"><ele>882.5500000000001</ele><time>2023-12-16T02:38:45Z</time></trkpt><trkpt lat="34.9502907" lon="138.8382065"><ele>883.12</ele><time>2023-12-16T02:38:56Z</time></trkpt><trkpt lat="34.9504762" lon="138.8382435"><ele>884.58</ele><time>2023-12-16T02:39:07Z</time></trkpt><trkpt lat="34.950601" lon="138.8384195"><ele>885.9066666666668</ele><time>2023-12-16T02:39:20Z</time></trkpt><trkpt lat="34.9507638" lon="138.8385502"><ele>888.8000000000001</ele><time>2023-12-16T02:39:35Z</time></trkpt><trkpt lat="34.9508377" lon="138.838769"><ele>889.7966666666667</ele><time>2023-12-16T02:39:44Z</time></trkpt><trkpt lat="34.9509412" lon="138.8389535"><ele>889.6033333333335</ele><time>2023-12-16T02:40:13Z</time></trkpt><trkpt lat="34.9510376" lon="138.8391439"><ele>887.85</ele><time>2023-12-16T02:40:24Z</time></trkpt><trkpt lat="34.9511567" lon="138.8393265"><ele>886.1333333333333</ele><time>2023-12-16T02:40:34Z</time></trkpt><trkpt lat="34.9512676" lon="138.8395085"><ele>885.7166666666667</ele><time>2023-12-16T02:40:46Z</time></trkpt><trkpt lat="34.9514173" lon="138.839645"><ele>886.1833333333334</ele><time>2023-12-16T02:41:01Z</time></trkpt><trkpt lat="34.9515671" lon="138.8397682"><ele>889.4700000000001</ele><time>2023-12-16T02:41:13Z</time></trkpt><trkpt lat="34.951725" lon="138.8398761"><ele>893.6266666666667</ele><time>2023-12-16T02:41:26Z</time></trkpt><trkpt lat="34.9518365" lon="138.8400572"><ele>897.2000000000002</ele><time>2023-12-16T02:41:39Z</time></trkpt><trkpt lat="34.9519401" lon="138.8402426"><ele>897.7833333333334</ele><time>2023-12-16T02:41:55Z</time></trkpt><trkpt lat="34.9520253" lon="138.8404403"><ele>898.0366666666667</ele><time>2023-12-16T02:42:11Z</time></trkpt><trkpt lat="34.9520895" lon="138.8406488"><ele>898.2633333333333</ele><time>2023-12-16T02:42:25Z</time></trkpt><trkpt lat="34.9522685" lon="138.8406881"><ele>902.12</ele><time>2023-12-16T02:42:42Z</time></trkpt><trkpt lat="34.9522828" lon="138.8409107"><ele>904.5666666666666</ele><time>2023-12-16T02:42:50Z</time></trkpt><trkpt lat="34.9523346" lon="138.8411287"><ele>906.32</ele><time>2023-12-16T02:43:01Z</time></trkpt><trkpt lat="34.9524094" lon="138.8413286"><ele>905.6266666666667</ele><time>2023-12-16T02:43:17Z</time></trkpt><trkpt lat="34.9525702" lon="138.8414394"><ele>906.2533333333334</ele><time>2023-12-16T02:43:28Z</time></trkpt><trkpt lat="34.952555" lon="138.84167"><ele>906.7666666666668</ele><time>2023-12-16T02:43:34Z</time></trkpt><trkpt lat="34.9527391" lon="138.8416316"><ele>906.2966666666667</ele><time>2023-12-16T02:43:46Z</time></trkpt><trkpt lat="34.9528652" lon="138.841474"><ele>905.7133333333335</ele><time>2023-12-16T02:43:56Z</time></trkpt><trkpt lat="34.9530473" lon="138.841456"><ele>905.3333333333334</ele><time>2023-12-16T02:44:07Z</time></trkpt><trkpt lat="34.9532315" lon="138.8413766"><ele>905.6366666666667</ele><time>2023-12-16T02:44:19Z</time></trkpt><trkpt lat="34.9533885" lon="138.841267"><ele>905.46</ele><time>2023-12-16T02:44:34Z</time></trkpt><trkpt lat="34.9534865" lon="138.8410728"><ele>907.9933333333333</ele><time>2023-12-16T02:44:48Z</time></trkpt><trkpt lat="34.9536466" lon="138.8409467"><ele>910.27</ele><time>2023-12-16T02:44:57Z</time></trkpt><trkpt lat="34.9537526" lon="138.8407601"><ele>913.6366666666667</ele><time>2023-12-16T02:45:14Z</time></trkpt><trkpt lat="34.953764" lon="138.8405397"><ele>917.3566666666667</ele><time>2023-12-16T02:45:24Z</time></trkpt><trkpt lat="34.9539483" lon="138.8405125"><ele>920.8833333333333</ele><time>2023-12-16T02:45:36Z</time></trkpt><trkpt lat="34.9541425" lon="138.8405348"><ele>924.2633333333333</ele><time>2023-12-16T02:45:50Z</time></trkpt><trkpt lat="34.9543292" lon="138.8405026"><ele>925.7833333333333</ele><time>2023-12-16T02:46:02Z</time></trkpt><trkpt lat="34.9544568" lon="138.8406618"><ele>928.0633333333334</ele><time>2023-12-16T02:46:12Z</time></trkpt><trkpt lat="34.9545342" lon="138.8408676"><ele>928.3933333333333</ele><time>2023-12-16T02:46:24Z</time></trkpt><trkpt lat="34.9546894" lon="138.8409812"><ele>928.7066666666666</ele><time>2023-12-16T02:46:38Z</time></trkpt><trkpt lat="34.9547985" lon="138.8411633"><ele>927.7666666666668</ele><time>2023-12-16T02:46:50Z</time></trkpt><trkpt lat="34.9549297" lon="138.8413341"><ele>927.65</ele><time>2023-12-16T02:47:05Z</time></trkpt><trkpt lat="34.9550388" lon="138.8415173"><ele>925.9433333333333</ele><time>2023-12-16T02:47:13Z</time></trkpt><trkpt lat="34.9552194" lon="138.8415809"><ele>925.0933333333334</ele><time>2023-12-16T02:47:25Z</time></trkpt><trkpt lat="34.9553948" lon="138.8416399"><ele>923.4466666666667</ele><time>2023-12-16T02:47:39Z</time></trkpt><trkpt lat="34.9555756" lon="138.8415551"><ele>922.8000000000001</ele><time>2023-12-16T02:48:12Z</time></trkpt><trkpt lat="34.9557568" lon="138.8416582"><ele>920.77</ele><time>2023-12-16T02:48:21Z</time></trkpt><trkpt lat="34.9559462" lon="138.8416824"><ele>919.85</ele><time>2023-12-16T02:48:35Z</time></trkpt><trkpt lat="34.9561411" lon="138.8416978"><ele>917.4733333333334</ele><time>2023-12-16T02:48:48Z</time></trkpt><trkpt lat="34.9563225" lon="138.8416558"><ele>916.8566666666667</ele><time>2023-12-16T02:49:00Z</time></trkpt><trkpt lat="34.9565104" lon="138.8416372"><ele>915.7366666666667</ele><time>2023-12-16T02:49:14Z</time></trkpt><trkpt lat="34.956696" lon="138.8416212"><ele>914.3833333333333</ele><time>2023-12-16T02:49:25Z</time></trkpt><trkpt lat="34.9568761" lon="138.8415584"><ele>910.4900000000001</ele><time>2023-12-16T02:49:38Z</time></trkpt><trkpt lat="34.9570035" lon="138.8413972"><ele>907.6166666666668</ele><time>2023-12-16T02:49:49Z</time></trkpt><trkpt lat="34.9571118" lon="138.8412115"><ele>905.2133333333335</ele><time>2023-12-16T02:50:00Z</time></trkpt><trkpt lat="34.9570804" lon="138.8409957"><ele>903.4900000000001</ele><time>2023-12-16T02:50:08Z</time></trkpt><trkpt lat="34.9569597" lon="138.8408198"><ele>899.68</ele><time>2023-12-16T02:50:19Z</time></trkpt><trkpt lat="34.9568474" lon="138.8406441"><ele>897.1466666666666</ele><time>2023-12-16T02:50:32Z</time></trkpt><trkpt lat="34.9567927" lon="138.8404021"><ele>895.9133333333333</ele><time>2023-12-16T02:50:45Z</time></trkpt><trkpt lat="34.956838" lon="138.8401778"><ele>895.6466666666666</ele><time>2023-12-16T02:50:59Z</time></trkpt><trkpt lat="34.9570053" lon="138.8400768"><ele>894.6666666666666</ele><time>2023-12-16T02:51:10Z</time></trkpt><trkpt lat="34.9571706" lon="138.8399495"><ele>894.1</ele><time>2023-12-16T02:51:27Z</time></trkpt><trkpt lat="34.9573477" lon="138.8399045"><ele>893.6533333333333</ele><time>2023-12-16T02:51:39Z</time></trkpt><trkpt lat="34.9575425" lon="138.8398706"><ele>893.8366666666667</ele><time>2023-12-16T02:51:51Z</time></trkpt><trkpt lat="34.9577301" lon="138.8399077"><ele>892.5066666666667</ele><time>2023-12-16T02:51:57Z</time></trkpt><trkpt lat="34.9579089" lon="138.8398751"><ele>891.5933333333332</ele><time>2023-12-16T02:52:12Z</time></trkpt><trkpt lat="34.9580853" lon="138.8399485"><ele>887.94</ele><time>2023-12-16T02:52:22Z</time></trkpt><trkpt lat="34.9582684" lon="138.8398804"><ele>885.5866666666667</ele><time>2023-12-16T02:52:35Z</time></trkpt><trkpt lat="34.9583509" lon="138.8396845"><ele>882.8433333333334</ele><time>2023-12-16T02:52:46Z</time></trkpt><trkpt lat="34.9583182" lon="138.8394531"><ele>882.6733333333333</ele><time>2023-12-16T02:53:01Z</time></trkpt><trkpt lat="34.9582469" lon="138.8392387"><ele>882.8133333333334</ele><time>2023-12-16T02:53:11Z</time></trkpt><trkpt lat="34.9581752" lon="138.8390325"><ele>883.6233333333333</ele><time>2023-12-16T02:53:20Z</time></trkpt><trkpt lat="34.9580853" lon="138.8388202"><ele>884.2833333333333</ele><time>2023-12-16T02:53:27Z</time></trkpt><trkpt lat="34.9580175" lon="138.8386015"><ele>884.4466666666667</ele><time>2023-12-16T02:53:40Z</time></trkpt><trkpt lat="34.9581442" lon="138.8384363"><ele>883.4366666666668</ele><time>2023-12-16T02:53:47Z</time></trkpt><trkpt lat="34.9583429" lon="138.838341"><ele>881.3633333333333</ele><time>2023-12-16T02:53:56Z</time></trkpt><trkpt lat="34.9585424" lon="138.8383421"><ele>877.44</ele><time>2023-12-16T02:54:06Z</time></trkpt><trkpt lat="34.9587194" lon="138.8384048"><ele>873.6466666666666</ele><time>2023-12-16T02:54:18Z</time></trkpt><trkpt lat="34.9588802" lon="138.8385043"><ele>869.18</ele><time>2023-12-16T02:54:29Z</time></trkpt><trkpt lat="34.9590713" lon="138.8385019"><ele>865.3299999999999</ele><time>2023-12-16T02:54:39Z</time></trkpt><trkpt lat="34.9591912" lon="138.8383332"><ele>860.3666666666668</ele><time>2023-12-16T02:54:50Z</time></trkpt><trkpt lat="34.9592913" lon="138.8381394"><ele>856.46</ele><time>2023-12-16T02:55:01Z</time></trkpt><trkpt lat="34.9593186" lon="138.8379216"><ele>854.2633333333333</ele><time>2023-12-16T02:55:26Z</time></trkpt><trkpt lat="34.9593713" lon="138.8376893"><ele>854.2466666666668</ele><time>2023-12-16T02:55:37Z</time></trkpt><trkpt lat="34.9594366" lon="138.8374483"><ele>854.88</ele><time>2023-12-16T02:55:45Z</time></trkpt><trkpt lat="34.9595192" lon="138.8372313"><ele>853.44</ele><time>2023-12-16T02:55:57Z</time></trkpt><trkpt lat="34.9596622" lon="138.8370892"><ele>850.6933333333333</ele><time>2023-12-16T02:56:14Z</time></trkpt><trkpt lat="34.959846" lon="138.8370327"><ele>847.0</ele><time>2023-12-16T02:56:22Z</time></trkpt><trkpt lat="34.9600325" lon="138.8370816"><ele>844.6466666666666</ele><time>2023-12-16T02:56:31Z</time></trkpt><trkpt lat="34.9601819" lon="138.8372211"><ele>842.8066666666667</ele><time>2023-12-16T02:56:43Z</time></trkpt><trkpt lat="34.9603188" lon="138.837377"><ele>842.0</ele><time>2023-12-16T02:56:53Z</time></trkpt><trkpt lat="34.9604871" lon="138.8374595"><ele>841.3833333333333</ele><time>2023-12-16T02:57:08Z</time></trkpt><trkpt lat="34.960645" lon="138.8375825"><ele>840.0766666666668</ele><time>2023-12-16T02:57:22Z</time></trkpt><trkpt lat="34.9608308" lon="138.8376638"><ele>838.2800000000001</ele><time>2023-12-16T02:57:35Z</time></trkpt><trkpt lat="34.9610206" lon="138.8376662"><ele>836.6133333333333</ele><time>2023-12-16T02:57:45Z</time></trkpt><trkpt lat="34.9611721" lon="138.8377937"><ele>835.6766666666667</ele><time>2023-12-16T02:57:58Z</time></trkpt><trkpt lat="34.9613609" lon="138.8377757"><ele>835.2766666666666</ele><time>2023-12-16T02:58:13Z</time></trkpt><trkpt lat="34.9615445" lon="138.8377413"><ele>836.0066666666667</ele><time>2023-12-16T02:58:23Z</time></trkpt><trkpt lat="34.9616293" lon="138.8379497"><ele>836.1133333333333</ele><time>2023-12-16T02:58:40Z</time></trkpt><trkpt lat="34.9617679" lon="138.8381021"><ele>835.96</ele><time>2023-12-16T02:58:55Z</time></trkpt><trkpt lat="34.961928" lon="138.8382298"><ele>834.9499999999999</ele><time>2023-12-16T02:59:04Z</time></trkpt><trkpt lat="34.9620466" lon="138.8384035"><ele>834.4766666666666</ele><time>2023-12-16T02:59:15Z</time></trkpt><trkpt lat="34.962218" lon="138.8385083"><ele>834.19</ele><time>2023-12-16T02:59:28Z</time></trkpt><trkpt lat="34.9624015" lon="138.8385605"><ele>833.5966666666667</ele><time>2023-12-16T02:59:41Z</time></trkpt><trkpt lat="34.9625668" lon="138.8386578"><ele>833.8066666666667</ele><time>2023-12-16T02:59:53Z</time></trkpt><trkpt lat="34.9626865" lon="138.8388287"><ele>834.0866666666667</ele><time>2023-12-16T03:00:05Z</time></trkpt><trkpt lat="34.9628657" lon="138.8388619"><ele>835.8000000000001</ele><time>2023-12-16T03:00:19Z</time></trkpt><trkpt lat="34.9629547" lon="138.8390677"><ele>835.5166666666668</ele><time>2023-12-16T03:00:26Z</time></trkpt><trkpt lat="34.9631409" lon="138.8390698"><ele>835.4733333333334</ele><time>2023-12-16T03:00:39Z</time></trkpt><trkpt lat="34.9633182" lon="138.8391111"><ele>834.4466666666667</ele><time>2023-12-16T03:00:51Z</time></trkpt><trkpt lat="34.9634896" lon="138.8392152"><ele>834.2966666666666</ele><time>2023-12-16T03:01:10Z</time></trkpt><trkpt lat="34.9635374" lon="138.8394453"><ele>832.2199999999999</ele><time>2023-12-16T03:01:22Z</time></trkpt><trkpt lat="34.9635919" lon="138.8396772"><ele>829.1466666666666</ele><time>2023-12-16T03:01:31Z</time></trkpt><trkpt lat="34.9637081" lon="138.8398507"><ele>827.3966666666666</ele><time>2023-12-16T03:01:43Z</time></trkpt><trkpt lat="34.9638195" lon="138.840033"><ele>827.0300000000001</ele><time>2023-12-16T03:01:56Z</time></trkpt><trkpt lat="34.9638187" lon="138.8402663"><ele>826.6166666666668</ele><time>2023-12-16T03:02:04Z</time></trkpt><trkpt lat="34.9638409" lon="138.8405084"><ele>826.6033333333334</ele><time>2023-12-16T03:02:21Z</time></trkpt><trkpt lat="34.9638836" lon="138.8407347"><ele>826.7333333333335</ele><time>2023-12-16T03:02:32Z</time></trkpt><trkpt lat="34.9638909" lon="138.8409751"><ele>826.9666666666667</ele><time>2023-12-16T03:02:42Z</time></trkpt><trkpt lat="34.963959" lon="138.8411837"><ele>825.8166666666667</ele><time>2023-12-16T03:02:53Z</time></trkpt><trkpt lat="34.9640153" lon="138.8414021"><ele>825.1366666666667</ele><time>2023-12-16T03:03:06Z</time></trkpt><trkpt lat="34.9641352" lon="138.8415825"><ele>825.6366666666667</ele><time>2023-12-16T03:03:19Z</time></trkpt><trkpt lat="34.9642878" lon="138.8417262"><ele>825.5533333333333</ele><time>2023-12-16T03:03:34Z</time></trkpt><trkpt lat="34.9644695" lon="138.841754"><ele>825.9533333333334</ele><time>2023-12-16T03:03:44Z</time></trkpt><trkpt lat="34.9646025" lon="138.8419161"><ele>825.41</ele><time>2023-12-16T03:03:54Z</time></trkpt><trkpt lat="34.9647013" lon="138.8421061"><ele>826.7866666666665</ele><time>2023-12-16T03:04:06Z</time></trkpt><trkpt lat="34.9647953" lon="138.8423"><ele>827.2533333333334</ele><time>2023-12-16T03:04:18Z</time></trkpt><trkpt lat="34.96487" lon="138.8425243"><ele>828.8633333333333</ele><time>2023-12-16T03:04:32Z</time></trkpt><trkpt lat="34.964848" lon="138.8427474"><ele>829.4066666666666</ele><time>2023-12-16T03:04:44Z</time></trkpt><trkpt lat="34.9648059" lon="138.8429725"><ele>829.1766666666667</ele><time>2023-12-16T03:04:55Z</time></trkpt><trkpt lat="34.9646756" lon="138.8431422"><ele>826.9033333333333</ele><time>2023-12-16T03:05:09Z</time></trkpt><trkpt lat="34.9647295" lon="138.8433552"><ele>825.4233333333335</ele><time>2023-12-16T03:05:16Z</time></trkpt><trkpt lat="34.9648105" lon="138.8435593"><ele>824.8733333333333</ele><time>2023-12-16T03:05:30Z</time></trkpt><trkpt lat="34.9649075" lon="138.8437468"><ele>826.23</ele><time>2023-12-16T03:05:41Z</time></trkpt><trkpt lat="34.9649939" lon="138.8439407"><ele>825.7366666666667</ele><time>2023-12-16T03:05:51Z</time></trkpt><trkpt lat="34.9650681" lon="138.8441569"><ele>826.39</ele><time>2023-12-16T03:06:04Z</time></trkpt><trkpt lat="34.9649965" lon="138.8443582"><ele>825.0500000000001</ele><time>2023-12-16T03:06:18Z</time></trkpt><trkpt lat="34.9648884" lon="138.8445369"><ele>822.9533333333334</ele><time>2023-12-16T03:06:29Z</time></trkpt><trkpt lat="34.9647946" lon="138.8447257"><ele>819.4033333333333</ele><time>2023-12-16T03:06:44Z</time></trkpt><trkpt lat="34.964829" lon="138.8449407"><ele>817.64</ele><time>2023-12-16T03:06:53Z</time></trkpt><trkpt lat="34.9649165" lon="138.8451424"><ele>817.29</ele><time>2023-12-16T03:07:06Z</time></trkpt><trkpt lat="34.964979" lon="138.8453486"><ele>816.7266666666668</ele><time>2023-12-16T03:07:19Z</time></trkpt><trkpt lat="34.9651393" lon="138.8454634"><ele>815.6733333333333</ele><time>2023-12-16T03:07:30Z</time></trkpt><trkpt lat="34.9653094" lon="138.8455623"><ele>814.65</ele><time>2023-12-16T03:07:42Z</time></trkpt><trkpt lat="34.9654896" lon="138.8455203"><ele>813.4133333333334</ele><time>2023-12-16T03:07:49Z</time></trkpt><trkpt lat="34.9656312" lon="138.8453716"><ele>811.32</ele><time>2023-12-16T03:08:02Z</time></trkpt><trkpt lat="34.9656491" lon="138.8451446"><ele>810.6266666666667</ele><time>2023-12-16T03:08:17Z</time></trkpt><trkpt lat="34.9657487" lon="138.8449539"><ele>811.09</ele><time>2023-12-16T03:08:31Z</time></trkpt><trkpt lat="34.9659057" lon="138.8448348"><ele>812.3666666666667</ele><time>2023-12-16T03:08:42Z</time></trkpt><trkpt lat="34.9660766" lon="138.8447273"><ele>812.57</ele><time>2023-12-16T03:08:53Z</time></trkpt><trkpt lat="34.9662398" lon="138.8446275"><ele>812.13</ele><time>2023-12-16T03:09:08Z</time></trkpt><trkpt lat="34.9664115" lon="138.8445418"><ele>812.4133333333333</ele><time>2023-12-16T03:09:22Z</time></trkpt><trkpt lat="34.9665918" lon="138.8445694"><ele>812.5133333333333</ele><time>2023-12-16T03:09:33Z</time></trkpt><trkpt lat="34.9667802" lon="138.8445702"><ele>812.46</ele><time>2023-12-16T03:09:45Z</time></trkpt><trkpt lat="34.9669699" lon="138.8445853"><ele>810.1833333333334</ele><time>2023-12-16T03:09:57Z</time></trkpt><trkpt lat="34.9671364" lon="138.8446885"><ele>808.32</ele><time>2023-12-16T03:10:12Z</time></trkpt><trkpt lat="34.9672984" lon="138.8447889"><ele>807.0266666666666</ele><time>2023-12-16T03:10:24Z</time></trkpt><trkpt lat="34.9673946" lon="138.844975"><ele>806.7933333333334</ele><time>2023-12-16T03:10:36Z</time></trkpt><trkpt lat="34.9674188" lon="138.8452013"><ele>805.9266666666666</ele><time>2023-12-16T03:10:46Z</time></trkpt><trkpt lat="34.9674609" lon="138.8454252"><ele>804.2400000000001</ele><time>2023-12-16T03:10:59Z</time></trkpt><trkpt lat="34.9675798" lon="138.8456033"><ele>803.3666666666667</ele><time>2023-12-16T03:11:12Z</time></trkpt><trkpt lat="34.9677752" lon="138.845699"><ele>803.4966666666668</ele><time>2023-12-16T03:11:24Z</time></trkpt><trkpt lat="34.9679575" lon="138.8457477"><ele>804.3299999999999</ele><time>2023-12-16T03:11:35Z</time></trkpt><trkpt lat="34.9681186" lon="138.8458591"><ele>804.79</ele><time>2023-12-16T03:11:49Z</time></trkpt><trkpt lat="34.9681905" lon="138.8460604"><ele>802.9533333333334</ele><time>2023-12-16T03:11:59Z</time></trkpt><trkpt lat="34.9682674" lon="138.846273"><ele>799.4033333333333</ele><time>2023-12-16T03:12:10Z</time></trkpt><trkpt lat="34.9684301" lon="138.8463762"><ele>795.2833333333333</ele><time>2023-12-16T03:12:20Z</time></trkpt><trkpt lat="34.968527" lon="138.8461708"><ele>792.3233333333334</ele><time>2023-12-16T03:12:36Z</time></trkpt><trkpt lat="34.968591" lon="138.8459426"><ele>789.57</ele><time>2023-12-16T03:12:45Z</time></trkpt><trkpt lat="34.9687128" lon="138.8457611"><ele>786.3766666666667</ele><time>2023-12-16T03:12:52Z</time></trkpt><trkpt lat="34.9688098" lon="138.8455618"><ele>783.9866666666667</ele><time>2023-12-16T03:13:04Z</time></trkpt><trkpt lat="34.9688951" lon="138.8453582"><ele>783.86</ele><time>2023-12-16T03:13:21Z</time></trkpt><trkpt lat="34.9690857" lon="138.845363"><ele>784.6533333333333</ele><time>2023-12-16T03:13:39Z</time></trkpt><trkpt lat="34.9692619" lon="138.8454478"><ele>784.3433333333334</ele><time>2023-12-16T03:13:50Z</time></trkpt><trkpt lat="34.9693242" lon="138.8452377"><ele>783.2366666666667</ele><time>2023-12-16T03:14:04Z</time></trkpt><trkpt lat="34.9694523" lon="138.8450652"><ele>782.4433333333335</ele><time>2023-12-16T03:14:12Z</time></trkpt><trkpt lat="34.9694935" lon="138.8448448"><ele>781.4200000000001</ele><time>2023-12-16T03:14:24Z</time></trkpt><trkpt lat="34.9693122" lon="138.8447556"><ele>782.5366666666665</ele><time>2023-12-16T03:14:34Z</time></trkpt><trkpt lat="34.9691956" lon="138.8445729"><ele>784.0433333333334</ele><time>2023-12-16T03:14:43Z</time></trkpt><trkpt lat="34.9692163" lon="138.8443285"><ele>786.9333333333334</ele><time>2023-12-16T03:14:54Z</time></trkpt><trkpt lat="34.9693171" lon="138.8441428"><ele>786.8466666666667</ele><time>2023-12-16T03:15:03Z</time></trkpt><trkpt lat="34.9694392" lon="138.843967"><ele>784.59</ele><time>2023-12-16T03:15:14Z</time></trkpt><trkpt lat="34.9694923" lon="138.8437564"><ele>782.0433333333334</ele><time>2023-12-16T03:15:29Z</time></trkpt><trkpt lat="34.9693221" lon="138.8436297"><ele>781.7333333333335</ele><time>2023-12-16T03:15:39Z</time></trkpt><trkpt lat="34.9692872" lon="138.8434043"><ele>780.3933333333334</ele><time>2023-12-16T03:15:53Z</time></trkpt><trkpt lat="34.9691275" lon="138.8432951"><ele>778.82</ele><time>2023-12-16T03:16:05Z</time></trkpt><trkpt lat="34.9689342" lon="138.8432848"><ele>776.6866666666666</ele><time>2023-12-16T03:16:18Z</time></trkpt><trkpt lat="34.9687551" lon="138.8432087"><ele>777.5466666666667</ele><time>2023-12-16T03:16:27Z</time></trkpt><trkpt lat="34.9686436" lon="138.8430151"><ele>777.89</ele><time>2023-12-16T03:16:38Z</time></trkpt><trkpt lat="34.9686635" lon="138.8427954"><ele>774.6366666666667</ele><time>2023-12-16T03:16:50Z</time></trkpt><trkpt lat="34.9686992" lon="138.8425759"><ele>769.9366666666668</ele><time>2023-12-16T03:17:01Z</time></trkpt><trkpt lat="34.968709" lon="138.842353"><ele>765.8933333333334</ele><time>2023-12-16T03:17:11Z</time></trkpt><trkpt lat="34.9686877" lon="138.8421261"><ele>764.2199999999999</ele><time>2023-12-16T03:17:21Z</time></trkpt><trkpt lat="34.9685561" lon="138.8419529"><ele>764.1166666666668</ele><time>2023-12-16T03:17:33Z</time></trkpt><trkpt lat="34.9684931" lon="138.8417401"><ele>764.2966666666667</ele><time>2023-12-16T03:17:43Z</time></trkpt><trkpt lat="34.9684045" lon="138.8415383"><ele>765.3533333333334</ele><time>2023-12-16T03:17:55Z</time></trkpt><trkpt lat="34.9683509" lon="138.8413286"><ele>765.0633333333334</ele><time>2023-12-16T03:18:05Z</time></trkpt><trkpt lat="34.9683004" lon="138.8410953"><ele>765.5300000000001</ele><time>2023-12-16T03:18:17Z</time></trkpt><trkpt lat="34.9683408" lon="138.8408756"><ele>764.1733333333335</ele><time>2023-12-16T03:18:28Z</time></trkpt><trkpt lat="34.9683303" lon="138.8406523"><ele>763.5</ele><time>2023-12-16T03:18:39Z</time></trkpt><trkpt lat="34.9683894" lon="138.8404305"><ele>761.4566666666668</ele><time>2023-12-16T03:18:52Z</time></trkpt><trkpt lat="34.9684282" lon="138.8402163"><ele>758.4466666666667</ele><time>2023-12-16T03:19:06Z</time></trkpt><trkpt lat="34.968437" lon="138.8399939"><ele>755.4733333333334</ele><time>2023-12-16T03:19:16Z</time></trkpt><trkpt lat="34.9683389" lon="138.8397807"><ele>753.4766666666666</ele><time>2023-12-16T03:19:27Z</time></trkpt><trkpt lat="34.9684238" lon="138.8395798"><ele>752.4266666666667</ele><time>2023-12-16T03:19:38Z</time></trkpt><trkpt lat="34.9682812" lon="138.8394252"><ele>752.1033333333334</ele><time>2023-12-16T03:19:42Z</time></trkpt><trkpt lat="34.96826" lon="138.8392002"><ele>752.9200000000001</ele><time>2023-12-16T03:19:53Z</time></trkpt><trkpt lat="34.9683948" lon="138.8390458"><ele>754.4466666666666</ele><time>2023-12-16T03:20:13Z</time></trkpt><trkpt lat="34.9685856" lon="138.839079"><ele>754.25</ele><time>2023-12-16T03:20:20Z</time></trkpt><trkpt lat="34.9687794" lon="138.8390499"><ele>751.1633333333333</ele><time>2023-12-16T03:20:31Z</time></trkpt><trkpt lat="34.9688953" lon="138.8388764"><ele>749.86</ele><time>2023-12-16T03:20:40Z</time></trkpt><trkpt lat="34.9690151" lon="138.8386876"><ele>747.7033333333334</ele><time>2023-12-16T03:20:48Z</time></trkpt><trkpt lat="34.9691126" lon="138.8384867"><ele>746.2466666666668</ele><time>2023-12-16T03:20:57Z</time></trkpt><trkpt lat="34.9692759" lon="138.8383684"><ele>744.1166666666667</ele><time>2023-12-16T03:21:08Z</time></trkpt><trkpt lat="34.9694542" lon="138.8384469"><ele>743.4499999999999</ele><time>2023-12-16T03:21:21Z</time></trkpt><trkpt lat="34.9695987" lon="138.8385785"><ele>743.2233333333334</ele><time>2023-12-16T03:21:30Z</time></trkpt><trkpt lat="34.9697702" lon="138.8386505"><ele>741.1333333333333</ele><time>2023-12-16T03:21:44Z</time></trkpt><trkpt lat="34.9698843" lon="138.8384742"><ele>739.3299999999999</ele><time>2023-12-16T03:21:58Z</time></trkpt><trkpt lat="34.9699467" lon="138.8382563"><ele>737.6366666666667</ele><time>2023-12-16T03:22:06Z</time></trkpt><trkpt lat="34.9700278" lon="138.8380553"><ele>736.3100000000001</ele><time>2023-12-16T03:22:14Z</time></trkpt><trkpt lat="34.9701391" lon="138.837863"><ele>735.54</ele><time>2023-12-16T03:22:25Z</time></trkpt><trkpt lat="34.9702872" lon="138.8377224"><ele>734.7133333333333</ele><time>2023-12-16T03:22:37Z</time></trkpt><trkpt lat="34.970443" lon="138.8376117"><ele>734.0633333333334</ele><time>2023-12-16T03:22:50Z</time></trkpt><trkpt lat="34.9705989" lon="138.8374858"><ele>732.5866666666667</ele><time>2023-12-16T03:23:01Z</time></trkpt><trkpt lat="34.9707578" lon="138.837361"><ele>731.18</ele><time>2023-12-16T03:23:11Z</time></trkpt><trkpt lat="34.9709027" lon="138.8372265"><ele>730.2933333333334</ele><time>2023-12-16T03:23:22Z</time></trkpt><trkpt lat="34.971057" lon="138.8371053"><ele>729.5966666666667</ele><time>2023-12-16T03:23:36Z</time></trkpt><trkpt lat="34.9712282" lon="138.83703"><ele>728.7933333333334</ele><time>2023-12-16T03:23:49Z</time></trkpt><trkpt lat="34.9713777" lon="138.8368986"><ele>727.7733333333334</ele><time>2023-12-16T03:24:00Z</time></trkpt><trkpt lat="34.9714059" lon="138.8366435"><ele>727.1133333333333</ele><time>2023-12-16T03:24:08Z</time></trkpt><trkpt lat="34.9713501" lon="138.8368558"><ele>727.0266666666666</ele><time>2023-12-16T03:24:46Z</time></trkpt><trkpt lat="34.9713566" lon="138.8370806"><ele>726.7066666666666</ele><time>2023-12-16T03:24:59Z</time></trkpt><trkpt lat="34.9714362" lon="138.8368687"><ele>727.19</ele><time>2023-12-16T03:26:46Z</time></trkpt><trkpt lat="34.9714461" lon="138.8366223"><ele>727.3533333333335</ele><time>2023-12-16T03:26:56Z</time></trkpt><trkpt lat="34.9713153" lon="138.8368132"><ele>727.9433333333333</ele><time>2023-12-16T03:27:48Z</time></trkpt><trkpt lat="34.9714311" lon="138.8369953"><ele>727.7233333333334</ele><time>2023-12-16T03:27:57Z</time></trkpt><trkpt lat="34.9715794" lon="138.837134"><ele>728.6866666666666</ele><time>2023-12-16T03:28:30Z</time></trkpt><trkpt lat="34.9716209" lon="138.8373515"><ele>729.2199999999999</ele><time>2023-12-16T03:28:41Z</time></trkpt><trkpt lat="34.9716529" lon="138.837568"><ele>730.85</ele><time>2023-12-16T03:28:51Z</time></trkpt><trkpt lat="34.9717366" lon="138.8373595"><ele>732.3566666666667</ele><time>2023-12-16T03:29:08Z</time></trkpt><trkpt lat="34.9717072" lon="138.8371409"><ele>733.8100000000001</ele><time>2023-12-16T03:29:19Z</time></trkpt><trkpt lat="34.9717114" lon="138.8369192"><ele>734.9000000000001</ele><time>2023-12-16T03:29:32Z</time></trkpt><trkpt lat="34.9717634" lon="138.8367005"><ele>734.33</ele><time>2023-12-16T03:29:47Z</time></trkpt><trkpt lat="34.9719535" lon="138.8367037"><ele>735.0466666666667</ele><time>2023-12-16T03:29:59Z</time></trkpt><trkpt lat="34.9721335" lon="138.8367731"><ele>736.0400000000001</ele><time>2023-12-16T03:30:10Z</time></trkpt><trkpt lat="34.9723025" lon="138.8366841"><ele>737.6</ele><time>2023-12-16T03:30:26Z</time></trkpt><trkpt lat="34.9724508" lon="138.8365588"><ele>738.4466666666667</ele><time>2023-12-16T03:30:53Z</time></trkpt><trkpt lat="34.9726375" lon="138.8365779"><ele>739.1366666666667</ele><time>2023-12-16T03:31:05Z</time></trkpt><trkpt lat="34.9728171" lon="138.8366029"><ele>740.65</ele><time>2023-12-16T03:31:19Z</time></trkpt><trkpt lat="34.9729773" lon="138.8364984"><ele>742.29</ele><time>2023-12-16T03:31:29Z</time></trkpt><trkpt lat="34.9731653" lon="138.8364717"><ele>744.1033333333334</ele><time>2023-12-16T03:31:42Z</time></trkpt><trkpt lat="34.9733288" lon="138.8365706"><ele>746.0366666666667</ele><time>2023-12-16T03:31:55Z</time></trkpt><trkpt lat="34.9735078" lon="138.8365282"><ele>748.7533333333334</ele><time>2023-12-16T03:32:11Z</time></trkpt><trkpt lat="34.9736954" lon="138.8365252"><ele>750.8833333333333</ele><time>2023-12-16T03:32:25Z</time></trkpt><trkpt lat="34.9738801" lon="138.8365169"><ele>752.4733333333334</ele><time>2023-12-16T03:32:46Z</time></trkpt><trkpt lat="34.9740531" lon="138.836446"><ele>754.6066666666667</ele><time>2023-12-16T03:32:57Z</time></trkpt><trkpt lat="34.9740114" lon="138.8366665"><ele>754.8566666666666</ele><time>2023-12-16T03:33:22Z</time></trkpt><trkpt lat="34.97386" lon="138.8367994"><ele>754.7566666666668</ele><time>2023-12-16T03:33:38Z</time></trkpt><trkpt lat="34.9737215" lon="138.8369537"><ele>753.89</ele><time>2023-12-16T03:33:51Z</time></trkpt><trkpt lat="34.9735795" lon="138.8371044"><ele>755.2033333333334</ele><time>2023-12-16T03:34:07Z</time></trkpt><trkpt lat="34.9736476" lon="138.8373145"><ele>756.4766666666666</ele><time>2023-12-16T03:34:21Z</time></trkpt><trkpt lat="34.9737524" lon="138.8375028"><ele>756.7533333333332</ele><time>2023-12-16T03:34:35Z</time></trkpt><trkpt lat="34.9738122" lon="138.8377122"><ele>756.42</ele><time>2023-12-16T03:34:55Z</time></trkpt><trkpt lat="34.9738942" lon="138.837914"><ele>755.81</ele><time>2023-12-16T03:35:05Z</time></trkpt><trkpt lat="34.9737913" lon="138.8380954"><ele>754.5500000000001</ele><time>2023-12-16T03:35:21Z</time></trkpt><trkpt lat="34.9739472" lon="138.8382399"><ele>753.39</ele><time>2023-12-16T03:35:31Z</time></trkpt><trkpt lat="34.9740706" lon="138.8384019"><ele>752.5333333333333</ele><time>2023-12-16T03:35:42Z</time></trkpt><trkpt lat="34.9741697" lon="138.8385884"><ele>752.3333333333334</ele><time>2023-12-16T03:35:52Z</time></trkpt><trkpt lat="34.9742644" lon="138.8387756"><ele>751.2666666666668</ele><time>2023-12-16T03:36:05Z</time></trkpt><trkpt lat="34.9741962" lon="138.8389815"><ele>748.82</ele><time>2023-12-16T03:36:23Z</time></trkpt><trkpt lat="34.9742884" lon="138.8391896"><ele>746.2133333333333</ele><time>2023-12-16T03:36:34Z</time></trkpt><trkpt lat="34.9743244" lon="138.8394073"><ele>743.7766666666666</ele><time>2023-12-16T03:36:47Z</time></trkpt><trkpt lat="34.974284" lon="138.8396346"><ele>742.8433333333332</ele><time>2023-12-16T03:36:58Z</time></trkpt><trkpt lat="34.9743775" lon="138.8398567"><ele>742.1866666666668</ele><time>2023-12-16T03:37:18Z</time></trkpt><trkpt lat="34.9743998" lon="138.8400783"><ele>741.4433333333333</ele><time>2023-12-16T03:37:26Z</time></trkpt><trkpt lat="34.974331" lon="138.8403038"><ele>742.3233333333334</ele><time>2023-12-16T03:37:43Z</time></trkpt><trkpt lat="34.9743217" lon="138.8405227"><ele>745.7566666666667</ele><time>2023-12-16T03:38:07Z</time></trkpt><trkpt lat="34.9743911" lon="138.8407364"><ele>750.3866666666667</ele><time>2023-12-16T03:38:27Z</time></trkpt><trkpt lat="34.9744987" lon="138.8409201"><ele>753.9233333333333</ele><time>2023-12-16T03:38:45Z</time></trkpt><trkpt lat="34.9744819" lon="138.8411548"><ele>756.5766666666667</ele><time>2023-12-16T03:38:59Z</time></trkpt><trkpt lat="34.9744966" lon="138.8413773"><ele>758.91</ele><time>2023-12-16T03:39:21Z</time></trkpt><trkpt lat="34.9745752" lon="138.8415953"><ele>760.6133333333333</ele><time>2023-12-16T03:39:35Z</time></trkpt><trkpt lat="34.9746034" lon="138.8418145"><ele>760.6733333333333</ele><time>2023-12-16T03:39:49Z</time></trkpt><trkpt lat="34.9746754" lon="138.8420177"><ele>760.3733333333333</ele><time>2023-12-16T03:40:04Z</time></trkpt><trkpt lat="34.9748305" lon="138.8421514"><ele>758.96</ele><time>2023-12-16T03:40:17Z</time></trkpt><trkpt lat="34.974948" lon="138.8423251"><ele>755.7233333333334</ele><time>2023-12-16T03:40:29Z</time></trkpt><trkpt lat="34.974972" lon="138.8425445"><ele>752.2866666666667</ele><time>2023-12-16T03:40:46Z</time></trkpt><trkpt lat="34.9750381" lon="138.8427547"><ele>748.5166666666668</ele><time>2023-12-16T03:41:11Z</time></trkpt><trkpt lat="34.9751506" lon="138.8429383"><ele>745.9899999999999</ele><time>2023-12-16T03:41:27Z</time></trkpt><trkpt lat="34.975299" lon="138.8430876"><ele>741.6366666666667</ele><time>2023-12-16T03:41:44Z</time></trkpt><trkpt lat="34.9754402" lon="138.8432359"><ele>738.0633333333334</ele><time>2023-12-16T03:42:00Z</time></trkpt><trkpt lat="34.9756188" lon="138.8433163"><ele>734.64</ele><time>2023-12-16T03:42:14Z</time></trkpt><trkpt lat="34.9757639" lon="138.8434765"><ele>732.64</ele><time>2023-12-16T03:42:33Z</time></trkpt><trkpt lat="34.9756912" lon="138.843678"><ele>730.7133333333335</ele><time>2023-12-16T03:42:44Z</time></trkpt><trkpt lat="34.9755209" lon="138.843754"><ele>729.7733333333332</ele><time>2023-12-16T03:42:58Z</time></trkpt><trkpt lat="34.9755886" lon="138.8439676"><ele>728.1700000000001</ele><time>2023-12-16T03:43:16Z</time></trkpt><trkpt lat="34.9755978" lon="138.844199"><ele>726.7133333333333</ele><time>2023-12-16T03:43:29Z</time></trkpt><trkpt lat="34.9755426" lon="138.844415"><ele>724.2433333333333</ele><time>2023-12-16T03:43:44Z</time></trkpt><trkpt lat="34.9755505" lon="138.8446402"><ele>721.8733333333333</ele><time>2023-12-16T03:43:59Z</time></trkpt><trkpt lat="34.9755158" lon="138.8448713"><ele>718.66</ele><time>2023-12-16T03:44:21Z</time></trkpt><trkpt lat="34.9754246" lon="138.8450721"><ele>713.5100000000001</ele><time>2023-12-16T03:44:56Z</time></trkpt><trkpt lat="34.9755724" lon="138.8452083"><ele>709.6433333333333</ele><time>2023-12-16T03:45:19Z</time></trkpt><trkpt lat="34.9756355" lon="138.8454142"><ele>705.46</ele><time>2023-12-16T03:45:34Z</time></trkpt><trkpt lat="34.9755785" lon="138.8456354"><ele>702.5633333333334</ele><time>2023-12-16T03:45:50Z</time></trkpt><trkpt lat="34.9755239" lon="138.8458889"><ele>698.2833333333334</ele><time>2023-12-16T03:46:03Z</time></trkpt><trkpt lat="34.9755892" lon="138.846096"><ele>695.11</ele><time>2023-12-16T03:46:17Z</time></trkpt><trkpt lat="34.9756014" lon="138.8463221"><ele>692.7333333333335</ele><time>2023-12-16T03:46:31Z</time></trkpt><trkpt lat="34.9756543" lon="138.8465381"><ele>690.3033333333333</ele><time>2023-12-16T03:46:42Z</time></trkpt><trkpt lat="34.975755" lon="138.8467322"><ele>687.2466666666666</ele><time>2023-12-16T03:46:56Z</time></trkpt><trkpt lat="34.9758673" lon="138.8469125"><ele>683.6633333333333</ele><time>2023-12-16T03:47:12Z</time></trkpt><trkpt lat="34.975721" lon="138.8470492"><ele>681.0033333333333</ele><time>2023-12-16T03:47:26Z</time></trkpt><trkpt lat="34.9755479" lon="138.8471338"><ele>679.6266666666667</ele><time>2023-12-16T03:47:46Z</time></trkpt><trkpt lat="34.9754719" lon="138.847333"><ele>678.4433333333334</ele><time>2023-12-16T03:48:00Z</time></trkpt><trkpt lat="34.9754926" lon="138.8475578"><ele>676.45</ele><time>2023-12-16T03:48:13Z</time></trkpt><trkpt lat="34.9755386" lon="138.8477763"><ele>673.9733333333334</ele><time>2023-12-16T03:48:24Z</time></trkpt><trkpt lat="34.9756868" lon="138.8479101"><ele>671.2833333333334</ele><time>2023-12-16T03:48:38Z</time></trkpt><trkpt lat="34.9758046" lon="138.8480885"><ele>669.59</ele><time>2023-12-16T03:48:55Z</time></trkpt><trkpt lat="34.9759413" lon="138.8482361"><ele>668.1066666666667</ele><time>2023-12-16T03:49:10Z</time></trkpt><trkpt lat="34.9761024" lon="138.8483518"><ele>666.9766666666668</ele><time>2023-12-16T03:49:25Z</time></trkpt><trkpt lat="34.9762185" lon="138.8485275"><ele>664.9699999999999</ele><time>2023-12-16T03:49:43Z</time></trkpt><trkpt lat="34.9762372" lon="138.8487501"><ele>662.0866666666667</ele><time>2023-12-16T03:49:59Z</time></trkpt><trkpt lat="34.9761193" lon="138.8489309"><ele>659.22</ele><time>2023-12-16T03:50:12Z</time></trkpt><trkpt lat="34.9759417" lon="138.8490059"><ele>656.5033333333333</ele><time>2023-12-16T03:50:29Z</time></trkpt><trkpt lat="34.9757744" lon="138.8490893"><ele>653.7966666666667</ele><time>2023-12-16T03:50:45Z</time></trkpt><trkpt lat="34.9756383" lon="138.8492367"><ele>650.1533333333333</ele><time>2023-12-16T03:51:07Z</time></trkpt><trkpt lat="34.975479" lon="138.8493529"><ele>644.8933333333333</ele><time>2023-12-16T03:51:23Z</time></trkpt><trkpt lat="34.9754537" lon="138.8495813"><ele>640.15</ele><time>2023-12-16T03:51:40Z</time></trkpt><trkpt lat="34.9754284" lon="138.8498121"><ele>636.0733333333333</ele><time>2023-12-16T03:51:56Z</time></trkpt><trkpt lat="34.9756045" lon="138.8498704"><ele>633.3166666666666</ele><time>2023-12-16T03:52:11Z</time></trkpt><trkpt lat="34.975481" lon="138.8500366"><ele>631.36</ele><time>2023-12-16T03:52:47Z</time></trkpt><trkpt lat="34.9754064" lon="138.8502457"><ele>629.63</ele><time>2023-12-16T03:52:59Z</time></trkpt><trkpt lat="34.9753613" lon="138.8504658"><ele>627.6999999999999</ele><time>2023-12-16T03:53:11Z</time></trkpt><trkpt lat="34.9754915" lon="138.8506301"><ele>625.24</ele><time>2023-12-16T03:53:23Z</time></trkpt><trkpt lat="34.9756811" lon="138.8507774"><ele>623.2366666666667</ele><time>2023-12-16T03:53:32Z</time></trkpt><trkpt lat="34.9758568" lon="138.8508635"><ele>622.4133333333333</ele><time>2023-12-16T03:53:50Z</time></trkpt></trkseg></trk></gpx>