<?xml version='1.0' encoding='UTF-8'?><gpx creator="YAMAP - https://yamap.com" xsi:schemaLocation="http://www.topografix.com/GPX/1/1 http://www.topografix.com/GPX/1/1/gpx.xsd" version="1.1" xmlns="http://www.topografix.com/GPX/1/1" xmlns:xsi="http://www.w3.org/2001/XMLSchema-instance"><metadata><bounds maxlat="37.1412133" maxlon="139.9750628" minlat="37.12263" minlon="139.9613583"/></metadata><trk><name>茶臼岳</name><number>1</number><trkseg><trkpt lat="37.1285647" lon="139.9750628"><ele>1478.445</ele><time>2024-08-03T00:41:11Z</time></trkpt><trkpt lat="37.1287169" lon="139.9748931"><ele>1481.14</ele><time>2024-08-03T00:41:36Z</time></trkpt><trkpt lat="37.1289115" lon="139.9747875"><ele>1485.0199999999998</ele><time>2024-08-03T00:41:54Z</time></trkpt><trkpt lat="37.1291087" lon="139.974684"><ele>1487.8433333333332</ele><time>2024-08-03T00:42:15Z</time></trkpt><trkpt lat="37.1292457" lon="139.9745315"><ele>1491.0900000000001</ele><time>2024-08-03T00:42:37Z</time></trkpt><trkpt lat="37.1294303" lon="139.9745182"><ele>1493.1599999999999</ele><time>2024-08-03T00:42:49Z</time></trkpt><trkpt lat="37.1296257" lon="139.9744468"><ele>1494.2766666666666</ele><time>2024-08-03T00:43:13Z</time></trkpt><trkpt lat="37.1298045" lon="139.9743787"><ele>1494.5733333333335</ele><time>2024-08-03T00:44:37Z</time></trkpt><trkpt lat="37.1300076" lon="139.9744033"><ele>1497.3933333333334</ele><time>2024-08-03T00:45:49Z</time></trkpt><trkpt lat="37.130089" lon="139.9741936"><ele>1503.426666666667</ele><time>2024-08-03T00:46:58Z</time></trkpt><trkpt lat="37.1301731" lon="139.9739684"><ele>1510.24</ele><time>2024-08-03T00:47:24Z</time></trkpt><trkpt lat="37.1301814" lon="139.9737391"><ele>1516.6533333333336</ele><time>2024-08-03T00:48:09Z</time></trkpt><trkpt lat="37.1302187" lon="139.9735136"><ele>1521.47</ele><time>2024-08-03T00:48:32Z</time></trkpt><trkpt lat="37.1301173" lon="139.973316"><ele>1524.3833333333334</ele><time>2024-08-03T00:49:08Z</time></trkpt><trkpt lat="37.1301318" lon="139.9730814"><ele>1527.9466666666667</ele><time>2024-08-03T00:49:53Z</time></trkpt><trkpt lat="37.1301361" lon="139.9728529"><ele>1532.3833333333332</ele><time>2024-08-03T00:50:35Z</time></trkpt><trkpt lat="37.1301292" lon="139.9726216"><ele>1538.4833333333333</ele><time>2024-08-03T00:51:08Z</time></trkpt><trkpt lat="37.1300914" lon="139.9723908"><ele>1545.6366666666665</ele><time>2024-08-03T00:52:38Z</time></trkpt><trkpt lat="37.1300931" lon="139.9721552"><ele>1552.8066666666666</ele><time>2024-08-03T00:52:59Z</time></trkpt><trkpt lat="37.1300933" lon="139.9719123"><ele>1560.53</ele><time>2024-08-03T00:54:20Z</time></trkpt><trkpt lat="37.1301519" lon="139.9716864"><ele>1566.756666666667</ele><time>2024-08-03T00:54:50Z</time></trkpt><trkpt lat="37.1302957" lon="139.9715149"><ele>1572.1366666666665</ele><time>2024-08-03T00:55:27Z</time></trkpt><trkpt lat="37.1304628" lon="139.9713601"><ele>1575.9833333333336</ele><time>2024-08-03T00:56:14Z</time></trkpt><trkpt lat="37.1305762" lon="139.9711678"><ele>1579.1266666666668</ele><time>2024-08-03T00:56:34Z</time></trkpt><trkpt lat="37.1306402" lon="139.9709539"><ele>1582.1566666666668</ele><time>2024-08-03T00:57:20Z</time></trkpt><trkpt lat="37.1306777" lon="139.9707181"><ele>1585.4266666666665</ele><time>2024-08-03T00:58:02Z</time></trkpt><trkpt lat="37.1306947" lon="139.9704874"><ele>1589.0900000000001</ele><time>2024-08-03T00:58:43Z</time></trkpt><trkpt lat="37.1306299" lon="139.9702617"><ele>1593.0533333333335</ele><time>2024-08-03T00:59:08Z</time></trkpt><trkpt lat="37.1305768" lon="139.9700378"><ele>1597.2366666666667</ele><time>2024-08-03T00:59:49Z</time></trkpt><trkpt lat="37.1305386" lon="139.9698101"><ele>1602.4233333333334</ele><time>2024-08-03T01:00:29Z</time></trkpt><trkpt lat="37.1306186" lon="139.969586"><ele>1607.28</ele><time>2024-08-03T01:01:09Z</time></trkpt><trkpt lat="37.1305438" lon="139.9693426"><ele>1612.0833333333333</ele><time>2024-08-03T01:02:37Z</time></trkpt><trkpt lat="37.1305626" lon="139.9691092"><ele>1615.37</ele><time>2024-08-03T01:03:18Z</time></trkpt><trkpt lat="37.1305699" lon="139.9688757"><ele>1618.1599999999999</ele><time>2024-08-03T01:03:55Z</time></trkpt><trkpt lat="37.1305181" lon="139.9686559"><ele>1621.7166666666665</ele><time>2024-08-03T01:04:22Z</time></trkpt><trkpt lat="37.1305778" lon="139.9684232"><ele>1625.14</ele><time>2024-08-03T01:04:58Z</time></trkpt><trkpt lat="37.13057" lon="139.9681947"><ele>1628.2300000000002</ele><time>2024-08-03T01:05:33Z</time></trkpt><trkpt lat="37.1304845" lon="139.9679831"><ele>1630.9833333333333</ele><time>2024-08-03T01:06:24Z</time></trkpt><trkpt lat="37.1303366" lon="139.9678043"><ele>1634.92</ele><time>2024-08-03T01:07:04Z</time></trkpt><trkpt lat="37.1302141" lon="139.9676276"><ele>1638.5900000000001</ele><time>2024-08-03T01:07:44Z</time></trkpt><trkpt lat="37.130262" lon="139.9673986"><ele>1641.9133333333332</ele><time>2024-08-03T01:08:19Z</time></trkpt><trkpt lat="37.1302099" lon="139.9671759"><ele>1644.47</ele><time>2024-08-03T01:08:44Z</time></trkpt><trkpt lat="37.130074" lon="139.9669858"><ele>1648.9733333333334</ele><time>2024-08-03T01:09:26Z</time></trkpt><trkpt lat="37.1300132" lon="139.9667637"><ele>1651.8999999999999</ele><time>2024-08-03T01:09:50Z</time></trkpt><trkpt lat="37.1299832" lon="139.9665115"><ele>1654.54</ele><time>2024-08-03T01:10:32Z</time></trkpt><trkpt lat="37.1299696" lon="139.9662375"><ele>1655.1966666666667</ele><time>2024-08-03T01:11:26Z</time></trkpt><trkpt lat="37.1299747" lon="139.9660007"><ele>1657.6633333333332</ele><time>2024-08-03T01:11:47Z</time></trkpt><trkpt lat="37.1299753" lon="139.9657737"><ele>1661.1266666666668</ele><time>2024-08-03T01:12:08Z</time></trkpt><trkpt lat="37.130073" lon="139.965565"><ele>1664.1133333333335</ele><time>2024-08-03T01:12:41Z</time></trkpt><trkpt lat="37.1300407" lon="139.9653303"><ele>1666.6800000000003</ele><time>2024-08-03T01:14:11Z</time></trkpt><trkpt lat="37.1300531" lon="139.9651053"><ele>1669.5133333333333</ele><time>2024-08-03T01:14:41Z</time></trkpt><trkpt lat="37.130044" lon="139.9648655"><ele>1674.3433333333335</ele><time>2024-08-03T01:15:23Z</time></trkpt><trkpt lat="37.1300697" lon="139.9646204"><ele>1679.41</ele><time>2024-08-03T01:16:02Z</time></trkpt><trkpt lat="37.1301118" lon="139.9643923"><ele>1682.8533333333335</ele><time>2024-08-03T01:16:25Z</time></trkpt><trkpt lat="37.1300823" lon="139.9641496"><ele>1685.3000000000002</ele><time>2024-08-03T01:17:05Z</time></trkpt><trkpt lat="37.1300617" lon="139.9639061"><ele>1688.4633333333334</ele><time>2024-08-03T01:17:41Z</time></trkpt><trkpt lat="37.1300004" lon="139.9636647"><ele>1694.07</ele><time>2024-08-03T01:18:14Z</time></trkpt><trkpt lat="37.1299746" lon="139.9634239"><ele>1699.1866666666665</ele><time>2024-08-03T01:18:44Z</time></trkpt><trkpt lat="37.1299376" lon="139.9631909"><ele>1703.6000000000001</ele><time>2024-08-03T01:19:26Z</time></trkpt><trkpt lat="37.1299361" lon="139.9629631"><ele>1705.46</ele><time>2024-08-03T01:19:55Z</time></trkpt><trkpt lat="37.1299373" lon="139.9627355"><ele>1709.0199999999998</ele><time>2024-08-03T01:20:28Z</time></trkpt><trkpt lat="37.1301358" lon="139.9626561"><ele>1710.8833333333332</ele><time>2024-08-03T01:21:04Z</time></trkpt><trkpt lat="37.1303113" lon="139.9625505"><ele>1714.1366666666665</ele><time>2024-08-03T01:21:28Z</time></trkpt><trkpt lat="37.1304737" lon="139.9624269"><ele>1715.5766666666666</ele><time>2024-08-03T01:21:58Z</time></trkpt><trkpt lat="37.1306418" lon="139.9623339"><ele>1717.9533333333331</ele><time>2024-08-03T01:22:54Z</time></trkpt><trkpt lat="37.1308296" lon="139.9623327"><ele>1719.7566666666664</ele><time>2024-08-03T01:23:49Z</time></trkpt><trkpt lat="37.1309754" lon="139.9624825"><ele>1720.8633333333335</ele><time>2024-08-03T01:30:16Z</time></trkpt><trkpt lat="37.1311661" lon="139.9624953"><ele>1721.8966666666668</ele><time>2024-08-03T01:32:51Z</time></trkpt><trkpt lat="37.1313566" lon="139.9625319"><ele>1722.1133333333335</ele><time>2024-08-03T01:33:13Z</time></trkpt><trkpt lat="37.1314208" lon="139.9627457"><ele>1724.4833333333333</ele><time>2024-08-03T01:33:34Z</time></trkpt><trkpt lat="37.1314666" lon="139.9629705"><ele>1726.5266666666666</ele><time>2024-08-03T01:33:54Z</time></trkpt><trkpt lat="37.1316279" lon="139.9631412"><ele>1729.79</ele><time>2024-08-03T01:34:19Z</time></trkpt><trkpt lat="37.1317703" lon="139.9633228"><ele>1733.0166666666667</ele><time>2024-08-03T01:34:42Z</time></trkpt><trkpt lat="37.131847" lon="139.9635284"><ele>1734.676666666667</ele><time>2024-08-03T01:35:12Z</time></trkpt><trkpt lat="37.1320244" lon="139.9636373"><ele>1734.8733333333337</ele><time>2024-08-03T01:35:37Z</time></trkpt><trkpt lat="37.132211" lon="139.9636087"><ele>1732.7699999999998</ele><time>2024-08-03T01:35:57Z</time></trkpt><trkpt lat="37.1323034" lon="139.9638027"><ele>1730.7933333333333</ele><time>2024-08-03T01:36:16Z</time></trkpt><trkpt lat="37.132429" lon="139.9640143"><ele>1730.4433333333334</ele><time>2024-08-03T01:36:51Z</time></trkpt><trkpt lat="37.1326221" lon="139.9641111"><ele>1731.0333333333335</ele><time>2024-08-03T01:37:31Z</time></trkpt><trkpt lat="37.1328511" lon="139.964123"><ele>1734.8633333333335</ele><time>2024-08-03T01:38:15Z</time></trkpt><trkpt lat="37.1330386" lon="139.9641808"><ele>1740.2333333333333</ele><time>2024-08-03T01:38:34Z</time></trkpt><trkpt lat="37.1332021" lon="139.9642814"><ele>1741.9799999999998</ele><time>2024-08-03T01:38:55Z</time></trkpt><trkpt lat="37.1333858" lon="139.9642006"><ele>1740.47</ele><time>2024-08-03T01:39:46Z</time></trkpt><trkpt lat="37.1334907" lon="139.9640104"><ele>1739.993333333333</ele><time>2024-08-03T01:40:12Z</time></trkpt><trkpt lat="37.1336916" lon="139.9640034"><ele>1742.3933333333334</ele><time>2024-08-03T01:40:43Z</time></trkpt><trkpt lat="37.133912" lon="139.9640159"><ele>1745.0</ele><time>2024-08-03T01:41:00Z</time></trkpt><trkpt lat="37.1341032" lon="139.9639907"><ele>1742.3100000000002</ele><time>2024-08-03T01:41:24Z</time></trkpt><trkpt lat="37.1342295" lon="139.9641519"><ele>1741.1499999999999</ele><time>2024-08-03T01:41:55Z</time></trkpt><trkpt lat="37.1344056" lon="139.9642478"><ele>1741.43</ele><time>2024-08-03T01:42:13Z</time></trkpt><trkpt lat="37.1345925" lon="139.9642619"><ele>1742.3100000000002</ele><time>2024-08-03T01:42:51Z</time></trkpt><trkpt lat="37.1347024" lon="139.9644522"><ele>1748.5866666666668</ele><time>2024-08-03T01:44:04Z</time></trkpt><trkpt lat="37.1346735" lon="139.9646745"><ele>1756.8266666666668</ele><time>2024-08-03T01:45:51Z</time></trkpt><trkpt lat="37.1348658" lon="139.9647134"><ele>1767.1533333333334</ele><time>2024-08-03T01:47:13Z</time></trkpt><trkpt lat="37.13505" lon="139.9648002"><ele>1773.04</ele><time>2024-08-03T01:48:12Z</time></trkpt><trkpt lat="37.1351933" lon="139.9646527"><ele>1777.8466666666666</ele><time>2024-08-03T01:48:48Z</time></trkpt><trkpt lat="37.1353134" lon="139.9648348"><ele>1783.5866666666668</ele><time>2024-08-03T01:49:33Z</time></trkpt><trkpt lat="37.135443" lon="139.9649943"><ele>1789.6933333333334</ele><time>2024-08-03T01:51:55Z</time></trkpt><trkpt lat="37.135586" lon="139.9651925"><ele>1796.86</ele><time>2024-08-03T01:52:48Z</time></trkpt><trkpt lat="37.1356745" lon="139.9654378"><ele>1803.323333333333</ele><time>2024-08-03T01:54:13Z</time></trkpt><trkpt lat="37.1358709" lon="139.9654313"><ele>1810.79</ele><time>2024-08-03T01:55:58Z</time></trkpt><trkpt lat="37.1360622" lon="139.9654237"><ele>1814.6299999999999</ele><time>2024-08-03T01:56:10Z</time></trkpt><trkpt lat="37.136257" lon="139.9654711"><ele>1814.5900000000001</ele><time>2024-08-03T01:57:58Z</time></trkpt><trkpt lat="37.1364233" lon="139.965377"><ele>1809.3233333333335</ele><time>2024-08-03T01:58:54Z</time></trkpt><trkpt lat="37.1366206" lon="139.9654157"><ele>1807.4633333333334</ele><time>2024-08-03T01:59:16Z</time></trkpt><trkpt lat="37.1367644" lon="139.9655558"><ele>1809.4266666666665</ele><time>2024-08-03T01:59:51Z</time></trkpt><trkpt lat="37.1369337" lon="139.965663"><ele>1818.0599999999997</ele><time>2024-08-03T02:01:31Z</time></trkpt><trkpt lat="37.1370845" lon="139.9658009"><ele>1827.2266666666665</ele><time>2024-08-03T02:02:10Z</time></trkpt><trkpt lat="37.1372578" lon="139.9658822"><ele>1835.9866666666667</ele><time>2024-08-03T02:03:01Z</time></trkpt><trkpt lat="37.1371775" lon="139.966089"><ele>1841.0</ele><time>2024-08-03T02:04:11Z</time></trkpt><trkpt lat="37.1370238" lon="139.9662198"><ele>1844.2633333333333</ele><time>2024-08-03T02:04:41Z</time></trkpt><trkpt lat="37.1369214" lon="139.9664269"><ele>1847.0100000000002</ele><time>2024-08-03T02:05:10Z</time></trkpt><trkpt lat="37.1369211" lon="139.9666687"><ele>1849.11</ele><time>2024-08-03T02:05:58Z</time></trkpt><trkpt lat="37.136901" lon="139.966913"><ele>1852.1899999999998</ele><time>2024-08-03T02:06:47Z</time></trkpt><trkpt lat="37.136902" lon="139.9671516"><ele>1856.0900000000001</ele><time>2024-08-03T02:07:14Z</time></trkpt><trkpt lat="37.1368305" lon="139.9673658"><ele>1861.4366666666665</ele><time>2024-08-03T02:08:32Z</time></trkpt><trkpt lat="37.1367825" lon="139.9676103"><ele>1865.99</ele><time>2024-08-03T02:08:50Z</time></trkpt><trkpt lat="37.1367935" lon="139.9678384"><ele>1870.45</ele><time>2024-08-03T02:09:14Z</time></trkpt><trkpt lat="37.136744" lon="139.9680645"><ele>1876.5100000000002</ele><time>2024-08-03T02:10:58Z</time></trkpt><trkpt lat="37.1367195" lon="139.9678061"><ele>1878.5333333333335</ele><time>2024-08-03T02:21:01Z</time></trkpt><trkpt lat="37.1367736" lon="139.967577"><ele>1877.3666666666668</ele><time>2024-08-03T02:21:21Z</time></trkpt><trkpt lat="37.1367878" lon="139.9673502"><ele>1870.8366666666668</ele><time>2024-08-03T02:21:56Z</time></trkpt><trkpt lat="37.1367982" lon="139.9671212"><ele>1866.1933333333334</ele><time>2024-08-03T02:22:24Z</time></trkpt><trkpt lat="37.1368353" lon="139.966892"><ele>1862.0166666666667</ele><time>2024-08-03T02:22:44Z</time></trkpt><trkpt lat="37.1368857" lon="139.9666472"><ele>1858.03</ele><time>2024-08-03T02:23:26Z</time></trkpt><trkpt lat="37.1369631" lon="139.9664354"><ele>1853.6933333333334</ele><time>2024-08-03T02:23:41Z</time></trkpt><trkpt lat="37.1370181" lon="139.9661846"><ele>1850.0</ele><time>2024-08-03T02:24:00Z</time></trkpt><trkpt lat="37.1371386" lon="139.9659883"><ele>1846.4399999999998</ele><time>2024-08-03T02:24:29Z</time></trkpt><trkpt lat="37.1373368" lon="139.9659788"><ele>1843.6200000000001</ele><time>2024-08-03T02:24:45Z</time></trkpt><trkpt lat="37.1374898" lon="139.9658132"><ele>1840.6233333333332</ele><time>2024-08-03T02:24:59Z</time></trkpt><trkpt lat="37.1376564" lon="139.9656917"><ele>1839.4033333333334</ele><time>2024-08-03T02:25:35Z</time></trkpt><trkpt lat="37.1378308" lon="139.9656015"><ele>1840.2166666666665</ele><time>2024-08-03T02:26:00Z</time></trkpt><trkpt lat="37.1380121" lon="139.9656667"><ele>1840.8333333333333</ele><time>2024-08-03T02:26:23Z</time></trkpt><trkpt lat="37.1381029" lon="139.9654512"><ele>1844.1966666666667</ele><time>2024-08-03T02:26:45Z</time></trkpt><trkpt lat="37.1382546" lon="139.965299"><ele>1848.676666666667</ele><time>2024-08-03T02:27:23Z</time></trkpt><trkpt lat="37.1383761" lon="139.9651213"><ele>1855.2533333333333</ele><time>2024-08-03T02:29:06Z</time></trkpt><trkpt lat="37.1384741" lon="139.9649316"><ele>1858.926666666667</ele><time>2024-08-03T02:29:57Z</time></trkpt><trkpt lat="37.1386734" lon="139.9648789"><ele>1859.6233333333337</ele><time>2024-08-03T02:32:22Z</time></trkpt><trkpt lat="37.1387787" lon="139.9646942"><ele>1859.1266666666668</ele><time>2024-08-03T02:32:52Z</time></trkpt><trkpt lat="37.1389569" lon="139.9645976"><ele>1860.38</ele><time>2024-08-03T02:33:13Z</time></trkpt><trkpt lat="37.1390265" lon="139.9643588"><ele>1863.3766666666668</ele><time>2024-08-03T02:33:37Z</time></trkpt><trkpt lat="37.1390974" lon="139.9641297"><ele>1867.0233333333333</ele><time>2024-08-03T02:34:37Z</time></trkpt><trkpt lat="37.1392593" lon="139.9642294"><ele>1869.8433333333332</ele><time>2024-08-03T02:35:32Z</time></trkpt><trkpt lat="37.13946" lon="139.9642902"><ele>1871.3633333333335</ele><time>2024-08-03T02:37:20Z</time></trkpt><trkpt lat="37.1396414" lon="139.9644375"><ele>1871.8366666666668</ele><time>2024-08-03T02:37:45Z</time></trkpt><trkpt lat="37.1398053" lon="139.9645658"><ele>1872.63</ele><time>2024-08-03T02:38:32Z</time></trkpt><trkpt lat="37.139892" lon="139.9647861"><ele>1874.64</ele><time>2024-08-03T02:39:15Z</time></trkpt><trkpt lat="37.140073" lon="139.9647946"><ele>1878.7633333333335</ele><time>2024-08-03T02:40:02Z</time></trkpt><trkpt lat="37.1402842" lon="139.9648199"><ele>1882.7666666666667</ele><time>2024-08-03T02:40:27Z</time></trkpt><trkpt lat="37.1404582" lon="139.964962"><ele>1886.7633333333333</ele><time>2024-08-03T02:41:08Z</time></trkpt><trkpt lat="37.1405964" lon="139.965117"><ele>1890.6133333333335</ele><time>2024-08-03T02:41:32Z</time></trkpt><trkpt lat="37.1407775" lon="139.9651615"><ele>1893.4666666666665</ele><time>2024-08-03T02:42:36Z</time></trkpt><trkpt lat="37.1408877" lon="139.9653675"><ele>1895.2966666666669</ele><time>2024-08-03T02:43:53Z</time></trkpt><trkpt lat="37.1410423" lon="139.9655493"><ele>1893.5666666666666</ele><time>2024-08-03T02:44:14Z</time></trkpt><trkpt lat="37.1410566" lon="139.9657936"><ele>1891.8433333333335</ele><time>2024-08-03T02:44:36Z</time></trkpt><trkpt lat="37.1411509" lon="139.9659932"><ele>1888.8166666666668</ele><time>2024-08-03T02:44:50Z</time></trkpt><trkpt lat="37.1412133" lon="139.966209"><ele>1887.0</ele><time>2024-08-03T02:45:15Z</time></trkpt><trkpt lat="37.1411303" lon="139.965962"><ele>1886.1366666666665</ele><time>2024-08-03T02:48:24Z</time></trkpt><trkpt lat="37.1410703" lon="139.9657404"><ele>1887.2233333333334</ele><time>2024-08-03T02:48:48Z</time></trkpt><trkpt lat="37.1410149" lon="139.9655078"><ele>1889.9666666666665</ele><time>2024-08-03T02:49:11Z</time></trkpt><trkpt lat="37.1408833" lon="139.965323"><ele>1892.7700000000002</ele><time>2024-08-03T02:49:31Z</time></trkpt><trkpt lat="37.1407269" lon="139.9651788"><ele>1895.07</ele><time>2024-08-03T02:50:21Z</time></trkpt><trkpt lat="37.1405493" lon="139.9650294"><ele>1895.2700000000002</ele><time>2024-08-03T02:51:50Z</time></trkpt><trkpt lat="37.1404333" lon="139.9648511"><ele>1892.4300000000003</ele><time>2024-08-03T02:52:11Z</time></trkpt><trkpt lat="37.1402529" lon="139.9647975"><ele>1888.6533333333334</ele><time>2024-08-03T02:52:45Z</time></trkpt><trkpt lat="37.1400735" lon="139.9647305"><ele>1884.8100000000002</ele><time>2024-08-03T02:53:15Z</time></trkpt><trkpt lat="37.1398633" lon="139.9647479"><ele>1881.8233333333335</ele><time>2024-08-03T02:53:39Z</time></trkpt><trkpt lat="37.1396726" lon="139.9646581"><ele>1878.1266666666668</ele><time>2024-08-03T02:54:31Z</time></trkpt><trkpt lat="37.1395969" lon="139.9644372"><ele>1874.6000000000001</ele><time>2024-08-03T02:54:43Z</time></trkpt><trkpt lat="37.139481" lon="139.9642315"><ele>1872.1533333333334</ele><time>2024-08-03T02:55:06Z</time></trkpt><trkpt lat="37.1392814" lon="139.9641852"><ele>1871.2300000000002</ele><time>2024-08-03T02:55:29Z</time></trkpt><trkpt lat="37.1391139" lon="139.9642817"><ele>1871.33</ele><time>2024-08-03T02:56:02Z</time></trkpt><trkpt lat="37.1389106" lon="139.9643493"><ele>1869.0</ele><time>2024-08-03T02:56:26Z</time></trkpt><trkpt lat="37.1389056" lon="139.9645988"><ele>1866.3500000000001</ele><time>2024-08-03T02:57:02Z</time></trkpt><trkpt lat="37.138764" lon="139.9647756"><ele>1861.3166666666668</ele><time>2024-08-03T02:57:17Z</time></trkpt><trkpt lat="37.1385845" lon="139.964906"><ele>1859.92</ele><time>2024-08-03T02:57:41Z</time></trkpt><trkpt lat="37.1384962" lon="139.9651052"><ele>1858.4166666666667</ele><time>2024-08-03T02:58:04Z</time></trkpt><trkpt lat="37.1383039" lon="139.9651329"><ele>1859.7733333333335</ele><time>2024-08-03T02:58:56Z</time></trkpt><trkpt lat="37.1382036" lon="139.9653262"><ele>1857.4966666666667</ele><time>2024-08-03T02:59:35Z</time></trkpt><trkpt lat="37.1380456" lon="139.9654589"><ele>1853.7733333333335</ele><time>2024-08-03T03:00:02Z</time></trkpt><trkpt lat="37.1378414" lon="139.9655529"><ele>1847.9333333333334</ele><time>2024-08-03T03:00:17Z</time></trkpt><trkpt lat="37.1376559" lon="139.9656699"><ele>1843.2333333333333</ele><time>2024-08-03T03:00:45Z</time></trkpt><trkpt lat="37.1375113" lon="139.9658166"><ele>1839.95</ele><time>2024-08-03T03:01:03Z</time></trkpt><trkpt lat="37.1373249" lon="139.9658426"><ele>1839.3499999999997</ele><time>2024-08-03T03:01:21Z</time></trkpt><trkpt lat="37.137129" lon="139.9657668"><ele>1839.39</ele><time>2024-08-03T03:01:48Z</time></trkpt><trkpt lat="37.1370267" lon="139.965569"><ele>1836.7933333333333</ele><time>2024-08-03T03:02:29Z</time></trkpt><trkpt lat="37.1368537" lon="139.9654734"><ele>1829.8633333333335</ele><time>2024-08-03T03:03:26Z</time></trkpt><trkpt lat="37.1366645" lon="139.9653984"><ele>1820.1766666666665</ele><time>2024-08-03T03:04:56Z</time></trkpt><trkpt lat="37.1364784" lon="139.9653443"><ele>1811.1166666666668</ele><time>2024-08-03T03:05:59Z</time></trkpt><trkpt lat="37.1363263" lon="139.9654713"><ele>1807.493333333333</ele><time>2024-08-03T03:06:21Z</time></trkpt><trkpt lat="37.1361297" lon="139.9653818"><ele>1805.4133333333332</ele><time>2024-08-03T03:07:47Z</time></trkpt><trkpt lat="37.135957" lon="139.9654615"><ele>1810.4866666666667</ele><time>2024-08-03T03:08:12Z</time></trkpt><trkpt lat="37.1357795" lon="139.9653992"><ele>1813.33</ele><time>2024-08-03T03:09:03Z</time></trkpt><trkpt lat="37.1355983" lon="139.9652792"><ele>1814.1266666666668</ele><time>2024-08-03T03:10:18Z</time></trkpt><trkpt lat="37.1354879" lon="139.9650955"><ele>1808.3633333333335</ele><time>2024-08-03T03:10:35Z</time></trkpt><trkpt lat="37.1355434" lon="139.9648563"><ele>1798.39</ele><time>2024-08-03T03:11:54Z</time></trkpt><trkpt lat="37.1353459" lon="139.9648834"><ele>1794.3266666666668</ele><time>2024-08-03T03:12:32Z</time></trkpt><trkpt lat="37.1351938" lon="139.9647301"><ele>1788.4533333333336</ele><time>2024-08-03T03:13:02Z</time></trkpt><trkpt lat="37.1350759" lon="139.9649515"><ele>1785.9066666666668</ele><time>2024-08-03T03:13:53Z</time></trkpt><trkpt lat="37.1349884" lon="139.9646803"><ele>1779.5333333333335</ele><time>2024-08-03T03:14:15Z</time></trkpt><trkpt lat="37.1349567" lon="139.9644498"><ele>1774.7633333333335</ele><time>2024-08-03T03:14:53Z</time></trkpt><trkpt lat="37.1347669" lon="139.964527"><ele>1768.8766666666668</ele><time>2024-08-03T03:15:11Z</time></trkpt><trkpt lat="37.1346162" lon="139.9644026"><ele>1761.88</ele><time>2024-08-03T03:17:42Z</time></trkpt><trkpt lat="37.1344828" lon="139.9642447"><ele>1752.7333333333336</ele><time>2024-08-03T03:18:54Z</time></trkpt><trkpt lat="37.134359" lon="139.9640791"><ele>1743.5200000000002</ele><time>2024-08-03T03:19:20Z</time></trkpt><trkpt lat="37.1342257" lon="139.963902"><ele>1736.17</ele><time>2024-08-03T03:19:51Z</time></trkpt><trkpt lat="37.1340345" lon="139.9638516"><ele>1735.16</ele><time>2024-08-03T03:20:03Z</time></trkpt><trkpt lat="37.1338533" lon="139.9639689"><ele>1738.2866666666669</ele><time>2024-08-03T03:20:45Z</time></trkpt><trkpt lat="37.1336601" lon="139.9639621"><ele>1742.8333333333333</ele><time>2024-08-03T03:21:03Z</time></trkpt><trkpt lat="37.1334586" lon="139.9639526"><ele>1745.5033333333333</ele><time>2024-08-03T03:21:24Z</time></trkpt><trkpt lat="37.1333044" lon="139.9640711"><ele>1746.9233333333334</ele><time>2024-08-03T03:21:42Z</time></trkpt><trkpt lat="37.1332692" lon="139.9643018"><ele>1743.7333333333336</ele><time>2024-08-03T03:22:11Z</time></trkpt><trkpt lat="37.1330995" lon="139.9643866"><ele>1738.9966666666667</ele><time>2024-08-03T03:22:26Z</time></trkpt><trkpt lat="37.1329837" lon="139.9642085"><ele>1735.8</ele><time>2024-08-03T03:22:46Z</time></trkpt><trkpt lat="37.1328449" lon="139.9640583"><ele>1739.1166666666668</ele><time>2024-08-03T03:23:08Z</time></trkpt><trkpt lat="37.1326408" lon="139.9641137"><ele>1739.2366666666667</ele><time>2024-08-03T03:23:39Z</time></trkpt><trkpt lat="37.1324429" lon="139.964053"><ele>1736.0666666666666</ele><time>2024-08-03T03:23:59Z</time></trkpt><trkpt lat="37.1323202" lon="139.9638626"><ele>1729.25</ele><time>2024-08-03T03:24:24Z</time></trkpt><trkpt lat="37.1322486" lon="139.963634"><ele>1728.6599999999999</ele><time>2024-08-03T03:24:59Z</time></trkpt><trkpt lat="37.132059" lon="139.9636156"><ele>1729.9899999999998</ele><time>2024-08-03T03:25:17Z</time></trkpt><trkpt lat="37.1318644" lon="139.9635883"><ele>1733.66</ele><time>2024-08-03T03:25:36Z</time></trkpt><trkpt lat="37.1317553" lon="139.9633981"><ele>1734.8433333333332</ele><time>2024-08-03T03:25:54Z</time></trkpt><trkpt lat="37.1317124" lon="139.9631759"><ele>1735.4066666666668</ele><time>2024-08-03T03:26:15Z</time></trkpt><trkpt lat="37.1315394" lon="139.9630693"><ele>1733.4233333333334</ele><time>2024-08-03T03:26:36Z</time></trkpt><trkpt lat="37.1314108" lon="139.9628847"><ele>1730.7300000000002</ele><time>2024-08-03T03:26:50Z</time></trkpt><trkpt lat="37.1314295" lon="139.9626225"><ele>1727.9766666666667</ele><time>2024-08-03T03:27:12Z</time></trkpt><trkpt lat="37.1313099" lon="139.9624507"><ele>1724.5199999999998</ele><time>2024-08-03T03:27:33Z</time></trkpt><trkpt lat="37.1310999" lon="139.9624581"><ele>1723.3200000000004</ele><time>2024-08-03T03:27:47Z</time></trkpt><trkpt lat="37.1309356" lon="139.9623478"><ele>1722.0500000000002</ele><time>2024-08-03T03:28:02Z</time></trkpt><trkpt lat="37.1307488" lon="139.96224"><ele>1722.7233333333334</ele><time>2024-08-03T03:28:21Z</time></trkpt><trkpt lat="37.1306206" lon="139.9624178"><ele>1720.42</ele><time>2024-08-03T03:32:18Z</time></trkpt><trkpt lat="37.1305896" lon="139.9621912"><ele>1721.5666666666666</ele><time>2024-08-03T03:33:09Z</time></trkpt><trkpt lat="37.1304511" lon="139.9620198"><ele>1724.8499999999997</ele><time>2024-08-03T03:33:32Z</time></trkpt><trkpt lat="37.130338" lon="139.9618396"><ele>1731.3533333333332</ele><time>2024-08-03T03:33:59Z</time></trkpt><trkpt lat="37.1301617" lon="139.9617298"><ele>1735.4099999999999</ele><time>2024-08-03T03:34:38Z</time></trkpt><trkpt lat="37.1300575" lon="139.9615125"><ele>1739.4133333333332</ele><time>2024-08-03T03:34:59Z</time></trkpt><trkpt lat="37.1299256" lon="139.9613583"><ele>1740.62</ele><time>2024-08-03T03:35:30Z</time></trkpt><trkpt lat="37.1298837" lon="139.9616143"><ele>1742.5666666666668</ele><time>2024-08-03T03:35:35Z</time></trkpt><trkpt lat="37.1297523" lon="139.9617727"><ele>1743.3100000000002</ele><time>2024-08-03T03:35:50Z</time></trkpt><trkpt lat="37.1296227" lon="139.961948"><ele>1745.92</ele><time>2024-08-03T03:36:17Z</time></trkpt><trkpt lat="37.1294464" lon="139.96203"><ele>1748.1466666666668</ele><time>2024-08-03T03:36:50Z</time></trkpt><trkpt lat="37.1292546" lon="139.9619976"><ele>1751.0200000000002</ele><time>2024-08-03T03:38:39Z</time></trkpt><trkpt lat="37.1290898" lon="139.9621284"><ele>1755.21</ele><time>2024-08-03T03:39:36Z</time></trkpt><trkpt lat="37.1289296" lon="139.9622395"><ele>1759.8966666666668</ele><time>2024-08-03T03:39:59Z</time></trkpt><trkpt lat="37.1287595" lon="139.9621441"><ele>1764.2</ele><time>2024-08-03T03:40:51Z</time></trkpt><trkpt lat="37.1287274" lon="139.9624067"><ele>1769.01</ele><time>2024-08-03T03:41:14Z</time></trkpt><trkpt lat="37.1287339" lon="139.9626363"><ele>1773.9733333333334</ele><time>2024-08-03T03:42:09Z</time></trkpt><trkpt lat="37.1285846" lon="139.9628111"><ele>1780.5766666666666</ele><time>2024-08-03T03:43:12Z</time></trkpt><trkpt lat="37.1283973" lon="139.9628892"><ele>1785.3433333333332</ele><time>2024-08-03T03:43:48Z</time></trkpt><trkpt lat="37.1282666" lon="139.9630498"><ele>1789.3066666666666</ele><time>2024-08-03T03:44:54Z</time></trkpt><trkpt lat="37.1281354" lon="139.9632157"><ele>1792.8633333333335</ele><time>2024-08-03T03:45:21Z</time></trkpt><trkpt lat="37.1281446" lon="139.9634707"><ele>1796.2766666666666</ele><time>2024-08-03T03:45:51Z</time></trkpt><trkpt lat="37.1281351" lon="139.9637334"><ele>1798.5733333333335</ele><time>2024-08-03T03:46:08Z</time></trkpt><trkpt lat="37.1281216" lon="139.9639619"><ele>1798.7399999999998</ele><time>2024-08-03T03:46:29Z</time></trkpt><trkpt lat="37.1279627" lon="139.9641027"><ele>1800.26</ele><time>2024-08-03T03:47:00Z</time></trkpt><trkpt lat="37.1278425" lon="139.9642801"><ele>1803.1833333333332</ele><time>2024-08-03T03:47:29Z</time></trkpt><trkpt lat="37.127712" lon="139.9644394"><ele>1807.86</ele><time>2024-08-03T03:48:08Z</time></trkpt><trkpt lat="37.1275728" lon="139.9646277"><ele>1812.0866666666668</ele><time>2024-08-03T03:48:39Z</time></trkpt><trkpt lat="37.1273991" lon="139.9647562"><ele>1817.6533333333334</ele><time>2024-08-03T03:49:27Z</time></trkpt><trkpt lat="37.127281" lon="139.9649408"><ele>1821.6166666666668</ele><time>2024-08-03T03:50:21Z</time></trkpt><trkpt lat="37.1271606" lon="139.9651089"><ele>1825.1299999999999</ele><time>2024-08-03T03:51:24Z</time></trkpt><trkpt lat="37.1269715" lon="139.9651483"><ele>1828.0566666666666</ele><time>2024-08-03T03:51:55Z</time></trkpt><trkpt lat="37.1268052" lon="139.9652527"><ele>1831.75</ele><time>2024-08-03T03:52:53Z</time></trkpt><trkpt lat="37.1265728" lon="139.9653004"><ele>1838.32</ele><time>2024-08-03T03:53:47Z</time></trkpt><trkpt lat="37.1263847" lon="139.9653713"><ele>1843.0966666666666</ele><time>2024-08-03T03:54:45Z</time></trkpt><trkpt lat="37.1261809" lon="139.9654761"><ele>1847.53</ele><time>2024-08-03T03:55:41Z</time></trkpt><trkpt lat="37.1260402" lon="139.9653289"><ele>1851.1233333333332</ele><time>2024-08-03T03:57:59Z</time></trkpt><trkpt lat="37.1259447" lon="139.9651211"><ele>1859.3666666666668</ele><time>2024-08-03T03:59:53Z</time></trkpt><trkpt lat="37.1258835" lon="139.9649048"><ele>1869.2033333333331</ele><time>2024-08-03T04:01:11Z</time></trkpt><trkpt lat="37.1257374" lon="139.9647273"><ele>1878.03</ele><time>2024-08-03T04:01:41Z</time></trkpt><trkpt lat="37.1257964" lon="139.9644922"><ele>1882.2566666666664</ele><time>2024-08-03T04:02:40Z</time></trkpt><trkpt lat="37.125806" lon="139.9642585"><ele>1884.5233333333333</ele><time>2024-08-03T04:03:34Z</time></trkpt><trkpt lat="37.1258934" lon="139.9640307"><ele>1885.71</ele><time>2024-08-03T04:03:52Z</time></trkpt><trkpt lat="37.1258798" lon="139.9638011"><ele>1886.3400000000001</ele><time>2024-08-03T04:04:10Z</time></trkpt><trkpt lat="37.1260357" lon="139.9636425"><ele>1888.096666666667</ele><time>2024-08-03T04:04:43Z</time></trkpt><trkpt lat="37.1261488" lon="139.9634361"><ele>1890.0766666666668</ele><time>2024-08-03T04:05:13Z</time></trkpt><trkpt lat="37.1261628" lon="139.9631962"><ele>1891.3833333333334</ele><time>2024-08-03T04:05:37Z</time></trkpt><trkpt lat="37.1262694" lon="139.9630028"><ele>1892.4466666666667</ele><time>2024-08-03T04:06:04Z</time></trkpt><trkpt lat="37.1262272" lon="139.9627591"><ele>1891.9866666666667</ele><time>2024-08-03T04:06:22Z</time></trkpt><trkpt lat="37.1260547" lon="139.9626397"><ele>1892.2766666666666</ele><time>2024-08-03T04:08:43Z</time></trkpt><trkpt lat="37.1259066" lon="139.9625098"><ele>1891.9033333333334</ele><time>2024-08-03T04:09:16Z</time></trkpt><trkpt lat="37.1257117" lon="139.962497"><ele>1892.3333333333333</ele><time>2024-08-03T04:09:58Z</time></trkpt><trkpt lat="37.1255185" lon="139.9625272"><ele>1893.46</ele><time>2024-08-03T04:10:38Z</time></trkpt><trkpt lat="37.1253153" lon="139.9624785"><ele>1895.6133333333335</ele><time>2024-08-03T04:11:34Z</time></trkpt><trkpt lat="37.1251922" lon="139.9626461"><ele>1899.3966666666668</ele><time>2024-08-03T04:12:34Z</time></trkpt><trkpt lat="37.1250238" lon="139.9627511"><ele>1903.96</ele><time>2024-08-03T04:13:34Z</time></trkpt><trkpt lat="37.1248496" lon="139.9628629"><ele>1908.1133333333335</ele><time>2024-08-03T04:15:13Z</time></trkpt><trkpt lat="37.1248773" lon="139.9631173"><ele>1910.676666666667</ele><time>2024-08-03T04:17:01Z</time></trkpt><trkpt lat="37.1248603" lon="139.9628732"><ele>1911.7133333333334</ele><time>2024-08-03T04:20:16Z</time></trkpt><trkpt lat="37.1249185" lon="139.9630995"><ele>1911.8266666666666</ele><time>2024-08-03T04:24:28Z</time></trkpt><trkpt lat="37.1247377" lon="139.9630993"><ele>1911.2300000000002</ele><time>2024-08-03T04:25:28Z</time></trkpt><trkpt lat="37.1248211" lon="139.9633057"><ele>1911.2066666666667</ele><time>2024-08-03T04:25:55Z</time></trkpt><trkpt lat="37.1246647" lon="139.9634475"><ele>1908.7333333333336</ele><time>2024-08-03T04:26:19Z</time></trkpt><trkpt lat="37.1246677" lon="139.9636854"><ele>1905.9000000000003</ele><time>2024-08-03T04:26:37Z</time></trkpt><trkpt lat="37.1248261" lon="139.963843"><ele>1903.006666666667</ele><time>2024-08-03T04:26:58Z</time></trkpt><trkpt lat="37.1248957" lon="139.9640942"><ele>1900.78</ele><time>2024-08-03T04:27:31Z</time></trkpt><trkpt lat="37.1250751" lon="139.9642283"><ele>1897.9066666666668</ele><time>2024-08-03T04:27:46Z</time></trkpt><trkpt lat="37.1251093" lon="139.9644595"><ele>1894.93</ele><time>2024-08-03T04:28:01Z</time></trkpt><trkpt lat="37.1249936" lon="139.9646641"><ele>1893.9866666666667</ele><time>2024-08-03T04:28:34Z</time></trkpt><trkpt lat="37.1251923" lon="139.9647088"><ele>1893.7700000000002</ele><time>2024-08-03T04:29:16Z</time></trkpt><trkpt lat="37.1252663" lon="139.964934"><ele>1892.0500000000002</ele><time>2024-08-03T04:30:13Z</time></trkpt><trkpt lat="37.1254225" lon="139.9650689"><ele>1887.95</ele><time>2024-08-03T04:30:46Z</time></trkpt><trkpt lat="37.1254903" lon="139.9652793"><ele>1882.5200000000002</ele><time>2024-08-03T04:31:28Z</time></trkpt><trkpt lat="37.1256174" lon="139.96544"><ele>1874.966666666667</ele><time>2024-08-03T04:33:07Z</time></trkpt><trkpt lat="37.1255886" lon="139.9656882"><ele>1864.2266666666667</ele><time>2024-08-03T04:35:04Z</time></trkpt><trkpt lat="37.1254083" lon="139.9656925"><ele>1856.9366666666667</ele><time>2024-08-03T04:39:22Z</time></trkpt><trkpt lat="37.125234" lon="139.9657952"><ele>1851.13</ele><time>2024-08-03T04:39:58Z</time></trkpt><trkpt lat="37.1250415" lon="139.9657305"><ele>1851.6000000000001</ele><time>2024-08-03T04:40:19Z</time></trkpt><trkpt lat="37.1250025" lon="139.9659577"><ele>1846.2666666666667</ele><time>2024-08-03T04:40:55Z</time></trkpt><trkpt lat="37.1248097" lon="139.9660511"><ele>1840.7666666666667</ele><time>2024-08-03T04:41:55Z</time></trkpt><trkpt lat="37.1246561" lon="139.9662075"><ele>1829.7</ele><time>2024-08-03T04:43:01Z</time></trkpt><trkpt lat="37.1245744" lon="139.9664093"><ele>1820.71</ele><time>2024-08-03T04:44:25Z</time></trkpt><trkpt lat="37.1245424" lon="139.9666984"><ele>1811.62</ele><time>2024-08-03T04:45:58Z</time></trkpt><trkpt lat="37.1245952" lon="139.9669261"><ele>1804.9066666666665</ele><time>2024-08-03T04:46:13Z</time></trkpt><trkpt lat="37.1244165" lon="139.9669576"><ele>1800.3866666666665</ele><time>2024-08-03T04:47:07Z</time></trkpt><trkpt lat="37.1243355" lon="139.9671677"><ele>1796.4099999999999</ele><time>2024-08-03T04:48:16Z</time></trkpt><trkpt lat="37.1242162" lon="139.9673409"><ele>1792.176666666667</ele><time>2024-08-03T04:49:10Z</time></trkpt><trkpt lat="37.1240549" lon="139.9674617"><ele>1786.006666666667</ele><time>2024-08-03T04:50:04Z</time></trkpt><trkpt lat="37.1239124" lon="139.9676578"><ele>1778.36</ele><time>2024-08-03T04:50:33Z</time></trkpt><trkpt lat="37.1238751" lon="139.9678903"><ele>1772.0333333333335</ele><time>2024-08-03T04:51:00Z</time></trkpt><trkpt lat="37.1236988" lon="139.9679766"><ele>1765.46</ele><time>2024-08-03T04:51:20Z</time></trkpt><trkpt lat="37.1236913" lon="139.9682605"><ele>1761.0566666666666</ele><time>2024-08-03T04:51:34Z</time></trkpt><trkpt lat="37.1235635" lon="139.9684258"><ele>1755.8566666666666</ele><time>2024-08-03T04:51:43Z</time></trkpt><trkpt lat="37.1234945" lon="139.9686637"><ele>1750.9833333333333</ele><time>2024-08-03T04:52:01Z</time></trkpt><trkpt lat="37.1233129" lon="139.9687894"><ele>1744.8566666666666</ele><time>2024-08-03T04:52:40Z</time></trkpt><trkpt lat="37.1232427" lon="139.96902"><ele>1738.6433333333334</ele><time>2024-08-03T04:53:13Z</time></trkpt><trkpt lat="37.1231436" lon="139.969224"><ele>1732.4666666666665</ele><time>2024-08-03T04:53:40Z</time></trkpt><trkpt lat="37.1229866" lon="139.9693914"><ele>1726.22</ele><time>2024-08-03T04:54:19Z</time></trkpt><trkpt lat="37.122983" lon="139.9696578"><ele>1720.0833333333333</ele><time>2024-08-03T04:54:46Z</time></trkpt><trkpt lat="37.1227967" lon="139.9697248"><ele>1713.9533333333336</ele><time>2024-08-03T04:56:58Z</time></trkpt><trkpt lat="37.12263" lon="139.9698761"><ele>1707.74</ele><time>2024-08-03T04:57:13Z</time></trkpt><trkpt lat="37.1228678" lon="139.9698708"><ele>1704.8966666666665</ele><time>2024-08-03T04:57:19Z</time></trkpt><trkpt lat="37.1228396" lon="139.9701016"><ele>1702.5133333333333</ele><time>2024-08-03T04:57:37Z</time></trkpt><trkpt lat="37.1229206" lon="139.9703432"><ele>1699.9933333333336</ele><time>2024-08-03T04:57:55Z</time></trkpt><trkpt lat="37.1230761" lon="139.9704596"><ele>1693.7399999999998</ele><time>2024-08-03T04:58:16Z</time></trkpt><trkpt lat="37.1232649" lon="139.9703198"><ele>1690.4099999999999</ele><time>2024-08-03T04:58:28Z</time></trkpt><trkpt lat="37.1234289" lon="139.9704392"><ele>1688.8633333333335</ele><time>2024-08-03T04:58:43Z</time></trkpt><trkpt lat="37.1236235" lon="139.9704326"><ele>1689.7933333333333</ele><time>2024-08-03T04:58:58Z</time></trkpt><trkpt lat="37.1236866" lon="139.9706673"><ele>1686.7866666666669</ele><time>2024-08-03T04:59:25Z</time></trkpt><trkpt lat="37.1238623" lon="139.9707462"><ele>1684.33</ele><time>2024-08-03T04:59:40Z</time></trkpt><trkpt lat="37.1240117" lon="139.970923"><ele>1681.3500000000001</ele><time>2024-08-03T04:59:58Z</time></trkpt></trkseg></trk></gpx>