<?xml version='1.0' encoding='UTF-8'?><gpx creator="YAMAP - https://yamap.com" xsi:schemaLocation="http://www.topografix.com/GPX/1/1 http://www.topografix.com/GPX/1/1/gpx.xsd" version="1.1" xmlns="http://www.topografix.com/GPX/1/1" xmlns:xsi="http://www.w3.org/2001/XMLSchema-instance"><metadata><bounds maxlat="35.8298543" maxlon="139.0969717" minlat="35.7944876" minlon="138.998281"/></metadata><trk><name>峰谷から鷹ノ巣山</name><number>1</number><trkseg><trkpt lat="35.7944876" lon="139.0016727"><ele>601.83</ele><time>2025-05-02T23:33:07Z</time></trkpt><trkpt lat="35.7946688" lon="139.0015485"><ele>598.635</ele><time>2025-05-02T23:33:22Z</time></trkpt><trkpt lat="35.7947759" lon="139.0017326"><ele>595.4333333333333</ele><time>2025-05-02T23:33:33Z</time></trkpt><trkpt lat="35.7947542" lon="139.0014931"><ele>592.75</ele><time>2025-05-02T23:34:52Z</time></trkpt><trkpt lat="35.7948424" lon="139.0012464"><ele>591.87</ele><time>2025-05-02T23:35:10Z</time></trkpt><trkpt lat="35.7948927" lon="139.0010286"><ele>594.8733333333333</ele><time>2025-05-02T23:35:27Z</time></trkpt><trkpt lat="35.7949772" lon="139.0008324"><ele>597.0966666666667</ele><time>2025-05-02T23:35:45Z</time></trkpt><trkpt lat="35.7950958" lon="139.0006625"><ele>598.8633333333333</ele><time>2025-05-02T23:35:58Z</time></trkpt><trkpt lat="35.7952228" lon="139.0004453"><ele>599.5500000000001</ele><time>2025-05-02T23:36:13Z</time></trkpt><trkpt lat="35.7953912" lon="139.0002893"><ele>599.89</ele><time>2025-05-02T23:36:28Z</time></trkpt><trkpt lat="35.7955419" lon="139.0001284"><ele>599.5033333333334</ele><time>2025-05-02T23:36:43Z</time></trkpt><trkpt lat="35.7957102" lon="138.9999979"><ele>598.0500000000001</ele><time>2025-05-02T23:37:19Z</time></trkpt><trkpt lat="35.7958972" lon="139.0000441"><ele>595.0166666666668</ele><time>2025-05-02T23:37:30Z</time></trkpt><trkpt lat="35.7960901" lon="139.0000648"><ele>592.1733333333333</ele><time>2025-05-02T23:37:43Z</time></trkpt><trkpt lat="35.7962969" lon="139.0000517"><ele>590.3000000000001</ele><time>2025-05-02T23:37:57Z</time></trkpt><trkpt lat="35.7965149" lon="139.0000287"><ele>589.3066666666667</ele><time>2025-05-02T23:38:12Z</time></trkpt><trkpt lat="35.7966614" lon="138.9998588"><ele>590.6133333333333</ele><time>2025-05-02T23:38:30Z</time></trkpt><trkpt lat="35.7967958" lon="138.9996957"><ele>591.9333333333334</ele><time>2025-05-02T23:38:45Z</time></trkpt><trkpt lat="35.7968429" lon="138.9994506"><ele>597.5833333333334</ele><time>2025-05-02T23:39:00Z</time></trkpt><trkpt lat="35.7969335" lon="138.9991923"><ele>599.5466666666667</ele><time>2025-05-02T23:39:19Z</time></trkpt><trkpt lat="35.7969506" lon="138.9989198"><ele>604.86</ele><time>2025-05-02T23:39:31Z</time></trkpt><trkpt lat="35.797034" lon="138.9987109"><ele>606.51</ele><time>2025-05-02T23:39:46Z</time></trkpt><trkpt lat="35.7971924" lon="138.9985895"><ele>610.38</ele><time>2025-05-02T23:40:07Z</time></trkpt><trkpt lat="35.7972391" lon="138.9983755"><ele>611.2099999999999</ele><time>2025-05-02T23:40:19Z</time></trkpt><trkpt lat="35.7974363" lon="138.9983588"><ele>609.5666666666667</ele><time>2025-05-02T23:40:37Z</time></trkpt><trkpt lat="35.7976148" lon="138.9982863"><ele>609.34</ele><time>2025-05-02T23:40:52Z</time></trkpt><trkpt lat="35.7978069" lon="138.9982832"><ele>608.5866666666667</ele><time>2025-05-02T23:41:07Z</time></trkpt><trkpt lat="35.7979841" lon="138.9983711"><ele>609.7166666666667</ele><time>2025-05-02T23:41:22Z</time></trkpt><trkpt lat="35.7981645" lon="138.998435"><ele>607.88</ele><time>2025-05-02T23:41:39Z</time></trkpt><trkpt lat="35.7983563" lon="138.9985339"><ele>605.6833333333333</ele><time>2025-05-02T23:42:04Z</time></trkpt><trkpt lat="35.7985447" lon="138.9984263"><ele>605.92</ele><time>2025-05-02T23:42:19Z</time></trkpt><trkpt lat="35.7987321" lon="138.9985601"><ele>608.0433333333333</ele><time>2025-05-02T23:42:34Z</time></trkpt><trkpt lat="35.7989139" lon="138.9987002"><ele>611.57</ele><time>2025-05-02T23:42:49Z</time></trkpt><trkpt lat="35.7990502" lon="138.9988628"><ele>613.6466666666666</ele><time>2025-05-02T23:43:06Z</time></trkpt><trkpt lat="35.7992513" lon="138.9989937"><ele>616.1666666666666</ele><time>2025-05-02T23:43:31Z</time></trkpt><trkpt lat="35.7993967" lon="138.9991256"><ele>617.4633333333335</ele><time>2025-05-02T23:43:46Z</time></trkpt><trkpt lat="35.7995703" lon="138.9990356"><ele>617.35</ele><time>2025-05-02T23:44:04Z</time></trkpt><trkpt lat="35.7997443" lon="138.9989695"><ele>617.6933333333333</ele><time>2025-05-02T23:44:19Z</time></trkpt><trkpt lat="35.7999295" lon="138.9989088"><ele>618.4133333333333</ele><time>2025-05-02T23:44:34Z</time></trkpt><trkpt lat="35.8001409" lon="138.9988656"><ele>621.1766666666666</ele><time>2025-05-02T23:44:49Z</time></trkpt><trkpt lat="35.8003294" lon="138.998836"><ele>623.8633333333332</ele><time>2025-05-02T23:45:07Z</time></trkpt><trkpt lat="35.8005069" lon="138.9987694"><ele>626.71</ele><time>2025-05-02T23:45:22Z</time></trkpt><trkpt lat="35.800698" lon="138.9988539"><ele>629.5</ele><time>2025-05-02T23:45:37Z</time></trkpt><trkpt lat="35.800898" lon="138.9989493"><ele>633.0433333333334</ele><time>2025-05-02T23:45:58Z</time></trkpt><trkpt lat="35.8010805" lon="138.9990256"><ele>638.17</ele><time>2025-05-02T23:46:16Z</time></trkpt><trkpt lat="35.8012198" lon="138.9988385"><ele>638.4699999999999</ele><time>2025-05-02T23:46:34Z</time></trkpt><trkpt lat="35.8014217" lon="138.9987819"><ele>637.2099999999999</ele><time>2025-05-02T23:46:46Z</time></trkpt><trkpt lat="35.8016282" lon="138.9987675"><ele>633.9733333333334</ele><time>2025-05-02T23:47:01Z</time></trkpt><trkpt lat="35.8018498" lon="138.9986888"><ele>634.8000000000001</ele><time>2025-05-02T23:47:55Z</time></trkpt><trkpt lat="35.8019776" lon="138.9988682"><ele>636.5999999999999</ele><time>2025-05-02T23:48:07Z</time></trkpt><trkpt lat="35.8021685" lon="138.9988087"><ele>639.9633333333333</ele><time>2025-05-02T23:48:36Z</time></trkpt><trkpt lat="35.8022922" lon="138.9986043"><ele>643.4133333333333</ele><time>2025-05-02T23:49:06Z</time></trkpt><trkpt lat="35.8024633" lon="138.9984958"><ele>647.34</ele><time>2025-05-02T23:49:31Z</time></trkpt><trkpt lat="35.8024009" lon="138.998281"><ele>648.3966666666666</ele><time>2025-05-02T23:49:57Z</time></trkpt><trkpt lat="35.8025853" lon="138.9983548"><ele>651.2933333333334</ele><time>2025-05-02T23:52:34Z</time></trkpt><trkpt lat="35.8027675" lon="138.9984549"><ele>654.6266666666667</ele><time>2025-05-02T23:53:01Z</time></trkpt><trkpt lat="35.8029067" lon="138.9986219"><ele>662.2466666666668</ele><time>2025-05-02T23:53:19Z</time></trkpt><trkpt lat="35.8029365" lon="138.9988426"><ele>670.33</ele><time>2025-05-02T23:53:55Z</time></trkpt><trkpt lat="35.8027586" lon="138.9989569"><ele>681.8766666666667</ele><time>2025-05-02T23:54:24Z</time></trkpt><trkpt lat="35.8027106" lon="138.9991966"><ele>699.3666666666668</ele><time>2025-05-02T23:54:48Z</time></trkpt><trkpt lat="35.8025554" lon="138.9993309"><ele>710.1066666666667</ele><time>2025-05-02T23:55:16Z</time></trkpt><trkpt lat="35.8025753" lon="138.9995607"><ele>718.3566666666667</ele><time>2025-05-02T23:55:55Z</time></trkpt><trkpt lat="35.8025391" lon="138.9998986"><ele>717.3666666666667</ele><time>2025-05-02T23:56:36Z</time></trkpt><trkpt lat="35.80243" lon="139.0000976"><ele>715.1233333333333</ele><time>2025-05-02T23:57:09Z</time></trkpt><trkpt lat="35.8025336" lon="139.0003111"><ele>711.9033333333333</ele><time>2025-05-02T23:58:21Z</time></trkpt><trkpt lat="35.8026795" lon="139.0004487"><ele>713.4133333333333</ele><time>2025-05-02T23:58:42Z</time></trkpt><trkpt lat="35.8027895" lon="139.0006331"><ele>722.3299999999999</ele><time>2025-05-02T23:59:15Z</time></trkpt><trkpt lat="35.8028528" lon="139.000861"><ele>726.8933333333333</ele><time>2025-05-02T23:59:39Z</time></trkpt><trkpt lat="35.8030422" lon="139.00081"><ele>732.36</ele><time>2025-05-03T00:00:57Z</time></trkpt><trkpt lat="35.8032137" lon="139.0009014"><ele>739.2600000000001</ele><time>2025-05-03T00:01:27Z</time></trkpt><trkpt lat="35.8033839" lon="139.0010476"><ele>749.6066666666667</ele><time>2025-05-03T00:01:59Z</time></trkpt><trkpt lat="35.8035479" lon="139.0011812"><ele>757.1066666666667</ele><time>2025-05-03T00:02:24Z</time></trkpt><trkpt lat="35.8036832" lon="139.0013426"><ele>759.2833333333333</ele><time>2025-05-03T00:02:45Z</time></trkpt><trkpt lat="35.8038144" lon="139.0015176"><ele>760.89</ele><time>2025-05-03T00:03:11Z</time></trkpt><trkpt lat="35.8039741" lon="139.0016683"><ele>760.4166666666666</ele><time>2025-05-03T00:03:41Z</time></trkpt><trkpt lat="35.8041057" lon="139.0014896"><ele>764.2433333333333</ele><time>2025-05-03T00:04:03Z</time></trkpt><trkpt lat="35.8042497" lon="139.0013484"><ele>769.1266666666667</ele><time>2025-05-03T00:04:27Z</time></trkpt><trkpt lat="35.8044518" lon="139.001402"><ele>776.19</ele><time>2025-05-03T00:05:05Z</time></trkpt><trkpt lat="35.804624" lon="139.0015208"><ele>778.6766666666667</ele><time>2025-05-03T00:05:24Z</time></trkpt><trkpt lat="35.8048314" lon="139.0015186"><ele>781.0133333333333</ele><time>2025-05-03T00:06:15Z</time></trkpt><trkpt lat="35.8050251" lon="139.0016143"><ele>780.8433333333334</ele><time>2025-05-03T00:06:39Z</time></trkpt><trkpt lat="35.8052367" lon="139.0016186"><ele>785.3066666666667</ele><time>2025-05-03T00:07:03Z</time></trkpt><trkpt lat="35.8054149" lon="139.0015565"><ele>792.5766666666667</ele><time>2025-05-03T00:07:24Z</time></trkpt><trkpt lat="35.80561" lon="139.0015339"><ele>803.4</ele><time>2025-05-03T00:07:48Z</time></trkpt><trkpt lat="35.8057459" lon="139.0016822"><ele>812.9633333333335</ele><time>2025-05-03T00:08:05Z</time></trkpt><trkpt lat="35.8058316" lon="139.0019046"><ele>819.0866666666667</ele><time>2025-05-03T00:08:26Z</time></trkpt><trkpt lat="35.8058269" lon="139.0021441"><ele>817.8366666666667</ele><time>2025-05-03T00:08:52Z</time></trkpt><trkpt lat="35.8060274" lon="139.0021814"><ele>815.6666666666666</ele><time>2025-05-03T00:09:21Z</time></trkpt><trkpt lat="35.8062099" lon="139.0020937"><ele>818.2833333333333</ele><time>2025-05-03T00:10:30Z</time></trkpt><trkpt lat="35.8064046" lon="139.0020668"><ele>829.2166666666667</ele><time>2025-05-03T00:10:48Z</time></trkpt><trkpt lat="35.8065945" lon="139.0020924"><ele>843.04</ele><time>2025-05-03T00:11:11Z</time></trkpt><trkpt lat="35.8067167" lon="139.0023365"><ele>850.3133333333334</ele><time>2025-05-03T00:13:45Z</time></trkpt><trkpt lat="35.8068152" lon="139.0025317"><ele>854.0500000000001</ele><time>2025-05-03T00:14:08Z</time></trkpt><trkpt lat="35.8069777" lon="139.0026812"><ele>857.4966666666666</ele><time>2025-05-03T00:14:52Z</time></trkpt><trkpt lat="35.807136" lon="139.0028424"><ele>862.88</ele><time>2025-05-03T00:15:17Z</time></trkpt><trkpt lat="35.8073099" lon="139.0029649"><ele>869.06</ele><time>2025-05-03T00:15:43Z</time></trkpt><trkpt lat="35.807491" lon="139.0030147"><ele>873.2033333333334</ele><time>2025-05-03T00:16:07Z</time></trkpt><trkpt lat="35.8076446" lon="139.0031703"><ele>881.0066666666667</ele><time>2025-05-03T00:16:30Z</time></trkpt><trkpt lat="35.8076085" lon="139.0029301"><ele>886.3633333333333</ele><time>2025-05-03T00:17:02Z</time></trkpt><trkpt lat="35.8077871" lon="139.0030621"><ele>892.3466666666667</ele><time>2025-05-03T00:17:18Z</time></trkpt><trkpt lat="35.807919" lon="139.0032189"><ele>896.2533333333334</ele><time>2025-05-03T00:17:33Z</time></trkpt><trkpt lat="35.8079023" lon="139.0034715"><ele>900.9566666666666</ele><time>2025-05-03T00:17:54Z</time></trkpt><trkpt lat="35.80778" lon="139.0036564"><ele>901.4533333333334</ele><time>2025-05-03T00:18:12Z</time></trkpt><trkpt lat="35.8078311" lon="139.003869"><ele>902.07</ele><time>2025-05-03T00:18:33Z</time></trkpt><trkpt lat="35.808001" lon="139.0039743"><ele>904.6666666666666</ele><time>2025-05-03T00:18:54Z</time></trkpt><trkpt lat="35.8079416" lon="139.0037527"><ele>909.0466666666667</ele><time>2025-05-03T00:19:15Z</time></trkpt><trkpt lat="35.8079935" lon="139.0035159"><ele>910.0400000000001</ele><time>2025-05-03T00:19:39Z</time></trkpt><trkpt lat="35.8081224" lon="139.0033482"><ele>910.4866666666667</ele><time>2025-05-03T00:19:51Z</time></trkpt><trkpt lat="35.8081097" lon="139.0031067"><ele>910.8233333333334</ele><time>2025-05-03T00:20:02Z</time></trkpt><trkpt lat="35.8079978" lon="139.0028768"><ele>909.7700000000001</ele><time>2025-05-03T00:20:17Z</time></trkpt><trkpt lat="35.80791" lon="139.0026756"><ele>907.5233333333334</ele><time>2025-05-03T00:20:33Z</time></trkpt><trkpt lat="35.8078023" lon="139.002488"><ele>906.9733333333334</ele><time>2025-05-03T00:20:48Z</time></trkpt><trkpt lat="35.8076693" lon="139.0023051"><ele>909.6633333333333</ele><time>2025-05-03T00:21:03Z</time></trkpt><trkpt lat="35.8075044" lon="139.0021308"><ele>910.7800000000001</ele><time>2025-05-03T00:21:20Z</time></trkpt><trkpt lat="35.8075444" lon="139.0019145"><ele>915.48</ele><time>2025-05-03T00:21:39Z</time></trkpt><trkpt lat="35.8077246" lon="139.0020644"><ele>921.3833333333333</ele><time>2025-05-03T00:22:00Z</time></trkpt><trkpt lat="35.8078906" lon="139.0021649"><ele>929.1866666666666</ele><time>2025-05-03T00:22:14Z</time></trkpt><trkpt lat="35.8080852" lon="139.0022481"><ele>932.6666666666666</ele><time>2025-05-03T00:22:32Z</time></trkpt><trkpt lat="35.8081318" lon="139.002027"><ele>938.4866666666667</ele><time>2025-05-03T00:23:54Z</time></trkpt><trkpt lat="35.8079897" lon="139.0018413"><ele>942.8533333333335</ele><time>2025-05-03T00:24:30Z</time></trkpt><trkpt lat="35.8079492" lon="139.0016168"><ele>948.6733333333333</ele><time>2025-05-03T00:24:48Z</time></trkpt><trkpt lat="35.8078435" lon="139.001412"><ele>951.2866666666665</ele><time>2025-05-03T00:25:18Z</time></trkpt><trkpt lat="35.8077091" lon="139.0012319"><ele>954.9033333333333</ele><time>2025-05-03T00:25:47Z</time></trkpt><trkpt lat="35.8076009" lon="139.0010495"><ele>958.0099999999999</ele><time>2025-05-03T00:26:15Z</time></trkpt><trkpt lat="35.8075178" lon="139.0008299"><ele>961.5799999999999</ele><time>2025-05-03T00:26:39Z</time></trkpt><trkpt lat="35.8073961" lon="139.0006252"><ele>966.8433333333334</ele><time>2025-05-03T00:27:09Z</time></trkpt><trkpt lat="35.8072821" lon="139.0004439"><ele>971.5633333333334</ele><time>2025-05-03T00:27:32Z</time></trkpt><trkpt lat="35.80716" lon="139.000267"><ele>974.9866666666667</ele><time>2025-05-03T00:28:03Z</time></trkpt><trkpt lat="35.807067" lon="139.000066"><ele>977.9333333333334</ele><time>2025-05-03T00:28:34Z</time></trkpt><trkpt lat="35.806948" lon="138.9998896"><ele>980.2766666666666</ele><time>2025-05-03T00:29:11Z</time></trkpt><trkpt lat="35.8068902" lon="138.9996785"><ele>987.6733333333335</ele><time>2025-05-03T00:29:33Z</time></trkpt><trkpt lat="35.8067665" lon="138.9994699"><ele>993.3033333333334</ele><time>2025-05-03T00:29:56Z</time></trkpt><trkpt lat="35.806667" lon="138.9992817"><ele>997.88</ele><time>2025-05-03T00:30:25Z</time></trkpt><trkpt lat="35.8066169" lon="138.99906"><ele>999.48</ele><time>2025-05-03T00:30:51Z</time></trkpt><trkpt lat="35.8065578" lon="138.9988254"><ele>1002.1933333333333</ele><time>2025-05-03T00:31:09Z</time></trkpt><trkpt lat="35.8066032" lon="138.9985797"><ele>1009.35</ele><time>2025-05-03T00:31:33Z</time></trkpt><trkpt lat="35.8068049" lon="138.9986618"><ele>1018.8833333333333</ele><time>2025-05-03T00:32:15Z</time></trkpt><trkpt lat="35.8069633" lon="138.9987726"><ele>1030.24</ele><time>2025-05-03T00:32:45Z</time></trkpt><trkpt lat="35.8071055" lon="138.998917"><ele>1040.24</ele><time>2025-05-03T00:33:15Z</time></trkpt><trkpt lat="35.8072746" lon="138.9990178"><ele>1047.08</ele><time>2025-05-03T00:33:45Z</time></trkpt><trkpt lat="35.8074624" lon="138.9990823"><ele>1053.1</ele><time>2025-05-03T00:34:08Z</time></trkpt><trkpt lat="35.8076327" lon="138.9991901"><ele>1057.7633333333333</ele><time>2025-05-03T00:34:29Z</time></trkpt><trkpt lat="35.8077722" lon="138.9993436"><ele>1061.11</ele><time>2025-05-03T00:34:49Z</time></trkpt><trkpt lat="35.8079051" lon="138.9995155"><ele>1062.5200000000002</ele><time>2025-05-03T00:35:15Z</time></trkpt><trkpt lat="35.808085" lon="138.9996244"><ele>1065.9466666666667</ele><time>2025-05-03T00:35:45Z</time></trkpt><trkpt lat="35.8082441" lon="138.9997496"><ele>1071.0566666666666</ele><time>2025-05-03T00:36:06Z</time></trkpt><trkpt lat="35.8084234" lon="138.9998384"><ele>1078.5066666666667</ele><time>2025-05-03T00:36:30Z</time></trkpt><trkpt lat="35.8085991" lon="138.9998905"><ele>1084.54</ele><time>2025-05-03T00:36:57Z</time></trkpt><trkpt lat="35.8087394" lon="139.0000462"><ele>1089.0833333333333</ele><time>2025-05-03T00:37:42Z</time></trkpt><trkpt lat="35.8088826" lon="139.0001884"><ele>1091.1166666666666</ele><time>2025-05-03T00:37:54Z</time></trkpt><trkpt lat="35.8090808" lon="139.0002121"><ele>1093.47</ele><time>2025-05-03T00:38:18Z</time></trkpt><trkpt lat="35.8092584" lon="139.0001428"><ele>1096.9733333333334</ele><time>2025-05-03T00:38:54Z</time></trkpt><trkpt lat="35.8094029" lon="139.0002989"><ele>1101.6733333333334</ele><time>2025-05-03T00:39:39Z</time></trkpt><trkpt lat="35.8095869" lon="139.0002247"><ele>1106.78</ele><time>2025-05-03T00:40:44Z</time></trkpt><trkpt lat="35.8097647" lon="139.0002718"><ele>1114.5133333333333</ele><time>2025-05-03T00:41:48Z</time></trkpt><trkpt lat="35.8099304" lon="139.0001766"><ele>1123.9266666666665</ele><time>2025-05-03T00:42:45Z</time></trkpt><trkpt lat="35.8101224" lon="139.0001391"><ele>1134.3966666666668</ele><time>2025-05-03T00:43:21Z</time></trkpt><trkpt lat="35.8103027" lon="139.0001223"><ele>1143.6000000000001</ele><time>2025-05-03T00:43:51Z</time></trkpt><trkpt lat="35.8103367" lon="139.0003473"><ele>1154.0166666666667</ele><time>2025-05-03T00:44:51Z</time></trkpt><trkpt lat="35.8105061" lon="139.0004507"><ele>1165.71</ele><time>2025-05-03T00:45:57Z</time></trkpt><trkpt lat="35.8106877" lon="139.0004671"><ele>1175.5466666666669</ele><time>2025-05-03T00:46:39Z</time></trkpt><trkpt lat="35.8108778" lon="139.0005097"><ele>1183.76</ele><time>2025-05-03T00:47:09Z</time></trkpt><trkpt lat="35.8108367" lon="139.0007446"><ele>1190.1966666666667</ele><time>2025-05-03T00:48:03Z</time></trkpt><trkpt lat="35.8110164" lon="139.0008796"><ele>1197.8066666666666</ele><time>2025-05-03T00:49:33Z</time></trkpt><trkpt lat="35.8112189" lon="139.0008772"><ele>1204.8100000000002</ele><time>2025-05-03T00:50:12Z</time></trkpt><trkpt lat="35.8113994" lon="139.0008556"><ele>1210.7366666666667</ele><time>2025-05-03T00:50:42Z</time></trkpt><trkpt lat="35.8115834" lon="139.0008055"><ele>1216.6699999999998</ele><time>2025-05-03T00:51:24Z</time></trkpt><trkpt lat="35.8117664" lon="139.000821"><ele>1223.3166666666666</ele><time>2025-05-03T00:52:00Z</time></trkpt><trkpt lat="35.8119469" lon="139.0008363"><ele>1230.2133333333331</ele><time>2025-05-03T00:52:42Z</time></trkpt><trkpt lat="35.812117" lon="139.000927"><ele>1237.0633333333333</ele><time>2025-05-03T00:53:12Z</time></trkpt><trkpt lat="35.8122962" lon="139.0009689"><ele>1243.2966666666669</ele><time>2025-05-03T00:53:57Z</time></trkpt><trkpt lat="35.8124687" lon="139.0008959"><ele>1251.29</ele><time>2025-05-03T00:54:33Z</time></trkpt><trkpt lat="35.8126523" lon="139.0008891"><ele>1259.07</ele><time>2025-05-03T00:55:21Z</time></trkpt><trkpt lat="35.8128487" lon="139.0009474"><ele>1266.27</ele><time>2025-05-03T00:56:12Z</time></trkpt><trkpt lat="35.8130308" lon="139.0009422"><ele>1273.5666666666668</ele><time>2025-05-03T00:56:45Z</time></trkpt><trkpt lat="35.8132285" lon="139.0010204"><ele>1281.09</ele><time>2025-05-03T00:57:24Z</time></trkpt><trkpt lat="35.8134049" lon="139.0011512"><ele>1288.3466666666666</ele><time>2025-05-03T00:57:57Z</time></trkpt><trkpt lat="35.8135846" lon="139.0012023"><ele>1293.7566666666667</ele><time>2025-05-03T00:58:33Z</time></trkpt><trkpt lat="35.8137691" lon="139.0012694"><ele>1298.4233333333334</ele><time>2025-05-03T00:58:54Z</time></trkpt><trkpt lat="35.8139521" lon="139.001321"><ele>1306.53</ele><time>2025-05-03T00:59:27Z</time></trkpt><trkpt lat="35.8141326" lon="139.0014194"><ele>1314.13</ele><time>2025-05-03T00:59:57Z</time></trkpt><trkpt lat="35.8143363" lon="139.0014346"><ele>1320.5933333333332</ele><time>2025-05-03T01:00:27Z</time></trkpt><trkpt lat="35.8145371" lon="139.0014615"><ele>1323.2733333333333</ele><time>2025-05-03T01:01:00Z</time></trkpt><trkpt lat="35.8147326" lon="139.0015142"><ele>1325.3633333333335</ele><time>2025-05-03T01:01:24Z</time></trkpt><trkpt lat="35.8149153" lon="139.0015377"><ele>1328.07</ele><time>2025-05-03T01:01:39Z</time></trkpt><trkpt lat="35.8151006" lon="139.0016002"><ele>1330.73</ele><time>2025-05-03T01:01:57Z</time></trkpt><trkpt lat="35.8152741" lon="139.0016792"><ele>1333.12</ele><time>2025-05-03T01:02:15Z</time></trkpt><trkpt lat="35.815444" lon="139.0017545"><ele>1334.87</ele><time>2025-05-03T01:02:32Z</time></trkpt><trkpt lat="35.8155822" lon="139.0019232"><ele>1335.5433333333333</ele><time>2025-05-03T01:02:53Z</time></trkpt><trkpt lat="35.815739" lon="139.0020474"><ele>1336.68</ele><time>2025-05-03T01:03:15Z</time></trkpt><trkpt lat="35.8158931" lon="139.0021953"><ele>1337.97</ele><time>2025-05-03T01:03:48Z</time></trkpt><trkpt lat="35.816025" lon="139.0023699"><ele>1339.5566666666666</ele><time>2025-05-03T01:04:06Z</time></trkpt><trkpt lat="35.8161523" lon="139.0025586"><ele>1339.5200000000002</ele><time>2025-05-03T01:04:24Z</time></trkpt><trkpt lat="35.8162959" lon="139.0027478"><ele>1339.05</ele><time>2025-05-03T01:04:42Z</time></trkpt><trkpt lat="35.8164568" lon="139.0028544"><ele>1339.7533333333333</ele><time>2025-05-03T01:05:03Z</time></trkpt><trkpt lat="35.8165941" lon="139.0030482"><ele>1341.2633333333333</ele><time>2025-05-03T01:05:21Z</time></trkpt><trkpt lat="35.8167778" lon="139.0031603"><ele>1344.29</ele><time>2025-05-03T01:05:39Z</time></trkpt><trkpt lat="35.8168779" lon="139.0033446"><ele>1345.7633333333333</ele><time>2025-05-03T01:05:56Z</time></trkpt><trkpt lat="35.8170188" lon="139.0034936"><ele>1347.9766666666667</ele><time>2025-05-03T01:06:16Z</time></trkpt><trkpt lat="35.8172051" lon="139.0036592"><ele>1348.3533333333335</ele><time>2025-05-03T01:06:51Z</time></trkpt><trkpt lat="35.8174052" lon="139.0036999"><ele>1350.02</ele><time>2025-05-03T01:07:06Z</time></trkpt><trkpt lat="35.8175932" lon="139.0037897"><ele>1351.43</ele><time>2025-05-03T01:07:24Z</time></trkpt><trkpt lat="35.8177712" lon="139.0038953"><ele>1355.49</ele><time>2025-05-03T01:07:42Z</time></trkpt><trkpt lat="35.817947" lon="139.0039598"><ele>1359.69</ele><time>2025-05-03T01:08:02Z</time></trkpt><trkpt lat="35.8181213" lon="139.0040903"><ele>1365.7133333333334</ele><time>2025-05-03T01:08:27Z</time></trkpt><trkpt lat="35.8183117" lon="139.0041874"><ele>1371.0933333333335</ele><time>2025-05-03T01:08:57Z</time></trkpt><trkpt lat="35.8184766" lon="139.0042859"><ele>1376.6233333333332</ele><time>2025-05-03T01:09:50Z</time></trkpt><trkpt lat="35.818661" lon="139.0042304"><ele>1382.7133333333334</ele><time>2025-05-03T01:10:36Z</time></trkpt><trkpt lat="35.8188421" lon="139.0042189"><ele>1388.0666666666666</ele><time>2025-05-03T01:11:02Z</time></trkpt><trkpt lat="35.8190233" lon="139.004271"><ele>1394.1299999999999</ele><time>2025-05-03T01:11:30Z</time></trkpt><trkpt lat="35.8192068" lon="139.0043143"><ele>1398.7866666666669</ele><time>2025-05-03T01:11:57Z</time></trkpt><trkpt lat="35.8193844" lon="139.0043904"><ele>1403.3400000000001</ele><time>2025-05-03T01:12:24Z</time></trkpt><trkpt lat="35.8195335" lon="139.0045302"><ele>1406.823333333333</ele><time>2025-05-03T01:12:57Z</time></trkpt><trkpt lat="35.8197173" lon="139.0045525"><ele>1410.9866666666667</ele><time>2025-05-03T01:13:32Z</time></trkpt><trkpt lat="35.8199026" lon="139.0045645"><ele>1415.8333333333333</ele><time>2025-05-03T01:13:56Z</time></trkpt><trkpt lat="35.8200741" lon="139.0046539"><ele>1420.7166666666665</ele><time>2025-05-03T01:14:23Z</time></trkpt><trkpt lat="35.8202404" lon="139.0047581"><ele>1423.89</ele><time>2025-05-03T01:14:50Z</time></trkpt><trkpt lat="35.8203983" lon="139.004867"><ele>1427.0933333333335</ele><time>2025-05-03T01:15:26Z</time></trkpt><trkpt lat="35.8205773" lon="139.0049011"><ele>1432.7766666666666</ele><time>2025-05-03T01:16:08Z</time></trkpt><trkpt lat="35.8207652" lon="139.0048486"><ele>1441.5900000000001</ele><time>2025-05-03T01:16:41Z</time></trkpt><trkpt lat="35.8209133" lon="139.0049847"><ele>1451.36</ele><time>2025-05-03T01:17:42Z</time></trkpt><trkpt lat="35.8210931" lon="139.0050062"><ele>1460.47</ele><time>2025-05-03T01:18:36Z</time></trkpt><trkpt lat="35.8212854" lon="139.0050684"><ele>1466.9333333333334</ele><time>2025-05-03T01:19:09Z</time></trkpt><trkpt lat="35.8214789" lon="139.0051198"><ele>1470.6433333333334</ele><time>2025-05-03T01:19:33Z</time></trkpt><trkpt lat="35.8216787" lon="139.0051612"><ele>1471.4733333333334</ele><time>2025-05-03T01:20:09Z</time></trkpt><trkpt lat="35.8218576" lon="139.0052526"><ele>1471.3799999999999</ele><time>2025-05-03T01:20:36Z</time></trkpt><trkpt lat="35.8220206" lon="139.0053914"><ele>1471.1066666666666</ele><time>2025-05-03T01:20:54Z</time></trkpt><trkpt lat="35.8222111" lon="139.005499"><ele>1471.5833333333333</ele><time>2025-05-03T01:21:15Z</time></trkpt><trkpt lat="35.8223649" lon="139.0056158"><ele>1473.7033333333331</ele><time>2025-05-03T01:21:36Z</time></trkpt><trkpt lat="35.8225389" lon="139.0057222"><ele>1476.32</ele><time>2025-05-03T01:21:54Z</time></trkpt><trkpt lat="35.822731" lon="139.0057805"><ele>1481.9133333333332</ele><time>2025-05-03T01:22:12Z</time></trkpt><trkpt lat="35.8229315" lon="139.0057784"><ele>1487.0733333333335</ele><time>2025-05-03T01:22:45Z</time></trkpt><trkpt lat="35.8231319" lon="139.0058768"><ele>1493.1166666666666</ele><time>2025-05-03T01:23:18Z</time></trkpt><trkpt lat="35.8233135" lon="139.0059635"><ele>1494.2233333333334</ele><time>2025-05-03T01:23:42Z</time></trkpt><trkpt lat="35.8234798" lon="139.0060525"><ele>1494.0500000000002</ele><time>2025-05-03T01:24:00Z</time></trkpt><trkpt lat="35.8236547" lon="139.0061479"><ele>1493.6766666666665</ele><time>2025-05-03T01:24:21Z</time></trkpt><trkpt lat="35.8238519" lon="139.0062575"><ele>1498.47</ele><time>2025-05-03T01:25:06Z</time></trkpt><trkpt lat="35.824025" lon="139.0063675"><ele>1505.4933333333336</ele><time>2025-05-03T01:25:33Z</time></trkpt><trkpt lat="35.8242107" lon="139.0064231"><ele>1513.4966666666667</ele><time>2025-05-03T01:26:12Z</time></trkpt><trkpt lat="35.8243642" lon="139.0065548"><ele>1520.6466666666668</ele><time>2025-05-03T01:26:48Z</time></trkpt><trkpt lat="35.8244793" lon="139.0067306"><ele>1526.45</ele><time>2025-05-03T01:27:21Z</time></trkpt><trkpt lat="35.8246204" lon="139.0068816"><ele>1531.3566666666668</ele><time>2025-05-03T01:27:45Z</time></trkpt><trkpt lat="35.824755" lon="139.007039"><ele>1533.1666666666667</ele><time>2025-05-03T01:28:06Z</time></trkpt><trkpt lat="35.8249412" lon="139.0070828"><ele>1535.4933333333336</ele><time>2025-05-03T01:28:27Z</time></trkpt><trkpt lat="35.8251413" lon="139.0070802"><ele>1535.92</ele><time>2025-05-03T01:28:45Z</time></trkpt><trkpt lat="35.8253342" lon="139.0070428"><ele>1536.9466666666667</ele><time>2025-05-03T01:29:06Z</time></trkpt><trkpt lat="35.825538" lon="139.007047"><ele>1536.5866666666668</ele><time>2025-05-03T01:29:30Z</time></trkpt><trkpt lat="35.8257217" lon="139.0070499"><ele>1537.39</ele><time>2025-05-03T01:29:48Z</time></trkpt><trkpt lat="35.8259269" lon="139.007049"><ele>1539.4733333333334</ele><time>2025-05-03T01:30:09Z</time></trkpt><trkpt lat="35.8260932" lon="139.0069569"><ele>1541.8633333333335</ele><time>2025-05-03T01:30:33Z</time></trkpt><trkpt lat="35.8262819" lon="139.0069415"><ele>1545.1366666666665</ele><time>2025-05-03T01:30:51Z</time></trkpt><trkpt lat="35.8264438" lon="139.0067926"><ele>1547.1966666666667</ele><time>2025-05-03T01:31:11Z</time></trkpt><trkpt lat="35.8266075" lon="139.0066769"><ele>1550.3366666666668</ele><time>2025-05-03T01:31:30Z</time></trkpt><trkpt lat="35.8267753" lon="139.0065692"><ele>1550.8566666666666</ele><time>2025-05-03T01:31:50Z</time></trkpt><trkpt lat="35.8269012" lon="139.0064032"><ele>1549.3733333333332</ele><time>2025-05-03T01:32:08Z</time></trkpt><trkpt lat="35.8270712" lon="139.0062661"><ele>1547.1000000000001</ele><time>2025-05-03T01:32:26Z</time></trkpt><trkpt lat="35.8272505" lon="139.0061697"><ele>1545.1533333333334</ele><time>2025-05-03T01:32:55Z</time></trkpt><trkpt lat="35.8274368" lon="139.0060983"><ele>1544.0199999999998</ele><time>2025-05-03T01:33:26Z</time></trkpt><trkpt lat="35.8275039" lon="139.0058703"><ele>1538.3866666666665</ele><time>2025-05-03T01:35:13Z</time></trkpt><trkpt lat="35.8275841" lon="139.0056389"><ele>1536.4733333333334</ele><time>2025-05-03T01:35:32Z</time></trkpt><trkpt lat="35.8276068" lon="139.0054069"><ele>1537.03</ele><time>2025-05-03T01:35:53Z</time></trkpt><trkpt lat="35.8276738" lon="139.0051646"><ele>1543.0433333333333</ele><time>2025-05-03T01:36:17Z</time></trkpt><trkpt lat="35.827667" lon="139.0049345"><ele>1546.3833333333332</ele><time>2025-05-03T01:36:35Z</time></trkpt><trkpt lat="35.8275964" lon="139.004727"><ele>1549.0266666666666</ele><time>2025-05-03T01:36:59Z</time></trkpt><trkpt lat="35.8275477" lon="139.0045124"><ele>1552.1233333333337</ele><time>2025-05-03T01:37:29Z</time></trkpt><trkpt lat="35.827513" lon="139.0042668"><ele>1556.7600000000002</ele><time>2025-05-03T01:38:08Z</time></trkpt><trkpt lat="35.8275904" lon="139.0040296"><ele>1562.4099999999999</ele><time>2025-05-03T01:38:32Z</time></trkpt><trkpt lat="35.8277695" lon="139.0039328"><ele>1567.0666666666666</ele><time>2025-05-03T01:41:53Z</time></trkpt><trkpt lat="35.8278917" lon="139.0041196"><ele>1570.8133333333335</ele><time>2025-05-03T01:42:14Z</time></trkpt><trkpt lat="35.828057" lon="139.0042687"><ele>1573.7866666666669</ele><time>2025-05-03T01:42:41Z</time></trkpt><trkpt lat="35.8280782" lon="139.0045149"><ele>1576.0466666666669</ele><time>2025-05-03T01:42:59Z</time></trkpt><trkpt lat="35.828109" lon="139.0047702"><ele>1577.8133333333335</ele><time>2025-05-03T01:43:26Z</time></trkpt><trkpt lat="35.8282493" lon="139.0049344"><ele>1580.33</ele><time>2025-05-03T01:43:44Z</time></trkpt><trkpt lat="35.82832" lon="139.0051551"><ele>1584.5033333333333</ele><time>2025-05-03T01:44:11Z</time></trkpt><trkpt lat="35.8283832" lon="139.0053989"><ele>1590.8566666666666</ele><time>2025-05-03T01:45:08Z</time></trkpt><trkpt lat="35.8284577" lon="139.0056185"><ele>1596.7833333333335</ele><time>2025-05-03T01:45:32Z</time></trkpt><trkpt lat="35.8285466" lon="139.0058301"><ele>1603.9433333333334</ele><time>2025-05-03T01:46:02Z</time></trkpt><trkpt lat="35.8286124" lon="139.0060394"><ele>1610.6000000000001</ele><time>2025-05-03T01:46:41Z</time></trkpt><trkpt lat="35.8286478" lon="139.0062874"><ele>1616.89</ele><time>2025-05-03T01:47:14Z</time></trkpt><trkpt lat="35.828669" lon="139.0065245"><ele>1621.37</ele><time>2025-05-03T01:47:34Z</time></trkpt><trkpt lat="35.8286784" lon="139.0067513"><ele>1626.6000000000001</ele><time>2025-05-03T01:48:13Z</time></trkpt><trkpt lat="35.828638" lon="139.0069745"><ele>1631.4166666666667</ele><time>2025-05-03T01:48:35Z</time></trkpt><trkpt lat="35.8285293" lon="139.007159"><ele>1635.8666666666668</ele><time>2025-05-03T01:48:54Z</time></trkpt><trkpt lat="35.828503" lon="139.0073819"><ele>1639.2533333333333</ele><time>2025-05-03T01:49:12Z</time></trkpt><trkpt lat="35.8286012" lon="139.0075685"><ele>1642.97</ele><time>2025-05-03T01:49:27Z</time></trkpt><trkpt lat="35.828597" lon="139.007804"><ele>1645.073333333333</ele><time>2025-05-03T01:49:46Z</time></trkpt><trkpt lat="35.8286564" lon="139.0080266"><ele>1646.7166666666665</ele><time>2025-05-03T01:50:10Z</time></trkpt><trkpt lat="35.828675" lon="139.0082663"><ele>1648.176666666667</ele><time>2025-05-03T01:50:31Z</time></trkpt><trkpt lat="35.8286923" lon="139.0085063"><ele>1650.5</ele><time>2025-05-03T01:50:49Z</time></trkpt><trkpt lat="35.8286386" lon="139.0087414"><ele>1651.24</ele><time>2025-05-03T01:51:01Z</time></trkpt><trkpt lat="35.8286977" lon="139.0090049"><ele>1651.4633333333334</ele><time>2025-05-03T01:51:20Z</time></trkpt><trkpt lat="35.8287655" lon="139.0092373"><ele>1653.1200000000001</ele><time>2025-05-03T01:51:36Z</time></trkpt><trkpt lat="35.8287917" lon="139.0094617"><ele>1656.2033333333336</ele><time>2025-05-03T01:51:51Z</time></trkpt><trkpt lat="35.8288851" lon="139.0096771"><ele>1660.706666666667</ele><time>2025-05-03T01:52:09Z</time></trkpt><trkpt lat="35.8289747" lon="139.009876"><ele>1664.6133333333335</ele><time>2025-05-03T01:52:33Z</time></trkpt><trkpt lat="35.8290674" lon="139.0101189"><ele>1669.1666666666667</ele><time>2025-05-03T01:53:03Z</time></trkpt><trkpt lat="35.8291137" lon="139.0103542"><ele>1673.66</ele><time>2025-05-03T01:53:36Z</time></trkpt><trkpt lat="35.8291954" lon="139.0105648"><ele>1678.9000000000003</ele><time>2025-05-03T01:54:45Z</time></trkpt><trkpt lat="35.82922" lon="139.0107926"><ele>1683.5633333333335</ele><time>2025-05-03T01:55:39Z</time></trkpt><trkpt lat="35.8293334" lon="139.0109802"><ele>1689.3333333333333</ele><time>2025-05-03T01:56:15Z</time></trkpt><trkpt lat="35.8294273" lon="139.0112315"><ele>1695.466666666667</ele><time>2025-05-03T01:57:42Z</time></trkpt><trkpt lat="35.8295787" lon="139.0113612"><ele>1704.3033333333333</ele><time>2025-05-03T01:58:06Z</time></trkpt><trkpt lat="35.8297006" lon="139.0115257"><ele>1711.5033333333333</ele><time>2025-05-03T01:58:36Z</time></trkpt><trkpt lat="35.829702" lon="139.0117666"><ele>1716.9366666666665</ele><time>2025-05-03T01:59:56Z</time></trkpt><trkpt lat="35.829765" lon="139.0120119"><ele>1721.243333333333</ele><time>2025-05-03T02:00:18Z</time></trkpt><trkpt lat="35.8298543" lon="139.0122134"><ele>1726.49</ele><time>2025-05-03T02:00:42Z</time></trkpt><trkpt lat="35.8298446" lon="139.0124506"><ele>1730.9799999999998</ele><time>2025-05-03T02:01:12Z</time></trkpt><trkpt lat="35.8297322" lon="139.0126668"><ele>1731.72</ele><time>2025-05-03T02:44:53Z</time></trkpt><trkpt lat="35.8296027" lon="139.0128369"><ele>1727.5433333333333</ele><time>2025-05-03T02:45:17Z</time></trkpt><trkpt lat="35.8294675" lon="139.0129997"><ele>1721.1433333333334</ele><time>2025-05-03T02:45:41Z</time></trkpt><trkpt lat="35.8293023" lon="139.0131461"><ele>1713.4399999999998</ele><time>2025-05-03T02:46:13Z</time></trkpt><trkpt lat="35.8291287" lon="139.0132929"><ele>1704.5166666666664</ele><time>2025-05-03T02:46:35Z</time></trkpt><trkpt lat="35.8289546" lon="139.013366"><ele>1696.03</ele><time>2025-05-03T02:46:54Z</time></trkpt><trkpt lat="35.8288096" lon="139.0135174"><ele>1688.63</ele><time>2025-05-03T02:47:12Z</time></trkpt><trkpt lat="35.8286427" lon="139.0136666"><ele>1683.1033333333332</ele><time>2025-05-03T02:47:30Z</time></trkpt><trkpt lat="35.8284984" lon="139.013814"><ele>1678.22</ele><time>2025-05-03T02:47:42Z</time></trkpt><trkpt lat="35.8283525" lon="139.0139645"><ele>1673.3333333333333</ele><time>2025-05-03T02:48:00Z</time></trkpt><trkpt lat="35.8281965" lon="139.0140755"><ele>1668.8333333333333</ele><time>2025-05-03T02:48:25Z</time></trkpt><trkpt lat="35.8280061" lon="139.0141825"><ele>1663.8933333333334</ele><time>2025-05-03T02:48:50Z</time></trkpt><trkpt lat="35.8278383" lon="139.0143008"><ele>1659.6200000000001</ele><time>2025-05-03T02:49:10Z</time></trkpt><trkpt lat="35.827665" lon="139.0144102"><ele>1655.6666666666667</ele><time>2025-05-03T02:49:19Z</time></trkpt><trkpt lat="35.8275531" lon="139.0146164"><ele>1652.25</ele><time>2025-05-03T02:49:30Z</time></trkpt><trkpt lat="35.8275101" lon="139.0148584"><ele>1648.8966666666668</ele><time>2025-05-03T02:49:46Z</time></trkpt><trkpt lat="35.8274174" lon="139.0151011"><ele>1647.0200000000002</ele><time>2025-05-03T02:50:00Z</time></trkpt><trkpt lat="35.8273834" lon="139.0153543"><ele>1646.96</ele><time>2025-05-03T02:50:16Z</time></trkpt><trkpt lat="35.8273363" lon="139.0155776"><ele>1648.14</ele><time>2025-05-03T02:50:28Z</time></trkpt><trkpt lat="35.8272483" lon="139.0158249"><ele>1649.426666666667</ele><time>2025-05-03T02:50:43Z</time></trkpt><trkpt lat="35.8271888" lon="139.0160372"><ele>1650.2300000000002</ele><time>2025-05-03T02:50:56Z</time></trkpt><trkpt lat="35.8270028" lon="139.0160705"><ele>1650.3433333333335</ele><time>2025-05-03T02:51:08Z</time></trkpt><trkpt lat="35.8267926" lon="139.0161729"><ele>1649.3266666666668</ele><time>2025-05-03T02:51:45Z</time></trkpt><trkpt lat="35.8266212" lon="139.0162573"><ele>1647.6833333333334</ele><time>2025-05-03T02:52:00Z</time></trkpt><trkpt lat="35.8264653" lon="139.0164272"><ele>1646.3733333333332</ele><time>2025-05-03T02:52:15Z</time></trkpt><trkpt lat="35.8263119" lon="139.0166418"><ele>1647.4800000000002</ele><time>2025-05-03T02:52:47Z</time></trkpt><trkpt lat="35.8261383" lon="139.0167668"><ele>1649.1466666666665</ele><time>2025-05-03T02:52:59Z</time></trkpt><trkpt lat="35.8259332" lon="139.0168404"><ele>1649.2966666666664</ele><time>2025-05-03T02:53:15Z</time></trkpt><trkpt lat="35.8257476" lon="139.016864"><ele>1646.7933333333333</ele><time>2025-05-03T02:53:30Z</time></trkpt><trkpt lat="35.8255479" lon="139.0168833"><ele>1642.5533333333333</ele><time>2025-05-03T02:53:44Z</time></trkpt><trkpt lat="35.8253674" lon="139.0169428"><ele>1637.9166666666667</ele><time>2025-05-03T02:53:59Z</time></trkpt><trkpt lat="35.8252023" lon="139.0170718"><ele>1632.3166666666668</ele><time>2025-05-03T02:54:23Z</time></trkpt><trkpt lat="35.825046" lon="139.0172374"><ele>1626.3466666666666</ele><time>2025-05-03T02:54:41Z</time></trkpt><trkpt lat="35.8248946" lon="139.0173688"><ele>1620.9833333333336</ele><time>2025-05-03T02:54:56Z</time></trkpt><trkpt lat="35.8247231" lon="139.0174558"><ele>1616.92</ele><time>2025-05-03T02:55:07Z</time></trkpt><trkpt lat="35.8245293" lon="139.0174904"><ele>1614.1866666666667</ele><time>2025-05-03T02:55:26Z</time></trkpt><trkpt lat="35.8243372" lon="139.0175616"><ele>1611.0666666666666</ele><time>2025-05-03T02:55:47Z</time></trkpt><trkpt lat="35.8241663" lon="139.0177058"><ele>1609.323333333333</ele><time>2025-05-03T02:56:02Z</time></trkpt><trkpt lat="35.8239891" lon="139.0178348"><ele>1608.6000000000001</ele><time>2025-05-03T02:56:17Z</time></trkpt><trkpt lat="35.8238397" lon="139.0179659"><ele>1609.2133333333334</ele><time>2025-05-03T02:56:33Z</time></trkpt><trkpt lat="35.8236973" lon="139.0181186"><ele>1608.9666666666665</ele><time>2025-05-03T02:56:48Z</time></trkpt><trkpt lat="35.823599" lon="139.0183304"><ele>1608.8466666666666</ele><time>2025-05-03T02:57:03Z</time></trkpt><trkpt lat="35.8234578" lon="139.0185249"><ele>1609.3433333333332</ele><time>2025-05-03T02:57:18Z</time></trkpt><trkpt lat="35.8233289" lon="139.0186854"><ele>1610.5866666666668</ele><time>2025-05-03T02:57:33Z</time></trkpt><trkpt lat="35.823149" lon="139.0187364"><ele>1610.3933333333334</ele><time>2025-05-03T02:57:45Z</time></trkpt><trkpt lat="35.8229363" lon="139.0188468"><ele>1609.3266666666666</ele><time>2025-05-03T02:58:11Z</time></trkpt><trkpt lat="35.8227531" lon="139.0188581"><ele>1605.9066666666668</ele><time>2025-05-03T02:58:24Z</time></trkpt><trkpt lat="35.8225523" lon="139.0189061"><ele>1602.1433333333334</ele><time>2025-05-03T02:58:42Z</time></trkpt><trkpt lat="35.8223564" lon="139.0189365"><ele>1597.1166666666668</ele><time>2025-05-03T02:58:57Z</time></trkpt><trkpt lat="35.822174" lon="139.0189082"><ele>1593.2433333333336</ele><time>2025-05-03T02:59:11Z</time></trkpt><trkpt lat="35.8219867" lon="139.0189375"><ele>1589.5200000000002</ele><time>2025-05-03T02:59:26Z</time></trkpt><trkpt lat="35.8218115" lon="139.0189964"><ele>1586.9633333333334</ele><time>2025-05-03T02:59:42Z</time></trkpt><trkpt lat="35.822" lon="139.018963"><ele>1586.1200000000001</ele><time>2025-05-03T03:00:17Z</time></trkpt><trkpt lat="35.822226" lon="139.0189771"><ele>1587.5733333333335</ele><time>2025-05-03T03:00:36Z</time></trkpt><trkpt lat="35.8224396" lon="139.0189598"><ele>1590.3566666666666</ele><time>2025-05-03T03:00:53Z</time></trkpt><trkpt lat="35.8226239" lon="139.0190034"><ele>1593.8333333333333</ele><time>2025-05-03T03:01:20Z</time></trkpt><trkpt lat="35.8226789" lon="139.019226"><ele>1592.4966666666667</ele><time>2025-05-03T03:01:45Z</time></trkpt><trkpt lat="35.8228128" lon="139.0194118"><ele>1589.3700000000001</ele><time>2025-05-03T03:02:05Z</time></trkpt><trkpt lat="35.8228938" lon="139.0196195"><ele>1583.3</ele><time>2025-05-03T03:02:27Z</time></trkpt><trkpt lat="35.8228998" lon="139.019868"><ele>1579.3833333333332</ele><time>2025-05-03T03:02:48Z</time></trkpt><trkpt lat="35.8228942" lon="139.0200956"><ele>1575.5733333333335</ele><time>2025-05-03T03:03:03Z</time></trkpt><trkpt lat="35.8228883" lon="139.0203779"><ele>1570.0333333333335</ele><time>2025-05-03T03:03:20Z</time></trkpt><trkpt lat="35.8229589" lon="139.0205854"><ele>1564.7233333333334</ele><time>2025-05-03T03:03:35Z</time></trkpt><trkpt lat="35.8230527" lon="139.0207916"><ele>1560.426666666667</ele><time>2025-05-03T03:03:53Z</time></trkpt><trkpt lat="35.8231642" lon="139.0209939"><ele>1556.9099999999999</ele><time>2025-05-03T03:04:19Z</time></trkpt><trkpt lat="35.8232589" lon="139.021196"><ele>1552.5666666666668</ele><time>2025-05-03T03:04:40Z</time></trkpt><trkpt lat="35.8234391" lon="139.0213347"><ele>1547.5166666666667</ele><time>2025-05-03T03:05:06Z</time></trkpt><trkpt lat="35.8235522" lon="139.0215446"><ele>1542.63</ele><time>2025-05-03T03:05:27Z</time></trkpt><trkpt lat="35.8235937" lon="139.0217846"><ele>1539.03</ele><time>2025-05-03T03:05:50Z</time></trkpt><trkpt lat="35.8236125" lon="139.022029"><ele>1532.63</ele><time>2025-05-03T03:06:09Z</time></trkpt><trkpt lat="35.8236592" lon="139.0222556"><ele>1525.1166666666668</ele><time>2025-05-03T03:06:54Z</time></trkpt><trkpt lat="35.823585" lon="139.0224775"><ele>1515.6200000000001</ele><time>2025-05-03T03:07:27Z</time></trkpt><trkpt lat="35.8234767" lon="139.0226591"><ele>1507.8666666666668</ele><time>2025-05-03T03:07:50Z</time></trkpt><trkpt lat="35.823453" lon="139.0228823"><ele>1502.7866666666669</ele><time>2025-05-03T03:08:12Z</time></trkpt><trkpt lat="35.8234743" lon="139.0231041"><ele>1499.9533333333336</ele><time>2025-05-03T03:08:36Z</time></trkpt><trkpt lat="35.8233932" lon="139.0234201"><ele>1497.2066666666667</ele><time>2025-05-03T03:09:54Z</time></trkpt><trkpt lat="35.8232735" lon="139.0236084"><ele>1491.9533333333331</ele><time>2025-05-03T03:10:15Z</time></trkpt><trkpt lat="35.8231207" lon="139.0237563"><ele>1483.6866666666667</ele><time>2025-05-03T03:10:54Z</time></trkpt><trkpt lat="35.8230357" lon="139.023979"><ele>1476.9866666666667</ele><time>2025-05-03T03:11:18Z</time></trkpt><trkpt lat="35.8228591" lon="139.0241173"><ele>1466.5500000000002</ele><time>2025-05-03T03:12:09Z</time></trkpt><trkpt lat="35.8228203" lon="139.0243552"><ele>1458.926666666667</ele><time>2025-05-03T03:12:39Z</time></trkpt><trkpt lat="35.8227979" lon="139.0245924"><ele>1452.05</ele><time>2025-05-03T03:13:12Z</time></trkpt><trkpt lat="35.8227258" lon="139.0248223"><ele>1450.0500000000002</ele><time>2025-05-03T03:13:30Z</time></trkpt><trkpt lat="35.822795" lon="139.0250361"><ele>1450.6499999999999</ele><time>2025-05-03T03:13:48Z</time></trkpt><trkpt lat="35.8227082" lon="139.025272"><ele>1449.8633333333335</ele><time>2025-05-03T03:14:08Z</time></trkpt><trkpt lat="35.8225815" lon="139.0254296"><ele>1451.09</ele><time>2025-05-03T03:14:21Z</time></trkpt><trkpt lat="35.8224534" lon="139.0256059"><ele>1451.2666666666664</ele><time>2025-05-03T03:14:36Z</time></trkpt><trkpt lat="35.8222915" lon="139.0257673"><ele>1451.3333333333333</ele><time>2025-05-03T03:14:57Z</time></trkpt><trkpt lat="35.8221337" lon="139.0258981"><ele>1448.8100000000002</ele><time>2025-05-03T03:15:12Z</time></trkpt><trkpt lat="35.8222033" lon="139.0261178"><ele>1444.6566666666668</ele><time>2025-05-03T03:15:33Z</time></trkpt><trkpt lat="35.8223497" lon="139.0262532"><ele>1440.9366666666667</ele><time>2025-05-03T03:15:48Z</time></trkpt><trkpt lat="35.8225176" lon="139.0263818"><ele>1439.736666666667</ele><time>2025-05-03T03:16:06Z</time></trkpt><trkpt lat="35.8227088" lon="139.0264062"><ele>1440.0100000000002</ele><time>2025-05-03T03:16:30Z</time></trkpt><trkpt lat="35.8228477" lon="139.026611"><ele>1440.0900000000001</ele><time>2025-05-03T03:16:45Z</time></trkpt><trkpt lat="35.8228881" lon="139.0268459"><ele>1440.6266666666668</ele><time>2025-05-03T03:17:03Z</time></trkpt><trkpt lat="35.822893" lon="139.0271096"><ele>1442.9666666666665</ele><time>2025-05-03T03:17:49Z</time></trkpt><trkpt lat="35.8228118" lon="139.0273216"><ele>1445.4366666666665</ele><time>2025-05-03T03:18:19Z</time></trkpt><trkpt lat="35.8227755" lon="139.0275568"><ele>1449.0533333333333</ele><time>2025-05-03T03:18:37Z</time></trkpt><trkpt lat="35.8227682" lon="139.0278013"><ele>1451.6166666666668</ele><time>2025-05-03T03:19:01Z</time></trkpt><trkpt lat="35.8226549" lon="139.0280064"><ele>1452.506666666667</ele><time>2025-05-03T03:19:19Z</time></trkpt><trkpt lat="35.8225869" lon="139.0282466"><ele>1451.8733333333332</ele><time>2025-05-03T03:19:40Z</time></trkpt><trkpt lat="35.8225202" lon="139.0284588"><ele>1448.8799999999999</ele><time>2025-05-03T03:20:01Z</time></trkpt><trkpt lat="35.8227015" lon="139.0285721"><ele>1446.7933333333333</ele><time>2025-05-03T03:20:44Z</time></trkpt><trkpt lat="35.8228779" lon="139.0286263"><ele>1445.83</ele><time>2025-05-03T03:20:56Z</time></trkpt><trkpt lat="35.8230558" lon="139.028736"><ele>1442.7833333333335</ele><time>2025-05-03T03:21:20Z</time></trkpt><trkpt lat="35.8232005" lon="139.0288785"><ele>1442.0233333333333</ele><time>2025-05-03T03:21:38Z</time></trkpt><trkpt lat="35.8233004" lon="139.0290731"><ele>1439.8966666666668</ele><time>2025-05-03T03:21:53Z</time></trkpt><trkpt lat="35.8233368" lon="139.0292929"><ele>1443.3666666666668</ele><time>2025-05-03T03:22:11Z</time></trkpt><trkpt lat="35.8232722" lon="139.0295118"><ele>1443.1000000000001</ele><time>2025-05-03T03:22:30Z</time></trkpt><trkpt lat="35.823293" lon="139.0297883"><ele>1443.0600000000002</ele><time>2025-05-03T03:22:48Z</time></trkpt><trkpt lat="35.8232806" lon="139.0300272"><ele>1441.3333333333333</ele><time>2025-05-03T03:23:09Z</time></trkpt><trkpt lat="35.8232111" lon="139.0302387"><ele>1439.7866666666666</ele><time>2025-05-03T03:23:33Z</time></trkpt><trkpt lat="35.82327" lon="139.0304607"><ele>1439.5600000000002</ele><time>2025-05-03T03:25:12Z</time></trkpt><trkpt lat="35.8232903" lon="139.0306965"><ele>1438.8533333333335</ele><time>2025-05-03T03:25:39Z</time></trkpt><trkpt lat="35.8232351" lon="139.0309411"><ele>1441.2</ele><time>2025-05-03T03:26:00Z</time></trkpt><trkpt lat="35.8231526" lon="139.0311852"><ele>1442.1000000000001</ele><time>2025-05-03T03:26:18Z</time></trkpt><trkpt lat="35.8231251" lon="139.0314292"><ele>1442.2233333333334</ele><time>2025-05-03T03:26:39Z</time></trkpt><trkpt lat="35.8231496" lon="139.0316493"><ele>1440.0433333333333</ele><time>2025-05-03T03:27:51Z</time></trkpt><trkpt lat="35.8232549" lon="139.0319329"><ele>1438.62</ele><time>2025-05-03T03:28:12Z</time></trkpt><trkpt lat="35.8233474" lon="139.0321529"><ele>1437.4066666666668</ele><time>2025-05-03T03:28:33Z</time></trkpt><trkpt lat="35.8233986" lon="139.0323899"><ele>1438.3966666666668</ele><time>2025-05-03T03:29:00Z</time></trkpt><trkpt lat="35.8234785" lon="139.0325972"><ele>1436.8799999999999</ele><time>2025-05-03T03:29:21Z</time></trkpt><trkpt lat="35.8235222" lon="139.0328297"><ele>1436.86</ele><time>2025-05-03T03:29:39Z</time></trkpt><trkpt lat="35.8234963" lon="139.0330815"><ele>1435.36</ele><time>2025-05-03T03:29:54Z</time></trkpt><trkpt lat="35.8234235" lon="139.0333055"><ele>1437.82</ele><time>2025-05-03T03:30:14Z</time></trkpt><trkpt lat="35.8232349" lon="139.0334463"><ele>1439.47</ele><time>2025-05-03T03:30:33Z</time></trkpt><trkpt lat="35.823045" lon="139.0335095"><ele>1440.2766666666666</ele><time>2025-05-03T03:30:54Z</time></trkpt><trkpt lat="35.8228685" lon="139.0335806"><ele>1436.4800000000002</ele><time>2025-05-03T03:31:21Z</time></trkpt><trkpt lat="35.8229784" lon="139.0337917"><ele>1431.7366666666667</ele><time>2025-05-03T03:31:45Z</time></trkpt><trkpt lat="35.8230068" lon="139.0340303"><ele>1428.2333333333333</ele><time>2025-05-03T03:32:06Z</time></trkpt><trkpt lat="35.8229529" lon="139.0342621"><ele>1427.1266666666668</ele><time>2025-05-03T03:32:21Z</time></trkpt><trkpt lat="35.8228331" lon="139.0344449"><ele>1427.14</ele><time>2025-05-03T03:32:36Z</time></trkpt><trkpt lat="35.8227435" lon="139.0346491"><ele>1426.8666666666668</ele><time>2025-05-03T03:32:57Z</time></trkpt><trkpt lat="35.8226453" lon="139.0348632"><ele>1426.3466666666666</ele><time>2025-05-03T03:33:18Z</time></trkpt><trkpt lat="35.8224971" lon="139.0351063"><ele>1425.3100000000002</ele><time>2025-05-03T03:33:51Z</time></trkpt><trkpt lat="35.822379" lon="139.0353094"><ele>1425.57</ele><time>2025-05-03T03:34:06Z</time></trkpt><trkpt lat="35.8222233" lon="139.0354333"><ele>1426.7133333333331</ele><time>2025-05-03T03:34:21Z</time></trkpt><trkpt lat="35.8220573" lon="139.0356274"><ele>1424.28</ele><time>2025-05-03T03:34:42Z</time></trkpt><trkpt lat="35.8220067" lon="139.035851"><ele>1423.3799999999999</ele><time>2025-05-03T03:34:55Z</time></trkpt><trkpt lat="35.8219128" lon="139.0360696"><ele>1419.7766666666666</ele><time>2025-05-03T03:35:10Z</time></trkpt><trkpt lat="35.8219415" lon="139.0362909"><ele>1422.3366666666668</ele><time>2025-05-03T03:35:31Z</time></trkpt><trkpt lat="35.8220607" lon="139.0365051"><ele>1423.7966666666664</ele><time>2025-05-03T03:35:49Z</time></trkpt><trkpt lat="35.82208" lon="139.0367754"><ele>1423.89</ele><time>2025-05-03T03:36:31Z</time></trkpt><trkpt lat="35.8220348" lon="139.0370306"><ele>1420.2299999999998</ele><time>2025-05-03T03:36:43Z</time></trkpt><trkpt lat="35.8219787" lon="139.0372553"><ele>1416.6366666666665</ele><time>2025-05-03T03:37:01Z</time></trkpt><trkpt lat="35.8218998" lon="139.0374919"><ele>1417.0866666666668</ele><time>2025-05-03T03:37:16Z</time></trkpt><trkpt lat="35.8218204" lon="139.0377297"><ele>1418.5100000000002</ele><time>2025-05-03T03:37:34Z</time></trkpt><trkpt lat="35.8217287" lon="139.0379444"><ele>1420.0533333333333</ele><time>2025-05-03T03:37:49Z</time></trkpt><trkpt lat="35.8215506" lon="139.0380447"><ele>1419.4066666666668</ele><time>2025-05-03T03:38:04Z</time></trkpt><trkpt lat="35.8213711" lon="139.0381974"><ele>1420.2266666666667</ele><time>2025-05-03T03:38:19Z</time></trkpt><trkpt lat="35.8212504" lon="139.0384085"><ele>1419.7366666666667</ele><time>2025-05-03T03:38:37Z</time></trkpt><trkpt lat="35.8211637" lon="139.0386609"><ele>1420.3100000000002</ele><time>2025-05-03T03:38:55Z</time></trkpt><trkpt lat="35.821066" lon="139.0388883"><ele>1419.6133333333335</ele><time>2025-05-03T03:39:10Z</time></trkpt><trkpt lat="35.8209443" lon="139.0390743"><ele>1419.176666666667</ele><time>2025-05-03T03:39:25Z</time></trkpt><trkpt lat="35.8208232" lon="139.0392742"><ele>1419.53</ele><time>2025-05-03T03:39:40Z</time></trkpt><trkpt lat="35.8207244" lon="139.0394967"><ele>1420.0466666666669</ele><time>2025-05-03T03:39:55Z</time></trkpt><trkpt lat="35.8205794" lon="139.0397186"><ele>1420.8666666666668</ele><time>2025-05-03T03:40:37Z</time></trkpt><trkpt lat="35.8204577" lon="139.0399193"><ele>1421.3066666666666</ele><time>2025-05-03T03:40:52Z</time></trkpt><trkpt lat="35.8202891" lon="139.0400457"><ele>1421.4233333333334</ele><time>2025-05-03T03:41:07Z</time></trkpt><trkpt lat="35.8200912" lon="139.040156"><ele>1421.3933333333334</ele><time>2025-05-03T03:41:22Z</time></trkpt><trkpt lat="35.8199688" lon="139.0403357"><ele>1421.41</ele><time>2025-05-03T03:41:37Z</time></trkpt><trkpt lat="35.8199519" lon="139.0405597"><ele>1421.4233333333334</ele><time>2025-05-03T03:41:52Z</time></trkpt><trkpt lat="35.8201106" lon="139.0407268"><ele>1421.2966666666669</ele><time>2025-05-03T03:42:10Z</time></trkpt><trkpt lat="35.8203277" lon="139.0408251"><ele>1420.3633333333335</ele><time>2025-05-03T03:42:22Z</time></trkpt><trkpt lat="35.8201374" lon="139.0408416"><ele>1419.6733333333334</ele><time>2025-05-03T03:42:40Z</time></trkpt><trkpt lat="35.8199785" lon="139.0409605"><ele>1417.7733333333335</ele><time>2025-05-03T03:42:58Z</time></trkpt><trkpt lat="35.8201045" lon="139.0411573"><ele>1413.96</ele><time>2025-05-03T03:43:24Z</time></trkpt><trkpt lat="35.820284" lon="139.041236"><ele>1408.9233333333334</ele><time>2025-05-03T03:43:42Z</time></trkpt><trkpt lat="35.8203339" lon="139.0414707"><ele>1401.42</ele><time>2025-05-03T03:44:06Z</time></trkpt><trkpt lat="35.820159" lon="139.0416239"><ele>1394.4799999999998</ele><time>2025-05-03T03:44:21Z</time></trkpt><trkpt lat="35.8200242" lon="139.0418108"><ele>1386.9766666666667</ele><time>2025-05-03T03:44:36Z</time></trkpt><trkpt lat="35.8198839" lon="139.0419904"><ele>1385.3033333333333</ele><time>2025-05-03T03:44:54Z</time></trkpt><trkpt lat="35.8197823" lon="139.0421737"><ele>1387.5100000000002</ele><time>2025-05-03T03:45:08Z</time></trkpt><trkpt lat="35.8197445" lon="139.0424015"><ele>1392.5333333333335</ele><time>2025-05-03T03:45:31Z</time></trkpt><trkpt lat="35.819648" lon="139.042612"><ele>1396.6733333333332</ele><time>2025-05-03T03:45:46Z</time></trkpt><trkpt lat="35.8195717" lon="139.0428317"><ele>1399.8500000000001</ele><time>2025-05-03T03:46:01Z</time></trkpt><trkpt lat="35.8194689" lon="139.043017"><ele>1403.8100000000002</ele><time>2025-05-03T03:46:16Z</time></trkpt><trkpt lat="35.8193517" lon="139.0432101"><ele>1406.1033333333335</ele><time>2025-05-03T03:46:37Z</time></trkpt><trkpt lat="35.8192279" lon="139.0433749"><ele>1408.5866666666668</ele><time>2025-05-03T03:46:50Z</time></trkpt><trkpt lat="35.8191478" lon="139.0436127"><ele>1408.243333333333</ele><time>2025-05-03T03:47:05Z</time></trkpt><trkpt lat="35.8190388" lon="139.0438173"><ele>1409.5200000000002</ele><time>2025-05-03T03:47:20Z</time></trkpt><trkpt lat="35.8189582" lon="139.0440465"><ele>1409.9733333333334</ele><time>2025-05-03T03:47:35Z</time></trkpt><trkpt lat="35.8189084" lon="139.0442726"><ele>1412.11</ele><time>2025-05-03T03:47:53Z</time></trkpt><trkpt lat="35.8188604" lon="139.0444951"><ele>1413.11</ele><time>2025-05-03T03:48:11Z</time></trkpt><trkpt lat="35.8188387" lon="139.0447202"><ele>1416.0333333333335</ele><time>2025-05-03T03:48:29Z</time></trkpt><trkpt lat="35.8187656" lon="139.0449371"><ele>1419.5633333333335</ele><time>2025-05-03T03:48:47Z</time></trkpt><trkpt lat="35.8187289" lon="139.0451617"><ele>1423.2966666666664</ele><time>2025-05-03T03:49:08Z</time></trkpt><trkpt lat="35.8186968" lon="139.0453824"><ele>1427.0366666666669</ele><time>2025-05-03T03:49:25Z</time></trkpt><trkpt lat="35.8186973" lon="139.0456147"><ele>1429.6166666666668</ele><time>2025-05-03T03:49:47Z</time></trkpt><trkpt lat="35.8186547" lon="139.0458459"><ele>1431.7166666666665</ele><time>2025-05-03T03:50:08Z</time></trkpt><trkpt lat="35.8185626" lon="139.0460603"><ele>1432.9099999999999</ele><time>2025-05-03T03:50:26Z</time></trkpt><trkpt lat="35.8184193" lon="139.0462474"><ele>1435.05</ele><time>2025-05-03T03:50:48Z</time></trkpt><trkpt lat="35.8183093" lon="139.0464404"><ele>1436.67</ele><time>2025-05-03T03:51:10Z</time></trkpt><trkpt lat="35.8181692" lon="139.0465936"><ele>1438.4799999999998</ele><time>2025-05-03T03:51:28Z</time></trkpt><trkpt lat="35.8181316" lon="139.0468163"><ele>1440.1633333333332</ele><time>2025-05-03T03:51:49Z</time></trkpt><trkpt lat="35.8181326" lon="139.0470382"><ele>1443.9533333333336</ele><time>2025-05-03T03:52:10Z</time></trkpt><trkpt lat="35.8180938" lon="139.0472814"><ele>1446.42</ele><time>2025-05-03T03:52:34Z</time></trkpt><trkpt lat="35.8180691" lon="139.0475229"><ele>1447.7133333333334</ele><time>2025-05-03T03:52:51Z</time></trkpt><trkpt lat="35.8180566" lon="139.047748"><ele>1447.5333333333335</ele><time>2025-05-03T03:53:10Z</time></trkpt><trkpt lat="35.8178735" lon="139.0476763"><ele>1446.9033333333334</ele><time>2025-05-03T03:53:31Z</time></trkpt><trkpt lat="35.8177681" lon="139.0474821"><ele>1448.3933333333334</ele><time>2025-05-03T03:53:58Z</time></trkpt><trkpt lat="35.8177033" lon="139.0472686"><ele>1451.8866666666665</ele><time>2025-05-03T03:54:22Z</time></trkpt><trkpt lat="35.8175793" lon="139.0471058"><ele>1457.11</ele><time>2025-05-03T03:54:49Z</time></trkpt><trkpt lat="35.8174584" lon="139.0469155"><ele>1463.3066666666666</ele><time>2025-05-03T03:55:28Z</time></trkpt><trkpt lat="35.8173098" lon="139.0467288"><ele>1468.5166666666667</ele><time>2025-05-03T03:55:55Z</time></trkpt><trkpt lat="35.8172599" lon="139.0464962"><ele>1473.5666666666666</ele><time>2025-05-03T03:56:28Z</time></trkpt><trkpt lat="35.8173222" lon="139.0467193"><ele>1474.493333333333</ele><time>2025-05-03T03:57:16Z</time></trkpt><trkpt lat="35.8174568" lon="139.0468938"><ele>1473.5666666666666</ele><time>2025-05-03T03:57:37Z</time></trkpt><trkpt lat="35.8175705" lon="139.0471139"><ele>1468.5166666666667</ele><time>2025-05-03T03:57:58Z</time></trkpt><trkpt lat="35.8176842" lon="139.0473024"><ele>1463.3066666666666</ele><time>2025-05-03T03:58:16Z</time></trkpt><trkpt lat="35.8177807" lon="139.0475199"><ele>1455.9233333333334</ele><time>2025-05-03T03:58:37Z</time></trkpt><trkpt lat="35.8179224" lon="139.0476983"><ele>1450.2866666666669</ele><time>2025-05-03T03:58:57Z</time></trkpt><trkpt lat="35.8179918" lon="139.0479118"><ele>1445.1533333333334</ele><time>2025-05-03T03:59:10Z</time></trkpt><trkpt lat="35.8181235" lon="139.0480806"><ele>1443.9066666666668</ele><time>2025-05-03T03:59:25Z</time></trkpt><trkpt lat="35.8181397" lon="139.048304"><ele>1443.5900000000001</ele><time>2025-05-03T03:59:37Z</time></trkpt><trkpt lat="35.8181585" lon="139.0485367"><ele>1443.6733333333334</ele><time>2025-05-03T03:59:52Z</time></trkpt><trkpt lat="35.8181324" lon="139.0487583"><ele>1442.323333333333</ele><time>2025-05-03T04:00:07Z</time></trkpt><trkpt lat="35.8181537" lon="139.0489979"><ele>1440.7066666666667</ele><time>2025-05-03T04:00:24Z</time></trkpt><trkpt lat="35.818206" lon="139.049254"><ele>1439.03</ele><time>2025-05-03T04:00:39Z</time></trkpt><trkpt lat="35.818311" lon="139.0494681"><ele>1437.8233333333335</ele><time>2025-05-03T04:00:54Z</time></trkpt><trkpt lat="35.8184599" lon="139.0496742"><ele>1436.2433333333336</ele><time>2025-05-03T04:01:09Z</time></trkpt><trkpt lat="35.8185235" lon="139.0499051"><ele>1434.6666666666667</ele><time>2025-05-03T04:01:23Z</time></trkpt><trkpt lat="35.8185719" lon="139.050133"><ele>1432.1933333333334</ele><time>2025-05-03T04:01:38Z</time></trkpt><trkpt lat="35.8185974" lon="139.0503552"><ele>1431.043333333333</ele><time>2025-05-03T04:01:53Z</time></trkpt><trkpt lat="35.818673" lon="139.0505583"><ele>1430.21</ele><time>2025-05-03T04:02:05Z</time></trkpt><trkpt lat="35.8187853" lon="139.050775"><ele>1429.5133333333333</ele><time>2025-05-03T04:02:23Z</time></trkpt><trkpt lat="35.818809" lon="139.0510359"><ele>1426.46</ele><time>2025-05-03T04:02:44Z</time></trkpt><trkpt lat="35.8188052" lon="139.0512741"><ele>1422.88</ele><time>2025-05-03T04:03:02Z</time></trkpt><trkpt lat="35.8188018" lon="139.0515088"><ele>1420.3766666666668</ele><time>2025-05-03T04:03:20Z</time></trkpt><trkpt lat="35.8187462" lon="139.0517539"><ele>1417.8666666666668</ele><time>2025-05-03T04:03:41Z</time></trkpt><trkpt lat="35.818711" lon="139.052005"><ele>1414.6866666666667</ele><time>2025-05-03T04:03:59Z</time></trkpt><trkpt lat="35.8187529" lon="139.0522219"><ele>1413.4566666666667</ele><time>2025-05-03T04:04:14Z</time></trkpt><trkpt lat="35.8185612" lon="139.0523247"><ele>1411.18</ele><time>2025-05-03T04:04:23Z</time></trkpt><trkpt lat="35.8184235" lon="139.0524825"><ele>1408.4033333333334</ele><time>2025-05-03T04:04:38Z</time></trkpt><trkpt lat="35.818333" lon="139.0526804"><ele>1402.6133333333335</ele><time>2025-05-03T04:05:05Z</time></trkpt><trkpt lat="35.8181777" lon="139.0528245"><ele>1396.7166666666665</ele><time>2025-05-03T04:05:23Z</time></trkpt><trkpt lat="35.818059" lon="139.0530125"><ele>1390.0933333333335</ele><time>2025-05-03T04:05:56Z</time></trkpt><trkpt lat="35.8179201" lon="139.0531839"><ele>1380.8466666666666</ele><time>2025-05-03T04:06:17Z</time></trkpt><trkpt lat="35.8179769" lon="139.0534401"><ele>1375.3933333333334</ele><time>2025-05-03T04:06:35Z</time></trkpt><trkpt lat="35.8179263" lon="139.0536535"><ele>1370.08</ele><time>2025-05-03T04:06:53Z</time></trkpt><trkpt lat="35.8177804" lon="139.0538003"><ele>1365.6233333333332</ele><time>2025-05-03T04:07:43Z</time></trkpt><trkpt lat="35.8176592" lon="139.0539981"><ele>1357.6133333333335</ele><time>2025-05-03T04:08:19Z</time></trkpt><trkpt lat="35.8175514" lon="139.0541945"><ele>1350.0966666666666</ele><time>2025-05-03T04:08:55Z</time></trkpt><trkpt lat="35.8175277" lon="139.0544251"><ele>1341.8799999999999</ele><time>2025-05-03T04:09:25Z</time></trkpt><trkpt lat="35.817465" lon="139.0546406"><ele>1334.0366666666669</ele><time>2025-05-03T04:09:37Z</time></trkpt><trkpt lat="35.8173269" lon="139.0548274"><ele>1325.6133333333335</ele><time>2025-05-03T04:09:58Z</time></trkpt><trkpt lat="35.8172758" lon="139.0550494"><ele>1318.2366666666667</ele><time>2025-05-03T04:10:28Z</time></trkpt><trkpt lat="35.8172327" lon="139.0553019"><ele>1310.7533333333333</ele><time>2025-05-03T04:10:47Z</time></trkpt><trkpt lat="35.8171768" lon="139.0555434"><ele>1304.1866666666667</ele><time>2025-05-03T04:11:05Z</time></trkpt><trkpt lat="35.8170333" lon="139.0557446"><ele>1297.8933333333334</ele><time>2025-05-03T04:11:22Z</time></trkpt><trkpt lat="35.8169465" lon="139.0559573"><ele>1292.2666666666667</ele><time>2025-05-03T04:11:40Z</time></trkpt><trkpt lat="35.8168756" lon="139.0561667"><ele>1286.6699999999998</ele><time>2025-05-03T04:12:10Z</time></trkpt><trkpt lat="35.8167321" lon="139.0563188"><ele>1280.1066666666666</ele><time>2025-05-03T04:12:34Z</time></trkpt><trkpt lat="35.8166064" lon="139.0564802"><ele>1272.2766666666666</ele><time>2025-05-03T04:13:22Z</time></trkpt><trkpt lat="35.8164427" lon="139.0566225"><ele>1263.6899999999998</ele><time>2025-05-03T04:14:04Z</time></trkpt><trkpt lat="35.8162867" lon="139.0567637"><ele>1255.7233333333334</ele><time>2025-05-03T04:14:34Z</time></trkpt><trkpt lat="35.8161299" lon="139.0568748"><ele>1248.2633333333333</ele><time>2025-05-03T04:14:59Z</time></trkpt><trkpt lat="35.815939" lon="139.0568666"><ele>1240.8066666666666</ele><time>2025-05-03T04:15:26Z</time></trkpt><trkpt lat="35.815761" lon="139.0569191"><ele>1233.5733333333335</ele><time>2025-05-03T04:15:53Z</time></trkpt><trkpt lat="35.8155503" lon="139.0570192"><ele>1226.1966666666667</ele><time>2025-05-03T04:16:23Z</time></trkpt><trkpt lat="35.815409" lon="139.0572472"><ele>1220.1233333333332</ele><time>2025-05-03T04:16:50Z</time></trkpt><trkpt lat="35.8152697" lon="139.0574073"><ele>1214.3500000000001</ele><time>2025-05-03T04:17:14Z</time></trkpt><trkpt lat="35.8152176" lon="139.0576262"><ele>1210.0166666666667</ele><time>2025-05-03T04:17:35Z</time></trkpt><trkpt lat="35.8151515" lon="139.0578355"><ele>1205.0133333333333</ele><time>2025-05-03T04:17:52Z</time></trkpt><trkpt lat="35.8150762" lon="139.0580368"><ele>1200.5600000000002</ele><time>2025-05-03T04:18:13Z</time></trkpt><trkpt lat="35.8148949" lon="139.0581158"><ele>1194.8266666666666</ele><time>2025-05-03T04:18:34Z</time></trkpt><trkpt lat="35.8147846" lon="139.0583162"><ele>1187.5333333333335</ele><time>2025-05-03T04:18:55Z</time></trkpt><trkpt lat="35.8147138" lon="139.0585306"><ele>1180.8766666666668</ele><time>2025-05-03T04:19:17Z</time></trkpt><trkpt lat="35.8146336" lon="139.0587596"><ele>1176.26</ele><time>2025-05-03T04:19:35Z</time></trkpt><trkpt lat="35.8145532" lon="139.0589936"><ele>1174.18</ele><time>2025-05-03T04:19:53Z</time></trkpt><trkpt lat="35.8145323" lon="139.0592434"><ele>1171.1466666666668</ele><time>2025-05-03T04:20:05Z</time></trkpt><trkpt lat="35.8144542" lon="139.0594565"><ele>1167.0800000000002</ele><time>2025-05-03T04:20:26Z</time></trkpt><trkpt lat="35.8143114" lon="139.0596423"><ele>1162.7933333333333</ele><time>2025-05-03T04:20:41Z</time></trkpt><trkpt lat="35.8141768" lon="139.0598615"><ele>1159.37</ele><time>2025-05-03T04:20:55Z</time></trkpt><trkpt lat="35.8140635" lon="139.0600461"><ele>1159.3366666666668</ele><time>2025-05-03T04:21:07Z</time></trkpt><trkpt lat="35.8139011" lon="139.0602218"><ele>1162.4766666666667</ele><time>2025-05-03T04:21:25Z</time></trkpt><trkpt lat="35.8137687" lon="139.0603859"><ele>1166.0933333333335</ele><time>2025-05-03T04:21:40Z</time></trkpt><trkpt lat="35.8136466" lon="139.0605497"><ele>1169.89</ele><time>2025-05-03T04:21:52Z</time></trkpt><trkpt lat="35.8135436" lon="139.0607835"><ele>1170.9333333333334</ele><time>2025-05-03T04:22:07Z</time></trkpt><trkpt lat="35.8136217" lon="139.0610072"><ele>1172.0</ele><time>2025-05-03T04:22:24Z</time></trkpt><trkpt lat="35.8137424" lon="139.061206"><ele>1170.3866666666665</ele><time>2025-05-03T04:22:36Z</time></trkpt><trkpt lat="35.8138013" lon="139.0614678"><ele>1168.3966666666668</ele><time>2025-05-03T04:22:55Z</time></trkpt><trkpt lat="35.8137655" lon="139.0616945"><ele>1165.6466666666668</ele><time>2025-05-03T04:23:03Z</time></trkpt><trkpt lat="35.8137199" lon="139.0619332"><ele>1163.2233333333334</ele><time>2025-05-03T04:23:19Z</time></trkpt><trkpt lat="35.8137402" lon="139.0621652"><ele>1160.49</ele><time>2025-05-03T04:23:34Z</time></trkpt><trkpt lat="35.8138062" lon="139.0623816"><ele>1156.99</ele><time>2025-05-03T04:23:49Z</time></trkpt><trkpt lat="35.8138543" lon="139.0626257"><ele>1154.17</ele><time>2025-05-03T04:24:04Z</time></trkpt><trkpt lat="35.813905" lon="139.0628728"><ele>1153.1733333333334</ele><time>2025-05-03T04:24:19Z</time></trkpt><trkpt lat="35.8139305" lon="139.0631241"><ele>1154.6733333333334</ele><time>2025-05-03T04:24:34Z</time></trkpt><trkpt lat="35.8140425" lon="139.0632988"><ele>1155.7633333333333</ele><time>2025-05-03T04:24:50Z</time></trkpt><trkpt lat="35.8140421" lon="139.0635411"><ele>1156.8166666666668</ele><time>2025-05-03T04:25:08Z</time></trkpt><trkpt lat="35.8139938" lon="139.0638154"><ele>1156.2566666666664</ele><time>2025-05-03T04:25:27Z</time></trkpt><trkpt lat="35.8139297" lon="139.0640223"><ele>1155.4233333333334</ele><time>2025-05-03T04:25:39Z</time></trkpt><trkpt lat="35.8138378" lon="139.0642269"><ele>1155.8066666666666</ele><time>2025-05-03T04:25:57Z</time></trkpt><trkpt lat="35.8137453" lon="139.0644418"><ele>1156.5200000000002</ele><time>2025-05-03T04:26:15Z</time></trkpt><trkpt lat="35.8136637" lon="139.0646893"><ele>1157.8533333333335</ele><time>2025-05-03T04:26:33Z</time></trkpt><trkpt lat="35.8135374" lon="139.0648981"><ele>1159.2166666666665</ele><time>2025-05-03T04:26:54Z</time></trkpt><trkpt lat="35.8134766" lon="139.0651261"><ele>1159.58</ele><time>2025-05-03T04:27:12Z</time></trkpt><trkpt lat="35.813375" lon="139.0653588"><ele>1158.84</ele><time>2025-05-03T04:27:27Z</time></trkpt><trkpt lat="35.8133367" lon="139.0655964"><ele>1155.006666666667</ele><time>2025-05-03T04:27:42Z</time></trkpt><trkpt lat="35.8132816" lon="139.0658162"><ele>1152.9566666666667</ele><time>2025-05-03T04:27:57Z</time></trkpt><trkpt lat="35.8132292" lon="139.06605"><ele>1150.8933333333334</ele><time>2025-05-03T04:28:12Z</time></trkpt><trkpt lat="35.8131772" lon="139.0662768"><ele>1149.3633333333335</ele><time>2025-05-03T04:28:27Z</time></trkpt><trkpt lat="35.813114" lon="139.066535"><ele>1147.1100000000001</ele><time>2025-05-03T04:28:42Z</time></trkpt><trkpt lat="35.8130794" lon="139.0667839"><ele>1145.2633333333333</ele><time>2025-05-03T04:29:00Z</time></trkpt><trkpt lat="35.8130469" lon="139.067016"><ele>1142.6000000000001</ele><time>2025-05-03T04:29:15Z</time></trkpt><trkpt lat="35.8130109" lon="139.0672515"><ele>1139.78</ele><time>2025-05-03T04:29:30Z</time></trkpt><trkpt lat="35.8131148" lon="139.0674781"><ele>1136.8566666666666</ele><time>2025-05-03T04:29:45Z</time></trkpt><trkpt lat="35.8132548" lon="139.0676785"><ele>1134.6233333333332</ele><time>2025-05-03T04:30:00Z</time></trkpt><trkpt lat="35.8134156" lon="139.0678269"><ele>1131.8999999999999</ele><time>2025-05-03T04:30:27Z</time></trkpt><trkpt lat="35.8134859" lon="139.0680387"><ele>1128.11</ele><time>2025-05-03T04:30:45Z</time></trkpt><trkpt lat="35.8136141" lon="139.0682166"><ele>1124.3100000000002</ele><time>2025-05-03T04:31:05Z</time></trkpt><trkpt lat="35.8136267" lon="139.0684743"><ele>1118.9566666666667</ele><time>2025-05-03T04:31:27Z</time></trkpt><trkpt lat="35.8136734" lon="139.0686908"><ele>1113.7066666666667</ele><time>2025-05-03T04:32:03Z</time></trkpt><trkpt lat="35.8137487" lon="139.068914"><ele>1107.1033333333332</ele><time>2025-05-03T04:33:43Z</time></trkpt><trkpt lat="35.8137673" lon="139.0691414"><ele>1101.6499999999999</ele><time>2025-05-03T04:34:04Z</time></trkpt><trkpt lat="35.8136766" lon="139.0693579"><ele>1095.3166666666666</ele><time>2025-05-03T04:34:28Z</time></trkpt><trkpt lat="35.8135637" lon="139.0695452"><ele>1088.9400000000003</ele><time>2025-05-03T04:34:52Z</time></trkpt><trkpt lat="35.8134618" lon="139.0697327"><ele>1082.5966666666668</ele><time>2025-05-03T04:35:10Z</time></trkpt><trkpt lat="35.8132769" lon="139.0699671"><ele>1074.43</ele><time>2025-05-03T04:35:52Z</time></trkpt><trkpt lat="35.8131928" lon="139.0702045"><ele>1067.8266666666666</ele><time>2025-05-03T04:36:04Z</time></trkpt><trkpt lat="35.8130765" lon="139.0703816"><ele>1060.2833333333333</ele><time>2025-05-03T04:36:31Z</time></trkpt><trkpt lat="35.8129621" lon="139.0706009"><ele>1055.74</ele><time>2025-05-03T04:36:58Z</time></trkpt><trkpt lat="35.8128631" lon="139.0707977"><ele>1049.09</ele><time>2025-05-03T04:37:15Z</time></trkpt><trkpt lat="35.8126791" lon="139.0709033"><ele>1042.75</ele><time>2025-05-03T04:37:33Z</time></trkpt><trkpt lat="35.8125038" lon="139.0710234"><ele>1034.8966666666668</ele><time>2025-05-03T04:37:53Z</time></trkpt><trkpt lat="35.8124487" lon="139.0712387"><ele>1029.2533333333333</ele><time>2025-05-03T04:38:11Z</time></trkpt><trkpt lat="35.8123331" lon="139.0714597"><ele>1024.9433333333334</ele><time>2025-05-03T04:38:27Z</time></trkpt><trkpt lat="35.8121696" lon="139.0715946"><ele>1020.87</ele><time>2025-05-03T04:38:44Z</time></trkpt><trkpt lat="35.8120029" lon="139.0717133"><ele>1015.5266666666666</ele><time>2025-05-03T04:38:59Z</time></trkpt><trkpt lat="35.8118381" lon="139.0718281"><ele>1009.6733333333335</ele><time>2025-05-03T04:39:17Z</time></trkpt><trkpt lat="35.8117341" lon="139.0720298"><ele>1004.6433333333334</ele><time>2025-05-03T04:39:38Z</time></trkpt><trkpt lat="35.8116112" lon="139.0722008"><ele>998.46</ele><time>2025-05-03T04:39:59Z</time></trkpt><trkpt lat="35.8114384" lon="139.072329"><ele>991.9699999999999</ele><time>2025-05-03T04:40:14Z</time></trkpt><trkpt lat="35.8112623" lon="139.0724377"><ele>985.1466666666666</ele><time>2025-05-03T04:40:29Z</time></trkpt><trkpt lat="35.811062" lon="139.072503"><ele>980.1733333333335</ele><time>2025-05-03T04:40:45Z</time></trkpt><trkpt lat="35.81089" lon="139.0726246"><ele>974.7400000000001</ele><time>2025-05-03T04:41:02Z</time></trkpt><trkpt lat="35.810698" lon="139.0727007"><ele>969.8866666666667</ele><time>2025-05-03T04:41:19Z</time></trkpt><trkpt lat="35.8105597" lon="139.072859"><ele>964.3299999999999</ele><time>2025-05-03T04:41:45Z</time></trkpt><trkpt lat="35.8103775" lon="139.0729883"><ele>958.94</ele><time>2025-05-03T04:42:09Z</time></trkpt><trkpt lat="35.810292" lon="139.0732123"><ele>951.3699999999999</ele><time>2025-05-03T04:42:36Z</time></trkpt><trkpt lat="35.8102035" lon="139.0734384"><ele>943.9333333333334</ele><time>2025-05-03T04:42:57Z</time></trkpt><trkpt lat="35.8101092" lon="139.0736376"><ele>936.3533333333334</ele><time>2025-05-03T04:43:12Z</time></trkpt><trkpt lat="35.8100315" lon="139.0738744"><ele>930.16</ele><time>2025-05-03T04:43:27Z</time></trkpt><trkpt lat="35.8099451" lon="139.0740975"><ele>924.4833333333332</ele><time>2025-05-03T04:43:45Z</time></trkpt><trkpt lat="35.8099122" lon="139.0743439"><ele>919.0433333333334</ele><time>2025-05-03T04:44:03Z</time></trkpt><trkpt lat="35.8098961" lon="139.0745916"><ele>914.2700000000001</ele><time>2025-05-03T04:44:21Z</time></trkpt><trkpt lat="35.8098068" lon="139.0748034"><ele>909.33</ele><time>2025-05-03T04:44:39Z</time></trkpt><trkpt lat="35.8097337" lon="139.0750104"><ele>905.0166666666668</ele><time>2025-05-03T04:44:54Z</time></trkpt><trkpt lat="35.8096342" lon="139.0752447"><ele>901.2600000000001</ele><time>2025-05-03T04:45:12Z</time></trkpt><trkpt lat="35.8095853" lon="139.0754697"><ele>897.9</ele><time>2025-05-03T04:45:27Z</time></trkpt><trkpt lat="35.8095342" lon="139.0757243"><ele>894.8266666666667</ele><time>2025-05-03T04:45:42Z</time></trkpt><trkpt lat="35.8095104" lon="139.0759889"><ele>891.3733333333333</ele><time>2025-05-03T04:45:57Z</time></trkpt><trkpt lat="35.8095316" lon="139.0762518"><ele>888.0433333333334</ele><time>2025-05-03T04:46:12Z</time></trkpt><trkpt lat="35.8095557" lon="139.0765019"><ele>885.0266666666668</ele><time>2025-05-03T04:46:27Z</time></trkpt><trkpt lat="35.8095804" lon="139.07675"><ele>882.8133333333334</ele><time>2025-05-03T04:46:42Z</time></trkpt><trkpt lat="35.8095768" lon="139.0770196"><ele>880.4900000000001</ele><time>2025-05-03T04:46:54Z</time></trkpt><trkpt lat="35.8096103" lon="139.077268"><ele>877.4566666666666</ele><time>2025-05-03T04:47:08Z</time></trkpt><trkpt lat="35.8097045" lon="139.0774851"><ele>874.0100000000001</ele><time>2025-05-03T04:47:32Z</time></trkpt><trkpt lat="35.8098128" lon="139.0776721"><ele>869.8299999999999</ele><time>2025-05-03T04:47:53Z</time></trkpt><trkpt lat="35.8099206" lon="139.0779037"><ele>865.2366666666667</ele><time>2025-05-03T04:48:11Z</time></trkpt><trkpt lat="35.809994" lon="139.0781351"><ele>860.7466666666666</ele><time>2025-05-03T04:48:26Z</time></trkpt><trkpt lat="35.8099889" lon="139.0783901"><ele>857.1966666666667</ele><time>2025-05-03T04:48:44Z</time></trkpt><trkpt lat="35.8099357" lon="139.0786247"><ele>854.1433333333334</ele><time>2025-05-03T04:49:04Z</time></trkpt><trkpt lat="35.8100156" lon="139.0788521"><ele>851.0733333333334</ele><time>2025-05-03T04:49:55Z</time></trkpt><trkpt lat="35.810071" lon="139.0791027"><ele>847.2266666666666</ele><time>2025-05-03T04:50:13Z</time></trkpt><trkpt lat="35.8101335" lon="139.0793234"><ele>843.08</ele><time>2025-05-03T04:50:34Z</time></trkpt><trkpt lat="35.8101945" lon="139.0795606"><ele>839.1366666666667</ele><time>2025-05-03T04:50:52Z</time></trkpt><trkpt lat="35.810276" lon="139.0798188"><ele>835.5133333333333</ele><time>2025-05-03T04:51:10Z</time></trkpt><trkpt lat="35.8102568" lon="139.0800802"><ele>833.0733333333334</ele><time>2025-05-03T04:51:28Z</time></trkpt><trkpt lat="35.8103088" lon="139.0803323"><ele>829.4366666666666</ele><time>2025-05-03T04:51:46Z</time></trkpt><trkpt lat="35.8104201" lon="139.0805622"><ele>825.48</ele><time>2025-05-03T04:52:01Z</time></trkpt><trkpt lat="35.8104867" lon="139.0808237"><ele>818.9699999999999</ele><time>2025-05-03T04:52:18Z</time></trkpt><trkpt lat="35.8105745" lon="139.0810475"><ele>814.4933333333333</ele><time>2025-05-03T04:52:33Z</time></trkpt><trkpt lat="35.8105821" lon="139.0813173"><ele>811.6433333333333</ele><time>2025-05-03T04:52:51Z</time></trkpt><trkpt lat="35.8105926" lon="139.081572"><ele>811.4233333333333</ele><time>2025-05-03T04:53:06Z</time></trkpt><trkpt lat="35.810654" lon="139.0818025"><ele>810.5633333333334</ele><time>2025-05-03T04:53:23Z</time></trkpt><trkpt lat="35.8106904" lon="139.0820304"><ele>809.5500000000001</ele><time>2025-05-03T04:53:42Z</time></trkpt><trkpt lat="35.8106763" lon="139.0822606"><ele>807.4966666666666</ele><time>2025-05-03T04:54:03Z</time></trkpt><trkpt lat="35.8106818" lon="139.0825124"><ele>803.75</ele><time>2025-05-03T04:54:22Z</time></trkpt><trkpt lat="35.8107506" lon="139.0827233"><ele>797.59</ele><time>2025-05-03T04:54:49Z</time></trkpt><trkpt lat="35.8107144" lon="139.0829696"><ele>791.0366666666665</ele><time>2025-05-03T04:56:52Z</time></trkpt><trkpt lat="35.8107264" lon="139.0831918"><ele>785.6933333333333</ele><time>2025-05-03T04:57:12Z</time></trkpt><trkpt lat="35.8105723" lon="139.0830522"><ele>780.3366666666667</ele><time>2025-05-03T04:57:39Z</time></trkpt><trkpt lat="35.8104402" lon="139.0828499"><ele>778.5600000000001</ele><time>2025-05-03T04:57:58Z</time></trkpt><trkpt lat="35.8102594" lon="139.0827387"><ele>773.3466666666667</ele><time>2025-05-03T04:58:28Z</time></trkpt><trkpt lat="35.8100513" lon="139.0827354"><ele>767.2166666666667</ele><time>2025-05-03T04:58:40Z</time></trkpt><trkpt lat="35.8098686" lon="139.0827597"><ele>757.6366666666667</ele><time>2025-05-03T04:58:55Z</time></trkpt><trkpt lat="35.8096905" lon="139.0826651"><ele>751.6899999999999</ele><time>2025-05-03T04:59:16Z</time></trkpt><trkpt lat="35.8095402" lon="139.0825285"><ele>748.1633333333333</ele><time>2025-05-03T04:59:33Z</time></trkpt><trkpt lat="35.809336" lon="139.0824297"><ele>743.0933333333332</ele><time>2025-05-03T04:59:49Z</time></trkpt><trkpt lat="35.809293" lon="139.0826593"><ele>732.0166666666668</ele><time>2025-05-03T05:00:40Z</time></trkpt><trkpt lat="35.8094195" lon="139.0828606"><ele>722.9366666666668</ele><time>2025-05-03T05:00:54Z</time></trkpt><trkpt lat="35.8095636" lon="139.0830262"><ele>717.32</ele><time>2025-05-03T05:01:12Z</time></trkpt><trkpt lat="35.8096603" lon="139.0832219"><ele>716.0799999999999</ele><time>2025-05-03T05:01:52Z</time></trkpt><trkpt lat="35.8097642" lon="139.0835276"><ele>711.6266666666667</ele><time>2025-05-03T05:02:25Z</time></trkpt><trkpt lat="35.8097615" lon="139.0837735"><ele>706.2166666666667</ele><time>2025-05-03T05:03:31Z</time></trkpt><trkpt lat="35.8096471" lon="139.0839487"><ele>699.8766666666667</ele><time>2025-05-03T05:03:46Z</time></trkpt><trkpt lat="35.8096063" lon="139.0841839"><ele>695.0433333333334</ele><time>2025-05-03T05:04:01Z</time></trkpt><trkpt lat="35.8095144" lon="139.0843789"><ele>688.7166666666667</ele><time>2025-05-03T05:04:25Z</time></trkpt><trkpt lat="35.8093236" lon="139.0845154"><ele>684.8533333333335</ele><time>2025-05-03T05:04:40Z</time></trkpt><trkpt lat="35.8091967" lon="139.0846746"><ele>681.37</ele><time>2025-05-03T05:04:55Z</time></trkpt><trkpt lat="35.8091092" lon="139.084891"><ele>677.9533333333334</ele><time>2025-05-03T05:05:13Z</time></trkpt><trkpt lat="35.8090076" lon="139.0851093"><ele>673.9866666666667</ele><time>2025-05-03T05:06:01Z</time></trkpt><trkpt lat="35.8088644" lon="139.0852804"><ele>668.96</ele><time>2025-05-03T05:06:19Z</time></trkpt><trkpt lat="35.8087582" lon="139.0854826"><ele>664.74</ele><time>2025-05-03T05:06:37Z</time></trkpt><trkpt lat="35.8086134" lon="139.085666"><ele>661.23</ele><time>2025-05-03T05:06:58Z</time></trkpt><trkpt lat="35.8085805" lon="139.0859338"><ele>656.1899999999999</ele><time>2025-05-03T05:07:18Z</time></trkpt><trkpt lat="35.808398" lon="139.0859554"><ele>652.5966666666667</ele><time>2025-05-03T05:07:42Z</time></trkpt><trkpt lat="35.8082874" lon="139.0857629"><ele>650.1266666666667</ele><time>2025-05-03T05:07:58Z</time></trkpt><trkpt lat="35.808162" lon="139.085942"><ele>646.9433333333334</ele><time>2025-05-03T05:08:34Z</time></trkpt><trkpt lat="35.8080939" lon="139.086178"><ele>641.37</ele><time>2025-05-03T05:08:54Z</time></trkpt><trkpt lat="35.8079592" lon="139.0863531"><ele>633.0933333333334</ele><time>2025-05-03T05:09:25Z</time></trkpt><trkpt lat="35.8079311" lon="139.0860975"><ele>627.4066666666666</ele><time>2025-05-03T05:09:52Z</time></trkpt><trkpt lat="35.8078361" lon="139.0858879"><ele>619.65</ele><time>2025-05-03T05:10:19Z</time></trkpt><trkpt lat="35.8077724" lon="139.0861009"><ele>611.77</ele><time>2025-05-03T05:10:49Z</time></trkpt><trkpt lat="35.8077005" lon="139.0863446"><ele>605.6633333333334</ele><time>2025-05-03T05:11:07Z</time></trkpt><trkpt lat="35.8075586" lon="139.0865286"><ele>601.69</ele><time>2025-05-03T05:11:16Z</time></trkpt><trkpt lat="35.8075395" lon="139.0867568"><ele>601.1266666666667</ele><time>2025-05-03T05:11:34Z</time></trkpt><trkpt lat="35.8076654" lon="139.0869219"><ele>598.6033333333334</ele><time>2025-05-03T05:11:52Z</time></trkpt><trkpt lat="35.8078588" lon="139.0869432"><ele>597.5666666666667</ele><time>2025-05-03T05:12:14Z</time></trkpt><trkpt lat="35.8080347" lon="139.087029"><ele>595.0633333333334</ele><time>2025-05-03T05:12:32Z</time></trkpt><trkpt lat="35.8081484" lon="139.0872197"><ele>592.7333333333333</ele><time>2025-05-03T05:12:53Z</time></trkpt><trkpt lat="35.8081679" lon="139.0874748"><ele>588.91</ele><time>2025-05-03T05:13:08Z</time></trkpt><trkpt lat="35.8082008" lon="139.0877439"><ele>584.99</ele><time>2025-05-03T05:13:20Z</time></trkpt><trkpt lat="35.8081757" lon="139.0879681"><ele>582.6233333333333</ele><time>2025-05-03T05:13:38Z</time></trkpt><trkpt lat="35.8080604" lon="139.0881485"><ele>579.48</ele><time>2025-05-03T05:13:53Z</time></trkpt><trkpt lat="35.808038" lon="139.0883757"><ele>576.75</ele><time>2025-05-03T05:14:07Z</time></trkpt><trkpt lat="35.8080908" lon="139.0886159"><ele>573.2233333333334</ele><time>2025-05-03T05:14:25Z</time></trkpt><trkpt lat="35.8081357" lon="139.0888642"><ele>571.12</ele><time>2025-05-03T05:14:40Z</time></trkpt><trkpt lat="35.8080563" lon="139.0890914"><ele>568.13</ele><time>2025-05-03T05:14:55Z</time></trkpt><trkpt lat="35.808011" lon="139.0893384"><ele>566.3366666666667</ele><time>2025-05-03T05:15:07Z</time></trkpt><trkpt lat="35.8080496" lon="139.0895764"><ele>566.66</ele><time>2025-05-03T05:15:21Z</time></trkpt><trkpt lat="35.8078546" lon="139.0895751"><ele>564.2633333333333</ele><time>2025-05-03T05:15:43Z</time></trkpt><trkpt lat="35.8079143" lon="139.0893312"><ele>561.75</ele><time>2025-05-03T05:16:02Z</time></trkpt><trkpt lat="35.8079039" lon="139.0890718"><ele>558.0466666666666</ele><time>2025-05-03T05:16:20Z</time></trkpt><trkpt lat="35.8078417" lon="139.0888116"><ele>557.4133333333333</ele><time>2025-05-03T05:16:35Z</time></trkpt><trkpt lat="35.8077789" lon="139.0885667"><ele>556.27</ele><time>2025-05-03T05:16:49Z</time></trkpt><trkpt lat="35.8077091" lon="139.0883527"><ele>554.9466666666667</ele><time>2025-05-03T05:17:04Z</time></trkpt><trkpt lat="35.807664" lon="139.0881354"><ele>553.0266666666666</ele><time>2025-05-03T05:17:16Z</time></trkpt><trkpt lat="35.8075825" lon="139.0879379"><ele>550.3933333333333</ele><time>2025-05-03T05:17:28Z</time></trkpt><trkpt lat="35.8074001" lon="139.0878121"><ele>547.74</ele><time>2025-05-03T05:17:46Z</time></trkpt><trkpt lat="35.8071968" lon="139.0878595"><ele>544.5533333333334</ele><time>2025-05-03T05:18:05Z</time></trkpt><trkpt lat="35.8070326" lon="139.0880057"><ele>539.1366666666667</ele><time>2025-05-03T05:18:26Z</time></trkpt><trkpt lat="35.8069651" lon="139.08823"><ele>531.9566666666666</ele><time>2025-05-03T05:18:41Z</time></trkpt><trkpt lat="35.8069234" lon="139.0884794"><ele>525.3866666666667</ele><time>2025-05-03T05:19:17Z</time></trkpt><trkpt lat="35.8068429" lon="139.0886782"><ele>519.2866666666666</ele><time>2025-05-03T05:19:35Z</time></trkpt><trkpt lat="35.8067488" lon="139.0888849"><ele>514.6966666666666</ele><time>2025-05-03T05:19:53Z</time></trkpt><trkpt lat="35.8065901" lon="139.0890375"><ele>510.1333333333334</ele><time>2025-05-03T05:20:14Z</time></trkpt><trkpt lat="35.8064472" lon="139.0891764"><ele>506.35999999999996</ele><time>2025-05-03T05:20:32Z</time></trkpt><trkpt lat="35.8063088" lon="139.0893305"><ele>502.3066666666667</ele><time>2025-05-03T05:20:47Z</time></trkpt><trkpt lat="35.8061511" lon="139.0894937"><ele>498.32</ele><time>2025-05-03T05:21:05Z</time></trkpt><trkpt lat="35.8060249" lon="139.0896941"><ele>494.59666666666664</ele><time>2025-05-03T05:21:23Z</time></trkpt><trkpt lat="35.8058969" lon="139.0898741"><ele>490.46333333333337</ele><time>2025-05-03T05:21:41Z</time></trkpt><trkpt lat="35.8058042" lon="139.0900816"><ele>486.76</ele><time>2025-05-03T05:22:04Z</time></trkpt><trkpt lat="35.8056725" lon="139.0902506"><ele>483.68</ele><time>2025-05-03T05:22:29Z</time></trkpt><trkpt lat="35.805598" lon="139.0904661"><ele>482.08666666666664</ele><time>2025-05-03T05:22:50Z</time></trkpt><trkpt lat="35.8055889" lon="139.0907124"><ele>477.4066666666667</ele><time>2025-05-03T05:23:20Z</time></trkpt><trkpt lat="35.8056921" lon="139.0909038"><ele>470.3333333333333</ele><time>2025-05-03T05:23:43Z</time></trkpt><trkpt lat="35.8056913" lon="139.0911528"><ele>458.38000000000005</ele><time>2025-05-03T05:24:11Z</time></trkpt><trkpt lat="35.8057584" lon="139.0913803"><ele>447.7266666666667</ele><time>2025-05-03T05:24:47Z</time></trkpt><trkpt lat="35.8058144" lon="139.0915962"><ele>438.5466666666667</ele><time>2025-05-03T05:25:13Z</time></trkpt><trkpt lat="35.8058794" lon="139.0918123"><ele>431.25</ele><time>2025-05-03T05:25:31Z</time></trkpt><trkpt lat="35.8058759" lon="139.0920429"><ele>425.2866666666667</ele><time>2025-05-03T05:25:49Z</time></trkpt><trkpt lat="35.8059263" lon="139.0922887"><ele>419.53</ele><time>2025-05-03T05:26:11Z</time></trkpt><trkpt lat="35.8060738" lon="139.092125"><ele>416.8333333333333</ele><time>2025-05-03T05:26:53Z</time></trkpt><trkpt lat="35.8061069" lon="139.0918832"><ele>416.3833333333334</ele><time>2025-05-03T05:27:08Z</time></trkpt><trkpt lat="35.8062855" lon="139.0919161"><ele>414.25666666666666</ele><time>2025-05-03T05:27:34Z</time></trkpt><trkpt lat="35.8063463" lon="139.0921297"><ele>411.24666666666667</ele><time>2025-05-03T05:27:46Z</time></trkpt><trkpt lat="35.8065408" lon="139.092243"><ele>406.67</ele><time>2025-05-03T05:28:01Z</time></trkpt><trkpt lat="35.8067098" lon="139.0923862"><ele>405.1933333333333</ele><time>2025-05-03T05:28:15Z</time></trkpt><trkpt lat="35.8068142" lon="139.0926082"><ele>400.52000000000004</ele><time>2025-05-03T05:28:30Z</time></trkpt><trkpt lat="35.8068925" lon="139.0928364"><ele>394.8500000000001</ele><time>2025-05-03T05:28:42Z</time></trkpt><trkpt lat="35.8069126" lon="139.0931116"><ele>388.6766666666667</ele><time>2025-05-03T05:28:57Z</time></trkpt><trkpt lat="35.8069493" lon="139.0933537"><ele>386.1933333333333</ele><time>2025-05-03T05:29:12Z</time></trkpt><trkpt lat="35.8070998" lon="139.093536"><ele>385.5</ele><time>2025-05-03T05:29:29Z</time></trkpt><trkpt lat="35.807221" lon="139.0937572"><ele>383.6966666666667</ele><time>2025-05-03T05:29:44Z</time></trkpt><trkpt lat="35.807318" lon="139.0939877"><ele>381.5</ele><time>2025-05-03T05:29:58Z</time></trkpt><trkpt lat="35.8075091" lon="139.0941208"><ele>379.37000000000006</ele><time>2025-05-03T05:30:16Z</time></trkpt><trkpt lat="35.807697" lon="139.0941977"><ele>379.00333333333333</ele><time>2025-05-03T05:30:28Z</time></trkpt><trkpt lat="35.8078466" lon="139.0943619"><ele>377.31666666666666</ele><time>2025-05-03T05:30:45Z</time></trkpt><trkpt lat="35.8076837" lon="139.0945369"><ele>373.09</ele><time>2025-05-03T05:31:09Z</time></trkpt><trkpt lat="35.8074913" lon="139.0946203"><ele>366.54333333333335</ele><time>2025-05-03T05:31:20Z</time></trkpt><trkpt lat="35.8072947" lon="139.0947578"><ele>360.91333333333336</ele><time>2025-05-03T05:31:38Z</time></trkpt><trkpt lat="35.8071586" lon="139.0949133"><ele>356.3666666666666</ele><time>2025-05-03T05:31:55Z</time></trkpt><trkpt lat="35.8071659" lon="139.0951587"><ele>351.84666666666664</ele><time>2025-05-03T05:32:16Z</time></trkpt><trkpt lat="35.8071071" lon="139.0953901"><ele>347.2966666666666</ele><time>2025-05-03T05:32:36Z</time></trkpt><trkpt lat="35.8072889" lon="139.0955046"><ele>342.69</ele><time>2025-05-03T05:33:13Z</time></trkpt><trkpt lat="35.807493" lon="139.0956237"><ele>339.21999999999997</ele><time>2025-05-03T05:33:30Z</time></trkpt><trkpt lat="35.8076418" lon="139.0958154"><ele>335.8433333333333</ele><time>2025-05-03T05:33:42Z</time></trkpt><trkpt lat="35.8077699" lon="139.0960464"><ele>327.19666666666666</ele><time>2025-05-03T05:33:57Z</time></trkpt><trkpt lat="35.8078993" lon="139.0962727"><ele>318.1133333333333</ele><time>2025-05-03T05:34:08Z</time></trkpt><trkpt lat="35.8080149" lon="139.0965159"><ele>317.39000000000004</ele><time>2025-05-03T05:34:26Z</time></trkpt><trkpt lat="35.8081187" lon="139.0967476"><ele>326.99333333333334</ele><time>2025-05-03T05:34:43Z</time></trkpt><trkpt lat="35.808252" lon="139.096904"><ele>338.19000000000005</ele><time>2025-05-03T05:34:55Z</time></trkpt><trkpt lat="35.8084321" lon="139.0969717"><ele>342.58666666666664</ele><time>2025-05-03T05:35:19Z</time></trkpt><trkpt lat="35.8085857" lon="139.0968184"><ele>342.9433333333333</ele><time>2025-05-03T05:35:52Z</time></trkpt><trkpt lat="35.8086889" lon="139.0966237"><ele>342.72</ele><time>2025-05-03T05:36:10Z</time></trkpt><trkpt lat="35.808849" lon="139.0965191"><ele>342.03999999999996</ele><time>2025-05-03T05:36:25Z</time></trkpt><trkpt lat="35.8089706" lon="139.0967036"><ele>342.0333333333333</ele><time>2025-05-03T05:36:59Z</time></trkpt></trkseg></trk></gpx>