<?xml version='1.0' encoding='UTF-8'?><gpx creator="YAMAP - https://yamap.com" xsi:schemaLocation="http://www.topografix.com/GPX/1/1 http://www.topografix.com/GPX/1/1/gpx.xsd" version="1.1" xmlns="http://www.topografix.com/GPX/1/1" xmlns:xsi="http://www.w3.org/2001/XMLSchema-instance"><metadata><bounds maxlat="35.4412785" maxlon="139.2572964" minlat="35.3675" minlon="139.2262941"/></metadata><trk><name>丹沢・大山</name><number>1</number><trkseg><trkpt lat="35.4157222" lon="139.2282707"><ele>310.56</ele><time>2023-12-02T23:22:59Z</time></trkpt><trkpt lat="35.4158906" lon="139.2283919"><ele>311.655</ele><time>2023-12-02T23:23:32Z</time></trkpt><trkpt lat="35.4160458" lon="139.2285044"><ele>313.00333333333333</ele><time>2023-12-02T23:23:47Z</time></trkpt><trkpt lat="35.4161857" lon="139.2286506"><ele>316.4433333333333</ele><time>2023-12-02T23:24:02Z</time></trkpt><trkpt lat="35.4163451" lon="139.2287633"><ele>319.10999999999996</ele><time>2023-12-02T23:24:19Z</time></trkpt><trkpt lat="35.4165109" lon="139.2288536"><ele>320.87666666666667</ele><time>2023-12-02T23:24:34Z</time></trkpt><trkpt lat="35.4166828" lon="139.2289399"><ele>321.77</ele><time>2023-12-02T23:24:48Z</time></trkpt><trkpt lat="35.4168361" lon="139.2288207"><ele>322.6933333333333</ele><time>2023-12-02T23:25:08Z</time></trkpt><trkpt lat="35.4170223" lon="139.2288188"><ele>324.6166666666666</ele><time>2023-12-02T23:25:21Z</time></trkpt><trkpt lat="35.4172075" lon="139.2288316"><ele>326.49</ele><time>2023-12-02T23:25:34Z</time></trkpt><trkpt lat="35.4173969" lon="139.2288136"><ele>329.7366666666667</ele><time>2023-12-02T23:25:49Z</time></trkpt><trkpt lat="35.4175638" lon="139.2289241"><ele>333.8066666666667</ele><time>2023-12-02T23:26:04Z</time></trkpt><trkpt lat="35.4177509" lon="139.2289611"><ele>338.71</ele><time>2023-12-02T23:26:22Z</time></trkpt><trkpt lat="35.4179435" lon="139.2289632"><ele>344.15000000000003</ele><time>2023-12-02T23:26:37Z</time></trkpt><trkpt lat="35.4181267" lon="139.2289488"><ele>348.1566666666667</ele><time>2023-12-02T23:26:59Z</time></trkpt><trkpt lat="35.4183059" lon="139.2290013"><ele>351.4166666666667</ele><time>2023-12-02T23:27:34Z</time></trkpt><trkpt lat="35.4184542" lon="139.2291267"><ele>353.6666666666667</ele><time>2023-12-02T23:27:57Z</time></trkpt><trkpt lat="35.4185128" lon="139.2293351"><ele>356.81</ele><time>2023-12-02T23:28:18Z</time></trkpt><trkpt lat="35.4185535" lon="139.229555"><ele>359.53</ele><time>2023-12-02T23:28:39Z</time></trkpt><trkpt lat="35.4185832" lon="139.2297788"><ele>363.2033333333334</ele><time>2023-12-02T23:28:57Z</time></trkpt><trkpt lat="35.4185949" lon="139.2300029"><ele>367.48</ele><time>2023-12-02T23:29:22Z</time></trkpt><trkpt lat="35.418727" lon="139.2301573"><ele>372.25666666666666</ele><time>2023-12-02T23:29:53Z</time></trkpt><trkpt lat="35.4189085" lon="139.230245"><ele>376.6033333333333</ele><time>2023-12-02T23:30:23Z</time></trkpt><trkpt lat="35.4187884" lon="139.2304146"><ele>380.64333333333326</ele><time>2023-12-02T23:30:49Z</time></trkpt><trkpt lat="35.4187576" lon="139.2306464"><ele>385.27</ele><time>2023-12-02T23:31:17Z</time></trkpt><trkpt lat="35.4187288" lon="139.2308671"><ele>389.75666666666666</ele><time>2023-12-02T23:31:41Z</time></trkpt><trkpt lat="35.4185802" lon="139.230994"><ele>390.6133333333334</ele><time>2023-12-02T23:32:01Z</time></trkpt><trkpt lat="35.4186184" lon="139.2312177"><ele>390.17333333333335</ele><time>2023-12-02T23:32:22Z</time></trkpt><trkpt lat="35.4187312" lon="139.2313919"><ele>394.03000000000003</ele><time>2023-12-02T23:32:51Z</time></trkpt><trkpt lat="35.4189082" lon="139.2314341"><ele>402.5</ele><time>2023-12-02T23:33:24Z</time></trkpt><trkpt lat="35.4190837" lon="139.2313433"><ele>413.53666666666663</ele><time>2023-12-02T23:33:53Z</time></trkpt><trkpt lat="35.4192517" lon="139.231261"><ele>419.7866666666667</ele><time>2023-12-02T23:34:44Z</time></trkpt><trkpt lat="35.4194345" lon="139.2312629"><ele>426.50333333333333</ele><time>2023-12-02T23:35:25Z</time></trkpt><trkpt lat="35.4194346" lon="139.2314833"><ele>432.72</ele><time>2023-12-02T23:36:05Z</time></trkpt><trkpt lat="35.4196195" lon="139.2315263"><ele>440.49666666666667</ele><time>2023-12-02T23:36:29Z</time></trkpt><trkpt lat="35.4197337" lon="139.2316979"><ele>446.77333333333337</ele><time>2023-12-02T23:38:43Z</time></trkpt><trkpt lat="35.4198887" lon="139.2318133"><ele>451.89000000000004</ele><time>2023-12-02T23:39:10Z</time></trkpt><trkpt lat="35.4200393" lon="139.2319416"><ele>455.99</ele><time>2023-12-02T23:39:30Z</time></trkpt><trkpt lat="35.420168" lon="139.2320992"><ele>460.82666666666665</ele><time>2023-12-02T23:40:26Z</time></trkpt><trkpt lat="35.4202835" lon="139.2322767"><ele>466.4133333333334</ele><time>2023-12-02T23:40:56Z</time></trkpt><trkpt lat="35.4204042" lon="139.2324463"><ele>472.67666666666673</ele><time>2023-12-02T23:41:13Z</time></trkpt><trkpt lat="35.4205423" lon="139.2326007"><ele>478.38000000000005</ele><time>2023-12-02T23:41:47Z</time></trkpt><trkpt lat="35.420722" lon="139.2326389"><ele>484.58666666666676</ele><time>2023-12-02T23:42:13Z</time></trkpt><trkpt lat="35.4208656" lon="139.2327741"><ele>491.1833333333334</ele><time>2023-12-02T23:43:11Z</time></trkpt><trkpt lat="35.4209923" lon="139.2329495"><ele>498.06666666666666</ele><time>2023-12-02T23:43:47Z</time></trkpt><trkpt lat="35.4210088" lon="139.2327257"><ele>502.80333333333334</ele><time>2023-12-02T23:44:44Z</time></trkpt><trkpt lat="35.4210492" lon="139.2325096"><ele>505.64000000000004</ele><time>2023-12-02T23:44:59Z</time></trkpt><trkpt lat="35.4212378" lon="139.2324612"><ele>508.54333333333335</ele><time>2023-12-02T23:45:17Z</time></trkpt><trkpt lat="35.4212075" lon="139.2326804"><ele>511.1133333333334</ele><time>2023-12-02T23:46:19Z</time></trkpt><trkpt lat="35.421351" lon="139.2328146"><ele>514.6166666666667</ele><time>2023-12-02T23:47:08Z</time></trkpt><trkpt lat="35.4215271" lon="139.2328742"><ele>523.2666666666667</ele><time>2023-12-02T23:47:30Z</time></trkpt><trkpt lat="35.4216034" lon="139.2330787"><ele>532.8133333333334</ele><time>2023-12-02T23:48:35Z</time></trkpt><trkpt lat="35.4217494" lon="139.2332147"><ele>542.6633333333333</ele><time>2023-12-02T23:48:57Z</time></trkpt><trkpt lat="35.4218957" lon="139.2333484"><ele>546.9833333333333</ele><time>2023-12-02T23:49:23Z</time></trkpt><trkpt lat="35.4220099" lon="139.2335188"><ele>551.9433333333333</ele><time>2023-12-02T23:50:02Z</time></trkpt><trkpt lat="35.4221934" lon="139.2335736"><ele>556.3833333333333</ele><time>2023-12-02T23:50:30Z</time></trkpt><trkpt lat="35.4223371" lon="139.2337205"><ele>561.1066666666667</ele><time>2023-12-02T23:51:26Z</time></trkpt><trkpt lat="35.4224919" lon="139.2338341"><ele>567.0533333333334</ele><time>2023-12-02T23:52:03Z</time></trkpt><trkpt lat="35.422664" lon="139.233936"><ele>574.11</ele><time>2023-12-02T23:52:56Z</time></trkpt><trkpt lat="35.4227727" lon="139.2341123"><ele>582.3566666666667</ele><time>2023-12-02T23:53:26Z</time></trkpt><trkpt lat="35.4229452" lon="139.2341976"><ele>590.4833333333332</ele><time>2023-12-02T23:53:54Z</time></trkpt><trkpt lat="35.4231315" lon="139.234199"><ele>598.9</ele><time>2023-12-02T23:55:02Z</time></trkpt><trkpt lat="35.4233146" lon="139.2342729"><ele>606.86</ele><time>2023-12-02T23:56:05Z</time></trkpt><trkpt lat="35.4234684" lon="139.2343921"><ele>617.0</ele><time>2023-12-02T23:56:54Z</time></trkpt><trkpt lat="35.4235509" lon="139.2346031"><ele>629.2199999999999</ele><time>2023-12-03T00:00:27Z</time></trkpt><trkpt lat="35.4237347" lon="139.2345738"><ele>641.5333333333333</ele><time>2023-12-03T00:01:13Z</time></trkpt><trkpt lat="35.4239088" lon="139.2346331"><ele>652.8733333333333</ele><time>2023-12-03T00:01:25Z</time></trkpt><trkpt lat="35.4240691" lon="139.2347439"><ele>662.5666666666667</ele><time>2023-12-03T00:03:18Z</time></trkpt><trkpt lat="35.4240623" lon="139.2349656"><ele>670.9733333333335</ele><time>2023-12-03T00:04:37Z</time></trkpt><trkpt lat="35.4242142" lon="139.2350919"><ele>680.7066666666667</ele><time>2023-12-03T00:05:40Z</time></trkpt><trkpt lat="35.4243936" lon="139.2350588"><ele>691.8333333333334</ele><time>2023-12-03T00:06:48Z</time></trkpt><trkpt lat="35.4245755" lon="139.2350735"><ele>704.69</ele><time>2023-12-03T00:07:57Z</time></trkpt><trkpt lat="35.4247412" lon="139.2351628"><ele>717.27</ele><time>2023-12-03T00:09:00Z</time></trkpt><trkpt lat="35.4248999" lon="139.235053"><ele>726.68</ele><time>2023-12-03T00:09:37Z</time></trkpt><trkpt lat="35.4250767" lon="139.2349988"><ele>734.5633333333334</ele><time>2023-12-03T00:10:43Z</time></trkpt><trkpt lat="35.4252497" lon="139.2349205"><ele>740.3466666666667</ele><time>2023-12-03T00:11:32Z</time></trkpt><trkpt lat="35.4254377" lon="139.2349028"><ele>747.2199999999999</ele><time>2023-12-03T00:11:47Z</time></trkpt><trkpt lat="35.4256075" lon="139.2348273"><ele>754.2866666666667</ele><time>2023-12-03T00:12:50Z</time></trkpt><trkpt lat="35.4257868" lon="139.2347622"><ele>761.0566666666667</ele><time>2023-12-03T00:13:48Z</time></trkpt><trkpt lat="35.4259372" lon="139.234602"><ele>767.5433333333334</ele><time>2023-12-03T00:14:12Z</time></trkpt><trkpt lat="35.4261185" lon="139.2345787"><ele>773.5966666666667</ele><time>2023-12-03T00:15:15Z</time></trkpt><trkpt lat="35.4263037" lon="139.2345501"><ele>779.9833333333335</ele><time>2023-12-03T00:16:23Z</time></trkpt><trkpt lat="35.4264777" lon="139.2346375"><ele>786.3466666666667</ele><time>2023-12-03T00:16:38Z</time></trkpt><trkpt lat="35.4266456" lon="139.234739"><ele>792.3433333333334</ele><time>2023-12-03T00:17:13Z</time></trkpt><trkpt lat="35.4268353" lon="139.2347689"><ele>798.8666666666667</ele><time>2023-12-03T00:17:30Z</time></trkpt><trkpt lat="35.42699" lon="139.2348826"><ele>804.7733333333332</ele><time>2023-12-03T00:18:05Z</time></trkpt><trkpt lat="35.4271647" lon="139.2348222"><ele>810.5233333333334</ele><time>2023-12-03T00:18:40Z</time></trkpt><trkpt lat="35.4273458" lon="139.2348759"><ele>814.9066666666668</ele><time>2023-12-03T00:19:26Z</time></trkpt><trkpt lat="35.4275297" lon="139.2348191"><ele>818.7466666666666</ele><time>2023-12-03T00:19:47Z</time></trkpt><trkpt lat="35.4276702" lon="139.2346784"><ele>822.7533333333334</ele><time>2023-12-03T00:20:27Z</time></trkpt><trkpt lat="35.4277765" lon="139.2345005"><ele>826.1033333333334</ele><time>2023-12-03T00:21:04Z</time></trkpt><trkpt lat="35.4278848" lon="139.2343234"><ele>829.5500000000001</ele><time>2023-12-03T00:21:21Z</time></trkpt><trkpt lat="35.4280159" lon="139.2341539"><ele>832.7800000000001</ele><time>2023-12-03T00:21:37Z</time></trkpt><trkpt lat="35.4281746" lon="139.2340417"><ele>835.5099999999999</ele><time>2023-12-03T00:21:57Z</time></trkpt><trkpt lat="35.4283291" lon="139.2339258"><ele>838.2366666666667</ele><time>2023-12-03T00:22:24Z</time></trkpt><trkpt lat="35.4284808" lon="139.2337838"><ele>840.0766666666667</ele><time>2023-12-03T00:22:41Z</time></trkpt><trkpt lat="35.428612" lon="139.2336274"><ele>841.21</ele><time>2023-12-03T00:22:57Z</time></trkpt><trkpt lat="35.4287649" lon="139.2335101"><ele>841.4566666666666</ele><time>2023-12-03T00:23:11Z</time></trkpt><trkpt lat="35.4289424" lon="139.2334135"><ele>841.8566666666667</ele><time>2023-12-03T00:23:25Z</time></trkpt><trkpt lat="35.4290898" lon="139.2332706"><ele>842.3933333333334</ele><time>2023-12-03T00:24:02Z</time></trkpt><trkpt lat="35.429268" lon="139.2331815"><ele>843.0633333333334</ele><time>2023-12-03T00:24:13Z</time></trkpt><trkpt lat="35.4294457" lon="139.2331197"><ele>843.54</ele><time>2023-12-03T00:24:24Z</time></trkpt><trkpt lat="35.4296274" lon="139.2330677"><ele>843.75</ele><time>2023-12-03T00:24:36Z</time></trkpt><trkpt lat="35.4298035" lon="139.2329786"><ele>843.3733333333334</ele><time>2023-12-03T00:25:01Z</time></trkpt><trkpt lat="35.4299941" lon="139.2329234"><ele>842.4633333333335</ele><time>2023-12-03T00:25:13Z</time></trkpt><trkpt lat="35.4301901" lon="139.2328618"><ele>841.0500000000001</ele><time>2023-12-03T00:25:23Z</time></trkpt><trkpt lat="35.4303762" lon="139.232836"><ele>839.0233333333332</ele><time>2023-12-03T00:25:39Z</time></trkpt><trkpt lat="35.4305484" lon="139.2327465"><ele>836.32</ele><time>2023-12-03T00:25:55Z</time></trkpt><trkpt lat="35.4306949" lon="139.2326157"><ele>834.29</ele><time>2023-12-03T00:26:09Z</time></trkpt><trkpt lat="35.4308623" lon="139.2325297"><ele>834.2133333333335</ele><time>2023-12-03T00:26:39Z</time></trkpt><trkpt lat="35.4310545" lon="139.2324802"><ele>836.9699999999999</ele><time>2023-12-03T00:27:10Z</time></trkpt><trkpt lat="35.4312101" lon="139.2323635"><ele>841.04</ele><time>2023-12-03T00:27:44Z</time></trkpt><trkpt lat="35.4313889" lon="139.2323165"><ele>846.7533333333334</ele><time>2023-12-03T00:28:32Z</time></trkpt><trkpt lat="35.4315749" lon="139.2323052"><ele>853.5</ele><time>2023-12-03T00:28:53Z</time></trkpt><trkpt lat="35.4317206" lon="139.2321754"><ele>861.9</ele><time>2023-12-03T00:30:54Z</time></trkpt><trkpt lat="35.4318824" lon="139.2320416"><ele>871.91</ele><time>2023-12-03T00:31:21Z</time></trkpt><trkpt lat="35.4320633" lon="139.2320338"><ele>882.7466666666666</ele><time>2023-12-03T00:33:13Z</time></trkpt><trkpt lat="35.4319797" lon="139.2318129"><ele>888.6633333333333</ele><time>2023-12-03T00:33:37Z</time></trkpt><trkpt lat="35.4321441" lon="139.2317119"><ele>897.5833333333334</ele><time>2023-12-03T00:34:01Z</time></trkpt><trkpt lat="35.4322326" lon="139.2315132"><ele>904.0633333333334</ele><time>2023-12-03T00:34:37Z</time></trkpt><trkpt lat="35.4323465" lon="139.2316931"><ele>915.0233333333334</ele><time>2023-12-03T00:36:43Z</time></trkpt><trkpt lat="35.432423" lon="139.231893"><ele>922.0066666666667</ele><time>2023-12-03T00:37:17Z</time></trkpt><trkpt lat="35.4325772" lon="139.2320096"><ele>931.0166666666668</ele><time>2023-12-03T00:38:13Z</time></trkpt><trkpt lat="35.4327353" lon="139.2321187"><ele>939.6666666666666</ele><time>2023-12-03T00:38:54Z</time></trkpt><trkpt lat="35.4329015" lon="139.2320231"><ele>947.5266666666666</ele><time>2023-12-03T00:40:00Z</time></trkpt><trkpt lat="35.433063" lon="139.2321214"><ele>955.8333333333334</ele><time>2023-12-03T00:41:39Z</time></trkpt><trkpt lat="35.4332225" lon="139.2322397"><ele>964.8433333333334</ele><time>2023-12-03T00:43:03Z</time></trkpt><trkpt lat="35.4333932" lon="139.232313"><ele>973.5366666666667</ele><time>2023-12-03T00:44:01Z</time></trkpt><trkpt lat="35.4334909" lon="139.2325058"><ele>980.94</ele><time>2023-12-03T00:44:47Z</time></trkpt><trkpt lat="35.4336539" lon="139.2326006"><ele>986.8466666666667</ele><time>2023-12-03T00:45:08Z</time></trkpt><trkpt lat="35.4338156" lon="139.2327"><ele>991.2833333333333</ele><time>2023-12-03T00:45:32Z</time></trkpt><trkpt lat="35.433991" lon="139.2327721"><ele>995.0633333333334</ele><time>2023-12-03T00:45:49Z</time></trkpt><trkpt lat="35.4341794" lon="139.2328094"><ele>998.8233333333334</ele><time>2023-12-03T00:46:18Z</time></trkpt><trkpt lat="35.4343566" lon="139.232855"><ele>1002.1933333333333</ele><time>2023-12-03T00:47:08Z</time></trkpt><trkpt lat="35.4345569" lon="139.2328675"><ele>1005.56</ele><time>2023-12-03T00:47:29Z</time></trkpt><trkpt lat="35.4347003" lon="139.232732"><ele>1008.9900000000001</ele><time>2023-12-03T00:48:01Z</time></trkpt><trkpt lat="35.4348249" lon="139.2325713"><ele>1013.7266666666668</ele><time>2023-12-03T00:49:01Z</time></trkpt><trkpt lat="35.4349878" lon="139.2324756"><ele>1018.4766666666666</ele><time>2023-12-03T00:49:33Z</time></trkpt><trkpt lat="35.4351557" lon="139.2323917"><ele>1024.82</ele><time>2023-12-03T00:50:32Z</time></trkpt><trkpt lat="35.4352504" lon="139.2322013"><ele>1031.43</ele><time>2023-12-03T00:51:26Z</time></trkpt><trkpt lat="35.4354312" lon="139.2321798"><ele>1038.42</ele><time>2023-12-03T00:51:59Z</time></trkpt><trkpt lat="35.4354962" lon="139.2319558"><ele>1045.45</ele><time>2023-12-03T00:52:31Z</time></trkpt><trkpt lat="35.4356473" lon="139.2318262"><ele>1053.3033333333333</ele><time>2023-12-03T00:53:51Z</time></trkpt><trkpt lat="35.4357168" lon="139.2316205"><ele>1058.8899999999999</ele><time>2023-12-03T00:57:09Z</time></trkpt><trkpt lat="35.4358911" lon="139.2315567"><ele>1063.3366666666666</ele><time>2023-12-03T00:57:35Z</time></trkpt><trkpt lat="35.4360736" lon="139.2316135"><ele>1067.1033333333335</ele><time>2023-12-03T00:58:03Z</time></trkpt><trkpt lat="35.43625" lon="139.23154"><ele>1072.3233333333335</ele><time>2023-12-03T00:58:37Z</time></trkpt><trkpt lat="35.4364229" lon="139.2314697"><ele>1078.7266666666667</ele><time>2023-12-03T00:59:20Z</time></trkpt><trkpt lat="35.4365543" lon="139.2313177"><ele>1084.9666666666667</ele><time>2023-12-03T01:00:08Z</time></trkpt><trkpt lat="35.4366566" lon="139.2315001"><ele>1090.9400000000003</ele><time>2023-12-03T01:00:55Z</time></trkpt><trkpt lat="35.4368351" lon="139.2315371"><ele>1096.26</ele><time>2023-12-03T01:01:17Z</time></trkpt><trkpt lat="35.4369875" lon="139.2314193"><ele>1101.6333333333334</ele><time>2023-12-03T01:02:29Z</time></trkpt><trkpt lat="35.4371382" lon="139.2312905"><ele>1108.1000000000001</ele><time>2023-12-03T01:03:27Z</time></trkpt><trkpt lat="35.4372402" lon="139.2311064"><ele>1114.68</ele><time>2023-12-03T01:04:24Z</time></trkpt><trkpt lat="35.4373109" lon="139.2308448"><ele>1120.5166666666667</ele><time>2023-12-03T01:05:21Z</time></trkpt><trkpt lat="35.4374024" lon="139.2306387"><ele>1128.7133333333334</ele><time>2023-12-03T01:05:59Z</time></trkpt><trkpt lat="35.4375297" lon="139.2304709"><ele>1137.3766666666668</ele><time>2023-12-03T01:06:43Z</time></trkpt><trkpt lat="35.4376521" lon="139.2303091"><ele>1145.7833333333335</ele><time>2023-12-03T01:07:08Z</time></trkpt><trkpt lat="35.4377922" lon="139.2301533"><ele>1150.8300000000002</ele><time>2023-12-03T01:07:29Z</time></trkpt><trkpt lat="35.4379677" lon="139.230077"><ele>1155.9366666666667</ele><time>2023-12-03T01:07:51Z</time></trkpt><trkpt lat="35.43814" lon="139.2301451"><ele>1160.07</ele><time>2023-12-03T01:08:13Z</time></trkpt><trkpt lat="35.4383159" lon="139.2300852"><ele>1164.0733333333335</ele><time>2023-12-03T01:09:12Z</time></trkpt><trkpt lat="35.4384995" lon="139.2300834"><ele>1165.7900000000002</ele><time>2023-12-03T01:09:47Z</time></trkpt><trkpt lat="35.4386801" lon="139.2300987"><ele>1170.0500000000002</ele><time>2023-12-03T01:11:36Z</time></trkpt><trkpt lat="35.4388621" lon="139.2301389"><ele>1176.64</ele><time>2023-12-03T01:12:44Z</time></trkpt><trkpt lat="35.4390324" lon="139.2302157"><ele>1184.5533333333333</ele><time>2023-12-03T01:13:34Z</time></trkpt><trkpt lat="35.4392133" lon="139.2302051"><ele>1192.2933333333333</ele><time>2023-12-03T01:13:55Z</time></trkpt><trkpt lat="35.4394006" lon="139.2302475"><ele>1198.9399999999998</ele><time>2023-12-03T01:14:57Z</time></trkpt><trkpt lat="35.4395873" lon="139.2302395"><ele>1206.0000000000002</ele><time>2023-12-03T01:15:25Z</time></trkpt><trkpt lat="35.4397704" lon="139.230244"><ele>1212.78</ele><time>2023-12-03T01:15:49Z</time></trkpt><trkpt lat="35.4399309" lon="139.2303543"><ele>1218.53</ele><time>2023-12-03T01:16:37Z</time></trkpt><trkpt lat="35.4401075" lon="139.230408"><ele>1222.4566666666667</ele><time>2023-12-03T01:17:25Z</time></trkpt><trkpt lat="35.4402869" lon="139.2304726"><ele>1226.46</ele><time>2023-12-03T01:17:48Z</time></trkpt><trkpt lat="35.4404256" lon="139.23062"><ele>1231.8766666666668</ele><time>2023-12-03T01:18:48Z</time></trkpt><trkpt lat="35.4404704" lon="139.2308406"><ele>1237.1733333333332</ele><time>2023-12-03T01:19:12Z</time></trkpt><trkpt lat="35.4405665" lon="139.2310315"><ele>1241.8633333333335</ele><time>2023-12-03T01:19:49Z</time></trkpt><trkpt lat="35.4406659" lon="139.2312203"><ele>1245.0766666666666</ele><time>2023-12-03T01:20:21Z</time></trkpt><trkpt lat="35.4408344" lon="139.2311285"><ele>1248.57</ele><time>2023-12-03T01:21:50Z</time></trkpt><trkpt lat="35.440808" lon="139.2313551"><ele>1250.15</ele><time>2023-12-03T01:22:57Z</time></trkpt><trkpt lat="35.4409986" lon="139.2313334"><ele>1250.5666666666666</ele><time>2023-12-03T01:23:22Z</time></trkpt><trkpt lat="35.4411808" lon="139.2313396"><ele>1248.6766666666667</ele><time>2023-12-03T01:24:09Z</time></trkpt><trkpt lat="35.4412785" lon="139.2311483"><ele>1247.3266666666668</ele><time>2023-12-03T01:24:32Z</time></trkpt><trkpt lat="35.4411012" lon="139.2310567"><ele>1246.97</ele><time>2023-12-03T01:25:56Z</time></trkpt><trkpt lat="35.4409897" lon="139.2312433"><ele>1248.57</ele><time>2023-12-03T01:26:05Z</time></trkpt><trkpt lat="35.440937" lon="139.2314552"><ele>1246.85</ele><time>2023-12-03T01:26:20Z</time></trkpt><trkpt lat="35.440743" lon="139.2315193"><ele>1244.79</ele><time>2023-12-03T01:27:26Z</time></trkpt><trkpt lat="35.4406326" lon="139.2313335"><ele>1243.3700000000001</ele><time>2023-12-03T01:28:23Z</time></trkpt><trkpt lat="35.4405229" lon="139.2311583"><ele>1242.4033333333334</ele><time>2023-12-03T01:28:37Z</time></trkpt><trkpt lat="35.4405498" lon="139.2309372"><ele>1243.5266666666666</ele><time>2023-12-03T01:34:48Z</time></trkpt><trkpt lat="35.4405668" lon="139.2307096"><ele>1243.0633333333333</ele><time>2023-12-03T01:35:11Z</time></trkpt><trkpt lat="35.4404655" lon="139.2305264"><ele>1244.0033333333333</ele><time>2023-12-03T01:35:33Z</time></trkpt><trkpt lat="35.4402989" lon="139.2304377"><ele>1239.1566666666668</ele><time>2023-12-03T01:36:04Z</time></trkpt><trkpt lat="35.4401161" lon="139.2303993"><ele>1233.0166666666667</ele><time>2023-12-03T01:36:18Z</time></trkpt><trkpt lat="35.4399401" lon="139.230346"><ele>1226.9366666666667</ele><time>2023-12-03T01:37:09Z</time></trkpt><trkpt lat="35.439806" lon="139.2301901"><ele>1222.9333333333334</ele><time>2023-12-03T01:37:18Z</time></trkpt><trkpt lat="35.439623" lon="139.2301685"><ele>1218.53</ele><time>2023-12-03T01:37:49Z</time></trkpt><trkpt lat="35.439441" lon="139.2301289"><ele>1214.0966666666668</ele><time>2023-12-03T01:38:06Z</time></trkpt><trkpt lat="35.4392568" lon="139.2301114"><ele>1207.46</ele><time>2023-12-03T01:38:40Z</time></trkpt><trkpt lat="35.4390842" lon="139.2301977"><ele>1201.13</ele><time>2023-12-03T01:38:56Z</time></trkpt><trkpt lat="35.438922" lon="139.2301008"><ele>1193.1666666666667</ele><time>2023-12-03T01:39:49Z</time></trkpt><trkpt lat="35.4387479" lon="139.2300351"><ele>1184.82</ele><time>2023-12-03T01:40:23Z</time></trkpt><trkpt lat="35.4385568" lon="139.2300372"><ele>1177.6633333333334</ele><time>2023-12-03T01:41:16Z</time></trkpt><trkpt lat="35.4383727" lon="139.2300486"><ele>1172.51</ele><time>2023-12-03T01:41:34Z</time></trkpt><trkpt lat="35.4381877" lon="139.2300131"><ele>1170.5733333333333</ele><time>2023-12-03T01:41:49Z</time></trkpt><trkpt lat="35.4380132" lon="139.2300948"><ele>1166.4366666666665</ele><time>2023-12-03T01:42:26Z</time></trkpt><trkpt lat="35.437834" lon="139.2301243"><ele>1162.006666666667</ele><time>2023-12-03T01:42:34Z</time></trkpt><trkpt lat="35.4376645" lon="139.2302321"><ele>1155.5233333333333</ele><time>2023-12-03T01:42:45Z</time></trkpt><trkpt lat="35.4374965" lon="139.2303632"><ele>1150.6566666666668</ele><time>2023-12-03T01:43:04Z</time></trkpt><trkpt lat="35.4374457" lon="139.2305853"><ele>1145.5033333333333</ele><time>2023-12-03T01:44:39Z</time></trkpt><trkpt lat="35.4373489" lon="139.2307722"><ele>1138.9433333333334</ele><time>2023-12-03T01:45:00Z</time></trkpt><trkpt lat="35.4373125" lon="139.2309898"><ele>1131.9466666666665</ele><time>2023-12-03T01:45:17Z</time></trkpt><trkpt lat="35.4371797" lon="139.2311459"><ele>1124.9666666666667</ele><time>2023-12-03T01:45:43Z</time></trkpt><trkpt lat="35.4370257" lon="139.2312655"><ele>1118.29</ele><time>2023-12-03T01:46:38Z</time></trkpt><trkpt lat="35.4368701" lon="139.2313795"><ele>1110.9933333333336</ele><time>2023-12-03T01:46:57Z</time></trkpt><trkpt lat="35.4367095" lon="139.2314813"><ele>1103.29</ele><time>2023-12-03T01:47:28Z</time></trkpt><trkpt lat="35.4365764" lon="139.2313279"><ele>1097.4</ele><time>2023-12-03T01:48:02Z</time></trkpt><trkpt lat="35.4364318" lon="139.2314933"><ele>1091.8233333333335</ele><time>2023-12-03T01:48:35Z</time></trkpt><trkpt lat="35.4362414" lon="139.2314733"><ele>1085.2766666666669</ele><time>2023-12-03T01:49:06Z</time></trkpt><trkpt lat="35.4360671" lon="139.2315419"><ele>1079.0366666666669</ele><time>2023-12-03T01:49:44Z</time></trkpt><trkpt lat="35.4359041" lon="139.2314279"><ele>1070.73</ele><time>2023-12-03T01:49:57Z</time></trkpt><trkpt lat="35.435829" lon="139.2316293"><ele>1066.64</ele><time>2023-12-03T01:50:36Z</time></trkpt><trkpt lat="35.4356551" lon="139.2317209"><ele>1063.0933333333335</ele><time>2023-12-03T01:50:54Z</time></trkpt><trkpt lat="35.4355509" lon="139.2319045"><ele>1061.6266666666668</ele><time>2023-12-03T01:52:40Z</time></trkpt><trkpt lat="35.4353889" lon="139.2320136"><ele>1055.73</ele><time>2023-12-03T01:53:41Z</time></trkpt><trkpt lat="35.4352742" lon="139.2321913"><ele>1047.6566666666668</ele><time>2023-12-03T01:54:22Z</time></trkpt><trkpt lat="35.435106" lon="139.2322818"><ele>1038.5766666666668</ele><time>2023-12-03T01:54:44Z</time></trkpt><trkpt lat="35.4349262" lon="139.2323333"><ele>1028.8266666666666</ele><time>2023-12-03T01:54:59Z</time></trkpt><trkpt lat="35.4349032" lon="139.2325542"><ele>1022.9533333333333</ele><time>2023-12-03T01:55:30Z</time></trkpt><trkpt lat="35.434733" lon="139.2326504"><ele>1018.2733333333332</ele><time>2023-12-03T01:56:18Z</time></trkpt><trkpt lat="35.4345541" lon="139.23272"><ele>1015.19</ele><time>2023-12-03T01:56:37Z</time></trkpt><trkpt lat="35.4343636" lon="139.2327361"><ele>1010.07</ele><time>2023-12-03T01:56:52Z</time></trkpt><trkpt lat="35.4341803" lon="139.2327267"><ele>1006.0533333333334</ele><time>2023-12-03T01:57:15Z</time></trkpt><trkpt lat="35.4339916" lon="139.2326983"><ele>1003.0766666666668</ele><time>2023-12-03T01:57:29Z</time></trkpt><trkpt lat="35.4338169" lon="139.2326237"><ele>999.7666666666668</ele><time>2023-12-03T01:57:47Z</time></trkpt><trkpt lat="35.4336352" lon="139.2325872"><ele>995.9033333333333</ele><time>2023-12-03T01:58:12Z</time></trkpt><trkpt lat="35.4334758" lon="139.2324742"><ele>991.3933333333334</ele><time>2023-12-03T01:58:45Z</time></trkpt><trkpt lat="35.4334269" lon="139.2322614"><ele>986.7466666666666</ele><time>2023-12-03T01:59:07Z</time></trkpt><trkpt lat="35.4332513" lon="139.2322034"><ele>980.33</ele><time>2023-12-03T02:00:07Z</time></trkpt><trkpt lat="35.4331469" lon="139.2320235"><ele>973.2866666666667</ele><time>2023-12-03T02:00:38Z</time></trkpt><trkpt lat="35.432975" lon="139.2319376"><ele>964.7333333333332</ele><time>2023-12-03T02:01:02Z</time></trkpt><trkpt lat="35.4328545" lon="139.232114"><ele>958.9233333333333</ele><time>2023-12-03T02:01:36Z</time></trkpt><trkpt lat="35.4327137" lon="139.231975"><ele>953.0433333333334</ele><time>2023-12-03T02:02:36Z</time></trkpt><trkpt lat="35.4325306" lon="139.2319532"><ele>946.5433333333334</ele><time>2023-12-03T02:03:25Z</time></trkpt><trkpt lat="35.4323887" lon="139.2317842"><ele>937.2066666666666</ele><time>2023-12-03T02:04:25Z</time></trkpt><trkpt lat="35.4323857" lon="139.2315546"><ele>929.6633333333333</ele><time>2023-12-03T02:04:41Z</time></trkpt><trkpt lat="35.4323536" lon="139.2313328"><ele>923.2933333333334</ele><time>2023-12-03T02:05:06Z</time></trkpt><trkpt lat="35.4321791" lon="139.2313916"><ele>916.3100000000001</ele><time>2023-12-03T02:05:41Z</time></trkpt><trkpt lat="35.4320259" lon="139.2315148"><ele>905.8433333333332</ele><time>2023-12-03T02:06:30Z</time></trkpt><trkpt lat="35.4319087" lon="139.2316836"><ele>894.8366666666667</ele><time>2023-12-03T02:06:45Z</time></trkpt><trkpt lat="35.4317521" lon="139.2318325"><ele>884.5533333333334</ele><time>2023-12-03T02:07:36Z</time></trkpt><trkpt lat="35.4318683" lon="139.2320098"><ele>881.0600000000001</ele><time>2023-12-03T02:08:02Z</time></trkpt><trkpt lat="35.4318155" lon="139.2322335"><ele>878.4699999999999</ele><time>2023-12-03T02:08:22Z</time></trkpt><trkpt lat="35.4316454" lon="139.2321469"><ele>875.8366666666667</ele><time>2023-12-03T02:09:21Z</time></trkpt><trkpt lat="35.4314556" lon="139.2321563"><ele>868.02</ele><time>2023-12-03T02:09:58Z</time></trkpt><trkpt lat="35.4312728" lon="139.2322131"><ele>858.0466666666667</ele><time>2023-12-03T02:10:27Z</time></trkpt><trkpt lat="35.4310992" lon="139.2322818"><ele>849.2166666666667</ele><time>2023-12-03T02:10:57Z</time></trkpt><trkpt lat="35.4309182" lon="139.232299"><ele>840.9466666666667</ele><time>2023-12-03T02:11:25Z</time></trkpt><trkpt lat="35.4307336" lon="139.2323599"><ele>836.5100000000001</ele><time>2023-12-03T02:11:37Z</time></trkpt><trkpt lat="35.4306815" lon="139.2325743"><ele>833.89</ele><time>2023-12-03T02:19:38Z</time></trkpt><trkpt lat="35.430503" lon="139.2325319"><ele>833.87</ele><time>2023-12-03T02:19:53Z</time></trkpt><trkpt lat="35.4303269" lon="139.2326072"><ele>836.0766666666667</ele><time>2023-12-03T02:20:10Z</time></trkpt><trkpt lat="35.4301668" lon="139.2327119"><ele>838.5866666666666</ele><time>2023-12-03T02:20:36Z</time></trkpt><trkpt lat="35.4300194" lon="139.2328483"><ele>840.6766666666667</ele><time>2023-12-03T02:20:55Z</time></trkpt><trkpt lat="35.429851" lon="139.2329376"><ele>841.4466666666667</ele><time>2023-12-03T02:21:08Z</time></trkpt><trkpt lat="35.4296695" lon="139.2329676"><ele>842.35</ele><time>2023-12-03T02:21:29Z</time></trkpt><trkpt lat="35.4294876" lon="139.2330006"><ele>843.2466666666668</ele><time>2023-12-03T02:21:42Z</time></trkpt><trkpt lat="35.4293101" lon="139.2330444"><ele>844.1633333333334</ele><time>2023-12-03T02:21:56Z</time></trkpt><trkpt lat="35.4291346" lon="139.2331062"><ele>844.5133333333333</ele><time>2023-12-03T02:22:08Z</time></trkpt><trkpt lat="35.42897" lon="139.2332189"><ele>844.4566666666666</ele><time>2023-12-03T02:22:23Z</time></trkpt><trkpt lat="35.4288325" lon="139.2333722"><ele>843.6166666666668</ele><time>2023-12-03T02:22:39Z</time></trkpt><trkpt lat="35.4286604" lon="139.2334593"><ele>842.5433333333334</ele><time>2023-12-03T02:22:52Z</time></trkpt><trkpt lat="35.4285365" lon="139.2336289"><ele>841.7266666666668</ele><time>2023-12-03T02:23:08Z</time></trkpt><trkpt lat="35.4284086" lon="139.233788"><ele>841.37</ele><time>2023-12-03T02:23:21Z</time></trkpt><trkpt lat="35.428282" lon="139.2339655"><ele>840.8800000000001</ele><time>2023-12-03T02:23:35Z</time></trkpt><trkpt lat="35.428131" lon="139.2340937"><ele>839.4</ele><time>2023-12-03T02:23:51Z</time></trkpt><trkpt lat="35.4279725" lon="139.2342016"><ele>837.0066666666667</ele><time>2023-12-03T02:24:06Z</time></trkpt><trkpt lat="35.4278251" lon="139.2343349"><ele>834.3699999999999</ele><time>2023-12-03T02:24:22Z</time></trkpt><trkpt lat="35.4277317" lon="139.2345314"><ele>831.5333333333333</ele><time>2023-12-03T02:24:36Z</time></trkpt><trkpt lat="35.4275885" lon="139.2346774"><ele>828.13</ele><time>2023-12-03T02:24:52Z</time></trkpt><trkpt lat="35.4274271" lon="139.2347813"><ele>824.5533333333334</ele><time>2023-12-03T02:25:04Z</time></trkpt><trkpt lat="35.4272449" lon="139.234797"><ele>820.5766666666667</ele><time>2023-12-03T02:25:19Z</time></trkpt><trkpt lat="35.4270868" lon="139.2346887"><ele>816.96</ele><time>2023-12-03T02:25:45Z</time></trkpt><trkpt lat="35.4269074" lon="139.2347347"><ele>813.0500000000001</ele><time>2023-12-03T02:26:05Z</time></trkpt><trkpt lat="35.4267287" lon="139.2346935"><ele>808.04</ele><time>2023-12-03T02:27:00Z</time></trkpt><trkpt lat="35.4265679" lon="139.2345823"><ele>803.0466666666667</ele><time>2023-12-03T02:27:14Z</time></trkpt><trkpt lat="35.4263859" lon="139.2345583"><ele>796.4566666666668</ele><time>2023-12-03T02:27:31Z</time></trkpt><trkpt lat="35.4262078" lon="139.2345191"><ele>791.0566666666667</ele><time>2023-12-03T02:27:46Z</time></trkpt><trkpt lat="35.4260298" lon="139.2344828"><ele>783.94</ele><time>2023-12-03T02:28:07Z</time></trkpt><trkpt lat="35.4258486" lon="139.234471"><ele>777.9233333333333</ele><time>2023-12-03T02:28:49Z</time></trkpt><trkpt lat="35.4257063" lon="139.2346073"><ele>770.7366666666667</ele><time>2023-12-03T02:29:19Z</time></trkpt><trkpt lat="35.4255582" lon="139.2347374"><ele>764.7966666666667</ele><time>2023-12-03T02:29:42Z</time></trkpt><trkpt lat="35.4253892" lon="139.2348186"><ele>758.6566666666668</ele><time>2023-12-03T02:29:59Z</time></trkpt><trkpt lat="35.4252088" lon="139.2348322"><ele>752.3433333333334</ele><time>2023-12-03T02:30:24Z</time></trkpt><trkpt lat="35.4250372" lon="139.2349262"><ele>745.9133333333334</ele><time>2023-12-03T02:30:43Z</time></trkpt><trkpt lat="35.4249908" lon="139.2351431"><ele>740.3666666666668</ele><time>2023-12-03T02:30:57Z</time></trkpt><trkpt lat="35.4248409" lon="139.2352664"><ele>736.2166666666667</ele><time>2023-12-03T02:31:20Z</time></trkpt><trkpt lat="35.4247334" lon="139.2354522"><ele>732.3233333333333</ele><time>2023-12-03T02:31:41Z</time></trkpt><trkpt lat="35.424674" lon="139.235672"><ele>727.1633333333333</ele><time>2023-12-03T02:32:15Z</time></trkpt><trkpt lat="35.4245669" lon="139.2358542"><ele>719.5733333333333</ele><time>2023-12-03T02:32:40Z</time></trkpt><trkpt lat="35.4245018" lon="139.2360639"><ele>711.2533333333332</ele><time>2023-12-03T02:33:12Z</time></trkpt><trkpt lat="35.424365" lon="139.2362166"><ele>702.5133333333333</ele><time>2023-12-03T02:33:35Z</time></trkpt><trkpt lat="35.4242299" lon="139.2363705"><ele>695.1233333333333</ele><time>2023-12-03T02:34:33Z</time></trkpt><trkpt lat="35.4241002" lon="139.2365289"><ele>688.7466666666666</ele><time>2023-12-03T02:34:45Z</time></trkpt><trkpt lat="35.4239763" lon="139.2366904"><ele>682.71</ele><time>2023-12-03T02:34:58Z</time></trkpt><trkpt lat="35.4238443" lon="139.2368555"><ele>677.4599999999999</ele><time>2023-12-03T02:35:26Z</time></trkpt><trkpt lat="35.4237212" lon="139.2370294"><ele>672.8733333333333</ele><time>2023-12-03T02:35:40Z</time></trkpt><trkpt lat="35.423522" lon="139.2370387"><ele>668.5133333333333</ele><time>2023-12-03T02:35:49Z</time></trkpt><trkpt lat="35.423389" lon="139.2371881"><ele>665.1233333333334</ele><time>2023-12-03T02:36:10Z</time></trkpt><trkpt lat="35.4232489" lon="139.2373329"><ele>663.6800000000001</ele><time>2023-12-03T02:36:24Z</time></trkpt><trkpt lat="35.4231457" lon="139.2375374"><ele>665.7333333333335</ele><time>2023-12-03T02:36:46Z</time></trkpt><trkpt lat="35.4231328" lon="139.2377583"><ele>669.48</ele><time>2023-12-03T02:37:15Z</time></trkpt><trkpt lat="35.4230792" lon="139.2379739"><ele>672.5766666666667</ele><time>2023-12-03T02:37:32Z</time></trkpt><trkpt lat="35.4229368" lon="139.2381177"><ele>674.6766666666666</ele><time>2023-12-03T02:38:26Z</time></trkpt><trkpt lat="35.4227437" lon="139.2381469"><ele>674.3866666666667</ele><time>2023-12-03T02:38:47Z</time></trkpt><trkpt lat="35.4226264" lon="139.2383273"><ele>674.2566666666667</ele><time>2023-12-03T02:39:02Z</time></trkpt><trkpt lat="35.4225029" lon="139.2384894"><ele>673.2533333333333</ele><time>2023-12-03T02:39:21Z</time></trkpt><trkpt lat="35.4223682" lon="139.2386454"><ele>673.23</ele><time>2023-12-03T02:39:41Z</time></trkpt><trkpt lat="35.4222596" lon="139.2388304"><ele>671.52</ele><time>2023-12-03T02:39:57Z</time></trkpt><trkpt lat="35.4220834" lon="139.2388894"><ele>668.4666666666667</ele><time>2023-12-03T02:40:36Z</time></trkpt><trkpt lat="35.4219162" lon="139.2389911"><ele>662.33</ele><time>2023-12-03T02:40:53Z</time></trkpt><trkpt lat="35.4217374" lon="139.239052"><ele>654.6033333333334</ele><time>2023-12-03T02:41:22Z</time></trkpt><trkpt lat="35.4215469" lon="139.2390596"><ele>645.0033333333333</ele><time>2023-12-03T02:41:35Z</time></trkpt><trkpt lat="35.4213687" lon="139.2390109"><ele>637.9333333333333</ele><time>2023-12-03T02:41:50Z</time></trkpt><trkpt lat="35.4211867" lon="139.2390486"><ele>632.8866666666667</ele><time>2023-12-03T02:42:04Z</time></trkpt><trkpt lat="35.4210195" lon="139.2391458"><ele>631.14</ele><time>2023-12-03T02:42:16Z</time></trkpt><trkpt lat="35.4208448" lon="139.2392142"><ele>629.61</ele><time>2023-12-03T02:42:29Z</time></trkpt><trkpt lat="35.4206616" lon="139.2391651"><ele>627.2533333333334</ele><time>2023-12-03T02:42:42Z</time></trkpt><trkpt lat="35.4205025" lon="139.2390552"><ele>624.66</ele><time>2023-12-03T02:42:53Z</time></trkpt><trkpt lat="35.4203239" lon="139.2391046"><ele>622.89</ele><time>2023-12-03T02:43:07Z</time></trkpt><trkpt lat="35.4201489" lon="139.2392359"><ele>622.3066666666667</ele><time>2023-12-03T02:43:21Z</time></trkpt><trkpt lat="35.4199703" lon="139.2393007"><ele>623.3966666666666</ele><time>2023-12-03T02:43:35Z</time></trkpt><trkpt lat="35.4197877" lon="139.2392878"><ele>625.37</ele><time>2023-12-03T02:43:48Z</time></trkpt><trkpt lat="35.4196346" lon="139.2391577"><ele>625.67</ele><time>2023-12-03T02:44:01Z</time></trkpt><trkpt lat="35.4194669" lon="139.23906"><ele>623.0600000000001</ele><time>2023-12-03T02:44:14Z</time></trkpt><trkpt lat="35.4192767" lon="139.2390479"><ele>619.2933333333334</ele><time>2023-12-03T02:44:27Z</time></trkpt><trkpt lat="35.4191082" lon="139.2389342"><ele>616.9233333333333</ele><time>2023-12-03T02:44:40Z</time></trkpt><trkpt lat="35.4189056" lon="139.2389868"><ele>617.4033333333333</ele><time>2023-12-03T02:45:06Z</time></trkpt><trkpt lat="35.4188268" lon="139.2387847"><ele>618.4033333333333</ele><time>2023-12-03T02:45:17Z</time></trkpt><trkpt lat="35.4186384" lon="139.238828"><ele>618.9466666666666</ele><time>2023-12-03T02:45:34Z</time></trkpt><trkpt lat="35.418456" lon="139.2388052"><ele>617.9133333333334</ele><time>2023-12-03T02:45:49Z</time></trkpt><trkpt lat="35.4182802" lon="139.238717"><ele>615.3166666666666</ele><time>2023-12-03T02:45:59Z</time></trkpt><trkpt lat="35.4183304" lon="139.238501"><ele>613.1566666666666</ele><time>2023-12-03T02:46:18Z</time></trkpt><trkpt lat="35.4185332" lon="139.238495"><ele>612.3366666666667</ele><time>2023-12-03T02:46:20Z</time></trkpt><trkpt lat="35.4183552" lon="139.2385754"><ele>612.0366666666666</ele><time>2023-12-03T02:46:32Z</time></trkpt><trkpt lat="35.4181728" lon="139.2385548"><ele>610.8733333333333</ele><time>2023-12-03T02:46:41Z</time></trkpt><trkpt lat="35.4180326" lon="139.2387073"><ele>608.5733333333334</ele><time>2023-12-03T02:46:59Z</time></trkpt><trkpt lat="35.4178628" lon="139.2387863"><ele>605.1933333333333</ele><time>2023-12-03T02:47:12Z</time></trkpt><trkpt lat="35.4177756" lon="139.2389838"><ele>604.63</ele><time>2023-12-03T02:47:25Z</time></trkpt><trkpt lat="35.4176606" lon="139.2391588"><ele>603.3733333333333</ele><time>2023-12-03T02:47:35Z</time></trkpt><trkpt lat="35.4175051" lon="139.23929"><ele>602.3833333333333</ele><time>2023-12-03T02:47:52Z</time></trkpt><trkpt lat="35.4173256" lon="139.2393462"><ele>597.0933333333334</ele><time>2023-12-03T02:48:16Z</time></trkpt><trkpt lat="35.4172192" lon="139.2395266"><ele>592.1933333333334</ele><time>2023-12-03T02:48:31Z</time></trkpt><trkpt lat="35.4170821" lon="139.2396779"><ele>587.6</ele><time>2023-12-03T02:48:51Z</time></trkpt><trkpt lat="35.4169146" lon="139.2398267"><ele>585.3866666666668</ele><time>2023-12-03T02:49:07Z</time></trkpt><trkpt lat="35.4168087" lon="139.2400055"><ele>582.9633333333334</ele><time>2023-12-03T02:49:26Z</time></trkpt><trkpt lat="35.4166756" lon="139.2401757"><ele>581.4499999999999</ele><time>2023-12-03T02:49:40Z</time></trkpt><trkpt lat="35.4165926" lon="139.2403728"><ele>580.4166666666667</ele><time>2023-12-03T02:49:51Z</time></trkpt><trkpt lat="35.4164776" lon="139.2405569"><ele>579.6300000000001</ele><time>2023-12-03T02:50:01Z</time></trkpt><trkpt lat="35.4164665" lon="139.2407938"><ele>578.0533333333333</ele><time>2023-12-03T02:50:09Z</time></trkpt><trkpt lat="35.4163813" lon="139.2409884"><ele>575.34</ele><time>2023-12-03T02:50:22Z</time></trkpt><trkpt lat="35.4163009" lon="139.2412"><ele>572.57</ele><time>2023-12-03T02:50:37Z</time></trkpt><trkpt lat="35.4162562" lon="139.2414247"><ele>569.7866666666667</ele><time>2023-12-03T02:50:51Z</time></trkpt><trkpt lat="35.4161721" lon="139.2416224"><ele>567.2766666666666</ele><time>2023-12-03T02:51:07Z</time></trkpt><trkpt lat="35.4160904" lon="139.2418333"><ele>564.7200000000001</ele><time>2023-12-03T02:51:21Z</time></trkpt><trkpt lat="35.4160335" lon="139.2420593"><ele>563.08</ele><time>2023-12-03T02:51:32Z</time></trkpt><trkpt lat="35.4159711" lon="139.2422725"><ele>561.9466666666667</ele><time>2023-12-03T02:51:46Z</time></trkpt><trkpt lat="35.4158788" lon="139.2424809"><ele>561.3133333333334</ele><time>2023-12-03T02:52:02Z</time></trkpt><trkpt lat="35.415778" lon="139.2426663"><ele>559.8366666666667</ele><time>2023-12-03T02:52:17Z</time></trkpt><trkpt lat="35.4155994" lon="139.2427109"><ele>556.82</ele><time>2023-12-03T02:52:28Z</time></trkpt><trkpt lat="35.4154384" lon="139.2428154"><ele>553.09</ele><time>2023-12-03T02:52:41Z</time></trkpt><trkpt lat="35.4152624" lon="139.2428917"><ele>549.1766666666666</ele><time>2023-12-03T02:52:57Z</time></trkpt><trkpt lat="35.4150867" lon="139.2428119"><ele>545.8766666666667</ele><time>2023-12-03T02:53:03Z</time></trkpt><trkpt lat="35.414908" lon="139.2427161"><ele>542.0033333333334</ele><time>2023-12-03T02:53:16Z</time></trkpt><trkpt lat="35.4147747" lon="139.2428865"><ele>539.9566666666666</ele><time>2023-12-03T02:53:28Z</time></trkpt><trkpt lat="35.4145934" lon="139.2429358"><ele>537.23</ele><time>2023-12-03T02:53:47Z</time></trkpt><trkpt lat="35.4144052" lon="139.2429871"><ele>534.1933333333333</ele><time>2023-12-03T02:54:02Z</time></trkpt><trkpt lat="35.4142248" lon="139.242977"><ele>527.9866666666667</ele><time>2023-12-03T02:54:16Z</time></trkpt><trkpt lat="35.4141053" lon="139.2431564"><ele>525.9766666666667</ele><time>2023-12-03T02:54:29Z</time></trkpt><trkpt lat="35.4140425" lon="139.243372"><ele>524.8133333333333</ele><time>2023-12-03T02:54:42Z</time></trkpt><trkpt lat="35.4139382" lon="139.2435644"><ele>524.8333333333334</ele><time>2023-12-03T02:55:06Z</time></trkpt><trkpt lat="35.4137699" lon="139.2436601"><ele>521.2533333333333</ele><time>2023-12-03T02:55:17Z</time></trkpt><trkpt lat="35.413658" lon="139.2438428"><ele>518.0766666666667</ele><time>2023-12-03T02:55:27Z</time></trkpt><trkpt lat="35.4136676" lon="139.2440751"><ele>515.7833333333333</ele><time>2023-12-03T02:55:41Z</time></trkpt><trkpt lat="35.4137677" lon="139.2442715"><ele>514.1999999999999</ele><time>2023-12-03T02:55:52Z</time></trkpt><trkpt lat="35.4138082" lon="139.2444869"><ele>512.5666666666666</ele><time>2023-12-03T02:56:04Z</time></trkpt><trkpt lat="35.4138372" lon="139.2447154"><ele>510.13000000000005</ele><time>2023-12-03T02:56:20Z</time></trkpt><trkpt lat="35.4138469" lon="139.2449386"><ele>507.15333333333336</ele><time>2023-12-03T02:56:34Z</time></trkpt><trkpt lat="35.4138928" lon="139.2451554"><ele>504.8766666666667</ele><time>2023-12-03T02:56:48Z</time></trkpt><trkpt lat="35.4138846" lon="139.2453773"><ele>502.75333333333333</ele><time>2023-12-03T02:57:02Z</time></trkpt><trkpt lat="35.4139049" lon="139.2456"><ele>502.2266666666667</ele><time>2023-12-03T02:57:21Z</time></trkpt><trkpt lat="35.4138522" lon="139.2458126"><ele>501.84666666666675</ele><time>2023-12-03T02:57:33Z</time></trkpt><trkpt lat="35.413785" lon="139.246025"><ele>503.0800000000001</ele><time>2023-12-03T02:57:45Z</time></trkpt><trkpt lat="35.4136031" lon="139.2460299"><ele>503.6433333333334</ele><time>2023-12-03T02:57:58Z</time></trkpt><trkpt lat="35.4134732" lon="139.246184"><ele>505.09</ele><time>2023-12-03T02:58:20Z</time></trkpt><trkpt lat="35.4133227" lon="139.2463101"><ele>508.31333333333333</ele><time>2023-12-03T02:58:45Z</time></trkpt><trkpt lat="35.4132102" lon="139.2464841"><ele>512.7800000000001</ele><time>2023-12-03T02:59:29Z</time></trkpt><trkpt lat="35.4130839" lon="139.2466473"><ele>517.2966666666666</ele><time>2023-12-03T02:59:43Z</time></trkpt><trkpt lat="35.4129949" lon="139.246849"><ele>519.9866666666667</ele><time>2023-12-03T02:59:56Z</time></trkpt><trkpt lat="35.4128928" lon="139.2470774"><ele>521.6933333333334</ele><time>2023-12-03T03:00:08Z</time></trkpt><trkpt lat="35.4127819" lon="139.2472575"><ele>522.2233333333334</ele><time>2023-12-03T03:00:25Z</time></trkpt><trkpt lat="35.4126082" lon="139.2473441"><ele>522.3433333333334</ele><time>2023-12-03T03:00:42Z</time></trkpt><trkpt lat="35.412418" lon="139.2473987"><ele>521.81</ele><time>2023-12-03T03:00:52Z</time></trkpt><trkpt lat="35.4122376" lon="139.2474806"><ele>520.8033333333334</ele><time>2023-12-03T03:01:08Z</time></trkpt><trkpt lat="35.4120953" lon="139.2476228"><ele>520.2933333333334</ele><time>2023-12-03T03:01:23Z</time></trkpt><trkpt lat="35.4119134" lon="139.2476934"><ele>519.4833333333332</ele><time>2023-12-03T03:01:36Z</time></trkpt><trkpt lat="35.4117447" lon="139.2477735"><ele>518.2733333333333</ele><time>2023-12-03T03:01:52Z</time></trkpt><trkpt lat="35.4115871" lon="139.247891"><ele>516.0166666666668</ele><time>2023-12-03T03:02:22Z</time></trkpt><trkpt lat="35.4114059" lon="139.2478973"><ele>513.5133333333334</ele><time>2023-12-03T03:02:36Z</time></trkpt><trkpt lat="35.411224" lon="139.2479604"><ele>510.8766666666666</ele><time>2023-12-03T03:02:48Z</time></trkpt><trkpt lat="35.4110878" lon="139.2481115"><ele>507.56</ele><time>2023-12-03T03:03:24Z</time></trkpt><trkpt lat="35.4108977" lon="139.2481349"><ele>503.53999999999996</ele><time>2023-12-03T03:03:52Z</time></trkpt><trkpt lat="35.4107075" lon="139.2481863"><ele>497.2733333333333</ele><time>2023-12-03T03:04:03Z</time></trkpt><trkpt lat="35.4105408" lon="139.2482794"><ele>491.33666666666664</ele><time>2023-12-03T03:04:15Z</time></trkpt><trkpt lat="35.4103812" lon="139.2484426"><ele>485.84999999999997</ele><time>2023-12-03T03:04:28Z</time></trkpt><trkpt lat="35.4102146" lon="139.2485495"><ele>483.54333333333335</ele><time>2023-12-03T03:04:39Z</time></trkpt><trkpt lat="35.4100635" lon="139.2486852"><ele>481.51666666666665</ele><time>2023-12-03T03:05:06Z</time></trkpt><trkpt lat="35.409886" lon="139.2487414"><ele>479.74</ele><time>2023-12-03T03:05:22Z</time></trkpt><trkpt lat="35.4097067" lon="139.2487097"><ele>477.64000000000004</ele><time>2023-12-03T03:05:37Z</time></trkpt><trkpt lat="35.4095498" lon="139.2485895"><ele>474.28999999999996</ele><time>2023-12-03T03:05:58Z</time></trkpt><trkpt lat="35.4093772" lon="139.2485115"><ele>471.0466666666666</ele><time>2023-12-03T03:06:06Z</time></trkpt><trkpt lat="35.4092186" lon="139.2486282"><ele>470.09999999999997</ele><time>2023-12-03T03:06:25Z</time></trkpt><trkpt lat="35.4090347" lon="139.2486748"><ele>470.77</ele><time>2023-12-03T03:06:40Z</time></trkpt><trkpt lat="35.4088381" lon="139.2486992"><ele>471.68666666666667</ele><time>2023-12-03T03:06:48Z</time></trkpt><trkpt lat="35.4086523" lon="139.2487082"><ele>470.7133333333333</ele><time>2023-12-03T03:07:02Z</time></trkpt><trkpt lat="35.4085531" lon="139.248895"><ele>469.65000000000003</ele><time>2023-12-03T03:07:15Z</time></trkpt><trkpt lat="35.4084382" lon="139.2490822"><ele>468.29333333333335</ele><time>2023-12-03T03:07:30Z</time></trkpt><trkpt lat="35.4083468" lon="139.2492756"><ele>465.5666666666666</ele><time>2023-12-03T03:07:45Z</time></trkpt><trkpt lat="35.4083012" lon="139.2495032"><ele>460.70666666666665</ele><time>2023-12-03T03:08:06Z</time></trkpt><trkpt lat="35.4083452" lon="139.2497255"><ele>454.8633333333334</ele><time>2023-12-03T03:08:58Z</time></trkpt><trkpt lat="35.4082937" lon="139.2499491"><ele>448.80333333333334</ele><time>2023-12-03T03:09:06Z</time></trkpt><trkpt lat="35.4082188" lon="139.2501533"><ele>447.2066666666667</ele><time>2023-12-03T03:09:18Z</time></trkpt><trkpt lat="35.408139" lon="139.2503529"><ele>448.4133333333334</ele><time>2023-12-03T03:09:42Z</time></trkpt><trkpt lat="35.4081192" lon="139.2505764"><ele>451.31666666666666</ele><time>2023-12-03T03:10:03Z</time></trkpt><trkpt lat="35.4081239" lon="139.2508309"><ele>452.4433333333333</ele><time>2023-12-03T03:10:17Z</time></trkpt><trkpt lat="35.407996" lon="139.2510051"><ele>454.7866666666667</ele><time>2023-12-03T03:10:32Z</time></trkpt><trkpt lat="35.4078256" lon="139.2510779"><ele>457.52333333333337</ele><time>2023-12-03T03:10:48Z</time></trkpt><trkpt lat="35.4076503" lon="139.2510256"><ele>460.32666666666665</ele><time>2023-12-03T03:11:50Z</time></trkpt><trkpt lat="35.4074702" lon="139.2510716"><ele>462.5566666666667</ele><time>2023-12-03T03:12:48Z</time></trkpt><trkpt lat="35.4072945" lon="139.2511716"><ele>467.00333333333333</ele><time>2023-12-03T03:13:16Z</time></trkpt><trkpt lat="35.4071333" lon="139.2512943"><ele>473.4766666666667</ele><time>2023-12-03T03:13:34Z</time></trkpt><trkpt lat="35.4070436" lon="139.25149"><ele>480.5566666666667</ele><time>2023-12-03T03:13:50Z</time></trkpt><trkpt lat="35.4069155" lon="139.251649"><ele>486.79333333333335</ele><time>2023-12-03T03:14:38Z</time></trkpt><trkpt lat="35.4067586" lon="139.2517646"><ele>491.91</ele><time>2023-12-03T03:15:28Z</time></trkpt><trkpt lat="35.4065795" lon="139.2518015"><ele>497.56333333333333</ele><time>2023-12-03T03:16:30Z</time></trkpt><trkpt lat="35.4063917" lon="139.2518377"><ele>503.9533333333334</ele><time>2023-12-03T03:17:19Z</time></trkpt><trkpt lat="35.4062568" lon="139.2519839"><ele>513.1433333333333</ele><time>2023-12-03T03:18:33Z</time></trkpt><trkpt lat="35.4061481" lon="139.2521988"><ele>522.18</ele><time>2023-12-03T03:18:51Z</time></trkpt><trkpt lat="35.4060602" lon="139.2524177"><ele>528.6466666666666</ele><time>2023-12-03T03:19:11Z</time></trkpt><trkpt lat="35.4059952" lon="139.2526421"><ele>531.25</ele><time>2023-12-03T03:19:31Z</time></trkpt><trkpt lat="35.4059308" lon="139.2528528"><ele>531.39</ele><time>2023-12-03T03:19:41Z</time></trkpt><trkpt lat="35.4058591" lon="139.2530581"><ele>531.54</ele><time>2023-12-03T03:20:09Z</time></trkpt><trkpt lat="35.4058452" lon="139.2532894"><ele>531.3699999999999</ele><time>2023-12-03T03:20:24Z</time></trkpt><trkpt lat="35.4057943" lon="139.2535093"><ele>530.38</ele><time>2023-12-03T03:20:35Z</time></trkpt><trkpt lat="35.405694" lon="139.2537065"><ele>527.6266666666667</ele><time>2023-12-03T03:20:46Z</time></trkpt><trkpt lat="35.4055643" lon="139.2538695"><ele>524.5866666666667</ele><time>2023-12-03T03:21:02Z</time></trkpt><trkpt lat="35.405467" lon="139.2540595"><ele>522.34</ele><time>2023-12-03T03:21:15Z</time></trkpt><trkpt lat="35.4053723" lon="139.2542563"><ele>521.7</ele><time>2023-12-03T03:21:30Z</time></trkpt><trkpt lat="35.4052611" lon="139.2544381"><ele>521.6899999999999</ele><time>2023-12-03T03:21:42Z</time></trkpt><trkpt lat="35.405149" lon="139.2546173"><ele>521.39</ele><time>2023-12-03T03:21:54Z</time></trkpt><trkpt lat="35.4049748" lon="139.2546843"><ele>521.4266666666667</ele><time>2023-12-03T03:22:11Z</time></trkpt><trkpt lat="35.4047925" lon="139.2546133"><ele>518.9833333333332</ele><time>2023-12-03T03:22:23Z</time></trkpt><trkpt lat="35.4046115" lon="139.2545945"><ele>515.75</ele><time>2023-12-03T03:22:38Z</time></trkpt><trkpt lat="35.4044289" lon="139.2545286"><ele>512.1666666666666</ele><time>2023-12-03T03:22:47Z</time></trkpt><trkpt lat="35.4042416" lon="139.2544786"><ele>513.4</ele><time>2023-12-03T03:23:07Z</time></trkpt><trkpt lat="35.4040614" lon="139.2544711"><ele>516.7666666666668</ele><time>2023-12-03T03:23:38Z</time></trkpt><trkpt lat="35.4038927" lon="139.2545634"><ele>521.3100000000001</ele><time>2023-12-03T03:23:57Z</time></trkpt><trkpt lat="35.4037108" lon="139.2546111"><ele>523.9433333333334</ele><time>2023-12-03T03:24:25Z</time></trkpt><trkpt lat="35.4035269" lon="139.254655"><ele>527.1533333333333</ele><time>2023-12-03T03:24:48Z</time></trkpt><trkpt lat="35.4033464" lon="139.2546776"><ele>529.3433333333334</ele><time>2023-12-03T03:25:05Z</time></trkpt><trkpt lat="35.4031645" lon="139.2546692"><ele>530.83</ele><time>2023-12-03T03:25:25Z</time></trkpt><trkpt lat="35.4029763" lon="139.2546399"><ele>531.0733333333334</ele><time>2023-12-03T03:25:41Z</time></trkpt><trkpt lat="35.4027976" lon="139.2545718"><ele>534.5400000000001</ele><time>2023-12-03T03:26:36Z</time></trkpt><trkpt lat="35.4026324" lon="139.2544729"><ele>540.9333333333334</ele><time>2023-12-03T03:27:04Z</time></trkpt><trkpt lat="35.4025622" lon="139.2542696"><ele>547.5966666666667</ele><time>2023-12-03T03:29:29Z</time></trkpt><trkpt lat="35.4023947" lon="139.2543627"><ele>551.7466666666668</ele><time>2023-12-03T03:32:28Z</time></trkpt><trkpt lat="35.4022381" lon="139.2544759"><ele>551.33</ele><time>2023-12-03T03:32:56Z</time></trkpt><trkpt lat="35.402084" lon="139.2545966"><ele>547.9366666666666</ele><time>2023-12-03T03:33:50Z</time></trkpt><trkpt lat="35.4020259" lon="139.2548069"><ele>540.5833333333334</ele><time>2023-12-03T03:34:04Z</time></trkpt><trkpt lat="35.4019139" lon="139.2549795"><ele>532.35</ele><time>2023-12-03T03:34:25Z</time></trkpt><trkpt lat="35.4018244" lon="139.255178"><ele>525.16</ele><time>2023-12-03T03:34:41Z</time></trkpt><trkpt lat="35.4016886" lon="139.2553297"><ele>519.4633333333334</ele><time>2023-12-03T03:34:57Z</time></trkpt><trkpt lat="35.4016097" lon="139.2555587"><ele>515.66</ele><time>2023-12-03T03:35:14Z</time></trkpt><trkpt lat="35.4014288" lon="139.2555757"><ele>512.6533333333333</ele><time>2023-12-03T03:35:56Z</time></trkpt><trkpt lat="35.4012482" lon="139.2555382"><ele>507.31333333333333</ele><time>2023-12-03T03:37:06Z</time></trkpt><trkpt lat="35.4010616" lon="139.255493"><ele>499.08666666666676</ele><time>2023-12-03T03:38:02Z</time></trkpt><trkpt lat="35.4008826" lon="139.2555234"><ele>489.39000000000004</ele><time>2023-12-03T03:38:45Z</time></trkpt><trkpt lat="35.4007302" lon="139.2553919"><ele>475.9166666666667</ele><time>2023-12-03T03:39:18Z</time></trkpt><trkpt lat="35.4005497" lon="139.2554026"><ele>465.77666666666664</ele><time>2023-12-03T03:40:09Z</time></trkpt><trkpt lat="35.4003728" lon="139.2553491"><ele>452.53000000000003</ele><time>2023-12-03T03:41:03Z</time></trkpt><trkpt lat="35.4001892" lon="139.2553577"><ele>446.99666666666667</ele><time>2023-12-03T03:41:49Z</time></trkpt><trkpt lat="35.4000594" lon="139.2551849"><ele>436.6833333333334</ele><time>2023-12-03T03:42:07Z</time></trkpt><trkpt lat="35.4000914" lon="139.2554077"><ele>438.9866666666667</ele><time>2023-12-03T03:42:25Z</time></trkpt><trkpt lat="35.4000606" lon="139.2556269"><ele>441.22333333333336</ele><time>2023-12-03T03:42:39Z</time></trkpt><trkpt lat="35.4000067" lon="139.2558393"><ele>443.9333333333334</ele><time>2023-12-03T03:43:08Z</time></trkpt><trkpt lat="35.4000175" lon="139.2560653"><ele>437.9633333333333</ele><time>2023-12-03T03:43:30Z</time></trkpt><trkpt lat="35.3998646" lon="139.2561957"><ele>430.3633333333334</ele><time>2023-12-03T03:44:15Z</time></trkpt><trkpt lat="35.3997255" lon="139.256341"><ele>426.99666666666667</ele><time>2023-12-03T03:44:27Z</time></trkpt><trkpt lat="35.3995876" lon="139.2564937"><ele>423.9866666666667</ele><time>2023-12-03T03:44:48Z</time></trkpt><trkpt lat="35.3995351" lon="139.2567066"><ele>420.71000000000004</ele><time>2023-12-03T03:45:15Z</time></trkpt><trkpt lat="35.3993805" lon="139.2568204"><ele>418.33666666666664</ele><time>2023-12-03T03:45:45Z</time></trkpt><trkpt lat="35.3992205" lon="139.2569477"><ele>415.24333333333334</ele><time>2023-12-03T03:45:55Z</time></trkpt><trkpt lat="35.3990615" lon="139.2570566"><ele>414.40333333333336</ele><time>2023-12-03T03:46:09Z</time></trkpt><trkpt lat="35.3988856" lon="139.2571295"><ele>413.0566666666667</ele><time>2023-12-03T03:46:23Z</time></trkpt><trkpt lat="35.3987017" lon="139.2571989"><ele>412.43</ele><time>2023-12-03T03:46:38Z</time></trkpt><trkpt lat="35.398533" lon="139.2572964"><ele>412.37999999999994</ele><time>2023-12-03T03:47:00Z</time></trkpt><trkpt lat="35.3983544" lon="139.2572569"><ele>411.8</ele><time>2023-12-03T03:47:13Z</time></trkpt><trkpt lat="35.3981734" lon="139.2572359"><ele>411.8933333333334</ele><time>2023-12-03T03:47:26Z</time></trkpt><trkpt lat="35.3980256" lon="139.2571029"><ele>408.3766666666666</ele><time>2023-12-03T03:47:54Z</time></trkpt><trkpt lat="35.397922" lon="139.2569109"><ele>403.68</ele><time>2023-12-03T03:48:11Z</time></trkpt><trkpt lat="35.3977601" lon="139.2568081"><ele>399.25333333333333</ele><time>2023-12-03T03:48:33Z</time></trkpt><trkpt lat="35.3975782" lon="139.2567992"><ele>399.71000000000004</ele><time>2023-12-03T03:48:48Z</time></trkpt><trkpt lat="35.3973887" lon="139.2567967"><ele>402.05333333333334</ele><time>2023-12-03T03:49:06Z</time></trkpt><trkpt lat="35.3972071" lon="139.2567778"><ele>403.68666666666667</ele><time>2023-12-03T03:49:26Z</time></trkpt><trkpt lat="35.3970198" lon="139.2567548"><ele>401.57666666666665</ele><time>2023-12-03T03:49:41Z</time></trkpt><trkpt lat="35.3968411" lon="139.2566931"><ele>399.51000000000005</ele><time>2023-12-03T03:49:57Z</time></trkpt><trkpt lat="35.3966656" lon="139.2566305"><ele>398.35666666666674</ele><time>2023-12-03T03:50:14Z</time></trkpt><trkpt lat="35.396483" lon="139.2566843"><ele>401.01</ele><time>2023-12-03T03:50:35Z</time></trkpt><trkpt lat="35.3963446" lon="139.2565345"><ele>404.89000000000004</ele><time>2023-12-03T03:50:50Z</time></trkpt><trkpt lat="35.3961988" lon="139.2564034"><ele>408.36999999999995</ele><time>2023-12-03T03:51:06Z</time></trkpt><trkpt lat="35.3960451" lon="139.256287"><ele>410.5933333333333</ele><time>2023-12-03T03:51:31Z</time></trkpt><trkpt lat="35.3959957" lon="139.2560323"><ele>409.68666666666667</ele><time>2023-12-03T03:51:39Z</time></trkpt><trkpt lat="35.3959354" lon="139.2558157"><ele>407.4266666666667</ele><time>2023-12-03T03:51:49Z</time></trkpt><trkpt lat="35.3958118" lon="139.2556476"><ele>403.6933333333333</ele><time>2023-12-03T03:52:08Z</time></trkpt><trkpt lat="35.3956695" lon="139.2554859"><ele>402.6266666666667</ele><time>2023-12-03T03:52:20Z</time></trkpt><trkpt lat="35.3955365" lon="139.2553274"><ele>403.97</ele><time>2023-12-03T03:52:42Z</time></trkpt><trkpt lat="35.3954383" lon="139.2551259"><ele>406.48333333333335</ele><time>2023-12-03T03:52:55Z</time></trkpt><trkpt lat="35.3953396" lon="139.2549321"><ele>410.31666666666666</ele><time>2023-12-03T03:54:32Z</time></trkpt><trkpt lat="35.3952967" lon="139.2547147"><ele>413.21333333333337</ele><time>2023-12-03T03:54:43Z</time></trkpt><trkpt lat="35.395145" lon="139.2545824"><ele>419.2633333333333</ele><time>2023-12-03T03:55:02Z</time></trkpt><trkpt lat="35.3949689" lon="139.2544945"><ele>424.7866666666667</ele><time>2023-12-03T03:55:15Z</time></trkpt><trkpt lat="35.3948196" lon="139.2543632"><ele>429.96333333333337</ele><time>2023-12-03T03:55:31Z</time></trkpt><trkpt lat="35.3946674" lon="139.2542354"><ele>429.6566666666667</ele><time>2023-12-03T03:55:47Z</time></trkpt><trkpt lat="35.3944848" lon="139.2542543"><ele>424.8733333333333</ele><time>2023-12-03T03:56:05Z</time></trkpt><trkpt lat="35.394304" lon="139.2541856"><ele>416.94</ele><time>2023-12-03T03:57:15Z</time></trkpt><trkpt lat="35.3941214" lon="139.2541863"><ele>409.05333333333334</ele><time>2023-12-03T03:57:34Z</time></trkpt><trkpt lat="35.3939399" lon="139.2541582"><ele>402.72333333333336</ele><time>2023-12-03T03:57:52Z</time></trkpt><trkpt lat="35.3937953" lon="139.2540255"><ele>395.9666666666667</ele><time>2023-12-03T03:58:11Z</time></trkpt><trkpt lat="35.3936589" lon="139.2538602"><ele>389.32</ele><time>2023-12-03T03:59:02Z</time></trkpt><trkpt lat="35.3935079" lon="139.2537293"><ele>380.48333333333335</ele><time>2023-12-03T03:59:17Z</time></trkpt><trkpt lat="35.3933629" lon="139.2535909"><ele>372.9066666666667</ele><time>2023-12-03T03:59:37Z</time></trkpt><trkpt lat="35.3932873" lon="139.253388"><ele>364.9066666666667</ele><time>2023-12-03T04:00:29Z</time></trkpt><trkpt lat="35.3932863" lon="139.2531631"><ele>356.75333333333333</ele><time>2023-12-03T04:00:54Z</time></trkpt><trkpt lat="35.3931509" lon="139.253011"><ele>350.3066666666667</ele><time>2023-12-03T04:01:22Z</time></trkpt><trkpt lat="35.3930167" lon="139.2528575"><ele>344.56333333333333</ele><time>2023-12-03T04:01:51Z</time></trkpt><trkpt lat="35.3929372" lon="139.2526574"><ele>341.1266666666667</ele><time>2023-12-03T04:02:08Z</time></trkpt><trkpt lat="35.3928986" lon="139.2524369"><ele>336.84</ele><time>2023-12-03T04:02:21Z</time></trkpt><trkpt lat="35.392863" lon="139.2522101"><ele>333.14</ele><time>2023-12-03T04:02:37Z</time></trkpt><trkpt lat="35.3927267" lon="139.2520446"><ele>329.56</ele><time>2023-12-03T04:02:50Z</time></trkpt><trkpt lat="35.3925363" lon="139.2520354"><ele>328.1266666666667</ele><time>2023-12-03T04:03:19Z</time></trkpt><trkpt lat="35.3923595" lon="139.2519046"><ele>326.25666666666666</ele><time>2023-12-03T04:03:33Z</time></trkpt><trkpt lat="35.3921773" lon="139.2518741"><ele>324.5266666666667</ele><time>2023-12-03T04:03:44Z</time></trkpt><trkpt lat="35.3920425" lon="139.2517028"><ele>321.87666666666667</ele><time>2023-12-03T04:03:58Z</time></trkpt><trkpt lat="35.3918766" lon="139.2516018"><ele>321.68666666666667</ele><time>2023-12-03T04:04:14Z</time></trkpt><trkpt lat="35.3917591" lon="139.2514297"><ele>324.2666666666667</ele><time>2023-12-03T04:04:36Z</time></trkpt><trkpt lat="35.3917265" lon="139.2512118"><ele>327.24</ele><time>2023-12-03T04:05:27Z</time></trkpt><trkpt lat="35.3915983" lon="139.251057"><ele>332.6566666666667</ele><time>2023-12-03T04:06:20Z</time></trkpt><trkpt lat="35.3915564" lon="139.2508341"><ele>337.00333333333333</ele><time>2023-12-03T04:06:37Z</time></trkpt><trkpt lat="35.3915235" lon="139.2506117"><ele>341.81333333333333</ele><time>2023-12-03T04:06:54Z</time></trkpt><trkpt lat="35.3913478" lon="139.2507033"><ele>342.27</ele><time>2023-12-03T04:13:57Z</time></trkpt><trkpt lat="35.3911686" lon="139.2506544"><ele>340.0866666666667</ele><time>2023-12-03T04:14:11Z</time></trkpt><trkpt lat="35.3909865" lon="139.2507372"><ele>335.7266666666667</ele><time>2023-12-03T04:14:32Z</time></trkpt><trkpt lat="35.390807" lon="139.2506664"><ele>326.77</ele><time>2023-12-03T04:14:46Z</time></trkpt><trkpt lat="35.3907067" lon="139.250862"><ele>325.7633333333333</ele><time>2023-12-03T04:14:59Z</time></trkpt><trkpt lat="35.3905762" lon="139.2510232"><ele>325.32</ele><time>2023-12-03T04:15:18Z</time></trkpt><trkpt lat="35.3903562" lon="139.2509729"><ele>329.50333333333333</ele><time>2023-12-03T04:15:22Z</time></trkpt><trkpt lat="35.3902247" lon="139.251143"><ele>325.79333333333335</ele><time>2023-12-03T04:15:40Z</time></trkpt><trkpt lat="35.3900507" lon="139.2510706"><ele>321.90000000000003</ele><time>2023-12-03T04:15:51Z</time></trkpt><trkpt lat="35.3898684" lon="139.2511055"><ele>316.48333333333335</ele><time>2023-12-03T04:16:04Z</time></trkpt><trkpt lat="35.3896842" lon="139.2511166"><ele>312.4266666666667</ele><time>2023-12-03T04:16:13Z</time></trkpt><trkpt lat="35.3895156" lon="139.2512264"><ele>308.9066666666667</ele><time>2023-12-03T04:16:26Z</time></trkpt><trkpt lat="35.3893294" lon="139.2513015"><ele>306.77333333333337</ele><time>2023-12-03T04:16:37Z</time></trkpt><trkpt lat="35.3891498" lon="139.2513955"><ele>304.89</ele><time>2023-12-03T04:17:22Z</time></trkpt><trkpt lat="35.3889716" lon="139.251435"><ele>302.99</ele><time>2023-12-03T04:17:33Z</time></trkpt><trkpt lat="35.3888136" lon="139.2515479"><ele>300.98</ele><time>2023-12-03T04:17:46Z</time></trkpt><trkpt lat="35.3886285" lon="139.2515361"><ele>296.71666666666664</ele><time>2023-12-03T04:17:54Z</time></trkpt><trkpt lat="35.3884535" lon="139.2514554"><ele>291.94666666666666</ele><time>2023-12-03T04:18:04Z</time></trkpt><trkpt lat="35.3882954" lon="139.2515683"><ele>287.4166666666667</ele><time>2023-12-03T04:18:13Z</time></trkpt><trkpt lat="35.388109" lon="139.2515971"><ele>284.3633333333334</ele><time>2023-12-03T04:18:25Z</time></trkpt><trkpt lat="35.3879218" lon="139.2515693"><ele>282.52333333333337</ele><time>2023-12-03T04:18:43Z</time></trkpt><trkpt lat="35.387742" lon="139.2514989"><ele>281.07666666666665</ele><time>2023-12-03T04:18:54Z</time></trkpt><trkpt lat="35.3875631" lon="139.2515506"><ele>281.5</ele><time>2023-12-03T04:19:08Z</time></trkpt><trkpt lat="35.3873892" lon="139.2514764"><ele>282.63333333333327</ele><time>2023-12-03T04:19:24Z</time></trkpt><trkpt lat="35.3872111" lon="139.2515371"><ele>285.92</ele><time>2023-12-03T04:19:44Z</time></trkpt><trkpt lat="35.3870397" lon="139.251609"><ele>291.28666666666663</ele><time>2023-12-03T04:19:59Z</time></trkpt><trkpt lat="35.3868625" lon="139.2516766"><ele>296.43</ele><time>2023-12-03T04:20:16Z</time></trkpt><trkpt lat="35.3866827" lon="139.2517103"><ele>299.49666666666667</ele><time>2023-12-03T04:20:31Z</time></trkpt><trkpt lat="35.3865008" lon="139.2517579"><ele>299.36333333333334</ele><time>2023-12-03T04:20:51Z</time></trkpt><trkpt lat="35.3864498" lon="139.2519727"><ele>293.90666666666664</ele><time>2023-12-03T04:21:04Z</time></trkpt><trkpt lat="35.3862929" lon="139.2520897"><ele>287.0833333333333</ele><time>2023-12-03T04:21:14Z</time></trkpt><trkpt lat="35.3861298" lon="139.2522062"><ele>280.17333333333335</ele><time>2023-12-03T04:21:28Z</time></trkpt><trkpt lat="35.3859808" lon="139.2523627"><ele>275.3533333333334</ele><time>2023-12-03T04:21:40Z</time></trkpt><trkpt lat="35.3858766" lon="139.2525447"><ele>269.7366666666667</ele><time>2023-12-03T04:21:54Z</time></trkpt><trkpt lat="35.3857353" lon="139.2526987"><ele>263.97666666666663</ele><time>2023-12-03T04:22:05Z</time></trkpt><trkpt lat="35.3855495" lon="139.2527122"><ele>260.96666666666664</ele><time>2023-12-03T04:22:17Z</time></trkpt><trkpt lat="35.3854033" lon="139.25257"><ele>258.25666666666666</ele><time>2023-12-03T04:22:30Z</time></trkpt><trkpt lat="35.3852289" lon="139.2526324"><ele>253.99333333333334</ele><time>2023-12-03T04:22:46Z</time></trkpt><trkpt lat="35.3850505" lon="139.2525809"><ele>248.34</ele><time>2023-12-03T04:22:59Z</time></trkpt><trkpt lat="35.3848654" lon="139.2525452"><ele>243.45000000000002</ele><time>2023-12-03T04:23:14Z</time></trkpt><trkpt lat="35.3847224" lon="139.2524048"><ele>237.12</ele><time>2023-12-03T04:23:27Z</time></trkpt><trkpt lat="35.3845523" lon="139.2523297"><ele>229.26999999999998</ele><time>2023-12-03T04:23:41Z</time></trkpt><trkpt lat="35.3843599" lon="139.252294"><ele>222.0</ele><time>2023-12-03T04:23:54Z</time></trkpt><trkpt lat="35.3841775" lon="139.2522976"><ele>218.65</ele><time>2023-12-03T04:24:06Z</time></trkpt><trkpt lat="35.3840129" lon="139.2521921"><ele>217.84333333333336</ele><time>2023-12-03T04:24:19Z</time></trkpt><trkpt lat="35.383827" lon="139.2521446"><ele>218.57000000000002</ele><time>2023-12-03T04:24:33Z</time></trkpt><trkpt lat="35.3836458" lon="139.2521732"><ele>218.38333333333335</ele><time>2023-12-03T04:24:59Z</time></trkpt><trkpt lat="35.3834882" lon="139.2522824"><ele>218.0666666666667</ele><time>2023-12-03T04:25:18Z</time></trkpt><trkpt lat="35.3833288" lon="139.2521697"><ele>215.75666666666666</ele><time>2023-12-03T04:25:32Z</time></trkpt><trkpt lat="35.3831615" lon="139.2520806"><ele>211.90666666666667</ele><time>2023-12-03T04:25:44Z</time></trkpt><trkpt lat="35.3829855" lon="139.2521394"><ele>208.42333333333332</ele><time>2023-12-03T04:26:14Z</time></trkpt><trkpt lat="35.3827943" lon="139.2521835"><ele>204.46333333333334</ele><time>2023-12-03T04:26:35Z</time></trkpt><trkpt lat="35.3826219" lon="139.252253"><ele>201.40666666666667</ele><time>2023-12-03T04:28:17Z</time></trkpt><trkpt lat="35.3825711" lon="139.2520347"><ele>197.84666666666666</ele><time>2023-12-03T04:28:47Z</time></trkpt><trkpt lat="35.3823914" lon="139.2520888"><ele>196.89</ele><time>2023-12-03T04:29:05Z</time></trkpt><trkpt lat="35.3822094" lon="139.2520843"><ele>197.53666666666666</ele><time>2023-12-03T04:29:22Z</time></trkpt><trkpt lat="35.382034" lon="139.2519988"><ele>199.32666666666668</ele><time>2023-12-03T04:29:38Z</time></trkpt><trkpt lat="35.381858" lon="139.2518773"><ele>200.05000000000004</ele><time>2023-12-03T04:29:59Z</time></trkpt><trkpt lat="35.3816764" lon="139.251787"><ele>200.38</ele><time>2023-12-03T04:30:14Z</time></trkpt><trkpt lat="35.3815298" lon="139.2516353"><ele>200.35999999999999</ele><time>2023-12-03T04:30:28Z</time></trkpt><trkpt lat="35.3813491" lon="139.2515715"><ele>200.81333333333336</ele><time>2023-12-03T04:30:43Z</time></trkpt><trkpt lat="35.3811867" lon="139.251465"><ele>201.28</ele><time>2023-12-03T04:30:56Z</time></trkpt><trkpt lat="35.3810498" lon="139.2513168"><ele>201.41333333333333</ele><time>2023-12-03T04:31:10Z</time></trkpt><trkpt lat="35.3808861" lon="139.251224"><ele>200.8166666666667</ele><time>2023-12-03T04:31:20Z</time></trkpt><trkpt lat="35.3806986" lon="139.251183"><ele>200.04</ele><time>2023-12-03T04:31:42Z</time></trkpt><trkpt lat="35.3805152" lon="139.2512159"><ele>200.43999999999997</ele><time>2023-12-03T04:31:55Z</time></trkpt><trkpt lat="35.3803295" lon="139.2511912"><ele>200.51333333333332</ele><time>2023-12-03T04:32:05Z</time></trkpt><trkpt lat="35.3801371" lon="139.2511021"><ele>200.11666666666667</ele><time>2023-12-03T04:32:17Z</time></trkpt><trkpt lat="35.3800039" lon="139.2509391"><ele>198.22333333333336</ele><time>2023-12-03T04:32:34Z</time></trkpt><trkpt lat="35.3798717" lon="139.2507819"><ele>195.2066666666667</ele><time>2023-12-03T04:32:45Z</time></trkpt><trkpt lat="35.3796995" lon="139.2507031"><ele>192.4333333333333</ele><time>2023-12-03T04:32:58Z</time></trkpt><trkpt lat="35.3795644" lon="139.250853"><ele>191.60333333333332</ele><time>2023-12-03T04:33:23Z</time></trkpt><trkpt lat="35.379413" lon="139.2507251"><ele>191.3166666666667</ele><time>2023-12-03T04:33:33Z</time></trkpt><trkpt lat="35.3792545" lon="139.2506176"><ele>190.40666666666667</ele><time>2023-12-03T04:33:46Z</time></trkpt><trkpt lat="35.3791066" lon="139.2504838"><ele>186.81333333333336</ele><time>2023-12-03T04:33:59Z</time></trkpt><trkpt lat="35.3789457" lon="139.2503718"><ele>183.79999999999998</ele><time>2023-12-03T04:34:12Z</time></trkpt><trkpt lat="35.3788234" lon="139.2502011"><ele>180.33666666666667</ele><time>2023-12-03T04:34:26Z</time></trkpt><trkpt lat="35.3786666" lon="139.2500865"><ele>177.99</ele><time>2023-12-03T04:35:37Z</time></trkpt><trkpt lat="35.3786482" lon="139.2498628"><ele>175.80000000000004</ele><time>2023-12-03T04:35:48Z</time></trkpt><trkpt lat="35.3785598" lon="139.2496543"><ele>175.95000000000002</ele><time>2023-12-03T04:36:05Z</time></trkpt><trkpt lat="35.3784907" lon="139.2494499"><ele>177.40333333333334</ele><time>2023-12-03T04:36:26Z</time></trkpt><trkpt lat="35.378409" lon="139.2492507"><ele>180.06333333333336</ele><time>2023-12-03T04:36:42Z</time></trkpt><trkpt lat="35.3782309" lon="139.2492067"><ele>182.06333333333336</ele><time>2023-12-03T04:36:54Z</time></trkpt><trkpt lat="35.3780521" lon="139.2491616"><ele>183.94666666666663</ele><time>2023-12-03T04:37:08Z</time></trkpt><trkpt lat="35.3778653" lon="139.2490912"><ele>185.38666666666666</ele><time>2023-12-03T04:37:20Z</time></trkpt><trkpt lat="35.3776955" lon="139.2490074"><ele>187.15</ele><time>2023-12-03T04:37:31Z</time></trkpt><trkpt lat="35.3775259" lon="139.2489102"><ele>187.91</ele><time>2023-12-03T04:37:48Z</time></trkpt><trkpt lat="35.377396" lon="139.2490668"><ele>189.5666666666667</ele><time>2023-12-03T04:38:02Z</time></trkpt><trkpt lat="35.3772243" lon="139.2491504"><ele>190.9366666666667</ele><time>2023-12-03T04:38:15Z</time></trkpt><trkpt lat="35.3770549" lon="139.249286"><ele>192.78</ele><time>2023-12-03T04:38:29Z</time></trkpt><trkpt lat="35.3768727" lon="139.2492515"><ele>194.82333333333335</ele><time>2023-12-03T04:38:51Z</time></trkpt><trkpt lat="35.376687" lon="139.2492799"><ele>197.10666666666668</ele><time>2023-12-03T04:39:09Z</time></trkpt><trkpt lat="35.3765068" lon="139.2492364"><ele>199.28</ele><time>2023-12-03T04:39:20Z</time></trkpt><trkpt lat="35.3763203" lon="139.2492391"><ele>200.29333333333332</ele><time>2023-12-03T04:39:33Z</time></trkpt><trkpt lat="35.3761347" lon="139.2492961"><ele>201.0666666666667</ele><time>2023-12-03T04:39:46Z</time></trkpt><trkpt lat="35.3759849" lon="139.2494307"><ele>202.71333333333334</ele><time>2023-12-03T04:40:02Z</time></trkpt><trkpt lat="35.3758225" lon="139.249534"><ele>205.02666666666667</ele><time>2023-12-03T04:40:21Z</time></trkpt><trkpt lat="35.3757127" lon="139.2497145"><ele>208.34666666666666</ele><time>2023-12-03T04:40:44Z</time></trkpt><trkpt lat="35.3755728" lon="139.2498534"><ele>212.48000000000002</ele><time>2023-12-03T04:41:32Z</time></trkpt><trkpt lat="35.3755049" lon="139.2500702"><ele>217.86333333333334</ele><time>2023-12-03T04:41:44Z</time></trkpt><trkpt lat="35.3753877" lon="139.2502401"><ele>224.25333333333333</ele><time>2023-12-03T04:42:52Z</time></trkpt><trkpt lat="35.3752632" lon="139.2504018"><ele>229.20666666666668</ele><time>2023-12-03T04:43:27Z</time></trkpt><trkpt lat="35.3750809" lon="139.2503718"><ele>232.16333333333333</ele><time>2023-12-03T04:44:33Z</time></trkpt><trkpt lat="35.3750793" lon="139.2501516"><ele>232.9666666666667</ele><time>2023-12-03T04:45:16Z</time></trkpt><trkpt lat="35.3752033" lon="139.2503151"><ele>233.02666666666667</ele><time>2023-12-03T04:45:47Z</time></trkpt><trkpt lat="35.3750606" lon="139.2504547"><ele>232.6866666666667</ele><time>2023-12-03T04:46:40Z</time></trkpt><trkpt lat="35.375252" lon="139.2504435"><ele>232.16</ele><time>2023-12-03T04:47:46Z</time></trkpt><trkpt lat="35.3751792" lon="139.2502329"><ele>232.38666666666668</ele><time>2023-12-03T04:48:07Z</time></trkpt><trkpt lat="35.3750591" lon="139.2500504"><ele>232.52</ele><time>2023-12-03T04:48:16Z</time></trkpt><trkpt lat="35.3750078" lon="139.2498332"><ele>231.46333333333337</ele><time>2023-12-03T04:48:32Z</time></trkpt><trkpt lat="35.3750591" lon="139.2496069"><ele>226.68333333333337</ele><time>2023-12-03T04:48:40Z</time></trkpt><trkpt lat="35.3749973" lon="139.2493887"><ele>220.35000000000002</ele><time>2023-12-03T04:48:54Z</time></trkpt><trkpt lat="35.375026" lon="139.2491684"><ele>213.94333333333336</ele><time>2023-12-03T04:49:02Z</time></trkpt><trkpt lat="35.3749166" lon="139.2489881"><ele>210.34333333333333</ele><time>2023-12-03T04:49:13Z</time></trkpt><trkpt lat="35.3749282" lon="139.2487591"><ele>207.45666666666668</ele><time>2023-12-03T04:49:28Z</time></trkpt><trkpt lat="35.3749302" lon="139.2485385"><ele>205.23666666666668</ele><time>2023-12-03T04:49:39Z</time></trkpt><trkpt lat="35.3749971" lon="139.2483301"><ele>202.98333333333335</ele><time>2023-12-03T04:49:53Z</time></trkpt><trkpt lat="35.3749964" lon="139.2481055"><ele>202.25666666666666</ele><time>2023-12-03T04:50:05Z</time></trkpt><trkpt lat="35.375085" lon="139.247904"><ele>201.58</ele><time>2023-12-03T04:50:41Z</time></trkpt><trkpt lat="35.3752238" lon="139.2477325"><ele>199.32666666666668</ele><time>2023-12-03T04:50:50Z</time></trkpt><trkpt lat="35.3753461" lon="139.2475684"><ele>194.80999999999997</ele><time>2023-12-03T04:50:57Z</time></trkpt><trkpt lat="35.3752517" lon="139.2473544"><ele>192.68999999999997</ele><time>2023-12-03T04:51:18Z</time></trkpt><trkpt lat="35.3750976" lon="139.2472328"><ele>194.27999999999997</ele><time>2023-12-03T04:51:26Z</time></trkpt><trkpt lat="35.3750762" lon="139.2470125"><ele>197.89000000000001</ele><time>2023-12-03T04:51:33Z</time></trkpt><trkpt lat="35.3749367" lon="139.2468457"><ele>200.76666666666665</ele><time>2023-12-03T04:51:41Z</time></trkpt><trkpt lat="35.374916" lon="139.2466194"><ele>201.61</ele><time>2023-12-03T04:52:03Z</time></trkpt><trkpt lat="35.3747732" lon="139.2464732"><ele>202.91</ele><time>2023-12-03T04:52:16Z</time></trkpt><trkpt lat="35.3746539" lon="139.2462807"><ele>202.75333333333333</ele><time>2023-12-03T04:52:39Z</time></trkpt><trkpt lat="35.3745427" lon="139.2460894"><ele>202.85333333333335</ele><time>2023-12-03T04:52:50Z</time></trkpt><trkpt lat="35.3744143" lon="139.2459234"><ele>202.50666666666666</ele><time>2023-12-03T04:53:01Z</time></trkpt><trkpt lat="35.3742719" lon="139.2457743"><ele>202.84666666666666</ele><time>2023-12-03T04:53:17Z</time></trkpt><trkpt lat="35.3741825" lon="139.2455746"><ele>203.37666666666667</ele><time>2023-12-03T04:53:28Z</time></trkpt><trkpt lat="35.3740429" lon="139.2454008"><ele>203.98666666666668</ele><time>2023-12-03T04:53:38Z</time></trkpt><trkpt lat="35.3741272" lon="139.2452023"><ele>203.94333333333336</ele><time>2023-12-03T04:53:54Z</time></trkpt><trkpt lat="35.3742475" lon="139.2450251"><ele>203.56000000000003</ele><time>2023-12-03T04:54:04Z</time></trkpt><trkpt lat="35.3740841" lon="139.2451459"><ele>203.07000000000002</ele><time>2023-12-03T04:54:38Z</time></trkpt><trkpt lat="35.3739036" lon="139.2452112"><ele>203.1833333333333</ele><time>2023-12-03T04:54:54Z</time></trkpt><trkpt lat="35.3738625" lon="139.2449924"><ele>203.61</ele><time>2023-12-03T04:55:41Z</time></trkpt><trkpt lat="35.3736672" lon="139.2449654"><ele>204.10666666666668</ele><time>2023-12-03T04:55:53Z</time></trkpt><trkpt lat="35.3736593" lon="139.2447449"><ele>205.14333333333335</ele><time>2023-12-03T04:56:02Z</time></trkpt><trkpt lat="35.3735419" lon="139.2445735"><ele>207.26666666666668</ele><time>2023-12-03T04:56:14Z</time></trkpt><trkpt lat="35.3734377" lon="139.24439"><ele>210.7266666666667</ele><time>2023-12-03T04:56:26Z</time></trkpt><trkpt lat="35.3732843" lon="139.2442643"><ele>215.15333333333334</ele><time>2023-12-03T04:56:37Z</time></trkpt><trkpt lat="35.373157" lon="139.2440728"><ele>219.56000000000003</ele><time>2023-12-03T04:56:56Z</time></trkpt><trkpt lat="35.3729974" lon="139.2439694"><ele>224.11333333333334</ele><time>2023-12-03T04:57:35Z</time></trkpt><trkpt lat="35.3729028" lon="139.2437662"><ele>227.67</ele><time>2023-12-03T04:57:51Z</time></trkpt><trkpt lat="35.3728101" lon="139.2435768"><ele>231.10333333333332</ele><time>2023-12-03T04:58:02Z</time></trkpt><trkpt lat="35.3726315" lon="139.2434807"><ele>234.3166666666667</ele><time>2023-12-03T04:58:30Z</time></trkpt><trkpt lat="35.3725529" lon="139.2432779"><ele>237.42999999999998</ele><time>2023-12-03T04:58:40Z</time></trkpt><trkpt lat="35.3725087" lon="139.2430586"><ele>239.65333333333334</ele><time>2023-12-03T04:58:52Z</time></trkpt><trkpt lat="35.3723345" lon="139.2431751"><ele>240.70333333333335</ele><time>2023-12-03T04:59:33Z</time></trkpt><trkpt lat="35.3721394" lon="139.2431314"><ele>241.25666666666666</ele><time>2023-12-03T04:59:47Z</time></trkpt><trkpt lat="35.3720701" lon="139.2429276"><ele>241.20000000000002</ele><time>2023-12-03T05:00:24Z</time></trkpt><trkpt lat="35.3720333" lon="139.2431472"><ele>241.59333333333333</ele><time>2023-12-03T05:04:39Z</time></trkpt><trkpt lat="35.3719311" lon="139.243335"><ele>241.64333333333332</ele><time>2023-12-03T05:05:37Z</time></trkpt><trkpt lat="35.371859" lon="139.243544"><ele>241.88</ele><time>2023-12-03T05:05:49Z</time></trkpt><trkpt lat="35.371761" lon="139.2437309"><ele>241.16</ele><time>2023-12-03T05:06:29Z</time></trkpt><trkpt lat="35.3718263" lon="139.2435184"><ele>240.9666666666667</ele><time>2023-12-03T05:06:39Z</time></trkpt><trkpt lat="35.3719316" lon="139.2433338"><ele>241.24</ele><time>2023-12-03T05:06:50Z</time></trkpt><trkpt lat="35.3720473" lon="139.2431436"><ele>241.92666666666665</ele><time>2023-12-03T05:07:04Z</time></trkpt><trkpt lat="35.372023" lon="139.2429163"><ele>241.58</ele><time>2023-12-03T05:07:23Z</time></trkpt><trkpt lat="35.3718837" lon="139.2427737"><ele>238.92</ele><time>2023-12-03T05:07:38Z</time></trkpt><trkpt lat="35.3717146" lon="139.242674"><ele>234.24666666666667</ele><time>2023-12-03T05:08:14Z</time></trkpt><trkpt lat="35.3716773" lon="139.2424583"><ele>227.91333333333333</ele><time>2023-12-03T05:08:36Z</time></trkpt><trkpt lat="35.3715476" lon="139.2423"><ele>221.16</ele><time>2023-12-03T05:08:58Z</time></trkpt><trkpt lat="35.3714283" lon="139.2421252"><ele>214.15</ele><time>2023-12-03T05:09:26Z</time></trkpt><trkpt lat="35.3712926" lon="139.2419792"><ele>206.14999999999998</ele><time>2023-12-03T05:09:38Z</time></trkpt><trkpt lat="35.3712055" lon="139.2417823"><ele>197.66333333333333</ele><time>2023-12-03T05:09:58Z</time></trkpt><trkpt lat="35.371387" lon="139.2417436"><ele>191.22333333333336</ele><time>2023-12-03T05:10:14Z</time></trkpt><trkpt lat="35.3714392" lon="139.2415324"><ele>187.20666666666668</ele><time>2023-12-03T05:10:31Z</time></trkpt><trkpt lat="35.3712719" lon="139.2414291"><ele>185.98666666666668</ele><time>2023-12-03T05:11:15Z</time></trkpt><trkpt lat="35.3710826" lon="139.2414185"><ele>186.08666666666667</ele><time>2023-12-03T05:11:29Z</time></trkpt><trkpt lat="35.370911" lon="139.2413426"><ele>187.79999999999998</ele><time>2023-12-03T05:11:42Z</time></trkpt><trkpt lat="35.3709476" lon="139.2411202"><ele>189.4</ele><time>2023-12-03T05:12:09Z</time></trkpt><trkpt lat="35.3709359" lon="139.2409002"><ele>189.80333333333337</ele><time>2023-12-03T05:12:21Z</time></trkpt><trkpt lat="35.3709673" lon="139.2406711"><ele>189.74666666666667</ele><time>2023-12-03T05:12:35Z</time></trkpt><trkpt lat="35.3710321" lon="139.2404611"><ele>190.19666666666663</ele><time>2023-12-03T05:12:49Z</time></trkpt><trkpt lat="35.3710189" lon="139.2402206"><ele>190.83666666666667</ele><time>2023-12-03T05:13:05Z</time></trkpt><trkpt lat="35.3710342" lon="139.2399948"><ele>191.20333333333335</ele><time>2023-12-03T05:13:20Z</time></trkpt><trkpt lat="35.3710136" lon="139.2397589"><ele>190.90666666666667</ele><time>2023-12-03T05:13:35Z</time></trkpt><trkpt lat="35.3709848" lon="139.2395377"><ele>190.42</ele><time>2023-12-03T05:13:47Z</time></trkpt><trkpt lat="35.3709372" lon="139.2393189"><ele>190.0466666666667</ele><time>2023-12-03T05:14:00Z</time></trkpt><trkpt lat="35.3709827" lon="139.2391032"><ele>190.18000000000004</ele><time>2023-12-03T05:14:14Z</time></trkpt><trkpt lat="35.3711546" lon="139.2390034"><ele>189.02666666666664</ele><time>2023-12-03T05:14:27Z</time></trkpt><trkpt lat="35.3713268" lon="139.2389057"><ele>186.41666666666666</ele><time>2023-12-03T05:14:41Z</time></trkpt><trkpt lat="35.3713157" lon="139.2386765"><ele>183.52666666666664</ele><time>2023-12-03T05:14:56Z</time></trkpt><trkpt lat="35.3714337" lon="139.238493"><ele>180.16666666666666</ele><time>2023-12-03T05:15:16Z</time></trkpt><trkpt lat="35.3714204" lon="139.2382692"><ele>177.76</ele><time>2023-12-03T05:15:46Z</time></trkpt><trkpt lat="35.3713311" lon="139.2380395"><ele>174.36333333333334</ele><time>2023-12-03T05:16:04Z</time></trkpt><trkpt lat="35.3712168" lon="139.237864"><ele>170.92</ele><time>2023-12-03T05:16:17Z</time></trkpt><trkpt lat="35.371063" lon="139.2377269"><ele>165.73</ele><time>2023-12-03T05:16:27Z</time></trkpt><trkpt lat="35.3709439" lon="139.2375509"><ele>159.19000000000003</ele><time>2023-12-03T05:16:54Z</time></trkpt><trkpt lat="35.3710543" lon="139.237356"><ele>150.60666666666665</ele><time>2023-12-03T05:17:38Z</time></trkpt><trkpt lat="35.3708814" lon="139.23727"><ele>142.3033333333333</ele><time>2023-12-03T05:17:54Z</time></trkpt><trkpt lat="35.371014" lon="139.2371154"><ele>133.53666666666666</ele><time>2023-12-03T05:18:28Z</time></trkpt><trkpt lat="35.3710378" lon="139.2368967"><ele>125.04666666666667</ele><time>2023-12-03T05:19:21Z</time></trkpt><trkpt lat="35.3708596" lon="139.2368237"><ele>116.48333333333335</ele><time>2023-12-03T05:20:14Z</time></trkpt><trkpt lat="35.3709029" lon="139.2366036"><ele>106.86333333333334</ele><time>2023-12-03T05:20:34Z</time></trkpt><trkpt lat="35.3710798" lon="139.2366612"><ele>101.20333333333333</ele><time>2023-12-03T05:20:52Z</time></trkpt><trkpt lat="35.3709713" lon="139.2364788"><ele>94.23666666666666</ele><time>2023-12-03T05:21:21Z</time></trkpt><trkpt lat="35.3711263" lon="139.2363488"><ele>89.38666666666666</ele><time>2023-12-03T05:21:42Z</time></trkpt><trkpt lat="35.3710837" lon="139.2361275"><ele>82.02999999999999</ele><time>2023-12-03T05:22:16Z</time></trkpt><trkpt lat="35.3709144" lon="139.2360228"><ele>77.76666666666667</ele><time>2023-12-03T05:22:56Z</time></trkpt><trkpt lat="35.3707313" lon="139.2360319"><ele>75.46333333333335</ele><time>2023-12-03T05:23:10Z</time></trkpt><trkpt lat="35.3705638" lon="139.2361284"><ele>75.2</ele><time>2023-12-03T05:23:21Z</time></trkpt><trkpt lat="35.3703833" lon="139.2361977"><ele>75.03333333333333</ele><time>2023-12-03T05:23:31Z</time></trkpt><trkpt lat="35.3705225" lon="139.2360517"><ele>74.96666666666667</ele><time>2023-12-03T05:23:42Z</time></trkpt><trkpt lat="35.3703686" lon="139.2361784"><ele>74.94333333333334</ele><time>2023-12-03T05:24:07Z</time></trkpt><trkpt lat="35.3701633" lon="139.2360704"><ele>74.94333333333334</ele><time>2023-12-03T05:24:11Z</time></trkpt><trkpt lat="35.3699859" lon="139.235991"><ele>74.85333333333334</ele><time>2023-12-03T05:24:30Z</time></trkpt><trkpt lat="35.3697966" lon="139.2359421"><ele>74.70333333333333</ele><time>2023-12-03T05:24:41Z</time></trkpt><trkpt lat="35.3696094" lon="139.235929"><ele>74.48</ele><time>2023-12-03T05:24:52Z</time></trkpt><trkpt lat="35.369453" lon="139.235808"><ele>74.25666666666667</ele><time>2023-12-03T05:25:07Z</time></trkpt><trkpt lat="35.3692706" lon="139.2358468"><ele>74.06333333333333</ele><time>2023-12-03T05:25:23Z</time></trkpt><trkpt lat="35.3690875" lon="139.2357896"><ele>74.03666666666668</ele><time>2023-12-03T05:25:36Z</time></trkpt><trkpt lat="35.3689143" lon="139.235862"><ele>74.09</ele><time>2023-12-03T05:25:49Z</time></trkpt><trkpt lat="35.3687344" lon="139.2357043"><ele>74.44666666666667</ele><time>2023-12-03T05:26:14Z</time></trkpt><trkpt lat="35.3685743" lon="139.2355753"><ele>74.85000000000001</ele><time>2023-12-03T05:26:32Z</time></trkpt><trkpt lat="35.3683922" lon="139.2356196"><ele>75.36666666666667</ele><time>2023-12-03T05:26:43Z</time></trkpt><trkpt lat="35.3682165" lon="139.2354693"><ele>75.76</ele><time>2023-12-03T05:26:55Z</time></trkpt><trkpt lat="35.3680634" lon="139.2353426"><ele>76.00333333333334</ele><time>2023-12-03T05:27:06Z</time></trkpt><trkpt lat="35.3678854" lon="139.2352551"><ele>76.00333333333333</ele><time>2023-12-03T05:27:18Z</time></trkpt><trkpt lat="35.3677151" lon="139.2351478"><ele>75.92</ele><time>2023-12-03T05:27:27Z</time></trkpt><trkpt lat="35.3675184" lon="139.2351011"><ele>75.84666666666668</ele><time>2023-12-03T05:27:44Z</time></trkpt><trkpt lat="35.3675" lon="139.2348696"><ele>75.97333333333334</ele><time>2023-12-03T05:28:03Z</time></trkpt><trkpt lat="35.3676814" lon="139.234903"><ele>76.05333333333334</ele><time>2023-12-03T05:28:14Z</time></trkpt><trkpt lat="35.3678037" lon="139.2347187"><ele>76.24000000000001</ele><time>2023-12-03T05:28:24Z</time></trkpt><trkpt lat="35.3678483" lon="139.2344945"><ele>76.50333333333334</ele><time>2023-12-03T05:28:34Z</time></trkpt><trkpt lat="35.3679042" lon="139.2342804"><ele>76.83666666666666</ele><time>2023-12-03T05:28:46Z</time></trkpt><trkpt lat="35.3678898" lon="139.234045"><ele>77.10333333333334</ele><time>2023-12-03T05:28:59Z</time></trkpt><trkpt lat="35.3680576" lon="139.2339564"><ele>77.28333333333335</ele><time>2023-12-03T05:29:11Z</time></trkpt><trkpt lat="35.3682338" lon="139.2338442"><ele>77.53666666666668</ele><time>2023-12-03T05:29:26Z</time></trkpt><trkpt lat="35.3683849" lon="139.2337158"><ele>77.85000000000001</ele><time>2023-12-03T05:29:39Z</time></trkpt><trkpt lat="35.3684857" lon="139.2335274"><ele>78.18333333333334</ele><time>2023-12-03T05:29:53Z</time></trkpt><trkpt lat="35.3686328" lon="139.2333852"><ele>78.67333333333333</ele><time>2023-12-03T05:30:10Z</time></trkpt><trkpt lat="35.3686855" lon="139.2331586"><ele>79.73</ele><time>2023-12-03T05:30:17Z</time></trkpt><trkpt lat="35.3687794" lon="139.2329659"><ele>80.72000000000001</ele><time>2023-12-03T05:30:30Z</time></trkpt><trkpt lat="35.3689036" lon="139.2327959"><ele>81.62666666666667</ele><time>2023-12-03T05:30:44Z</time></trkpt><trkpt lat="35.3689527" lon="139.2325772"><ele>81.67333333333335</ele><time>2023-12-03T05:30:55Z</time></trkpt><trkpt lat="35.3690614" lon="139.2323814"><ele>81.92666666666668</ele><time>2023-12-03T05:31:08Z</time></trkpt><trkpt lat="35.3691502" lon="139.2321803"><ele>82.0</ele><time>2023-12-03T05:31:18Z</time></trkpt><trkpt lat="35.369198" lon="139.231967"><ele>82.11999999999999</ele><time>2023-12-03T05:31:32Z</time></trkpt><trkpt lat="35.3692783" lon="139.2317626"><ele>82.10666666666667</ele><time>2023-12-03T05:31:44Z</time></trkpt><trkpt lat="35.3694076" lon="139.2315864"><ele>82.47000000000001</ele><time>2023-12-03T05:32:02Z</time></trkpt><trkpt lat="35.3694463" lon="139.2313678"><ele>83.12333333333333</ele><time>2023-12-03T05:32:21Z</time></trkpt><trkpt lat="35.3692592" lon="139.2313276"><ele>82.85666666666667</ele><time>2023-12-03T05:32:31Z</time></trkpt><trkpt lat="35.3690997" lon="139.2312248"><ele>82.49666666666667</ele><time>2023-12-03T05:32:40Z</time></trkpt><trkpt lat="35.3690273" lon="139.2310223"><ele>82.69333333333333</ele><time>2023-12-03T05:33:05Z</time></trkpt><trkpt lat="35.3691444" lon="139.2308372"><ele>83.52</ele><time>2023-12-03T05:33:18Z</time></trkpt><trkpt lat="35.369284" lon="139.2306956"><ele>83.71999999999998</ele><time>2023-12-03T05:33:27Z</time></trkpt><trkpt lat="35.3694015" lon="139.2305221"><ele>83.04</ele><time>2023-12-03T05:33:39Z</time></trkpt><trkpt lat="35.3694241" lon="139.2302849"><ele>82.63666666666667</ele><time>2023-12-03T05:33:49Z</time></trkpt><trkpt lat="35.3693739" lon="139.2300695"><ele>82.82333333333334</ele><time>2023-12-03T05:34:10Z</time></trkpt><trkpt lat="35.3694314" lon="139.229857"><ele>83.29333333333334</ele><time>2023-12-03T05:34:21Z</time></trkpt><trkpt lat="35.3695486" lon="139.2296865"><ele>83.70666666666666</ele><time>2023-12-03T05:34:31Z</time></trkpt><trkpt lat="35.3696875" lon="139.2295382"><ele>83.92333333333335</ele><time>2023-12-03T05:34:41Z</time></trkpt><trkpt lat="35.3698157" lon="139.2293759"><ele>84.08333333333333</ele><time>2023-12-03T05:34:53Z</time></trkpt><trkpt lat="35.3698774" lon="139.2291447"><ele>84.3</ele><time>2023-12-03T05:35:08Z</time></trkpt><trkpt lat="35.369931" lon="139.2289332"><ele>84.68666666666667</ele><time>2023-12-03T05:35:19Z</time></trkpt><trkpt lat="35.3700181" lon="139.2287109"><ele>85.05666666666667</ele><time>2023-12-03T05:35:30Z</time></trkpt><trkpt lat="35.3700765" lon="139.2284996"><ele>85.58333333333333</ele><time>2023-12-03T05:35:47Z</time></trkpt><trkpt lat="35.3700748" lon="139.2282764"><ele>86.24000000000001</ele><time>2023-12-03T05:36:03Z</time></trkpt><trkpt lat="35.370157" lon="139.2280789"><ele>87.31333333333333</ele><time>2023-12-03T05:36:13Z</time></trkpt><trkpt lat="35.3702739" lon="139.2279093"><ele>88.24666666666667</ele><time>2023-12-03T05:36:27Z</time></trkpt><trkpt lat="35.3704141" lon="139.2277504"><ele>89.31666666666666</ele><time>2023-12-03T05:37:27Z</time></trkpt><trkpt lat="35.3705831" lon="139.2276621"><ele>89.45</ele><time>2023-12-03T05:37:38Z</time></trkpt><trkpt lat="35.3706192" lon="139.2274455"><ele>89.85333333333334</ele><time>2023-12-03T05:37:52Z</time></trkpt><trkpt lat="35.3707165" lon="139.2272599"><ele>89.60666666666667</ele><time>2023-12-03T05:38:05Z</time></trkpt><trkpt lat="35.3705671" lon="139.2271233"><ele>90.49000000000001</ele><time>2023-12-03T05:38:15Z</time></trkpt><trkpt lat="35.370394" lon="139.2270078"><ele>91.30666666666667</ele><time>2023-12-03T05:38:22Z</time></trkpt><trkpt lat="35.37025" lon="139.226865"><ele>92.71</ele><time>2023-12-03T05:38:35Z</time></trkpt><trkpt lat="35.370122" lon="139.2267073"><ele>93.86333333333333</ele><time>2023-12-03T05:38:47Z</time></trkpt><trkpt lat="35.3701416" lon="139.2264745"><ele>94.93666666666667</ele><time>2023-12-03T05:39:02Z</time></trkpt><trkpt lat="35.370255" lon="139.2262941"><ele>95.62666666666667</ele><time>2023-12-03T05:39:18Z</time></trkpt></trkseg></trk></gpx>