<?xml version='1.0' encoding='UTF-8'?><gpx creator="YAMAP - https://yamap.com" xsi:schemaLocation="http://www.topografix.com/GPX/1/1 http://www.topografix.com/GPX/1/1/gpx.xsd" version="1.1" xmlns="http://www.topografix.com/GPX/1/1" xmlns:xsi="http://www.w3.org/2001/XMLSchema-instance"><metadata><bounds maxlat="35.454713" maxlon="139.1688606" minlat="35.4047513" minlon="139.1599688"/></metadata><trk><name>塔ノ岳</name><number>1</number><trkseg><trkpt lat="35.4047957" lon="139.1686911"><ele>287.63</ele><time>2024-01-13T22:52:36Z</time></trkpt><trkpt lat="35.404924" lon="139.1685301"><ele>288.105</ele><time>2024-01-13T22:53:25Z</time></trkpt><trkpt lat="35.4050628" lon="139.168382"><ele>288.53000000000003</ele><time>2024-01-13T22:53:40Z</time></trkpt><trkpt lat="35.4052406" lon="139.1683296"><ele>289.71000000000004</ele><time>2024-01-13T22:53:50Z</time></trkpt><trkpt lat="35.4054071" lon="139.1682426"><ele>291.0133333333333</ele><time>2024-01-13T22:54:04Z</time></trkpt><trkpt lat="35.4055861" lon="139.1681831"><ele>292.5966666666667</ele><time>2024-01-13T22:54:16Z</time></trkpt><trkpt lat="35.4057605" lon="139.1681089"><ele>293.33</ele><time>2024-01-13T22:54:27Z</time></trkpt><trkpt lat="35.4058921" lon="139.1679365"><ele>293.27666666666664</ele><time>2024-01-13T22:54:42Z</time></trkpt><trkpt lat="35.4059984" lon="139.1677405"><ele>292.4433333333333</ele><time>2024-01-13T22:54:54Z</time></trkpt><trkpt lat="35.4060552" lon="139.1675154"><ele>291.72</ele><time>2024-01-13T22:55:08Z</time></trkpt><trkpt lat="35.4061149" lon="139.1672998"><ele>292.67333333333335</ele><time>2024-01-13T22:55:20Z</time></trkpt><trkpt lat="35.4060765" lon="139.1670818"><ele>295.0933333333333</ele><time>2024-01-13T22:55:32Z</time></trkpt><trkpt lat="35.40601" lon="139.1668608"><ele>298.65666666666664</ele><time>2024-01-13T22:55:47Z</time></trkpt><trkpt lat="35.4058937" lon="139.166687"><ele>301.36999999999995</ele><time>2024-01-13T22:55:59Z</time></trkpt><trkpt lat="35.4058682" lon="139.1664602"><ele>303.72333333333336</ele><time>2024-01-13T22:56:15Z</time></trkpt><trkpt lat="35.4058827" lon="139.1662275"><ele>305.65333333333336</ele><time>2024-01-13T22:56:31Z</time></trkpt><trkpt lat="35.4059567" lon="139.1660147"><ele>308.42333333333335</ele><time>2024-01-13T22:56:49Z</time></trkpt><trkpt lat="35.4060997" lon="139.1658697"><ele>312.10999999999996</ele><time>2024-01-13T22:57:10Z</time></trkpt><trkpt lat="35.4062863" lon="139.1658575"><ele>316.54333333333335</ele><time>2024-01-13T22:57:27Z</time></trkpt><trkpt lat="35.406467" lon="139.1658386"><ele>319.3333333333333</ele><time>2024-01-13T22:57:43Z</time></trkpt><trkpt lat="35.4066312" lon="139.1657429"><ele>320.33666666666664</ele><time>2024-01-13T22:57:57Z</time></trkpt><trkpt lat="35.4067802" lon="139.1655888"><ele>320.44666666666666</ele><time>2024-01-13T22:58:12Z</time></trkpt><trkpt lat="35.4069442" lon="139.165462"><ele>321.3233333333333</ele><time>2024-01-13T22:58:27Z</time></trkpt><trkpt lat="35.4071085" lon="139.1653514"><ele>323.69666666666666</ele><time>2024-01-13T22:58:42Z</time></trkpt><trkpt lat="35.4072775" lon="139.1652572"><ele>326.43666666666667</ele><time>2024-01-13T22:59:01Z</time></trkpt><trkpt lat="35.407428" lon="139.1651302"><ele>329.68666666666667</ele><time>2024-01-13T22:59:18Z</time></trkpt><trkpt lat="35.4076116" lon="139.1650485"><ele>332.71333333333337</ele><time>2024-01-13T22:59:37Z</time></trkpt><trkpt lat="35.4077934" lon="139.1649993"><ele>336.09</ele><time>2024-01-13T22:59:55Z</time></trkpt><trkpt lat="35.4079592" lon="139.1649051"><ele>339.6833333333334</ele><time>2024-01-13T23:00:12Z</time></trkpt><trkpt lat="35.4081412" lon="139.1649086"><ele>342.1433333333334</ele><time>2024-01-13T23:00:31Z</time></trkpt><trkpt lat="35.4083288" lon="139.1648742"><ele>343.42333333333335</ele><time>2024-01-13T23:00:47Z</time></trkpt><trkpt lat="35.408503" lon="139.1647964"><ele>344.03999999999996</ele><time>2024-01-13T23:01:04Z</time></trkpt><trkpt lat="35.4085909" lon="139.1645955"><ele>345.54333333333335</ele><time>2024-01-13T23:01:19Z</time></trkpt><trkpt lat="35.4086634" lon="139.1643883"><ele>348.71000000000004</ele><time>2024-01-13T23:01:35Z</time></trkpt><trkpt lat="35.4087643" lon="139.1641962"><ele>352.74333333333334</ele><time>2024-01-13T23:01:52Z</time></trkpt><trkpt lat="35.4087688" lon="139.1639738"><ele>357.00666666666666</ele><time>2024-01-13T23:02:08Z</time></trkpt><trkpt lat="35.4088834" lon="139.1637994"><ele>360.48333333333335</ele><time>2024-01-13T23:02:25Z</time></trkpt><trkpt lat="35.4090107" lon="139.1636265"><ele>363.92333333333335</ele><time>2024-01-13T23:02:48Z</time></trkpt><trkpt lat="35.4091978" lon="139.1636216"><ele>367.2633333333333</ele><time>2024-01-13T23:03:16Z</time></trkpt><trkpt lat="35.4093534" lon="139.1637404"><ele>370.93333333333334</ele><time>2024-01-13T23:03:39Z</time></trkpt><trkpt lat="35.4095581" lon="139.1637985"><ele>373.7633333333333</ele><time>2024-01-13T23:03:54Z</time></trkpt><trkpt lat="35.4097447" lon="139.1637997"><ele>375.52</ele><time>2024-01-13T23:04:13Z</time></trkpt><trkpt lat="35.4099215" lon="139.1638437"><ele>375.81666666666666</ele><time>2024-01-13T23:04:25Z</time></trkpt><trkpt lat="35.4100896" lon="139.1637489"><ele>376.58</ele><time>2024-01-13T23:04:40Z</time></trkpt><trkpt lat="35.4101579" lon="139.1635398"><ele>379.67</ele><time>2024-01-13T23:04:56Z</time></trkpt><trkpt lat="35.4102827" lon="139.1633706"><ele>383.98</ele><time>2024-01-13T23:05:11Z</time></trkpt><trkpt lat="35.4103885" lon="139.1631823"><ele>388.31</ele><time>2024-01-13T23:05:33Z</time></trkpt><trkpt lat="35.4104969" lon="139.1630053"><ele>391.19000000000005</ele><time>2024-01-13T23:05:58Z</time></trkpt><trkpt lat="35.4106244" lon="139.162845"><ele>394.7166666666667</ele><time>2024-01-13T23:06:21Z</time></trkpt><trkpt lat="35.4107904" lon="139.1627417"><ele>398.31</ele><time>2024-01-13T23:06:41Z</time></trkpt><trkpt lat="35.4109276" lon="139.1625784"><ele>402.7266666666667</ele><time>2024-01-13T23:06:58Z</time></trkpt><trkpt lat="35.4110448" lon="139.1624071"><ele>407.55333333333334</ele><time>2024-01-13T23:07:33Z</time></trkpt><trkpt lat="35.4111883" lon="139.1622708"><ele>413.71333333333337</ele><time>2024-01-13T23:08:10Z</time></trkpt><trkpt lat="35.4113225" lon="139.1621106"><ele>418.8066666666667</ele><time>2024-01-13T23:08:30Z</time></trkpt><trkpt lat="35.4114466" lon="139.1619482"><ele>424.23333333333335</ele><time>2024-01-13T23:08:49Z</time></trkpt><trkpt lat="35.4115868" lon="139.1617999"><ele>430.46333333333337</ele><time>2024-01-13T23:09:16Z</time></trkpt><trkpt lat="35.4117588" lon="139.1618829"><ele>436.57</ele><time>2024-01-13T23:09:49Z</time></trkpt><trkpt lat="35.4118576" lon="139.1620718"><ele>438.74</ele><time>2024-01-13T23:10:09Z</time></trkpt><trkpt lat="35.411974" lon="139.1622481"><ele>436.6133333333333</ele><time>2024-01-13T23:10:25Z</time></trkpt><trkpt lat="35.4121601" lon="139.1622203"><ele>434.97333333333336</ele><time>2024-01-13T23:10:41Z</time></trkpt><trkpt lat="35.4123064" lon="139.1620822"><ele>437.44000000000005</ele><time>2024-01-13T23:10:58Z</time></trkpt><trkpt lat="35.4124684" lon="139.1619781"><ele>441.01</ele><time>2024-01-13T23:11:13Z</time></trkpt><trkpt lat="35.4126122" lon="139.1618386"><ele>446.4666666666667</ele><time>2024-01-13T23:11:37Z</time></trkpt><trkpt lat="35.4127727" lon="139.1617368"><ele>450.0833333333333</ele><time>2024-01-13T23:11:58Z</time></trkpt><trkpt lat="35.4129565" lon="139.1616723"><ele>455.8666666666666</ele><time>2024-01-13T23:12:15Z</time></trkpt><trkpt lat="35.4130339" lon="139.1618935"><ele>455.60666666666674</ele><time>2024-01-13T23:12:40Z</time></trkpt><trkpt lat="35.4132213" lon="139.1618727"><ele>457.29333333333335</ele><time>2024-01-13T23:12:55Z</time></trkpt><trkpt lat="35.4133357" lon="139.1620569"><ele>457.5466666666666</ele><time>2024-01-13T23:13:11Z</time></trkpt><trkpt lat="35.4134107" lon="139.1622587"><ele>461.9666666666667</ele><time>2024-01-13T23:13:28Z</time></trkpt><trkpt lat="35.413567" lon="139.1623779"><ele>465.30333333333334</ele><time>2024-01-13T23:14:04Z</time></trkpt><trkpt lat="35.4137489" lon="139.1623537"><ele>470.09666666666664</ele><time>2024-01-13T23:14:20Z</time></trkpt><trkpt lat="35.4139253" lon="139.1623057"><ele>473.86000000000007</ele><time>2024-01-13T23:14:44Z</time></trkpt><trkpt lat="35.4140918" lon="139.1622125"><ele>478.1233333333334</ele><time>2024-01-13T23:15:01Z</time></trkpt><trkpt lat="35.4142701" lon="139.1621703"><ele>482.09</ele><time>2024-01-13T23:15:22Z</time></trkpt><trkpt lat="35.4144436" lon="139.1622566"><ele>485.07</ele><time>2024-01-13T23:15:54Z</time></trkpt><trkpt lat="35.4146303" lon="139.1623183"><ele>487.49666666666667</ele><time>2024-01-13T23:16:08Z</time></trkpt><trkpt lat="35.4147731" lon="139.1624574"><ele>489.01</ele><time>2024-01-13T23:16:50Z</time></trkpt><trkpt lat="35.4149408" lon="139.1623695"><ele>494.64000000000004</ele><time>2024-01-13T23:17:33Z</time></trkpt><trkpt lat="35.4150013" lon="139.1621606"><ele>500.76000000000005</ele><time>2024-01-13T23:18:02Z</time></trkpt><trkpt lat="35.4149864" lon="139.1619402"><ele>508.06666666666666</ele><time>2024-01-13T23:18:16Z</time></trkpt><trkpt lat="35.4150931" lon="139.162128"><ele>512.43</ele><time>2024-01-13T23:18:57Z</time></trkpt><trkpt lat="35.4150966" lon="139.1623516"><ele>513.7466666666667</ele><time>2024-01-13T23:19:11Z</time></trkpt><trkpt lat="35.4151187" lon="139.1625761"><ele>513.7066666666667</ele><time>2024-01-13T23:19:30Z</time></trkpt><trkpt lat="35.4152685" lon="139.1627046"><ele>517.8066666666667</ele><time>2024-01-13T23:19:55Z</time></trkpt><trkpt lat="35.4154164" lon="139.1628331"><ele>525.08</ele><time>2024-01-13T23:20:54Z</time></trkpt><trkpt lat="35.4156029" lon="139.1627922"><ele>533.18</ele><time>2024-01-13T23:21:18Z</time></trkpt><trkpt lat="35.4157775" lon="139.1628602"><ele>537.5233333333334</ele><time>2024-01-13T23:21:47Z</time></trkpt><trkpt lat="35.4158509" lon="139.1626454"><ele>542.7833333333333</ele><time>2024-01-13T23:22:04Z</time></trkpt><trkpt lat="35.4160032" lon="139.1625257"><ele>548.7666666666667</ele><time>2024-01-13T23:22:26Z</time></trkpt><trkpt lat="35.4161911" lon="139.1625544"><ele>552.4633333333334</ele><time>2024-01-13T23:22:52Z</time></trkpt><trkpt lat="35.4163714" lon="139.1625705"><ele>555.5833333333334</ele><time>2024-01-13T23:23:16Z</time></trkpt><trkpt lat="35.4165566" lon="139.1625637"><ele>557.6</ele><time>2024-01-13T23:23:53Z</time></trkpt><trkpt lat="35.41674" lon="139.1626027"><ele>562.8833333333333</ele><time>2024-01-13T23:24:18Z</time></trkpt><trkpt lat="35.4169129" lon="139.1626651"><ele>567.3000000000001</ele><time>2024-01-13T23:24:37Z</time></trkpt><trkpt lat="35.4170641" lon="139.1625342"><ele>572.82</ele><time>2024-01-13T23:25:19Z</time></trkpt><trkpt lat="35.4172071" lon="139.1623952"><ele>579.4166666666666</ele><time>2024-01-13T23:25:35Z</time></trkpt><trkpt lat="35.4174003" lon="139.1623722"><ele>584.21</ele><time>2024-01-13T23:25:53Z</time></trkpt><trkpt lat="35.4175931" lon="139.1623534"><ele>588.4266666666666</ele><time>2024-01-13T23:26:09Z</time></trkpt><trkpt lat="35.4177822" lon="139.1623601"><ele>588.6233333333333</ele><time>2024-01-13T23:26:24Z</time></trkpt><trkpt lat="35.4179665" lon="139.1623078"><ele>590.6999999999999</ele><time>2024-01-13T23:26:44Z</time></trkpt><trkpt lat="35.4181327" lon="139.1622116"><ele>592.7399999999999</ele><time>2024-01-13T23:27:04Z</time></trkpt><trkpt lat="35.4183113" lon="139.1621744"><ele>597.21</ele><time>2024-01-13T23:27:21Z</time></trkpt><trkpt lat="35.4184932" lon="139.1621538"><ele>600.07</ele><time>2024-01-13T23:27:40Z</time></trkpt><trkpt lat="35.4186833" lon="139.1621587"><ele>601.2133333333334</ele><time>2024-01-13T23:27:52Z</time></trkpt><trkpt lat="35.4188645" lon="139.1622071"><ele>600.27</ele><time>2024-01-13T23:28:11Z</time></trkpt><trkpt lat="35.41905" lon="139.1622118"><ele>598.9899999999999</ele><time>2024-01-13T23:28:17Z</time></trkpt><trkpt lat="35.4192386" lon="139.1621746"><ele>598.6866666666666</ele><time>2024-01-13T23:28:35Z</time></trkpt><trkpt lat="35.4194106" lon="139.1620933"><ele>600.01</ele><time>2024-01-13T23:28:54Z</time></trkpt><trkpt lat="35.4195795" lon="139.1619921"><ele>604.0466666666666</ele><time>2024-01-13T23:29:12Z</time></trkpt><trkpt lat="35.4197509" lon="139.16207"><ele>607.9366666666666</ele><time>2024-01-13T23:29:34Z</time></trkpt><trkpt lat="35.4199312" lon="139.162107"><ele>612.7199999999999</ele><time>2024-01-13T23:30:24Z</time></trkpt><trkpt lat="35.4200921" lon="139.1622267"><ele>616.6833333333333</ele><time>2024-01-13T23:31:23Z</time></trkpt><trkpt lat="35.4202547" lon="139.1623275"><ele>623.5</ele><time>2024-01-13T23:31:51Z</time></trkpt><trkpt lat="35.4204206" lon="139.162422"><ele>632.1066666666667</ele><time>2024-01-13T23:32:27Z</time></trkpt><trkpt lat="35.4206007" lon="139.1624432"><ele>641.6233333333333</ele><time>2024-01-13T23:33:03Z</time></trkpt><trkpt lat="35.4207836" lon="139.162456"><ele>651.6166666666667</ele><time>2024-01-13T23:34:07Z</time></trkpt><trkpt lat="35.4209648" lon="139.1625176"><ele>661.1166666666667</ele><time>2024-01-13T23:34:53Z</time></trkpt><trkpt lat="35.4210784" lon="139.1626992"><ele>669.5433333333334</ele><time>2024-01-13T23:35:23Z</time></trkpt><trkpt lat="35.4212004" lon="139.1628622"><ele>675.6033333333334</ele><time>2024-01-13T23:35:58Z</time></trkpt><trkpt lat="35.4213645" lon="139.1629773"><ele>680.4466666666666</ele><time>2024-01-13T23:36:21Z</time></trkpt><trkpt lat="35.4214945" lon="139.163131"><ele>685.4466666666667</ele><time>2024-01-13T23:36:58Z</time></trkpt><trkpt lat="35.4216553" lon="139.1632565"><ele>690.6233333333333</ele><time>2024-01-13T23:37:17Z</time></trkpt><trkpt lat="35.4218209" lon="139.1633452"><ele>695.5066666666667</ele><time>2024-01-13T23:37:42Z</time></trkpt><trkpt lat="35.4219812" lon="139.1634636"><ele>700.6166666666668</ele><time>2024-01-13T23:38:20Z</time></trkpt><trkpt lat="35.4221736" lon="139.1635606"><ele>706.0766666666667</ele><time>2024-01-13T23:38:32Z</time></trkpt><trkpt lat="35.4224275" lon="139.1635697"><ele>711.9900000000001</ele><time>2024-01-13T23:38:35Z</time></trkpt><trkpt lat="35.4222232" lon="139.1636805"><ele>715.1666666666666</ele><time>2024-01-13T23:38:48Z</time></trkpt><trkpt lat="35.4222416" lon="139.1639164"><ele>715.9366666666666</ele><time>2024-01-13T23:39:14Z</time></trkpt><trkpt lat="35.4223398" lon="139.1641176"><ele>715.8433333333334</ele><time>2024-01-13T23:39:44Z</time></trkpt><trkpt lat="35.4224726" lon="139.1642685"><ele>718.8466666666667</ele><time>2024-01-13T23:40:26Z</time></trkpt><trkpt lat="35.4226277" lon="139.1644208"><ele>724.36</ele><time>2024-01-13T23:41:08Z</time></trkpt><trkpt lat="35.4227355" lon="139.1646023"><ele>731.3866666666667</ele><time>2024-01-13T23:41:55Z</time></trkpt><trkpt lat="35.4228607" lon="139.1647633"><ele>738.9700000000001</ele><time>2024-01-13T23:42:19Z</time></trkpt><trkpt lat="35.4229877" lon="139.1649203"><ele>746.2666666666668</ele><time>2024-01-13T23:42:59Z</time></trkpt><trkpt lat="35.4230802" lon="139.1651102"><ele>753.0066666666667</ele><time>2024-01-13T23:43:31Z</time></trkpt><trkpt lat="35.4232438" lon="139.1652174"><ele>758.8533333333334</ele><time>2024-01-13T23:43:56Z</time></trkpt><trkpt lat="35.4234143" lon="139.1652939"><ele>764.4933333333333</ele><time>2024-01-13T23:44:21Z</time></trkpt><trkpt lat="35.4235785" lon="139.1653864"><ele>769.46</ele><time>2024-01-13T23:44:45Z</time></trkpt><trkpt lat="35.4237277" lon="139.1655122"><ele>773.68</ele><time>2024-01-13T23:45:20Z</time></trkpt><trkpt lat="35.4238862" lon="139.165637"><ele>777.2433333333333</ele><time>2024-01-13T23:45:43Z</time></trkpt><trkpt lat="35.4240223" lon="139.1657832"><ele>779.9866666666667</ele><time>2024-01-13T23:45:57Z</time></trkpt><trkpt lat="35.4241627" lon="139.1659218"><ele>782.3766666666667</ele><time>2024-01-13T23:46:13Z</time></trkpt><trkpt lat="35.4242407" lon="139.1661272"><ele>783.0666666666666</ele><time>2024-01-13T23:46:25Z</time></trkpt><trkpt lat="35.4244328" lon="139.166138"><ele>782.9866666666667</ele><time>2024-01-13T23:46:32Z</time></trkpt><trkpt lat="35.4246111" lon="139.1661786"><ele>783.5966666666667</ele><time>2024-01-13T23:46:50Z</time></trkpt><trkpt lat="35.4247699" lon="139.1662866"><ele>785.2633333333333</ele><time>2024-01-13T23:47:08Z</time></trkpt><trkpt lat="35.4249602" lon="139.1662966"><ele>789.1433333333334</ele><time>2024-01-13T23:47:19Z</time></trkpt><trkpt lat="35.4251434" lon="139.1662935"><ele>792.8100000000001</ele><time>2024-01-13T23:47:34Z</time></trkpt><trkpt lat="35.425239" lon="139.1664884"><ele>794.9233333333333</ele><time>2024-01-13T23:47:43Z</time></trkpt><trkpt lat="35.4254287" lon="139.1665106"><ele>796.8033333333334</ele><time>2024-01-13T23:48:03Z</time></trkpt><trkpt lat="35.4256032" lon="139.1666021"><ele>797.0833333333334</ele><time>2024-01-13T23:48:15Z</time></trkpt><trkpt lat="35.4257683" lon="139.1667053"><ele>798.0333333333334</ele><time>2024-01-13T23:48:32Z</time></trkpt><trkpt lat="35.4259581" lon="139.1667235"><ele>797.8166666666667</ele><time>2024-01-13T23:48:51Z</time></trkpt><trkpt lat="35.4261185" lon="139.1668241"><ele>798.2533333333334</ele><time>2024-01-13T23:49:06Z</time></trkpt><trkpt lat="35.4262965" lon="139.1668675"><ele>799.6833333333334</ele><time>2024-01-13T23:49:21Z</time></trkpt><trkpt lat="35.4264778" lon="139.1668118"><ele>801.9433333333333</ele><time>2024-01-13T23:49:36Z</time></trkpt><trkpt lat="35.4266582" lon="139.1668195"><ele>805.1533333333333</ele><time>2024-01-13T23:49:59Z</time></trkpt><trkpt lat="35.426838" lon="139.1667968"><ele>809.7866666666667</ele><time>2024-01-13T23:50:25Z</time></trkpt><trkpt lat="35.4270149" lon="139.1667386"><ele>814.5333333333334</ele><time>2024-01-13T23:50:52Z</time></trkpt><trkpt lat="35.4271744" lon="139.1666139"><ele>821.6066666666667</ele><time>2024-01-13T23:51:06Z</time></trkpt><trkpt lat="35.4273598" lon="139.1665886"><ele>828.3266666666667</ele><time>2024-01-13T23:51:28Z</time></trkpt><trkpt lat="35.4275441" lon="139.1666378"><ele>835.7400000000001</ele><time>2024-01-13T23:52:12Z</time></trkpt><trkpt lat="35.4277262" lon="139.1666342"><ele>841.1033333333334</ele><time>2024-01-13T23:53:14Z</time></trkpt><trkpt lat="35.427905" lon="139.1665939"><ele>846.1566666666668</ele><time>2024-01-13T23:54:09Z</time></trkpt><trkpt lat="35.4279856" lon="139.1663832"><ele>853.6366666666667</ele><time>2024-01-13T23:54:35Z</time></trkpt><trkpt lat="35.4281524" lon="139.1662694"><ele>861.7933333333334</ele><time>2024-01-13T23:55:26Z</time></trkpt><trkpt lat="35.4282387" lon="139.166072"><ele>870.4699999999999</ele><time>2024-01-13T23:56:03Z</time></trkpt><trkpt lat="35.4283086" lon="139.1658617"><ele>877.66</ele><time>2024-01-13T23:56:24Z</time></trkpt><trkpt lat="35.4284807" lon="139.1657935"><ele>883.2066666666666</ele><time>2024-01-13T23:57:09Z</time></trkpt><trkpt lat="35.4285826" lon="139.1656076"><ele>888.8266666666667</ele><time>2024-01-13T23:57:37Z</time></trkpt><trkpt lat="35.4286878" lon="139.1654264"><ele>893.0266666666666</ele><time>2024-01-13T23:58:03Z</time></trkpt><trkpt lat="35.4288606" lon="139.1653564"><ele>897.5233333333334</ele><time>2024-01-13T23:58:24Z</time></trkpt><trkpt lat="35.4289963" lon="139.1651996"><ele>900.2066666666666</ele><time>2024-01-13T23:59:00Z</time></trkpt><trkpt lat="35.4291544" lon="139.1650931"><ele>901.93</ele><time>2024-01-13T23:59:15Z</time></trkpt><trkpt lat="35.4293291" lon="139.165035"><ele>903.2933333333334</ele><time>2024-01-13T23:59:29Z</time></trkpt><trkpt lat="35.4294938" lon="139.1649354"><ele>905.7866666666667</ele><time>2024-01-13T23:59:46Z</time></trkpt><trkpt lat="35.4296366" lon="139.1647961"><ele>908.75</ele><time>2024-01-14T00:00:07Z</time></trkpt><trkpt lat="35.42982" lon="139.164688"><ele>911.9266666666667</ele><time>2024-01-14T00:00:25Z</time></trkpt><trkpt lat="35.4300002" lon="139.1646534"><ele>914.2333333333332</ele><time>2024-01-14T00:00:42Z</time></trkpt><trkpt lat="35.4301576" lon="139.1645439"><ele>916.0166666666668</ele><time>2024-01-14T00:01:00Z</time></trkpt><trkpt lat="35.4302975" lon="139.1643965"><ele>918.09</ele><time>2024-01-14T00:01:16Z</time></trkpt><trkpt lat="35.4304518" lon="139.1642724"><ele>920.1166666666667</ele><time>2024-01-14T00:01:34Z</time></trkpt><trkpt lat="35.4306043" lon="139.1641528"><ele>922.39</ele><time>2024-01-14T00:01:54Z</time></trkpt><trkpt lat="35.4307603" lon="139.1640346"><ele>924.0833333333334</ele><time>2024-01-14T00:02:10Z</time></trkpt><trkpt lat="35.4309269" lon="139.1639194"><ele>926.1466666666666</ele><time>2024-01-14T00:02:33Z</time></trkpt><trkpt lat="35.4310821" lon="139.1638069"><ele>928.2199999999999</ele><time>2024-01-14T00:02:51Z</time></trkpt><trkpt lat="35.4312669" lon="139.1637647"><ele>930.2166666666667</ele><time>2024-01-14T00:03:07Z</time></trkpt><trkpt lat="35.4314485" lon="139.1637799"><ele>931.4033333333333</ele><time>2024-01-14T00:03:22Z</time></trkpt><trkpt lat="35.4316352" lon="139.1637828"><ele>931.7199999999999</ele><time>2024-01-14T00:03:36Z</time></trkpt><trkpt lat="35.4318198" lon="139.1637762"><ele>932.12</ele><time>2024-01-14T00:03:52Z</time></trkpt><trkpt lat="35.4320085" lon="139.1637856"><ele>932.75</ele><time>2024-01-14T00:04:06Z</time></trkpt><trkpt lat="35.4321862" lon="139.1638588"><ele>933.2966666666666</ele><time>2024-01-14T00:04:22Z</time></trkpt><trkpt lat="35.4323553" lon="139.1639631"><ele>934.61</ele><time>2024-01-14T00:04:39Z</time></trkpt><trkpt lat="35.4325108" lon="139.1640819"><ele>935.3466666666667</ele><time>2024-01-14T00:04:57Z</time></trkpt><trkpt lat="35.4326928" lon="139.1641275"><ele>937.1066666666667</ele><time>2024-01-14T00:05:12Z</time></trkpt><trkpt lat="35.4328757" lon="139.1641032"><ele>937.93</ele><time>2024-01-14T00:05:33Z</time></trkpt><trkpt lat="35.4330456" lon="139.1640248"><ele>939.0200000000001</ele><time>2024-01-14T00:05:46Z</time></trkpt><trkpt lat="35.4332089" lon="139.1639133"><ele>937.0833333333334</ele><time>2024-01-14T00:06:04Z</time></trkpt><trkpt lat="35.4333645" lon="139.1637885"><ele>934.6466666666666</ele><time>2024-01-14T00:06:22Z</time></trkpt><trkpt lat="35.4335638" lon="139.1637874"><ele>930.69</ele><time>2024-01-14T00:06:35Z</time></trkpt><trkpt lat="35.4337528" lon="139.1637603"><ele>928.0233333333334</ele><time>2024-01-14T00:06:48Z</time></trkpt><trkpt lat="35.433924" lon="139.1636692"><ele>925.7466666666668</ele><time>2024-01-14T00:07:00Z</time></trkpt><trkpt lat="35.4341115" lon="139.1636702"><ele>924.6166666666668</ele><time>2024-01-14T00:07:13Z</time></trkpt><trkpt lat="35.4342914" lon="139.1637026"><ele>923.9100000000002</ele><time>2024-01-14T00:07:34Z</time></trkpt><trkpt lat="35.4344745" lon="139.1637549"><ele>922.5966666666667</ele><time>2024-01-14T00:07:51Z</time></trkpt><trkpt lat="35.4346415" lon="139.1636174"><ele>921.6066666666666</ele><time>2024-01-14T00:08:04Z</time></trkpt><trkpt lat="35.4348217" lon="139.1635571"><ele>919.4233333333333</ele><time>2024-01-14T00:08:18Z</time></trkpt><trkpt lat="35.4349925" lon="139.1636506"><ele>916.5300000000001</ele><time>2024-01-14T00:08:43Z</time></trkpt><trkpt lat="35.4351831" lon="139.1636542"><ele>913.5066666666667</ele><time>2024-01-14T00:08:58Z</time></trkpt><trkpt lat="35.4353651" lon="139.1636362"><ele>912.6833333333334</ele><time>2024-01-14T00:09:11Z</time></trkpt><trkpt lat="35.4355446" lon="139.1635906"><ele>913.1</ele><time>2024-01-14T00:09:24Z</time></trkpt><trkpt lat="35.4357095" lon="139.1634926"><ele>915.6566666666668</ele><time>2024-01-14T00:09:43Z</time></trkpt><trkpt lat="35.4358191" lon="139.1632981"><ele>919.37</ele><time>2024-01-14T00:09:58Z</time></trkpt><trkpt lat="35.4359337" lon="139.1631261"><ele>924.4966666666668</ele><time>2024-01-14T00:10:47Z</time></trkpt><trkpt lat="35.4360905" lon="139.1630095"><ele>928.9533333333334</ele><time>2024-01-14T00:11:07Z</time></trkpt><trkpt lat="35.4362351" lon="139.1628779"><ele>932.85</ele><time>2024-01-14T00:11:41Z</time></trkpt><trkpt lat="35.4362727" lon="139.1626586"><ele>938.5500000000001</ele><time>2024-01-14T00:12:05Z</time></trkpt><trkpt lat="35.4362366" lon="139.1624399"><ele>944.7933333333334</ele><time>2024-01-14T00:12:37Z</time></trkpt><trkpt lat="35.4362727" lon="139.162224"><ele>950.5866666666667</ele><time>2024-01-14T00:12:48Z</time></trkpt><trkpt lat="35.4364151" lon="139.1623653"><ele>955.5533333333333</ele><time>2024-01-14T00:15:04Z</time></trkpt><trkpt lat="35.4365971" lon="139.1623332"><ele>959.23</ele><time>2024-01-14T00:15:50Z</time></trkpt><trkpt lat="35.4367813" lon="139.1623237"><ele>964.19</ele><time>2024-01-14T00:16:03Z</time></trkpt><trkpt lat="35.4369621" lon="139.1623053"><ele>968.54</ele><time>2024-01-14T00:16:26Z</time></trkpt><trkpt lat="35.4371529" lon="139.162327"><ele>975.8100000000001</ele><time>2024-01-14T00:17:10Z</time></trkpt><trkpt lat="35.4373311" lon="139.1622824"><ele>985.02</ele><time>2024-01-14T00:18:41Z</time></trkpt><trkpt lat="35.4375076" lon="139.1621913"><ele>994.6966666666667</ele><time>2024-01-14T00:18:55Z</time></trkpt><trkpt lat="35.4376707" lon="139.1622889"><ele>1003.3533333333334</ele><time>2024-01-14T00:19:58Z</time></trkpt><trkpt lat="35.4378713" lon="139.1622708"><ele>1009.32</ele><time>2024-01-14T00:20:13Z</time></trkpt><trkpt lat="35.4379815" lon="139.1624456"><ele>1015.1666666666666</ele><time>2024-01-14T00:20:51Z</time></trkpt><trkpt lat="35.4381679" lon="139.1624874"><ele>1021.5866666666667</ele><time>2024-01-14T00:21:38Z</time></trkpt><trkpt lat="35.4383275" lon="139.1625906"><ele>1028.77</ele><time>2024-01-14T00:22:45Z</time></trkpt><trkpt lat="35.4384767" lon="139.1627219"><ele>1036.2266666666667</ele><time>2024-01-14T00:23:12Z</time></trkpt><trkpt lat="35.4386336" lon="139.1628563"><ele>1042.51</ele><time>2024-01-14T00:23:49Z</time></trkpt><trkpt lat="35.4387687" lon="139.1630027"><ele>1049.1933333333334</ele><time>2024-01-14T00:24:48Z</time></trkpt><trkpt lat="35.4389384" lon="139.1630827"><ele>1056.8033333333335</ele><time>2024-01-14T00:25:39Z</time></trkpt><trkpt lat="35.4391148" lon="139.1631405"><ele>1065.07</ele><time>2024-01-14T00:26:22Z</time></trkpt><trkpt lat="35.4392875" lon="139.1632193"><ele>1074.34</ele><time>2024-01-14T00:26:40Z</time></trkpt><trkpt lat="35.4394592" lon="139.1632952"><ele>1082.0900000000001</ele><time>2024-01-14T00:27:54Z</time></trkpt><trkpt lat="35.4396467" lon="139.1633058"><ele>1090.6066666666668</ele><time>2024-01-14T00:28:41Z</time></trkpt><trkpt lat="35.4398298" lon="139.1633629"><ele>1097.2333333333333</ele><time>2024-01-14T00:29:12Z</time></trkpt><trkpt lat="35.4400124" lon="139.1633835"><ele>1104.2299999999998</ele><time>2024-01-14T00:29:41Z</time></trkpt><trkpt lat="35.4401731" lon="139.1632731"><ele>1109.9633333333334</ele><time>2024-01-14T00:30:21Z</time></trkpt><trkpt lat="35.4403239" lon="139.1631383"><ele>1115.6233333333332</ele><time>2024-01-14T00:30:37Z</time></trkpt><trkpt lat="35.4404358" lon="139.1629651"><ele>1119.7233333333334</ele><time>2024-01-14T00:30:52Z</time></trkpt><trkpt lat="35.440576" lon="139.1628006"><ele>1122.5333333333335</ele><time>2024-01-14T00:31:15Z</time></trkpt><trkpt lat="35.4407357" lon="139.1626941"><ele>1124.3333333333333</ele><time>2024-01-14T00:31:33Z</time></trkpt><trkpt lat="35.4409051" lon="139.1626139"><ele>1125.6833333333334</ele><time>2024-01-14T00:31:52Z</time></trkpt><trkpt lat="35.4410832" lon="139.1625557"><ele>1126.83</ele><time>2024-01-14T00:32:07Z</time></trkpt><trkpt lat="35.4412318" lon="139.1624118"><ele>1127.7066666666667</ele><time>2024-01-14T00:32:22Z</time></trkpt><trkpt lat="35.4414234" lon="139.1624411"><ele>1129.3033333333333</ele><time>2024-01-14T00:32:42Z</time></trkpt><trkpt lat="35.4415893" lon="139.162344"><ele>1130.6533333333334</ele><time>2024-01-14T00:32:57Z</time></trkpt><trkpt lat="35.4417726" lon="139.1622557"><ele>1132.2366666666667</ele><time>2024-01-14T00:33:53Z</time></trkpt><trkpt lat="35.4419577" lon="139.1622573"><ele>1135.9033333333334</ele><time>2024-01-14T00:34:13Z</time></trkpt><trkpt lat="35.4421501" lon="139.1622928"><ele>1142.2666666666667</ele><time>2024-01-14T00:35:07Z</time></trkpt><trkpt lat="35.4423311" lon="139.1623052"><ele>1148.8966666666668</ele><time>2024-01-14T00:35:32Z</time></trkpt><trkpt lat="35.4425023" lon="139.1624076"><ele>1153.9733333333334</ele><time>2024-01-14T00:36:18Z</time></trkpt><trkpt lat="35.4426697" lon="139.1625017"><ele>1158.0</ele><time>2024-01-14T00:36:44Z</time></trkpt><trkpt lat="35.4428124" lon="139.162637"><ele>1163.35</ele><time>2024-01-14T00:37:22Z</time></trkpt><trkpt lat="35.4429929" lon="139.1625749"><ele>1169.8333333333333</ele><time>2024-01-14T00:38:10Z</time></trkpt><trkpt lat="35.443173" lon="139.1625921"><ele>1176.0166666666667</ele><time>2024-01-14T00:38:56Z</time></trkpt><trkpt lat="35.4433526" lon="139.1625404"><ele>1184.0966666666666</ele><time>2024-01-14T00:39:35Z</time></trkpt><trkpt lat="35.4435217" lon="139.1624627"><ele>1192.2166666666665</ele><time>2024-01-14T00:40:10Z</time></trkpt><trkpt lat="35.4436916" lon="139.1625427"><ele>1202.9366666666667</ele><time>2024-01-14T00:41:28Z</time></trkpt><trkpt lat="35.4438805" lon="139.1625825"><ele>1211.8166666666668</ele><time>2024-01-14T00:42:45Z</time></trkpt><trkpt lat="35.444058" lon="139.1625347"><ele>1221.6033333333335</ele><time>2024-01-14T00:43:50Z</time></trkpt><trkpt lat="35.4442172" lon="139.1626398"><ele>1229.966666666667</ele><time>2024-01-14T00:45:02Z</time></trkpt><trkpt lat="35.4443899" lon="139.1627032"><ele>1239.0866666666668</ele><time>2024-01-14T00:45:39Z</time></trkpt><trkpt lat="35.4445716" lon="139.1627423"><ele>1247.1066666666666</ele><time>2024-01-14T00:47:21Z</time></trkpt><trkpt lat="35.4447568" lon="139.1627136"><ele>1256.5066666666667</ele><time>2024-01-14T00:48:21Z</time></trkpt><trkpt lat="35.4449385" lon="139.1627469"><ele>1265.5766666666668</ele><time>2024-01-14T00:48:47Z</time></trkpt><trkpt lat="35.4451243" lon="139.1627334"><ele>1275.8400000000001</ele><time>2024-01-14T00:49:35Z</time></trkpt><trkpt lat="35.4453028" lon="139.162674"><ele>1285.0866666666668</ele><time>2024-01-14T00:50:18Z</time></trkpt><trkpt lat="35.4455117" lon="139.1626997"><ele>1293.73</ele><time>2024-01-14T00:50:33Z</time></trkpt><trkpt lat="35.4455616" lon="139.1624874"><ele>1298.93</ele><time>2024-01-14T00:51:05Z</time></trkpt><trkpt lat="35.4457044" lon="139.1626316"><ele>1301.3666666666668</ele><time>2024-01-14T00:56:51Z</time></trkpt><trkpt lat="35.4458872" lon="139.1625933"><ele>1303.5266666666666</ele><time>2024-01-14T00:57:05Z</time></trkpt><trkpt lat="35.4460722" lon="139.1625918"><ele>1307.6366666666668</ele><time>2024-01-14T00:57:46Z</time></trkpt><trkpt lat="35.4462541" lon="139.1625741"><ele>1312.8966666666668</ele><time>2024-01-14T00:58:03Z</time></trkpt><trkpt lat="35.4464102" lon="139.1624576"><ele>1318.7433333333333</ele><time>2024-01-14T00:58:39Z</time></trkpt><trkpt lat="35.4465626" lon="139.1623367"><ele>1323.7266666666667</ele><time>2024-01-14T00:59:02Z</time></trkpt><trkpt lat="35.4467233" lon="139.1622284"><ele>1328.9400000000003</ele><time>2024-01-14T01:00:09Z</time></trkpt><trkpt lat="35.4468793" lon="139.1621145"><ele>1334.2166666666667</ele><time>2024-01-14T01:00:50Z</time></trkpt><trkpt lat="35.4469988" lon="139.1619373"><ele>1340.96</ele><time>2024-01-14T01:01:28Z</time></trkpt><trkpt lat="35.4471628" lon="139.1618417"><ele>1347.9133333333332</ele><time>2024-01-14T01:02:10Z</time></trkpt><trkpt lat="35.4473313" lon="139.1617631"><ele>1355.28</ele><time>2024-01-14T01:02:43Z</time></trkpt><trkpt lat="35.447512" lon="139.1617124"><ele>1360.7366666666667</ele><time>2024-01-14T01:03:16Z</time></trkpt><trkpt lat="35.4476876" lon="139.1616587"><ele>1365.9166666666667</ele><time>2024-01-14T01:04:10Z</time></trkpt><trkpt lat="35.4478714" lon="139.1617039"><ele>1368.64</ele><time>2024-01-14T01:04:32Z</time></trkpt><trkpt lat="35.4480524" lon="139.1616932"><ele>1370.6933333333334</ele><time>2024-01-14T01:04:43Z</time></trkpt><trkpt lat="35.4482391" lon="139.1616796"><ele>1371.13</ele><time>2024-01-14T01:05:04Z</time></trkpt><trkpt lat="35.4484195" lon="139.1617248"><ele>1370.5933333333332</ele><time>2024-01-14T01:05:47Z</time></trkpt><trkpt lat="35.4485999" lon="139.1617946"><ele>1368.7266666666667</ele><time>2024-01-14T01:05:58Z</time></trkpt><trkpt lat="35.4487819" lon="139.1617646"><ele>1366.8700000000001</ele><time>2024-01-14T01:06:16Z</time></trkpt><trkpt lat="35.4489659" lon="139.1617541"><ele>1366.8666666666668</ele><time>2024-01-14T01:06:27Z</time></trkpt><trkpt lat="35.4491405" lon="139.1616699"><ele>1367.9833333333336</ele><time>2024-01-14T01:06:41Z</time></trkpt><trkpt lat="35.4493073" lon="139.1615828"><ele>1367.2766666666666</ele><time>2024-01-14T01:07:09Z</time></trkpt><trkpt lat="35.4494398" lon="139.1614118"><ele>1364.6466666666668</ele><time>2024-01-14T01:07:29Z</time></trkpt><trkpt lat="35.4495884" lon="139.1612578"><ele>1362.0</ele><time>2024-01-14T01:08:20Z</time></trkpt><trkpt lat="35.4497069" lon="139.1610674"><ele>1362.9866666666667</ele><time>2024-01-14T01:08:31Z</time></trkpt><trkpt lat="35.4498434" lon="139.1609223"><ele>1366.01</ele><time>2024-01-14T01:09:11Z</time></trkpt><trkpt lat="35.4499969" lon="139.1610459"><ele>1369.6566666666665</ele><time>2024-01-14T01:09:34Z</time></trkpt><trkpt lat="35.4501453" lon="139.1611888"><ele>1371.6000000000001</ele><time>2024-01-14T01:09:50Z</time></trkpt><trkpt lat="35.4503348" lon="139.1611464"><ele>1373.5400000000002</ele><time>2024-01-14T01:10:07Z</time></trkpt><trkpt lat="35.450497" lon="139.1610472"><ele>1375.7333333333336</ele><time>2024-01-14T01:10:41Z</time></trkpt><trkpt lat="35.4506808" lon="139.1610428"><ele>1379.74</ele><time>2024-01-14T01:11:16Z</time></trkpt><trkpt lat="35.4508519" lon="139.1611143"><ele>1384.32</ele><time>2024-01-14T01:11:45Z</time></trkpt><trkpt lat="35.4510278" lon="139.1611754"><ele>1389.2033333333336</ele><time>2024-01-14T01:12:19Z</time></trkpt><trkpt lat="35.4511158" lon="139.1613677"><ele>1393.986666666667</ele><time>2024-01-14T01:12:45Z</time></trkpt><trkpt lat="35.4512944" lon="139.161421"><ele>1397.6433333333334</ele><time>2024-01-14T01:13:23Z</time></trkpt><trkpt lat="35.4513723" lon="139.1616249"><ele>1401.256666666667</ele><time>2024-01-14T01:13:55Z</time></trkpt><trkpt lat="35.4514512" lon="139.1618338"><ele>1402.6166666666668</ele><time>2024-01-14T01:14:13Z</time></trkpt><trkpt lat="35.4516209" lon="139.1619214"><ele>1403.82</ele><time>2024-01-14T01:14:27Z</time></trkpt><trkpt lat="35.4517953" lon="139.1620176"><ele>1404.0666666666666</ele><time>2024-01-14T01:14:45Z</time></trkpt><trkpt lat="35.4519782" lon="139.1620354"><ele>1405.6900000000003</ele><time>2024-01-14T01:15:05Z</time></trkpt><trkpt lat="35.452145" lon="139.162135"><ele>1408.7</ele><time>2024-01-14T01:15:40Z</time></trkpt><trkpt lat="35.4523009" lon="139.1622464"><ele>1412.4066666666668</ele><time>2024-01-14T01:16:05Z</time></trkpt><trkpt lat="35.4524615" lon="139.1621381"><ele>1417.3666666666668</ele><time>2024-01-14T01:16:39Z</time></trkpt><trkpt lat="35.4526229" lon="139.1622581"><ele>1421.78</ele><time>2024-01-14T01:17:24Z</time></trkpt><trkpt lat="35.4527974" lon="139.1623321"><ele>1427.5633333333335</ele><time>2024-01-14T01:17:38Z</time></trkpt><trkpt lat="35.4529443" lon="139.1624684"><ele>1432.9533333333336</ele><time>2024-01-14T01:17:59Z</time></trkpt><trkpt lat="35.4530228" lon="139.1626693"><ele>1438.7833333333335</ele><time>2024-01-14T01:19:17Z</time></trkpt><trkpt lat="35.4531336" lon="139.1628444"><ele>1445.3133333333335</ele><time>2024-01-14T01:19:59Z</time></trkpt><trkpt lat="35.453249" lon="139.1630167"><ele>1451.0566666666666</ele><time>2024-01-14T01:20:25Z</time></trkpt><trkpt lat="35.4534137" lon="139.1631104"><ele>1457.97</ele><time>2024-01-14T01:20:51Z</time></trkpt><trkpt lat="35.453566" lon="139.1632312"><ele>1465.1166666666668</ele><time>2024-01-14T01:21:51Z</time></trkpt><trkpt lat="35.4537421" lon="139.163309"><ele>1474.14</ele><time>2024-01-14T01:22:18Z</time></trkpt><trkpt lat="35.4539246" lon="139.1633471"><ele>1482.4633333333331</ele><time>2024-01-14T01:22:40Z</time></trkpt><trkpt lat="35.4541049" lon="139.163324"><ele>1487.9000000000003</ele><time>2024-01-14T01:23:03Z</time></trkpt><trkpt lat="35.4542778" lon="139.1634116"><ele>1490.2266666666667</ele><time>2024-01-14T01:24:22Z</time></trkpt><trkpt lat="35.4540977" lon="139.1633454"><ele>1490.4433333333334</ele><time>2024-01-14T01:25:23Z</time></trkpt><trkpt lat="35.4542138" lon="139.1631761"><ele>1490.1866666666665</ele><time>2024-01-14T01:25:37Z</time></trkpt><trkpt lat="35.4541009" lon="139.1633515"><ele>1490.3133333333335</ele><time>2024-01-14T01:27:40Z</time></trkpt><trkpt lat="35.4540096" lon="139.1631448"><ele>1489.0166666666667</ele><time>2024-01-14T01:30:16Z</time></trkpt><trkpt lat="35.4541698" lon="139.1632496"><ele>1489.2433333333336</ele><time>2024-01-14T01:31:22Z</time></trkpt><trkpt lat="35.454182" lon="139.1635147"><ele>1488.7633333333333</ele><time>2024-01-14T01:32:40Z</time></trkpt><trkpt lat="35.4541829" lon="139.1632866"><ele>1490.0200000000002</ele><time>2024-01-14T01:33:37Z</time></trkpt><trkpt lat="35.4542021" lon="139.1635117"><ele>1489.57</ele><time>2024-01-14T01:33:53Z</time></trkpt><trkpt lat="35.4540372" lon="139.1633903"><ele>1489.9733333333334</ele><time>2024-01-14T01:34:36Z</time></trkpt><trkpt lat="35.4538309" lon="139.1634291"><ele>1489.36</ele><time>2024-01-14T01:35:20Z</time></trkpt><trkpt lat="35.4540147" lon="139.1634007"><ele>1489.71</ele><time>2024-01-14T01:35:46Z</time></trkpt><trkpt lat="35.454186" lon="139.1633291"><ele>1489.756666666667</ele><time>2024-01-14T01:37:50Z</time></trkpt><trkpt lat="35.4543511" lon="139.1632357"><ele>1490.3133333333335</ele><time>2024-01-14T01:38:48Z</time></trkpt><trkpt lat="35.4545341" lon="139.163283"><ele>1489.7933333333333</ele><time>2024-01-14T01:39:44Z</time></trkpt><trkpt lat="35.454713" lon="139.1633645"><ele>1488.0900000000001</ele><time>2024-01-14T01:40:00Z</time></trkpt><trkpt lat="35.4545949" lon="139.1631788"><ele>1486.39</ele><time>2024-01-14T01:40:15Z</time></trkpt><trkpt lat="35.4544033" lon="139.1631603"><ele>1486.8233333333335</ele><time>2024-01-14T01:40:28Z</time></trkpt><trkpt lat="35.4543451" lon="139.1633725"><ele>1488.45</ele><time>2024-01-14T01:40:43Z</time></trkpt><trkpt lat="35.4541504" lon="139.1633009"><ele>1490.2166666666665</ele><time>2024-01-14T01:44:40Z</time></trkpt><trkpt lat="35.4543187" lon="139.1633837"><ele>1490.3266666666666</ele><time>2024-01-14T01:56:05Z</time></trkpt><trkpt lat="35.4541313" lon="139.1633923"><ele>1490.3633333333335</ele><time>2024-01-14T01:58:15Z</time></trkpt><trkpt lat="35.4539693" lon="139.163289"><ele>1490.1500000000003</ele><time>2024-01-14T01:58:45Z</time></trkpt><trkpt lat="35.4540153" lon="139.1635031"><ele>1489.8033333333333</ele><time>2024-01-14T02:00:46Z</time></trkpt><trkpt lat="35.4541382" lon="139.1633326"><ele>1489.8733333333337</ele><time>2024-01-14T02:01:05Z</time></trkpt><trkpt lat="35.4539595" lon="139.163285"><ele>1489.8733333333337</ele><time>2024-01-14T02:04:05Z</time></trkpt><trkpt lat="35.45378" lon="139.1633195"><ele>1488.88</ele><time>2024-01-14T02:04:42Z</time></trkpt><trkpt lat="35.4536201" lon="139.1632094"><ele>1483.2533333333333</ele><time>2024-01-14T02:05:14Z</time></trkpt><trkpt lat="35.4534492" lon="139.1631173"><ele>1474.9566666666667</ele><time>2024-01-14T02:05:52Z</time></trkpt><trkpt lat="35.4532845" lon="139.1630184"><ele>1466.33</ele><time>2024-01-14T02:06:10Z</time></trkpt><trkpt lat="35.4531985" lon="139.1628231"><ele>1460.0166666666667</ele><time>2024-01-14T02:06:40Z</time></trkpt><trkpt lat="35.4530729" lon="139.1626645"><ele>1454.0633333333335</ele><time>2024-01-14T02:07:27Z</time></trkpt><trkpt lat="35.4529522" lon="139.1624966"><ele>1446.9166666666667</ele><time>2024-01-14T02:08:26Z</time></trkpt><trkpt lat="35.4528505" lon="139.1623146"><ele>1440.1433333333334</ele><time>2024-01-14T02:08:50Z</time></trkpt><trkpt lat="35.4526871" lon="139.162213"><ele>1434.0033333333333</ele><time>2024-01-14T02:09:11Z</time></trkpt><trkpt lat="35.4525187" lon="139.162128"><ele>1429.2666666666667</ele><time>2024-01-14T02:09:38Z</time></trkpt><trkpt lat="35.4523403" lon="139.162095"><ele>1423.7433333333336</ele><time>2024-01-14T02:10:06Z</time></trkpt><trkpt lat="35.452156" lon="139.1620844"><ele>1418.7300000000002</ele><time>2024-01-14T02:10:24Z</time></trkpt><trkpt lat="35.4520077" lon="139.1619445"><ele>1413.6933333333334</ele><time>2024-01-14T02:11:05Z</time></trkpt><trkpt lat="35.4518284" lon="139.1619018"><ele>1409.9366666666665</ele><time>2024-01-14T02:11:18Z</time></trkpt><trkpt lat="35.4516757" lon="139.1617733"><ele>1407.2733333333333</ele><time>2024-01-14T02:11:37Z</time></trkpt><trkpt lat="35.4514927" lon="139.1617209"><ele>1405.4799999999998</ele><time>2024-01-14T02:11:55Z</time></trkpt><trkpt lat="35.4513655" lon="139.1615632"><ele>1404.1566666666668</ele><time>2024-01-14T02:12:23Z</time></trkpt><trkpt lat="35.4512405" lon="139.1614022"><ele>1401.676666666667</ele><time>2024-01-14T02:12:39Z</time></trkpt><trkpt lat="35.4511141" lon="139.1612338"><ele>1397.6766666666665</ele><time>2024-01-14T02:13:04Z</time></trkpt><trkpt lat="35.4509409" lon="139.1611518"><ele>1393.5233333333333</ele><time>2024-01-14T02:13:28Z</time></trkpt><trkpt lat="35.4508099" lon="139.1609976"><ele>1389.3933333333334</ele><time>2024-01-14T02:13:47Z</time></trkpt><trkpt lat="35.4506521" lon="139.1608783"><ele>1383.97</ele><time>2024-01-14T02:14:04Z</time></trkpt><trkpt lat="35.4504716" lon="139.1608855"><ele>1377.6366666666665</ele><time>2024-01-14T02:14:20Z</time></trkpt><trkpt lat="35.4503323" lon="139.1610256"><ele>1373.3799999999999</ele><time>2024-01-14T02:14:40Z</time></trkpt><trkpt lat="35.4501484" lon="139.1610732"><ele>1372.3133333333335</ele><time>2024-01-14T02:14:59Z</time></trkpt><trkpt lat="35.4499814" lon="139.1609739"><ele>1372.0199999999998</ele><time>2024-01-14T02:15:18Z</time></trkpt><trkpt lat="35.4498154" lon="139.1608872"><ele>1370.3433333333332</ele><time>2024-01-14T02:15:34Z</time></trkpt><trkpt lat="35.4497052" lon="139.1610628"><ele>1368.3333333333333</ele><time>2024-01-14T02:16:18Z</time></trkpt><trkpt lat="35.4495713" lon="139.161229"><ele>1365.6566666666668</ele><time>2024-01-14T02:16:35Z</time></trkpt><trkpt lat="35.4494347" lon="139.161375"><ele>1363.3999999999999</ele><time>2024-01-14T02:17:09Z</time></trkpt><trkpt lat="35.4492808" lon="139.1615012"><ele>1362.4133333333332</ele><time>2024-01-14T02:17:25Z</time></trkpt><trkpt lat="35.4491131" lon="139.1615943"><ele>1364.09</ele><time>2024-01-14T02:18:21Z</time></trkpt><trkpt lat="35.4489321" lon="139.1615789"><ele>1362.9866666666667</ele><time>2024-01-14T02:18:45Z</time></trkpt><trkpt lat="35.4488141" lon="139.1617558"><ele>1362.4966666666667</ele><time>2024-01-14T02:19:07Z</time></trkpt><trkpt lat="35.4486304" lon="139.1617018"><ele>1359.45</ele><time>2024-01-14T02:19:28Z</time></trkpt><trkpt lat="35.4484462" lon="139.161671"><ele>1359.5600000000002</ele><time>2024-01-14T02:19:43Z</time></trkpt><trkpt lat="35.4482878" lon="139.1615652"><ele>1360.2</ele><time>2024-01-14T02:20:11Z</time></trkpt><trkpt lat="35.4481288" lon="139.1616709"><ele>1364.2533333333333</ele><time>2024-01-14T02:20:32Z</time></trkpt><trkpt lat="35.4479539" lon="139.161746"><ele>1368.5233333333333</ele><time>2024-01-14T02:21:03Z</time></trkpt><trkpt lat="35.447778" lon="139.1616868"><ele>1370.6266666666668</ele><time>2024-01-14T02:22:31Z</time></trkpt><trkpt lat="35.4475979" lon="139.1615986"><ele>1370.2933333333333</ele><time>2024-01-14T02:22:46Z</time></trkpt><trkpt lat="35.4474258" lon="139.1616795"><ele>1367.7266666666667</ele><time>2024-01-14T02:24:22Z</time></trkpt><trkpt lat="35.4472682" lon="139.1617925"><ele>1364.4366666666667</ele><time>2024-01-14T02:26:11Z</time></trkpt><trkpt lat="35.4470969" lon="139.1617148"><ele>1356.7833333333335</ele><time>2024-01-14T02:26:27Z</time></trkpt><trkpt lat="35.4469949" lon="139.1619048"><ele>1351.88</ele><time>2024-01-14T02:26:40Z</time></trkpt><trkpt lat="35.4468909" lon="139.1620935"><ele>1345.3633333333335</ele><time>2024-01-14T02:27:04Z</time></trkpt><trkpt lat="35.4467396" lon="139.1622329"><ele>1341.16</ele><time>2024-01-14T02:27:43Z</time></trkpt><trkpt lat="35.4465566" lon="139.1622616"><ele>1333.9266666666667</ele><time>2024-01-14T02:27:59Z</time></trkpt><trkpt lat="35.4464099" lon="139.1623928"><ele>1328.39</ele><time>2024-01-14T02:28:19Z</time></trkpt><trkpt lat="35.4462554" lon="139.1625086"><ele>1323.3866666666665</ele><time>2024-01-14T02:28:33Z</time></trkpt><trkpt lat="35.4460679" lon="139.162492"><ele>1318.4433333333334</ele><time>2024-01-14T02:28:49Z</time></trkpt><trkpt lat="35.4458843" lon="139.1624696"><ele>1312.29</ele><time>2024-01-14T02:29:10Z</time></trkpt><trkpt lat="35.4456954" lon="139.1624946"><ele>1307.0566666666666</ele><time>2024-01-14T02:29:25Z</time></trkpt><trkpt lat="35.4455246" lon="139.1624143"><ele>1302.8</ele><time>2024-01-14T02:29:55Z</time></trkpt><trkpt lat="35.4454093" lon="139.1625905"><ele>1300.1000000000001</ele><time>2024-01-14T02:30:01Z</time></trkpt><trkpt lat="35.4452275" lon="139.1626722"><ele>1296.5566666666666</ele><time>2024-01-14T02:30:18Z</time></trkpt><trkpt lat="35.4450398" lon="139.1626765"><ele>1290.7433333333333</ele><time>2024-01-14T02:30:38Z</time></trkpt><trkpt lat="35.4448595" lon="139.1626158"><ele>1281.5766666666668</ele><time>2024-01-14T02:30:54Z</time></trkpt><trkpt lat="35.444682" lon="139.1626832"><ele>1271.7500000000002</ele><time>2024-01-14T02:31:37Z</time></trkpt><trkpt lat="35.4444993" lon="139.1627125"><ele>1261.136666666667</ele><time>2024-01-14T02:31:49Z</time></trkpt><trkpt lat="35.4443163" lon="139.1627033"><ele>1252.6866666666667</ele><time>2024-01-14T02:32:27Z</time></trkpt><trkpt lat="35.4442299" lon="139.1625084"><ele>1243.59</ele><time>2024-01-14T02:32:56Z</time></trkpt><trkpt lat="35.4440477" lon="139.1624821"><ele>1236.5033333333333</ele><time>2024-01-14T02:33:31Z</time></trkpt><trkpt lat="35.4438878" lon="139.1626094"><ele>1228.2</ele><time>2024-01-14T02:33:52Z</time></trkpt><trkpt lat="35.4437261" lon="139.1624991"><ele>1220.7966666666666</ele><time>2024-01-14T02:34:59Z</time></trkpt><trkpt lat="35.443546" lon="139.1624727"><ele>1213.2366666666667</ele><time>2024-01-14T02:35:41Z</time></trkpt><trkpt lat="35.4433659" lon="139.1624505"><ele>1203.0966666666668</ele><time>2024-01-14T02:36:12Z</time></trkpt><trkpt lat="35.4431867" lon="139.1624785"><ele>1191.6233333333334</ele><time>2024-01-14T02:36:51Z</time></trkpt><trkpt lat="35.4430036" lon="139.162488"><ele>1181.04</ele><time>2024-01-14T02:37:09Z</time></trkpt><trkpt lat="35.4428293" lon="139.1624157"><ele>1172.2</ele><time>2024-01-14T02:37:31Z</time></trkpt><trkpt lat="35.4426444" lon="139.1623757"><ele>1165.9233333333334</ele><time>2024-01-14T02:37:53Z</time></trkpt><trkpt lat="35.4424709" lon="139.1622883"><ele>1159.0733333333335</ele><time>2024-01-14T02:38:13Z</time></trkpt><trkpt lat="35.4422944" lon="139.1622053"><ele>1155.1166666666668</ele><time>2024-01-14T02:38:34Z</time></trkpt><trkpt lat="35.4421163" lon="139.1621645"><ele>1149.62</ele><time>2024-01-14T02:38:52Z</time></trkpt><trkpt lat="35.441932" lon="139.1621449"><ele>1144.4933333333333</ele><time>2024-01-14T02:39:26Z</time></trkpt><trkpt lat="35.4417544" lon="139.162209"><ele>1138.49</ele><time>2024-01-14T02:39:37Z</time></trkpt><trkpt lat="35.4415699" lon="139.1622593"><ele>1132.2866666666666</ele><time>2024-01-14T02:39:56Z</time></trkpt><trkpt lat="35.4413848" lon="139.162277"><ele>1128.47</ele><time>2024-01-14T02:40:09Z</time></trkpt><trkpt lat="35.4412063" lon="139.162339"><ele>1125.3066666666666</ele><time>2024-01-14T02:40:23Z</time></trkpt><trkpt lat="35.4410313" lon="139.162447"><ele>1125.8066666666666</ele><time>2024-01-14T02:40:34Z</time></trkpt><trkpt lat="35.4408454" lon="139.162523"><ele>1124.4233333333334</ele><time>2024-01-14T02:40:47Z</time></trkpt><trkpt lat="35.4406684" lon="139.1625828"><ele>1124.3000000000002</ele><time>2024-01-14T02:40:57Z</time></trkpt><trkpt lat="35.4405047" lon="139.1626933"><ele>1123.0700000000002</ele><time>2024-01-14T02:41:07Z</time></trkpt><trkpt lat="35.4403895" lon="139.1628701"><ele>1122.8433333333332</ele><time>2024-01-14T02:41:16Z</time></trkpt><trkpt lat="35.4402786" lon="139.1630518"><ele>1122.0533333333335</ele><time>2024-01-14T02:41:36Z</time></trkpt><trkpt lat="35.4401321" lon="139.1631846"><ele>1120.2966666666669</ele><time>2024-01-14T02:41:49Z</time></trkpt><trkpt lat="35.4399717" lon="139.1632854"><ele>1115.6266666666668</ele><time>2024-01-14T02:42:07Z</time></trkpt><trkpt lat="35.4398068" lon="139.1631895"><ele>1109.6733333333332</ele><time>2024-01-14T02:42:28Z</time></trkpt><trkpt lat="35.4396269" lon="139.1631507"><ele>1103.0366666666669</ele><time>2024-01-14T02:42:43Z</time></trkpt><trkpt lat="35.4394495" lon="139.1630918"><ele>1096.0933333333335</ele><time>2024-01-14T02:42:57Z</time></trkpt><trkpt lat="35.4392683" lon="139.1630874"><ele>1087.9666666666667</ele><time>2024-01-14T02:43:13Z</time></trkpt><trkpt lat="35.4390888" lon="139.1630602"><ele>1079.5900000000001</ele><time>2024-01-14T02:43:52Z</time></trkpt><trkpt lat="35.4389335" lon="139.1629347"><ele>1071.5166666666667</ele><time>2024-01-14T02:44:08Z</time></trkpt><trkpt lat="35.4387973" lon="139.162769"><ele>1063.2633333333333</ele><time>2024-01-14T02:44:34Z</time></trkpt><trkpt lat="35.4386517" lon="139.1626338"><ele>1054.93</ele><time>2024-01-14T02:45:07Z</time></trkpt><trkpt lat="35.4384683" lon="139.1625661"><ele>1047.1599999999999</ele><time>2024-01-14T02:45:27Z</time></trkpt><trkpt lat="35.438334" lon="139.162414"><ele>1039.8966666666668</ele><time>2024-01-14T02:46:01Z</time></trkpt><trkpt lat="35.4381532" lon="139.1623826"><ele>1032.7133333333334</ele><time>2024-01-14T02:46:25Z</time></trkpt><trkpt lat="35.4379847" lon="139.1622959"><ele>1026.1133333333335</ele><time>2024-01-14T02:46:43Z</time></trkpt><trkpt lat="35.4378076" lon="139.1622332"><ele>1020.1033333333334</ele><time>2024-01-14T02:47:03Z</time></trkpt><trkpt lat="35.4376238" lon="139.1622107"><ele>1014.0866666666667</ele><time>2024-01-14T02:47:24Z</time></trkpt><trkpt lat="35.4374469" lon="139.1621672"><ele>1007.29</ele><time>2024-01-14T02:48:25Z</time></trkpt><trkpt lat="35.4372675" lon="139.1622063"><ele>1000.0</ele><time>2024-01-14T02:49:02Z</time></trkpt><trkpt lat="35.4371255" lon="139.1623462"><ele>992.1933333333333</ele><time>2024-01-14T02:49:37Z</time></trkpt><trkpt lat="35.4369444" lon="139.1623107"><ele>983.6966666666667</ele><time>2024-01-14T02:50:06Z</time></trkpt><trkpt lat="35.4367536" lon="139.1623357"><ele>974.96</ele><time>2024-01-14T02:50:27Z</time></trkpt><trkpt lat="35.4365773" lon="139.1623823"><ele>968.2066666666666</ele><time>2024-01-14T02:50:40Z</time></trkpt><trkpt lat="35.4364402" lon="139.1622371"><ele>962.3333333333334</ele><time>2024-01-14T02:51:06Z</time></trkpt><trkpt lat="35.4362982" lon="139.1620931"><ele>955.04</ele><time>2024-01-14T02:51:25Z</time></trkpt><trkpt lat="35.4362299" lon="139.1623044"><ele>951.2733333333332</ele><time>2024-01-14T02:51:39Z</time></trkpt><trkpt lat="35.4362207" lon="139.1625296"><ele>948.5300000000001</ele><time>2024-01-14T02:51:52Z</time></trkpt><trkpt lat="35.4362453" lon="139.1627505"><ele>946.8366666666667</ele><time>2024-01-14T02:52:06Z</time></trkpt><trkpt lat="35.4362375" lon="139.1629798"><ele>940.6766666666666</ele><time>2024-01-14T02:52:30Z</time></trkpt><trkpt lat="35.4360637" lon="139.1630843"><ele>935.5</ele><time>2024-01-14T02:53:05Z</time></trkpt><trkpt lat="35.4358822" lon="139.1630845"><ele>931.0633333333334</ele><time>2024-01-14T02:53:11Z</time></trkpt><trkpt lat="35.435822" lon="139.1632977"><ele>927.8333333333334</ele><time>2024-01-14T02:53:38Z</time></trkpt><trkpt lat="35.435698" lon="139.1634669"><ele>922.8033333333333</ele><time>2024-01-14T02:53:51Z</time></trkpt><trkpt lat="35.4355148" lon="139.1635113"><ele>918.4533333333334</ele><time>2024-01-14T02:54:05Z</time></trkpt><trkpt lat="35.4353405" lon="139.1635795"><ele>914.7166666666667</ele><time>2024-01-14T02:54:17Z</time></trkpt><trkpt lat="35.4351526" lon="139.1635765"><ele>913.2533333333334</ele><time>2024-01-14T02:54:32Z</time></trkpt><trkpt lat="35.4349601" lon="139.1635491"><ele>913.1333333333333</ele><time>2024-01-14T02:54:44Z</time></trkpt><trkpt lat="35.434779" lon="139.1635671"><ele>914.8533333333334</ele><time>2024-01-14T02:55:00Z</time></trkpt><trkpt lat="35.4346167" lon="139.1636634"><ele>917.2933333333334</ele><time>2024-01-14T02:55:10Z</time></trkpt><trkpt lat="35.4344299" lon="139.1636811"><ele>920.41</ele><time>2024-01-14T02:55:33Z</time></trkpt><trkpt lat="35.4342472" lon="139.1636363"><ele>921.98</ele><time>2024-01-14T02:55:54Z</time></trkpt><trkpt lat="35.4340614" lon="139.1635841"><ele>923.3866666666667</ele><time>2024-01-14T02:56:12Z</time></trkpt><trkpt lat="35.4338928" lon="139.1636636"><ele>924.46</ele><time>2024-01-14T02:56:25Z</time></trkpt><trkpt lat="35.4337112" lon="139.1637351"><ele>925.2066666666666</ele><time>2024-01-14T02:56:39Z</time></trkpt><trkpt lat="35.4335282" lon="139.1637147"><ele>926.57</ele><time>2024-01-14T02:56:53Z</time></trkpt><trkpt lat="35.4333479" lon="139.1637452"><ele>928.8466666666667</ele><time>2024-01-14T02:57:08Z</time></trkpt><trkpt lat="35.4331818" lon="139.1638463"><ele>932.8633333333333</ele><time>2024-01-14T02:57:23Z</time></trkpt><trkpt lat="35.4330266" lon="139.1639689"><ele>936.7033333333334</ele><time>2024-01-14T02:57:37Z</time></trkpt><trkpt lat="35.4328329" lon="139.1640101"><ele>939.7633333333333</ele><time>2024-01-14T02:58:00Z</time></trkpt><trkpt lat="35.4326414" lon="139.1639898"><ele>940.9866666666667</ele><time>2024-01-14T02:58:10Z</time></trkpt><trkpt lat="35.4324656" lon="139.1639373"><ele>940.4533333333334</ele><time>2024-01-14T02:58:22Z</time></trkpt><trkpt lat="35.4323054" lon="139.1637991"><ele>939.5366666666667</ele><time>2024-01-14T02:58:33Z</time></trkpt><trkpt lat="35.4321282" lon="139.1637174"><ele>937.2166666666667</ele><time>2024-01-14T02:58:46Z</time></trkpt><trkpt lat="35.4319439" lon="139.1637426"><ele>935.3666666666667</ele><time>2024-01-14T02:58:59Z</time></trkpt><trkpt lat="35.4317465" lon="139.1637525"><ele>933.36</ele><time>2024-01-14T02:59:10Z</time></trkpt><trkpt lat="35.431558" lon="139.1637481"><ele>932.4633333333333</ele><time>2024-01-14T02:59:22Z</time></trkpt><trkpt lat="35.431361" lon="139.1637124"><ele>932.1199999999999</ele><time>2024-01-14T02:59:35Z</time></trkpt><trkpt lat="35.4311875" lon="139.1637735"><ele>931.7666666666668</ele><time>2024-01-14T02:59:51Z</time></trkpt><trkpt lat="35.4310173" lon="139.1638684"><ele>931.2366666666667</ele><time>2024-01-14T03:00:03Z</time></trkpt><trkpt lat="35.4308357" lon="139.1639389"><ele>929.86</ele><time>2024-01-14T03:00:15Z</time></trkpt><trkpt lat="35.4306606" lon="139.1640361"><ele>927.6366666666667</ele><time>2024-01-14T03:00:28Z</time></trkpt><trkpt lat="35.4305197" lon="139.1641749"><ele>925.1666666666666</ele><time>2024-01-14T03:00:42Z</time></trkpt><trkpt lat="35.4303598" lon="139.1643259"><ele>922.9266666666666</ele><time>2024-01-14T03:00:52Z</time></trkpt><trkpt lat="35.4302625" lon="139.164516"><ele>920.5866666666666</ele><time>2024-01-14T03:01:05Z</time></trkpt><trkpt lat="35.430073" lon="139.164497"><ele>918.66</ele><time>2024-01-14T03:01:15Z</time></trkpt><trkpt lat="35.4298818" lon="139.1645212"><ele>915.98</ele><time>2024-01-14T03:01:32Z</time></trkpt><trkpt lat="35.4297242" lon="139.1646513"><ele>914.3266666666667</ele><time>2024-01-14T03:01:44Z</time></trkpt><trkpt lat="35.4295577" lon="139.1647401"><ele>912.7166666666667</ele><time>2024-01-14T03:02:01Z</time></trkpt><trkpt lat="35.4293866" lon="139.1648331"><ele>911.7733333333332</ele><time>2024-01-14T03:02:12Z</time></trkpt><trkpt lat="35.4292557" lon="139.1650043"><ele>909.7666666666665</ele><time>2024-01-14T03:02:23Z</time></trkpt><trkpt lat="35.429087" lon="139.1650955"><ele>906.8833333333332</ele><time>2024-01-14T03:02:37Z</time></trkpt><trkpt lat="35.4289032" lon="139.1651681"><ele>904.1566666666668</ele><time>2024-01-14T03:02:49Z</time></trkpt><trkpt lat="35.4287327" lon="139.1652492"><ele>902.2666666666668</ele><time>2024-01-14T03:03:04Z</time></trkpt><trkpt lat="35.4286264" lon="139.1654292"><ele>900.2066666666666</ele><time>2024-01-14T03:03:16Z</time></trkpt><trkpt lat="35.4285635" lon="139.1656362"><ele>896.8666666666668</ele><time>2024-01-14T03:03:27Z</time></trkpt><trkpt lat="35.4284908" lon="139.1658457"><ele>892.2966666666667</ele><time>2024-01-14T03:03:41Z</time></trkpt><trkpt lat="35.4283258" lon="139.1659432"><ele>887.5799999999999</ele><time>2024-01-14T03:04:18Z</time></trkpt><trkpt lat="35.4282301" lon="139.1661348"><ele>882.37</ele><time>2024-01-14T03:04:36Z</time></trkpt><trkpt lat="35.428112" lon="139.1663082"><ele>875.4666666666667</ele><time>2024-01-14T03:04:52Z</time></trkpt><trkpt lat="35.4279881" lon="139.1664697"><ele>867.8266666666667</ele><time>2024-01-14T03:05:12Z</time></trkpt><trkpt lat="35.4278785" lon="139.1666478"><ele>859.15</ele><time>2024-01-14T03:05:40Z</time></trkpt><trkpt lat="35.427701" lon="139.1667052"><ele>851.34</ele><time>2024-01-14T03:06:01Z</time></trkpt><trkpt lat="35.4275342" lon="139.1666181"><ele>845.1466666666669</ele><time>2024-01-14T03:06:22Z</time></trkpt><trkpt lat="35.4273546" lon="139.1666794"><ele>838.6100000000001</ele><time>2024-01-14T03:06:37Z</time></trkpt><trkpt lat="35.4271725" lon="139.166666"><ele>833.1866666666666</ele><time>2024-01-14T03:06:53Z</time></trkpt><trkpt lat="35.4269894" lon="139.1666211"><ele>827.5766666666667</ele><time>2024-01-14T03:07:07Z</time></trkpt><trkpt lat="35.4268646" lon="139.1667896"><ele>822.34</ele><time>2024-01-14T03:07:18Z</time></trkpt><trkpt lat="35.4267034" lon="139.1666636"><ele>817.4333333333334</ele><time>2024-01-14T03:07:36Z</time></trkpt><trkpt lat="35.4265238" lon="139.1667227"><ele>810.9200000000001</ele><time>2024-01-14T03:07:52Z</time></trkpt><trkpt lat="35.4263369" lon="139.1667431"><ele>806.82</ele><time>2024-01-14T03:08:04Z</time></trkpt><trkpt lat="35.4261558" lon="139.1667607"><ele>803.0766666666667</ele><time>2024-01-14T03:08:18Z</time></trkpt><trkpt lat="35.425997" lon="139.1666489"><ele>799.5833333333334</ele><time>2024-01-14T03:08:31Z</time></trkpt><trkpt lat="35.4258133" lon="139.1666199"><ele>798.11</ele><time>2024-01-14T03:08:46Z</time></trkpt><trkpt lat="35.4256419" lon="139.1665314"><ele>797.32</ele><time>2024-01-14T03:09:00Z</time></trkpt><trkpt lat="35.4254363" lon="139.1664579"><ele>799.19</ele><time>2024-01-14T03:09:13Z</time></trkpt><trkpt lat="35.4252555" lon="139.1664366"><ele>798.7400000000001</ele><time>2024-01-14T03:09:28Z</time></trkpt><trkpt lat="35.4251006" lon="139.1663154"><ele>797.7633333333333</ele><time>2024-01-14T03:09:44Z</time></trkpt><trkpt lat="35.4249268" lon="139.1662353"><ele>794.8666666666667</ele><time>2024-01-14T03:09:59Z</time></trkpt><trkpt lat="35.4247813" lon="139.1660906"><ele>792.1366666666667</ele><time>2024-01-14T03:10:10Z</time></trkpt><trkpt lat="35.4246212" lon="139.1659814"><ele>789.1899999999999</ele><time>2024-01-14T03:10:21Z</time></trkpt><trkpt lat="35.4244374" lon="139.1659136"><ele>787.0300000000001</ele><time>2024-01-14T03:10:35Z</time></trkpt><trkpt lat="35.4242645" lon="139.1658113"><ele>785.18</ele><time>2024-01-14T03:10:48Z</time></trkpt><trkpt lat="35.424115" lon="139.1656787"><ele>783.1500000000001</ele><time>2024-01-14T03:11:00Z</time></trkpt><trkpt lat="35.4240037" lon="139.1654465"><ele>778.7733333333334</ele><time>2024-01-14T03:11:10Z</time></trkpt><trkpt lat="35.4238221" lon="139.1654158"><ele>775.5</ele><time>2024-01-14T03:11:27Z</time></trkpt><trkpt lat="35.4237254" lon="139.165224"><ele>771.1866666666666</ele><time>2024-01-14T03:11:42Z</time></trkpt><trkpt lat="35.4235858" lon="139.1650731"><ele>767.09</ele><time>2024-01-14T03:11:55Z</time></trkpt><trkpt lat="35.4234107" lon="139.1651366"><ele>763.9166666666666</ele><time>2024-01-14T03:12:11Z</time></trkpt><trkpt lat="35.4232251" lon="139.1651427"><ele>762.2800000000001</ele><time>2024-01-14T03:12:23Z</time></trkpt><trkpt lat="35.4230749" lon="139.165014"><ele>761.1566666666668</ele><time>2024-01-14T03:12:37Z</time></trkpt><trkpt lat="35.4230045" lon="139.1648012"><ele>756.9699999999999</ele><time>2024-01-14T03:12:59Z</time></trkpt><trkpt lat="35.4229304" lon="139.1645952"><ele>751.1500000000001</ele><time>2024-01-14T03:13:13Z</time></trkpt><trkpt lat="35.422833" lon="139.1643988"><ele>744.8733333333333</ele><time>2024-01-14T03:13:31Z</time></trkpt><trkpt lat="35.4226914" lon="139.1642616"><ele>738.6866666666666</ele><time>2024-01-14T03:14:11Z</time></trkpt><trkpt lat="35.4225616" lon="139.1640885"><ele>733.2466666666666</ele><time>2024-01-14T03:14:23Z</time></trkpt><trkpt lat="35.4224573" lon="139.1639085"><ele>728.4633333333335</ele><time>2024-01-14T03:14:50Z</time></trkpt><trkpt lat="35.4224" lon="139.1636972"><ele>723.6466666666666</ele><time>2024-01-14T03:15:10Z</time></trkpt><trkpt lat="35.4222612" lon="139.163553"><ele>718.7266666666668</ele><time>2024-01-14T03:15:22Z</time></trkpt><trkpt lat="35.4220588" lon="139.1634798"><ele>713.7700000000001</ele><time>2024-01-14T03:15:44Z</time></trkpt><trkpt lat="35.4219435" lon="139.1632861"><ele>708.8966666666666</ele><time>2024-01-14T03:16:00Z</time></trkpt><trkpt lat="35.4217849" lon="139.1631498"><ele>703.3033333333333</ele><time>2024-01-14T03:16:18Z</time></trkpt><trkpt lat="35.4216127" lon="139.1630397"><ele>698.1233333333333</ele><time>2024-01-14T03:16:29Z</time></trkpt><trkpt lat="35.4214717" lon="139.1628878"><ele>693.0766666666667</ele><time>2024-01-14T03:16:50Z</time></trkpt><trkpt lat="35.4213464" lon="139.1627252"><ele>688.0300000000001</ele><time>2024-01-14T03:17:01Z</time></trkpt><trkpt lat="35.4212125" lon="139.1625707"><ele>682.48</ele><time>2024-01-14T03:17:12Z</time></trkpt><trkpt lat="35.4210374" lon="139.1624988"><ele>676.9533333333334</ele><time>2024-01-14T03:17:36Z</time></trkpt><trkpt lat="35.4209317" lon="139.1623167"><ele>670.9533333333334</ele><time>2024-01-14T03:18:06Z</time></trkpt><trkpt lat="35.4207462" lon="139.1623297"><ele>665.0433333333334</ele><time>2024-01-14T03:18:17Z</time></trkpt><trkpt lat="35.4205802" lon="139.162234"><ele>655.5766666666667</ele><time>2024-01-14T03:18:31Z</time></trkpt><trkpt lat="35.420399" lon="139.1622629"><ele>645.8566666666666</ele><time>2024-01-14T03:18:53Z</time></trkpt><trkpt lat="35.4202366" lon="139.1621553"><ele>634.0466666666666</ele><time>2024-01-14T03:19:21Z</time></trkpt><trkpt lat="35.4200879" lon="139.1620158"><ele>623.5633333333334</ele><time>2024-01-14T03:19:35Z</time></trkpt><trkpt lat="35.4199095" lon="139.1620519"><ele>617.0066666666668</ele><time>2024-01-14T03:20:01Z</time></trkpt><trkpt lat="35.4197254" lon="139.1619946"><ele>613.49</ele><time>2024-01-14T03:20:39Z</time></trkpt><trkpt lat="35.4195429" lon="139.1619637"><ele>611.6166666666667</ele><time>2024-01-14T03:20:51Z</time></trkpt><trkpt lat="35.4193604" lon="139.1619795"><ele>607.4533333333334</ele><time>2024-01-14T03:21:03Z</time></trkpt><trkpt lat="35.4191844" lon="139.1620279"><ele>604.39</ele><time>2024-01-14T03:21:19Z</time></trkpt><trkpt lat="35.4190026" lon="139.16209"><ele>602.9566666666667</ele><time>2024-01-14T03:21:35Z</time></trkpt><trkpt lat="35.4188343" lon="139.1622087"><ele>601.4433333333333</ele><time>2024-01-14T03:21:47Z</time></trkpt><trkpt lat="35.4186489" lon="139.1621916"><ele>599.6666666666666</ele><time>2024-01-14T03:21:57Z</time></trkpt><trkpt lat="35.4184743" lon="139.162048"><ele>599.7466666666667</ele><time>2024-01-14T03:22:06Z</time></trkpt><trkpt lat="35.4183132" lon="139.1621567"><ele>600.6433333333333</ele><time>2024-01-14T03:23:24Z</time></trkpt><trkpt lat="35.4181737" lon="139.1620104"><ele>601.8933333333333</ele><time>2024-01-14T03:23:33Z</time></trkpt><trkpt lat="35.4179882" lon="139.1619518"><ele>601.57</ele><time>2024-01-14T03:23:45Z</time></trkpt><trkpt lat="35.4178172" lon="139.1618633"><ele>601.6899999999999</ele><time>2024-01-14T03:23:57Z</time></trkpt><trkpt lat="35.4176362" lon="139.1618483"><ele>601.75</ele><time>2024-01-14T03:24:13Z</time></trkpt><trkpt lat="35.4174526" lon="139.1618746"><ele>602.0233333333334</ele><time>2024-01-14T03:24:27Z</time></trkpt><trkpt lat="35.4172714" lon="139.1618388"><ele>603.6033333333334</ele><time>2024-01-14T03:24:40Z</time></trkpt><trkpt lat="35.4170723" lon="139.1618123"><ele>606.3666666666667</ele><time>2024-01-14T03:24:53Z</time></trkpt><trkpt lat="35.416891" lon="139.1617907"><ele>608.8733333333333</ele><time>2024-01-14T03:25:06Z</time></trkpt><trkpt lat="35.4167073" lon="139.1617215"><ele>609.48</ele><time>2024-01-14T03:25:18Z</time></trkpt><trkpt lat="35.4165329" lon="139.1616541"><ele>607.49</ele><time>2024-01-14T03:25:59Z</time></trkpt><trkpt lat="35.4163837" lon="139.161784"><ele>604.4866666666667</ele><time>2024-01-14T03:26:43Z</time></trkpt><trkpt lat="35.4163192" lon="139.1615747"><ele>602.5533333333333</ele><time>2024-01-14T03:27:05Z</time></trkpt><trkpt lat="35.4161604" lon="139.1614555"><ele>601.41</ele><time>2024-01-14T03:29:01Z</time></trkpt><trkpt lat="35.4160532" lon="139.1612568"><ele>600.5066666666667</ele><time>2024-01-14T03:29:14Z</time></trkpt><trkpt lat="35.4159126" lon="139.1611145"><ele>597.9666666666667</ele><time>2024-01-14T03:29:27Z</time></trkpt><trkpt lat="35.4157366" lon="139.1610549"><ele>594.9033333333333</ele><time>2024-01-14T03:29:42Z</time></trkpt><trkpt lat="35.4155636" lon="139.1609621"><ele>591.1433333333333</ele><time>2024-01-14T03:29:53Z</time></trkpt><trkpt lat="35.4154065" lon="139.1608465"><ele>588.2733333333333</ele><time>2024-01-14T03:30:07Z</time></trkpt><trkpt lat="35.4152278" lon="139.1608965"><ele>585.6166666666667</ele><time>2024-01-14T03:30:27Z</time></trkpt><trkpt lat="35.4150313" lon="139.1608636"><ele>583.3833333333333</ele><time>2024-01-14T03:30:43Z</time></trkpt><trkpt lat="35.4149469" lon="139.1606659"><ele>581.62</ele><time>2024-01-14T03:30:46Z</time></trkpt><trkpt lat="35.414769" lon="139.1605938"><ele>578.9733333333334</ele><time>2024-01-14T03:31:00Z</time></trkpt><trkpt lat="35.414686" lon="139.1603962"><ele>576.7600000000001</ele><time>2024-01-14T03:31:11Z</time></trkpt><trkpt lat="35.4146306" lon="139.1601847"><ele>572.1033333333334</ele><time>2024-01-14T03:31:30Z</time></trkpt><trkpt lat="35.4147445" lon="139.1600111"><ele>567.1633333333333</ele><time>2024-01-14T03:31:39Z</time></trkpt><trkpt lat="35.414529" lon="139.1599688"><ele>561.72</ele><time>2024-01-14T03:32:07Z</time></trkpt><trkpt lat="35.4143775" lon="139.1600911"><ele>558.66</ele><time>2024-01-14T03:32:13Z</time></trkpt><trkpt lat="35.4142001" lon="139.1601363"><ele>556.7633333333334</ele><time>2024-01-14T03:32:27Z</time></trkpt><trkpt lat="35.4140164" lon="139.1601542"><ele>553.7533333333334</ele><time>2024-01-14T03:32:42Z</time></trkpt><trkpt lat="35.4138321" lon="139.1601815"><ele>548.8866666666667</ele><time>2024-01-14T03:33:01Z</time></trkpt><trkpt lat="35.4136861" lon="139.1603209"><ele>543.1033333333334</ele><time>2024-01-14T03:33:16Z</time></trkpt><trkpt lat="35.4137764" lon="139.1605263"><ele>539.9066666666666</ele><time>2024-01-14T03:33:30Z</time></trkpt><trkpt lat="35.4138854" lon="139.1607035"><ele>537.7266666666667</ele><time>2024-01-14T03:33:38Z</time></trkpt><trkpt lat="35.4140021" lon="139.160877"><ele>536.36</ele><time>2024-01-14T03:33:54Z</time></trkpt><trkpt lat="35.414016" lon="139.1611029"><ele>531.65</ele><time>2024-01-14T03:34:03Z</time></trkpt><trkpt lat="35.4140615" lon="139.1613256"><ele>527.62</ele><time>2024-01-14T03:34:16Z</time></trkpt><trkpt lat="35.4141125" lon="139.1615375"><ele>522.7133333333334</ele><time>2024-01-14T03:34:31Z</time></trkpt><trkpt lat="35.4142247" lon="139.1617276"><ele>519.1066666666667</ele><time>2024-01-14T03:34:50Z</time></trkpt><trkpt lat="35.4144058" lon="139.1617436"><ele>515.0999999999999</ele><time>2024-01-14T03:35:02Z</time></trkpt><trkpt lat="35.4145636" lon="139.1618582"><ele>510.75333333333333</ele><time>2024-01-14T03:35:17Z</time></trkpt><trkpt lat="35.4146851" lon="139.1620332"><ele>506.72333333333336</ele><time>2024-01-14T03:35:33Z</time></trkpt><trkpt lat="35.4147534" lon="139.1622392"><ele>501.57</ele><time>2024-01-14T03:35:52Z</time></trkpt><trkpt lat="35.4148971" lon="139.1623852"><ele>499.1366666666667</ele><time>2024-01-14T03:36:04Z</time></trkpt><trkpt lat="35.4146912" lon="139.1624143"><ele>495.35999999999996</ele><time>2024-01-14T03:37:01Z</time></trkpt><trkpt lat="35.4145336" lon="139.1622932"><ele>491.99666666666667</ele><time>2024-01-14T03:37:17Z</time></trkpt><trkpt lat="35.4143482" lon="139.1622833"><ele>485.87999999999994</ele><time>2024-01-14T03:37:36Z</time></trkpt><trkpt lat="35.4141654" lon="139.1623084"><ele>481.58666666666676</ele><time>2024-01-14T03:37:47Z</time></trkpt><trkpt lat="35.4139858" lon="139.1623308"><ele>478.15333333333336</ele><time>2024-01-14T03:37:57Z</time></trkpt><trkpt lat="35.4138085" lon="139.1624072"><ele>475.80333333333334</ele><time>2024-01-14T03:38:11Z</time></trkpt><trkpt lat="35.4136395" lon="139.1625018"><ele>473.0433333333333</ele><time>2024-01-14T03:38:25Z</time></trkpt><trkpt lat="35.4134645" lon="139.1624055"><ele>468.3</ele><time>2024-01-14T03:38:37Z</time></trkpt><trkpt lat="35.4133824" lon="139.1621716"><ele>464.03666666666663</ele><time>2024-01-14T03:38:52Z</time></trkpt><trkpt lat="35.4132681" lon="139.1619966"><ele>460.6366666666666</ele><time>2024-01-14T03:39:10Z</time></trkpt><trkpt lat="35.4133466" lon="139.1617928"><ele>462.96000000000004</ele><time>2024-01-14T03:39:19Z</time></trkpt><trkpt lat="35.4132014" lon="139.1616553"><ele>466.6266666666667</ele><time>2024-01-14T03:39:30Z</time></trkpt><trkpt lat="35.4129931" lon="139.1615808"><ele>469.7133333333333</ele><time>2024-01-14T03:39:41Z</time></trkpt><trkpt lat="35.4128253" lon="139.161671"><ele>466.05</ele><time>2024-01-14T03:39:54Z</time></trkpt><trkpt lat="35.4126669" lon="139.1617866"><ele>459.1933333333333</ele><time>2024-01-14T03:40:03Z</time></trkpt><trkpt lat="35.4125184" lon="139.161918"><ele>452.2266666666667</ele><time>2024-01-14T03:40:15Z</time></trkpt><trkpt lat="35.4123624" lon="139.1620616"><ele>446.50666666666666</ele><time>2024-01-14T03:40:27Z</time></trkpt><trkpt lat="35.4121884" lon="139.1621623"><ele>443.44000000000005</ele><time>2024-01-14T03:40:43Z</time></trkpt><trkpt lat="35.412016" lon="139.1620967"><ele>442.2</ele><time>2024-01-14T03:40:58Z</time></trkpt><trkpt lat="35.4119023" lon="139.1619169"><ele>444.24666666666667</ele><time>2024-01-14T03:41:11Z</time></trkpt><trkpt lat="35.4117707" lon="139.1617642"><ele>445.24666666666667</ele><time>2024-01-14T03:41:25Z</time></trkpt><trkpt lat="35.4115784" lon="139.1617778"><ele>443.71333333333337</ele><time>2024-01-14T03:41:41Z</time></trkpt><trkpt lat="35.4114404" lon="139.1619225"><ele>439.12000000000006</ele><time>2024-01-14T03:41:56Z</time></trkpt><trkpt lat="35.4113377" lon="139.1621038"><ele>431.74666666666667</ele><time>2024-01-14T03:42:12Z</time></trkpt><trkpt lat="35.4112179" lon="139.1622696"><ele>425.51666666666665</ele><time>2024-01-14T03:42:27Z</time></trkpt><trkpt lat="35.4110566" lon="139.1623763"><ele>418.8066666666667</ele><time>2024-01-14T03:42:39Z</time></trkpt><trkpt lat="35.4109473" lon="139.1625557"><ele>413.7133333333333</ele><time>2024-01-14T03:42:53Z</time></trkpt><trkpt lat="35.410814" lon="139.162706"><ele>407.55333333333334</ele><time>2024-01-14T03:43:11Z</time></trkpt><trkpt lat="35.4106431" lon="139.1627761"><ele>403.77</ele><time>2024-01-14T03:44:03Z</time></trkpt><trkpt lat="35.4104924" lon="139.1629145"><ele>400.2666666666667</ele><time>2024-01-14T03:44:19Z</time></trkpt><trkpt lat="35.4104074" lon="139.163111"><ele>397.0733333333333</ele><time>2024-01-14T03:44:33Z</time></trkpt><trkpt lat="35.4103086" lon="139.163301"><ele>393.16</ele><time>2024-01-14T03:44:44Z</time></trkpt><trkpt lat="35.4101755" lon="139.1634664"><ele>390.1366666666667</ele><time>2024-01-14T03:45:07Z</time></trkpt><trkpt lat="35.41003" lon="139.1636055"><ele>386.85999999999996</ele><time>2024-01-14T03:45:20Z</time></trkpt><trkpt lat="35.4098515" lon="139.1636392"><ele>383.95666666666665</ele><time>2024-01-14T03:45:35Z</time></trkpt><trkpt lat="35.4096672" lon="139.1636694"><ele>380.7233333333333</ele><time>2024-01-14T03:45:50Z</time></trkpt><trkpt lat="35.4094929" lon="139.1636053"><ele>379.8766666666666</ele><time>2024-01-14T03:46:01Z</time></trkpt><trkpt lat="35.409309" lon="139.1635658"><ele>377.8633333333334</ele><time>2024-01-14T03:46:14Z</time></trkpt><trkpt lat="35.4091309" lon="139.1635074"><ele>375.7733333333333</ele><time>2024-01-14T03:46:30Z</time></trkpt><trkpt lat="35.4089685" lon="139.1636073"><ele>370.94666666666666</ele><time>2024-01-14T03:46:42Z</time></trkpt><trkpt lat="35.4088383" lon="139.1637644"><ele>366.40000000000003</ele><time>2024-01-14T03:46:52Z</time></trkpt><trkpt lat="35.4086996" lon="139.1639211"><ele>362.36000000000007</ele><time>2024-01-14T03:47:07Z</time></trkpt><trkpt lat="35.4086096" lon="139.1641238"><ele>359.5133333333333</ele><time>2024-01-14T03:47:18Z</time></trkpt><trkpt lat="35.4085779" lon="139.1643494"><ele>356.5833333333333</ele><time>2024-01-14T03:47:28Z</time></trkpt><trkpt lat="35.4085058" lon="139.1645562"><ele>353.23</ele><time>2024-01-14T03:47:40Z</time></trkpt><trkpt lat="35.4084014" lon="139.1647417"><ele>349.7666666666667</ele><time>2024-01-14T03:47:55Z</time></trkpt><trkpt lat="35.4082633" lon="139.1648849"><ele>346.57</ele><time>2024-01-14T03:48:09Z</time></trkpt><trkpt lat="35.4080694" lon="139.1649139"><ele>344.58</ele><time>2024-01-14T03:48:23Z</time></trkpt><trkpt lat="35.4078841" lon="139.1649496"><ele>342.95666666666665</ele><time>2024-01-14T03:48:38Z</time></trkpt><trkpt lat="35.4077155" lon="139.1650288"><ele>340.9766666666667</ele><time>2024-01-14T03:48:47Z</time></trkpt><trkpt lat="35.407548" lon="139.1651647"><ele>337.57666666666665</ele><time>2024-01-14T03:49:02Z</time></trkpt><trkpt lat="35.4073313" lon="139.1652173"><ele>333.83666666666664</ele><time>2024-01-14T03:49:13Z</time></trkpt><trkpt lat="35.407164" lon="139.165303"><ele>330.37666666666667</ele><time>2024-01-14T03:49:28Z</time></trkpt><trkpt lat="35.4070361" lon="139.1654595"><ele>326.93</ele><time>2024-01-14T03:49:37Z</time></trkpt><trkpt lat="35.4068429" lon="139.165461"><ele>324.3333333333333</ele><time>2024-01-14T03:49:50Z</time></trkpt><trkpt lat="35.4066914" lon="139.1656167"><ele>322.62</ele><time>2024-01-14T03:50:02Z</time></trkpt><trkpt lat="35.4065334" lon="139.1657617"><ele>321.9533333333333</ele><time>2024-01-14T03:50:36Z</time></trkpt><trkpt lat="35.4063514" lon="139.1657156"><ele>321.6333333333334</ele><time>2024-01-14T03:50:55Z</time></trkpt><trkpt lat="35.4061669" lon="139.1657569"><ele>320.91</ele><time>2024-01-14T03:51:03Z</time></trkpt><trkpt lat="35.4060283" lon="139.1659072"><ele>318.56</ele><time>2024-01-14T03:51:10Z</time></trkpt><trkpt lat="35.4058937" lon="139.1660762"><ele>314.52666666666664</ele><time>2024-01-14T03:51:20Z</time></trkpt><trkpt lat="35.4057704" lon="139.1662382"><ele>310.4633333333333</ele><time>2024-01-14T03:51:28Z</time></trkpt><trkpt lat="35.4058297" lon="139.1664581"><ele>307.6766666666667</ele><time>2024-01-14T03:51:38Z</time></trkpt><trkpt lat="35.4058547" lon="139.1666818"><ele>305.5566666666666</ele><time>2024-01-14T03:51:49Z</time></trkpt><trkpt lat="35.4058555" lon="139.1669428"><ele>303.26</ele><time>2024-01-14T03:51:59Z</time></trkpt><trkpt lat="35.4060131" lon="139.1670822"><ele>301.0466666666666</ele><time>2024-01-14T03:52:11Z</time></trkpt><trkpt lat="35.4060897" lon="139.1672906"><ele>298.3333333333333</ele><time>2024-01-14T03:52:22Z</time></trkpt><trkpt lat="35.4061266" lon="139.1675092"><ele>294.68666666666667</ele><time>2024-01-14T03:52:34Z</time></trkpt><trkpt lat="35.4059826" lon="139.1676612"><ele>292.33666666666664</ele><time>2024-01-14T03:52:45Z</time></trkpt><trkpt lat="35.4059128" lon="139.1678666"><ele>291.1533333333333</ele><time>2024-01-14T03:52:56Z</time></trkpt><trkpt lat="35.4057448" lon="139.1679481"><ele>292.38</ele><time>2024-01-14T03:53:07Z</time></trkpt><trkpt lat="35.4055505" lon="139.1679507"><ele>293.2366666666667</ele><time>2024-01-14T03:53:16Z</time></trkpt><trkpt lat="35.4054194" lon="139.1681085"><ele>293.7966666666666</ele><time>2024-01-14T03:53:30Z</time></trkpt><trkpt lat="35.4052558" lon="139.168202"><ele>293.15000000000003</ele><time>2024-01-14T03:53:40Z</time></trkpt><trkpt lat="35.4051246" lon="139.1683664"><ele>291.67</ele><time>2024-01-14T03:53:54Z</time></trkpt><trkpt lat="35.4049255" lon="139.1684229"><ele>290.23333333333335</ele><time>2024-01-14T03:54:05Z</time></trkpt><trkpt lat="35.4047513" lon="139.1684882"><ele>289.38</ele><time>2024-01-14T03:54:14Z</time></trkpt><trkpt lat="35.4049105" lon="139.1686401"><ele>288.56</ele><time>2024-01-14T03:54:15Z</time></trkpt><trkpt lat="35.4048851" lon="139.1688606"><ele>287.88000000000005</ele><time>2024-01-14T03:54:26Z</time></trkpt></trkseg></trk></gpx>