<?xml version='1.0' encoding='UTF-8'?><gpx creator="YAMAP - https://yamap.com" xsi:schemaLocation="http://www.topografix.com/GPX/1/1 http://www.topografix.com/GPX/1/1/gpx.xsd" version="1.1" xmlns="http://www.topografix.com/GPX/1/1" xmlns:xsi="http://www.w3.org/2001/XMLSchema-instance"><metadata><bounds maxlat="35.7463249" maxlon="138.8576412" minlat="35.7283188" minlon="138.8019815"/></metadata><trk><name>大菩薩から石丸峠経由、裂石</name><number>1</number><trkseg><trkpt lat="35.7317739" lon="138.8324466"><ele>1588.8400000000001</ele><time>2023-11-03T01:40:24Z</time></trkpt><trkpt lat="35.7316" lon="138.8323167"><ele>1587.545</ele><time>2023-11-03T01:40:38Z</time></trkpt><trkpt lat="35.7315791" lon="138.832562"><ele>1587.39</ele><time>2023-11-03T01:40:50Z</time></trkpt><trkpt lat="35.7315935" lon="138.8328111"><ele>1589.5733333333335</ele><time>2023-11-03T01:41:13Z</time></trkpt><trkpt lat="35.7317433" lon="138.8329951"><ele>1596.9233333333334</ele><time>2023-11-03T01:41:28Z</time></trkpt><trkpt lat="35.731881" lon="138.8331417"><ele>1605.0133333333333</ele><time>2023-11-03T01:41:52Z</time></trkpt><trkpt lat="35.7320601" lon="138.8331703"><ele>1610.3866666666665</ele><time>2023-11-03T01:42:13Z</time></trkpt><trkpt lat="35.7322383" lon="138.8332247"><ele>1612.3400000000001</ele><time>2023-11-03T01:42:27Z</time></trkpt><trkpt lat="35.7323894" lon="138.8333576"><ele>1613.3733333333332</ele><time>2023-11-03T01:42:44Z</time></trkpt><trkpt lat="35.7325432" lon="138.833481"><ele>1614.2766666666666</ele><time>2023-11-03T01:43:01Z</time></trkpt><trkpt lat="35.7327192" lon="138.8335305"><ele>1612.2600000000002</ele><time>2023-11-03T01:43:21Z</time></trkpt><trkpt lat="35.7329154" lon="138.8336053"><ele>1612.1466666666668</ele><time>2023-11-03T01:43:41Z</time></trkpt><trkpt lat="35.7330949" lon="138.8335644"><ele>1615.24</ele><time>2023-11-03T01:44:16Z</time></trkpt><trkpt lat="35.733239" lon="138.8337018"><ele>1621.55</ele><time>2023-11-03T01:44:33Z</time></trkpt><trkpt lat="35.7333809" lon="138.8338626"><ele>1626.7133333333334</ele><time>2023-11-03T01:44:50Z</time></trkpt><trkpt lat="35.7333764" lon="138.8340858"><ele>1627.5633333333335</ele><time>2023-11-03T01:45:02Z</time></trkpt><trkpt lat="35.7335353" lon="138.8341956"><ele>1627.43</ele><time>2023-11-03T01:45:20Z</time></trkpt><trkpt lat="35.7335673" lon="138.8344191"><ele>1628.4366666666667</ele><time>2023-11-03T01:45:36Z</time></trkpt><trkpt lat="35.7336354" lon="138.8346367"><ele>1633.2600000000002</ele><time>2023-11-03T01:45:57Z</time></trkpt><trkpt lat="35.7338039" lon="138.8347453"><ele>1637.38</ele><time>2023-11-03T01:46:21Z</time></trkpt><trkpt lat="35.7339936" lon="138.8347699"><ele>1640.1333333333332</ele><time>2023-11-03T01:46:47Z</time></trkpt><trkpt lat="35.7341812" lon="138.8347497"><ele>1641.17</ele><time>2023-11-03T01:47:04Z</time></trkpt><trkpt lat="35.7343671" lon="138.834751"><ele>1644.2766666666666</ele><time>2023-11-03T01:47:17Z</time></trkpt><trkpt lat="35.7345247" lon="138.8346404"><ele>1648.4399999999998</ele><time>2023-11-03T01:47:38Z</time></trkpt><trkpt lat="35.7346622" lon="138.8344855"><ele>1652.9666666666665</ele><time>2023-11-03T01:48:13Z</time></trkpt><trkpt lat="35.7348475" lon="138.8344881"><ele>1657.8400000000001</ele><time>2023-11-03T01:48:33Z</time></trkpt><trkpt lat="35.7350047" lon="138.8345973"><ele>1662.3700000000001</ele><time>2023-11-03T01:48:53Z</time></trkpt><trkpt lat="35.7350665" lon="138.8348105"><ele>1666.46</ele><time>2023-11-03T01:49:23Z</time></trkpt><trkpt lat="35.7351138" lon="138.8350301"><ele>1668.5566666666666</ele><time>2023-11-03T01:49:42Z</time></trkpt><trkpt lat="35.7352509" lon="138.8351948"><ele>1668.0733333333335</ele><time>2023-11-03T01:50:00Z</time></trkpt><trkpt lat="35.7354239" lon="138.8352661"><ele>1665.82</ele><time>2023-11-03T01:50:24Z</time></trkpt><trkpt lat="35.7355019" lon="138.8354718"><ele>1663.6266666666668</ele><time>2023-11-03T01:51:11Z</time></trkpt><trkpt lat="35.7355105" lon="138.8356945"><ele>1665.0166666666667</ele><time>2023-11-03T01:51:35Z</time></trkpt><trkpt lat="35.7355099" lon="138.8359198"><ele>1666.4966666666667</ele><time>2023-11-03T01:51:53Z</time></trkpt><trkpt lat="35.7356535" lon="138.8360668"><ele>1668.2766666666666</ele><time>2023-11-03T01:52:14Z</time></trkpt><trkpt lat="35.7358256" lon="138.8361686"><ele>1668.6633333333332</ele><time>2023-11-03T01:52:28Z</time></trkpt><trkpt lat="35.7359278" lon="138.8363524"><ele>1671.2233333333334</ele><time>2023-11-03T01:52:51Z</time></trkpt><trkpt lat="35.7359883" lon="138.836563"><ele>1673.7933333333333</ele><time>2023-11-03T01:53:20Z</time></trkpt><trkpt lat="35.7360992" lon="138.8367464"><ele>1675.9733333333334</ele><time>2023-11-03T01:53:36Z</time></trkpt><trkpt lat="35.7361967" lon="138.8369384"><ele>1676.93</ele><time>2023-11-03T01:53:53Z</time></trkpt><trkpt lat="35.7361643" lon="138.8371635"><ele>1677.506666666667</ele><time>2023-11-03T01:54:17Z</time></trkpt><trkpt lat="35.7361906" lon="138.8373847"><ele>1677.7600000000002</ele><time>2023-11-03T01:54:33Z</time></trkpt><trkpt lat="35.7360623" lon="138.8375475"><ele>1678.0833333333333</ele><time>2023-11-03T01:55:11Z</time></trkpt><trkpt lat="35.7360784" lon="138.8377783"><ele>1681.7966666666669</ele><time>2023-11-03T01:55:39Z</time></trkpt><trkpt lat="35.7360524" lon="138.8380044"><ele>1685.6266666666668</ele><time>2023-11-03T01:55:57Z</time></trkpt><trkpt lat="35.7360683" lon="138.8382351"><ele>1690.29</ele><time>2023-11-03T01:56:15Z</time></trkpt><trkpt lat="35.7360608" lon="138.8384608"><ele>1691.4366666666667</ele><time>2023-11-03T01:56:42Z</time></trkpt><trkpt lat="35.7361279" lon="138.8386762"><ele>1693.6566666666668</ele><time>2023-11-03T01:56:58Z</time></trkpt><trkpt lat="35.7361137" lon="138.8389021"><ele>1695.7033333333336</ele><time>2023-11-03T01:57:17Z</time></trkpt><trkpt lat="35.7361508" lon="138.8391348"><ele>1698.2033333333331</ele><time>2023-11-03T01:57:40Z</time></trkpt><trkpt lat="35.7363338" lon="138.8391491"><ele>1700.0166666666664</ele><time>2023-11-03T01:58:11Z</time></trkpt><trkpt lat="35.736519" lon="138.8390998"><ele>1701.0833333333333</ele><time>2023-11-03T01:58:49Z</time></trkpt><trkpt lat="35.7366685" lon="138.8389704"><ele>1702.7766666666666</ele><time>2023-11-03T01:59:08Z</time></trkpt><trkpt lat="35.7368367" lon="138.8388736"><ele>1705.1333333333334</ele><time>2023-11-03T01:59:49Z</time></trkpt><trkpt lat="35.7370113" lon="138.8389419"><ele>1708.38</ele><time>2023-11-03T02:00:07Z</time></trkpt><trkpt lat="35.7371877" lon="138.8390034"><ele>1712.1266666666668</ele><time>2023-11-03T02:00:23Z</time></trkpt><trkpt lat="35.7373654" lon="138.8389435"><ele>1715.9066666666668</ele><time>2023-11-03T02:00:40Z</time></trkpt><trkpt lat="35.7375353" lon="138.8390561"><ele>1719.6500000000003</ele><time>2023-11-03T02:01:02Z</time></trkpt><trkpt lat="35.737697" lon="138.8391578"><ele>1722.32</ele><time>2023-11-03T02:01:21Z</time></trkpt><trkpt lat="35.7378802" lon="138.8392188"><ele>1723.6266666666668</ele><time>2023-11-03T02:01:39Z</time></trkpt><trkpt lat="35.7380428" lon="138.8393387"><ele>1723.9966666666667</ele><time>2023-11-03T02:01:57Z</time></trkpt><trkpt lat="35.7382171" lon="138.8394558"><ele>1724.8633333333335</ele><time>2023-11-03T02:02:26Z</time></trkpt><trkpt lat="35.7383679" lon="138.8395931"><ele>1727.7266666666667</ele><time>2023-11-03T02:02:37Z</time></trkpt><trkpt lat="35.7384662" lon="138.8397797"><ele>1731.8466666666666</ele><time>2023-11-03T02:03:08Z</time></trkpt><trkpt lat="35.7385557" lon="138.8399739"><ele>1736.1633333333336</ele><time>2023-11-03T02:03:42Z</time></trkpt><trkpt lat="35.7387388" lon="138.8400338"><ele>1740.47</ele><time>2023-11-03T02:04:15Z</time></trkpt><trkpt lat="35.7389144" lon="138.8400902"><ele>1744.83</ele><time>2023-11-03T02:04:34Z</time></trkpt><trkpt lat="35.7390066" lon="138.8402948"><ele>1750.3533333333332</ele><time>2023-11-03T02:04:50Z</time></trkpt><trkpt lat="35.739185" lon="138.8403632"><ele>1756.3133333333333</ele><time>2023-11-03T02:05:44Z</time></trkpt><trkpt lat="35.739333" lon="138.8404914"><ele>1763.1266666666668</ele><time>2023-11-03T02:06:39Z</time></trkpt><trkpt lat="35.7394894" lon="138.8406014"><ele>1772.5933333333335</ele><time>2023-11-03T02:07:58Z</time></trkpt><trkpt lat="35.7395948" lon="138.8407813"><ele>1782.1466666666668</ele><time>2023-11-03T02:08:48Z</time></trkpt><trkpt lat="35.7396822" lon="138.8409777"><ele>1791.256666666667</ele><time>2023-11-03T02:09:08Z</time></trkpt><trkpt lat="35.7397823" lon="138.8411643"><ele>1798.6133333333335</ele><time>2023-11-03T02:09:54Z</time></trkpt><trkpt lat="35.7399638" lon="138.8411806"><ele>1803.36</ele><time>2023-11-03T02:10:45Z</time></trkpt><trkpt lat="35.7401455" lon="138.841195"><ele>1806.3366666666668</ele><time>2023-11-03T02:10:58Z</time></trkpt><trkpt lat="35.7403288" lon="138.8411908"><ele>1806.3133333333335</ele><time>2023-11-03T02:11:09Z</time></trkpt><trkpt lat="35.7404947" lon="138.8410961"><ele>1807.4233333333334</ele><time>2023-11-03T02:11:23Z</time></trkpt><trkpt lat="35.7406859" lon="138.8410903"><ele>1809.2633333333333</ele><time>2023-11-03T02:11:39Z</time></trkpt><trkpt lat="35.7408526" lon="138.8409974"><ele>1812.4733333333334</ele><time>2023-11-03T02:11:54Z</time></trkpt><trkpt lat="35.7410259" lon="138.8410659"><ele>1816.0166666666664</ele><time>2023-11-03T02:12:39Z</time></trkpt><trkpt lat="35.7412056" lon="138.8410839"><ele>1821.1033333333335</ele><time>2023-11-03T02:13:29Z</time></trkpt><trkpt lat="35.7413884" lon="138.8411242"><ele>1827.5133333333333</ele><time>2023-11-03T02:14:11Z</time></trkpt><trkpt lat="35.7415325" lon="138.8412605"><ele>1834.22</ele><time>2023-11-03T02:14:32Z</time></trkpt><trkpt lat="35.7417018" lon="138.8413478"><ele>1841.11</ele><time>2023-11-03T02:15:03Z</time></trkpt><trkpt lat="35.7418811" lon="138.8413972"><ele>1848.4233333333334</ele><time>2023-11-03T02:15:39Z</time></trkpt><trkpt lat="35.7419983" lon="138.8415701"><ele>1857.43</ele><time>2023-11-03T02:16:30Z</time></trkpt><trkpt lat="35.7420225" lon="138.8417899"><ele>1865.4533333333336</ele><time>2023-11-03T02:16:56Z</time></trkpt><trkpt lat="35.7421821" lon="138.841915"><ele>1872.8866666666665</ele><time>2023-11-03T02:17:36Z</time></trkpt><trkpt lat="35.7423486" lon="138.8420205"><ele>1876.3566666666666</ele><time>2023-11-03T02:18:11Z</time></trkpt><trkpt lat="35.7425033" lon="138.8421446"><ele>1874.9933333333336</ele><time>2023-11-03T02:18:30Z</time></trkpt><trkpt lat="35.7426825" lon="138.8421829"><ele>1871.2933333333337</ele><time>2023-11-03T02:18:51Z</time></trkpt><trkpt lat="35.7428677" lon="138.8421925"><ele>1869.0333333333335</ele><time>2023-11-03T02:19:09Z</time></trkpt><trkpt lat="35.7430489" lon="138.8423201"><ele>1867.61</ele><time>2023-11-03T02:19:27Z</time></trkpt><trkpt lat="35.7432074" lon="138.8422013"><ele>1870.07</ele><time>2023-11-03T02:19:37Z</time></trkpt><trkpt lat="35.7433826" lon="138.8422867"><ele>1871.9766666666667</ele><time>2023-11-03T02:19:53Z</time></trkpt><trkpt lat="35.743514" lon="138.8424395"><ele>1877.05</ele><time>2023-11-03T02:20:08Z</time></trkpt><trkpt lat="35.7436563" lon="138.8425827"><ele>1878.5666666666666</ele><time>2023-11-03T02:20:45Z</time></trkpt><trkpt lat="35.7438076" lon="138.8427136"><ele>1880.04</ele><time>2023-11-03T02:21:01Z</time></trkpt><trkpt lat="35.7439785" lon="138.8427871"><ele>1881.2900000000002</ele><time>2023-11-03T02:21:23Z</time></trkpt><trkpt lat="35.7441354" lon="138.8429056"><ele>1882.45</ele><time>2023-11-03T02:21:37Z</time></trkpt><trkpt lat="35.7442776" lon="138.8430673"><ele>1884.36</ele><time>2023-11-03T02:21:52Z</time></trkpt><trkpt lat="35.7444336" lon="138.8431855"><ele>1887.926666666667</ele><time>2023-11-03T02:22:11Z</time></trkpt><trkpt lat="35.7445382" lon="138.8433951"><ele>1892.1166666666668</ele><time>2023-11-03T02:22:36Z</time></trkpt><trkpt lat="35.7446952" lon="138.8435084"><ele>1897.75</ele><time>2023-11-03T02:23:22Z</time></trkpt><trkpt lat="35.7448728" lon="138.8435757"><ele>1903.8733333333337</ele><time>2023-11-03T02:24:04Z</time></trkpt><trkpt lat="35.7450444" lon="138.8436611"><ele>1911.9933333333336</ele><time>2023-11-03T02:25:04Z</time></trkpt><trkpt lat="35.7451801" lon="138.8438079"><ele>1921.3366666666668</ele><time>2023-11-03T02:26:19Z</time></trkpt><trkpt lat="35.7453644" lon="138.8438333"><ele>1931.1833333333334</ele><time>2023-11-03T02:28:00Z</time></trkpt><trkpt lat="35.7455382" lon="138.8439085"><ele>1943.5</ele><time>2023-11-03T02:29:45Z</time></trkpt><trkpt lat="35.7456906" lon="138.8440405"><ele>1954.6433333333334</ele><time>2023-11-03T02:31:30Z</time></trkpt><trkpt lat="35.7458477" lon="138.844152"><ele>1965.01</ele><time>2023-11-03T02:32:36Z</time></trkpt><trkpt lat="35.7460256" lon="138.8441965"><ele>1972.4433333333334</ele><time>2023-11-03T02:33:55Z</time></trkpt><trkpt lat="35.7461164" lon="138.8443926"><ele>1979.58</ele><time>2023-11-03T02:35:06Z</time></trkpt><trkpt lat="35.7461684" lon="138.8446078"><ele>1986.96</ele><time>2023-11-03T02:36:16Z</time></trkpt><trkpt lat="35.7461443" lon="138.8448273"><ele>1995.0766666666668</ele><time>2023-11-03T02:37:30Z</time></trkpt><trkpt lat="35.7461547" lon="138.8450486"><ele>2003.66</ele><time>2023-11-03T02:38:15Z</time></trkpt><trkpt lat="35.746148" lon="138.845271"><ele>2011.4800000000002</ele><time>2023-11-03T02:39:04Z</time></trkpt><trkpt lat="35.7462081" lon="138.8454825"><ele>2019.5</ele><time>2023-11-03T02:40:03Z</time></trkpt><trkpt lat="35.746312" lon="138.8456897"><ele>2027.2966666666669</ele><time>2023-11-03T02:40:54Z</time></trkpt><trkpt lat="35.7463095" lon="138.845913"><ele>2034.4433333333334</ele><time>2023-11-03T02:42:01Z</time></trkpt><trkpt lat="35.7461375" lon="138.8460348"><ele>2038.5166666666667</ele><time>2023-11-03T02:47:03Z</time></trkpt><trkpt lat="35.7463132" lon="138.8459652"><ele>2039.6000000000004</ele><time>2023-11-03T02:50:14Z</time></trkpt><trkpt lat="35.74621" lon="138.8457822"><ele>2039.1166666666668</ele><time>2023-11-03T02:51:57Z</time></trkpt><trkpt lat="35.7463249" lon="138.8459533"><ele>2038.626666666667</ele><time>2023-11-03T02:53:10Z</time></trkpt><trkpt lat="35.746206" lon="138.8461297"><ele>2038.9033333333336</ele><time>2023-11-03T02:53:32Z</time></trkpt><trkpt lat="35.7460557" lon="138.8462639"><ele>2038.8966666666668</ele><time>2023-11-03T02:54:02Z</time></trkpt><trkpt lat="35.7459968" lon="138.8460527"><ele>2038.4133333333332</ele><time>2023-11-03T02:55:00Z</time></trkpt><trkpt lat="35.7459261" lon="138.8462565"><ele>2037.6000000000001</ele><time>2023-11-03T02:55:21Z</time></trkpt><trkpt lat="35.7458974" lon="138.8464758"><ele>2037.18</ele><time>2023-11-03T02:56:19Z</time></trkpt><trkpt lat="35.7457758" lon="138.8466458"><ele>2036.2533333333333</ele><time>2023-11-03T02:56:36Z</time></trkpt><trkpt lat="35.7458315" lon="138.8468903"><ele>2034.2833333333335</ele><time>2023-11-03T02:58:18Z</time></trkpt><trkpt lat="35.7456461" lon="138.8469167"><ele>2033.1200000000001</ele><time>2023-11-03T02:58:42Z</time></trkpt><trkpt lat="35.7455234" lon="138.8470796"><ele>2031.9066666666668</ele><time>2023-11-03T02:59:42Z</time></trkpt><trkpt lat="35.7453595" lon="138.8471998"><ele>2031.0733333333335</ele><time>2023-11-03T03:00:21Z</time></trkpt><trkpt lat="35.7452474" lon="138.8473734"><ele>2028.493333333333</ele><time>2023-11-03T03:00:45Z</time></trkpt><trkpt lat="35.7450964" lon="138.8475002"><ele>2025.3500000000001</ele><time>2023-11-03T03:01:01Z</time></trkpt><trkpt lat="35.7449954" lon="138.8476841"><ele>2022.0666666666666</ele><time>2023-11-03T03:01:12Z</time></trkpt><trkpt lat="35.7448333" lon="138.847795"><ele>2018.3400000000001</ele><time>2023-11-03T03:01:34Z</time></trkpt><trkpt lat="35.7447058" lon="138.8479593"><ele>2015.1566666666668</ele><time>2023-11-03T03:01:48Z</time></trkpt><trkpt lat="35.7445816" lon="138.8481496"><ele>2012.1133333333335</ele><time>2023-11-03T03:02:08Z</time></trkpt><trkpt lat="35.7444233" lon="138.8482618"><ele>2010.0566666666666</ele><time>2023-11-03T03:02:16Z</time></trkpt><trkpt lat="35.74425" lon="138.8483541"><ele>2007.5366666666666</ele><time>2023-11-03T03:02:36Z</time></trkpt><trkpt lat="35.7440859" lon="138.8484504"><ele>2005.21</ele><time>2023-11-03T03:02:48Z</time></trkpt><trkpt lat="35.7441429" lon="138.8486623"><ele>2002.3933333333334</ele><time>2023-11-03T03:03:42Z</time></trkpt><trkpt lat="35.7439967" lon="138.8487929"><ele>2000.1566666666668</ele><time>2023-11-03T03:03:56Z</time></trkpt><trkpt lat="35.7438536" lon="138.8489322"><ele>1996.6200000000001</ele><time>2023-11-03T03:04:16Z</time></trkpt><trkpt lat="35.7437645" lon="138.849131"><ele>1992.9333333333334</ele><time>2023-11-03T03:04:42Z</time></trkpt><trkpt lat="35.7436591" lon="138.8493123"><ele>1988.4866666666667</ele><time>2023-11-03T03:05:18Z</time></trkpt><trkpt lat="35.7436471" lon="138.8495435"><ele>1984.0100000000002</ele><time>2023-11-03T03:05:33Z</time></trkpt><trkpt lat="35.743476" lon="138.8496513"><ele>1980.63</ele><time>2023-11-03T03:05:43Z</time></trkpt><trkpt lat="35.7433114" lon="138.8497604"><ele>1977.5</ele><time>2023-11-03T03:06:01Z</time></trkpt><trkpt lat="35.7432968" lon="138.8499855"><ele>1976.0233333333333</ele><time>2023-11-03T03:06:15Z</time></trkpt><trkpt lat="35.743124" lon="138.8500766"><ele>1974.3533333333335</ele><time>2023-11-03T03:06:30Z</time></trkpt><trkpt lat="35.7429889" lon="138.8502296"><ele>1972.72</ele><time>2023-11-03T03:06:49Z</time></trkpt><trkpt lat="35.7428084" lon="138.8502037"><ele>1971.5900000000001</ele><time>2023-11-03T03:07:07Z</time></trkpt><trkpt lat="35.7426449" lon="138.8503016"><ele>1970.58</ele><time>2023-11-03T03:07:31Z</time></trkpt><trkpt lat="35.7425366" lon="138.850479"><ele>1970.1333333333332</ele><time>2023-11-03T03:08:10Z</time></trkpt><trkpt lat="35.7423945" lon="138.8506188"><ele>1968.6066666666666</ele><time>2023-11-03T03:09:00Z</time></trkpt><trkpt lat="35.7422407" lon="138.850742"><ele>1966.7</ele><time>2023-11-03T03:09:55Z</time></trkpt><trkpt lat="35.7421016" lon="138.8508917"><ele>1964.4966666666667</ele><time>2023-11-03T03:10:09Z</time></trkpt><trkpt lat="35.7419327" lon="138.8509784"><ele>1962.8466666666666</ele><time>2023-11-03T03:10:22Z</time></trkpt><trkpt lat="35.7417684" lon="138.8510716"><ele>1961.3733333333332</ele><time>2023-11-03T03:10:36Z</time></trkpt><trkpt lat="35.7417154" lon="138.8512834"><ele>1959.8566666666666</ele><time>2023-11-03T03:10:47Z</time></trkpt><trkpt lat="35.7415346" lon="138.8512928"><ele>1958.5866666666668</ele><time>2023-11-03T03:11:04Z</time></trkpt><trkpt lat="35.74135" lon="138.8513122"><ele>1958.9733333333334</ele><time>2023-11-03T03:11:24Z</time></trkpt><trkpt lat="35.7411698" lon="138.8513333"><ele>1959.41</ele><time>2023-11-03T03:11:46Z</time></trkpt><trkpt lat="35.7409976" lon="138.8512669"><ele>1957.4066666666668</ele><time>2023-11-03T03:12:26Z</time></trkpt><trkpt lat="35.7408066" lon="138.8512229"><ele>1952.6266666666668</ele><time>2023-11-03T03:12:55Z</time></trkpt><trkpt lat="35.7406426" lon="138.8511007"><ele>1947.2633333333333</ele><time>2023-11-03T03:13:07Z</time></trkpt><trkpt lat="35.7404776" lon="138.851203"><ele>1944.6666666666667</ele><time>2023-11-03T03:13:28Z</time></trkpt><trkpt lat="35.7403116" lon="138.8513109"><ele>1944.3500000000001</ele><time>2023-11-03T03:13:48Z</time></trkpt><trkpt lat="35.7401388" lon="138.8513985"><ele>1944.9766666666667</ele><time>2023-11-03T03:14:06Z</time></trkpt><trkpt lat="35.7400233" lon="138.8512088"><ele>1942.68</ele><time>2023-11-03T03:14:17Z</time></trkpt><trkpt lat="35.7398388" lon="138.8512441"><ele>1939.8766666666668</ele><time>2023-11-03T03:14:41Z</time></trkpt><trkpt lat="35.7396554" lon="138.851295"><ele>1937.4633333333334</ele><time>2023-11-03T03:14:56Z</time></trkpt><trkpt lat="35.7395381" lon="138.8511213"><ele>1937.0166666666667</ele><time>2023-11-03T03:15:18Z</time></trkpt><trkpt lat="35.7393627" lon="138.8510503"><ele>1936.6066666666666</ele><time>2023-11-03T03:15:36Z</time></trkpt><trkpt lat="35.739185" lon="138.8511051"><ele>1937.6800000000003</ele><time>2023-11-03T03:15:57Z</time></trkpt><trkpt lat="35.7390374" lon="138.8509643"><ele>1940.6666666666667</ele><time>2023-11-03T03:16:18Z</time></trkpt><trkpt lat="35.7388855" lon="138.8510904"><ele>1944.2866666666669</ele><time>2023-11-03T03:16:43Z</time></trkpt><trkpt lat="35.7389019" lon="138.8508616"><ele>1947.0933333333335</ele><time>2023-11-03T03:17:35Z</time></trkpt><trkpt lat="35.7388146" lon="138.8506671"><ele>1949.1666666666667</ele><time>2023-11-03T03:18:04Z</time></trkpt><trkpt lat="35.7388544" lon="138.8508953"><ele>1949.8333333333333</ele><time>2023-11-03T03:18:42Z</time></trkpt><trkpt lat="35.7387596" lon="138.8510942"><ele>1949.8433333333332</ele><time>2023-11-03T03:19:12Z</time></trkpt><trkpt lat="35.7385872" lon="138.8511734"><ele>1949.5866666666668</ele><time>2023-11-03T03:19:22Z</time></trkpt><trkpt lat="35.7384005" lon="138.8512059"><ele>1950.4033333333334</ele><time>2023-11-03T03:19:35Z</time></trkpt><trkpt lat="35.7382881" lon="138.8513854"><ele>1950.8833333333332</ele><time>2023-11-03T03:19:49Z</time></trkpt><trkpt lat="35.7381061" lon="138.8514218"><ele>1949.6166666666668</ele><time>2023-11-03T03:20:38Z</time></trkpt><trkpt lat="35.7379987" lon="138.8515996"><ele>1946.3933333333334</ele><time>2023-11-03T03:21:34Z</time></trkpt><trkpt lat="35.7379158" lon="138.8518057"><ele>1941.2233333333334</ele><time>2023-11-03T03:22:02Z</time></trkpt><trkpt lat="35.7378746" lon="138.8520271"><ele>1931.7166666666665</ele><time>2023-11-03T03:22:19Z</time></trkpt><trkpt lat="35.7379686" lon="138.8522186"><ele>1919.5766666666666</ele><time>2023-11-03T03:22:40Z</time></trkpt><trkpt lat="35.7378006" lon="138.8523004"><ele>1910.08</ele><time>2023-11-03T03:22:54Z</time></trkpt><trkpt lat="35.7376178" lon="138.8522451"><ele>1908.8533333333332</ele><time>2023-11-03T03:23:10Z</time></trkpt><trkpt lat="35.7374537" lon="138.8523398"><ele>1911.0233333333333</ele><time>2023-11-03T03:23:25Z</time></trkpt><trkpt lat="35.7373647" lon="138.8525371"><ele>1911.3833333333332</ele><time>2023-11-03T03:23:53Z</time></trkpt><trkpt lat="35.7371725" lon="138.8525007"><ele>1908.8400000000001</ele><time>2023-11-03T03:24:10Z</time></trkpt><trkpt lat="35.7370858" lon="138.8527"><ele>1905.8233333333335</ele><time>2023-11-03T03:24:25Z</time></trkpt><trkpt lat="35.736902" lon="138.852735"><ele>1904.2833333333335</ele><time>2023-11-03T03:24:39Z</time></trkpt><trkpt lat="35.7368128" lon="138.8529298"><ele>1902.88</ele><time>2023-11-03T03:24:47Z</time></trkpt><trkpt lat="35.7366511" lon="138.8530365"><ele>1902.41</ele><time>2023-11-03T03:25:26Z</time></trkpt><trkpt lat="35.7364896" lon="138.8531348"><ele>1901.8700000000001</ele><time>2023-11-03T03:25:39Z</time></trkpt><trkpt lat="35.7363314" lon="138.8532574"><ele>1901.88</ele><time>2023-11-03T03:26:28Z</time></trkpt><trkpt lat="35.7361713" lon="138.8533652"><ele>1902.2533333333333</ele><time>2023-11-03T03:26:57Z</time></trkpt><trkpt lat="35.7360005" lon="138.85344"><ele>1902.6233333333332</ele><time>2023-11-03T03:27:14Z</time></trkpt><trkpt lat="35.7358393" lon="138.8535454"><ele>1903.3566666666666</ele><time>2023-11-03T03:27:46Z</time></trkpt><trkpt lat="35.7356565" lon="138.853586"><ele>1905.4766666666667</ele><time>2023-11-03T03:28:30Z</time></trkpt><trkpt lat="35.7354674" lon="138.8535696"><ele>1908.9366666666667</ele><time>2023-11-03T03:29:07Z</time></trkpt><trkpt lat="35.7352883" lon="138.8535972"><ele>1912.7600000000002</ele><time>2023-11-03T03:29:36Z</time></trkpt><trkpt lat="35.7351147" lon="138.8536858"><ele>1916.67</ele><time>2023-11-03T03:29:55Z</time></trkpt><trkpt lat="35.7349535" lon="138.8537875"><ele>1920.3266666666668</ele><time>2023-11-03T03:30:20Z</time></trkpt><trkpt lat="35.734777" lon="138.8537305"><ele>1924.746666666667</ele><time>2023-11-03T03:31:28Z</time></trkpt><trkpt lat="35.7345935" lon="138.8537163"><ele>1929.966666666667</ele><time>2023-11-03T03:31:54Z</time></trkpt><trkpt lat="35.7344178" lon="138.8536607"><ele>1934.8400000000001</ele><time>2023-11-03T03:32:39Z</time></trkpt><trkpt lat="35.7342352" lon="138.8536891"><ele>1940.3466666666666</ele><time>2023-11-03T03:33:34Z</time></trkpt><trkpt lat="35.7340647" lon="138.8536117"><ele>1943.6733333333332</ele><time>2023-11-03T03:33:51Z</time></trkpt><trkpt lat="35.733889" lon="138.8535544"><ele>1948.2766666666666</ele><time>2023-11-03T03:34:26Z</time></trkpt><trkpt lat="35.7337185" lon="138.8534732"><ele>1951.1833333333334</ele><time>2023-11-03T03:36:07Z</time></trkpt><trkpt lat="35.7335441" lon="138.8534143"><ele>1955.63</ele><time>2023-11-03T03:36:51Z</time></trkpt><trkpt lat="35.7333788" lon="138.8535094"><ele>1961.8266666666666</ele><time>2023-11-03T03:37:31Z</time></trkpt><trkpt lat="35.7333334" lon="138.853724"><ele>1970.1233333333337</ele><time>2023-11-03T03:38:21Z</time></trkpt><trkpt lat="35.7332092" lon="138.8538863"><ele>1977.54</ele><time>2023-11-03T03:39:03Z</time></trkpt><trkpt lat="35.7331675" lon="138.8541067"><ele>1981.7333333333336</ele><time>2023-11-03T03:39:15Z</time></trkpt><trkpt lat="35.7330772" lon="138.8542995"><ele>1983.1166666666668</ele><time>2023-11-03T03:39:37Z</time></trkpt><trkpt lat="35.7330554" lon="138.8545249"><ele>1984.4099999999999</ele><time>2023-11-03T03:40:07Z</time></trkpt><trkpt lat="35.7329883" lon="138.8547493"><ele>1985.8366666666668</ele><time>2023-11-03T03:40:32Z</time></trkpt><trkpt lat="35.732916" lon="138.8549539"><ele>1987.2066666666667</ele><time>2023-11-03T03:40:51Z</time></trkpt><trkpt lat="35.732832" lon="138.8551537"><ele>1987.96</ele><time>2023-11-03T03:41:14Z</time></trkpt><trkpt lat="35.7327111" lon="138.8553219"><ele>1987.2933333333333</ele><time>2023-11-03T03:41:33Z</time></trkpt><trkpt lat="35.7326259" lon="138.8555204"><ele>1986.0833333333333</ele><time>2023-11-03T03:42:01Z</time></trkpt><trkpt lat="35.732502" lon="138.8556882"><ele>1982.6299999999999</ele><time>2023-11-03T03:42:27Z</time></trkpt><trkpt lat="35.7323569" lon="138.8558284"><ele>1978.1366666666665</ele><time>2023-11-03T03:43:41Z</time></trkpt><trkpt lat="35.7322233" lon="138.8559788"><ele>1971.89</ele><time>2023-11-03T03:44:21Z</time></trkpt><trkpt lat="35.7320634" lon="138.8560941"><ele>1965.6233333333332</ele><time>2023-11-03T03:45:25Z</time></trkpt><trkpt lat="35.7319686" lon="138.8562894"><ele>1957.8733333333332</ele><time>2023-11-03T03:45:47Z</time></trkpt><trkpt lat="35.7318975" lon="138.8565026"><ele>1949.42</ele><time>2023-11-03T03:46:04Z</time></trkpt><trkpt lat="35.7317188" lon="138.856559"><ele>1940.5766666666666</ele><time>2023-11-03T03:46:48Z</time></trkpt><trkpt lat="35.7316265" lon="138.8567493"><ele>1932.3933333333334</ele><time>2023-11-03T03:47:28Z</time></trkpt><trkpt lat="35.7316336" lon="138.8569802"><ele>1925.6233333333332</ele><time>2023-11-03T03:47:45Z</time></trkpt><trkpt lat="35.7315288" lon="138.8571612"><ele>1919.0600000000002</ele><time>2023-11-03T03:48:19Z</time></trkpt><trkpt lat="35.7314847" lon="138.8574175"><ele>1913.9166666666667</ele><time>2023-11-03T03:48:28Z</time></trkpt><trkpt lat="35.7314741" lon="138.8576412"><ele>1909.9133333333332</ele><time>2023-11-03T03:48:56Z</time></trkpt><trkpt lat="35.7314374" lon="138.8573944"><ele>1908.5466666666664</ele><time>2023-11-03T03:49:30Z</time></trkpt><trkpt lat="35.7313972" lon="138.8571783"><ele>1908.8566666666666</ele><time>2023-11-03T03:49:47Z</time></trkpt><trkpt lat="35.7313195" lon="138.8569785"><ele>1908.45</ele><time>2023-11-03T03:50:00Z</time></trkpt><trkpt lat="35.7312753" lon="138.856756"><ele>1909.0033333333333</ele><time>2023-11-03T03:50:18Z</time></trkpt><trkpt lat="35.7311375" lon="138.8565982"><ele>1908.7933333333333</ele><time>2023-11-03T03:50:34Z</time></trkpt><trkpt lat="35.7310666" lon="138.8563941"><ele>1909.9066666666668</ele><time>2023-11-03T03:50:56Z</time></trkpt><trkpt lat="35.7311084" lon="138.8561631"><ele>1910.0433333333333</ele><time>2023-11-03T03:51:12Z</time></trkpt><trkpt lat="35.7310859" lon="138.8559404"><ele>1910.2900000000002</ele><time>2023-11-03T03:52:14Z</time></trkpt><trkpt lat="35.7311238" lon="138.855724"><ele>1911.7333333333336</ele><time>2023-11-03T03:52:27Z</time></trkpt><trkpt lat="35.731083" lon="138.8554929"><ele>1911.8066666666666</ele><time>2023-11-03T03:52:48Z</time></trkpt><trkpt lat="35.7310011" lon="138.8552884"><ele>1910.6866666666665</ele><time>2023-11-03T03:53:09Z</time></trkpt><trkpt lat="35.731029" lon="138.8550691"><ele>1907.4833333333336</ele><time>2023-11-03T03:53:23Z</time></trkpt><trkpt lat="35.731156" lon="138.8548969"><ele>1906.86</ele><time>2023-11-03T03:53:47Z</time></trkpt><trkpt lat="35.7312012" lon="138.8546814"><ele>1906.0233333333335</ele><time>2023-11-03T03:54:03Z</time></trkpt><trkpt lat="35.7313103" lon="138.8545034"><ele>1903.5566666666666</ele><time>2023-11-03T03:54:49Z</time></trkpt><trkpt lat="35.7314561" lon="138.8543537"><ele>1899.8166666666668</ele><time>2023-11-03T03:55:04Z</time></trkpt><trkpt lat="35.7315579" lon="138.8541653"><ele>1898.3266666666666</ele><time>2023-11-03T03:55:44Z</time></trkpt><trkpt lat="35.7316854" lon="138.8539805"><ele>1900.9233333333334</ele><time>2023-11-03T03:56:01Z</time></trkpt><trkpt lat="35.73174" lon="138.8537638"><ele>1901.4666666666665</ele><time>2023-11-03T03:56:23Z</time></trkpt><trkpt lat="35.7317368" lon="138.8535314"><ele>1899.6366666666665</ele><time>2023-11-03T03:56:44Z</time></trkpt><trkpt lat="35.7316682" lon="138.8533191"><ele>1894.1166666666668</ele><time>2023-11-03T03:57:01Z</time></trkpt><trkpt lat="35.7317106" lon="138.8530953"><ele>1892.8999999999999</ele><time>2023-11-03T03:57:16Z</time></trkpt><trkpt lat="35.731607" lon="138.8529094"><ele>1892.7600000000002</ele><time>2023-11-03T03:57:35Z</time></trkpt><trkpt lat="35.7315547" lon="138.852685"><ele>1894.1500000000003</ele><time>2023-11-03T03:57:54Z</time></trkpt><trkpt lat="35.731456" lon="138.8524986"><ele>1891.42</ele><time>2023-11-03T03:58:09Z</time></trkpt><trkpt lat="35.7313008" lon="138.8523286"><ele>1888.6566666666668</ele><time>2023-11-03T03:58:25Z</time></trkpt><trkpt lat="35.7311417" lon="138.8522084"><ele>1885.2633333333333</ele><time>2023-11-03T03:58:42Z</time></trkpt><trkpt lat="35.7309896" lon="138.8520703"><ele>1883.1066666666666</ele><time>2023-11-03T03:58:55Z</time></trkpt><trkpt lat="35.7308581" lon="138.8519047"><ele>1881.3233333333335</ele><time>2023-11-03T03:59:09Z</time></trkpt><trkpt lat="35.7306882" lon="138.8518096"><ele>1878.49</ele><time>2023-11-03T03:59:26Z</time></trkpt><trkpt lat="35.7306002" lon="138.8516079"><ele>1876.5100000000002</ele><time>2023-11-03T04:00:13Z</time></trkpt><trkpt lat="35.7304545" lon="138.8514728"><ele>1873.37</ele><time>2023-11-03T04:00:26Z</time></trkpt><trkpt lat="35.7303653" lon="138.8512803"><ele>1872.9633333333334</ele><time>2023-11-03T04:00:58Z</time></trkpt><trkpt lat="35.7302788" lon="138.8510835"><ele>1870.9399999999998</ele><time>2023-11-03T04:01:09Z</time></trkpt><trkpt lat="35.7301544" lon="138.8509119"><ele>1869.8</ele><time>2023-11-03T04:01:23Z</time></trkpt><trkpt lat="35.7299966" lon="138.850787"><ele>1864.8500000000001</ele><time>2023-11-03T04:01:49Z</time></trkpt><trkpt lat="35.7299221" lon="138.8505842"><ele>1860.6466666666668</ele><time>2023-11-03T04:01:58Z</time></trkpt><trkpt lat="35.7299013" lon="138.8503604"><ele>1857.0233333333333</ele><time>2023-11-03T04:02:09Z</time></trkpt><trkpt lat="35.729826" lon="138.8501521"><ele>1854.2966666666669</ele><time>2023-11-03T04:02:30Z</time></trkpt><trkpt lat="35.7299018" lon="138.8499503"><ele>1852.3100000000002</ele><time>2023-11-03T04:02:49Z</time></trkpt><trkpt lat="35.7298667" lon="138.849731"><ele>1848.22</ele><time>2023-11-03T04:03:06Z</time></trkpt><trkpt lat="35.7298586" lon="138.8495041"><ele>1842.5266666666666</ele><time>2023-11-03T04:03:24Z</time></trkpt><trkpt lat="35.7298513" lon="138.8492819"><ele>1834.7166666666665</ele><time>2023-11-03T04:03:47Z</time></trkpt><trkpt lat="35.7298476" lon="138.8490601"><ele>1826.2366666666667</ele><time>2023-11-03T04:04:04Z</time></trkpt><trkpt lat="35.7297548" lon="138.8488627"><ele>1820.073333333333</ele><time>2023-11-03T04:04:22Z</time></trkpt><trkpt lat="35.7297688" lon="138.8486333"><ele>1813.32</ele><time>2023-11-03T04:04:36Z</time></trkpt><trkpt lat="35.7297862" lon="138.8483995"><ele>1806.7033333333336</ele><time>2023-11-03T04:05:18Z</time></trkpt><trkpt lat="35.7296073" lon="138.8483635"><ele>1800.61</ele><time>2023-11-03T04:05:53Z</time></trkpt><trkpt lat="35.7294749" lon="138.848211"><ele>1794.2300000000002</ele><time>2023-11-03T04:06:33Z</time></trkpt><trkpt lat="35.7293295" lon="138.8480715"><ele>1787.8700000000001</ele><time>2023-11-03T04:06:46Z</time></trkpt><trkpt lat="35.7291467" lon="138.8480152"><ele>1780.74</ele><time>2023-11-03T04:07:10Z</time></trkpt><trkpt lat="35.7289723" lon="138.8479288"><ele>1775.3833333333332</ele><time>2023-11-03T04:07:23Z</time></trkpt><trkpt lat="35.7288471" lon="138.8477545"><ele>1770.1466666666668</ele><time>2023-11-03T04:07:34Z</time></trkpt><trkpt lat="35.7287074" lon="138.8475959"><ele>1764.3700000000001</ele><time>2023-11-03T04:07:51Z</time></trkpt><trkpt lat="35.7285414" lon="138.847489"><ele>1758.0966666666666</ele><time>2023-11-03T04:08:30Z</time></trkpt><trkpt lat="35.7284314" lon="138.8473073"><ele>1751.07</ele><time>2023-11-03T04:09:12Z</time></trkpt><trkpt lat="35.728346" lon="138.8471122"><ele>1744.0866666666668</ele><time>2023-11-03T04:09:30Z</time></trkpt><trkpt lat="35.7283188" lon="138.8468927"><ele>1736.006666666667</ele><time>2023-11-03T04:09:50Z</time></trkpt><trkpt lat="35.7284892" lon="138.8469947"><ele>1730.8733333333332</ele><time>2023-11-03T04:11:31Z</time></trkpt><trkpt lat="35.7286697" lon="138.8470133"><ele>1727.75</ele><time>2023-11-03T04:11:43Z</time></trkpt><trkpt lat="35.7288531" lon="138.8470126"><ele>1726.8733333333332</ele><time>2023-11-03T04:11:55Z</time></trkpt><trkpt lat="35.7290456" lon="138.8470522"><ele>1726.3433333333332</ele><time>2023-11-03T04:12:07Z</time></trkpt><trkpt lat="35.7292335" lon="138.8469773"><ele>1724.1933333333334</ele><time>2023-11-03T04:12:22Z</time></trkpt><trkpt lat="35.7293811" lon="138.8468432"><ele>1720.0266666666666</ele><time>2023-11-03T04:12:33Z</time></trkpt><trkpt lat="35.7295339" lon="138.8467245"><ele>1712.5333333333335</ele><time>2023-11-03T04:12:58Z</time></trkpt><trkpt lat="35.7293891" lon="138.8465793"><ele>1707.45</ele><time>2023-11-03T04:13:12Z</time></trkpt><trkpt lat="35.7294937" lon="138.8463927"><ele>1701.1466666666668</ele><time>2023-11-03T04:13:32Z</time></trkpt><trkpt lat="35.7294521" lon="138.8461762"><ele>1696.03</ele><time>2023-11-03T04:14:12Z</time></trkpt><trkpt lat="35.729505" lon="138.8459499"><ele>1687.5466666666669</ele><time>2023-11-03T04:14:36Z</time></trkpt><trkpt lat="35.7296696" lon="138.8458485"><ele>1679.3033333333333</ele><time>2023-11-03T04:14:53Z</time></trkpt><trkpt lat="35.7297437" lon="138.8456427"><ele>1670.243333333333</ele><time>2023-11-03T04:15:12Z</time></trkpt><trkpt lat="35.7297765" lon="138.845425"><ele>1662.63</ele><time>2023-11-03T04:15:30Z</time></trkpt><trkpt lat="35.7296676" lon="138.8452467"><ele>1655.8966666666665</ele><time>2023-11-03T04:16:06Z</time></trkpt><trkpt lat="35.7295848" lon="138.8450463"><ele>1648.5733333333335</ele><time>2023-11-03T04:16:33Z</time></trkpt><trkpt lat="35.729641" lon="138.8448338"><ele>1638.6466666666668</ele><time>2023-11-03T04:17:00Z</time></trkpt><trkpt lat="35.7295355" lon="138.8446471"><ele>1626.6066666666666</ele><time>2023-11-03T04:17:48Z</time></trkpt><trkpt lat="35.7294793" lon="138.8444357"><ele>1614.7966666666669</ele><time>2023-11-03T04:18:13Z</time></trkpt><trkpt lat="35.7296278" lon="138.8442943"><ele>1605.9766666666667</ele><time>2023-11-03T04:18:32Z</time></trkpt><trkpt lat="35.7298254" lon="138.8442913"><ele>1601.9633333333334</ele><time>2023-11-03T04:18:46Z</time></trkpt><trkpt lat="35.7298007" lon="138.8440662"><ele>1599.53</ele><time>2023-11-03T04:18:56Z</time></trkpt><trkpt lat="35.729737" lon="138.8438547"><ele>1596.3400000000001</ele><time>2023-11-03T04:19:07Z</time></trkpt><trkpt lat="35.7296816" lon="138.8436434"><ele>1590.986666666667</ele><time>2023-11-03T04:19:20Z</time></trkpt><trkpt lat="35.7296331" lon="138.8434304"><ele>1586.0466666666669</ele><time>2023-11-03T04:19:39Z</time></trkpt><trkpt lat="35.7296263" lon="138.8431923"><ele>1581.2300000000002</ele><time>2023-11-03T04:19:53Z</time></trkpt><trkpt lat="35.7295118" lon="138.8430134"><ele>1576.7733333333333</ele><time>2023-11-03T04:20:48Z</time></trkpt><trkpt lat="35.7295101" lon="138.8427778"><ele>1571.6166666666666</ele><time>2023-11-03T04:21:04Z</time></trkpt><trkpt lat="35.7294972" lon="138.8425533"><ele>1566.5133333333333</ele><time>2023-11-03T04:21:18Z</time></trkpt><trkpt lat="35.7296664" lon="138.8424526"><ele>1563.28</ele><time>2023-11-03T04:21:31Z</time></trkpt><trkpt lat="35.7298287" lon="138.8423541"><ele>1561.96</ele><time>2023-11-03T04:21:46Z</time></trkpt><trkpt lat="35.729905" lon="138.8421461"><ele>1561.5600000000002</ele><time>2023-11-03T04:22:03Z</time></trkpt><trkpt lat="35.7298256" lon="138.8419461"><ele>1559.1633333333336</ele><time>2023-11-03T04:22:15Z</time></trkpt><trkpt lat="35.7299132" lon="138.84175"><ele>1555.6499999999999</ele><time>2023-11-03T04:22:30Z</time></trkpt><trkpt lat="35.7300109" lon="138.8415617"><ele>1551.5366666666669</ele><time>2023-11-03T04:22:51Z</time></trkpt><trkpt lat="35.7301561" lon="138.8414288"><ele>1549.5966666666666</ele><time>2023-11-03T04:24:07Z</time></trkpt><trkpt lat="35.7301611" lon="138.8412053"><ele>1551.14</ele><time>2023-11-03T04:24:27Z</time></trkpt><trkpt lat="35.7301174" lon="138.8409861"><ele>1557.3733333333332</ele><time>2023-11-03T04:24:49Z</time></trkpt><trkpt lat="35.7300551" lon="138.8407714"><ele>1564.2</ele><time>2023-11-03T04:25:09Z</time></trkpt><trkpt lat="35.7299054" lon="138.8406419"><ele>1568.5666666666666</ele><time>2023-11-03T04:25:21Z</time></trkpt><trkpt lat="35.7298497" lon="138.8404273"><ele>1569.54</ele><time>2023-11-03T04:25:36Z</time></trkpt><trkpt lat="35.7298629" lon="138.8402035"><ele>1569.4333333333332</ele><time>2023-11-03T04:25:50Z</time></trkpt><trkpt lat="35.7299234" lon="138.8399934"><ele>1568.2533333333333</ele><time>2023-11-03T04:26:07Z</time></trkpt><trkpt lat="35.7299795" lon="138.8397711"><ele>1569.743333333333</ele><time>2023-11-03T04:26:25Z</time></trkpt><trkpt lat="35.7298929" lon="138.8395682"><ele>1570.89</ele><time>2023-11-03T04:26:36Z</time></trkpt><trkpt lat="35.7297558" lon="138.8394214"><ele>1570.2733333333333</ele><time>2023-11-03T04:26:47Z</time></trkpt><trkpt lat="35.7298838" lon="138.839253"><ele>1567.8</ele><time>2023-11-03T04:27:09Z</time></trkpt><trkpt lat="35.7298562" lon="138.839032"><ele>1563.4400000000003</ele><time>2023-11-03T04:27:30Z</time></trkpt><trkpt lat="35.7296908" lon="138.8389418"><ele>1561.7</ele><time>2023-11-03T04:27:42Z</time></trkpt><trkpt lat="35.7295893" lon="138.838751"><ele>1560.2399999999998</ele><time>2023-11-03T04:27:53Z</time></trkpt><trkpt lat="35.7294978" lon="138.83856"><ele>1560.5633333333335</ele><time>2023-11-03T04:28:07Z</time></trkpt><trkpt lat="35.7294485" lon="138.8383314"><ele>1561.5900000000001</ele><time>2023-11-03T04:28:18Z</time></trkpt><trkpt lat="35.7293673" lon="138.8381272"><ele>1558.6000000000001</ele><time>2023-11-03T04:28:29Z</time></trkpt><trkpt lat="35.7293661" lon="138.8378965"><ele>1554.84</ele><time>2023-11-03T04:28:40Z</time></trkpt><trkpt lat="35.7293212" lon="138.8376823"><ele>1549.3066666666666</ele><time>2023-11-03T04:28:49Z</time></trkpt><trkpt lat="35.7294721" lon="138.8375519"><ele>1546.1499999999999</ele><time>2023-11-03T04:29:06Z</time></trkpt><trkpt lat="35.729527" lon="138.8373382"><ele>1543.3766666666668</ele><time>2023-11-03T04:29:16Z</time></trkpt><trkpt lat="35.7295458" lon="138.8371096"><ele>1539.6466666666668</ele><time>2023-11-03T04:29:32Z</time></trkpt><trkpt lat="35.7296435" lon="138.836923"><ele>1535.8466666666666</ele><time>2023-11-03T04:29:52Z</time></trkpt><trkpt lat="35.7295282" lon="138.8367395"><ele>1534.8400000000001</ele><time>2023-11-03T04:30:08Z</time></trkpt><trkpt lat="35.7293549" lon="138.8368306"><ele>1535.6133333333335</ele><time>2023-11-03T04:30:24Z</time></trkpt><trkpt lat="35.7292042" lon="138.8366972"><ele>1539.5433333333333</ele><time>2023-11-03T04:30:47Z</time></trkpt><trkpt lat="35.7292497" lon="138.8364765"><ele>1543.0733333333335</ele><time>2023-11-03T04:31:00Z</time></trkpt><trkpt lat="35.7291106" lon="138.8363159"><ele>1546.1066666666666</ele><time>2023-11-03T04:31:17Z</time></trkpt><trkpt lat="35.7290324" lon="138.8361056"><ele>1547.7533333333333</ele><time>2023-11-03T04:31:31Z</time></trkpt><trkpt lat="35.7290615" lon="138.8358778"><ele>1547.8700000000001</ele><time>2023-11-03T04:31:45Z</time></trkpt><trkpt lat="35.7290953" lon="138.83565"><ele>1548.2666666666667</ele><time>2023-11-03T04:31:59Z</time></trkpt><trkpt lat="35.7290244" lon="138.8354389"><ele>1544.45</ele><time>2023-11-03T04:32:12Z</time></trkpt><trkpt lat="35.729091" lon="138.8352294"><ele>1540.4733333333334</ele><time>2023-11-03T04:32:25Z</time></trkpt><trkpt lat="35.7290987" lon="138.8350039"><ele>1537.2966666666664</ele><time>2023-11-03T04:33:01Z</time></trkpt><trkpt lat="35.7292269" lon="138.8348337"><ele>1537.5466666666669</ele><time>2023-11-03T04:33:17Z</time></trkpt><trkpt lat="35.7293124" lon="138.834637"><ele>1539.2733333333333</ele><time>2023-11-03T04:33:35Z</time></trkpt><trkpt lat="35.7292734" lon="138.8344038"><ele>1540.8433333333335</ele><time>2023-11-03T04:33:53Z</time></trkpt><trkpt lat="35.7293109" lon="138.8341718"><ele>1545.0200000000002</ele><time>2023-11-03T04:34:05Z</time></trkpt><trkpt lat="35.7293865" lon="138.8339646"><ele>1548.0533333333333</ele><time>2023-11-03T04:34:20Z</time></trkpt><trkpt lat="35.729525" lon="138.8338193"><ele>1552.4366666666667</ele><time>2023-11-03T04:34:48Z</time></trkpt><trkpt lat="35.7296631" lon="138.8336682"><ele>1553.8700000000001</ele><time>2023-11-03T04:35:15Z</time></trkpt><trkpt lat="35.729848" lon="138.8336384"><ele>1556.4533333333336</ele><time>2023-11-03T04:35:30Z</time></trkpt><trkpt lat="35.7299956" lon="138.8335024"><ele>1557.43</ele><time>2023-11-03T04:35:44Z</time></trkpt><trkpt lat="35.7300341" lon="138.8332824"><ele>1559.6866666666665</ele><time>2023-11-03T04:35:59Z</time></trkpt><trkpt lat="35.7301477" lon="138.8330931"><ele>1561.7066666666667</ele><time>2023-11-03T04:36:13Z</time></trkpt><trkpt lat="35.7303021" lon="138.8329637"><ele>1564.9433333333334</ele><time>2023-11-03T04:36:27Z</time></trkpt><trkpt lat="35.7304196" lon="138.8327912"><ele>1566.3433333333332</ele><time>2023-11-03T04:36:46Z</time></trkpt><trkpt lat="35.7306073" lon="138.832822"><ele>1567.2366666666667</ele><time>2023-11-03T04:37:08Z</time></trkpt><trkpt lat="35.7307118" lon="138.8330032"><ele>1569.7733333333333</ele><time>2023-11-03T04:37:25Z</time></trkpt><trkpt lat="35.730891" lon="138.8329606"><ele>1574.3266666666668</ele><time>2023-11-03T04:37:42Z</time></trkpt><trkpt lat="35.7309615" lon="138.8327288"><ele>1576.8100000000002</ele><time>2023-11-03T04:37:55Z</time></trkpt><trkpt lat="35.7311104" lon="138.8325991"><ele>1578.0433333333333</ele><time>2023-11-03T04:38:15Z</time></trkpt><trkpt lat="35.7312807" lon="138.8325256"><ele>1578.6633333333332</ele><time>2023-11-03T04:38:38Z</time></trkpt><trkpt lat="35.7314453" lon="138.832419"><ele>1580.7</ele><time>2023-11-03T04:39:00Z</time></trkpt><trkpt lat="35.7316224" lon="138.8323416"><ele>1583.4399999999998</ele><time>2023-11-03T04:39:15Z</time></trkpt><trkpt lat="35.7318104" lon="138.8323724"><ele>1585.6499999999999</ele><time>2023-11-03T04:39:31Z</time></trkpt><trkpt lat="35.7319712" lon="138.832267"><ele>1586.8133333333335</ele><time>2023-11-03T04:42:35Z</time></trkpt><trkpt lat="35.7317807" lon="138.8322615"><ele>1586.8666666666668</ele><time>2023-11-03T04:42:51Z</time></trkpt><trkpt lat="35.7315938" lon="138.8321905"><ele>1586.6866666666665</ele><time>2023-11-03T04:43:11Z</time></trkpt><trkpt lat="35.7315395" lon="138.8319675"><ele>1587.7733333333333</ele><time>2023-11-03T04:44:04Z</time></trkpt><trkpt lat="35.7317041" lon="138.8320825"><ele>1587.4333333333332</ele><time>2023-11-03T04:44:24Z</time></trkpt><trkpt lat="35.7318341" lon="138.8319257"><ele>1585.716666666667</ele><time>2023-11-03T04:44:42Z</time></trkpt><trkpt lat="35.7320008" lon="138.8320134"><ele>1583.0633333333333</ele><time>2023-11-03T04:44:59Z</time></trkpt><trkpt lat="35.732002" lon="138.8322368"><ele>1582.0466666666669</ele><time>2023-11-03T04:45:13Z</time></trkpt><trkpt lat="35.7321783" lon="138.8323105"><ele>1582.6466666666668</ele><time>2023-11-03T04:45:46Z</time></trkpt><trkpt lat="35.7323669" lon="138.8322364"><ele>1582.6566666666665</ele><time>2023-11-03T04:46:02Z</time></trkpt><trkpt lat="35.7325476" lon="138.8322374"><ele>1579.5199999999998</ele><time>2023-11-03T04:46:59Z</time></trkpt><trkpt lat="35.7327317" lon="138.8322704"><ele>1575.4566666666667</ele><time>2023-11-03T04:47:09Z</time></trkpt><trkpt lat="35.7329123" lon="138.8323044"><ele>1573.9566666666667</ele><time>2023-11-03T04:47:19Z</time></trkpt><trkpt lat="35.7329675" lon="138.8320869"><ele>1574.3799999999999</ele><time>2023-11-03T04:47:31Z</time></trkpt><trkpt lat="35.7329205" lon="138.8318695"><ele>1573.2033333333331</ele><time>2023-11-03T04:47:41Z</time></trkpt><trkpt lat="35.7328339" lon="138.8316614"><ele>1568.5</ele><time>2023-11-03T04:47:54Z</time></trkpt><trkpt lat="35.732965" lon="138.8314953"><ele>1563.4633333333334</ele><time>2023-11-03T04:48:07Z</time></trkpt><trkpt lat="35.7331343" lon="138.8313965"><ele>1560.7666666666667</ele><time>2023-11-03T04:48:19Z</time></trkpt><trkpt lat="35.7332861" lon="138.8312736"><ele>1560.3500000000001</ele><time>2023-11-03T04:48:33Z</time></trkpt><trkpt lat="35.7334583" lon="138.8311809"><ele>1561.4066666666668</ele><time>2023-11-03T04:48:49Z</time></trkpt><trkpt lat="35.7335922" lon="138.8310089"><ele>1560.9800000000002</ele><time>2023-11-03T04:49:04Z</time></trkpt><trkpt lat="35.7337009" lon="138.8308267"><ele>1557.78</ele><time>2023-11-03T04:49:17Z</time></trkpt><trkpt lat="35.7339034" lon="138.8309022"><ele>1553.7933333333333</ele><time>2023-11-03T04:49:21Z</time></trkpt><trkpt lat="35.7340494" lon="138.8310473"><ele>1551.18</ele><time>2023-11-03T04:49:41Z</time></trkpt><trkpt lat="35.7342231" lon="138.8311393"><ele>1555.3066666666666</ele><time>2023-11-03T04:49:59Z</time></trkpt><trkpt lat="35.7343993" lon="138.8310552"><ele>1557.2033333333331</ele><time>2023-11-03T04:50:11Z</time></trkpt><trkpt lat="35.7345699" lon="138.8309653"><ele>1556.5233333333333</ele><time>2023-11-03T04:50:22Z</time></trkpt><trkpt lat="35.7347385" lon="138.8310512"><ele>1554.3133333333335</ele><time>2023-11-03T04:50:28Z</time></trkpt><trkpt lat="35.7348493" lon="138.8308677"><ele>1552.28</ele><time>2023-11-03T04:50:43Z</time></trkpt><trkpt lat="35.7349868" lon="138.8307152"><ele>1550.3966666666668</ele><time>2023-11-03T04:50:55Z</time></trkpt><trkpt lat="35.7350956" lon="138.8305343"><ele>1540.18</ele><time>2023-11-03T04:51:15Z</time></trkpt><trkpt lat="35.7352188" lon="138.8303712"><ele>1529.1966666666667</ele><time>2023-11-03T04:51:31Z</time></trkpt><trkpt lat="35.7352401" lon="138.830145"><ele>1518.4533333333336</ele><time>2023-11-03T04:51:49Z</time></trkpt><trkpt lat="35.7353358" lon="138.829955"><ele>1514.1766666666665</ele><time>2023-11-03T04:52:17Z</time></trkpt><trkpt lat="35.735494" lon="138.8298474"><ele>1512.7133333333334</ele><time>2023-11-03T04:52:40Z</time></trkpt><trkpt lat="35.7355189" lon="138.8296159"><ele>1515.86</ele><time>2023-11-03T04:52:49Z</time></trkpt><trkpt lat="35.735402" lon="138.8294446"><ele>1518.5466666666669</ele><time>2023-11-03T04:53:14Z</time></trkpt><trkpt lat="35.7352235" lon="138.8295088"><ele>1518.3266666666666</ele><time>2023-11-03T04:53:50Z</time></trkpt><trkpt lat="35.7350777" lon="138.829647"><ele>1513.1933333333334</ele><time>2023-11-03T04:54:05Z</time></trkpt><trkpt lat="35.7351494" lon="138.8294431"><ele>1507.7</ele><time>2023-11-03T04:54:35Z</time></trkpt><trkpt lat="35.734964" lon="138.8294929"><ele>1501.3266666666666</ele><time>2023-11-03T04:55:28Z</time></trkpt><trkpt lat="35.7349719" lon="138.8292718"><ele>1493.986666666667</ele><time>2023-11-03T04:55:47Z</time></trkpt><trkpt lat="35.7350963" lon="138.8291097"><ele>1485.6166666666668</ele><time>2023-11-03T04:56:14Z</time></trkpt><trkpt lat="35.7351725" lon="138.8289077"><ele>1479.67</ele><time>2023-11-03T04:56:27Z</time></trkpt><trkpt lat="35.735268" lon="138.8287131"><ele>1476.5033333333333</ele><time>2023-11-03T04:56:41Z</time></trkpt><trkpt lat="35.7352013" lon="138.8285044"><ele>1473.4866666666667</ele><time>2023-11-03T04:57:20Z</time></trkpt><trkpt lat="35.735062" lon="138.8283611"><ele>1468.1966666666667</ele><time>2023-11-03T04:58:03Z</time></trkpt><trkpt lat="35.7352113" lon="138.8282273"><ele>1465.0900000000001</ele><time>2023-11-03T04:58:23Z</time></trkpt><trkpt lat="35.7353777" lon="138.8281024"><ele>1459.6499999999999</ele><time>2023-11-03T04:58:38Z</time></trkpt><trkpt lat="35.7352405" lon="138.8279257"><ele>1457.2033333333336</ele><time>2023-11-03T04:58:59Z</time></trkpt><trkpt lat="35.7353697" lon="138.8277394"><ele>1450.97</ele><time>2023-11-03T04:59:24Z</time></trkpt><trkpt lat="35.7353782" lon="138.8275168"><ele>1446.3700000000001</ele><time>2023-11-03T05:00:16Z</time></trkpt><trkpt lat="35.7355509" lon="138.8274461"><ele>1440.3933333333334</ele><time>2023-11-03T05:00:30Z</time></trkpt><trkpt lat="35.735721" lon="138.8275403"><ele>1436.5133333333333</ele><time>2023-11-03T05:00:55Z</time></trkpt><trkpt lat="35.7357134" lon="138.8273015"><ele>1432.5199999999998</ele><time>2023-11-03T05:02:04Z</time></trkpt><trkpt lat="35.7358978" lon="138.8273223"><ele>1428.88</ele><time>2023-11-03T05:02:15Z</time></trkpt><trkpt lat="35.7357552" lon="138.8271774"><ele>1424.1899999999998</ele><time>2023-11-03T05:02:40Z</time></trkpt><trkpt lat="35.7359205" lon="138.8270447"><ele>1419.82</ele><time>2023-11-03T05:03:19Z</time></trkpt><trkpt lat="35.736106" lon="138.8270956"><ele>1416.24</ele><time>2023-11-03T05:03:36Z</time></trkpt><trkpt lat="35.7362864" lon="138.8271206"><ele>1408.6666666666667</ele><time>2023-11-03T05:04:12Z</time></trkpt><trkpt lat="35.7363738" lon="138.8269229"><ele>1404.8266666666666</ele><time>2023-11-03T05:04:38Z</time></trkpt><trkpt lat="35.7365568" lon="138.8269159"><ele>1399.0666666666668</ele><time>2023-11-03T05:04:51Z</time></trkpt><trkpt lat="35.7367406" lon="138.826928"><ele>1396.2733333333333</ele><time>2023-11-03T05:04:58Z</time></trkpt><trkpt lat="35.7368051" lon="138.8267114"><ele>1392.6933333333334</ele><time>2023-11-03T05:05:10Z</time></trkpt><trkpt lat="35.7369598" lon="138.8265912"><ele>1391.0666666666666</ele><time>2023-11-03T05:05:24Z</time></trkpt><trkpt lat="35.7371438" lon="138.8265606"><ele>1389.8833333333332</ele><time>2023-11-03T05:05:39Z</time></trkpt><trkpt lat="35.7371897" lon="138.8263405"><ele>1387.22</ele><time>2023-11-03T05:05:58Z</time></trkpt><trkpt lat="35.7372842" lon="138.8261488"><ele>1382.0333333333335</ele><time>2023-11-03T05:06:15Z</time></trkpt><trkpt lat="35.7374462" lon="138.8262493"><ele>1378.45</ele><time>2023-11-03T05:06:29Z</time></trkpt><trkpt lat="35.7375529" lon="138.8260563"><ele>1373.6733333333334</ele><time>2023-11-03T05:06:46Z</time></trkpt><trkpt lat="35.7376541" lon="138.8258727"><ele>1371.5199999999998</ele><time>2023-11-03T05:07:00Z</time></trkpt><trkpt lat="35.7378279" lon="138.8257868"><ele>1367.8066666666666</ele><time>2023-11-03T05:07:17Z</time></trkpt><trkpt lat="35.738003" lon="138.8257113"><ele>1362.89</ele><time>2023-11-03T05:07:40Z</time></trkpt><trkpt lat="35.7381266" lon="138.8255252"><ele>1357.7966666666669</ele><time>2023-11-03T05:07:52Z</time></trkpt><trkpt lat="35.7381388" lon="138.8252998"><ele>1357.1333333333334</ele><time>2023-11-03T05:08:06Z</time></trkpt><trkpt lat="35.7382194" lon="138.8250929"><ele>1358.5433333333333</ele><time>2023-11-03T05:08:22Z</time></trkpt><trkpt lat="35.7383664" lon="138.8249607"><ele>1358.4333333333334</ele><time>2023-11-03T05:08:37Z</time></trkpt><trkpt lat="35.7384983" lon="138.8248098"><ele>1353.6733333333334</ele><time>2023-11-03T05:08:53Z</time></trkpt><trkpt lat="35.7385089" lon="138.8245849"><ele>1346.84</ele><time>2023-11-03T05:09:47Z</time></trkpt><trkpt lat="35.7386482" lon="138.8244287"><ele>1339.7433333333336</ele><time>2023-11-03T05:10:20Z</time></trkpt><trkpt lat="35.7387962" lon="138.8243021"><ele>1332.34</ele><time>2023-11-03T05:10:41Z</time></trkpt><trkpt lat="35.7388306" lon="138.8240837"><ele>1326.7666666666667</ele><time>2023-11-03T05:10:58Z</time></trkpt><trkpt lat="35.738979" lon="138.8239557"><ele>1322.993333333333</ele><time>2023-11-03T05:11:18Z</time></trkpt><trkpt lat="35.7391923" lon="138.8238947"><ele>1317.3133333333333</ele><time>2023-11-03T05:11:40Z</time></trkpt><trkpt lat="35.7391578" lon="138.8236444"><ele>1313.0400000000002</ele><time>2023-11-03T05:12:06Z</time></trkpt><trkpt lat="35.7392275" lon="138.8234186"><ele>1306.7833333333335</ele><time>2023-11-03T05:13:00Z</time></trkpt><trkpt lat="35.7393444" lon="138.8232481"><ele>1302.0466666666666</ele><time>2023-11-03T05:13:12Z</time></trkpt><trkpt lat="35.7395298" lon="138.8231949"><ele>1295.1000000000001</ele><time>2023-11-03T05:13:36Z</time></trkpt><trkpt lat="35.7395987" lon="138.8229864"><ele>1290.7433333333333</ele><time>2023-11-03T05:13:50Z</time></trkpt><trkpt lat="35.7396949" lon="138.8227957"><ele>1288.11</ele><time>2023-11-03T05:14:03Z</time></trkpt><trkpt lat="35.7397652" lon="138.8225905"><ele>1286.4066666666668</ele><time>2023-11-03T05:14:18Z</time></trkpt><trkpt lat="35.7398865" lon="138.8224173"><ele>1284.68</ele><time>2023-11-03T05:14:33Z</time></trkpt><trkpt lat="35.7399841" lon="138.8222258"><ele>1283.46</ele><time>2023-11-03T05:14:47Z</time></trkpt><trkpt lat="35.7398816" lon="138.822035"><ele>1280.1499999999999</ele><time>2023-11-03T05:15:15Z</time></trkpt><trkpt lat="35.7398961" lon="138.8218103"><ele>1276.3466666666666</ele><time>2023-11-03T05:15:30Z</time></trkpt><trkpt lat="35.7400031" lon="138.8216314"><ele>1268.9466666666667</ele><time>2023-11-03T05:15:45Z</time></trkpt><trkpt lat="35.7401834" lon="138.8215945"><ele>1261.4933333333336</ele><time>2023-11-03T05:16:16Z</time></trkpt><trkpt lat="35.7403484" lon="138.8215033"><ele>1254.1166666666668</ele><time>2023-11-03T05:16:30Z</time></trkpt><trkpt lat="35.7404766" lon="138.8213363"><ele>1249.51</ele><time>2023-11-03T05:17:01Z</time></trkpt><trkpt lat="35.740629" lon="138.8212085"><ele>1245.8266666666666</ele><time>2023-11-03T05:17:32Z</time></trkpt><trkpt lat="35.7407484" lon="138.8210425"><ele>1238.21</ele><time>2023-11-03T05:18:56Z</time></trkpt><trkpt lat="35.7408863" lon="138.8208798"><ele>1227.1066666666668</ele><time>2023-11-03T05:19:21Z</time></trkpt><trkpt lat="35.7407632" lon="138.820716"><ele>1221.7466666666667</ele><time>2023-11-03T05:19:37Z</time></trkpt><trkpt lat="35.7409239" lon="138.8206146"><ele>1218.05</ele><time>2023-11-03T05:20:06Z</time></trkpt><trkpt lat="35.7409979" lon="138.8203994"><ele>1218.2299999999998</ele><time>2023-11-03T05:20:22Z</time></trkpt><trkpt lat="35.7410535" lon="138.8201807"><ele>1212.9433333333334</ele><time>2023-11-03T05:20:57Z</time></trkpt><trkpt lat="35.7410726" lon="138.8199552"><ele>1209.4233333333334</ele><time>2023-11-03T05:21:17Z</time></trkpt><trkpt lat="35.7409192" lon="138.8198373"><ele>1206.2833333333335</ele><time>2023-11-03T05:21:49Z</time></trkpt><trkpt lat="35.7410253" lon="138.819653"><ele>1202.9733333333334</ele><time>2023-11-03T05:22:22Z</time></trkpt><trkpt lat="35.7411919" lon="138.8195627"><ele>1197.5733333333333</ele><time>2023-11-03T05:22:37Z</time></trkpt><trkpt lat="35.7413601" lon="138.8196521"><ele>1189.5266666666666</ele><time>2023-11-03T05:23:00Z</time></trkpt><trkpt lat="35.7413743" lon="138.819431"><ele>1182.3933333333334</ele><time>2023-11-03T05:23:16Z</time></trkpt><trkpt lat="35.7412098" lon="138.8193288"><ele>1181.0433333333333</ele><time>2023-11-03T05:23:31Z</time></trkpt><trkpt lat="35.7410236" lon="138.8193484"><ele>1182.9400000000003</ele><time>2023-11-03T05:23:46Z</time></trkpt><trkpt lat="35.7408731" lon="138.8194724"><ele>1186.63</ele><time>2023-11-03T05:24:16Z</time></trkpt><trkpt lat="35.7406931" lon="138.8194241"><ele>1182.72</ele><time>2023-11-03T05:24:31Z</time></trkpt><trkpt lat="35.7405071" lon="138.819469"><ele>1175.72</ele><time>2023-11-03T05:25:10Z</time></trkpt><trkpt lat="35.7404412" lon="138.8196788"><ele>1170.19</ele><time>2023-11-03T05:25:25Z</time></trkpt><trkpt lat="35.7403254" lon="138.8195088"><ele>1165.2866666666666</ele><time>2023-11-03T05:26:40Z</time></trkpt><trkpt lat="35.740137" lon="138.8194591"><ele>1159.3066666666666</ele><time>2023-11-03T05:27:39Z</time></trkpt><trkpt lat="35.7401749" lon="138.8192354"><ele>1149.7033333333331</ele><time>2023-11-03T05:28:03Z</time></trkpt><trkpt lat="35.7403315" lon="138.8190918"><ele>1142.4399999999998</ele><time>2023-11-03T05:28:15Z</time></trkpt><trkpt lat="35.7404377" lon="138.81891"><ele>1138.0433333333333</ele><time>2023-11-03T05:28:25Z</time></trkpt><trkpt lat="35.7405046" lon="138.8186936"><ele>1134.7066666666667</ele><time>2023-11-03T05:28:39Z</time></trkpt><trkpt lat="35.7405363" lon="138.8184757"><ele>1130.4833333333333</ele><time>2023-11-03T05:29:20Z</time></trkpt><trkpt lat="35.7406708" lon="138.818323"><ele>1128.5666666666666</ele><time>2023-11-03T05:29:30Z</time></trkpt><trkpt lat="35.7408058" lon="138.8181656"><ele>1126.2866666666666</ele><time>2023-11-03T05:29:46Z</time></trkpt><trkpt lat="35.7408245" lon="138.8179353"><ele>1123.5600000000002</ele><time>2023-11-03T05:30:00Z</time></trkpt><trkpt lat="35.7408138" lon="138.8177003"><ele>1115.5033333333333</ele><time>2023-11-03T05:30:11Z</time></trkpt><trkpt lat="35.7409842" lon="138.8175984"><ele>1106.3566666666668</ele><time>2023-11-03T05:30:30Z</time></trkpt><trkpt lat="35.7411242" lon="138.817743"><ele>1101.506666666667</ele><time>2023-11-03T05:30:45Z</time></trkpt><trkpt lat="35.7412894" lon="138.8176294"><ele>1102.2333333333333</ele><time>2023-11-03T05:33:15Z</time></trkpt><trkpt lat="35.7413446" lon="138.817414"><ele>1104.8466666666666</ele><time>2023-11-03T05:33:26Z</time></trkpt><trkpt lat="35.7411656" lon="138.8173821"><ele>1105.6166666666666</ele><time>2023-11-03T05:33:55Z</time></trkpt><trkpt lat="35.7411304" lon="138.8171548"><ele>1104.8233333333335</ele><time>2023-11-03T05:34:05Z</time></trkpt><trkpt lat="35.7410225" lon="138.8169458"><ele>1102.4833333333333</ele><time>2023-11-03T05:34:22Z</time></trkpt><trkpt lat="35.7408913" lon="138.8167759"><ele>1099.3866666666668</ele><time>2023-11-03T05:34:44Z</time></trkpt><trkpt lat="35.7409007" lon="138.816541"><ele>1095.8533333333332</ele><time>2023-11-03T05:34:53Z</time></trkpt><trkpt lat="35.7408377" lon="138.8163117"><ele>1092.1366666666665</ele><time>2023-11-03T05:35:24Z</time></trkpt><trkpt lat="35.7407755" lon="138.816092"><ele>1089.5966666666666</ele><time>2023-11-03T05:35:35Z</time></trkpt><trkpt lat="35.7407813" lon="138.8158683"><ele>1088.9066666666668</ele><time>2023-11-03T05:35:44Z</time></trkpt><trkpt lat="35.7407959" lon="138.8156479"><ele>1089.3433333333332</ele><time>2023-11-03T05:35:50Z</time></trkpt><trkpt lat="35.7406929" lon="138.8154559"><ele>1088.5966666666666</ele><time>2023-11-03T05:36:03Z</time></trkpt><trkpt lat="35.7406184" lon="138.8152488"><ele>1085.5133333333333</ele><time>2023-11-03T05:36:18Z</time></trkpt><trkpt lat="35.7405383" lon="138.8150463"><ele>1081.4066666666668</ele><time>2023-11-03T05:36:30Z</time></trkpt><trkpt lat="35.740468" lon="138.8148381"><ele>1078.0833333333333</ele><time>2023-11-03T05:36:43Z</time></trkpt><trkpt lat="35.7403864" lon="138.8146241"><ele>1074.07</ele><time>2023-11-03T05:36:57Z</time></trkpt><trkpt lat="35.7403605" lon="138.8144011"><ele>1069.5666666666666</ele><time>2023-11-03T05:37:13Z</time></trkpt><trkpt lat="35.7403304" lon="138.8141722"><ele>1065.2133333333334</ele><time>2023-11-03T05:37:28Z</time></trkpt><trkpt lat="35.7403171" lon="138.8139496"><ele>1061.0733333333335</ele><time>2023-11-03T05:37:47Z</time></trkpt><trkpt lat="35.7403199" lon="138.8137278"><ele>1058.6466666666668</ele><time>2023-11-03T05:38:03Z</time></trkpt><trkpt lat="35.7404284" lon="138.8135506"><ele>1057.966666666667</ele><time>2023-11-03T05:38:22Z</time></trkpt><trkpt lat="35.7402747" lon="138.813425"><ele>1056.5533333333335</ele><time>2023-11-03T05:38:39Z</time></trkpt><trkpt lat="35.7402025" lon="138.8132218"><ele>1054.1066666666666</ele><time>2023-11-03T05:38:52Z</time></trkpt><trkpt lat="35.7401723" lon="138.8129936"><ele>1050.0233333333333</ele><time>2023-11-03T05:39:05Z</time></trkpt><trkpt lat="35.7400714" lon="138.8127999"><ele>1047.1233333333334</ele><time>2023-11-03T05:39:15Z</time></trkpt><trkpt lat="35.7400731" lon="138.8125658"><ele>1043.3566666666666</ele><time>2023-11-03T05:39:30Z</time></trkpt><trkpt lat="35.7400706" lon="138.8123442"><ele>1039.7533333333333</ele><time>2023-11-03T05:39:42Z</time></trkpt><trkpt lat="35.7401031" lon="138.8121013"><ele>1036.8333333333333</ele><time>2023-11-03T05:39:55Z</time></trkpt><trkpt lat="35.7401401" lon="138.811861"><ele>1035.53</ele><time>2023-11-03T05:40:04Z</time></trkpt><trkpt lat="35.7402252" lon="138.8116654"><ele>1033.2366666666667</ele><time>2023-11-03T05:40:19Z</time></trkpt><trkpt lat="35.7402838" lon="138.8114416"><ele>1029.243333333333</ele><time>2023-11-03T05:40:43Z</time></trkpt><trkpt lat="35.7402817" lon="138.8112124"><ele>1020.6633333333334</ele><time>2023-11-03T05:40:55Z</time></trkpt><trkpt lat="35.7401998" lon="138.811001"><ele>1012.6300000000001</ele><time>2023-11-03T05:41:07Z</time></trkpt><trkpt lat="35.7400648" lon="138.8108419"><ele>1008.8533333333334</ele><time>2023-11-03T05:41:17Z</time></trkpt><trkpt lat="35.7398958" lon="138.8109453"><ele>1012.5333333333334</ele><time>2023-11-03T05:41:37Z</time></trkpt><trkpt lat="35.739916" lon="138.8111697"><ele>1017.5266666666666</ele><time>2023-11-03T05:41:48Z</time></trkpt><trkpt lat="35.7398053" lon="138.8109938"><ele>1018.9699999999999</ele><time>2023-11-03T05:42:10Z</time></trkpt><trkpt lat="35.7398391" lon="138.8107764"><ele>1017.2133333333333</ele><time>2023-11-03T05:42:20Z</time></trkpt><trkpt lat="35.7398657" lon="138.8105527"><ele>1013.3233333333334</ele><time>2023-11-03T05:42:34Z</time></trkpt><trkpt lat="35.7399373" lon="138.8103387"><ele>1008.8133333333334</ele><time>2023-11-03T05:42:49Z</time></trkpt><trkpt lat="35.7397834" lon="138.8104863"><ele>1005.8133333333334</ele><time>2023-11-03T05:43:10Z</time></trkpt><trkpt lat="35.7396569" lon="138.8106534"><ele>1003.85</ele><time>2023-11-03T05:43:15Z</time></trkpt><trkpt lat="35.739534" lon="138.8104717"><ele>1001.44</ele><time>2023-11-03T05:43:21Z</time></trkpt><trkpt lat="35.7395622" lon="138.8102455"><ele>998.3000000000001</ele><time>2023-11-03T05:43:25Z</time></trkpt><trkpt lat="35.7395924" lon="138.8100204"><ele>994.07</ele><time>2023-11-03T05:43:29Z</time></trkpt><trkpt lat="35.7396179" lon="138.8097988"><ele>991.85</ele><time>2023-11-03T05:43:35Z</time></trkpt><trkpt lat="35.7396782" lon="138.8095739"><ele>988.4700000000001</ele><time>2023-11-03T05:43:45Z</time></trkpt><trkpt lat="35.7397454" lon="138.8093677"><ele>986.5166666666668</ele><time>2023-11-03T05:43:55Z</time></trkpt><trkpt lat="35.7396699" lon="138.8091608"><ele>983.4466666666667</ele><time>2023-11-03T05:44:11Z</time></trkpt><trkpt lat="35.7397429" lon="138.8089483"><ele>979.9466666666667</ele><time>2023-11-03T05:44:23Z</time></trkpt><trkpt lat="35.7397405" lon="138.808725"><ele>975.0266666666666</ele><time>2023-11-03T05:44:32Z</time></trkpt><trkpt lat="35.7395597" lon="138.8087764"><ele>972.75</ele><time>2023-11-03T05:44:47Z</time></trkpt><trkpt lat="35.7393769" lon="138.8087592"><ele>971.21</ele><time>2023-11-03T05:44:57Z</time></trkpt><trkpt lat="35.7393649" lon="138.8085327"><ele>970.1300000000001</ele><time>2023-11-03T05:45:03Z</time></trkpt><trkpt lat="35.7393822" lon="138.8083099"><ele>967.1133333333333</ele><time>2023-11-03T05:45:08Z</time></trkpt><trkpt lat="35.7394188" lon="138.8080878"><ele>964.89</ele><time>2023-11-03T05:45:15Z</time></trkpt><trkpt lat="35.7393888" lon="138.8078693"><ele>963.2833333333333</ele><time>2023-11-03T05:45:22Z</time></trkpt><trkpt lat="35.7393737" lon="138.8076262"><ele>962.19</ele><time>2023-11-03T05:45:27Z</time></trkpt><trkpt lat="35.7393162" lon="138.8074054"><ele>960.6899999999999</ele><time>2023-11-03T05:45:33Z</time></trkpt><trkpt lat="35.7392343" lon="138.80719"><ele>959.1433333333334</ele><time>2023-11-03T05:45:39Z</time></trkpt><trkpt lat="35.7391492" lon="138.8069873"><ele>957.1433333333333</ele><time>2023-11-03T05:45:46Z</time></trkpt><trkpt lat="35.7390918" lon="138.8067758"><ele>954.61</ele><time>2023-11-03T05:45:52Z</time></trkpt><trkpt lat="35.7390546" lon="138.8065569"><ele>952.0500000000001</ele><time>2023-11-03T05:46:06Z</time></trkpt><trkpt lat="35.7389982" lon="138.8063374"><ele>951.2666666666668</ele><time>2023-11-03T05:46:17Z</time></trkpt><trkpt lat="35.7389268" lon="138.8061333"><ele>951.0833333333334</ele><time>2023-11-03T05:46:28Z</time></trkpt><trkpt lat="35.7388453" lon="138.8059288"><ele>949.0200000000001</ele><time>2023-11-03T05:46:38Z</time></trkpt><trkpt lat="35.7387581" lon="138.80573"><ele>945.4866666666667</ele><time>2023-11-03T05:46:53Z</time></trkpt><trkpt lat="35.7387072" lon="138.8055077"><ele>941.0933333333332</ele><time>2023-11-03T05:47:02Z</time></trkpt><trkpt lat="35.7387106" lon="138.8052717"><ele>939.5466666666666</ele><time>2023-11-03T05:47:14Z</time></trkpt><trkpt lat="35.7386084" lon="138.8050323"><ele>936.4566666666668</ele><time>2023-11-03T05:47:36Z</time></trkpt><trkpt lat="35.7385809" lon="138.8048005"><ele>935.6433333333334</ele><time>2023-11-03T05:47:44Z</time></trkpt><trkpt lat="35.7385098" lon="138.8045922"><ele>933.86</ele><time>2023-11-03T05:47:55Z</time></trkpt><trkpt lat="35.7384471" lon="138.8043618"><ele>932.2633333333333</ele><time>2023-11-03T05:48:06Z</time></trkpt><trkpt lat="35.7383936" lon="138.8041331"><ele>926.7433333333335</ele><time>2023-11-03T05:48:15Z</time></trkpt><trkpt lat="35.7383115" lon="138.8039271"><ele>920.8266666666667</ele><time>2023-11-03T05:48:26Z</time></trkpt><trkpt lat="35.7382533" lon="138.803715"><ele>915.32</ele><time>2023-11-03T05:48:35Z</time></trkpt><trkpt lat="35.738261" lon="138.8034896"><ele>911.2433333333335</ele><time>2023-11-03T05:48:47Z</time></trkpt><trkpt lat="35.7382458" lon="138.8032587"><ele>908.0433333333334</ele><time>2023-11-03T05:48:58Z</time></trkpt><trkpt lat="35.738315" lon="138.8030484"><ele>906.3833333333333</ele><time>2023-11-03T05:49:11Z</time></trkpt><trkpt lat="35.7383931" lon="138.8028424"><ele>904.5233333333334</ele><time>2023-11-03T05:49:21Z</time></trkpt><trkpt lat="35.7383473" lon="138.8026217"><ele>901.0333333333333</ele><time>2023-11-03T05:49:38Z</time></trkpt><trkpt lat="35.7383677" lon="138.8024002"><ele>897.6433333333333</ele><time>2023-11-03T05:49:53Z</time></trkpt><trkpt lat="35.7384506" lon="138.8021964"><ele>895.7666666666668</ele><time>2023-11-03T05:50:02Z</time></trkpt><trkpt lat="35.7384945" lon="138.8019815"><ele>895.3699999999999</ele><time>2023-11-03T05:50:13Z</time></trkpt></trkseg></trk></gpx>