<?xml version='1.0' encoding='UTF-8'?><gpx creator="YAMAP - https://yamap.com" xsi:schemaLocation="http://www.topografix.com/GPX/1/1 http://www.topografix.com/GPX/1/1/gpx.xsd" version="1.1" xmlns="http://www.topografix.com/GPX/1/1" xmlns:xsi="http://www.w3.org/2001/XMLSchema-instance"><metadata><bounds maxlat="35.8552798" maxlon="139.1285604" minlat="35.8148347" minlon="139.0762069"/></metadata><trk><name>川苔山</name><number>1</number><trkseg><trkpt lat="35.8318569" lon="139.0762069"><ele>420.6</ele><time>2024-10-18T23:45:17Z</time></trkpt><trkpt lat="35.8319752" lon="139.0764152"><ele>422.01</ele><time>2024-10-18T23:45:35Z</time></trkpt><trkpt lat="35.8319933" lon="139.0766436"><ele>422.08666666666664</ele><time>2024-10-18T23:45:56Z</time></trkpt><trkpt lat="35.8319253" lon="139.0768793"><ele>421.78000000000003</ele><time>2024-10-18T23:46:17Z</time></trkpt><trkpt lat="35.8319734" lon="139.0771255"><ele>423.60666666666674</ele><time>2024-10-18T23:46:41Z</time></trkpt><trkpt lat="35.8319868" lon="139.0773581"><ele>427.0133333333333</ele><time>2024-10-18T23:46:56Z</time></trkpt><trkpt lat="35.8319262" lon="139.0775674"><ele>429.0066666666667</ele><time>2024-10-18T23:47:14Z</time></trkpt><trkpt lat="35.8319814" lon="139.0777843"><ele>428.35666666666674</ele><time>2024-10-18T23:47:53Z</time></trkpt><trkpt lat="35.8321784" lon="139.0778834"><ele>427.76</ele><time>2024-10-18T23:48:08Z</time></trkpt><trkpt lat="35.832366" lon="139.0778302"><ele>430.16</ele><time>2024-10-18T23:48:32Z</time></trkpt><trkpt lat="35.8325592" lon="139.0778671"><ele>432.1766666666667</ele><time>2024-10-18T23:48:49Z</time></trkpt><trkpt lat="35.8327508" lon="139.0778572"><ele>431.07</ele><time>2024-10-18T23:49:07Z</time></trkpt><trkpt lat="35.8328769" lon="139.077689"><ele>434.3666666666666</ele><time>2024-10-18T23:49:25Z</time></trkpt><trkpt lat="35.8330561" lon="139.077649"><ele>440.20666666666665</ele><time>2024-10-18T23:49:46Z</time></trkpt><trkpt lat="35.8331906" lon="139.077824"><ele>447.4066666666667</ele><time>2024-10-18T23:50:10Z</time></trkpt><trkpt lat="35.8332445" lon="139.0780784"><ele>449.31</ele><time>2024-10-18T23:50:25Z</time></trkpt><trkpt lat="35.8333112" lon="139.0782974"><ele>449.96000000000004</ele><time>2024-10-18T23:50:40Z</time></trkpt><trkpt lat="35.8335082" lon="139.0782554"><ele>452.4766666666667</ele><time>2024-10-18T23:50:55Z</time></trkpt><trkpt lat="35.8336892" lon="139.0782581"><ele>456.7</ele><time>2024-10-18T23:51:10Z</time></trkpt><trkpt lat="35.8338487" lon="139.0783647"><ele>460.81</ele><time>2024-10-18T23:51:25Z</time></trkpt><trkpt lat="35.8339777" lon="139.0785591"><ele>464.43666666666667</ele><time>2024-10-18T23:51:40Z</time></trkpt><trkpt lat="35.834119" lon="139.0787283"><ele>468.18666666666667</ele><time>2024-10-18T23:51:55Z</time></trkpt><trkpt lat="35.83429" lon="139.0788444"><ele>473.93333333333334</ele><time>2024-10-18T23:52:13Z</time></trkpt><trkpt lat="35.8344537" lon="139.0789694"><ele>476.33666666666676</ele><time>2024-10-18T23:52:28Z</time></trkpt><trkpt lat="35.8345248" lon="139.0791856"><ele>476.74333333333334</ele><time>2024-10-18T23:52:46Z</time></trkpt><trkpt lat="35.8344418" lon="139.0794136"><ele>471.28333333333336</ele><time>2024-10-18T23:52:58Z</time></trkpt><trkpt lat="35.8343388" lon="139.0796589"><ele>468.3866666666667</ele><time>2024-10-18T23:53:10Z</time></trkpt><trkpt lat="35.8343206" lon="139.0798882"><ele>466.11666666666673</ele><time>2024-10-18T23:53:28Z</time></trkpt><trkpt lat="35.8345309" lon="139.0798593"><ele>468.41</ele><time>2024-10-18T23:53:49Z</time></trkpt><trkpt lat="35.8347098" lon="139.0798244"><ele>471.1666666666667</ele><time>2024-10-18T23:54:07Z</time></trkpt><trkpt lat="35.8349174" lon="139.0798397"><ele>474.8066666666667</ele><time>2024-10-18T23:54:19Z</time></trkpt><trkpt lat="35.8350938" lon="139.0798855"><ele>478.2066666666667</ele><time>2024-10-18T23:54:34Z</time></trkpt><trkpt lat="35.8352336" lon="139.0800367"><ele>484.08666666666664</ele><time>2024-10-18T23:54:55Z</time></trkpt><trkpt lat="35.8353311" lon="139.0802457"><ele>489.6066666666666</ele><time>2024-10-18T23:55:10Z</time></trkpt><trkpt lat="35.8354306" lon="139.0804413"><ele>494.78333333333336</ele><time>2024-10-18T23:55:30Z</time></trkpt><trkpt lat="35.8356225" lon="139.0804775"><ele>493.93</ele><time>2024-10-18T23:55:47Z</time></trkpt><trkpt lat="35.8358334" lon="139.0804224"><ele>491.50666666666666</ele><time>2024-10-18T23:56:03Z</time></trkpt><trkpt lat="35.8359736" lon="139.0802688"><ele>489.24</ele><time>2024-10-18T23:56:24Z</time></trkpt><trkpt lat="35.83617" lon="139.0801965"><ele>492.72</ele><time>2024-10-18T23:56:41Z</time></trkpt><trkpt lat="35.836372" lon="139.080158"><ele>495.61666666666673</ele><time>2024-10-18T23:56:56Z</time></trkpt><trkpt lat="35.836549" lon="139.0800421"><ele>500.24666666666667</ele><time>2024-10-18T23:57:11Z</time></trkpt><trkpt lat="35.8367283" lon="139.0801286"><ele>503.49333333333334</ele><time>2024-10-18T23:57:27Z</time></trkpt><trkpt lat="35.8368812" lon="139.080264"><ele>511.47666666666663</ele><time>2024-10-18T23:57:45Z</time></trkpt><trkpt lat="35.8370435" lon="139.0804239"><ele>518.0766666666667</ele><time>2024-10-18T23:58:00Z</time></trkpt><trkpt lat="35.8371525" lon="139.0806478"><ele>519.2266666666666</ele><time>2024-10-18T23:58:18Z</time></trkpt><trkpt lat="35.8373614" lon="139.0806608"><ele>519.28</ele><time>2024-10-18T23:58:48Z</time></trkpt><trkpt lat="35.8375259" lon="139.0807742"><ele>517.6833333333333</ele><time>2024-10-18T23:59:03Z</time></trkpt><trkpt lat="35.8377237" lon="139.0808218"><ele>520.9233333333333</ele><time>2024-10-18T23:59:17Z</time></trkpt><trkpt lat="35.8379162" lon="139.0809541"><ele>521.58</ele><time>2024-10-18T23:59:34Z</time></trkpt><trkpt lat="35.8380188" lon="139.0812055"><ele>518.5866666666666</ele><time>2024-10-18T23:59:49Z</time></trkpt><trkpt lat="35.838095" lon="139.0814238"><ele>517.8499999999999</ele><time>2024-10-19T00:00:05Z</time></trkpt><trkpt lat="35.8381425" lon="139.0816749"><ele>519.1366666666667</ele><time>2024-10-19T00:00:21Z</time></trkpt><trkpt lat="35.8380899" lon="139.0818983"><ele>520.25</ele><time>2024-10-19T00:00:30Z</time></trkpt><trkpt lat="35.8379956" lon="139.0820956"><ele>515.46</ele><time>2024-10-19T00:00:39Z</time></trkpt><trkpt lat="35.8380119" lon="139.0823417"><ele>508.6566666666667</ele><time>2024-10-19T00:00:54Z</time></trkpt><trkpt lat="35.838151" lon="139.0824961"><ele>507.83666666666664</ele><time>2024-10-19T00:01:09Z</time></trkpt><trkpt lat="35.8381848" lon="139.0827224"><ele>506.34999999999997</ele><time>2024-10-19T00:01:33Z</time></trkpt><trkpt lat="35.8381496" lon="139.0829579"><ele>505.77666666666664</ele><time>2024-10-19T00:01:45Z</time></trkpt><trkpt lat="35.8382157" lon="139.0831674"><ele>507.7333333333333</ele><time>2024-10-19T00:01:57Z</time></trkpt><trkpt lat="35.8381957" lon="139.0834473"><ele>509.60999999999996</ele><time>2024-10-19T00:02:15Z</time></trkpt><trkpt lat="35.8382485" lon="139.0836968"><ele>511.2933333333333</ele><time>2024-10-19T00:02:30Z</time></trkpt><trkpt lat="35.8383243" lon="139.0839375"><ele>509.4466666666667</ele><time>2024-10-19T00:02:48Z</time></trkpt><trkpt lat="35.8382742" lon="139.0841576"><ele>511.21333333333337</ele><time>2024-10-19T00:03:00Z</time></trkpt><trkpt lat="35.8383327" lon="139.0843988"><ele>513.8633333333333</ele><time>2024-10-19T00:03:15Z</time></trkpt><trkpt lat="35.8384439" lon="139.0845974"><ele>518.2633333333333</ele><time>2024-10-19T00:03:33Z</time></trkpt><trkpt lat="35.8384308" lon="139.0848318"><ele>521.6833333333333</ele><time>2024-10-19T00:03:48Z</time></trkpt><trkpt lat="35.8384514" lon="139.0850533"><ele>522.9766666666666</ele><time>2024-10-19T00:04:03Z</time></trkpt><trkpt lat="35.8384979" lon="139.0853182"><ele>522.9966666666668</ele><time>2024-10-19T00:04:18Z</time></trkpt><trkpt lat="35.838505" lon="139.0855709"><ele>524.86</ele><time>2024-10-19T00:04:41Z</time></trkpt><trkpt lat="35.8384894" lon="139.0858101"><ele>529.74</ele><time>2024-10-19T00:04:55Z</time></trkpt><trkpt lat="35.8385031" lon="139.0860618"><ele>535.37</ele><time>2024-10-19T00:05:10Z</time></trkpt><trkpt lat="35.8385543" lon="139.0862778"><ele>544.2233333333334</ele><time>2024-10-19T00:05:25Z</time></trkpt><trkpt lat="35.8385881" lon="139.0865094"><ele>550.0866666666667</ele><time>2024-10-19T00:05:43Z</time></trkpt><trkpt lat="35.8386756" lon="139.086716"><ele>555.17</ele><time>2024-10-19T00:05:57Z</time></trkpt><trkpt lat="35.838851" lon="139.0868425"><ele>561.9433333333334</ele><time>2024-10-19T00:06:17Z</time></trkpt><trkpt lat="35.8390037" lon="139.0870332"><ele>571.9366666666666</ele><time>2024-10-19T00:06:33Z</time></trkpt><trkpt lat="35.8390942" lon="139.0872458"><ele>579.4766666666666</ele><time>2024-10-19T00:06:54Z</time></trkpt><trkpt lat="35.8392468" lon="139.0873942"><ele>582.86</ele><time>2024-10-19T00:07:12Z</time></trkpt><trkpt lat="35.8393199" lon="139.0876353"><ele>576.7466666666667</ele><time>2024-10-19T00:07:27Z</time></trkpt><trkpt lat="35.8394855" lon="139.0877275"><ele>570.1266666666667</ele><time>2024-10-19T00:07:42Z</time></trkpt><trkpt lat="35.8396723" lon="139.0876824"><ele>565.8366666666667</ele><time>2024-10-19T00:08:08Z</time></trkpt><trkpt lat="35.8398814" lon="139.0876506"><ele>573.5300000000001</ele><time>2024-10-19T00:08:26Z</time></trkpt><trkpt lat="35.8400645" lon="139.0877797"><ele>580.4899999999999</ele><time>2024-10-19T00:08:51Z</time></trkpt><trkpt lat="35.8402659" lon="139.0878218"><ele>585.42</ele><time>2024-10-19T00:09:09Z</time></trkpt><trkpt lat="35.84031" lon="139.0880599"><ele>583.3166666666666</ele><time>2024-10-19T00:09:27Z</time></trkpt><trkpt lat="35.8403009" lon="139.0882886"><ele>580.91</ele><time>2024-10-19T00:09:39Z</time></trkpt><trkpt lat="35.8404811" lon="139.0883747"><ele>576.7133333333334</ele><time>2024-10-19T00:10:00Z</time></trkpt><trkpt lat="35.8406759" lon="139.0883079"><ele>576.8</ele><time>2024-10-19T00:10:26Z</time></trkpt><trkpt lat="35.8408556" lon="139.0883484"><ele>583.5066666666667</ele><time>2024-10-19T00:10:41Z</time></trkpt><trkpt lat="35.8410437" lon="139.0883227"><ele>591.9433333333333</ele><time>2024-10-19T00:10:56Z</time></trkpt><trkpt lat="35.841227" lon="139.0883835"><ele>596.8733333333333</ele><time>2024-10-19T00:11:13Z</time></trkpt><trkpt lat="35.8413978" lon="139.0884948"><ele>594.9366666666666</ele><time>2024-10-19T00:11:28Z</time></trkpt><trkpt lat="35.8415719" lon="139.0885577"><ele>591.5500000000001</ele><time>2024-10-19T00:11:47Z</time></trkpt><trkpt lat="35.8417971" lon="139.0885622"><ele>590.2433333333333</ele><time>2024-10-19T00:12:05Z</time></trkpt><trkpt lat="35.8419743" lon="139.0885085"><ele>591.6266666666667</ele><time>2024-10-19T00:12:28Z</time></trkpt><trkpt lat="35.8420681" lon="139.0883133"><ele>594.2233333333334</ele><time>2024-10-19T00:12:48Z</time></trkpt><trkpt lat="35.8422932" lon="139.0883832"><ele>594.57</ele><time>2024-10-19T00:13:12Z</time></trkpt><trkpt lat="35.842519" lon="139.0883625"><ele>596.07</ele><time>2024-10-19T00:13:27Z</time></trkpt><trkpt lat="35.8426906" lon="139.0882766"><ele>601.1966666666667</ele><time>2024-10-19T00:13:39Z</time></trkpt><trkpt lat="35.8427869" lon="139.0884677"><ele>602.88</ele><time>2024-10-19T00:14:00Z</time></trkpt><trkpt lat="35.8428399" lon="139.0887253"><ele>604.7566666666667</ele><time>2024-10-19T00:14:43Z</time></trkpt><trkpt lat="35.8426517" lon="139.0887445"><ele>600.7466666666667</ele><time>2024-10-19T00:14:58Z</time></trkpt><trkpt lat="35.8427762" lon="139.0889241"><ele>604.1533333333333</ele><time>2024-10-19T00:15:25Z</time></trkpt><trkpt lat="35.842972" lon="139.0888274"><ele>606.6566666666666</ele><time>2024-10-19T00:15:46Z</time></trkpt><trkpt lat="35.8431431" lon="139.0889092"><ele>612.0766666666667</ele><time>2024-10-19T00:16:04Z</time></trkpt><trkpt lat="35.8433413" lon="139.0890081"><ele>617.5133333333333</ele><time>2024-10-19T00:16:25Z</time></trkpt><trkpt lat="35.8435449" lon="139.0890345"><ele>623.96</ele><time>2024-10-19T00:16:46Z</time></trkpt><trkpt lat="35.8437524" lon="139.0890617"><ele>632.0100000000001</ele><time>2024-10-19T00:17:04Z</time></trkpt><trkpt lat="35.8439517" lon="139.0890626"><ele>636.6733333333333</ele><time>2024-10-19T00:17:25Z</time></trkpt><trkpt lat="35.8441435" lon="139.0891427"><ele>639.2433333333333</ele><time>2024-10-19T00:17:52Z</time></trkpt><trkpt lat="35.8443356" lon="139.0891111"><ele>637.4733333333334</ele><time>2024-10-19T00:18:04Z</time></trkpt><trkpt lat="35.8445397" lon="139.0892049"><ele>637.7600000000001</ele><time>2024-10-19T00:18:22Z</time></trkpt><trkpt lat="35.8447287" lon="139.0892512"><ele>639.0666666666667</ele><time>2024-10-19T00:18:39Z</time></trkpt><trkpt lat="35.8449188" lon="139.0891922"><ele>639.6166666666667</ele><time>2024-10-19T00:18:57Z</time></trkpt><trkpt lat="35.8450978" lon="139.0892199"><ele>639.1733333333333</ele><time>2024-10-19T00:19:13Z</time></trkpt><trkpt lat="35.8452796" lon="139.0892234"><ele>638.3033333333333</ele><time>2024-10-19T00:19:28Z</time></trkpt><trkpt lat="35.8454775" lon="139.0892498"><ele>642.2733333333334</ele><time>2024-10-19T00:19:43Z</time></trkpt><trkpt lat="35.8456716" lon="139.0892058"><ele>643.2766666666666</ele><time>2024-10-19T00:19:59Z</time></trkpt><trkpt lat="35.8458127" lon="139.0890248"><ele>643.62</ele><time>2024-10-19T00:20:17Z</time></trkpt><trkpt lat="35.8459529" lon="139.0888789"><ele>645.0500000000001</ele><time>2024-10-19T00:20:41Z</time></trkpt><trkpt lat="35.846076" lon="139.0890594"><ele>651.92</ele><time>2024-10-19T00:20:59Z</time></trkpt><trkpt lat="35.8462385" lon="139.0892142"><ele>662.0433333333333</ele><time>2024-10-19T00:21:29Z</time></trkpt><trkpt lat="35.8463557" lon="139.0893957"><ele>666.2233333333334</ele><time>2024-10-19T00:21:50Z</time></trkpt><trkpt lat="35.8464189" lon="139.0896334"><ele>663.6766666666666</ele><time>2024-10-19T00:22:02Z</time></trkpt><trkpt lat="35.8466187" lon="139.0897122"><ele>658.5233333333334</ele><time>2024-10-19T00:22:20Z</time></trkpt><trkpt lat="35.8468441" lon="139.0896811"><ele>658.1366666666668</ele><time>2024-10-19T00:22:44Z</time></trkpt><trkpt lat="35.8470107" lon="139.0895458"><ele>669.8533333333334</ele><time>2024-10-19T00:22:59Z</time></trkpt><trkpt lat="35.8471942" lon="139.0895938"><ele>682.2266666666667</ele><time>2024-10-19T00:23:23Z</time></trkpt><trkpt lat="35.8472898" lon="139.089782"><ele>689.64</ele><time>2024-10-19T00:23:56Z</time></trkpt><trkpt lat="35.8473099" lon="139.0900126"><ele>684.6833333333334</ele><time>2024-10-19T00:24:32Z</time></trkpt><trkpt lat="35.8472597" lon="139.0902323"><ele>677.8933333333334</ele><time>2024-10-19T00:25:23Z</time></trkpt><trkpt lat="35.8473396" lon="139.0904376"><ele>674.4266666666667</ele><time>2024-10-19T00:25:44Z</time></trkpt><trkpt lat="35.8474267" lon="139.0906699"><ele>677.39</ele><time>2024-10-19T00:26:05Z</time></trkpt><trkpt lat="35.8475214" lon="139.0908826"><ele>683.5300000000001</ele><time>2024-10-19T00:26:59Z</time></trkpt><trkpt lat="35.847403" lon="139.0910809"><ele>685.96</ele><time>2024-10-19T00:27:11Z</time></trkpt><trkpt lat="35.8473961" lon="139.0913026"><ele>686.59</ele><time>2024-10-19T00:27:53Z</time></trkpt><trkpt lat="35.8472884" lon="139.0914834"><ele>686.5766666666668</ele><time>2024-10-19T00:28:14Z</time></trkpt><trkpt lat="35.8473954" lon="139.0916743"><ele>690.1233333333334</ele><time>2024-10-19T00:28:32Z</time></trkpt><trkpt lat="35.847569" lon="139.091791"><ele>695.2400000000001</ele><time>2024-10-19T00:28:59Z</time></trkpt><trkpt lat="35.8477555" lon="139.0918107"><ele>698.7433333333333</ele><time>2024-10-19T00:29:53Z</time></trkpt><trkpt lat="35.8479306" lon="139.091947"><ele>700.08</ele><time>2024-10-19T00:30:20Z</time></trkpt><trkpt lat="35.8480191" lon="139.0921692"><ele>702.0966666666667</ele><time>2024-10-19T00:30:44Z</time></trkpt><trkpt lat="35.8479178" lon="139.0923772"><ele>705.0766666666667</ele><time>2024-10-19T00:31:02Z</time></trkpt><trkpt lat="35.8479067" lon="139.0926048"><ele>709.37</ele><time>2024-10-19T00:31:23Z</time></trkpt><trkpt lat="35.8479056" lon="139.0928286"><ele>712.7633333333333</ele><time>2024-10-19T00:32:34Z</time></trkpt><trkpt lat="35.848036" lon="139.0930208"><ele>715.2266666666666</ele><time>2024-10-19T00:33:16Z</time></trkpt><trkpt lat="35.8481886" lon="139.0932273"><ele>718.3966666666665</ele><time>2024-10-19T00:34:07Z</time></trkpt><trkpt lat="35.8483449" lon="139.0933405"><ele>723.6966666666667</ele><time>2024-10-19T00:34:55Z</time></trkpt><trkpt lat="35.8484954" lon="139.0931997"><ele>728.43</ele><time>2024-10-19T00:35:13Z</time></trkpt><trkpt lat="35.8486724" lon="139.0931085"><ele>732.7733333333334</ele><time>2024-10-19T00:35:55Z</time></trkpt><trkpt lat="35.8488532" lon="139.0930816"><ele>732.3299999999999</ele><time>2024-10-19T00:36:19Z</time></trkpt><trkpt lat="35.849023" lon="139.0931617"><ele>734.1066666666667</ele><time>2024-10-19T00:36:58Z</time></trkpt><trkpt lat="35.8491665" lon="139.0933162"><ele>735.61</ele><time>2024-10-19T00:37:19Z</time></trkpt><trkpt lat="35.84924" lon="139.09352"><ele>739.0233333333332</ele><time>2024-10-19T00:38:13Z</time></trkpt><trkpt lat="35.8494093" lon="139.0934222"><ele>738.9966666666666</ele><time>2024-10-19T00:38:34Z</time></trkpt><trkpt lat="35.8495961" lon="139.0935111"><ele>739.09</ele><time>2024-10-19T00:39:01Z</time></trkpt><trkpt lat="35.8496511" lon="139.0937708"><ele>742.6700000000001</ele><time>2024-10-19T00:39:37Z</time></trkpt><trkpt lat="35.849746" lon="139.0939906"><ele>752.96</ele><time>2024-10-19T00:39:58Z</time></trkpt><trkpt lat="35.8498875" lon="139.0941504"><ele>762.7033333333334</ele><time>2024-10-19T00:40:22Z</time></trkpt><trkpt lat="35.8500724" lon="139.0941542"><ele>766.14</ele><time>2024-10-19T00:40:40Z</time></trkpt><trkpt lat="35.8502495" lon="139.0941027"><ele>761.4066666666666</ele><time>2024-10-19T00:40:58Z</time></trkpt><trkpt lat="35.8504488" lon="139.0941726"><ele>760.36</ele><time>2024-10-19T00:41:19Z</time></trkpt><trkpt lat="35.8506152" lon="139.0940576"><ele>762.0666666666666</ele><time>2024-10-19T00:41:58Z</time></trkpt><trkpt lat="35.8507439" lon="139.0938734"><ele>769.0500000000001</ele><time>2024-10-19T00:42:16Z</time></trkpt><trkpt lat="35.8507656" lon="139.0936464"><ele>769.5466666666666</ele><time>2024-10-19T00:42:34Z</time></trkpt><trkpt lat="35.8507774" lon="139.0934126"><ele>766.9766666666668</ele><time>2024-10-19T00:42:46Z</time></trkpt><trkpt lat="35.8508585" lon="139.093185"><ele>761.7400000000001</ele><time>2024-10-19T00:43:01Z</time></trkpt><trkpt lat="35.851052" lon="139.0931702"><ele>758.02</ele><time>2024-10-19T00:43:28Z</time></trkpt><trkpt lat="35.851229" lon="139.0932645"><ele>757.19</ele><time>2024-10-19T00:43:46Z</time></trkpt><trkpt lat="35.8514624" lon="139.0931839"><ele>760.1266666666667</ele><time>2024-10-19T00:44:46Z</time></trkpt><trkpt lat="35.8514218" lon="139.0934098"><ele>762.59</ele><time>2024-10-19T00:45:40Z</time></trkpt><trkpt lat="35.85159" lon="139.093522"><ele>769.07</ele><time>2024-10-19T00:46:13Z</time></trkpt><trkpt lat="35.8516174" lon="139.0937508"><ele>773.85</ele><time>2024-10-19T00:46:46Z</time></trkpt><trkpt lat="35.8517443" lon="139.0939195"><ele>782.2466666666668</ele><time>2024-10-19T00:47:12Z</time></trkpt><trkpt lat="35.8517213" lon="139.0941401"><ele>785.6433333333334</ele><time>2024-10-19T00:47:35Z</time></trkpt><trkpt lat="35.8517619" lon="139.0943777"><ele>788.0866666666667</ele><time>2024-10-19T00:48:04Z</time></trkpt><trkpt lat="35.8517451" lon="139.0946218"><ele>790.5300000000001</ele><time>2024-10-19T00:48:32Z</time></trkpt><trkpt lat="35.8516796" lon="139.094847"><ele>795.5300000000001</ele><time>2024-10-19T00:48:53Z</time></trkpt><trkpt lat="35.8515259" lon="139.0949802"><ele>799.48</ele><time>2024-10-19T00:49:23Z</time></trkpt><trkpt lat="35.851694" lon="139.09507"><ele>800.7400000000001</ele><time>2024-10-19T00:49:56Z</time></trkpt><trkpt lat="35.8518494" lon="139.0949425"><ele>801.02</ele><time>2024-10-19T00:50:14Z</time></trkpt><trkpt lat="35.8520396" lon="139.0949049"><ele>800.8033333333333</ele><time>2024-10-19T00:50:41Z</time></trkpt><trkpt lat="35.8522358" lon="139.0948982"><ele>799.5566666666667</ele><time>2024-10-19T00:51:11Z</time></trkpt><trkpt lat="35.8524012" lon="139.0947329"><ele>797.6700000000001</ele><time>2024-10-19T00:51:35Z</time></trkpt><trkpt lat="35.8524674" lon="139.0945128"><ele>798.2966666666667</ele><time>2024-10-19T00:51:53Z</time></trkpt><trkpt lat="35.8526428" lon="139.0943725"><ele>800.62</ele><time>2024-10-19T00:52:11Z</time></trkpt><trkpt lat="35.8528049" lon="139.0941947"><ele>803.21</ele><time>2024-10-19T00:52:26Z</time></trkpt><trkpt lat="35.8529666" lon="139.0940679"><ele>805.6066666666667</ele><time>2024-10-19T00:52:47Z</time></trkpt><trkpt lat="35.8531585" lon="139.0940814"><ele>810.6133333333333</ele><time>2024-10-19T00:53:11Z</time></trkpt><trkpt lat="35.8533684" lon="139.094034"><ele>818.3100000000001</ele><time>2024-10-19T00:53:59Z</time></trkpt><trkpt lat="35.8533399" lon="139.0937668"><ele>822.0433333333334</ele><time>2024-10-19T00:54:53Z</time></trkpt><trkpt lat="35.8535373" lon="139.0937584"><ele>825.9066666666668</ele><time>2024-10-19T00:55:32Z</time></trkpt><trkpt lat="35.853643" lon="139.0935726"><ele>825.7700000000001</ele><time>2024-10-19T00:56:32Z</time></trkpt><trkpt lat="35.8535865" lon="139.0937893"><ele>830.5733333333334</ele><time>2024-10-19T00:57:38Z</time></trkpt><trkpt lat="35.853785" lon="139.0938151"><ele>833.3166666666666</ele><time>2024-10-19T00:58:44Z</time></trkpt><trkpt lat="35.8539771" lon="139.0938752"><ele>837.3333333333334</ele><time>2024-10-19T00:59:05Z</time></trkpt><trkpt lat="35.8541444" lon="139.0939842"><ele>840.0966666666667</ele><time>2024-10-19T00:59:59Z</time></trkpt><trkpt lat="35.8543349" lon="139.0940902"><ele>845.7700000000001</ele><time>2024-10-19T01:00:29Z</time></trkpt><trkpt lat="35.8543332" lon="139.0943182"><ele>848.7066666666666</ele><time>2024-10-19T01:01:35Z</time></trkpt><trkpt lat="35.8543276" lon="139.0945405"><ele>851.2800000000001</ele><time>2024-10-19T01:01:50Z</time></trkpt><trkpt lat="35.8543749" lon="139.0943024"><ele>850.61</ele><time>2024-10-19T01:03:32Z</time></trkpt><trkpt lat="35.8542577" lon="139.0941333"><ele>849.6633333333333</ele><time>2024-10-19T01:05:54Z</time></trkpt><trkpt lat="35.8542098" lon="139.0939182"><ele>850.9833333333332</ele><time>2024-10-19T01:07:39Z</time></trkpt><trkpt lat="35.854032" lon="139.0938799"><ele>846.5366666666667</ele><time>2024-10-19T01:07:54Z</time></trkpt><trkpt lat="35.853844" lon="139.0940009"><ele>846.38</ele><time>2024-10-19T01:08:12Z</time></trkpt><trkpt lat="35.8536781" lon="139.0941061"><ele>845.6999999999999</ele><time>2024-10-19T01:08:30Z</time></trkpt><trkpt lat="35.8535229" lon="139.0942765"><ele>855.7533333333334</ele><time>2024-10-19T01:09:39Z</time></trkpt><trkpt lat="35.8533928" lon="139.0944403"><ele>866.46</ele><time>2024-10-19T01:10:12Z</time></trkpt><trkpt lat="35.8532667" lon="139.0946207"><ele>875.5266666666666</ele><time>2024-10-19T01:11:03Z</time></trkpt><trkpt lat="35.8531761" lon="139.0948311"><ele>884.6766666666666</ele><time>2024-10-19T01:12:00Z</time></trkpt><trkpt lat="35.8531299" lon="139.095046"><ele>892.0</ele><time>2024-10-19T01:12:48Z</time></trkpt><trkpt lat="35.8533476" lon="139.0951972"><ele>905.3800000000001</ele><time>2024-10-19T01:14:24Z</time></trkpt><trkpt lat="35.8534114" lon="139.095438"><ele>917.64</ele><time>2024-10-19T01:16:39Z</time></trkpt><trkpt lat="35.8533589" lon="139.095669"><ele>926.6833333333334</ele><time>2024-10-19T01:17:33Z</time></trkpt><trkpt lat="35.8534941" lon="139.0958262"><ele>929.7566666666667</ele><time>2024-10-19T01:17:48Z</time></trkpt><trkpt lat="35.8537122" lon="139.0958165"><ele>931.4366666666666</ele><time>2024-10-19T01:18:18Z</time></trkpt><trkpt lat="35.8538964" lon="139.0958708"><ele>936.7733333333334</ele><time>2024-10-19T01:18:36Z</time></trkpt><trkpt lat="35.8540844" lon="139.0959634"><ele>945.2533333333334</ele><time>2024-10-19T01:19:00Z</time></trkpt><trkpt lat="35.8542614" lon="139.0958705"><ele>952.7566666666667</ele><time>2024-10-19T01:19:54Z</time></trkpt><trkpt lat="35.8543861" lon="139.0961587"><ele>962.1466666666666</ele><time>2024-10-19T01:22:10Z</time></trkpt><trkpt lat="35.8545686" lon="139.0961561"><ele>970.86</ele><time>2024-10-19T01:23:13Z</time></trkpt><trkpt lat="35.8547106" lon="139.0962979"><ele>982.4933333333333</ele><time>2024-10-19T01:24:04Z</time></trkpt><trkpt lat="35.854833" lon="139.0965029"><ele>994.86</ele><time>2024-10-19T01:25:22Z</time></trkpt><trkpt lat="35.854925" lon="139.0967258"><ele>1006.9433333333333</ele><time>2024-10-19T01:25:49Z</time></trkpt><trkpt lat="35.8548649" lon="139.0969595"><ele>1010.7533333333334</ele><time>2024-10-19T01:26:10Z</time></trkpt><trkpt lat="35.8549536" lon="139.0971852"><ele>1011.9966666666668</ele><time>2024-10-19T01:26:31Z</time></trkpt><trkpt lat="35.8550503" lon="139.0973855"><ele>1014.9933333333333</ele><time>2024-10-19T01:27:04Z</time></trkpt><trkpt lat="35.8549598" lon="139.0976016"><ele>1019.7266666666666</ele><time>2024-10-19T01:27:31Z</time></trkpt><trkpt lat="35.8548489" lon="139.097834"><ele>1025.2233333333334</ele><time>2024-10-19T01:28:04Z</time></trkpt><trkpt lat="35.8547266" lon="139.0980252"><ele>1025.6166666666666</ele><time>2024-10-19T01:28:25Z</time></trkpt><trkpt lat="35.8546015" lon="139.0982146"><ele>1027.3400000000001</ele><time>2024-10-19T01:28:49Z</time></trkpt><trkpt lat="35.8545536" lon="139.0984629"><ele>1028.3166666666668</ele><time>2024-10-19T01:29:10Z</time></trkpt><trkpt lat="35.8547144" lon="139.098639"><ele>1030.8533333333332</ele><time>2024-10-19T01:29:43Z</time></trkpt><trkpt lat="35.8548843" lon="139.0987257"><ele>1035.506666666667</ele><time>2024-10-19T01:30:02Z</time></trkpt><trkpt lat="35.8548551" lon="139.0989538"><ele>1035.4333333333334</ele><time>2024-10-19T01:30:38Z</time></trkpt><trkpt lat="35.8548599" lon="139.0991885"><ele>1033.1200000000001</ele><time>2024-10-19T01:30:56Z</time></trkpt><trkpt lat="35.8549707" lon="139.0993773"><ele>1034.0433333333333</ele><time>2024-10-19T01:31:20Z</time></trkpt><trkpt lat="35.854968" lon="139.0996202"><ele>1036.4866666666667</ele><time>2024-10-19T01:31:50Z</time></trkpt><trkpt lat="35.8550472" lon="139.0998249"><ele>1045.7333333333333</ele><time>2024-10-19T01:32:17Z</time></trkpt><trkpt lat="35.8549451" lon="139.1000096"><ele>1045.6766666666667</ele><time>2024-10-19T01:32:38Z</time></trkpt><trkpt lat="35.8548229" lon="139.1001856"><ele>1046.636666666667</ele><time>2024-10-19T01:33:04Z</time></trkpt><trkpt lat="35.8547509" lon="139.1003915"><ele>1046.71</ele><time>2024-10-19T01:33:26Z</time></trkpt><trkpt lat="35.8546183" lon="139.1005472"><ele>1050.216666666667</ele><time>2024-10-19T01:33:52Z</time></trkpt><trkpt lat="35.8544292" lon="139.1005777"><ele>1052.99</ele><time>2024-10-19T01:34:16Z</time></trkpt><trkpt lat="35.8545203" lon="139.1007888"><ele>1054.0266666666666</ele><time>2024-10-19T01:34:46Z</time></trkpt><trkpt lat="35.8546844" lon="139.1009395"><ele>1056.6633333333332</ele><time>2024-10-19T01:35:10Z</time></trkpt><trkpt lat="35.8548176" lon="139.1011183"><ele>1061.3466666666666</ele><time>2024-10-19T01:35:31Z</time></trkpt><trkpt lat="35.8548945" lon="139.1013332"><ele>1063.25</ele><time>2024-10-19T01:35:52Z</time></trkpt><trkpt lat="35.8549375" lon="139.1015841"><ele>1063.23</ele><time>2024-10-19T01:36:13Z</time></trkpt><trkpt lat="35.8551207" lon="139.10164"><ele>1057.7933333333333</ele><time>2024-10-19T01:36:58Z</time></trkpt><trkpt lat="35.8552798" lon="139.1017491"><ele>1049.9166666666667</ele><time>2024-10-19T01:38:04Z</time></trkpt><trkpt lat="35.8552166" lon="139.1020471"><ele>1043.5633333333333</ele><time>2024-10-19T01:39:37Z</time></trkpt><trkpt lat="35.8550327" lon="139.1020611"><ele>1039.2266666666667</ele><time>2024-10-19T01:40:07Z</time></trkpt><trkpt lat="35.854992" lon="139.1023085"><ele>1040.1433333333334</ele><time>2024-10-19T01:40:22Z</time></trkpt><trkpt lat="35.8548613" lon="139.1024827"><ele>1041.0500000000002</ele><time>2024-10-19T01:40:43Z</time></trkpt><trkpt lat="35.8546803" lon="139.1025317"><ele>1040.6666666666667</ele><time>2024-10-19T01:41:10Z</time></trkpt><trkpt lat="35.8548266" lon="139.1027078"><ele>1043.76</ele><time>2024-10-19T01:41:46Z</time></trkpt><trkpt lat="35.8550227" lon="139.1028084"><ele>1051.6833333333334</ele><time>2024-10-19T01:43:01Z</time></trkpt><trkpt lat="35.8551014" lon="139.1030179"><ele>1066.6866666666667</ele><time>2024-10-19T01:44:13Z</time></trkpt><trkpt lat="35.8550125" lon="139.1032243"><ele>1078.09</ele><time>2024-10-19T01:45:34Z</time></trkpt><trkpt lat="35.8549937" lon="139.1034677"><ele>1087.1499999999999</ele><time>2024-10-19T01:45:49Z</time></trkpt><trkpt lat="35.8548596" lon="139.1036425"><ele>1091.3666666666666</ele><time>2024-10-19T01:46:25Z</time></trkpt><trkpt lat="35.8547617" lon="139.103856"><ele>1098.3766666666668</ele><time>2024-10-19T01:46:52Z</time></trkpt><trkpt lat="35.8547643" lon="139.1040824"><ele>1106.2233333333334</ele><time>2024-10-19T01:47:46Z</time></trkpt><trkpt lat="35.8547071" lon="139.1043275"><ele>1115.5533333333335</ele><time>2024-10-19T01:48:31Z</time></trkpt><trkpt lat="35.8547704" lon="139.1045523"><ele>1122.2166666666667</ele><time>2024-10-19T01:48:49Z</time></trkpt><trkpt lat="35.8548519" lon="139.1047761"><ele>1125.34</ele><time>2024-10-19T01:49:19Z</time></trkpt><trkpt lat="35.8548298" lon="139.1049993"><ele>1125.9666666666665</ele><time>2024-10-19T01:49:49Z</time></trkpt><trkpt lat="35.8547816" lon="139.1052193"><ele>1124.0033333333333</ele><time>2024-10-19T01:50:10Z</time></trkpt><trkpt lat="35.8548281" lon="139.1054623"><ele>1120.3066666666666</ele><time>2024-10-19T01:50:28Z</time></trkpt><trkpt lat="35.8549742" lon="139.1056329"><ele>1123.2066666666667</ele><time>2024-10-19T01:51:28Z</time></trkpt><trkpt lat="35.8550682" lon="139.1058262"><ele>1125.66</ele><time>2024-10-19T01:52:04Z</time></trkpt><trkpt lat="35.8550424" lon="139.106052"><ele>1131.0833333333333</ele><time>2024-10-19T01:52:51Z</time></trkpt><trkpt lat="35.854988" lon="139.1062669"><ele>1132.99</ele><time>2024-10-19T01:53:06Z</time></trkpt><trkpt lat="35.8550506" lon="139.1065046"><ele>1135.76</ele><time>2024-10-19T01:53:36Z</time></trkpt><trkpt lat="35.8550431" lon="139.1067328"><ele>1137.5166666666667</ele><time>2024-10-19T01:54:15Z</time></trkpt><trkpt lat="35.8549232" lon="139.1069181"><ele>1139.5533333333335</ele><time>2024-10-19T01:54:57Z</time></trkpt><trkpt lat="35.8548935" lon="139.1071622"><ele>1142.7133333333334</ele><time>2024-10-19T01:55:27Z</time></trkpt><trkpt lat="35.8549623" lon="139.1074077"><ele>1146.1066666666668</ele><time>2024-10-19T01:56:15Z</time></trkpt><trkpt lat="35.8548581" lon="139.1076032"><ele>1149.3233333333335</ele><time>2024-10-19T01:56:30Z</time></trkpt><trkpt lat="35.8547053" lon="139.1077242"><ele>1151.0200000000002</ele><time>2024-10-19T01:57:06Z</time></trkpt><trkpt lat="35.8545322" lon="139.1077984"><ele>1155.24</ele><time>2024-10-19T01:57:36Z</time></trkpt><trkpt lat="35.854343" lon="139.107795"><ele>1163.71</ele><time>2024-10-19T01:58:18Z</time></trkpt><trkpt lat="35.8541581" lon="139.1077812"><ele>1174.1666666666667</ele><time>2024-10-19T01:58:48Z</time></trkpt><trkpt lat="35.8539595" lon="139.1078525"><ele>1185.6733333333334</ele><time>2024-10-19T01:59:27Z</time></trkpt><trkpt lat="35.8537429" lon="139.1078545"><ele>1193.28</ele><time>2024-10-19T02:00:09Z</time></trkpt><trkpt lat="35.8535633" lon="139.1079059"><ele>1199.1000000000001</ele><time>2024-10-19T02:00:45Z</time></trkpt><trkpt lat="35.8533323" lon="139.1081306"><ele>1197.6533333333334</ele><time>2024-10-19T02:01:52Z</time></trkpt><trkpt lat="35.8531515" lon="139.1080783"><ele>1197.26</ele><time>2024-10-19T02:02:20Z</time></trkpt><trkpt lat="35.8530523" lon="139.1082835"><ele>1197.1333333333334</ele><time>2024-10-19T02:03:26Z</time></trkpt><trkpt lat="35.8528907" lon="139.1083916"><ele>1202.3833333333334</ele><time>2024-10-19T02:03:50Z</time></trkpt><trkpt lat="35.8529727" lon="139.1085988"><ele>1209.1900000000003</ele><time>2024-10-19T02:04:17Z</time></trkpt><trkpt lat="35.8531762" lon="139.108596"><ele>1214.1966666666667</ele><time>2024-10-19T02:04:59Z</time></trkpt><trkpt lat="35.8530579" lon="139.1087905"><ele>1219.5366666666666</ele><time>2024-10-19T02:06:29Z</time></trkpt><trkpt lat="35.8528756" lon="139.1088057"><ele>1224.3266666666668</ele><time>2024-10-19T02:07:17Z</time></trkpt><trkpt lat="35.8527203" lon="139.1090552"><ele>1234.22</ele><time>2024-10-19T02:08:35Z</time></trkpt><trkpt lat="35.8525191" lon="139.1090914"><ele>1246.2966666666669</ele><time>2024-10-19T02:10:48Z</time></trkpt><trkpt lat="35.8523345" lon="139.1091244"><ele>1256.8666666666668</ele><time>2024-10-19T02:12:15Z</time></trkpt><trkpt lat="35.8521657" lon="139.1092048"><ele>1265.5166666666667</ele><time>2024-10-19T02:13:24Z</time></trkpt><trkpt lat="35.8519711" lon="139.1092571"><ele>1272.8633333333335</ele><time>2024-10-19T02:14:42Z</time></trkpt><trkpt lat="35.8517868" lon="139.109242"><ele>1281.3066666666666</ele><time>2024-10-19T02:15:15Z</time></trkpt><trkpt lat="35.8515914" lon="139.1093602"><ele>1291.3133333333335</ele><time>2024-10-19T02:16:06Z</time></trkpt><trkpt lat="35.8513978" lon="139.1093998"><ele>1299.9866666666667</ele><time>2024-10-19T02:16:48Z</time></trkpt><trkpt lat="35.8512342" lon="139.1092771"><ele>1306.7633333333333</ele><time>2024-10-19T02:18:45Z</time></trkpt><trkpt lat="35.8511319" lon="139.1090806"><ele>1310.9366666666665</ele><time>2024-10-19T02:19:09Z</time></trkpt><trkpt lat="35.8510264" lon="139.1088887"><ele>1313.8633333333332</ele><time>2024-10-19T02:19:27Z</time></trkpt><trkpt lat="35.8509933" lon="139.1086552"><ele>1317.3166666666666</ele><time>2024-10-19T02:19:54Z</time></trkpt><trkpt lat="35.8509048" lon="139.1084367"><ele>1320.8566666666668</ele><time>2024-10-19T02:20:12Z</time></trkpt><trkpt lat="35.8509291" lon="139.1082105"><ele>1324.66</ele><time>2024-10-19T02:20:30Z</time></trkpt><trkpt lat="35.8509058" lon="139.1079906"><ele>1330.2766666666666</ele><time>2024-10-19T02:21:18Z</time></trkpt><trkpt lat="35.8508487" lon="139.1077649"><ele>1337.45</ele><time>2024-10-19T02:23:09Z</time></trkpt><trkpt lat="35.8508669" lon="139.1075391"><ele>1343.44</ele><time>2024-10-19T02:23:42Z</time></trkpt><trkpt lat="35.8508151" lon="139.1073207"><ele>1349.69</ele><time>2024-10-19T02:24:03Z</time></trkpt><trkpt lat="35.8508338" lon="139.1070715"><ele>1354.19</ele><time>2024-10-19T02:24:30Z</time></trkpt><trkpt lat="35.8508355" lon="139.1068437"><ele>1358.5033333333333</ele><time>2024-10-19T02:25:15Z</time></trkpt><trkpt lat="35.8508645" lon="139.1070894"><ele>1359.44</ele><time>2024-10-19T02:42:35Z</time></trkpt><trkpt lat="35.8508479" lon="139.1073149"><ele>1358.1766666666667</ele><time>2024-10-19T02:42:53Z</time></trkpt><trkpt lat="35.8508555" lon="139.1075466"><ele>1355.0033333333333</ele><time>2024-10-19T02:43:11Z</time></trkpt><trkpt lat="35.8508598" lon="139.107786"><ele>1350.1133333333335</ele><time>2024-10-19T02:43:34Z</time></trkpt><trkpt lat="35.85091" lon="139.1080235"><ele>1343.8633333333335</ele><time>2024-10-19T02:44:22Z</time></trkpt><trkpt lat="35.8509172" lon="139.1082791"><ele>1336.7333333333333</ele><time>2024-10-19T02:44:45Z</time></trkpt><trkpt lat="35.8509495" lon="139.1085058"><ele>1328.7133333333334</ele><time>2024-10-19T02:44:57Z</time></trkpt><trkpt lat="35.8510105" lon="139.1087179"><ele>1321.95</ele><time>2024-10-19T02:45:12Z</time></trkpt><trkpt lat="35.8510818" lon="139.1089258"><ele>1316.75</ele><time>2024-10-19T02:45:29Z</time></trkpt><trkpt lat="35.8511825" lon="139.1091361"><ele>1313.5266666666666</ele><time>2024-10-19T02:45:44Z</time></trkpt><trkpt lat="35.8512822" lon="139.1093494"><ele>1311.8433333333332</ele><time>2024-10-19T02:45:56Z</time></trkpt><trkpt lat="35.8511393" lon="139.1095294"><ele>1311.8633333333335</ele><time>2024-10-19T02:46:22Z</time></trkpt><trkpt lat="35.851036" lon="139.1097419"><ele>1313.0233333333333</ele><time>2024-10-19T02:46:40Z</time></trkpt><trkpt lat="35.8508623" lon="139.109829"><ele>1311.8066666666666</ele><time>2024-10-19T02:46:58Z</time></trkpt><trkpt lat="35.8506599" lon="139.1099001"><ele>1309.68</ele><time>2024-10-19T02:47:16Z</time></trkpt><trkpt lat="35.8505062" lon="139.1100404"><ele>1306.63</ele><time>2024-10-19T02:47:37Z</time></trkpt><trkpt lat="35.8504378" lon="139.1102567"><ele>1304.3700000000001</ele><time>2024-10-19T02:48:01Z</time></trkpt><trkpt lat="35.8503458" lon="139.1104685"><ele>1300.1900000000003</ele><time>2024-10-19T02:48:43Z</time></trkpt><trkpt lat="35.8502922" lon="139.1106832"><ele>1294.1833333333334</ele><time>2024-10-19T02:49:25Z</time></trkpt><trkpt lat="35.8501171" lon="139.1107492"><ele>1286.1333333333334</ele><time>2024-10-19T02:50:19Z</time></trkpt><trkpt lat="35.8499467" lon="139.1108258"><ele>1279.6466666666668</ele><time>2024-10-19T02:50:43Z</time></trkpt><trkpt lat="35.8497971" lon="139.1109835"><ele>1275.5800000000002</ele><time>2024-10-19T02:51:10Z</time></trkpt><trkpt lat="35.8497596" lon="139.1112407"><ele>1276.6033333333332</ele><time>2024-10-19T02:51:40Z</time></trkpt><trkpt lat="35.8495779" lon="139.1112987"><ele>1273.7633333333333</ele><time>2024-10-19T02:52:01Z</time></trkpt><trkpt lat="35.8494216" lon="139.1114218"><ele>1268.5633333333333</ele><time>2024-10-19T02:52:28Z</time></trkpt><trkpt lat="35.8492523" lon="139.1115176"><ele>1258.8066666666666</ele><time>2024-10-19T02:52:49Z</time></trkpt><trkpt lat="35.8491559" lon="139.1117051"><ele>1254.0433333333333</ele><time>2024-10-19T02:53:04Z</time></trkpt><trkpt lat="35.848989" lon="139.1118072"><ele>1251.0633333333333</ele><time>2024-10-19T02:53:22Z</time></trkpt><trkpt lat="35.8488017" lon="139.1118915"><ele>1248.2700000000002</ele><time>2024-10-19T02:53:42Z</time></trkpt><trkpt lat="35.8486484" lon="139.1120179"><ele>1243.47</ele><time>2024-10-19T02:54:16Z</time></trkpt><trkpt lat="35.8484711" lon="139.1120979"><ele>1237.3466666666666</ele><time>2024-10-19T02:54:34Z</time></trkpt><trkpt lat="35.848297" lon="139.1122032"><ele>1232.74</ele><time>2024-10-19T02:54:52Z</time></trkpt><trkpt lat="35.8481037" lon="139.1122183"><ele>1228.8433333333335</ele><time>2024-10-19T02:55:05Z</time></trkpt><trkpt lat="35.8478941" lon="139.1121767"><ele>1226.2433333333333</ele><time>2024-10-19T02:55:17Z</time></trkpt><trkpt lat="35.8476833" lon="139.1121598"><ele>1223.86</ele><time>2024-10-19T02:55:32Z</time></trkpt><trkpt lat="35.8474837" lon="139.1120709"><ele>1221.2466666666667</ele><time>2024-10-19T02:55:48Z</time></trkpt><trkpt lat="35.8472846" lon="139.1120117"><ele>1217.4766666666667</ele><time>2024-10-19T02:56:06Z</time></trkpt><trkpt lat="35.8471925" lon="139.111813"><ele>1215.0766666666666</ele><time>2024-10-19T02:56:24Z</time></trkpt><trkpt lat="35.846999" lon="139.1117707"><ele>1214.8500000000001</ele><time>2024-10-19T02:57:01Z</time></trkpt><trkpt lat="35.846865" lon="139.1119439"><ele>1216.7733333333333</ele><time>2024-10-19T02:57:19Z</time></trkpt><trkpt lat="35.8466775" lon="139.1119562"><ele>1218.28</ele><time>2024-10-19T02:57:49Z</time></trkpt><trkpt lat="35.8464792" lon="139.1119754"><ele>1218.1333333333334</ele><time>2024-10-19T02:58:07Z</time></trkpt><trkpt lat="35.8462862" lon="139.1119072"><ele>1216.8033333333333</ele><time>2024-10-19T02:58:25Z</time></trkpt><trkpt lat="35.8461218" lon="139.1117397"><ele>1214.3566666666668</ele><time>2024-10-19T02:59:19Z</time></trkpt><trkpt lat="35.8459859" lon="139.1115619"><ele>1212.2</ele><time>2024-10-19T02:59:37Z</time></trkpt><trkpt lat="35.8458107" lon="139.1114365"><ele>1210.7833333333335</ele><time>2024-10-19T02:59:55Z</time></trkpt><trkpt lat="35.8456443" lon="139.1113087"><ele>1207.6166666666668</ele><time>2024-10-19T03:00:13Z</time></trkpt><trkpt lat="35.8455401" lon="139.1111186"><ele>1204.6733333333334</ele><time>2024-10-19T03:00:31Z</time></trkpt><trkpt lat="35.8454684" lon="139.1108981"><ele>1201.6733333333334</ele><time>2024-10-19T03:01:01Z</time></trkpt><trkpt lat="35.8453012" lon="139.1108095"><ele>1198.3766666666668</ele><time>2024-10-19T03:01:16Z</time></trkpt><trkpt lat="35.8451188" lon="139.110771"><ele>1192.9766666666667</ele><time>2024-10-19T03:01:28Z</time></trkpt><trkpt lat="35.8449363" lon="139.1107603"><ele>1186.0866666666668</ele><time>2024-10-19T03:01:49Z</time></trkpt><trkpt lat="35.844781" lon="139.1106362"><ele>1180.1666666666667</ele><time>2024-10-19T03:02:38Z</time></trkpt><trkpt lat="35.8445802" lon="139.1107755"><ele>1170.8433333333332</ele><time>2024-10-19T03:03:20Z</time></trkpt><trkpt lat="35.8444196" lon="139.1108946"><ele>1161.0433333333333</ele><time>2024-10-19T03:03:38Z</time></trkpt><trkpt lat="35.8442915" lon="139.1110874"><ele>1151.2133333333334</ele><time>2024-10-19T03:03:59Z</time></trkpt><trkpt lat="35.844238" lon="139.1113096"><ele>1146.74</ele><time>2024-10-19T03:04:26Z</time></trkpt><trkpt lat="35.8441902" lon="139.1115423"><ele>1144.14</ele><time>2024-10-19T03:04:47Z</time></trkpt><trkpt lat="35.8441571" lon="139.1118202"><ele>1140.0566666666666</ele><time>2024-10-19T03:05:23Z</time></trkpt><trkpt lat="35.8440741" lon="139.1120332"><ele>1133.9566666666667</ele><time>2024-10-19T03:05:44Z</time></trkpt><trkpt lat="35.8440095" lon="139.112255"><ele>1125.4966666666667</ele><time>2024-10-19T03:06:02Z</time></trkpt><trkpt lat="35.8440619" lon="139.1124765"><ele>1119.89</ele><time>2024-10-19T03:06:20Z</time></trkpt><trkpt lat="35.8441894" lon="139.1126546"><ele>1115.82</ele><time>2024-10-19T03:06:41Z</time></trkpt><trkpt lat="35.8442575" lon="139.1128939"><ele>1111.8466666666666</ele><time>2024-10-19T03:06:58Z</time></trkpt><trkpt lat="35.8444208" lon="139.1129897"><ele>1106.8766666666666</ele><time>2024-10-19T03:07:17Z</time></trkpt><trkpt lat="35.8442467" lon="139.1131278"><ele>1099.8866666666665</ele><time>2024-10-19T03:08:05Z</time></trkpt><trkpt lat="35.8440765" lon="139.1132302"><ele>1093.86</ele><time>2024-10-19T03:08:23Z</time></trkpt><trkpt lat="35.8438855" lon="139.1132034"><ele>1087.5233333333333</ele><time>2024-10-19T03:08:47Z</time></trkpt><trkpt lat="35.8436883" lon="139.1131785"><ele>1082.5600000000002</ele><time>2024-10-19T03:09:08Z</time></trkpt><trkpt lat="35.8435116" lon="139.113087"><ele>1079.6533333333334</ele><time>2024-10-19T03:09:32Z</time></trkpt><trkpt lat="35.8434363" lon="139.1128324"><ele>1078.87</ele><time>2024-10-19T03:10:39Z</time></trkpt><trkpt lat="35.8433497" lon="139.1125979"><ele>1075.9633333333334</ele><time>2024-10-19T03:10:57Z</time></trkpt><trkpt lat="35.8432923" lon="139.1123632"><ele>1072.7299999999998</ele><time>2024-10-19T03:11:22Z</time></trkpt><trkpt lat="35.8432495" lon="139.112143"><ele>1067.5566666666666</ele><time>2024-10-19T03:11:46Z</time></trkpt><trkpt lat="35.8432007" lon="139.1119157"><ele>1063.5333333333335</ele><time>2024-10-19T03:12:16Z</time></trkpt><trkpt lat="35.843153" lon="139.1116807"><ele>1059.1166666666668</ele><time>2024-10-19T03:12:43Z</time></trkpt><trkpt lat="35.8430744" lon="139.1114661"><ele>1053.3566666666668</ele><time>2024-10-19T03:13:07Z</time></trkpt><trkpt lat="35.8430394" lon="139.111226"><ele>1046.3266666666668</ele><time>2024-10-19T03:13:37Z</time></trkpt><trkpt lat="35.8428969" lon="139.1110854"><ele>1036.3633333333335</ele><time>2024-10-19T03:14:10Z</time></trkpt><trkpt lat="35.8427531" lon="139.1112201"><ele>1026.3566666666668</ele><time>2024-10-19T03:14:43Z</time></trkpt><trkpt lat="35.8425854" lon="139.1113086"><ele>1014.1666666666666</ele><time>2024-10-19T03:15:18Z</time></trkpt><trkpt lat="35.8424022" lon="139.111383"><ele>1003.2166666666667</ele><time>2024-10-19T03:15:40Z</time></trkpt><trkpt lat="35.8422969" lon="139.1115633"><ele>993.2566666666667</ele><time>2024-10-19T03:16:01Z</time></trkpt><trkpt lat="35.8422134" lon="139.1117678"><ele>987.7666666666668</ele><time>2024-10-19T03:16:25Z</time></trkpt><trkpt lat="35.8420931" lon="139.1119747"><ele>982.4366666666666</ele><time>2024-10-19T03:16:49Z</time></trkpt><trkpt lat="35.8419427" lon="139.112167"><ele>976.8333333333334</ele><time>2024-10-19T03:17:07Z</time></trkpt><trkpt lat="35.8417794" lon="139.1123106"><ele>971.4100000000002</ele><time>2024-10-19T03:17:28Z</time></trkpt><trkpt lat="35.8416564" lon="139.1124728"><ele>966.2033333333334</ele><time>2024-10-19T03:17:49Z</time></trkpt><trkpt lat="35.841476" lon="139.1125675"><ele>961.9166666666666</ele><time>2024-10-19T03:18:13Z</time></trkpt><trkpt lat="35.8412913" lon="139.1126836"><ele>955.0566666666667</ele><time>2024-10-19T03:18:40Z</time></trkpt><trkpt lat="35.8411506" lon="139.1128364"><ele>946.3666666666667</ele><time>2024-10-19T03:19:18Z</time></trkpt><trkpt lat="35.8409545" lon="139.112848"><ele>938.02</ele><time>2024-10-19T03:19:44Z</time></trkpt><trkpt lat="35.8408247" lon="139.1130047"><ele>932.27</ele><time>2024-10-19T03:20:21Z</time></trkpt><trkpt lat="35.8406009" lon="139.1130278"><ele>927.9899999999999</ele><time>2024-10-19T03:20:39Z</time></trkpt><trkpt lat="35.8403989" lon="139.1131148"><ele>922.93</ele><time>2024-10-19T03:21:00Z</time></trkpt><trkpt lat="35.840261" lon="139.1132918"><ele>917.1833333333334</ele><time>2024-10-19T03:21:21Z</time></trkpt><trkpt lat="35.8401632" lon="139.1134891"><ele>911.7766666666668</ele><time>2024-10-19T03:21:39Z</time></trkpt><trkpt lat="35.8400616" lon="139.113695"><ele>905.07</ele><time>2024-10-19T03:22:00Z</time></trkpt><trkpt lat="35.8400507" lon="139.1139201"><ele>898.4233333333333</ele><time>2024-10-19T03:22:30Z</time></trkpt><trkpt lat="35.8399138" lon="139.114076"><ele>891.0</ele><time>2024-10-19T03:23:00Z</time></trkpt><trkpt lat="35.8398393" lon="139.1142847"><ele>884.73</ele><time>2024-10-19T03:23:27Z</time></trkpt><trkpt lat="35.8397131" lon="139.1144633"><ele>877.34</ele><time>2024-10-19T03:23:54Z</time></trkpt><trkpt lat="35.8396745" lon="139.114681"><ele>869.5933333333334</ele><time>2024-10-19T03:24:15Z</time></trkpt><trkpt lat="35.8395129" lon="139.1147891"><ele>862.1366666666667</ele><time>2024-10-19T03:24:39Z</time></trkpt><trkpt lat="35.8394094" lon="139.1145967"><ele>857.1933333333333</ele><time>2024-10-19T03:25:09Z</time></trkpt><trkpt lat="35.8393478" lon="139.114378"><ele>852.1333333333333</ele><time>2024-10-19T03:25:33Z</time></trkpt><trkpt lat="35.8393836" lon="139.1141423"><ele>847.86</ele><time>2024-10-19T03:26:39Z</time></trkpt><trkpt lat="35.8393717" lon="139.113919"><ele>844.3633333333333</ele><time>2024-10-19T03:26:54Z</time></trkpt><trkpt lat="35.8392882" lon="139.1136764"><ele>841.4533333333334</ele><time>2024-10-19T03:27:15Z</time></trkpt><trkpt lat="35.8392223" lon="139.113447"><ele>837.35</ele><time>2024-10-19T03:27:39Z</time></trkpt><trkpt lat="35.8391458" lon="139.1132305"><ele>830.3966666666666</ele><time>2024-10-19T03:28:03Z</time></trkpt><trkpt lat="35.8391293" lon="139.1129896"><ele>825.0633333333334</ele><time>2024-10-19T03:28:24Z</time></trkpt><trkpt lat="35.8390993" lon="139.1127465"><ele>820.3666666666667</ele><time>2024-10-19T03:29:03Z</time></trkpt><trkpt lat="35.839017" lon="139.1125446"><ele>817.5100000000001</ele><time>2024-10-19T03:29:18Z</time></trkpt><trkpt lat="35.8389327" lon="139.1123351"><ele>815.21</ele><time>2024-10-19T03:29:36Z</time></trkpt><trkpt lat="35.8388282" lon="139.1121095"><ele>811.62</ele><time>2024-10-19T03:30:21Z</time></trkpt><trkpt lat="35.8387694" lon="139.1118801"><ele>808.2733333333334</ele><time>2024-10-19T03:30:54Z</time></trkpt><trkpt lat="35.8388006" lon="139.1116462"><ele>803.5133333333333</ele><time>2024-10-19T03:31:15Z</time></trkpt><trkpt lat="35.8386384" lon="139.1115491"><ele>800.0866666666667</ele><time>2024-10-19T03:32:03Z</time></trkpt><trkpt lat="35.8384317" lon="139.1115441"><ele>795.1366666666667</ele><time>2024-10-19T03:32:22Z</time></trkpt><trkpt lat="35.8383871" lon="139.1117631"><ele>789.3833333333333</ele><time>2024-10-19T03:32:55Z</time></trkpt><trkpt lat="35.8382652" lon="139.1119508"><ele>785.1433333333334</ele><time>2024-10-19T03:33:10Z</time></trkpt><trkpt lat="35.8380976" lon="139.1121102"><ele>782.33</ele><time>2024-10-19T03:33:25Z</time></trkpt><trkpt lat="35.8379779" lon="139.1123359"><ele>779.8466666666667</ele><time>2024-10-19T03:33:45Z</time></trkpt><trkpt lat="35.8377941" lon="139.1124738"><ele>777.9</ele><time>2024-10-19T03:34:00Z</time></trkpt><trkpt lat="35.8375974" lon="139.1124711"><ele>778.6966666666667</ele><time>2024-10-19T03:34:18Z</time></trkpt><trkpt lat="35.8373983" lon="139.1125817"><ele>779.1833333333334</ele><time>2024-10-19T03:34:40Z</time></trkpt><trkpt lat="35.8372241" lon="139.1126768"><ele>778.2633333333333</ele><time>2024-10-19T03:34:52Z</time></trkpt><trkpt lat="35.8370219" lon="139.1127424"><ele>775.1733333333333</ele><time>2024-10-19T03:35:07Z</time></trkpt><trkpt lat="35.8367936" lon="139.1127666"><ele>773.0033333333334</ele><time>2024-10-19T03:35:28Z</time></trkpt><trkpt lat="35.8366022" lon="139.112681"><ele>774.61</ele><time>2024-10-19T03:35:43Z</time></trkpt><trkpt lat="35.8364948" lon="139.1128876"><ele>773.1133333333333</ele><time>2024-10-19T03:36:16Z</time></trkpt><trkpt lat="35.8365706" lon="139.1131239"><ele>771.02</ele><time>2024-10-19T03:36:34Z</time></trkpt><trkpt lat="35.8366693" lon="139.1133116"><ele>764.6866666666666</ele><time>2024-10-19T03:36:49Z</time></trkpt><trkpt lat="35.8367638" lon="139.1135155"><ele>758.4466666666666</ele><time>2024-10-19T03:37:01Z</time></trkpt><trkpt lat="35.8367582" lon="139.1137538"><ele>755.5566666666667</ele><time>2024-10-19T03:37:16Z</time></trkpt><trkpt lat="35.8366566" lon="139.1139728"><ele>756.48</ele><time>2024-10-19T03:37:34Z</time></trkpt><trkpt lat="35.8365038" lon="139.1141369"><ele>760.8100000000001</ele><time>2024-10-19T03:37:52Z</time></trkpt><trkpt lat="35.8363935" lon="139.1143555"><ele>763.5166666666668</ele><time>2024-10-19T03:38:10Z</time></trkpt><trkpt lat="35.8363929" lon="139.1146177"><ele>761.4466666666667</ele><time>2024-10-19T03:38:25Z</time></trkpt><trkpt lat="35.836325" lon="139.1148351"><ele>757.3466666666667</ele><time>2024-10-19T03:38:40Z</time></trkpt><trkpt lat="35.8361769" lon="139.1149721"><ele>756.8666666666667</ele><time>2024-10-19T03:38:52Z</time></trkpt><trkpt lat="35.8360328" lon="139.1151717"><ele>756.6999999999999</ele><time>2024-10-19T03:39:07Z</time></trkpt><trkpt lat="35.8359186" lon="139.1153497"><ele>756.4</ele><time>2024-10-19T03:39:22Z</time></trkpt><trkpt lat="35.835819" lon="139.1155409"><ele>752.3133333333334</ele><time>2024-10-19T03:39:37Z</time></trkpt><trkpt lat="35.835626" lon="139.1155479"><ele>751.61</ele><time>2024-10-19T03:39:49Z</time></trkpt><trkpt lat="35.8354523" lon="139.1154348"><ele>754.33</ele><time>2024-10-19T03:40:04Z</time></trkpt><trkpt lat="35.835233" lon="139.1154142"><ele>755.6066666666666</ele><time>2024-10-19T03:40:22Z</time></trkpt><trkpt lat="35.8350296" lon="139.1155305"><ele>753.5133333333333</ele><time>2024-10-19T03:40:37Z</time></trkpt><trkpt lat="35.8348452" lon="139.1155668"><ele>751.5066666666667</ele><time>2024-10-19T03:40:49Z</time></trkpt><trkpt lat="35.8346875" lon="139.1156959"><ele>749.58</ele><time>2024-10-19T03:41:04Z</time></trkpt><trkpt lat="35.8344859" lon="139.1157579"><ele>750.3400000000001</ele><time>2024-10-19T03:41:18Z</time></trkpt><trkpt lat="35.8343287" lon="139.1158871"><ele>749.2566666666667</ele><time>2024-10-19T03:41:34Z</time></trkpt><trkpt lat="35.8341781" lon="139.1160242"><ele>748.6566666666666</ele><time>2024-10-19T03:41:58Z</time></trkpt><trkpt lat="35.8341313" lon="139.1162748"><ele>746.4966666666666</ele><time>2024-10-19T03:42:13Z</time></trkpt><trkpt lat="35.8341862" lon="139.1164922"><ele>742.9433333333333</ele><time>2024-10-19T03:42:28Z</time></trkpt><trkpt lat="35.8342647" lon="139.1167124"><ele>740.3766666666667</ele><time>2024-10-19T03:42:43Z</time></trkpt><trkpt lat="35.834321" lon="139.1169758"><ele>738.1166666666667</ele><time>2024-10-19T03:43:01Z</time></trkpt><trkpt lat="35.834321" lon="139.1172385"><ele>737.37</ele><time>2024-10-19T03:43:19Z</time></trkpt><trkpt lat="35.8342454" lon="139.1174776"><ele>736.2833333333334</ele><time>2024-10-19T03:43:37Z</time></trkpt><trkpt lat="35.834119" lon="139.1176564"><ele>735.1166666666667</ele><time>2024-10-19T03:43:55Z</time></trkpt><trkpt lat="35.833911" lon="139.1177298"><ele>733.8033333333333</ele><time>2024-10-19T03:44:13Z</time></trkpt><trkpt lat="35.8337343" lon="139.1176818"><ele>734.3366666666667</ele><time>2024-10-19T03:44:28Z</time></trkpt><trkpt lat="35.833534" lon="139.117618"><ele>735.3866666666668</ele><time>2024-10-19T03:44:52Z</time></trkpt><trkpt lat="35.8333343" lon="139.117606"><ele>734.6233333333333</ele><time>2024-10-19T03:45:07Z</time></trkpt><trkpt lat="35.8331462" lon="139.1175902"><ele>731.5133333333333</ele><time>2024-10-19T03:45:22Z</time></trkpt><trkpt lat="35.8329431" lon="139.1175602"><ele>727.7933333333334</ele><time>2024-10-19T03:45:37Z</time></trkpt><trkpt lat="35.8327742" lon="139.1176427"><ele>724.9499999999999</ele><time>2024-10-19T03:45:52Z</time></trkpt><trkpt lat="35.8325837" lon="139.1176704"><ele>723.2566666666667</ele><time>2024-10-19T03:46:10Z</time></trkpt><trkpt lat="35.8324565" lon="139.117512"><ele>722.6966666666667</ele><time>2024-10-19T03:46:29Z</time></trkpt><trkpt lat="35.8322754" lon="139.1173915"><ele>721.6233333333333</ele><time>2024-10-19T03:46:47Z</time></trkpt><trkpt lat="35.8320804" lon="139.1173721"><ele>721.4233333333333</ele><time>2024-10-19T03:47:02Z</time></trkpt><trkpt lat="35.8318871" lon="139.1174124"><ele>718.0633333333334</ele><time>2024-10-19T03:47:17Z</time></trkpt><trkpt lat="35.8316973" lon="139.1173414"><ele>718.3966666666666</ele><time>2024-10-19T03:47:33Z</time></trkpt><trkpt lat="35.8315196" lon="139.1172836"><ele>719.3866666666667</ele><time>2024-10-19T03:47:48Z</time></trkpt><trkpt lat="35.8313434" lon="139.117197"><ele>723.75</ele><time>2024-10-19T03:48:03Z</time></trkpt><trkpt lat="35.8311588" lon="139.1171035"><ele>725.23</ele><time>2024-10-19T03:48:23Z</time></trkpt><trkpt lat="35.8310854" lon="139.117323"><ele>721.1833333333334</ele><time>2024-10-19T03:48:53Z</time></trkpt><trkpt lat="35.8309739" lon="139.1175619"><ele>715.4666666666667</ele><time>2024-10-19T03:49:09Z</time></trkpt><trkpt lat="35.8309003" lon="139.1178065"><ele>711.1166666666667</ele><time>2024-10-19T03:49:33Z</time></trkpt><trkpt lat="35.8308126" lon="139.1180135"><ele>710.7266666666668</ele><time>2024-10-19T03:49:51Z</time></trkpt><trkpt lat="35.8306364" lon="139.118125"><ele>711.2466666666668</ele><time>2024-10-19T03:50:09Z</time></trkpt><trkpt lat="35.8304684" lon="139.1182351"><ele>710.5966666666667</ele><time>2024-10-19T03:50:30Z</time></trkpt><trkpt lat="35.8303072" lon="139.118345"><ele>706.9233333333335</ele><time>2024-10-19T03:50:48Z</time></trkpt><trkpt lat="35.8300976" lon="139.1183685"><ele>705.32</ele><time>2024-10-19T03:51:04Z</time></trkpt><trkpt lat="35.8299194" lon="139.118413"><ele>706.1033333333334</ele><time>2024-10-19T03:51:16Z</time></trkpt><trkpt lat="35.829754" lon="139.1185281"><ele>708.6266666666667</ele><time>2024-10-19T03:51:31Z</time></trkpt><trkpt lat="35.8295916" lon="139.1186472"><ele>709.9766666666668</ele><time>2024-10-19T03:51:49Z</time></trkpt><trkpt lat="35.8294666" lon="139.1188346"><ele>708.64</ele><time>2024-10-19T03:52:07Z</time></trkpt><trkpt lat="35.829288" lon="139.1189067"><ele>710.0366666666667</ele><time>2024-10-19T03:52:31Z</time></trkpt><trkpt lat="35.829143" lon="139.1190499"><ele>708.3000000000001</ele><time>2024-10-19T03:52:52Z</time></trkpt><trkpt lat="35.828954" lon="139.1191478"><ele>706.6733333333333</ele><time>2024-10-19T03:53:13Z</time></trkpt><trkpt lat="35.8287865" lon="139.1192718"><ele>703.7433333333333</ele><time>2024-10-19T03:53:31Z</time></trkpt><trkpt lat="35.8286055" lon="139.1193795"><ele>701.0366666666667</ele><time>2024-10-19T03:53:46Z</time></trkpt><trkpt lat="35.8284796" lon="139.1195567"><ele>698.1433333333333</ele><time>2024-10-19T03:53:58Z</time></trkpt><trkpt lat="35.8283683" lon="139.1197554"><ele>694.9866666666667</ele><time>2024-10-19T03:54:19Z</time></trkpt><trkpt lat="35.8282069" lon="139.1198682"><ele>694.8633333333333</ele><time>2024-10-19T03:54:34Z</time></trkpt><trkpt lat="35.8280722" lon="139.1200467"><ele>694.9633333333335</ele><time>2024-10-19T03:54:49Z</time></trkpt><trkpt lat="35.8280054" lon="139.1203054"><ele>694.54</ele><time>2024-10-19T03:55:10Z</time></trkpt><trkpt lat="35.827999" lon="139.1205465"><ele>691.96</ele><time>2024-10-19T03:55:28Z</time></trkpt><trkpt lat="35.8279313" lon="139.1207648"><ele>690.2600000000001</ele><time>2024-10-19T03:55:52Z</time></trkpt><trkpt lat="35.8278338" lon="139.1209673"><ele>690.1733333333333</ele><time>2024-10-19T03:56:10Z</time></trkpt><trkpt lat="35.8276432" lon="139.1210401"><ele>691.3766666666667</ele><time>2024-10-19T03:56:28Z</time></trkpt><trkpt lat="35.8274732" lon="139.1211274"><ele>692.18</ele><time>2024-10-19T03:56:43Z</time></trkpt><trkpt lat="35.827293" lon="139.1211912"><ele>691.5933333333332</ele><time>2024-10-19T03:56:58Z</time></trkpt><trkpt lat="35.8271245" lon="139.1212778"><ele>690.0833333333334</ele><time>2024-10-19T03:57:13Z</time></trkpt><trkpt lat="35.8269243" lon="139.121298"><ele>688.6533333333333</ele><time>2024-10-19T03:57:31Z</time></trkpt><trkpt lat="35.8267435" lon="139.1213551"><ele>686.1666666666666</ele><time>2024-10-19T03:57:46Z</time></trkpt><trkpt lat="35.8265857" lon="139.1214694"><ele>683.7400000000001</ele><time>2024-10-19T03:58:04Z</time></trkpt><trkpt lat="35.8264396" lon="139.1216066"><ele>680.7700000000001</ele><time>2024-10-19T03:58:22Z</time></trkpt><trkpt lat="35.8262756" lon="139.1217422"><ele>680.11</ele><time>2024-10-19T03:58:43Z</time></trkpt><trkpt lat="35.8261153" lon="139.1218718"><ele>679.9733333333334</ele><time>2024-10-19T03:59:04Z</time></trkpt><trkpt lat="35.8259747" lon="139.1220412"><ele>678.8833333333333</ele><time>2024-10-19T03:59:31Z</time></trkpt><trkpt lat="35.8258184" lon="139.1221926"><ele>674.4466666666667</ele><time>2024-10-19T03:59:52Z</time></trkpt><trkpt lat="35.8257022" lon="139.1223872"><ele>668.5500000000001</ele><time>2024-10-19T04:00:16Z</time></trkpt><trkpt lat="35.8255815" lon="139.12259"><ele>663.2199999999999</ele><time>2024-10-19T04:00:40Z</time></trkpt><trkpt lat="35.8254091" lon="139.122682"><ele>661.17</ele><time>2024-10-19T04:01:18Z</time></trkpt><trkpt lat="35.8252228" lon="139.1227666"><ele>662.2466666666668</ele><time>2024-10-19T04:01:36Z</time></trkpt><trkpt lat="35.8250655" lon="139.122882"><ele>662.1866666666666</ele><time>2024-10-19T04:01:54Z</time></trkpt><trkpt lat="35.824937" lon="139.1227093"><ele>665.1300000000001</ele><time>2024-10-19T04:02:32Z</time></trkpt><trkpt lat="35.8248172" lon="139.1229055"><ele>665.2333333333333</ele><time>2024-10-19T04:03:05Z</time></trkpt><trkpt lat="35.8246387" lon="139.1229954"><ele>666.3166666666667</ele><time>2024-10-19T04:03:34Z</time></trkpt><trkpt lat="35.8244759" lon="139.1228985"><ele>658.5733333333334</ele><time>2024-10-19T04:04:35Z</time></trkpt><trkpt lat="35.8243514" lon="139.1230974"><ele>651.74</ele><time>2024-10-19T04:05:02Z</time></trkpt><trkpt lat="35.8241968" lon="139.123227"><ele>644.64</ele><time>2024-10-19T04:05:20Z</time></trkpt><trkpt lat="35.824043" lon="139.1233538"><ele>639.66</ele><time>2024-10-19T04:05:44Z</time></trkpt><trkpt lat="35.8239181" lon="139.123537"><ele>632.7666666666668</ele><time>2024-10-19T04:06:08Z</time></trkpt><trkpt lat="35.8237771" lon="139.1236845"><ele>624.3633333333333</ele><time>2024-10-19T04:06:29Z</time></trkpt><trkpt lat="35.8236541" lon="139.1238489"><ele>616.39</ele><time>2024-10-19T04:06:50Z</time></trkpt><trkpt lat="35.8235118" lon="139.1240038"><ele>608.8733333333333</ele><time>2024-10-19T04:07:20Z</time></trkpt><trkpt lat="35.823374" lon="139.1241484"><ele>601.4266666666666</ele><time>2024-10-19T04:07:44Z</time></trkpt><trkpt lat="35.8232065" lon="139.1242333"><ele>594.5033333333333</ele><time>2024-10-19T04:08:02Z</time></trkpt><trkpt lat="35.8230764" lon="139.1244027"><ele>590.43</ele><time>2024-10-19T04:08:38Z</time></trkpt><trkpt lat="35.8229901" lon="139.1246019"><ele>590.5933333333334</ele><time>2024-10-19T04:08:59Z</time></trkpt><trkpt lat="35.822896" lon="139.1248138"><ele>592.3266666666667</ele><time>2024-10-19T04:09:17Z</time></trkpt><trkpt lat="35.8227797" lon="139.1249872"><ele>590.29</ele><time>2024-10-19T04:09:32Z</time></trkpt><trkpt lat="35.8225994" lon="139.1250357"><ele>583.4499999999999</ele><time>2024-10-19T04:09:47Z</time></trkpt><trkpt lat="35.8224083" lon="139.1250997"><ele>576.1533333333333</ele><time>2024-10-19T04:10:02Z</time></trkpt><trkpt lat="35.8222514" lon="139.1252485"><ele>572.79</ele><time>2024-10-19T04:10:23Z</time></trkpt><trkpt lat="35.8221146" lon="139.1254321"><ele>572.6899999999999</ele><time>2024-10-19T04:10:47Z</time></trkpt><trkpt lat="35.8220465" lon="139.1256532"><ele>574.1066666666667</ele><time>2024-10-19T04:11:05Z</time></trkpt><trkpt lat="35.821899" lon="139.1258055"><ele>571.3666666666667</ele><time>2024-10-19T04:11:26Z</time></trkpt><trkpt lat="35.8217422" lon="139.1259287"><ele>564.7666666666668</ele><time>2024-10-19T04:11:44Z</time></trkpt><trkpt lat="35.8215564" lon="139.1260139"><ele>553.9833333333332</ele><time>2024-10-19T04:12:08Z</time></trkpt><trkpt lat="35.8213488" lon="139.1260578"><ele>543.2766666666666</ele><time>2024-10-19T04:12:26Z</time></trkpt><trkpt lat="35.8211642" lon="139.1259913"><ele>533.4599999999999</ele><time>2024-10-19T04:12:43Z</time></trkpt><trkpt lat="35.8209686" lon="139.1259467"><ele>522.9933333333333</ele><time>2024-10-19T04:13:07Z</time></trkpt><trkpt lat="35.8207858" lon="139.1260009"><ele>516.2633333333333</ele><time>2024-10-19T04:13:26Z</time></trkpt><trkpt lat="35.8206462" lon="139.1261472"><ele>515.5533333333334</ele><time>2024-10-19T04:13:50Z</time></trkpt><trkpt lat="35.8204897" lon="139.1262822"><ele>517.22</ele><time>2024-10-19T04:14:11Z</time></trkpt><trkpt lat="35.8203226" lon="139.1263672"><ele>515.1966666666667</ele><time>2024-10-19T04:14:35Z</time></trkpt><trkpt lat="35.8203888" lon="139.1261523"><ele>510.44666666666666</ele><time>2024-10-19T04:15:08Z</time></trkpt><trkpt lat="35.8202075" lon="139.1260989"><ele>502.0</ele><time>2024-10-19T04:15:41Z</time></trkpt><trkpt lat="35.820019" lon="139.1261619"><ele>492.15333333333336</ele><time>2024-10-19T04:15:59Z</time></trkpt><trkpt lat="35.8198364" lon="139.1261185"><ele>478.31333333333333</ele><time>2024-10-19T04:16:29Z</time></trkpt><trkpt lat="35.8196534" lon="139.1260805"><ele>467.03999999999996</ele><time>2024-10-19T04:17:47Z</time></trkpt><trkpt lat="35.8194775" lon="139.1259637"><ele>453.8</ele><time>2024-10-19T04:18:20Z</time></trkpt><trkpt lat="35.8193065" lon="139.1260402"><ele>446.7633333333333</ele><time>2024-10-19T04:18:38Z</time></trkpt><trkpt lat="35.8191238" lon="139.1261285"><ele>442.96000000000004</ele><time>2024-10-19T04:18:56Z</time></trkpt><trkpt lat="35.8189387" lon="139.1261015"><ele>442.2733333333333</ele><time>2024-10-19T04:19:15Z</time></trkpt><trkpt lat="35.8187304" lon="139.126153"><ele>439.6266666666667</ele><time>2024-10-19T04:19:37Z</time></trkpt><trkpt lat="35.8185395" lon="139.1261416"><ele>436.14000000000004</ele><time>2024-10-19T04:20:07Z</time></trkpt><trkpt lat="35.8183694" lon="139.1260634"><ele>432.9433333333333</ele><time>2024-10-19T04:20:49Z</time></trkpt><trkpt lat="35.8181645" lon="139.1260467"><ele>426.56333333333333</ele><time>2024-10-19T04:22:16Z</time></trkpt><trkpt lat="35.8179919" lon="139.1259466"><ele>415.97</ele><time>2024-10-19T04:22:37Z</time></trkpt><trkpt lat="35.8178104" lon="139.1258867"><ele>405.43</ele><time>2024-10-19T04:23:07Z</time></trkpt><trkpt lat="35.8175938" lon="139.1259447"><ele>393.69000000000005</ele><time>2024-10-19T04:23:46Z</time></trkpt><trkpt lat="35.8174125" lon="139.1259239"><ele>382.8333333333333</ele><time>2024-10-19T04:24:46Z</time></trkpt><trkpt lat="35.8173233" lon="139.1261421"><ele>377.55</ele><time>2024-10-19T04:25:37Z</time></trkpt><trkpt lat="35.8172493" lon="139.1263591"><ele>372.42</ele><time>2024-10-19T04:26:22Z</time></trkpt><trkpt lat="35.8170549" lon="139.1264325"><ele>368.8433333333333</ele><time>2024-10-19T04:26:37Z</time></trkpt><trkpt lat="35.8168643" lon="139.1265258"><ele>360.7266666666667</ele><time>2024-10-19T04:26:56Z</time></trkpt><trkpt lat="35.8166702" lon="139.1265795"><ele>354.4433333333334</ele><time>2024-10-19T04:27:11Z</time></trkpt><trkpt lat="35.8165437" lon="139.1267478"><ele>348.7666666666667</ele><time>2024-10-19T04:27:26Z</time></trkpt><trkpt lat="35.8164235" lon="139.1269143"><ele>344.92</ele><time>2024-10-19T04:27:41Z</time></trkpt><trkpt lat="35.8163523" lon="139.1271296"><ele>342.89000000000004</ele><time>2024-10-19T04:27:59Z</time></trkpt><trkpt lat="35.8162487" lon="139.1273457"><ele>342.5133333333333</ele><time>2024-10-19T04:28:14Z</time></trkpt><trkpt lat="35.8161837" lon="139.1275665"><ele>342.0433333333333</ele><time>2024-10-19T04:28:29Z</time></trkpt><trkpt lat="35.8160216" lon="139.1277138"><ele>341.21</ele><time>2024-10-19T04:28:44Z</time></trkpt><trkpt lat="35.8159015" lon="139.1279248"><ele>339.62666666666667</ele><time>2024-10-19T04:29:02Z</time></trkpt><trkpt lat="35.815804" lon="139.1281197"><ele>337.8933333333333</ele><time>2024-10-19T04:29:17Z</time></trkpt><trkpt lat="35.815733" lon="139.1283313"><ele>336.28333333333336</ele><time>2024-10-19T04:29:29Z</time></trkpt><trkpt lat="35.8155536" lon="139.1283074"><ele>334.23333333333335</ele><time>2024-10-19T04:29:53Z</time></trkpt><trkpt lat="35.8153784" lon="139.1282551"><ele>331.08666666666664</ele><time>2024-10-19T04:30:11Z</time></trkpt><trkpt lat="35.8151824" lon="139.1282134"><ele>326.7833333333333</ele><time>2024-10-19T04:30:26Z</time></trkpt><trkpt lat="35.8149865" lon="139.1281933"><ele>322.24666666666667</ele><time>2024-10-19T04:30:41Z</time></trkpt><trkpt lat="35.8148347" lon="139.1283367"><ele>319.16333333333336</ele><time>2024-10-19T04:30:59Z</time></trkpt><trkpt lat="35.8148568" lon="139.1285604"><ele>317.2666666666667</ele><time>2024-10-19T04:31:14Z</time></trkpt></trkseg></trk></gpx>