<?xml version='1.0' encoding='UTF-8'?><gpx creator="YAMAP - https://yamap.com" xsi:schemaLocation="http://www.topografix.com/GPX/1/1 http://www.topografix.com/GPX/1/1/gpx.xsd" version="1.1" xmlns="http://www.topografix.com/GPX/1/1" xmlns:xsi="http://www.w3.org/2001/XMLSchema-instance"><metadata><bounds maxlat="35.9655714" maxlon="139.2994087" minlat="35.9256565" minlon="139.2014283"/></metadata><trk><name>日影山・丸山・関八州見晴台・飯盛山・羽賀山・大高取山・根っこ山・西山高取・高取山</name><number>1</number><trkseg><trkpt lat="35.9266838" lon="139.202487"><ele>242.62121480863732</ele><time>2022-12-15T23:30:51Z</time></trkpt><trkpt lat="35.9268261" lon="139.2022654"><ele>242.6213373685316</ele><time>2022-12-15T23:31:09Z</time></trkpt><trkpt lat="35.9268954" lon="139.2020549"><ele>242.62146990890963</ele><time>2022-12-15T23:31:24Z</time></trkpt><trkpt lat="35.9267003" lon="139.2020149"><ele>242.62170666237103</ele><time>2022-12-15T23:31:36Z</time></trkpt><trkpt lat="35.9265168" lon="139.2019862"><ele>242.6219168558123</ele><time>2022-12-15T23:31:47Z</time></trkpt><trkpt lat="35.9263337" lon="139.2019341"><ele>242.6221024779653</ele><time>2022-12-15T23:31:59Z</time></trkpt><trkpt lat="35.9261783" lon="139.2018157"><ele>239.53749118034065</ele><time>2022-12-15T23:32:17Z</time></trkpt><trkpt lat="35.9260347" lon="139.2016804"><ele>239.5377549014577</ele><time>2022-12-15T23:32:27Z</time></trkpt><trkpt lat="35.9258537" lon="139.2017402"><ele>233.70462775028113</ele><time>2022-12-15T23:32:42Z</time></trkpt><trkpt lat="35.9256695" lon="139.2016585"><ele>230.9563174258502</ele><time>2022-12-15T23:32:56Z</time></trkpt><trkpt lat="35.9256565" lon="139.2014332"><ele>225.12319632272985</ele><time>2022-12-15T23:33:11Z</time></trkpt><trkpt lat="35.9258375" lon="139.2014283"><ele>224.9371526690402</ele><time>2022-12-15T23:33:23Z</time></trkpt><trkpt lat="35.9260228" lon="139.2014376"><ele>226.83956160370596</ele><time>2022-12-15T23:33:36Z</time></trkpt><trkpt lat="35.9262129" lon="139.2014904"><ele>227.34171618607613</ele><time>2022-12-15T23:33:42Z</time></trkpt><trkpt lat="35.9263993" lon="139.2014862"><ele>233.3611015141341</ele><time>2022-12-15T23:34:00Z</time></trkpt><trkpt lat="35.926576" lon="139.2015509"><ele>237.29187828328182</ele><time>2022-12-15T23:34:12Z</time></trkpt><trkpt lat="35.9267548" lon="139.2016067"><ele>240.80797341710408</ele><time>2022-12-15T23:34:23Z</time></trkpt><trkpt lat="35.9269353" lon="139.2016706"><ele>240.80775943069523</ele><time>2022-12-15T23:34:36Z</time></trkpt><trkpt lat="35.9267886" lon="139.2018022"><ele>240.87424456353983</ele><time>2022-12-15T23:34:47Z</time></trkpt><trkpt lat="35.9269921" lon="139.2018225"><ele>242.75549076940078</ele><time>2022-12-15T23:34:50Z</time></trkpt><trkpt lat="35.9271816" lon="139.2018195"><ele>242.75536051274932</ele><time>2022-12-15T23:34:56Z</time></trkpt><trkpt lat="35.9273611" lon="139.2018439"><ele>242.68855166185028</ele><time>2022-12-15T23:35:08Z</time></trkpt><trkpt lat="35.9275348" lon="139.2017579"><ele>242.6884635783026</ele><time>2022-12-15T23:35:20Z</time></trkpt><trkpt lat="35.9277009" lon="139.2018647"><ele>241.5842707690198</ele><time>2022-12-15T23:35:31Z</time></trkpt><trkpt lat="35.9278824" lon="139.2019273"><ele>239.0472379328097</ele><time>2022-12-15T23:35:45Z</time></trkpt><trkpt lat="35.9280635" lon="139.2019726"><ele>238.98035258528603</ele><time>2022-12-15T23:35:59Z</time></trkpt><trkpt lat="35.9282561" lon="139.2019327"><ele>239.85841013120663</ele><time>2022-12-15T23:36:21Z</time></trkpt><trkpt lat="35.9284328" lon="139.2020063"><ele>242.32093629631188</ele><time>2022-12-15T23:36:28Z</time></trkpt><trkpt lat="35.9286107" lon="139.2020453"><ele>242.96334735866085</ele><time>2022-12-15T23:36:37Z</time></trkpt><trkpt lat="35.9287879" lon="139.2019457"><ele>243.18906350411137</ele><time>2022-12-15T23:36:49Z</time></trkpt><trkpt lat="35.9289828" lon="139.2019674"><ele>246.6307743698121</ele><time>2022-12-15T23:37:01Z</time></trkpt><trkpt lat="35.929172" lon="139.2019495"><ele>245.9881296455927</ele><time>2022-12-15T23:37:12Z</time></trkpt><trkpt lat="35.9293531" lon="139.2020052"><ele>248.58362778802757</ele><time>2022-12-15T23:37:26Z</time></trkpt><trkpt lat="35.9295472" lon="139.2020256"><ele>247.26611219214143</ele><time>2022-12-15T23:37:42Z</time></trkpt><trkpt lat="35.9297223" lon="139.2020932"><ele>251.35371969288016</ele><time>2022-12-15T23:37:55Z</time></trkpt><trkpt lat="35.9299061" lon="139.2021811"><ele>253.70422035901797</ele><time>2022-12-15T23:38:09Z</time></trkpt><trkpt lat="35.9300868" lon="139.2021959"><ele>257.2728259736119</ele><time>2022-12-15T23:38:21Z</time></trkpt><trkpt lat="35.9302512" lon="139.2023135"><ele>258.5080973403661</ele><time>2022-12-15T23:38:30Z</time></trkpt><trkpt lat="35.9304063" lon="139.2024516"><ele>261.0859824979329</ele><time>2022-12-15T23:38:42Z</time></trkpt><trkpt lat="35.9304379" lon="139.2026707"><ele>255.46660785742029</ele><time>2022-12-15T23:38:48Z</time></trkpt><trkpt lat="35.9304761" lon="139.2029118"><ele>252.01957535947017</ele><time>2022-12-15T23:39:23Z</time></trkpt><trkpt lat="35.9304865" lon="139.2031365"><ele>245.16141036380301</ele><time>2022-12-15T23:39:34Z</time></trkpt><trkpt lat="35.9304865" lon="139.2033594"><ele>245.8277357629188</ele><time>2022-12-15T23:39:46Z</time></trkpt><trkpt lat="35.9306166" lon="139.2035269"><ele>243.88414306593026</ele><time>2022-12-15T23:39:57Z</time></trkpt><trkpt lat="35.9307885" lon="139.2034572"><ele>243.1505882935081</ele><time>2022-12-15T23:40:07Z</time></trkpt><trkpt lat="35.9308961" lon="139.2032697"><ele>243.08387415381955</ele><time>2022-12-15T23:40:15Z</time></trkpt><trkpt lat="35.9310732" lon="139.2033138"><ele>243.75054670408176</ele><time>2022-12-15T23:40:24Z</time></trkpt><trkpt lat="35.9312657" lon="139.2032826"><ele>244.41719611671155</ele><time>2022-12-15T23:40:35Z</time></trkpt><trkpt lat="35.9314529" lon="139.203259"><ele>244.4170836088858</ele><time>2022-12-15T23:40:44Z</time></trkpt><trkpt lat="35.9315991" lon="139.2030895"><ele>245.3504078407833</ele><time>2022-12-15T23:41:06Z</time></trkpt><trkpt lat="35.9317412" lon="139.2029307"><ele>246.28380241263116</ele><time>2022-12-15T23:41:25Z</time></trkpt><trkpt lat="35.9319086" lon="139.2028276"><ele>247.31724406221727</ele><time>2022-12-15T23:41:38Z</time></trkpt><trkpt lat="35.9320205" lon="139.2026462"><ele>247.31736225634742</ele><time>2022-12-15T23:41:50Z</time></trkpt><trkpt lat="35.93215" lon="139.2024772"><ele>247.31748696869064</ele><time>2022-12-15T23:42:01Z</time></trkpt><trkpt lat="35.9323356" lon="139.2023833"><ele>247.31760252744434</ele><time>2022-12-15T23:42:12Z</time></trkpt><trkpt lat="35.9325375" lon="139.2024387"><ele>248.78426214594342</ele><time>2022-12-15T23:42:31Z</time></trkpt><trkpt lat="35.9327194" lon="139.2023405"><ele>248.88420792855436</ele><time>2022-12-15T23:42:39Z</time></trkpt><trkpt lat="35.9328309" lon="139.2021646"><ele>250.35086578682885</ele><time>2022-12-15T23:42:51Z</time></trkpt><trkpt lat="35.9329728" lon="139.2020212"><ele>250.35096376123684</ele><time>2022-12-15T23:43:05Z</time></trkpt><trkpt lat="35.9331458" lon="139.2021213"><ele>251.7176402688755</ele><time>2022-12-15T23:43:11Z</time></trkpt><trkpt lat="35.9331327" lon="139.2023435"><ele>251.71749168071946</ele><time>2022-12-15T23:43:36Z</time></trkpt><trkpt lat="35.9332292" lon="139.2025543"><ele>254.01718813730295</ele><time>2022-12-15T23:44:02Z</time></trkpt><trkpt lat="35.933383" lon="139.2027264"><ele>258.25019913645355</ele><time>2022-12-15T23:44:21Z</time></trkpt><trkpt lat="35.9335297" lon="139.2028674"><ele>262.38325636929295</ele><time>2022-12-15T23:45:26Z</time></trkpt><trkpt lat="35.9336524" lon="139.2030303"><ele>264.34969628820767</ele><time>2022-12-15T23:45:45Z</time></trkpt><trkpt lat="35.9337465" lon="139.2028118"><ele>267.92891964559664</ele><time>2022-12-15T23:46:30Z</time></trkpt><trkpt lat="35.9338528" lon="139.2026272"><ele>270.91653429294007</ele><time>2022-12-15T23:47:32Z</time></trkpt><trkpt lat="35.9339482" lon="139.202436"><ele>277.8077628571798</ele><time>2022-12-15T23:48:08Z</time></trkpt><trkpt lat="35.9340941" lon="139.2022879"><ele>283.4417699719261</ele><time>2022-12-15T23:48:36Z</time></trkpt><trkpt lat="35.934188" lon="139.2024835"><ele>292.4206537754888</ele><time>2022-12-15T23:49:39Z</time></trkpt><trkpt lat="35.9342332" lon="139.2026994"><ele>299.536656495867</ele><time>2022-12-15T23:50:10Z</time></trkpt><trkpt lat="35.9344169" lon="139.2026796"><ele>308.1024108348615</ele><time>2022-12-15T23:51:18Z</time></trkpt><trkpt lat="35.9346046" lon="139.2026974"><ele>313.99275530561255</ele><time>2022-12-15T23:52:15Z</time></trkpt><trkpt lat="35.9347896" lon="139.2027048"><ele>318.2222735174469</ele><time>2022-12-15T23:52:29Z</time></trkpt><trkpt lat="35.934973" lon="139.2027213"><ele>323.7816496516667</ele><time>2022-12-15T23:55:27Z</time></trkpt><trkpt lat="35.9351461" lon="139.2027847"><ele>334.43900606267323</ele><time>2022-12-15T23:56:12Z</time></trkpt><trkpt lat="35.9352858" lon="139.2029274"><ele>347.18559203506766</ele><time>2022-12-15T23:57:06Z</time></trkpt><trkpt lat="35.9354579" lon="139.2030055"><ele>353.3831986674329</ele><time>2022-12-15T23:57:39Z</time></trkpt><trkpt lat="35.9356112" lon="139.2031303"><ele>357.7012794924537</ele><time>2022-12-15T23:57:57Z</time></trkpt><trkpt lat="35.9357918" lon="139.2032081"><ele>361.5466342435088</ele><time>2022-12-15T23:58:42Z</time></trkpt><trkpt lat="35.9359698" lon="139.2032565"><ele>367.6023096998631</ele><time>2022-12-15T23:59:27Z</time></trkpt><trkpt lat="35.9360922" lon="139.2034211"><ele>372.855942683183</ele><time>2022-12-15T23:59:49Z</time></trkpt><trkpt lat="35.9362012" lon="139.2036108"><ele>377.33594013455166</ele><time>2022-12-16T00:00:30Z</time></trkpt><trkpt lat="35.936306" lon="139.2037921"><ele>383.95950821269986</ele><time>2022-12-16T00:00:44Z</time></trkpt><trkpt lat="35.9364671" lon="139.2039011"><ele>388.4389590902865</ele><time>2022-12-16T00:01:06Z</time></trkpt><trkpt lat="35.9366047" lon="139.2040557"><ele>390.8862619202552</ele><time>2022-12-16T00:01:23Z</time></trkpt><trkpt lat="35.9367519" lon="139.2041837"><ele>392.1746761634283</ele><time>2022-12-16T00:01:41Z</time></trkpt><trkpt lat="35.9368009" lon="139.2044069"><ele>394.1211941375691</ele><time>2022-12-16T00:02:14Z</time></trkpt><trkpt lat="35.9368971" lon="139.2045998"><ele>400.14459640207605</ele><time>2022-12-16T00:02:47Z</time></trkpt><trkpt lat="35.9370102" lon="139.2047755"><ele>403.5469622770217</ele><time>2022-12-16T00:03:27Z</time></trkpt><trkpt lat="35.9371011" lon="139.2049689"><ele>410.24076636915805</ele><time>2022-12-16T00:04:27Z</time></trkpt><trkpt lat="35.9372047" lon="139.205172"><ele>415.6914831812042</ele><time>2022-12-16T00:04:42Z</time></trkpt><trkpt lat="35.9373374" lon="139.205324"><ele>422.9850665524825</ele><time>2022-12-16T00:06:02Z</time></trkpt><trkpt lat="35.9374331" lon="139.2055198"><ele>427.59253229224925</ele><time>2022-12-16T00:06:41Z</time></trkpt><trkpt lat="35.9375134" lon="139.205726"><ele>430.5709669777907</ele><time>2022-12-16T00:07:17Z</time></trkpt><trkpt lat="35.9376865" lon="139.2057885"><ele>433.2412378381787</ele><time>2022-12-16T00:07:52Z</time></trkpt><trkpt lat="35.9378197" lon="139.2059521"><ele>434.84115169322536</ele><time>2022-12-16T00:08:39Z</time></trkpt><trkpt lat="35.9378977" lon="139.2061522"><ele>441.56252805081016</ele><time>2022-12-16T00:09:24Z</time></trkpt><trkpt lat="35.9379653" lon="139.2063633"><ele>449.6662153668365</ele><time>2022-12-16T00:10:22Z</time></trkpt><trkpt lat="35.9380349" lon="139.2065847"><ele>459.8186804275636</ele><time>2022-12-16T00:10:49Z</time></trkpt><trkpt lat="35.9381128" lon="139.2067998"><ele>465.8269529309607</ele><time>2022-12-16T00:11:08Z</time></trkpt><trkpt lat="35.9382237" lon="139.2069872"><ele>470.7149379493232</ele><time>2022-12-16T00:11:27Z</time></trkpt><trkpt lat="35.938364" lon="139.2071265"><ele>474.1415384549851</ele><time>2022-12-16T00:12:40Z</time></trkpt><trkpt lat="35.9385436" lon="139.2071474"><ele>477.2865160605834</ele><time>2022-12-16T00:13:25Z</time></trkpt><trkpt lat="35.9384978" lon="139.2073846"><ele>480.81128518701513</ele><time>2022-12-16T00:14:06Z</time></trkpt><trkpt lat="35.9385338" lon="139.207602"><ele>485.41417884186666</ele><time>2022-12-16T00:14:33Z</time></trkpt><trkpt lat="35.938492" lon="139.2078376"><ele>490.81424438813093</ele><time>2022-12-16T00:15:24Z</time></trkpt><trkpt lat="35.9385456" lon="139.2080728"><ele>496.0653893197652</ele><time>2022-12-16T00:15:45Z</time></trkpt><trkpt lat="35.9384366" lon="139.2082538"><ele>500.7566900643378</ele><time>2022-12-16T00:16:27Z</time></trkpt><trkpt lat="35.9383517" lon="139.208469"><ele>502.4530035473305</ele><time>2022-12-16T00:16:41Z</time></trkpt><trkpt lat="35.9383072" lon="139.2086963"><ele>503.71393261610916</ele><time>2022-12-16T00:17:00Z</time></trkpt><trkpt lat="35.9381936" lon="139.2088702"><ele>506.090180767191</ele><time>2022-12-16T00:17:23Z</time></trkpt><trkpt lat="35.938129" lon="139.209089"><ele>509.8914770611511</ele><time>2022-12-16T00:17:39Z</time></trkpt><trkpt lat="35.9380513" lon="139.2092936"><ele>515.4898205385724</ele><time>2022-12-16T00:17:57Z</time></trkpt><trkpt lat="35.9380193" lon="139.2095228"><ele>516.2815416684145</ele><time>2022-12-16T00:18:14Z</time></trkpt><trkpt lat="35.9380673" lon="139.209755"><ele>518.3680201714284</ele><time>2022-12-16T00:19:07Z</time></trkpt><trkpt lat="35.9382116" lon="139.2099001"><ele>517.6424013407783</ele><time>2022-12-16T00:19:41Z</time></trkpt><trkpt lat="35.9383825" lon="139.2099744"><ele>519.4466884951539</ele><time>2022-12-16T00:19:52Z</time></trkpt><trkpt lat="35.9385635" lon="139.2099872"><ele>520.5816495791018</ele><time>2022-12-16T00:20:03Z</time></trkpt><trkpt lat="35.9387326" lon="139.2099068"><ele>519.7755141966213</ele><time>2022-12-16T00:20:19Z</time></trkpt><trkpt lat="35.9389065" lon="139.2099735"><ele>520.2572242165835</ele><time>2022-12-16T00:20:37Z</time></trkpt><trkpt lat="35.9390128" lon="139.2101703"><ele>520.7324567744873</ele><time>2022-12-16T00:21:05Z</time></trkpt><trkpt lat="35.9390613" lon="139.2103851"><ele>524.345811329099</ele><time>2022-12-16T00:21:15Z</time></trkpt><trkpt lat="35.9390848" lon="139.2106066"><ele>526.3010064197036</ele><time>2022-12-16T00:21:27Z</time></trkpt><trkpt lat="35.93914" lon="139.2108379"><ele>525.4924706984351</ele><time>2022-12-16T00:21:43Z</time></trkpt><trkpt lat="35.9393276" lon="139.2108968"><ele>524.7461062056373</ele><time>2022-12-16T00:21:54Z</time></trkpt><trkpt lat="35.9394877" lon="139.2107908"><ele>524.8060119788</ele><time>2022-12-16T00:22:04Z</time></trkpt><trkpt lat="35.9394958" lon="139.2110126"><ele>528.203444720572</ele><time>2022-12-16T00:22:13Z</time></trkpt><trkpt lat="35.9395155" lon="139.2112345"><ele>532.11735557324</ele><time>2022-12-16T00:22:26Z</time></trkpt><trkpt lat="35.9396068" lon="139.2114384"><ele>536.922557100119</ele><time>2022-12-16T00:22:43Z</time></trkpt><trkpt lat="35.9397823" lon="139.2114954"><ele>538.8557716565747</ele><time>2022-12-16T00:22:59Z</time></trkpt><trkpt lat="35.9397259" lon="139.2117104"><ele>539.9038141085579</ele><time>2022-12-16T00:23:07Z</time></trkpt><trkpt lat="35.9397953" lon="139.2119193"><ele>537.314727640149</ele><time>2022-12-16T00:23:33Z</time></trkpt><trkpt lat="35.9399076" lon="139.211742"><ele>534.5543215650004</ele><time>2022-12-16T00:23:57Z</time></trkpt><trkpt lat="35.9400039" lon="139.2119426"><ele>533.147972174862</ele><time>2022-12-16T00:24:09Z</time></trkpt><trkpt lat="35.9400402" lon="139.212179"><ele>535.2758696382117</ele><time>2022-12-16T00:24:19Z</time></trkpt><trkpt lat="35.9401575" lon="139.2123845"><ele>540.5530011883056</ele><time>2022-12-16T00:24:30Z</time></trkpt><trkpt lat="35.9402097" lon="139.2125992"><ele>541.8019668585526</ele><time>2022-12-16T00:25:16Z</time></trkpt><trkpt lat="35.9401418" lon="139.2128088"><ele>542.6283341115046</ele><time>2022-12-16T00:25:33Z</time></trkpt><trkpt lat="35.9400823" lon="139.2130268"><ele>542.5170267042955</ele><time>2022-12-16T00:25:48Z</time></trkpt><trkpt lat="35.9402524" lon="139.2131103"><ele>546.2948636720325</ele><time>2022-12-16T00:26:10Z</time></trkpt><trkpt lat="35.9401975" lon="139.2133439"><ele>549.4617685864363</ele><time>2022-12-16T00:26:27Z</time></trkpt><trkpt lat="35.9402054" lon="139.2136162"><ele>552.4148643314963</ele><time>2022-12-16T00:27:01Z</time></trkpt><trkpt lat="35.9402048" lon="139.2138402"><ele>555.3436369947154</ele><time>2022-12-16T00:27:38Z</time></trkpt><trkpt lat="35.9403666" lon="139.2137226"><ele>560.0119211393841</ele><time>2022-12-16T00:28:06Z</time></trkpt><trkpt lat="35.940525" lon="139.2138329"><ele>563.8570440857652</ele><time>2022-12-16T00:28:13Z</time></trkpt><trkpt lat="35.940588" lon="139.2140605"><ele>568.1528507910874</ele><time>2022-12-16T00:28:24Z</time></trkpt><trkpt lat="35.9405949" lon="139.2143047"><ele>571.0769000389743</ele><time>2022-12-16T00:28:40Z</time></trkpt><trkpt lat="35.9406992" lon="139.2144909"><ele>575.0763510795633</ele><time>2022-12-16T00:28:58Z</time></trkpt><trkpt lat="35.9407868" lon="139.2147023"><ele>577.1245164153614</ele><time>2022-12-16T00:29:31Z</time></trkpt><trkpt lat="35.9408687" lon="139.2149"><ele>576.9963142281168</ele><time>2022-12-16T00:30:03Z</time></trkpt><trkpt lat="35.9410287" lon="139.21508"><ele>577.5819022171331</ele><time>2022-12-16T00:30:22Z</time></trkpt><trkpt lat="35.9411886" lon="139.2151868"><ele>578.7498169090107</ele><time>2022-12-16T00:30:32Z</time></trkpt><trkpt lat="35.9412851" lon="139.2153772"><ele>581.8878280373918</ele><time>2022-12-16T00:31:16Z</time></trkpt><trkpt lat="35.941292" lon="139.2156"><ele>584.1805587535608</ele><time>2022-12-16T00:32:20Z</time></trkpt><trkpt lat="35.941191" lon="139.215808"><ele>586.1317627050305</ele><time>2022-12-16T00:32:34Z</time></trkpt><trkpt lat="35.9412686" lon="139.2160292"><ele>587.896712860103</ele><time>2022-12-16T00:33:12Z</time></trkpt><trkpt lat="35.9413895" lon="139.2162185"><ele>590.8130084746472</ele><time>2022-12-16T00:33:20Z</time></trkpt><trkpt lat="35.9415214" lon="139.2163741"><ele>593.5241350665123</ele><time>2022-12-16T00:33:39Z</time></trkpt><trkpt lat="35.9416732" lon="139.2165057"><ele>597.6152293547206</ele><time>2022-12-16T00:34:01Z</time></trkpt><trkpt lat="35.9415687" lon="139.2166877"><ele>599.7211320593022</ele><time>2022-12-16T00:35:17Z</time></trkpt><trkpt lat="35.9413896" lon="139.2167154"><ele>601.2958775763042</ele><time>2022-12-16T00:35:30Z</time></trkpt><trkpt lat="35.9412152" lon="139.2168014"><ele>600.3413798003849</ele><time>2022-12-16T00:35:46Z</time></trkpt><trkpt lat="35.9410447" lon="139.2169243"><ele>597.9330102996754</ele><time>2022-12-16T00:35:58Z</time></trkpt><trkpt lat="35.940984" lon="139.2171374"><ele>593.5610554871608</ele><time>2022-12-16T00:36:46Z</time></trkpt><trkpt lat="35.9408808" lon="139.2173247"><ele>589.4510177765384</ele><time>2022-12-16T00:37:28Z</time></trkpt><trkpt lat="35.9407425" lon="139.2174672"><ele>587.3808074762155</ele><time>2022-12-16T00:37:39Z</time></trkpt><trkpt lat="35.9406176" lon="139.2176278"><ele>586.4986087840824</ele><time>2022-12-16T00:37:49Z</time></trkpt><trkpt lat="35.9404205" lon="139.217675"><ele>584.2771592156786</ele><time>2022-12-16T00:38:00Z</time></trkpt><trkpt lat="35.9403578" lon="139.2178953"><ele>581.971039648079</ele><time>2022-12-16T00:38:10Z</time></trkpt><trkpt lat="35.9402246" lon="139.217734"><ele>580.6790283370195</ele><time>2022-12-16T00:38:20Z</time></trkpt><trkpt lat="35.9400624" lon="139.2176315"><ele>579.7331577289133</ele><time>2022-12-16T00:38:42Z</time></trkpt><trkpt lat="35.940025" lon="139.2178664"><ele>578.8853441593064</ele><time>2022-12-16T00:38:55Z</time></trkpt><trkpt lat="35.9400812" lon="139.2180951"><ele>577.6356182827845</ele><time>2022-12-16T00:39:03Z</time></trkpt><trkpt lat="35.9401401" lon="139.2183148"><ele>576.3131143852447</ele><time>2022-12-16T00:39:15Z</time></trkpt><trkpt lat="35.9401697" lon="139.2185472"><ele>574.2905806898419</ele><time>2022-12-16T00:39:26Z</time></trkpt><trkpt lat="35.9400804" lon="139.2187409"><ele>571.5682715864832</ele><time>2022-12-16T00:39:37Z</time></trkpt><trkpt lat="35.9399152" lon="139.2188391"><ele>570.0115825145722</ele><time>2022-12-16T00:39:48Z</time></trkpt><trkpt lat="35.9397259" lon="139.2188367"><ele>568.1204855867936</ele><time>2022-12-16T00:40:10Z</time></trkpt><trkpt lat="35.9396558" lon="139.2190449"><ele>569.7791871634207</ele><time>2022-12-16T00:40:24Z</time></trkpt><trkpt lat="35.9397059" lon="139.2188304"><ele>570.4155390093815</ele><time>2022-12-16T00:41:22Z</time></trkpt><trkpt lat="35.9397866" lon="139.2190381"><ele>571.7106117489269</ele><time>2022-12-16T00:42:12Z</time></trkpt><trkpt lat="35.9399321" lon="139.2191719"><ele>574.0639110993808</ele><time>2022-12-16T00:44:10Z</time></trkpt><trkpt lat="35.940061" lon="139.2190108"><ele>580.6316647405507</ele><time>2022-12-16T00:44:58Z</time></trkpt><trkpt lat="35.9402428" lon="139.2189627"><ele>585.5924445516916</ele><time>2022-12-16T00:46:15Z</time></trkpt><trkpt lat="35.9404214" lon="139.2189152"><ele>589.6246401864132</ele><time>2022-12-16T00:47:28Z</time></trkpt><trkpt lat="35.9404565" lon="139.2191373"><ele>593.3196985436197</ele><time>2022-12-16T00:48:10Z</time></trkpt><trkpt lat="35.9405777" lon="139.2193403"><ele>601.2355844290878</ele><time>2022-12-16T00:49:04Z</time></trkpt><trkpt lat="35.9407451" lon="139.2194663"><ele>608.0625209475362</ele><time>2022-12-16T00:49:22Z</time></trkpt><trkpt lat="35.9409243" lon="139.2194314"><ele>616.648614895718</ele><time>2022-12-16T00:51:23Z</time></trkpt><trkpt lat="35.9410918" lon="139.2193336"><ele>624.271269324418</ele><time>2022-12-16T00:51:52Z</time></trkpt><trkpt lat="35.9412707" lon="139.2192793"><ele>632.3134833914256</ele><time>2022-12-16T00:52:39Z</time></trkpt><trkpt lat="35.9414516" lon="139.2192805"><ele>637.8169435344813</ele><time>2022-12-16T00:53:16Z</time></trkpt><trkpt lat="35.9414643" lon="139.2195038"><ele>641.7974620389715</ele><time>2022-12-16T00:53:52Z</time></trkpt><trkpt lat="35.9416339" lon="139.2195895"><ele>644.8424892597401</ele><time>2022-12-16T00:54:15Z</time></trkpt><trkpt lat="35.9417762" lon="139.2197706"><ele>645.9012649983616</ele><time>2022-12-16T00:54:28Z</time></trkpt><trkpt lat="35.9415969" lon="139.2198588"><ele>647.7686129033332</ele><time>2022-12-16T00:54:43Z</time></trkpt><trkpt lat="35.941569" lon="139.220078"><ele>646.1585170859107</ele><time>2022-12-16T00:55:51Z</time></trkpt><trkpt lat="35.9414849" lon="139.220277"><ele>645.0345734585956</ele><time>2022-12-16T00:56:13Z</time></trkpt><trkpt lat="35.941408" lon="139.2204807"><ele>643.4251038501744</ele><time>2022-12-16T00:56:31Z</time></trkpt><trkpt lat="35.9412995" lon="139.220659"><ele>645.3807969576463</ele><time>2022-12-16T00:56:42Z</time></trkpt><trkpt lat="35.9412861" lon="139.220887"><ele>651.8885612353934</ele><time>2022-12-16T00:57:01Z</time></trkpt><trkpt lat="35.9414448" lon="139.2210002"><ele>659.2988794269316</ele><time>2022-12-16T00:57:21Z</time></trkpt><trkpt lat="35.9416124" lon="139.2209141"><ele>665.4570493545771</ele><time>2022-12-16T00:57:52Z</time></trkpt><trkpt lat="35.9417539" lon="139.220759"><ele>666.7128969556355</ele><time>2022-12-16T00:58:26Z</time></trkpt><trkpt lat="35.9419417" lon="139.2208203"><ele>668.2609245988937</ele><time>2022-12-16T00:58:52Z</time></trkpt><trkpt lat="35.9420948" lon="139.2209405"><ele>671.3646811064531</ele><time>2022-12-16T00:59:19Z</time></trkpt><trkpt lat="35.9422747" lon="139.2209603"><ele>676.3476686626353</ele><time>2022-12-16T00:59:52Z</time></trkpt><trkpt lat="35.9424643" lon="139.2209941"><ele>682.4069224407782</ele><time>2022-12-16T01:00:28Z</time></trkpt><trkpt lat="35.942635" lon="139.2210723"><ele>689.9731136623836</ele><time>2022-12-16T01:00:49Z</time></trkpt><trkpt lat="35.9428142" lon="139.2210411"><ele>696.3378316573877</ele><time>2022-12-16T01:01:10Z</time></trkpt><trkpt lat="35.9429851" lon="139.2211126"><ele>701.3173587815637</ele><time>2022-12-16T01:01:32Z</time></trkpt><trkpt lat="35.943087" lon="139.2213007"><ele>704.303098493593</ele><time>2022-12-16T01:01:49Z</time></trkpt><trkpt lat="35.9432666" lon="139.2213357"><ele>705.7066940145469</ele><time>2022-12-16T01:02:04Z</time></trkpt><trkpt lat="35.9434353" lon="139.2212479"><ele>706.1550836719957</ele><time>2022-12-16T01:02:34Z</time></trkpt><trkpt lat="35.943622" lon="139.2212458"><ele>709.6355885001886</ele><time>2022-12-16T01:03:28Z</time></trkpt><trkpt lat="35.9438049" lon="139.2212912"><ele>713.6463618496756</ele><time>2022-12-16T01:03:52Z</time></trkpt><trkpt lat="35.9439165" lon="139.2214687"><ele>718.8738451680751</ele><time>2022-12-16T01:04:24Z</time></trkpt><trkpt lat="35.9440787" lon="139.2215658"><ele>722.5925729112596</ele><time>2022-12-16T01:05:08Z</time></trkpt><trkpt lat="35.9442664" lon="139.2216278"><ele>727.1450329022592</ele><time>2022-12-16T01:05:23Z</time></trkpt><trkpt lat="35.9444394" lon="139.2216946"><ele>731.5903689688467</ele><time>2022-12-16T01:05:45Z</time></trkpt><trkpt lat="35.9446074" lon="139.2217768"><ele>738.0470239626779</ele><time>2022-12-16T01:06:24Z</time></trkpt><trkpt lat="35.9447871" lon="139.2218484"><ele>743.6276568392763</ele><time>2022-12-16T01:06:43Z</time></trkpt><trkpt lat="35.9449692" lon="139.2218529"><ele>749.2396509770861</ele><time>2022-12-16T01:07:22Z</time></trkpt><trkpt lat="35.9451543" lon="139.2218499"><ele>749.4931249419445</ele><time>2022-12-16T01:07:37Z</time></trkpt><trkpt lat="35.9453315" lon="139.2219219"><ele>750.5244713006608</ele><time>2022-12-16T01:07:49Z</time></trkpt><trkpt lat="35.9455007" lon="139.222004"><ele>751.0707134208516</ele><time>2022-12-16T01:08:13Z</time></trkpt><trkpt lat="35.9456484" lon="139.2221396"><ele>755.891627856463</ele><time>2022-12-16T01:08:41Z</time></trkpt><trkpt lat="35.945806" lon="139.222021"><ele>761.2798941558091</ele><time>2022-12-16T01:09:06Z</time></trkpt><trkpt lat="35.9459912" lon="139.2219713"><ele>767.1718047483106</ele><time>2022-12-16T01:09:22Z</time></trkpt><trkpt lat="35.945872" lon="139.2221412"><ele>769.8995909911304</ele><time>2022-12-16T01:13:10Z</time></trkpt><trkpt lat="35.946001" lon="139.2219838"><ele>771.0473173234258</ele><time>2022-12-16T01:15:48Z</time></trkpt><trkpt lat="35.9458207" lon="139.2220053"><ele>770.3982908652043</ele><time>2022-12-16T01:16:15Z</time></trkpt><trkpt lat="35.9459411" lon="139.2221708"><ele>769.4556508556076</ele><time>2022-12-16T01:17:53Z</time></trkpt><trkpt lat="35.9459867" lon="139.2219524"><ele>765.9176204621091</ele><time>2022-12-16T01:22:15Z</time></trkpt><trkpt lat="35.9461657" lon="139.221905"><ele>766.0899565910713</ele><time>2022-12-16T01:23:46Z</time></trkpt><trkpt lat="35.9461766" lon="139.2221379"><ele>766.1418563063404</ele><time>2022-12-16T01:23:56Z</time></trkpt><trkpt lat="35.9463546" lon="139.2221748"><ele>767.7602451735041</ele><time>2022-12-16T01:24:06Z</time></trkpt><trkpt lat="35.9464665" lon="139.2219749"><ele>763.4698114716897</ele><time>2022-12-16T01:24:18Z</time></trkpt><trkpt lat="35.9465977" lon="139.2221457"><ele>763.6963366962976</ele><time>2022-12-16T01:24:45Z</time></trkpt><trkpt lat="35.9467634" lon="139.2222366"><ele>765.6965579688585</ele><time>2022-12-16T01:24:58Z</time></trkpt><trkpt lat="35.9468903" lon="139.2220715"><ele>768.4389096492638</ele><time>2022-12-16T01:25:45Z</time></trkpt><trkpt lat="35.947024" lon="139.221916"><ele>766.121034632835</ele><time>2022-12-16T01:26:25Z</time></trkpt><trkpt lat="35.9471273" lon="139.2217327"><ele>763.4251171328115</ele><time>2022-12-16T01:26:45Z</time></trkpt><trkpt lat="35.9472947" lon="139.2216019"><ele>761.2484304259175</ele><time>2022-12-16T01:26:59Z</time></trkpt><trkpt lat="35.9471592" lon="139.2214497"><ele>757.7893074192135</ele><time>2022-12-16T01:27:46Z</time></trkpt><trkpt lat="35.9471546" lon="139.2212141"><ele>754.2784499850642</ele><time>2022-12-16T01:28:05Z</time></trkpt><trkpt lat="35.9471959" lon="139.220991"><ele>751.6124021670186</ele><time>2022-12-16T01:28:19Z</time></trkpt><trkpt lat="35.9473404" lon="139.2208428"><ele>751.2545445031411</ele><time>2022-12-16T01:28:33Z</time></trkpt><trkpt lat="35.9474935" lon="139.2207053"><ele>750.7037307972242</ele><time>2022-12-16T01:28:45Z</time></trkpt><trkpt lat="35.9476825" lon="139.2206942"><ele>751.2445738017749</ele><time>2022-12-16T01:28:59Z</time></trkpt><trkpt lat="35.9478441" lon="139.2207945"><ele>751.5759871270471</ele><time>2022-12-16T01:29:11Z</time></trkpt><trkpt lat="35.948026" lon="139.220802"><ele>753.1471990607948</ele><time>2022-12-16T01:29:40Z</time></trkpt><trkpt lat="35.9482358" lon="139.2207103"><ele>751.9222265006703</ele><time>2022-12-16T01:29:52Z</time></trkpt><trkpt lat="35.9483826" lon="139.2205692"><ele>751.400007386343</ele><time>2022-12-16T01:30:00Z</time></trkpt><trkpt lat="35.9485108" lon="139.220407"><ele>750.7380991355863</ele><time>2022-12-16T01:30:16Z</time></trkpt><trkpt lat="35.9485565" lon="139.2201893"><ele>751.8782102176193</ele><time>2022-12-16T01:30:30Z</time></trkpt><trkpt lat="35.9486366" lon="139.2199896"><ele>751.8502984581777</ele><time>2022-12-16T01:30:36Z</time></trkpt><trkpt lat="35.9487821" lon="139.2198576"><ele>753.64374303696</ele><time>2022-12-16T01:30:44Z</time></trkpt><trkpt lat="35.9488694" lon="139.2196598"><ele>757.1531213667362</ele><time>2022-12-16T01:31:00Z</time></trkpt><trkpt lat="35.9489906" lon="139.2194777"><ele>761.221248727953</ele><time>2022-12-16T01:31:15Z</time></trkpt><trkpt lat="35.9490013" lon="139.2192528"><ele>763.8033752210646</ele><time>2022-12-16T01:31:26Z</time></trkpt><trkpt lat="35.9490003" lon="139.2190273"><ele>766.012344423462</ele><time>2022-12-16T01:31:40Z</time></trkpt><trkpt lat="35.9488866" lon="139.218854"><ele>768.4002592403593</ele><time>2022-12-16T01:31:49Z</time></trkpt><trkpt lat="35.9488527" lon="139.2186336"><ele>769.2519566129245</ele><time>2022-12-16T01:32:03Z</time></trkpt><trkpt lat="35.9487457" lon="139.2184547"><ele>767.8788973403989</ele><time>2022-12-16T01:32:14Z</time></trkpt><trkpt lat="35.9487876" lon="139.2182381"><ele>764.6946647041018</ele><time>2022-12-16T01:32:28Z</time></trkpt><trkpt lat="35.9489196" lon="139.2180726"><ele>761.6384610931801</ele><time>2022-12-16T01:32:42Z</time></trkpt><trkpt lat="35.9490557" lon="139.2179144"><ele>759.3777041345053</ele><time>2022-12-16T01:32:59Z</time></trkpt><trkpt lat="35.9491612" lon="139.2176994"><ele>758.6810757401591</ele><time>2022-12-16T01:33:06Z</time></trkpt><trkpt lat="35.9492926" lon="139.2175156"><ele>759.1103923447137</ele><time>2022-12-16T01:33:18Z</time></trkpt><trkpt lat="35.9494806" lon="139.2174837"><ele>758.0616623348611</ele><time>2022-12-16T01:33:41Z</time></trkpt><trkpt lat="35.9496522" lon="139.2176003"><ele>756.8182739426566</ele><time>2022-12-16T01:33:53Z</time></trkpt><trkpt lat="35.9498265" lon="139.2176588"><ele>751.4713750964887</ele><time>2022-12-16T01:34:07Z</time></trkpt><trkpt lat="35.9500248" lon="139.2176508"><ele>748.4688752284259</ele><time>2022-12-16T01:34:19Z</time></trkpt><trkpt lat="35.950226" lon="139.2176968"><ele>746.3543038513384</ele><time>2022-12-16T01:34:26Z</time></trkpt><trkpt lat="35.9503889" lon="139.2175695"><ele>747.6585037192391</ele><time>2022-12-16T01:34:45Z</time></trkpt><trkpt lat="35.9505319" lon="139.2174128"><ele>746.1583751580753</ele><time>2022-12-16T01:34:58Z</time></trkpt><trkpt lat="35.9506396" lon="139.2172148"><ele>743.6424574085098</ele><time>2022-12-16T01:35:12Z</time></trkpt><trkpt lat="35.9508185" lon="139.2171548"><ele>740.5140857140387</ele><time>2022-12-16T01:35:28Z</time></trkpt><trkpt lat="35.9510057" lon="139.2172211"><ele>742.3880650203114</ele><time>2022-12-16T01:35:44Z</time></trkpt><trkpt lat="35.9511144" lon="139.2170305"><ele>746.4938109681801</ele><time>2022-12-16T01:36:03Z</time></trkpt><trkpt lat="35.9512175" lon="139.2168428"><ele>750.5298036826621</ele><time>2022-12-16T01:36:16Z</time></trkpt><trkpt lat="35.9513884" lon="139.2169178"><ele>753.3442279038308</ele><time>2022-12-16T01:36:24Z</time></trkpt><trkpt lat="35.9515417" lon="139.2170493"><ele>755.1231564013493</ele><time>2022-12-16T01:36:28Z</time></trkpt><trkpt lat="35.9517233" lon="139.2170078"><ele>759.5480829524305</ele><time>2022-12-16T01:36:56Z</time></trkpt><trkpt lat="35.9517968" lon="139.2168007"><ele>760.6038824247053</ele><time>2022-12-16T01:37:05Z</time></trkpt><trkpt lat="35.9518633" lon="139.2165745"><ele>759.6445168191425</ele><time>2022-12-16T01:37:20Z</time></trkpt><trkpt lat="35.9520241" lon="139.2164569"><ele>757.6064832000092</ele><time>2022-12-16T01:37:27Z</time></trkpt><trkpt lat="35.9522378" lon="139.2163771"><ele>757.3497751215091</ele><time>2022-12-16T01:37:36Z</time></trkpt><trkpt lat="35.9523321" lon="139.2161773"><ele>760.8526672166698</ele><time>2022-12-16T01:38:14Z</time></trkpt><trkpt lat="35.9523847" lon="139.2159627"><ele>763.0579540485755</ele><time>2022-12-16T01:38:22Z</time></trkpt><trkpt lat="35.9524375" lon="139.2157322"><ele>767.430809528098</ele><time>2022-12-16T01:38:41Z</time></trkpt><trkpt lat="35.9524115" lon="139.2155065"><ele>769.6236170621656</ele><time>2022-12-16T01:38:54Z</time></trkpt><trkpt lat="35.9523148" lon="139.2153039"><ele>769.1942099853624</ele><time>2022-12-16T01:39:11Z</time></trkpt><trkpt lat="35.9522824" lon="139.2150794"><ele>766.2847872028748</ele><time>2022-12-16T01:39:26Z</time></trkpt><trkpt lat="35.9523122" lon="139.2148412"><ele>763.0284272317564</ele><time>2022-12-16T01:39:37Z</time></trkpt><trkpt lat="35.9524492" lon="139.2146823"><ele>763.1473387087752</ele><time>2022-12-16T01:39:44Z</time></trkpt><trkpt lat="35.9525904" lon="139.2145341"><ele>764.584476046873</ele><time>2022-12-16T01:39:55Z</time></trkpt><trkpt lat="35.9527742" lon="139.2146064"><ele>766.2209483762394</ele><time>2022-12-16T01:40:12Z</time></trkpt><trkpt lat="35.9529584" lon="139.2145841"><ele>768.1155937940799</ele><time>2022-12-16T01:40:25Z</time></trkpt><trkpt lat="35.9531487" lon="139.2145234"><ele>768.7536654230084</ele><time>2022-12-16T01:40:37Z</time></trkpt><trkpt lat="35.9533409" lon="139.2145411"><ele>768.164877494924</ele><time>2022-12-16T01:40:52Z</time></trkpt><trkpt lat="35.9535194" lon="139.2145939"><ele>767.8171011704567</ele><time>2022-12-16T01:41:07Z</time></trkpt><trkpt lat="35.953726" lon="139.2145954"><ele>768.3502838651393</ele><time>2022-12-16T01:41:27Z</time></trkpt><trkpt lat="35.9539094" lon="139.2145284"><ele>770.4585750154929</ele><time>2022-12-16T01:41:39Z</time></trkpt><trkpt lat="35.9540152" lon="139.2143437"><ele>771.7194935479642</ele><time>2022-12-16T01:41:50Z</time></trkpt><trkpt lat="35.9540266" lon="139.2141084"><ele>771.1795831580354</ele><time>2022-12-16T01:42:00Z</time></trkpt><trkpt lat="35.9541877" lon="139.2140011"><ele>772.4706549494376</ele><time>2022-12-16T01:42:15Z</time></trkpt><trkpt lat="35.9543819" lon="139.2138725"><ele>772.7022848498892</ele><time>2022-12-16T01:42:22Z</time></trkpt><trkpt lat="35.9543765" lon="139.2136481"><ele>775.4684080953471</ele><time>2022-12-16T01:42:34Z</time></trkpt><trkpt lat="35.9544518" lon="139.2134425"><ele>774.7046764405237</ele><time>2022-12-16T01:42:59Z</time></trkpt><trkpt lat="35.9545721" lon="139.2132657"><ele>776.1244505513065</ele><time>2022-12-16T01:43:18Z</time></trkpt><trkpt lat="35.9547396" lon="139.2131734"><ele>776.9190650750202</ele><time>2022-12-16T01:43:28Z</time></trkpt><trkpt lat="35.9549135" lon="139.2131117"><ele>779.0663114249173</ele><time>2022-12-16T01:43:42Z</time></trkpt><trkpt lat="35.9551152" lon="139.2131971"><ele>780.9183449403727</ele><time>2022-12-16T01:43:55Z</time></trkpt><trkpt lat="35.9552959" lon="139.2131422"><ele>781.1509814537718</ele><time>2022-12-16T01:44:05Z</time></trkpt><trkpt lat="35.9554545" lon="139.2130088"><ele>781.817725511109</ele><time>2022-12-16T01:44:13Z</time></trkpt><trkpt lat="35.9555533" lon="139.2128139"><ele>781.7295909836002</ele><time>2022-12-16T01:44:23Z</time></trkpt><trkpt lat="35.9557438" lon="139.2127969"><ele>783.0397987274602</ele><time>2022-12-16T01:44:35Z</time></trkpt><trkpt lat="35.9557916" lon="139.2125759"><ele>778.6702351181472</ele><time>2022-12-16T01:45:35Z</time></trkpt><trkpt lat="35.9559767" lon="139.2125085"><ele>774.1417916769196</ele><time>2022-12-16T01:45:46Z</time></trkpt><trkpt lat="35.9561577" lon="139.2124555"><ele>769.4574353118741</ele><time>2022-12-16T01:45:57Z</time></trkpt><trkpt lat="35.956341" lon="139.212486"><ele>770.5923942940907</ele><time>2022-12-16T01:46:10Z</time></trkpt><trkpt lat="35.9565228" lon="139.2124271"><ele>773.3580852802844</ele><time>2022-12-16T01:46:20Z</time></trkpt><trkpt lat="35.9566656" lon="139.212266"><ele>778.6249477945431</ele><time>2022-12-16T01:46:35Z</time></trkpt><trkpt lat="35.9568245" lon="139.212127"><ele>778.9885125867055</ele><time>2022-12-16T01:47:15Z</time></trkpt><trkpt lat="35.9570032" lon="139.2120485"><ele>780.6117272849083</ele><time>2022-12-16T01:47:25Z</time></trkpt><trkpt lat="35.9571678" lon="139.2119561"><ele>779.5440828060426</ele><time>2022-12-16T01:47:34Z</time></trkpt><trkpt lat="35.9573248" lon="139.2118402"><ele>784.6207139626055</ele><time>2022-12-16T01:47:46Z</time></trkpt><trkpt lat="35.9573836" lon="139.2116111"><ele>785.3656600697528</ele><time>2022-12-16T01:47:57Z</time></trkpt><trkpt lat="35.9575301" lon="139.211464"><ele>784.8783627186416</ele><time>2022-12-16T01:48:52Z</time></trkpt><trkpt lat="35.9573962" lon="139.2116816"><ele>782.8076534558387</ele><time>2022-12-16T01:50:07Z</time></trkpt><trkpt lat="35.9573757" lon="139.2119181"><ele>781.5056825391626</ele><time>2022-12-16T01:50:23Z</time></trkpt><trkpt lat="35.957311" lon="139.2121281"><ele>779.9509654551449</ele><time>2022-12-16T01:51:11Z</time></trkpt><trkpt lat="35.9571915" lon="139.2123005"><ele>778.4604802574348</ele><time>2022-12-16T01:51:21Z</time></trkpt><trkpt lat="35.9571624" lon="139.2125302"><ele>778.2228019291942</ele><time>2022-12-16T01:51:35Z</time></trkpt><trkpt lat="35.9571382" lon="139.2127984"><ele>776.7635550948007</ele><time>2022-12-16T01:52:15Z</time></trkpt><trkpt lat="35.9570402" lon="139.2129922"><ele>774.37624602207</ele><time>2022-12-16T01:52:38Z</time></trkpt><trkpt lat="35.9570121" lon="139.2132262"><ele>769.8985622637101</ele><time>2022-12-16T01:52:53Z</time></trkpt><trkpt lat="35.9569141" lon="139.2134165"><ele>766.9983988138192</ele><time>2022-12-16T01:53:08Z</time></trkpt><trkpt lat="35.9568792" lon="139.2136376"><ele>761.1133825762691</ele><time>2022-12-16T01:53:38Z</time></trkpt><trkpt lat="35.9569903" lon="139.2138239"><ele>757.6002226895429</ele><time>2022-12-16T01:53:51Z</time></trkpt><trkpt lat="35.9570893" lon="139.2140157"><ele>753.8969894141613</ele><time>2022-12-16T01:54:02Z</time></trkpt><trkpt lat="35.9571659" lon="139.2142186"><ele>752.4698877053885</ele><time>2022-12-16T01:54:15Z</time></trkpt><trkpt lat="35.9571747" lon="139.2144454"><ele>748.5750398245455</ele><time>2022-12-16T01:54:28Z</time></trkpt><trkpt lat="35.9571088" lon="139.2146637"><ele>741.8247324846799</ele><time>2022-12-16T01:55:31Z</time></trkpt><trkpt lat="35.9569889" lon="139.2148324"><ele>735.3452401160839</ele><time>2022-12-16T01:56:40Z</time></trkpt><trkpt lat="35.9570374" lon="139.2150584"><ele>731.7568760759368</ele><time>2022-12-16T01:57:00Z</time></trkpt><trkpt lat="35.9572029" lon="139.2151638"><ele>731.7442085837826</ele><time>2022-12-16T01:57:21Z</time></trkpt><trkpt lat="35.9573192" lon="139.215343"><ele>730.3562600642581</ele><time>2022-12-16T01:57:33Z</time></trkpt><trkpt lat="35.9574966" lon="139.2152989"><ele>725.4058936584292</ele><time>2022-12-16T01:58:01Z</time></trkpt><trkpt lat="35.9576841" lon="139.2152982"><ele>719.4456523526727</ele><time>2022-12-16T01:59:09Z</time></trkpt><trkpt lat="35.9576447" lon="139.21554"><ele>715.2845206354706</ele><time>2022-12-16T01:59:49Z</time></trkpt><trkpt lat="35.9577978" lon="139.2156645"><ele>711.6280703721741</ele><time>2022-12-16T02:00:03Z</time></trkpt><trkpt lat="35.95798" lon="139.2156952"><ele>706.5380933141017</ele><time>2022-12-16T02:00:44Z</time></trkpt><trkpt lat="35.9580682" lon="139.2158983"><ele>701.713562975508</ele><time>2022-12-16T02:00:58Z</time></trkpt><trkpt lat="35.9581246" lon="139.2161098"><ele>698.3402134662784</ele><time>2022-12-16T02:01:14Z</time></trkpt><trkpt lat="35.9583156" lon="139.2161165"><ele>695.4443764628262</ele><time>2022-12-16T02:01:25Z</time></trkpt><trkpt lat="35.9583772" lon="139.2163315"><ele>688.8867413063455</ele><time>2022-12-16T02:02:20Z</time></trkpt><trkpt lat="35.9582991" lon="139.2165933"><ele>683.19593618895</ele><time>2022-12-16T02:02:25Z</time></trkpt><trkpt lat="35.9583855" lon="139.2168107"><ele>679.3973382709686</ele><time>2022-12-16T02:02:40Z</time></trkpt><trkpt lat="35.9584598" lon="139.2170151"><ele>680.7447056733953</ele><time>2022-12-16T02:02:56Z</time></trkpt><trkpt lat="35.9585321" lon="139.2172321"><ele>680.9909548420369</ele><time>2022-12-16T02:03:25Z</time></trkpt><trkpt lat="35.9585798" lon="139.2174534"><ele>680.1236218076607</ele><time>2022-12-16T02:03:42Z</time></trkpt><trkpt lat="35.9585584" lon="139.2176755"><ele>678.1764505251311</ele><time>2022-12-16T02:04:11Z</time></trkpt><trkpt lat="35.9585986" lon="139.2179028"><ele>675.5653629395255</ele><time>2022-12-16T02:04:41Z</time></trkpt><trkpt lat="35.9585863" lon="139.2181299"><ele>675.2090504391944</ele><time>2022-12-16T02:04:56Z</time></trkpt><trkpt lat="35.9585445" lon="139.2183566"><ele>673.8095147048303</ele><time>2022-12-16T02:05:11Z</time></trkpt><trkpt lat="35.9585233" lon="139.2185847"><ele>674.9058439314346</ele><time>2022-12-16T02:05:24Z</time></trkpt><trkpt lat="35.9584905" lon="139.2188143"><ele>676.7864651887377</ele><time>2022-12-16T02:05:44Z</time></trkpt><trkpt lat="35.9585389" lon="139.2190284"><ele>678.6532125753728</ele><time>2022-12-16T02:06:00Z</time></trkpt><trkpt lat="35.9585798" lon="139.2192462"><ele>680.7526152637507</ele><time>2022-12-16T02:06:15Z</time></trkpt><trkpt lat="35.9586205" lon="139.21947"><ele>679.535441351286</ele><time>2022-12-16T02:06:36Z</time></trkpt><trkpt lat="35.958651" lon="139.2196922"><ele>679.3436477661497</ele><time>2022-12-16T02:07:24Z</time></trkpt><trkpt lat="35.9585912" lon="139.2199093"><ele>675.9444962475328</ele><time>2022-12-16T02:07:38Z</time></trkpt><trkpt lat="35.9585795" lon="139.2201306"><ele>674.521682791065</ele><time>2022-12-16T02:07:59Z</time></trkpt><trkpt lat="35.9585485" lon="139.2203546"><ele>671.7751119549465</ele><time>2022-12-16T02:08:12Z</time></trkpt><trkpt lat="35.9585363" lon="139.2205833"><ele>669.8138345529422</ele><time>2022-12-16T02:08:23Z</time></trkpt><trkpt lat="35.9585069" lon="139.2208029"><ele>664.0500597929704</ele><time>2022-12-16T02:08:37Z</time></trkpt><trkpt lat="35.9586591" lon="139.2209341"><ele>658.7009120839754</ele><time>2022-12-16T02:08:48Z</time></trkpt><trkpt lat="35.9587556" lon="139.2211284"><ele>653.5280139615601</ele><time>2022-12-16T02:09:04Z</time></trkpt><trkpt lat="35.9588576" lon="139.221328"><ele>651.756548795634</ele><time>2022-12-16T02:09:18Z</time></trkpt><trkpt lat="35.9587263" lon="139.2214912"><ele>650.8429392678785</ele><time>2022-12-16T02:09:51Z</time></trkpt><trkpt lat="35.958646" lon="139.2216956"><ele>648.3866866757015</ele><time>2022-12-16T02:09:58Z</time></trkpt><trkpt lat="35.9587187" lon="139.2219029"><ele>644.1576725722579</ele><time>2022-12-16T02:10:38Z</time></trkpt><trkpt lat="35.9587315" lon="139.2221311"><ele>640.4601076651317</ele><time>2022-12-16T02:11:35Z</time></trkpt><trkpt lat="35.9588119" lon="139.2223524"><ele>641.9069348071015</ele><time>2022-12-16T02:11:44Z</time></trkpt><trkpt lat="35.9587904" lon="139.2225813"><ele>644.6742277021741</ele><time>2022-12-16T02:12:12Z</time></trkpt><trkpt lat="35.9588712" lon="139.222797"><ele>642.6754025257459</ele><time>2022-12-16T02:12:26Z</time></trkpt><trkpt lat="35.958843" lon="139.2230213"><ele>635.2932270630671</ele><time>2022-12-16T02:12:44Z</time></trkpt><trkpt lat="35.958853" lon="139.2232526"><ele>628.3259818479424</ele><time>2022-12-16T02:13:00Z</time></trkpt><trkpt lat="35.9587872" lon="139.2234646"><ele>625.7667936711711</ele><time>2022-12-16T02:13:09Z</time></trkpt><trkpt lat="35.9587009" lon="139.2236659"><ele>626.2518180677863</ele><time>2022-12-16T02:13:20Z</time></trkpt><trkpt lat="35.9585873" lon="139.2238421"><ele>627.5230628018762</ele><time>2022-12-16T02:13:30Z</time></trkpt><trkpt lat="35.9584705" lon="139.2240236"><ele>629.6401208371914</ele><time>2022-12-16T02:13:46Z</time></trkpt><trkpt lat="35.9585016" lon="139.2242462"><ele>629.0783497566541</ele><time>2022-12-16T02:14:13Z</time></trkpt><trkpt lat="35.9586776" lon="139.2243649"><ele>626.1220824688863</ele><time>2022-12-16T02:14:23Z</time></trkpt><trkpt lat="35.9588581" lon="139.2244188"><ele>620.0759986201356</ele><time>2022-12-16T02:14:32Z</time></trkpt><trkpt lat="35.9588236" lon="139.224642"><ele>616.5266296102285</ele><time>2022-12-16T02:14:47Z</time></trkpt><trkpt lat="35.9590017" lon="139.2246931"><ele>615.2716828693227</ele><time>2022-12-16T02:15:10Z</time></trkpt><trkpt lat="35.9591764" lon="139.22479"><ele>613.9783053094912</ele><time>2022-12-16T02:15:26Z</time></trkpt><trkpt lat="35.9592493" lon="139.2249988"><ele>614.6833569741797</ele><time>2022-12-16T02:15:35Z</time></trkpt><trkpt lat="35.9592966" lon="139.2252229"><ele>614.7018117991826</ele><time>2022-12-16T02:15:45Z</time></trkpt><trkpt lat="35.9593582" lon="139.2254328"><ele>612.3710244417813</ele><time>2022-12-16T02:24:06Z</time></trkpt><trkpt lat="35.9594973" lon="139.2255778"><ele>605.8629098258724</ele><time>2022-12-16T02:24:35Z</time></trkpt><trkpt lat="35.959479" lon="139.2257986"><ele>599.5536997750397</ele><time>2022-12-16T02:25:13Z</time></trkpt><trkpt lat="35.9593378" lon="139.2259435"><ele>596.4995143111922</ele><time>2022-12-16T02:25:27Z</time></trkpt><trkpt lat="35.9594296" lon="139.226137"><ele>590.658213039026</ele><time>2022-12-16T02:25:49Z</time></trkpt><trkpt lat="35.9594854" lon="139.2263725"><ele>585.004438855422</ele><time>2022-12-16T02:26:02Z</time></trkpt><trkpt lat="35.9595026" lon="139.2266024"><ele>577.7102328806901</ele><time>2022-12-16T02:26:40Z</time></trkpt><trkpt lat="35.9595672" lon="139.2268174"><ele>576.1362585145947</ele><time>2022-12-16T02:26:47Z</time></trkpt><trkpt lat="35.9595393" lon="139.2270463"><ele>574.471957127565</ele><time>2022-12-16T02:27:24Z</time></trkpt><trkpt lat="35.9594838" lon="139.2272602"><ele>573.8355435672721</ele><time>2022-12-16T02:27:41Z</time></trkpt><trkpt lat="35.9595122" lon="139.2274842"><ele>572.1318477770618</ele><time>2022-12-16T02:27:54Z</time></trkpt><trkpt lat="35.959525" lon="139.2277068"><ele>571.357739559254</ele><time>2022-12-16T02:28:10Z</time></trkpt><trkpt lat="35.9595117" lon="139.227932"><ele>571.0344101304989</ele><time>2022-12-16T02:28:26Z</time></trkpt><trkpt lat="35.9593989" lon="139.2281132"><ele>568.417987274263</ele><time>2022-12-16T02:29:01Z</time></trkpt><trkpt lat="35.9595094" lon="139.2282945"><ele>565.8023630867154</ele><time>2022-12-16T02:29:12Z</time></trkpt><trkpt lat="35.9595773" lon="139.2285039"><ele>560.4863449644114</ele><time>2022-12-16T02:29:29Z</time></trkpt><trkpt lat="35.9595914" lon="139.2287296"><ele>559.2748547261552</ele><time>2022-12-16T02:29:43Z</time></trkpt><trkpt lat="35.9596587" lon="139.2289384"><ele>557.7212078616141</ele><time>2022-12-16T02:30:01Z</time></trkpt><trkpt lat="35.9596303" lon="139.2291658"><ele>560.9983179339496</ele><time>2022-12-16T02:30:10Z</time></trkpt><trkpt lat="35.9597125" lon="139.2293714"><ele>561.8579889861685</ele><time>2022-12-16T02:30:23Z</time></trkpt><trkpt lat="35.9597446" lon="139.2296025"><ele>562.4718640737498</ele><time>2022-12-16T02:30:47Z</time></trkpt><trkpt lat="35.9598335" lon="139.2298057"><ele>561.8021951480633</ele><time>2022-12-16T02:30:59Z</time></trkpt><trkpt lat="35.9597776" lon="139.2300236"><ele>561.0644634638924</ele><time>2022-12-16T02:31:15Z</time></trkpt><trkpt lat="35.9597675" lon="139.2302614"><ele>561.0048095982787</ele><time>2022-12-16T02:31:40Z</time></trkpt><trkpt lat="35.9596653" lon="139.2304549"><ele>560.6826223879368</ele><time>2022-12-16T02:31:50Z</time></trkpt><trkpt lat="35.9596245" lon="139.2306872"><ele>560.058148071175</ele><time>2022-12-16T02:32:02Z</time></trkpt><trkpt lat="35.9595175" lon="139.2308724"><ele>559.3862528793117</ele><time>2022-12-16T02:32:08Z</time></trkpt><trkpt lat="35.9594388" lon="139.2310745"><ele>558.6121506983519</ele><time>2022-12-16T02:32:27Z</time></trkpt><trkpt lat="35.9594905" lon="139.2312913"><ele>557.8059533786385</ele><time>2022-12-16T02:32:38Z</time></trkpt><trkpt lat="35.9593297" lon="139.2314063"><ele>555.6338011125645</ele><time>2022-12-16T02:32:44Z</time></trkpt><trkpt lat="35.9593922" lon="139.2316159"><ele>553.4016504546156</ele><time>2022-12-16T02:33:09Z</time></trkpt><trkpt lat="35.9592766" lon="139.2317873"><ele>553.2906225966976</ele><time>2022-12-16T02:33:20Z</time></trkpt><trkpt lat="35.9591571" lon="139.2319721"><ele>551.222628080594</ele><time>2022-12-16T02:33:36Z</time></trkpt><trkpt lat="35.9591083" lon="139.232188"><ele>553.1615789057016</ele><time>2022-12-16T02:33:55Z</time></trkpt><trkpt lat="35.9591061" lon="139.232423"><ele>552.6570264083608</ele><time>2022-12-16T02:34:10Z</time></trkpt><trkpt lat="35.9591279" lon="139.2326472"><ele>555.7798368734516</ele><time>2022-12-16T02:34:43Z</time></trkpt><trkpt lat="35.9590946" lon="139.232881"><ele>556.0449792290356</ele><time>2022-12-16T02:35:12Z</time></trkpt><trkpt lat="35.9591388" lon="139.2331018"><ele>555.9825536162172</ele><time>2022-12-16T02:35:35Z</time></trkpt><trkpt lat="35.9592448" lon="139.2332825"><ele>554.6279108559692</ele><time>2022-12-16T02:35:52Z</time></trkpt><trkpt lat="35.9592528" lon="139.2335245"><ele>551.5898106565074</ele><time>2022-12-16T02:36:07Z</time></trkpt><trkpt lat="35.9592123" lon="139.2337451"><ele>549.0056927750842</ele><time>2022-12-16T02:36:22Z</time></trkpt><trkpt lat="35.9590491" lon="139.233853"><ele>545.825585329423</ele><time>2022-12-16T02:37:18Z</time></trkpt><trkpt lat="35.959085" lon="139.2340784"><ele>540.5321769717326</ele><time>2022-12-16T02:37:40Z</time></trkpt><trkpt lat="35.9591036" lon="139.2343069"><ele>537.2136852233567</ele><time>2022-12-16T02:37:47Z</time></trkpt><trkpt lat="35.9589937" lon="139.2345078"><ele>535.0755898291767</ele><time>2022-12-16T02:37:53Z</time></trkpt><trkpt lat="35.9589253" lon="139.2347296"><ele>535.0068266122925</ele><time>2022-12-16T02:38:37Z</time></trkpt><trkpt lat="35.9590516" lon="139.2348981"><ele>533.4307769319207</ele><time>2022-12-16T02:38:53Z</time></trkpt><trkpt lat="35.9590579" lon="139.2351234"><ele>526.4618627571056</ele><time>2022-12-16T02:39:07Z</time></trkpt><trkpt lat="35.9591324" lon="139.2353339"><ele>516.9718587258949</ele><time>2022-12-16T02:39:29Z</time></trkpt><trkpt lat="35.9591555" lon="139.2355571"><ele>505.2826027934787</ele><time>2022-12-16T02:39:43Z</time></trkpt><trkpt lat="35.959076" lon="139.2357569"><ele>499.98439460710887</ele><time>2022-12-16T02:39:51Z</time></trkpt><trkpt lat="35.9590454" lon="139.2359866"><ele>500.94788964399305</ele><time>2022-12-16T02:39:59Z</time></trkpt><trkpt lat="35.9589857" lon="139.2362087"><ele>508.84111774373804</ele><time>2022-12-16T02:40:22Z</time></trkpt><trkpt lat="35.9590997" lon="139.236382"><ele>513.1411014707568</ele><time>2022-12-16T02:40:32Z</time></trkpt><trkpt lat="35.9590854" lon="139.2366449"><ele>514.4405057419405</ele><time>2022-12-16T02:40:48Z</time></trkpt><trkpt lat="35.9591408" lon="139.2368672"><ele>512.257335049805</ele><time>2022-12-16T02:40:57Z</time></trkpt><trkpt lat="35.9591062" lon="139.2371004"><ele>511.47523220703596</ele><time>2022-12-16T02:41:09Z</time></trkpt><trkpt lat="35.9591238" lon="139.2373227"><ele>509.62952475113246</ele><time>2022-12-16T02:41:26Z</time></trkpt><trkpt lat="35.9592417" lon="139.2375006"><ele>506.85881830820045</ele><time>2022-12-16T02:41:38Z</time></trkpt><trkpt lat="35.959375" lon="139.2376589"><ele>500.46981511666235</ele><time>2022-12-16T02:41:51Z</time></trkpt><trkpt lat="35.9593925" lon="139.237891"><ele>495.83528258411843</ele><time>2022-12-16T02:42:09Z</time></trkpt><trkpt lat="35.9593294" lon="139.2381069"><ele>489.30331277858005</ele><time>2022-12-16T02:43:00Z</time></trkpt><trkpt lat="35.9592634" lon="139.2383288"><ele>486.15887830336396</ele><time>2022-12-16T02:43:08Z</time></trkpt><trkpt lat="35.9591325" lon="139.2385069"><ele>483.4134957555935</ele><time>2022-12-16T02:43:16Z</time></trkpt><trkpt lat="35.9590044" lon="139.2386668"><ele>483.75539424072775</ele><time>2022-12-16T02:43:32Z</time></trkpt><trkpt lat="35.9588591" lon="139.238815"><ele>483.6367657915775</ele><time>2022-12-16T02:43:43Z</time></trkpt><trkpt lat="35.9587126" lon="139.2389605"><ele>481.6631061071395</ele><time>2022-12-16T02:43:53Z</time></trkpt><trkpt lat="35.958574" lon="139.2391087"><ele>478.0603384979934</ele><time>2022-12-16T02:44:07Z</time></trkpt><trkpt lat="35.958497" lon="139.2393092"><ele>474.65929521938966</ele><time>2022-12-16T02:44:20Z</time></trkpt><trkpt lat="35.9583465" lon="139.2394354"><ele>471.0047813852049</ele><time>2022-12-16T02:44:39Z</time></trkpt><trkpt lat="35.958269" lon="139.2396643"><ele>464.7164233292696</ele><time>2022-12-16T02:45:08Z</time></trkpt><trkpt lat="35.9581078" lon="139.2397831"><ele>459.7403471532714</ele><time>2022-12-16T02:45:22Z</time></trkpt><trkpt lat="35.9579868" lon="139.2399652"><ele>455.43714780710553</ele><time>2022-12-16T02:45:34Z</time></trkpt><trkpt lat="35.9578912" lon="139.2401595"><ele>452.0064765225787</ele><time>2022-12-16T02:45:51Z</time></trkpt><trkpt lat="35.9578402" lon="139.2403767"><ele>446.8543672583924</ele><time>2022-12-16T02:46:05Z</time></trkpt><trkpt lat="35.9578341" lon="139.2406067"><ele>440.5024133388674</ele><time>2022-12-16T02:46:20Z</time></trkpt><trkpt lat="35.9579253" lon="139.2408085"><ele>432.22830168840807</ele><time>2022-12-16T02:46:36Z</time></trkpt><trkpt lat="35.9581064" lon="139.2409361"><ele>426.1817896888044</ele><time>2022-12-16T02:46:50Z</time></trkpt><trkpt lat="35.9580137" lon="139.2411535"><ele>419.97666666666663</ele><time>2022-12-16T02:47:07Z</time></trkpt><trkpt lat="35.9581075" lon="139.2413568"><ele>417.24</ele><time>2022-12-16T02:47:26Z</time></trkpt><trkpt lat="35.9581724" lon="139.2415656"><ele>413.06</ele><time>2022-12-16T02:47:38Z</time></trkpt><trkpt lat="35.9582461" lon="139.2417806"><ele>411.6933333333333</ele><time>2022-12-16T02:47:52Z</time></trkpt><trkpt lat="35.9583048" lon="139.2419957"><ele>412.3433333333333</ele><time>2022-12-16T02:48:05Z</time></trkpt><trkpt lat="35.9584637" lon="139.2421074"><ele>412.29</ele><time>2022-12-16T02:48:25Z</time></trkpt><trkpt lat="35.9584884" lon="139.2423307"><ele>410.46333333333337</ele><time>2022-12-16T02:48:42Z</time></trkpt><trkpt lat="35.9585419" lon="139.2425536"><ele>405.9866666666667</ele><time>2022-12-16T02:48:53Z</time></trkpt><trkpt lat="35.9584322" lon="139.2427307"><ele>401.81</ele><time>2022-12-16T02:49:07Z</time></trkpt><trkpt lat="35.9583102" lon="139.2429037"><ele>398.1633333333334</ele><time>2022-12-16T02:49:19Z</time></trkpt><trkpt lat="35.9583099" lon="139.2431288"><ele>395.25666666666666</ele><time>2022-12-16T02:49:34Z</time></trkpt><trkpt lat="35.9583818" lon="139.2433392"><ele>394.3066666666667</ele><time>2022-12-16T02:49:46Z</time></trkpt><trkpt lat="35.9583793" lon="139.2435667"><ele>393.97666666666663</ele><time>2022-12-16T02:49:59Z</time></trkpt><trkpt lat="35.9583344" lon="139.2437881"><ele>394.23333333333335</ele><time>2022-12-16T02:50:08Z</time></trkpt><trkpt lat="35.958296" lon="139.2440169"><ele>393.76</ele><time>2022-12-16T02:50:59Z</time></trkpt><trkpt lat="35.9583691" lon="139.2442256"><ele>392.50666666666666</ele><time>2022-12-16T02:51:11Z</time></trkpt><trkpt lat="35.9584451" lon="139.2444358"><ele>389.59666666666664</ele><time>2022-12-16T02:51:23Z</time></trkpt><trkpt lat="35.95856" lon="139.2446142"><ele>384.65333333333336</ele><time>2022-12-16T02:51:37Z</time></trkpt><trkpt lat="35.9586804" lon="139.2447949"><ele>379.6766666666667</ele><time>2022-12-16T02:51:50Z</time></trkpt><trkpt lat="35.9588516" lon="139.2448815"><ele>373.1566666666667</ele><time>2022-12-16T02:52:01Z</time></trkpt><trkpt lat="35.9589708" lon="139.2450588"><ele>368.0933333333333</ele><time>2022-12-16T02:52:14Z</time></trkpt><trkpt lat="35.9591007" lon="139.2452306"><ele>361.98</ele><time>2022-12-16T02:52:30Z</time></trkpt><trkpt lat="35.9592825" lon="139.245235"><ele>356.77333333333337</ele><time>2022-12-16T02:52:41Z</time></trkpt><trkpt lat="35.959468" lon="139.2451885"><ele>349.8066666666667</ele><time>2022-12-16T02:52:52Z</time></trkpt><trkpt lat="35.9595976" lon="139.2453538"><ele>344.8233333333333</ele><time>2022-12-16T02:53:02Z</time></trkpt><trkpt lat="35.9596364" lon="139.2455826"><ele>340.8533333333333</ele><time>2022-12-16T02:53:12Z</time></trkpt><trkpt lat="35.9596536" lon="139.2458076"><ele>335.5366666666667</ele><time>2022-12-16T02:53:29Z</time></trkpt><trkpt lat="35.9598382" lon="139.2458189"><ele>330.8233333333333</ele><time>2022-12-16T02:53:50Z</time></trkpt><trkpt lat="35.9600218" lon="139.245881"><ele>327.06</ele><time>2022-12-16T02:54:03Z</time></trkpt><trkpt lat="35.9601523" lon="139.2460442"><ele>325.8533333333333</ele><time>2022-12-16T02:54:25Z</time></trkpt><trkpt lat="35.9603284" lon="139.2461407"><ele>323.01</ele><time>2022-12-16T02:54:37Z</time></trkpt><trkpt lat="35.9604561" lon="139.2463222"><ele>319.37</ele><time>2022-12-16T02:55:14Z</time></trkpt><trkpt lat="35.9606111" lon="139.2464465"><ele>314.86</ele><time>2022-12-16T02:55:21Z</time></trkpt><trkpt lat="35.9607915" lon="139.2464448"><ele>308.84999999999997</ele><time>2022-12-16T02:55:33Z</time></trkpt><trkpt lat="35.9609706" lon="139.2463994"><ele>303.2633333333334</ele><time>2022-12-16T02:55:52Z</time></trkpt><trkpt lat="35.9608048" lon="139.2465005"><ele>300.0833333333333</ele><time>2022-12-16T02:56:02Z</time></trkpt><trkpt lat="35.9608711" lon="139.2467136"><ele>297.74333333333334</ele><time>2022-12-16T02:56:37Z</time></trkpt><trkpt lat="35.9608616" lon="139.2469375"><ele>295.39000000000004</ele><time>2022-12-16T02:56:53Z</time></trkpt><trkpt lat="35.9608834" lon="139.2471709"><ele>291.8233333333333</ele><time>2022-12-16T02:57:02Z</time></trkpt><trkpt lat="35.961068" lon="139.2472576"><ele>292.38666666666666</ele><time>2022-12-16T02:57:12Z</time></trkpt><trkpt lat="35.961162" lon="139.2474473"><ele>293.93</ele><time>2022-12-16T02:57:30Z</time></trkpt><trkpt lat="35.9612418" lon="139.247658"><ele>295.6233333333333</ele><time>2022-12-16T02:57:40Z</time></trkpt><trkpt lat="35.9613203" lon="139.2478673"><ele>293.45666666666665</ele><time>2022-12-16T02:58:00Z</time></trkpt><trkpt lat="35.9612545" lon="139.2480795"><ele>289.93333333333334</ele><time>2022-12-16T02:58:18Z</time></trkpt><trkpt lat="35.9612695" lon="139.2483033"><ele>286.07666666666665</ele><time>2022-12-16T02:58:31Z</time></trkpt><trkpt lat="35.9611182" lon="139.248509"><ele>281.3566666666666</ele><time>2022-12-16T02:58:54Z</time></trkpt><trkpt lat="35.9612005" lon="139.2487124"><ele>278.2766666666667</ele><time>2022-12-16T02:59:36Z</time></trkpt><trkpt lat="35.961031" lon="139.2487964"><ele>274.1066666666666</ele><time>2022-12-16T03:00:00Z</time></trkpt><trkpt lat="35.9608475" lon="139.2488433"><ele>269.48</ele><time>2022-12-16T03:00:18Z</time></trkpt><trkpt lat="35.9607096" lon="139.2486951"><ele>264.72999999999996</ele><time>2022-12-16T03:00:35Z</time></trkpt><trkpt lat="35.9607171" lon="139.2489272"><ele>260.68</ele><time>2022-12-16T03:00:50Z</time></trkpt><trkpt lat="35.9605823" lon="139.2490926"><ele>256.86333333333334</ele><time>2022-12-16T03:01:27Z</time></trkpt><trkpt lat="35.9605174" lon="139.2493007"><ele>252.25666666666666</ele><time>2022-12-16T03:01:45Z</time></trkpt><trkpt lat="35.9604938" lon="139.2495372"><ele>247.92</ele><time>2022-12-16T03:01:51Z</time></trkpt><trkpt lat="35.9605048" lon="139.2497727"><ele>246.18666666666664</ele><time>2022-12-16T03:02:00Z</time></trkpt><trkpt lat="35.9604218" lon="139.2499943"><ele>242.5533333333333</ele><time>2022-12-16T03:02:13Z</time></trkpt><trkpt lat="35.9603438" lon="139.2502133"><ele>237.98000000000002</ele><time>2022-12-16T03:02:29Z</time></trkpt><trkpt lat="35.9604672" lon="139.2504064"><ele>234.63</ele><time>2022-12-16T03:02:44Z</time></trkpt><trkpt lat="35.9605658" lon="139.2505951"><ele>233.45666666666668</ele><time>2022-12-16T03:02:52Z</time></trkpt><trkpt lat="35.9606516" lon="139.2507941"><ele>235.1833333333333</ele><time>2022-12-16T03:03:18Z</time></trkpt><trkpt lat="35.9605171" lon="139.250949"><ele>234.25666666666666</ele><time>2022-12-16T03:03:39Z</time></trkpt><trkpt lat="35.9604023" lon="139.2507531"><ele>232.89</ele><time>2022-12-16T03:03:52Z</time></trkpt><trkpt lat="35.9603596" lon="139.2505366"><ele>230.13333333333333</ele><time>2022-12-16T03:04:00Z</time></trkpt><trkpt lat="35.9602087" lon="139.2506752"><ele>226.79333333333332</ele><time>2022-12-16T03:04:23Z</time></trkpt><trkpt lat="35.960106" lon="139.2508671"><ele>223.39666666666668</ele><time>2022-12-16T03:04:36Z</time></trkpt><trkpt lat="35.9600852" lon="139.2510909"><ele>220.41</ele><time>2022-12-16T03:04:48Z</time></trkpt><trkpt lat="35.9600777" lon="139.2513162"><ele>218.01666666666665</ele><time>2022-12-16T03:05:00Z</time></trkpt><trkpt lat="35.9600169" lon="139.2515381"><ele>216.61333333333334</ele><time>2022-12-16T03:05:14Z</time></trkpt><trkpt lat="35.9600171" lon="139.2517697"><ele>215.64</ele><time>2022-12-16T03:05:27Z</time></trkpt><trkpt lat="35.9598463" lon="139.2518861"><ele>214.44999999999996</ele><time>2022-12-16T03:05:38Z</time></trkpt><trkpt lat="35.9596612" lon="139.2518725"><ele>211.58666666666667</ele><time>2022-12-16T03:05:53Z</time></trkpt><trkpt lat="35.9594927" lon="139.251978"><ele>207.8066666666667</ele><time>2022-12-16T03:06:07Z</time></trkpt><trkpt lat="35.9593068" lon="139.2520454"><ele>204.14333333333335</ele><time>2022-12-16T03:06:17Z</time></trkpt><trkpt lat="35.959245" lon="139.2522632"><ele>201.70666666666668</ele><time>2022-12-16T03:06:30Z</time></trkpt><trkpt lat="35.9593872" lon="139.2524152"><ele>200.9766666666667</ele><time>2022-12-16T03:06:50Z</time></trkpt><trkpt lat="35.9593397" lon="139.2526298"><ele>201.50666666666666</ele><time>2022-12-16T03:07:14Z</time></trkpt><trkpt lat="35.959305" lon="139.2528497"><ele>201.60666666666668</ele><time>2022-12-16T03:07:29Z</time></trkpt><trkpt lat="35.959266" lon="139.2530678"><ele>200.49666666666667</ele><time>2022-12-16T03:07:45Z</time></trkpt><trkpt lat="35.9591022" lon="139.2531704"><ele>198.03666666666666</ele><time>2022-12-16T03:08:02Z</time></trkpt><trkpt lat="35.9589282" lon="139.2530912"><ele>195.51</ele><time>2022-12-16T03:08:12Z</time></trkpt><trkpt lat="35.958832" lon="139.2528952"><ele>191.91333333333333</ele><time>2022-12-16T03:08:25Z</time></trkpt><trkpt lat="35.9588067" lon="139.252654"><ele>189.64666666666668</ele><time>2022-12-16T03:08:38Z</time></trkpt><trkpt lat="35.9589567" lon="139.2525301"><ele>189.48000000000002</ele><time>2022-12-16T03:08:48Z</time></trkpt><trkpt lat="35.9588339" lon="139.2523604"><ele>189.5966666666667</ele><time>2022-12-16T03:09:00Z</time></trkpt><trkpt lat="35.9586463" lon="139.2524105"><ele>188.1833333333333</ele><time>2022-12-16T03:09:14Z</time></trkpt><trkpt lat="35.9584951" lon="139.2525394"><ele>185.16333333333333</ele><time>2022-12-16T03:09:29Z</time></trkpt><trkpt lat="35.9584513" lon="139.2527848"><ele>181.68666666666664</ele><time>2022-12-16T03:09:40Z</time></trkpt><trkpt lat="35.9583592" lon="139.2529816"><ele>179.22000000000003</ele><time>2022-12-16T03:09:50Z</time></trkpt><trkpt lat="35.9583346" lon="139.2532171"><ele>176.45333333333335</ele><time>2022-12-16T03:10:01Z</time></trkpt><trkpt lat="35.9584119" lon="139.2534214"><ele>174.01</ele><time>2022-12-16T03:10:13Z</time></trkpt><trkpt lat="35.9584315" lon="139.2536479"><ele>171.4766666666667</ele><time>2022-12-16T03:10:25Z</time></trkpt><trkpt lat="35.9585412" lon="139.2538443"><ele>169.33333333333334</ele><time>2022-12-16T03:10:37Z</time></trkpt><trkpt lat="35.9586808" lon="139.2539965"><ele>167.55666666666664</ele><time>2022-12-16T03:10:52Z</time></trkpt><trkpt lat="35.9587785" lon="139.2541879"><ele>166.31666666666663</ele><time>2022-12-16T03:11:02Z</time></trkpt><trkpt lat="35.9588926" lon="139.2543609"><ele>165.0633333333333</ele><time>2022-12-16T03:11:12Z</time></trkpt><trkpt lat="35.958948" lon="139.2545818"><ele>163.35</ele><time>2022-12-16T03:11:26Z</time></trkpt><trkpt lat="35.9589594" lon="139.2548141"><ele>160.40333333333334</ele><time>2022-12-16T03:11:38Z</time></trkpt><trkpt lat="35.9589456" lon="139.2550437"><ele>157.95666666666668</ele><time>2022-12-16T03:11:52Z</time></trkpt><trkpt lat="35.9590736" lon="139.2552173"><ele>155.42333333333332</ele><time>2022-12-16T03:12:05Z</time></trkpt><trkpt lat="35.959148" lon="139.2554308"><ele>153.26666666666668</ele><time>2022-12-16T03:12:20Z</time></trkpt><trkpt lat="35.9592663" lon="139.2556"><ele>150.42333333333332</ele><time>2022-12-16T03:12:35Z</time></trkpt><trkpt lat="35.9594061" lon="139.2557562"><ele>148.48</ele><time>2022-12-16T03:12:48Z</time></trkpt><trkpt lat="35.9595755" lon="139.2558797"><ele>147.54333333333332</ele><time>2022-12-16T03:13:00Z</time></trkpt><trkpt lat="35.9596816" lon="139.256087"><ele>145.88666666666668</ele><time>2022-12-16T03:13:15Z</time></trkpt><trkpt lat="35.9597472" lon="139.2562992"><ele>144.76666666666668</ele><time>2022-12-16T03:13:32Z</time></trkpt><trkpt lat="35.9599283" lon="139.2562883"><ele>142.92333333333332</ele><time>2022-12-16T03:13:52Z</time></trkpt><trkpt lat="35.9601013" lon="139.2563833"><ele>141.92333333333335</ele><time>2022-12-16T03:14:07Z</time></trkpt><trkpt lat="35.9602486" lon="139.2565289"><ele>139.89666666666668</ele><time>2022-12-16T03:14:15Z</time></trkpt><trkpt lat="35.9603565" lon="139.2567129"><ele>138.51666666666668</ele><time>2022-12-16T03:14:23Z</time></trkpt><trkpt lat="35.9604318" lon="139.2569218"><ele>137.14333333333335</ele><time>2022-12-16T03:14:36Z</time></trkpt><trkpt lat="35.960611" lon="139.2569587"><ele>136.18</ele><time>2022-12-16T03:14:50Z</time></trkpt><trkpt lat="35.9607755" lon="139.2570744"><ele>135.37</ele><time>2022-12-16T03:15:03Z</time></trkpt><trkpt lat="35.9608494" lon="139.2572777"><ele>134.78666666666666</ele><time>2022-12-16T03:15:11Z</time></trkpt><trkpt lat="35.9609669" lon="139.2574561"><ele>134.75</ele><time>2022-12-16T03:15:26Z</time></trkpt><trkpt lat="35.9610912" lon="139.2576531"><ele>135.95000000000002</ele><time>2022-12-16T03:15:35Z</time></trkpt><trkpt lat="35.961278" lon="139.2577129"><ele>134.48</ele><time>2022-12-16T03:15:45Z</time></trkpt><trkpt lat="35.9614569" lon="139.2577692"><ele>132.58</ele><time>2022-12-16T03:16:00Z</time></trkpt><trkpt lat="35.9616402" lon="139.257888"><ele>129.06333333333336</ele><time>2022-12-16T03:16:15Z</time></trkpt><trkpt lat="35.961762" lon="139.258056"><ele>128.35666666666668</ele><time>2022-12-16T03:16:30Z</time></trkpt><trkpt lat="35.9618068" lon="139.2582757"><ele>128.64333333333332</ele><time>2022-12-16T03:16:42Z</time></trkpt><trkpt lat="35.9619895" lon="139.2583498"><ele>128.85666666666665</ele><time>2022-12-16T03:16:53Z</time></trkpt><trkpt lat="35.962141" lon="139.2584881"><ele>128.69666666666666</ele><time>2022-12-16T03:17:01Z</time></trkpt><trkpt lat="35.9623122" lon="139.2585867"><ele>127.07666666666667</ele><time>2022-12-16T03:17:14Z</time></trkpt><trkpt lat="35.962436" lon="139.2587653"><ele>125.72333333333334</ele><time>2022-12-16T03:17:32Z</time></trkpt><trkpt lat="35.962598" lon="139.2588672"><ele>123.16000000000001</ele><time>2022-12-16T03:17:59Z</time></trkpt><trkpt lat="35.9627156" lon="139.2590482"><ele>121.45333333333333</ele><time>2022-12-16T03:18:08Z</time></trkpt><trkpt lat="35.9628715" lon="139.2591596"><ele>119.42333333333335</ele><time>2022-12-16T03:18:17Z</time></trkpt><trkpt lat="35.9630039" lon="139.2593197"><ele>118.73666666666668</ele><time>2022-12-16T03:18:31Z</time></trkpt><trkpt lat="35.9631807" lon="139.2593866"><ele>117.91666666666667</ele><time>2022-12-16T03:18:44Z</time></trkpt><trkpt lat="35.9633159" lon="139.2595478"><ele>117.37</ele><time>2022-12-16T03:18:57Z</time></trkpt><trkpt lat="35.9634527" lon="139.2596925"><ele>116.83</ele><time>2022-12-16T03:19:10Z</time></trkpt><trkpt lat="35.9636011" lon="139.2598445"><ele>116.79333333333334</ele><time>2022-12-16T03:19:34Z</time></trkpt><trkpt lat="35.9637087" lon="139.2600236"><ele>116.90333333333335</ele><time>2022-12-16T03:19:46Z</time></trkpt><trkpt lat="35.9637295" lon="139.2602698"><ele>116.68666666666667</ele><time>2022-12-16T03:20:02Z</time></trkpt><trkpt lat="35.9638034" lon="139.2604786"><ele>116.21333333333332</ele><time>2022-12-16T03:20:12Z</time></trkpt><trkpt lat="35.9639797" lon="139.2605611"><ele>115.69</ele><time>2022-12-16T03:20:24Z</time></trkpt><trkpt lat="35.964139" lon="139.2606756"><ele>116.08333333333333</ele><time>2022-12-16T03:20:39Z</time></trkpt><trkpt lat="35.9643008" lon="139.2607847"><ele>116.48333333333333</ele><time>2022-12-16T03:20:50Z</time></trkpt><trkpt lat="35.9643897" lon="139.2609821"><ele>116.47000000000001</ele><time>2022-12-16T03:21:01Z</time></trkpt><trkpt lat="35.9644965" lon="139.2611758"><ele>116.41333333333334</ele><time>2022-12-16T03:21:15Z</time></trkpt><trkpt lat="35.9645495" lon="139.2613991"><ele>116.27333333333335</ele><time>2022-12-16T03:21:30Z</time></trkpt><trkpt lat="35.9646037" lon="139.2616124"><ele>116.75666666666666</ele><time>2022-12-16T03:21:44Z</time></trkpt><trkpt lat="35.9646818" lon="139.2618178"><ele>117.21999999999998</ele><time>2022-12-16T03:21:59Z</time></trkpt><trkpt lat="35.9647271" lon="139.2620369"><ele>116.95666666666666</ele><time>2022-12-16T03:22:09Z</time></trkpt><trkpt lat="35.964668" lon="139.2622524"><ele>114.98666666666668</ele><time>2022-12-16T03:22:19Z</time></trkpt><trkpt lat="35.9645943" lon="139.2624717"><ele>112.36333333333334</ele><time>2022-12-16T03:22:37Z</time></trkpt><trkpt lat="35.9644795" lon="139.2626562"><ele>110.32333333333334</ele><time>2022-12-16T03:22:49Z</time></trkpt><trkpt lat="35.9643801" lon="139.2628432"><ele>109.60000000000001</ele><time>2022-12-16T03:24:13Z</time></trkpt><trkpt lat="35.9642008" lon="139.2629056"><ele>111.08666666666666</ele><time>2022-12-16T03:24:31Z</time></trkpt><trkpt lat="35.9642843" lon="139.2632233"><ele>110.50999999999999</ele><time>2022-12-16T03:24:33Z</time></trkpt><trkpt lat="35.9643021" lon="139.2634621"><ele>109.78333333333335</ele><time>2022-12-16T03:24:45Z</time></trkpt><trkpt lat="35.9643177" lon="139.263688"><ele>106.94666666666666</ele><time>2022-12-16T03:24:55Z</time></trkpt><trkpt lat="35.9642719" lon="139.2639195"><ele>106.21</ele><time>2022-12-16T03:25:09Z</time></trkpt><trkpt lat="35.964333" lon="139.2641517"><ele>106.46999999999998</ele><time>2022-12-16T03:25:26Z</time></trkpt><trkpt lat="35.9641921" lon="139.2643218"><ele>106.68666666666667</ele><time>2022-12-16T03:25:37Z</time></trkpt><trkpt lat="35.964002" lon="139.2643951"><ele>105.83</ele><time>2022-12-16T03:25:43Z</time></trkpt><trkpt lat="35.9639071" lon="139.2645949"><ele>104.19333333333334</ele><time>2022-12-16T03:25:54Z</time></trkpt><trkpt lat="35.9639936" lon="139.2648068"><ele>103.35000000000001</ele><time>2022-12-16T03:26:07Z</time></trkpt><trkpt lat="35.9641252" lon="139.2649749"><ele>103.40666666666668</ele><time>2022-12-16T03:26:20Z</time></trkpt><trkpt lat="35.9641844" lon="139.2651941"><ele>102.60000000000001</ele><time>2022-12-16T03:26:45Z</time></trkpt><trkpt lat="35.9641365" lon="139.26542"><ele>100.72333333333334</ele><time>2022-12-16T03:27:00Z</time></trkpt><trkpt lat="35.9641073" lon="139.2656455"><ele>100.06666666666666</ele><time>2022-12-16T03:27:10Z</time></trkpt><trkpt lat="35.9639781" lon="139.2658104"><ele>101.40666666666668</ele><time>2022-12-16T03:27:18Z</time></trkpt><trkpt lat="35.9639358" lon="139.2660443"><ele>104.56333333333333</ele><time>2022-12-16T03:27:57Z</time></trkpt><trkpt lat="35.963951" lon="139.2662865"><ele>106.83333333333333</ele><time>2022-12-16T03:28:07Z</time></trkpt><trkpt lat="35.9640292" lon="139.2665142"><ele>108.04</ele><time>2022-12-16T03:28:17Z</time></trkpt><trkpt lat="35.9641636" lon="139.2666675"><ele>107.98</ele><time>2022-12-16T03:28:37Z</time></trkpt><trkpt lat="35.9642772" lon="139.2668727"><ele>107.67</ele><time>2022-12-16T03:28:50Z</time></trkpt><trkpt lat="35.9643736" lon="139.2670611"><ele>107.43666666666667</ele><time>2022-12-16T03:29:02Z</time></trkpt><trkpt lat="35.9644654" lon="139.2672584"><ele>107.11333333333333</ele><time>2022-12-16T03:29:13Z</time></trkpt><trkpt lat="35.9645738" lon="139.2674503"><ele>106.71666666666665</ele><time>2022-12-16T03:29:27Z</time></trkpt><trkpt lat="35.9647074" lon="139.2676316"><ele>106.07666666666667</ele><time>2022-12-16T03:29:41Z</time></trkpt><trkpt lat="35.9647805" lon="139.2678417"><ele>105.66000000000001</ele><time>2022-12-16T03:29:55Z</time></trkpt><trkpt lat="35.9648234" lon="139.2680696"><ele>105.51666666666667</ele><time>2022-12-16T03:30:10Z</time></trkpt><trkpt lat="35.9649368" lon="139.2682452"><ele>105.66666666666667</ele><time>2022-12-16T03:30:17Z</time></trkpt><trkpt lat="35.9650845" lon="139.268386"><ele>105.77</ele><time>2022-12-16T03:30:31Z</time></trkpt><trkpt lat="35.9652443" lon="139.268513"><ele>105.72333333333334</ele><time>2022-12-16T03:30:42Z</time></trkpt><trkpt lat="35.96543" lon="139.2685782"><ele>105.64333333333333</ele><time>2022-12-16T03:30:54Z</time></trkpt><trkpt lat="35.9655342" lon="139.2687768"><ele>105.48</ele><time>2022-12-16T03:31:04Z</time></trkpt><trkpt lat="35.9655714" lon="139.2690014"><ele>105.52</ele><time>2022-12-16T03:31:15Z</time></trkpt><trkpt lat="35.9655011" lon="139.2692083"><ele>105.79</ele><time>2022-12-16T03:31:27Z</time></trkpt><trkpt lat="35.9653815" lon="139.2693807"><ele>106.36333333333334</ele><time>2022-12-16T03:31:34Z</time></trkpt><trkpt lat="35.9652135" lon="139.2692546"><ele>107.04</ele><time>2022-12-16T03:31:57Z</time></trkpt><trkpt lat="35.9650484" lon="139.2693824"><ele>107.76666666666667</ele><time>2022-12-16T03:35:27Z</time></trkpt><trkpt lat="35.9652064" lon="139.2694949"><ele>108.21333333333332</ele><time>2022-12-16T03:36:20Z</time></trkpt><trkpt lat="35.9650784" lon="139.2696906"><ele>108.71</ele><time>2022-12-16T03:54:02Z</time></trkpt><trkpt lat="35.9649191" lon="139.2698191"><ele>109.26333333333334</ele><time>2022-12-16T03:54:17Z</time></trkpt><trkpt lat="35.9648194" lon="139.2700126"><ele>110.45333333333333</ele><time>2022-12-16T03:54:32Z</time></trkpt><trkpt lat="35.9647585" lon="139.2702244"><ele>111.97000000000001</ele><time>2022-12-16T03:54:46Z</time></trkpt><trkpt lat="35.9648674" lon="139.2704085"><ele>113.38</ele><time>2022-12-16T03:54:57Z</time></trkpt><trkpt lat="35.9649254" lon="139.2706222"><ele>115.13666666666667</ele><time>2022-12-16T03:55:10Z</time></trkpt><trkpt lat="35.9647974" lon="139.2707917"><ele>117.47666666666667</ele><time>2022-12-16T03:55:22Z</time></trkpt><trkpt lat="35.9646162" lon="139.2707804"><ele>119.74333333333334</ele><time>2022-12-16T03:55:31Z</time></trkpt><trkpt lat="35.9646701" lon="139.2709923"><ele>123.69333333333334</ele><time>2022-12-16T03:57:33Z</time></trkpt><trkpt lat="35.9646181" lon="139.2712103"><ele>129.64666666666668</ele><time>2022-12-16T03:59:02Z</time></trkpt><trkpt lat="35.9646989" lon="139.2714167"><ele>137.85333333333335</ele><time>2022-12-16T03:59:37Z</time></trkpt><trkpt lat="35.9648224" lon="139.271584"><ele>146.14666666666665</ele><time>2022-12-16T04:00:05Z</time></trkpt><trkpt lat="35.9648253" lon="139.2718083"><ele>153.86</ele><time>2022-12-16T04:01:00Z</time></trkpt><trkpt lat="35.9647546" lon="139.2720124"><ele>160.78</ele><time>2022-12-16T04:02:00Z</time></trkpt><trkpt lat="35.9647431" lon="139.2722346"><ele>167.51000000000002</ele><time>2022-12-16T04:02:33Z</time></trkpt><trkpt lat="35.9646315" lon="139.2724149"><ele>173.36</ele><time>2022-12-16T04:02:55Z</time></trkpt><trkpt lat="35.9644369" lon="139.2724198"><ele>180.28333333333333</ele><time>2022-12-16T04:03:26Z</time></trkpt><trkpt lat="35.9642594" lon="139.2723673"><ele>184.20333333333335</ele><time>2022-12-16T04:04:02Z</time></trkpt><trkpt lat="35.9641093" lon="139.2724963"><ele>190.0566666666667</ele><time>2022-12-16T04:04:37Z</time></trkpt><trkpt lat="35.9639217" lon="139.2725775"><ele>194.71333333333334</ele><time>2022-12-16T04:05:02Z</time></trkpt><trkpt lat="35.9638989" lon="139.2728123"><ele>202.22666666666666</ele><time>2022-12-16T04:05:50Z</time></trkpt><trkpt lat="35.9638828" lon="139.2730448"><ele>208.75666666666666</ele><time>2022-12-16T04:05:57Z</time></trkpt><trkpt lat="35.9637706" lon="139.2732208"><ele>215.33666666666667</ele><time>2022-12-16T04:08:08Z</time></trkpt><trkpt lat="35.963617" lon="139.2733527"><ele>220.87666666666667</ele><time>2022-12-16T04:08:30Z</time></trkpt><trkpt lat="35.9634345" lon="139.2733659"><ele>224.23666666666668</ele><time>2022-12-16T04:08:47Z</time></trkpt><trkpt lat="35.9633049" lon="139.2735261"><ele>229.06333333333336</ele><time>2022-12-16T04:09:34Z</time></trkpt><trkpt lat="35.9631311" lon="139.273612"><ele>235.76</ele><time>2022-12-16T04:10:09Z</time></trkpt><trkpt lat="35.9629409" lon="139.2736305"><ele>243.48333333333332</ele><time>2022-12-16T04:10:21Z</time></trkpt><trkpt lat="35.9627594" lon="139.273588"><ele>249.08333333333334</ele><time>2022-12-16T04:11:12Z</time></trkpt><trkpt lat="35.9625952" lon="139.2734896"><ele>252.18999999999997</ele><time>2022-12-16T04:11:47Z</time></trkpt><trkpt lat="35.9624099" lon="139.2735444"><ele>253.93333333333337</ele><time>2022-12-16T04:12:13Z</time></trkpt><trkpt lat="35.9622306" lon="139.273509"><ele>256.81333333333333</ele><time>2022-12-16T04:12:33Z</time></trkpt><trkpt lat="35.9620532" lon="139.2734589"><ele>259.94666666666666</ele><time>2022-12-16T04:12:54Z</time></trkpt><trkpt lat="35.9619548" lon="139.2736619"><ele>260.35999999999996</ele><time>2022-12-16T04:13:06Z</time></trkpt><trkpt lat="35.9618496" lon="139.27348"><ele>263.34</ele><time>2022-12-16T04:13:15Z</time></trkpt><trkpt lat="35.9616912" lon="139.2733708"><ele>266.29</ele><time>2022-12-16T04:13:50Z</time></trkpt><trkpt lat="35.9615042" lon="139.2733583"><ele>273.17</ele><time>2022-12-16T04:14:12Z</time></trkpt><trkpt lat="35.9613269" lon="139.2732734"><ele>277.01666666666665</ele><time>2022-12-16T04:14:41Z</time></trkpt><trkpt lat="35.961129" lon="139.2732566"><ele>280.40000000000003</ele><time>2022-12-16T04:15:04Z</time></trkpt><trkpt lat="35.9609474" lon="139.2732859"><ele>283.0433333333333</ele><time>2022-12-16T04:15:29Z</time></trkpt><trkpt lat="35.9607497" lon="139.2732937"><ele>285.1666666666667</ele><time>2022-12-16T04:16:01Z</time></trkpt><trkpt lat="35.9605641" lon="139.2732685"><ele>288.18</ele><time>2022-12-16T04:16:11Z</time></trkpt><trkpt lat="35.9603765" lon="139.2732666"><ele>291.33</ele><time>2022-12-16T04:16:55Z</time></trkpt><trkpt lat="35.9601966" lon="139.2732119"><ele>294.92</ele><time>2022-12-16T04:17:11Z</time></trkpt><trkpt lat="35.960016" lon="139.2731677"><ele>297.41</ele><time>2022-12-16T04:17:23Z</time></trkpt><trkpt lat="35.9598269" lon="139.2731038"><ele>299.72</ele><time>2022-12-16T04:18:36Z</time></trkpt><trkpt lat="35.9596546" lon="139.2730074"><ele>301.27666666666664</ele><time>2022-12-16T04:18:45Z</time></trkpt><trkpt lat="35.9594622" lon="139.2729938"><ele>303.3333333333333</ele><time>2022-12-16T04:18:56Z</time></trkpt><trkpt lat="35.9592802" lon="139.2729419"><ele>305.18666666666667</ele><time>2022-12-16T04:19:11Z</time></trkpt><trkpt lat="35.9591022" lon="139.2728699"><ele>306.84999999999997</ele><time>2022-12-16T04:19:39Z</time></trkpt><trkpt lat="35.9589313" lon="139.2729533"><ele>308.6033333333333</ele><time>2022-12-16T04:19:58Z</time></trkpt><trkpt lat="35.9587623" lon="139.2728679"><ele>312.16333333333336</ele><time>2022-12-16T04:20:26Z</time></trkpt><trkpt lat="35.9585792" lon="139.272891"><ele>316.7966666666667</ele><time>2022-12-16T04:21:23Z</time></trkpt><trkpt lat="35.9583996" lon="139.2728494"><ele>322.76</ele><time>2022-12-16T04:22:08Z</time></trkpt><trkpt lat="35.9582324" lon="139.2729499"><ele>328.8</ele><time>2022-12-16T04:22:32Z</time></trkpt><trkpt lat="35.9581207" lon="139.2731335"><ele>335.7966666666667</ele><time>2022-12-16T04:23:11Z</time></trkpt><trkpt lat="35.9579579" lon="139.2732534"><ele>342.94</ele><time>2022-12-16T04:23:29Z</time></trkpt><trkpt lat="35.9578738" lon="139.2734791"><ele>350.00333333333333</ele><time>2022-12-16T04:24:25Z</time></trkpt><trkpt lat="35.9578051" lon="139.2736941"><ele>355.92</ele><time>2022-12-16T04:24:41Z</time></trkpt><trkpt lat="35.9578125" lon="139.2739254"><ele>360.28333333333336</ele><time>2022-12-16T04:25:25Z</time></trkpt><trkpt lat="35.9578547" lon="139.2741593"><ele>364.03000000000003</ele><time>2022-12-16T04:25:39Z</time></trkpt><trkpt lat="35.9577698" lon="139.2743661"><ele>366.9866666666667</ele><time>2022-12-16T04:26:12Z</time></trkpt><trkpt lat="35.9576253" lon="139.2745006"><ele>369.6366666666666</ele><time>2022-12-16T04:26:34Z</time></trkpt><trkpt lat="35.9575737" lon="139.2747235"><ele>371.2533333333334</ele><time>2022-12-16T04:26:52Z</time></trkpt><trkpt lat="35.9575799" lon="139.2749463"><ele>372.85999999999996</ele><time>2022-12-16T04:27:04Z</time></trkpt><trkpt lat="35.9574518" lon="139.2751023"><ele>373.88000000000005</ele><time>2022-12-16T04:29:51Z</time></trkpt><trkpt lat="35.9572837" lon="139.2751949"><ele>373.97333333333336</ele><time>2022-12-16T04:30:05Z</time></trkpt><trkpt lat="35.9571835" lon="139.275389"><ele>373.2966666666666</ele><time>2022-12-16T04:30:17Z</time></trkpt><trkpt lat="35.9571117" lon="139.2756131"><ele>372.34</ele><time>2022-12-16T04:30:26Z</time></trkpt><trkpt lat="35.9569383" lon="139.2756799"><ele>371.6333333333334</ele><time>2022-12-16T04:30:42Z</time></trkpt><trkpt lat="35.9567901" lon="139.2758177"><ele>370.8633333333333</ele><time>2022-12-16T04:31:13Z</time></trkpt><trkpt lat="35.9566479" lon="139.275959"><ele>369.31666666666666</ele><time>2022-12-16T04:31:27Z</time></trkpt><trkpt lat="35.9565785" lon="139.2761705"><ele>366.48333333333335</ele><time>2022-12-16T04:31:39Z</time></trkpt><trkpt lat="35.9567307" lon="139.2762949"><ele>361.91333333333336</ele><time>2022-12-16T04:31:54Z</time></trkpt><trkpt lat="35.9569129" lon="139.2762847"><ele>357.39333333333326</ele><time>2022-12-16T04:32:15Z</time></trkpt><trkpt lat="35.957049" lon="139.2764444"><ele>351.50666666666666</ele><time>2022-12-16T04:32:42Z</time></trkpt><trkpt lat="35.9572273" lon="139.2764824"><ele>346.9333333333334</ele><time>2022-12-16T04:33:02Z</time></trkpt><trkpt lat="35.9574174" lon="139.2764886"><ele>342.8933333333334</ele><time>2022-12-16T04:33:23Z</time></trkpt><trkpt lat="35.9575762" lon="139.2765999"><ele>338.93666666666667</ele><time>2022-12-16T04:33:41Z</time></trkpt><trkpt lat="35.9575425" lon="139.2768429"><ele>333.6566666666667</ele><time>2022-12-16T04:33:51Z</time></trkpt><trkpt lat="35.9576634" lon="139.2770246"><ele>327.72333333333336</ele><time>2022-12-16T04:34:30Z</time></trkpt><trkpt lat="35.9577575" lon="139.2772233"><ele>323.3833333333334</ele><time>2022-12-16T04:34:40Z</time></trkpt><trkpt lat="35.9579003" lon="139.2773628"><ele>320.04333333333335</ele><time>2022-12-16T04:34:53Z</time></trkpt><trkpt lat="35.9580333" lon="139.2775168"><ele>316.36666666666673</ele><time>2022-12-16T04:35:06Z</time></trkpt><trkpt lat="35.9582148" lon="139.2775627"><ele>313.6566666666667</ele><time>2022-12-16T04:35:18Z</time></trkpt><trkpt lat="35.958408" lon="139.2775933"><ele>312.37</ele><time>2022-12-16T04:35:30Z</time></trkpt><trkpt lat="35.9585768" lon="139.2776828"><ele>312.42</ele><time>2022-12-16T04:35:43Z</time></trkpt><trkpt lat="35.9587542" lon="139.2777491"><ele>312.29</ele><time>2022-12-16T04:35:58Z</time></trkpt><trkpt lat="35.9589324" lon="139.2778067"><ele>311.5233333333333</ele><time>2022-12-16T04:36:13Z</time></trkpt><trkpt lat="35.9591115" lon="139.2778541"><ele>311.09</ele><time>2022-12-16T04:36:27Z</time></trkpt><trkpt lat="35.9592903" lon="139.2779088"><ele>310.65666666666664</ele><time>2022-12-16T04:36:39Z</time></trkpt><trkpt lat="35.9594147" lon="139.27808"><ele>309.3</ele><time>2022-12-16T04:36:56Z</time></trkpt><trkpt lat="35.9595321" lon="139.278262"><ele>306.93333333333334</ele><time>2022-12-16T04:37:12Z</time></trkpt><trkpt lat="35.9596665" lon="139.2784178"><ele>303.98</ele><time>2022-12-16T04:37:28Z</time></trkpt><trkpt lat="35.9598089" lon="139.2785675"><ele>302.0</ele><time>2022-12-16T04:37:45Z</time></trkpt><trkpt lat="35.9599542" lon="139.2787064"><ele>300.7633333333333</ele><time>2022-12-16T04:37:59Z</time></trkpt><trkpt lat="35.9601347" lon="139.2787688"><ele>300.6166666666666</ele><time>2022-12-16T04:38:13Z</time></trkpt><trkpt lat="35.9603109" lon="139.278852"><ele>300.91</ele><time>2022-12-16T04:38:26Z</time></trkpt><trkpt lat="35.9604513" lon="139.2789933"><ele>301.3666666666666</ele><time>2022-12-16T04:38:39Z</time></trkpt><trkpt lat="35.960592" lon="139.2791367"><ele>301.34666666666664</ele><time>2022-12-16T04:38:56Z</time></trkpt><trkpt lat="35.9607447" lon="139.2792632"><ele>302.1033333333333</ele><time>2022-12-16T04:39:21Z</time></trkpt><trkpt lat="35.9609069" lon="139.2793675"><ele>304.5</ele><time>2022-12-16T04:39:54Z</time></trkpt><trkpt lat="35.9609867" lon="139.2796154"><ele>308.84999999999997</ele><time>2022-12-16T04:40:05Z</time></trkpt><trkpt lat="35.960923" lon="139.2798367"><ele>312.67333333333335</ele><time>2022-12-16T04:40:13Z</time></trkpt><trkpt lat="35.9609418" lon="139.2800649"><ele>313.2966666666667</ele><time>2022-12-16T04:40:45Z</time></trkpt><trkpt lat="35.9608773" lon="139.2802776"><ele>309.65</ele><time>2022-12-16T04:41:02Z</time></trkpt><trkpt lat="35.9609009" lon="139.2805017"><ele>304.4533333333333</ele><time>2022-12-16T04:41:32Z</time></trkpt><trkpt lat="35.9609327" lon="139.2807302"><ele>298.2033333333333</ele><time>2022-12-16T04:41:48Z</time></trkpt><trkpt lat="35.9610494" lon="139.2809076"><ele>292.84999999999997</ele><time>2022-12-16T04:42:03Z</time></trkpt><trkpt lat="35.9611227" lon="139.281111"><ele>287.33</ele><time>2022-12-16T04:42:21Z</time></trkpt><trkpt lat="35.9610393" lon="139.2813109"><ele>283.37333333333333</ele><time>2022-12-16T04:43:02Z</time></trkpt><trkpt lat="35.9610911" lon="139.2815275"><ele>279.55</ele><time>2022-12-16T04:43:17Z</time></trkpt><trkpt lat="35.9610505" lon="139.2817495"><ele>275.8933333333334</ele><time>2022-12-16T04:44:02Z</time></trkpt><trkpt lat="35.9611013" lon="139.2819666"><ele>272.06</ele><time>2022-12-16T04:44:10Z</time></trkpt><trkpt lat="35.9610285" lon="139.2821872"><ele>266.5</ele><time>2022-12-16T04:44:28Z</time></trkpt><trkpt lat="35.9610853" lon="139.2824004"><ele>260.8466666666667</ele><time>2022-12-16T04:44:46Z</time></trkpt><trkpt lat="35.9609802" lon="139.2825958"><ele>255.44666666666663</ele><time>2022-12-16T04:44:59Z</time></trkpt><trkpt lat="35.960818" lon="139.282707"><ele>250.92999999999998</ele><time>2022-12-16T04:45:09Z</time></trkpt><trkpt lat="35.9608945" lon="139.2829162"><ele>247.11</ele><time>2022-12-16T04:45:21Z</time></trkpt><trkpt lat="35.9609146" lon="139.2831623"><ele>243.83</ele><time>2022-12-16T04:45:32Z</time></trkpt><trkpt lat="35.960807" lon="139.2833459"><ele>242.9</ele><time>2022-12-16T04:45:43Z</time></trkpt><trkpt lat="35.960651" lon="139.283461"><ele>241.45333333333335</ele><time>2022-12-16T04:45:56Z</time></trkpt><trkpt lat="35.9605798" lon="139.2836682"><ele>241.63333333333333</ele><time>2022-12-16T04:46:17Z</time></trkpt><trkpt lat="35.9605606" lon="139.2839129"><ele>240.6</ele><time>2022-12-16T04:46:27Z</time></trkpt><trkpt lat="35.9606517" lon="139.2841128"><ele>242.40666666666667</ele><time>2022-12-16T04:46:43Z</time></trkpt><trkpt lat="35.9608134" lon="139.2842119"><ele>245.36333333333334</ele><time>2022-12-16T04:46:53Z</time></trkpt><trkpt lat="35.9609718" lon="139.2843577"><ele>249.88</ele><time>2022-12-16T04:47:07Z</time></trkpt><trkpt lat="35.9609636" lon="139.2845826"><ele>250.28666666666666</ele><time>2022-12-16T04:47:19Z</time></trkpt><trkpt lat="35.961001" lon="139.2848202"><ele>248.9766666666667</ele><time>2022-12-16T04:47:33Z</time></trkpt><trkpt lat="35.9610615" lon="139.2850349"><ele>248.91333333333333</ele><time>2022-12-16T04:47:49Z</time></trkpt><trkpt lat="35.9610214" lon="139.2852622"><ele>252.41333333333333</ele><time>2022-12-16T04:48:02Z</time></trkpt><trkpt lat="35.9608428" lon="139.2853009"><ele>253.93666666666664</ele><time>2022-12-16T04:48:14Z</time></trkpt><trkpt lat="35.9606871" lon="139.2854148"><ele>253.56000000000003</ele><time>2022-12-16T04:48:27Z</time></trkpt><trkpt lat="35.9605017" lon="139.2854719"><ele>251.08666666666667</ele><time>2022-12-16T04:48:35Z</time></trkpt><trkpt lat="35.9603212" lon="139.2855008"><ele>248.47000000000003</ele><time>2022-12-16T04:48:47Z</time></trkpt><trkpt lat="35.9602356" lon="139.2857137"><ele>247.08333333333334</ele><time>2022-12-16T04:49:02Z</time></trkpt><trkpt lat="35.9601647" lon="139.2859407"><ele>245.72333333333336</ele><time>2022-12-16T04:49:16Z</time></trkpt><trkpt lat="35.9602951" lon="139.2861143"><ele>247.67999999999998</ele><time>2022-12-16T04:49:25Z</time></trkpt><trkpt lat="35.9604105" lon="139.2862994"><ele>247.04999999999998</ele><time>2022-12-16T04:49:37Z</time></trkpt><trkpt lat="35.960572" lon="139.2864125"><ele>248.21333333333334</ele><time>2022-12-16T04:49:49Z</time></trkpt><trkpt lat="35.9606605" lon="139.2866138"><ele>246.20666666666668</ele><time>2022-12-16T04:50:03Z</time></trkpt><trkpt lat="35.960674" lon="139.2868447"><ele>241.62</ele><time>2022-12-16T04:50:21Z</time></trkpt><trkpt lat="35.9606398" lon="139.2870627"><ele>232.36</ele><time>2022-12-16T04:50:42Z</time></trkpt><trkpt lat="35.9607238" lon="139.2872607"><ele>225.57666666666668</ele><time>2022-12-16T04:50:54Z</time></trkpt><trkpt lat="35.9607553" lon="139.2874834"><ele>222.3066666666667</ele><time>2022-12-16T04:51:11Z</time></trkpt><trkpt lat="35.9607158" lon="139.2877188"><ele>221.65666666666667</ele><time>2022-12-16T04:51:44Z</time></trkpt><trkpt lat="35.9606729" lon="139.2879398"><ele>217.76999999999998</ele><time>2022-12-16T04:52:24Z</time></trkpt><trkpt lat="35.9606057" lon="139.2882033"><ele>213.84333333333333</ele><time>2022-12-16T04:52:31Z</time></trkpt><trkpt lat="35.9606751" lon="139.2884086"><ele>210.85666666666665</ele><time>2022-12-16T04:52:55Z</time></trkpt><trkpt lat="35.9606195" lon="139.2886226"><ele>208.6833333333333</ele><time>2022-12-16T04:53:10Z</time></trkpt><trkpt lat="35.9605331" lon="139.2888287"><ele>206.42666666666665</ele><time>2022-12-16T04:53:25Z</time></trkpt><trkpt lat="35.9603913" lon="139.2889685"><ele>203.02999999999997</ele><time>2022-12-16T04:53:43Z</time></trkpt><trkpt lat="35.9602096" lon="139.2889301"><ele>200.23333333333335</ele><time>2022-12-16T04:54:01Z</time></trkpt><trkpt lat="35.9602933" lon="139.2891319"><ele>196.66666666666666</ele><time>2022-12-16T04:55:01Z</time></trkpt><trkpt lat="35.9603861" lon="139.2893243"><ele>192.09</ele><time>2022-12-16T04:55:12Z</time></trkpt><trkpt lat="35.9604763" lon="139.2895263"><ele>186.54</ele><time>2022-12-16T04:55:43Z</time></trkpt><trkpt lat="35.9605158" lon="139.2897434"><ele>180.99333333333334</ele><time>2022-12-16T04:55:56Z</time></trkpt><trkpt lat="35.9605814" lon="139.2899619"><ele>176.97000000000003</ele><time>2022-12-16T04:56:40Z</time></trkpt><trkpt lat="35.9604961" lon="139.2901707"><ele>173.13000000000002</ele><time>2022-12-16T04:56:53Z</time></trkpt><trkpt lat="35.9603692" lon="139.2903321"><ele>169.96</ele><time>2022-12-16T04:57:12Z</time></trkpt><trkpt lat="35.9602437" lon="139.2905044"><ele>165.19333333333336</ele><time>2022-12-16T04:57:32Z</time></trkpt><trkpt lat="35.960207" lon="139.2907335"><ele>161.47666666666666</ele><time>2022-12-16T04:57:44Z</time></trkpt><trkpt lat="35.9601025" lon="139.2909143"><ele>159.20000000000002</ele><time>2022-12-16T04:58:00Z</time></trkpt><trkpt lat="35.9602293" lon="139.2910762"><ele>161.60666666666665</ele><time>2022-12-16T04:58:15Z</time></trkpt><trkpt lat="35.9603314" lon="139.2912799"><ele>165.45333333333335</ele><time>2022-12-16T04:58:32Z</time></trkpt><trkpt lat="35.9603298" lon="139.2915064"><ele>168.99666666666667</ele><time>2022-12-16T04:58:45Z</time></trkpt><trkpt lat="35.9603889" lon="139.291719"><ele>167.42666666666665</ele><time>2022-12-16T04:58:56Z</time></trkpt><trkpt lat="35.9605769" lon="139.2916242"><ele>165.15333333333334</ele><time>2022-12-16T04:59:33Z</time></trkpt><trkpt lat="35.960415" lon="139.2915194"><ele>165.07333333333335</ele><time>2022-12-16T05:00:19Z</time></trkpt><trkpt lat="35.9602748" lon="139.2913235"><ele>167.77</ele><time>2022-12-16T05:00:30Z</time></trkpt><trkpt lat="35.9602623" lon="139.2910842"><ele>169.08</ele><time>2022-12-16T05:00:39Z</time></trkpt><trkpt lat="35.9601389" lon="139.2912699"><ele>168.43333333333334</ele><time>2022-12-16T05:00:53Z</time></trkpt><trkpt lat="35.9602349" lon="139.291519"><ele>168.35666666666668</ele><time>2022-12-16T05:01:18Z</time></trkpt><trkpt lat="35.960379" lon="139.2916533"><ele>167.96333333333334</ele><time>2022-12-16T05:01:50Z</time></trkpt><trkpt lat="35.9604221" lon="139.291894"><ele>164.0666666666667</ele><time>2022-12-16T05:01:56Z</time></trkpt><trkpt lat="35.9605941" lon="139.291826"><ele>160.15333333333334</ele><time>2022-12-16T05:02:10Z</time></trkpt><trkpt lat="35.9607159" lon="139.2920065"><ele>155.48666666666668</ele><time>2022-12-16T05:03:08Z</time></trkpt><trkpt lat="35.9607781" lon="139.2922157"><ele>151.41333333333333</ele><time>2022-12-16T05:03:56Z</time></trkpt><trkpt lat="35.9609137" lon="139.2923709"><ele>144.35333333333332</ele><time>2022-12-16T05:04:20Z</time></trkpt><trkpt lat="35.9609676" lon="139.2926099"><ele>137.91333333333333</ele><time>2022-12-16T05:04:40Z</time></trkpt><trkpt lat="35.9610739" lon="139.2927937"><ele>132.67666666666668</ele><time>2022-12-16T05:04:57Z</time></trkpt><trkpt lat="35.9612123" lon="139.2929575"><ele>126.96666666666665</ele><time>2022-12-16T05:05:13Z</time></trkpt><trkpt lat="35.96138" lon="139.2930584"><ele>121.11666666666667</ele><time>2022-12-16T05:05:25Z</time></trkpt><trkpt lat="35.9614695" lon="139.2932513"><ele>114.77666666666666</ele><time>2022-12-16T05:06:12Z</time></trkpt><trkpt lat="35.9616284" lon="139.2933665"><ele>110.11000000000001</ele><time>2022-12-16T05:06:33Z</time></trkpt><trkpt lat="35.9617806" lon="139.2934855"><ele>106.34666666666665</ele><time>2022-12-16T05:06:47Z</time></trkpt><trkpt lat="35.961933" lon="139.2936257"><ele>103.65333333333335</ele><time>2022-12-16T05:07:00Z</time></trkpt><trkpt lat="35.962007" lon="139.2938378"><ele>100.88666666666667</ele><time>2022-12-16T05:07:15Z</time></trkpt><trkpt lat="35.9621023" lon="139.2940395"><ele>97.21666666666665</ele><time>2022-12-16T05:07:31Z</time></trkpt><trkpt lat="35.9622323" lon="139.2942018"><ele>93.18</ele><time>2022-12-16T05:08:22Z</time></trkpt><trkpt lat="35.9623525" lon="139.294371"><ele>89.55</ele><time>2022-12-16T05:08:33Z</time></trkpt><trkpt lat="35.9624863" lon="139.2945354"><ele>87.37333333333333</ele><time>2022-12-16T05:08:45Z</time></trkpt><trkpt lat="35.9625454" lon="139.2947461"><ele>85.48</ele><time>2022-12-16T05:09:27Z</time></trkpt><trkpt lat="35.9625895" lon="139.2949703"><ele>83.53666666666668</ele><time>2022-12-16T05:09:40Z</time></trkpt><trkpt lat="35.9626604" lon="139.2951945"><ele>81.25333333333333</ele><time>2022-12-16T05:09:53Z</time></trkpt><trkpt lat="35.9626559" lon="139.2954255"><ele>79.00666666666667</ele><time>2022-12-16T05:10:10Z</time></trkpt><trkpt lat="35.9625699" lon="139.2956208"><ele>76.85666666666667</ele><time>2022-12-16T05:10:30Z</time></trkpt><trkpt lat="35.9625801" lon="139.2958921"><ele>74.64999999999999</ele><time>2022-12-16T05:10:47Z</time></trkpt><trkpt lat="35.9626053" lon="139.2961126"><ele>72.77999999999999</ele><time>2022-12-16T05:10:56Z</time></trkpt><trkpt lat="35.96253" lon="139.2963209"><ele>71.67666666666666</ele><time>2022-12-16T05:11:10Z</time></trkpt><trkpt lat="35.9625774" lon="139.2965781"><ele>70.95</ele><time>2022-12-16T05:11:21Z</time></trkpt><trkpt lat="35.9625752" lon="139.2968032"><ele>70.61666666666667</ele><time>2022-12-16T05:11:40Z</time></trkpt><trkpt lat="35.9626302" lon="139.2970251"><ele>70.06333333333335</ele><time>2022-12-16T05:11:50Z</time></trkpt><trkpt lat="35.9626637" lon="139.2972686"><ele>69.72666666666667</ele><time>2022-12-16T05:12:04Z</time></trkpt><trkpt lat="35.9626833" lon="139.2974978"><ele>69.44000000000001</ele><time>2022-12-16T05:12:13Z</time></trkpt><trkpt lat="35.9626018" lon="139.2977083"><ele>69.32000000000001</ele><time>2022-12-16T05:12:25Z</time></trkpt><trkpt lat="35.9624898" lon="139.2978978"><ele>69.16666666666667</ele><time>2022-12-16T05:12:44Z</time></trkpt><trkpt lat="35.9625247" lon="139.2981162"><ele>68.91666666666667</ele><time>2022-12-16T05:12:51Z</time></trkpt><trkpt lat="35.9623413" lon="139.2980506"><ele>68.77</ele><time>2022-12-16T05:13:08Z</time></trkpt><trkpt lat="35.9621555" lon="139.2981054"><ele>68.67333333333333</ele><time>2022-12-16T05:13:20Z</time></trkpt><trkpt lat="35.9620281" lon="139.2982705"><ele>68.60000000000001</ele><time>2022-12-16T05:13:29Z</time></trkpt><trkpt lat="35.9620625" lon="139.2984903"><ele>68.28333333333333</ele><time>2022-12-16T05:13:38Z</time></trkpt><trkpt lat="35.9620778" lon="139.2987392"><ele>67.91666666666667</ele><time>2022-12-16T05:13:49Z</time></trkpt><trkpt lat="35.9621002" lon="139.2989637"><ele>67.48666666666666</ele><time>2022-12-16T05:14:08Z</time></trkpt><trkpt lat="35.9620657" lon="139.2991828"><ele>67.18333333333334</ele><time>2022-12-16T05:14:21Z</time></trkpt><trkpt lat="35.9620524" lon="139.2994087"><ele>66.89999999999999</ele><time>2022-12-16T05:14:35Z</time></trkpt></trkseg></trk></gpx>