<?xml version='1.0' encoding='UTF-8'?><gpx creator="YAMAP - https://yamap.com" xsi:schemaLocation="http://www.topografix.com/GPX/1/1 http://www.topografix.com/GPX/1/1/gpx.xsd" version="1.1" xmlns="http://www.topografix.com/GPX/1/1" xmlns:xsi="http://www.w3.org/2001/XMLSchema-instance"><metadata><bounds maxlat="35.4544113" maxlon="139.1690257" minlat="35.4047534" minlon="139.1609736"/></metadata><trk><name>大倉尾根で登る塔ノ岳</name><number>1</number><trkseg><trkpt lat="35.4047758" lon="139.1689745"><ele>286.3</ele><time>2023-09-16T23:36:57Z</time></trkpt><trkpt lat="35.4047534" lon="139.1687304"><ele>286.81</ele><time>2023-09-16T23:37:14Z</time></trkpt><trkpt lat="35.4047976" lon="139.1685156"><ele>287.45666666666665</ele><time>2023-09-16T23:37:28Z</time></trkpt><trkpt lat="35.4049291" lon="139.1683419"><ele>288.53999999999996</ele><time>2023-09-16T23:37:41Z</time></trkpt><trkpt lat="35.4051024" lon="139.168419"><ele>289.3766666666666</ele><time>2023-09-16T23:37:50Z</time></trkpt><trkpt lat="35.405283" lon="139.1684164"><ele>290.23333333333335</ele><time>2023-09-16T23:38:05Z</time></trkpt><trkpt lat="35.4053825" lon="139.1682294"><ele>291.2133333333333</ele><time>2023-09-16T23:38:19Z</time></trkpt><trkpt lat="35.4055338" lon="139.168094"><ele>292.6766666666667</ele><time>2023-09-16T23:38:33Z</time></trkpt><trkpt lat="35.4057151" lon="139.1680563"><ele>293.36</ele><time>2023-09-16T23:38:49Z</time></trkpt><trkpt lat="35.4058716" lon="139.1679382"><ele>293.3066666666667</ele><time>2023-09-16T23:38:59Z</time></trkpt><trkpt lat="35.4058684" lon="139.1677001"><ele>292.97333333333336</ele><time>2023-09-16T23:39:09Z</time></trkpt><trkpt lat="35.405777" lon="139.1674955"><ele>293.6166666666666</ele><time>2023-09-16T23:39:19Z</time></trkpt><trkpt lat="35.4059542" lon="139.1674304"><ele>294.1333333333333</ele><time>2023-09-16T23:39:28Z</time></trkpt><trkpt lat="35.4059687" lon="139.1672088"><ele>295.58666666666664</ele><time>2023-09-16T23:39:42Z</time></trkpt><trkpt lat="35.4059146" lon="139.1669828"><ele>297.49</ele><time>2023-09-16T23:39:55Z</time></trkpt><trkpt lat="35.4058647" lon="139.1667712"><ele>300.34666666666664</ele><time>2023-09-16T23:40:21Z</time></trkpt><trkpt lat="35.4057676" lon="139.1665833"><ele>302.33666666666664</ele><time>2023-09-16T23:40:31Z</time></trkpt><trkpt lat="35.4056937" lon="139.1663602"><ele>304.43666666666667</ele><time>2023-09-16T23:40:41Z</time></trkpt><trkpt lat="35.4057942" lon="139.1661764"><ele>306.43333333333334</ele><time>2023-09-16T23:40:59Z</time></trkpt><trkpt lat="35.4059658" lon="139.166094"><ele>308.60999999999996</ele><time>2023-09-16T23:41:17Z</time></trkpt><trkpt lat="35.4060281" lon="139.1658649"><ele>311.4433333333333</ele><time>2023-09-16T23:41:32Z</time></trkpt><trkpt lat="35.4061951" lon="139.1657811"><ele>315.59</ele><time>2023-09-16T23:41:50Z</time></trkpt><trkpt lat="35.406403" lon="139.1657794"><ele>319.41</ele><time>2023-09-16T23:42:10Z</time></trkpt><trkpt lat="35.406579" lon="139.1657317"><ele>321.0</ele><time>2023-09-16T23:42:30Z</time></trkpt><trkpt lat="35.4067081" lon="139.1655734"><ele>321.37333333333333</ele><time>2023-09-16T23:42:52Z</time></trkpt><trkpt lat="35.4068544" lon="139.1654439"><ele>322.44</ele><time>2023-09-16T23:43:13Z</time></trkpt><trkpt lat="35.4070145" lon="139.1653399"><ele>324.6433333333334</ele><time>2023-09-16T23:43:47Z</time></trkpt><trkpt lat="35.4071831" lon="139.1652468"><ele>327.0066666666667</ele><time>2023-09-16T23:44:08Z</time></trkpt><trkpt lat="35.4073285" lon="139.1651093"><ele>329.28</ele><time>2023-09-16T23:44:27Z</time></trkpt><trkpt lat="35.4074982" lon="139.1650133"><ele>331.95000000000005</ele><time>2023-09-16T23:44:44Z</time></trkpt><trkpt lat="35.4076749" lon="139.1649471"><ele>335.08666666666664</ele><time>2023-09-16T23:45:04Z</time></trkpt><trkpt lat="35.4078404" lon="139.164859"><ele>338.33666666666664</ele><time>2023-09-16T23:45:23Z</time></trkpt><trkpt lat="35.4080151" lon="139.1647928"><ele>341.49666666666667</ele><time>2023-09-16T23:45:46Z</time></trkpt><trkpt lat="35.4081895" lon="139.1647201"><ele>344.09999999999997</ele><time>2023-09-16T23:46:07Z</time></trkpt><trkpt lat="35.4083626" lon="139.1646438"><ele>346.37000000000006</ele><time>2023-09-16T23:46:28Z</time></trkpt><trkpt lat="35.4085052" lon="139.1645053"><ele>348.0166666666667</ele><time>2023-09-16T23:46:46Z</time></trkpt><trkpt lat="35.4086004" lon="139.1643093"><ele>350.72</ele><time>2023-09-16T23:47:09Z</time></trkpt><trkpt lat="35.4086587" lon="139.164064"><ele>354.43333333333334</ele><time>2023-09-16T23:47:34Z</time></trkpt><trkpt lat="35.4086553" lon="139.1638374"><ele>357.7166666666667</ele><time>2023-09-16T23:47:46Z</time></trkpt><trkpt lat="35.4087564" lon="139.1636488"><ele>359.64000000000004</ele><time>2023-09-16T23:48:07Z</time></trkpt><trkpt lat="35.4089163" lon="139.1635323"><ele>361.3533333333334</ele><time>2023-09-16T23:48:29Z</time></trkpt><trkpt lat="35.4090982" lon="139.1635051"><ele>364.81333333333333</ele><time>2023-09-16T23:48:52Z</time></trkpt><trkpt lat="35.4092784" lon="139.163549"><ele>370.2833333333333</ele><time>2023-09-16T23:49:14Z</time></trkpt><trkpt lat="35.4094496" lon="139.1636283"><ele>375.1766666666667</ele><time>2023-09-16T23:49:44Z</time></trkpt><trkpt lat="35.4096342" lon="139.1636547"><ele>377.9166666666667</ele><time>2023-09-16T23:50:09Z</time></trkpt><trkpt lat="35.4098137" lon="139.163623"><ele>379.3666666666666</ele><time>2023-09-16T23:50:29Z</time></trkpt><trkpt lat="35.4099939" lon="139.1635783"><ele>380.5333333333333</ele><time>2023-09-16T23:50:50Z</time></trkpt><trkpt lat="35.4101447" lon="139.163456"><ele>383.76666666666665</ele><time>2023-09-16T23:51:14Z</time></trkpt><trkpt lat="35.4102516" lon="139.1632738"><ele>386.85999999999996</ele><time>2023-09-16T23:51:39Z</time></trkpt><trkpt lat="35.4103639" lon="139.1630986"><ele>390.41333333333336</ele><time>2023-09-16T23:52:02Z</time></trkpt><trkpt lat="35.4105006" lon="139.1629486"><ele>393.43666666666667</ele><time>2023-09-16T23:52:36Z</time></trkpt><trkpt lat="35.4106446" lon="139.1628113"><ele>396.3066666666667</ele><time>2023-09-16T23:53:15Z</time></trkpt><trkpt lat="35.4107751" lon="139.1626528"><ele>400.14000000000004</ele><time>2023-09-16T23:53:39Z</time></trkpt><trkpt lat="35.4108822" lon="139.1624703"><ele>404.54333333333335</ele><time>2023-09-16T23:53:55Z</time></trkpt><trkpt lat="35.4110247" lon="139.1623278"><ele>410.6033333333333</ele><time>2023-09-16T23:54:20Z</time></trkpt><trkpt lat="35.4111789" lon="139.1621983"><ele>415.84666666666664</ele><time>2023-09-16T23:54:58Z</time></trkpt><trkpt lat="35.4112903" lon="139.1620227"><ele>421.38000000000005</ele><time>2023-09-16T23:55:23Z</time></trkpt><trkpt lat="35.4114237" lon="139.1618654"><ele>426.8333333333333</ele><time>2023-09-16T23:56:01Z</time></trkpt><trkpt lat="35.4115938" lon="139.1617826"><ele>433.06333333333333</ele><time>2023-09-16T23:56:30Z</time></trkpt><trkpt lat="35.4117534" lon="139.1616769"><ele>440.23</ele><time>2023-09-16T23:56:51Z</time></trkpt><trkpt lat="35.4118592" lon="139.1618607"><ele>444.84666666666664</ele><time>2023-09-16T23:57:13Z</time></trkpt><trkpt lat="35.412021" lon="139.1619815"><ele>447.6466666666667</ele><time>2023-09-16T23:57:28Z</time></trkpt><trkpt lat="35.4121854" lon="139.1620789"><ele>446.7133333333333</ele><time>2023-09-16T23:57:51Z</time></trkpt><trkpt lat="35.4123229" lon="139.1619222"><ele>448.7033333333334</ele><time>2023-09-16T23:58:29Z</time></trkpt><trkpt lat="35.4124869" lon="139.1618201"><ele>451.43666666666667</ele><time>2023-09-16T23:58:47Z</time></trkpt><trkpt lat="35.412635" lon="139.1616922"><ele>454.97333333333336</ele><time>2023-09-16T23:59:06Z</time></trkpt><trkpt lat="35.4128113" lon="139.1616365"><ele>456.6566666666667</ele><time>2023-09-16T23:59:41Z</time></trkpt><trkpt lat="35.4129973" lon="139.1616371"><ele>459.25</ele><time>2023-09-17T00:00:01Z</time></trkpt><trkpt lat="35.4131221" lon="139.161796"><ele>460.84</ele><time>2023-09-17T00:00:18Z</time></trkpt><trkpt lat="35.4132941" lon="139.1618678"><ele>462.23</ele><time>2023-09-17T00:00:35Z</time></trkpt><trkpt lat="35.413394" lon="139.1620534"><ele>461.5833333333333</ele><time>2023-09-17T00:00:54Z</time></trkpt><trkpt lat="35.4134701" lon="139.1622568"><ele>464.5533333333333</ele><time>2023-09-17T00:01:30Z</time></trkpt><trkpt lat="35.4136357" lon="139.1623603"><ele>467.6333333333334</ele><time>2023-09-17T00:02:15Z</time></trkpt><trkpt lat="35.413816" lon="139.1623037"><ele>472.4266666666667</ele><time>2023-09-17T00:02:46Z</time></trkpt><trkpt lat="35.4139719" lon="139.1621889"><ele>476.3300000000001</ele><time>2023-09-17T00:03:06Z</time></trkpt><trkpt lat="35.4141475" lon="139.1621343"><ele>481.84</ele><time>2023-09-17T00:03:37Z</time></trkpt><trkpt lat="35.414325" lon="139.1620773"><ele>487.3333333333333</ele><time>2023-09-17T00:03:56Z</time></trkpt><trkpt lat="35.414505" lon="139.1621045"><ele>490.28333333333336</ele><time>2023-09-17T00:04:20Z</time></trkpt><trkpt lat="35.4146762" lon="139.1621814"><ele>493.4333333333334</ele><time>2023-09-17T00:04:45Z</time></trkpt><trkpt lat="35.4148044" lon="139.1623488"><ele>495.1033333333333</ele><time>2023-09-17T00:05:22Z</time></trkpt><trkpt lat="35.4149509" lon="139.1624793"><ele>499.10666666666674</ele><time>2023-09-17T00:05:43Z</time></trkpt><trkpt lat="35.4149803" lon="139.1622607"><ele>501.72</ele><time>2023-09-17T00:06:06Z</time></trkpt><trkpt lat="35.4148888" lon="139.1620694"><ele>505.17</ele><time>2023-09-17T00:06:38Z</time></trkpt><trkpt lat="35.4150693" lon="139.1620157"><ele>510.27</ele><time>2023-09-17T00:07:23Z</time></trkpt><trkpt lat="35.4151686" lon="139.1622007"><ele>514.3966666666666</ele><time>2023-09-17T00:07:54Z</time></trkpt><trkpt lat="35.4152295" lon="139.1624326"><ele>519.7366666666667</ele><time>2023-09-17T00:08:07Z</time></trkpt><trkpt lat="35.4152508" lon="139.1626539"><ele>522.7800000000001</ele><time>2023-09-17T00:08:42Z</time></trkpt><trkpt lat="35.4154246" lon="139.1627353"><ele>528.6066666666667</ele><time>2023-09-17T00:09:56Z</time></trkpt><trkpt lat="35.4156076" lon="139.1627747"><ele>535.2433333333333</ele><time>2023-09-17T00:10:15Z</time></trkpt><trkpt lat="35.4157878" lon="139.1628028"><ele>539.8366666666667</ele><time>2023-09-17T00:10:50Z</time></trkpt><trkpt lat="35.4158515" lon="139.1625961"><ele>546.0300000000001</ele><time>2023-09-17T00:11:34Z</time></trkpt><trkpt lat="35.4160347" lon="139.162542"><ele>548.6133333333333</ele><time>2023-09-17T00:12:08Z</time></trkpt><trkpt lat="35.416222" lon="139.1625138"><ele>555.4133333333334</ele><time>2023-09-17T00:12:53Z</time></trkpt><trkpt lat="35.4164014" lon="139.1624915"><ele>558.9300000000001</ele><time>2023-09-17T00:13:34Z</time></trkpt><trkpt lat="35.4165822" lon="139.1624862"><ele>564.2166666666667</ele><time>2023-09-17T00:14:21Z</time></trkpt><trkpt lat="35.4167666" lon="139.1624829"><ele>569.53</ele><time>2023-09-17T00:14:40Z</time></trkpt><trkpt lat="35.416949" lon="139.1625595"><ele>573.7133333333333</ele><time>2023-09-17T00:15:12Z</time></trkpt><trkpt lat="35.4171145" lon="139.1624669"><ele>579.1</ele><time>2023-09-17T00:15:39Z</time></trkpt><trkpt lat="35.4172735" lon="139.1623556"><ele>583.7333333333332</ele><time>2023-09-17T00:16:15Z</time></trkpt><trkpt lat="35.4174599" lon="139.1623198"><ele>588.5066666666667</ele><time>2023-09-17T00:16:48Z</time></trkpt><trkpt lat="35.4176436" lon="139.1623045"><ele>591.3466666666667</ele><time>2023-09-17T00:17:06Z</time></trkpt><trkpt lat="35.4178241" lon="139.1623024"><ele>591.9000000000001</ele><time>2023-09-17T00:17:23Z</time></trkpt><trkpt lat="35.4180036" lon="139.1622542"><ele>593.9133333333334</ele><time>2023-09-17T00:18:04Z</time></trkpt><trkpt lat="35.418192" lon="139.1622086"><ele>595.8933333333333</ele><time>2023-09-17T00:18:18Z</time></trkpt><trkpt lat="35.418359" lon="139.1621199"><ele>598.8366666666667</ele><time>2023-09-17T00:19:03Z</time></trkpt><trkpt lat="35.4185504" lon="139.1621078"><ele>600.1233333333333</ele><time>2023-09-17T00:19:15Z</time></trkpt><trkpt lat="35.4187346" lon="139.1621634"><ele>601.2533333333332</ele><time>2023-09-17T00:19:37Z</time></trkpt><trkpt lat="35.4189211" lon="139.1621554"><ele>601.4233333333333</ele><time>2023-09-17T00:19:58Z</time></trkpt><trkpt lat="35.4190781" lon="139.1620337"><ele>601.9966666666667</ele><time>2023-09-17T00:20:11Z</time></trkpt><trkpt lat="35.4192518" lon="139.1619693"><ele>602.13</ele><time>2023-09-17T00:20:48Z</time></trkpt><trkpt lat="35.4194382" lon="139.1619661"><ele>603.14</ele><time>2023-09-17T00:21:02Z</time></trkpt><trkpt lat="35.4196224" lon="139.1619531"><ele>605.9200000000001</ele><time>2023-09-17T00:21:30Z</time></trkpt><trkpt lat="35.4197604" lon="139.1620968"><ele>609.3433333333334</ele><time>2023-09-17T00:22:14Z</time></trkpt><trkpt lat="35.4199228" lon="139.1621977"><ele>613.2666666666668</ele><time>2023-09-17T00:22:31Z</time></trkpt><trkpt lat="35.420084" lon="139.1620971"><ele>614.96</ele><time>2023-09-17T00:23:55Z</time></trkpt><trkpt lat="35.4202543" lon="139.162185"><ele>619.3866666666668</ele><time>2023-09-17T00:24:59Z</time></trkpt><trkpt lat="35.420434" lon="139.1622169"><ele>625.62</ele><time>2023-09-17T00:25:48Z</time></trkpt><trkpt lat="35.4206155" lon="139.1621844"><ele>634.7033333333334</ele><time>2023-09-17T00:26:45Z</time></trkpt><trkpt lat="35.420797" lon="139.1622067"><ele>644.84</ele><time>2023-09-17T00:27:53Z</time></trkpt><trkpt lat="35.4209309" lon="139.1623682"><ele>655.3833333333333</ele><time>2023-09-17T00:28:16Z</time></trkpt><trkpt lat="35.4210665" lon="139.1625143"><ele>664.94</ele><time>2023-09-17T00:29:29Z</time></trkpt><trkpt lat="35.4212028" lon="139.1626592"><ele>672.37</ele><time>2023-09-17T00:30:08Z</time></trkpt><trkpt lat="35.4213127" lon="139.1628363"><ele>678.1033333333334</ele><time>2023-09-17T00:30:47Z</time></trkpt><trkpt lat="35.421457" lon="139.1629703"><ele>683.9333333333334</ele><time>2023-09-17T00:31:20Z</time></trkpt><trkpt lat="35.4216016" lon="139.1631084"><ele>689.1666666666666</ele><time>2023-09-17T00:31:53Z</time></trkpt><trkpt lat="35.421766" lon="139.1632054"><ele>693.6566666666668</ele><time>2023-09-17T00:32:20Z</time></trkpt><trkpt lat="35.4219214" lon="139.1633223"><ele>697.8966666666666</ele><time>2023-09-17T00:32:48Z</time></trkpt><trkpt lat="35.4220691" lon="139.1634494"><ele>702.7600000000001</ele><time>2023-09-17T00:33:21Z</time></trkpt><trkpt lat="35.4221627" lon="139.1636469"><ele>707.86</ele><time>2023-09-17T00:34:10Z</time></trkpt><trkpt lat="35.4222925" lon="139.1638115"><ele>712.82</ele><time>2023-09-17T00:34:34Z</time></trkpt><trkpt lat="35.422431" lon="139.1639532"><ele>717.8166666666667</ele><time>2023-09-17T00:35:14Z</time></trkpt><trkpt lat="35.4225275" lon="139.1641484"><ele>722.5633333333334</ele><time>2023-09-17T00:35:51Z</time></trkpt><trkpt lat="35.4226536" lon="139.1643088"><ele>727.7966666666667</ele><time>2023-09-17T00:36:32Z</time></trkpt><trkpt lat="35.4227844" lon="139.1644665"><ele>733.1633333333334</ele><time>2023-09-17T00:37:31Z</time></trkpt><trkpt lat="35.422868" lon="139.1646696"><ele>738.87</ele><time>2023-09-17T00:38:07Z</time></trkpt><trkpt lat="35.4230018" lon="139.1648195"><ele>745.0566666666667</ele><time>2023-09-17T00:38:54Z</time></trkpt><trkpt lat="35.4231227" lon="139.1649901"><ele>751.0666666666666</ele><time>2023-09-17T00:39:40Z</time></trkpt><trkpt lat="35.4232421" lon="139.1651633"><ele>757.2866666666665</ele><time>2023-09-17T00:39:58Z</time></trkpt><trkpt lat="35.4234268" lon="139.1651772"><ele>761.4733333333334</ele><time>2023-09-17T00:41:00Z</time></trkpt><trkpt lat="35.4235998" lon="139.165255"><ele>764.9866666666667</ele><time>2023-09-17T00:41:38Z</time></trkpt><trkpt lat="35.4237381" lon="139.1654027"><ele>768.8566666666667</ele><time>2023-09-17T00:42:01Z</time></trkpt><trkpt lat="35.4238964" lon="139.1655294"><ele>772.96</ele><time>2023-09-17T00:42:41Z</time></trkpt><trkpt lat="35.4239922" lon="139.1657272"><ele>777.6466666666665</ele><time>2023-09-17T00:42:53Z</time></trkpt><trkpt lat="35.424145" lon="139.1658559"><ele>780.7133333333333</ele><time>2023-09-17T00:43:20Z</time></trkpt><trkpt lat="35.4243292" lon="139.1658952"><ele>783.68</ele><time>2023-09-17T00:43:34Z</time></trkpt><trkpt lat="35.424501" lon="139.1659886"><ele>785.0766666666668</ele><time>2023-09-17T00:43:52Z</time></trkpt><trkpt lat="35.4246743" lon="139.1660648"><ele>786.6566666666668</ele><time>2023-09-17T00:44:03Z</time></trkpt><trkpt lat="35.4248472" lon="139.1661435"><ele>788.6333333333333</ele><time>2023-09-17T00:44:18Z</time></trkpt><trkpt lat="35.4250234" lon="139.1661983"><ele>791.3466666666667</ele><time>2023-09-17T00:44:45Z</time></trkpt><trkpt lat="35.4251943" lon="139.1662689"><ele>794.7966666666667</ele><time>2023-09-17T00:45:11Z</time></trkpt><trkpt lat="35.4253639" lon="139.1663482"><ele>797.9366666666666</ele><time>2023-09-17T00:45:32Z</time></trkpt><trkpt lat="35.4255335" lon="139.1664445"><ele>800.0033333333334</ele><time>2023-09-17T00:45:53Z</time></trkpt><trkpt lat="35.4256972" lon="139.1665474"><ele>799.9399999999999</ele><time>2023-09-17T00:46:04Z</time></trkpt><trkpt lat="35.4258503" lon="139.166681"><ele>799.1166666666668</ele><time>2023-09-17T00:46:19Z</time></trkpt><trkpt lat="35.4260412" lon="139.1666735"><ele>798.2466666666666</ele><time>2023-09-17T00:46:45Z</time></trkpt><trkpt lat="35.4262256" lon="139.1666974"><ele>798.7766666666666</ele><time>2023-09-17T00:47:12Z</time></trkpt><trkpt lat="35.426415" lon="139.1666605"><ele>800.5433333333334</ele><time>2023-09-17T00:47:36Z</time></trkpt><trkpt lat="35.4265997" lon="139.1666798"><ele>803.75</ele><time>2023-09-17T00:48:03Z</time></trkpt><trkpt lat="35.4267919" lon="139.1666833"><ele>808.6533333333333</ele><time>2023-09-17T00:48:42Z</time></trkpt><trkpt lat="35.4269862" lon="139.1666498"><ele>815.7366666666667</ele><time>2023-09-17T00:49:18Z</time></trkpt><trkpt lat="35.4271827" lon="139.1665638"><ele>824.8266666666667</ele><time>2023-09-17T00:49:54Z</time></trkpt><trkpt lat="35.4273858" lon="139.166586"><ele>832.3333333333334</ele><time>2023-09-17T00:50:12Z</time></trkpt><trkpt lat="35.4275781" lon="139.1665343"><ele>839.2033333333334</ele><time>2023-09-17T00:51:27Z</time></trkpt><trkpt lat="35.4277687" lon="139.1665385"><ele>844.63</ele><time>2023-09-17T00:52:27Z</time></trkpt><trkpt lat="35.4279066" lon="139.1663617"><ele>853.0</ele><time>2023-09-17T00:53:45Z</time></trkpt><trkpt lat="35.4280299" lon="139.1661766"><ele>861.9433333333333</ele><time>2023-09-17T00:54:57Z</time></trkpt><trkpt lat="35.4281974" lon="139.1660593"><ele>870.6866666666666</ele><time>2023-09-17T00:55:45Z</time></trkpt><trkpt lat="35.4283029" lon="139.1658742"><ele>878.4433333333333</ele><time>2023-09-17T00:56:27Z</time></trkpt><trkpt lat="35.4284207" lon="139.165703"><ele>884.5066666666667</ele><time>2023-09-17T00:57:21Z</time></trkpt><trkpt lat="35.4285277" lon="139.1655141"><ele>890.3000000000001</ele><time>2023-09-17T00:57:49Z</time></trkpt><trkpt lat="35.4286528" lon="139.1653469"><ele>894.8933333333334</ele><time>2023-09-17T00:58:14Z</time></trkpt><trkpt lat="35.4288334" lon="139.1652217"><ele>898.54</ele><time>2023-09-17T00:58:41Z</time></trkpt><trkpt lat="35.4290173" lon="139.165079"><ele>901.4900000000001</ele><time>2023-09-17T00:59:23Z</time></trkpt><trkpt lat="35.4291763" lon="139.1649733"><ele>903.5866666666667</ele><time>2023-09-17T00:59:41Z</time></trkpt><trkpt lat="35.429358" lon="139.1648967"><ele>906.4433333333333</ele><time>2023-09-17T01:00:02Z</time></trkpt><trkpt lat="35.429515" lon="139.1647839"><ele>909.14</ele><time>2023-09-17T01:00:26Z</time></trkpt><trkpt lat="35.4296912" lon="139.1646375"><ele>911.1533333333333</ele><time>2023-09-17T01:00:56Z</time></trkpt><trkpt lat="35.4298484" lon="139.1645242"><ele>912.2800000000001</ele><time>2023-09-17T01:01:14Z</time></trkpt><trkpt lat="35.4300276" lon="139.1644413"><ele>913.4733333333334</ele><time>2023-09-17T01:01:29Z</time></trkpt><trkpt lat="35.4301781" lon="139.1643174"><ele>914.6666666666666</ele><time>2023-09-17T01:01:56Z</time></trkpt><trkpt lat="35.4303225" lon="139.1641598"><ele>915.0600000000001</ele><time>2023-09-17T01:02:14Z</time></trkpt><trkpt lat="35.4304849" lon="139.1640247"><ele>916.6566666666668</ele><time>2023-09-17T01:02:35Z</time></trkpt><trkpt lat="35.4306592" lon="139.1639303"><ele>919.3633333333333</ele><time>2023-09-17T01:03:11Z</time></trkpt><trkpt lat="35.4308219" lon="139.1638286"><ele>924.3033333333333</ele><time>2023-09-17T01:03:29Z</time></trkpt><trkpt lat="35.4310034" lon="139.1637559"><ele>927.7666666666668</ele><time>2023-09-17T01:03:47Z</time></trkpt><trkpt lat="35.4311861" lon="139.1636987"><ele>930.2200000000001</ele><time>2023-09-17T01:04:08Z</time></trkpt><trkpt lat="35.4314367" lon="139.1636968"><ele>931.2966666666666</ele><time>2023-09-17T01:04:23Z</time></trkpt><trkpt lat="35.431639" lon="139.1636817"><ele>932.1933333333333</ele><time>2023-09-17T01:04:38Z</time></trkpt><trkpt lat="35.431836" lon="139.1636499"><ele>933.3133333333334</ele><time>2023-09-17T01:04:53Z</time></trkpt><trkpt lat="35.4320391" lon="139.1636844"><ele>933.8800000000001</ele><time>2023-09-17T01:05:14Z</time></trkpt><trkpt lat="35.4322002" lon="139.1637852"><ele>934.71</ele><time>2023-09-17T01:05:29Z</time></trkpt><trkpt lat="35.4323657" lon="139.1638859"><ele>936.2966666666667</ele><time>2023-09-17T01:05:44Z</time></trkpt><trkpt lat="35.4325452" lon="139.1639646"><ele>938.3133333333334</ele><time>2023-09-17T01:05:56Z</time></trkpt><trkpt lat="35.4327258" lon="139.1640069"><ele>940.1199999999999</ele><time>2023-09-17T01:06:20Z</time></trkpt><trkpt lat="35.4329101" lon="139.1640075"><ele>940.7666666666668</ele><time>2023-09-17T01:06:50Z</time></trkpt><trkpt lat="35.433064" lon="139.1638887"><ele>940.4666666666667</ele><time>2023-09-17T01:07:11Z</time></trkpt><trkpt lat="35.4332278" lon="139.1637773"><ele>938.29</ele><time>2023-09-17T01:07:26Z</time></trkpt><trkpt lat="35.4333918" lon="139.1636618"><ele>934.82</ele><time>2023-09-17T01:07:41Z</time></trkpt><trkpt lat="35.4335892" lon="139.1636373"><ele>930.1566666666668</ele><time>2023-09-17T01:07:56Z</time></trkpt><trkpt lat="35.4337871" lon="139.1636287"><ele>926.9133333333333</ele><time>2023-09-17T01:08:14Z</time></trkpt><trkpt lat="35.4340111" lon="139.1636131"><ele>925.0266666666666</ele><time>2023-09-17T01:08:32Z</time></trkpt><trkpt lat="35.4342021" lon="139.1636155"><ele>924.5566666666667</ele><time>2023-09-17T01:08:47Z</time></trkpt><trkpt lat="35.4343726" lon="139.1636977"><ele>923.7000000000002</ele><time>2023-09-17T01:09:11Z</time></trkpt><trkpt lat="35.4345512" lon="139.1636555"><ele>922.5066666666667</ele><time>2023-09-17T01:09:38Z</time></trkpt><trkpt lat="35.434704" lon="139.1635261"><ele>921.2466666666666</ele><time>2023-09-17T01:09:56Z</time></trkpt><trkpt lat="35.434901" lon="139.1635057"><ele>918.5366666666667</ele><time>2023-09-17T01:10:14Z</time></trkpt><trkpt lat="35.4351299" lon="139.1635275"><ele>915.1366666666668</ele><time>2023-09-17T01:10:35Z</time></trkpt><trkpt lat="35.4353644" lon="139.1635291"><ele>912.2000000000002</ele><time>2023-09-17T01:10:50Z</time></trkpt><trkpt lat="35.4355673" lon="139.1635165"><ele>911.8033333333334</ele><time>2023-09-17T01:11:08Z</time></trkpt><trkpt lat="35.4357166" lon="139.1633368"><ele>915.44</ele><time>2023-09-17T01:11:23Z</time></trkpt><trkpt lat="35.4357674" lon="139.1631198"><ele>918.0766666666667</ele><time>2023-09-17T01:12:08Z</time></trkpt><trkpt lat="35.4359605" lon="139.1630418"><ele>922.9266666666666</ele><time>2023-09-17T01:12:29Z</time></trkpt><trkpt lat="35.4361261" lon="139.1629312"><ele>926.4366666666668</ele><time>2023-09-17T01:12:59Z</time></trkpt><trkpt lat="35.4362331" lon="139.1627498"><ele>933.0600000000001</ele><time>2023-09-17T01:13:29Z</time></trkpt><trkpt lat="35.4362176" lon="139.1625299"><ele>940.0166666666668</ele><time>2023-09-17T01:13:59Z</time></trkpt><trkpt lat="35.4361615" lon="139.1623099"><ele>945.64</ele><time>2023-09-17T01:14:32Z</time></trkpt><trkpt lat="35.4363153" lon="139.1621933"><ele>950.5166666666668</ele><time>2023-09-17T01:19:08Z</time></trkpt><trkpt lat="35.4364725" lon="139.1623213"><ele>954.5166666666668</ele><time>2023-09-17T01:19:50Z</time></trkpt><trkpt lat="35.4366521" lon="139.1623558"><ele>959.4766666666668</ele><time>2023-09-17T01:20:32Z</time></trkpt><trkpt lat="35.4368567" lon="139.1622987"><ele>965.3266666666667</ele><time>2023-09-17T01:20:47Z</time></trkpt><trkpt lat="35.4370413" lon="139.1623011"><ele>972.19</ele><time>2023-09-17T01:21:44Z</time></trkpt><trkpt lat="35.4372218" lon="139.1622461"><ele>979.9899999999999</ele><time>2023-09-17T01:22:50Z</time></trkpt><trkpt lat="35.4374022" lon="139.1621699"><ele>989.3966666666666</ele><time>2023-09-17T01:24:20Z</time></trkpt><trkpt lat="35.437581" lon="139.1621231"><ele>997.4266666666666</ele><time>2023-09-17T01:25:26Z</time></trkpt><trkpt lat="35.4377536" lon="139.1622131"><ele>1005.6466666666666</ele><time>2023-09-17T01:26:05Z</time></trkpt><trkpt lat="35.4379213" lon="139.1623171"><ele>1011.6533333333333</ele><time>2023-09-17T01:27:11Z</time></trkpt><trkpt lat="35.4380931" lon="139.1624096"><ele>1018.66</ele><time>2023-09-17T01:27:29Z</time></trkpt><trkpt lat="35.4382888" lon="139.1624681"><ele>1025.2933333333333</ele><time>2023-09-17T01:28:44Z</time></trkpt><trkpt lat="35.4384676" lon="139.1625268"><ele>1031.9333333333334</ele><time>2023-09-17T01:29:41Z</time></trkpt><trkpt lat="35.4385847" lon="139.1626993"><ele>1038.49</ele><time>2023-09-17T01:30:51Z</time></trkpt><trkpt lat="35.4387277" lon="139.1628502"><ele>1045.5866666666668</ele><time>2023-09-17T01:31:35Z</time></trkpt><trkpt lat="35.4388938" lon="139.1629478"><ele>1053.14</ele><time>2023-09-17T01:32:47Z</time></trkpt><trkpt lat="35.4390729" lon="139.1630131"><ele>1061.6333333333334</ele><time>2023-09-17T01:33:58Z</time></trkpt><trkpt lat="35.4392744" lon="139.1630858"><ele>1070.0833333333335</ele><time>2023-09-17T01:35:31Z</time></trkpt><trkpt lat="35.4394438" lon="139.1631794"><ele>1079.3733333333334</ele><time>2023-09-17T01:36:01Z</time></trkpt><trkpt lat="35.4396306" lon="139.1630667"><ele>1087.9233333333334</ele><time>2023-09-17T01:36:49Z</time></trkpt><trkpt lat="35.4397873" lon="139.1632036"><ele>1096.05</ele><time>2023-09-17T01:38:01Z</time></trkpt><trkpt lat="35.4399859" lon="139.1632469"><ele>1103.64</ele><time>2023-09-17T01:38:22Z</time></trkpt><trkpt lat="35.44018" lon="139.1631516"><ele>1110.57</ele><time>2023-09-17T01:39:10Z</time></trkpt><trkpt lat="35.4403369" lon="139.1630022"><ele>1116.89</ele><time>2023-09-17T01:39:28Z</time></trkpt><trkpt lat="35.4405055" lon="139.1628983"><ele>1121.1033333333332</ele><time>2023-09-17T01:39:49Z</time></trkpt><trkpt lat="35.4406253" lon="139.1627115"><ele>1123.68</ele><time>2023-09-17T01:40:07Z</time></trkpt><trkpt lat="35.440833" lon="139.1626726"><ele>1125.0633333333335</ele><time>2023-09-17T01:40:25Z</time></trkpt><trkpt lat="35.4409793" lon="139.1625439"><ele>1126.3366666666668</ele><time>2023-09-17T01:40:44Z</time></trkpt><trkpt lat="35.4411483" lon="139.1624633"><ele>1127.4166666666667</ele><time>2023-09-17T01:41:02Z</time></trkpt><trkpt lat="35.4413273" lon="139.1623904"><ele>1128.8533333333332</ele><time>2023-09-17T01:41:20Z</time></trkpt><trkpt lat="35.4415015" lon="139.1622886"><ele>1129.1733333333334</ele><time>2023-09-17T01:41:41Z</time></trkpt><trkpt lat="35.4416757" lon="139.1622026"><ele>1129.7700000000002</ele><time>2023-09-17T01:42:08Z</time></trkpt><trkpt lat="35.4418568" lon="139.1621938"><ele>1131.7666666666667</ele><time>2023-09-17T01:42:47Z</time></trkpt><trkpt lat="35.4420418" lon="139.1621655"><ele>1135.9233333333334</ele><time>2023-09-17T01:43:32Z</time></trkpt><trkpt lat="35.4422443" lon="139.1622395"><ele>1142.7866666666666</ele><time>2023-09-17T01:44:17Z</time></trkpt><trkpt lat="35.4424382" lon="139.1623159"><ele>1148.5233333333333</ele><time>2023-09-17T01:44:59Z</time></trkpt><trkpt lat="35.4426155" lon="139.1623887"><ele>1154.6366666666668</ele><time>2023-09-17T01:46:11Z</time></trkpt><trkpt lat="35.442797" lon="139.1624626"><ele>1160.3400000000001</ele><time>2023-09-17T01:47:11Z</time></trkpt><trkpt lat="35.4429891" lon="139.1625061"><ele>1167.1899999999998</ele><time>2023-09-17T01:48:05Z</time></trkpt><trkpt lat="35.4431706" lon="139.1624809"><ele>1173.8133333333333</ele><time>2023-09-17T01:49:02Z</time></trkpt><trkpt lat="35.4433632" lon="139.1624937"><ele>1181.0400000000002</ele><time>2023-09-17T01:50:17Z</time></trkpt><trkpt lat="35.4435468" lon="139.1624653"><ele>1191.6233333333332</ele><time>2023-09-17T01:51:38Z</time></trkpt><trkpt lat="35.4437314" lon="139.162465"><ele>1203.0966666666668</ele><time>2023-09-17T01:52:57Z</time></trkpt><trkpt lat="35.4439041" lon="139.1625703"><ele>1214.4166666666667</ele><time>2023-09-17T01:54:03Z</time></trkpt><trkpt lat="35.4440808" lon="139.1625265"><ele>1221.9766666666667</ele><time>2023-09-17T01:55:24Z</time></trkpt><trkpt lat="35.4442484" lon="139.1626104"><ele>1231.12</ele><time>2023-09-17T01:56:21Z</time></trkpt><trkpt lat="35.4444171" lon="139.1626939"><ele>1238.9533333333334</ele><time>2023-09-17T01:57:39Z</time></trkpt><trkpt lat="35.4445997" lon="139.1627364"><ele>1249.2466666666667</ele><time>2023-09-17T01:58:42Z</time></trkpt><trkpt lat="35.4447886" lon="139.1627408"><ele>1258.0533333333333</ele><time>2023-09-17T02:00:06Z</time></trkpt><trkpt lat="35.4449854" lon="139.1629201"><ele>1267.7833333333335</ele><time>2023-09-17T02:01:00Z</time></trkpt><trkpt lat="35.4450635" lon="139.1627071"><ele>1275.2233333333334</ele><time>2023-09-17T02:01:27Z</time></trkpt><trkpt lat="35.4452456" lon="139.1627007"><ele>1283.6000000000001</ele><time>2023-09-17T02:02:15Z</time></trkpt><trkpt lat="35.4454194" lon="139.1626274"><ele>1290.6066666666668</ele><time>2023-09-17T02:03:09Z</time></trkpt><trkpt lat="35.4456083" lon="139.1626201"><ele>1297.1166666666668</ele><time>2023-09-17T02:03:45Z</time></trkpt><trkpt lat="35.4456568" lon="139.1623774"><ele>1300.0</ele><time>2023-09-17T02:06:18Z</time></trkpt><trkpt lat="35.4455858" lon="139.1626"><ele>1301.67</ele><time>2023-09-17T02:08:57Z</time></trkpt><trkpt lat="35.4458036" lon="139.1625815"><ele>1302.9833333333333</ele><time>2023-09-17T02:11:54Z</time></trkpt><trkpt lat="35.4459958" lon="139.1625952"><ele>1306.38</ele><time>2023-09-17T02:12:57Z</time></trkpt><trkpt lat="35.4461825" lon="139.1625767"><ele>1310.84</ele><time>2023-09-17T02:13:24Z</time></trkpt><trkpt lat="35.4463811" lon="139.1625821"><ele>1316.2533333333333</ele><time>2023-09-17T02:13:54Z</time></trkpt><trkpt lat="35.4465009" lon="139.1624016"><ele>1321.3666666666666</ele><time>2023-09-17T02:14:45Z</time></trkpt><trkpt lat="35.4466877" lon="139.1623068"><ele>1327.3233333333335</ele><time>2023-09-17T02:15:42Z</time></trkpt><trkpt lat="35.4468123" lon="139.1621346"><ele>1332.5333333333335</ele><time>2023-09-17T02:16:33Z</time></trkpt><trkpt lat="35.4469484" lon="139.1619666"><ele>1338.7766666666666</ele><time>2023-09-17T02:17:12Z</time></trkpt><trkpt lat="35.4471299" lon="139.1619781"><ele>1344.8933333333334</ele><time>2023-09-17T02:18:18Z</time></trkpt><trkpt lat="35.4472593" lon="139.1618023"><ele>1352.6433333333334</ele><time>2023-09-17T02:18:45Z</time></trkpt><trkpt lat="35.4474417" lon="139.161819"><ele>1358.966666666667</ele><time>2023-09-17T02:19:21Z</time></trkpt><trkpt lat="35.4476086" lon="139.1617329"><ele>1364.966666666667</ele><time>2023-09-17T02:20:06Z</time></trkpt><trkpt lat="35.447795" lon="139.161734"><ele>1368.256666666667</ele><time>2023-09-17T02:21:06Z</time></trkpt><trkpt lat="35.4479822" lon="139.1617218"><ele>1370.5333333333335</ele><time>2023-09-17T02:21:33Z</time></trkpt><trkpt lat="35.4481952" lon="139.1617061"><ele>1370.9966666666667</ele><time>2023-09-17T02:22:06Z</time></trkpt><trkpt lat="35.4483917" lon="139.1617372"><ele>1370.55</ele><time>2023-09-17T02:22:21Z</time></trkpt><trkpt lat="35.4485829" lon="139.1617928"><ele>1368.716666666667</ele><time>2023-09-17T02:22:30Z</time></trkpt><trkpt lat="35.4487803" lon="139.1618198"><ele>1366.8700000000001</ele><time>2023-09-17T02:23:15Z</time></trkpt><trkpt lat="35.4489861" lon="139.1617377"><ele>1366.8666666666668</ele><time>2023-09-17T02:23:42Z</time></trkpt><trkpt lat="35.4491736" lon="139.1616396"><ele>1367.9833333333336</ele><time>2023-09-17T02:24:06Z</time></trkpt><trkpt lat="35.4493226" lon="139.1615092"><ele>1367.2766666666666</ele><time>2023-09-17T02:24:39Z</time></trkpt><trkpt lat="35.4494908" lon="139.1613704"><ele>1364.6533333333334</ele><time>2023-09-17T02:25:06Z</time></trkpt><trkpt lat="35.4496119" lon="139.1611855"><ele>1362.42</ele><time>2023-09-17T02:25:24Z</time></trkpt><trkpt lat="35.4497596" lon="139.1610548"><ele>1363.4066666666668</ele><time>2023-09-17T02:25:51Z</time></trkpt><trkpt lat="35.4499421" lon="139.1609962"><ele>1366.7933333333333</ele><time>2023-09-17T02:27:04Z</time></trkpt><trkpt lat="35.4501173" lon="139.1611123"><ele>1370.2900000000002</ele><time>2023-09-17T02:27:22Z</time></trkpt><trkpt lat="35.450322" lon="139.1610912"><ele>1372.6933333333334</ele><time>2023-09-17T02:27:37Z</time></trkpt><trkpt lat="35.4504976" lon="139.1610202"><ele>1375.0533333333333</ele><time>2023-09-17T02:28:16Z</time></trkpt><trkpt lat="35.4506912" lon="139.161052"><ele>1378.9933333333336</ele><time>2023-09-17T02:28:37Z</time></trkpt><trkpt lat="35.4508831" lon="139.1611288"><ele>1384.4066666666665</ele><time>2023-09-17T02:29:50Z</time></trkpt><trkpt lat="35.451057" lon="139.1612175"><ele>1389.29</ele><time>2023-09-17T02:30:11Z</time></trkpt><trkpt lat="35.451199" lon="139.161359"><ele>1393.9333333333334</ele><time>2023-09-17T02:31:20Z</time></trkpt><trkpt lat="35.4513567" lon="139.1614927"><ele>1397.43</ele><time>2023-09-17T02:32:08Z</time></trkpt><trkpt lat="35.4515158" lon="139.1616296"><ele>1400.8666666666668</ele><time>2023-09-17T02:32:20Z</time></trkpt><trkpt lat="35.4516342" lon="139.1618019"><ele>1403.1466666666665</ele><time>2023-09-17T02:32:38Z</time></trkpt><trkpt lat="35.4518071" lon="139.1619071"><ele>1405.1266666666668</ele><time>2023-09-17T02:33:08Z</time></trkpt><trkpt lat="35.4519826" lon="139.1620062"><ele>1406.86</ele><time>2023-09-17T02:33:26Z</time></trkpt><trkpt lat="35.4521345" lon="139.1621405"><ele>1408.9633333333334</ele><time>2023-09-17T02:34:47Z</time></trkpt><trkpt lat="35.4523323" lon="139.1620847"><ele>1412.7200000000003</ele><time>2023-09-17T02:35:44Z</time></trkpt><trkpt lat="35.4525168" lon="139.1620542"><ele>1417.4800000000002</ele><time>2023-09-17T02:36:17Z</time></trkpt><trkpt lat="35.4526619" lon="139.1622239"><ele>1423.1666666666667</ele><time>2023-09-17T02:37:07Z</time></trkpt><trkpt lat="35.452811" lon="139.162354"><ele>1428.29</ele><time>2023-09-17T02:37:28Z</time></trkpt><trkpt lat="35.4529531" lon="139.1625098"><ele>1433.6033333333332</ele><time>2023-09-17T02:38:19Z</time></trkpt><trkpt lat="35.4531248" lon="139.1626389"><ele>1440.1866666666665</ele><time>2023-09-17T02:39:31Z</time></trkpt><trkpt lat="35.4532465" lon="139.1628158"><ele>1447.36</ele><time>2023-09-17T02:40:49Z</time></trkpt><trkpt lat="35.4533497" lon="139.1630058"><ele>1455.0600000000002</ele><time>2023-09-17T02:41:25Z</time></trkpt><trkpt lat="35.4534935" lon="139.1631542"><ele>1461.8433333333332</ele><time>2023-09-17T02:42:13Z</time></trkpt><trkpt lat="35.453669" lon="139.1632049"><ele>1468.1566666666668</ele><time>2023-09-17T02:42:58Z</time></trkpt><trkpt lat="35.4538409" lon="139.1632986"><ele>1476.456666666667</ele><time>2023-09-17T02:43:19Z</time></trkpt><trkpt lat="35.4540284" lon="139.1633365"><ele>1483.7233333333334</ele><time>2023-09-17T02:44:01Z</time></trkpt><trkpt lat="35.4542239" lon="139.1633176"><ele>1489.32</ele><time>2023-09-17T02:45:22Z</time></trkpt><trkpt lat="35.4544113" lon="139.1633616"><ele>1490.4033333333334</ele><time>2023-09-17T02:45:58Z</time></trkpt><trkpt lat="35.4541815" lon="139.16346"><ele>1490.3033333333333</ele><time>2023-09-17T02:47:48Z</time></trkpt><trkpt lat="35.4539919" lon="139.1632446"><ele>1490.1000000000001</ele><time>2023-09-17T02:48:15Z</time></trkpt><trkpt lat="35.4541739" lon="139.1633061"><ele>1490.2066666666667</ele><time>2023-09-17T02:52:31Z</time></trkpt><trkpt lat="35.4540134" lon="139.1631863"><ele>1489.01</ele><time>2023-09-17T02:55:37Z</time></trkpt><trkpt lat="35.4541503" lon="139.1633621"><ele>1489.243333333333</ele><time>2023-09-17T03:01:13Z</time></trkpt><trkpt lat="35.4543389" lon="139.1633055"><ele>1489.1666666666667</ele><time>2023-09-17T03:03:10Z</time></trkpt><trkpt lat="35.4541605" lon="139.1632318"><ele>1490.4333333333334</ele><time>2023-09-17T03:07:20Z</time></trkpt><trkpt lat="35.4543224" lon="139.1633799"><ele>1490.3266666666666</ele><time>2023-09-17T03:11:45Z</time></trkpt><trkpt lat="35.4542118" lon="139.163204"><ele>1490.1766666666665</ele><time>2023-09-17T03:17:45Z</time></trkpt><trkpt lat="35.4541111" lon="139.1634042"><ele>1490.1266666666668</ele><time>2023-09-17T03:34:44Z</time></trkpt><trkpt lat="35.4543061" lon="139.1631911"><ele>1489.9866666666667</ele><time>2023-09-17T03:37:23Z</time></trkpt><trkpt lat="35.454116" lon="139.1632493"><ele>1490.2233333333334</ele><time>2023-09-17T03:43:03Z</time></trkpt><trkpt lat="35.4542622" lon="139.1633807"><ele>1490.2233333333334</ele><time>2023-09-17T03:43:48Z</time></trkpt><trkpt lat="35.4540875" lon="139.1633141"><ele>1490.4800000000002</ele><time>2023-09-17T03:44:18Z</time></trkpt><trkpt lat="35.4541142" lon="139.1635327"><ele>1490.05</ele><time>2023-09-17T03:46:39Z</time></trkpt><trkpt lat="35.4540019" lon="139.1633368"><ele>1490.08</ele><time>2023-09-17T03:48:42Z</time></trkpt><trkpt lat="35.4538077" lon="139.1633478"><ele>1488.6233333333332</ele><time>2023-09-17T03:49:18Z</time></trkpt><trkpt lat="35.4536125" lon="139.1632649"><ele>1484.7033333333331</ele><time>2023-09-17T03:49:54Z</time></trkpt><trkpt lat="35.4534681" lon="139.163087"><ele>1476.2133333333334</ele><time>2023-09-17T03:50:24Z</time></trkpt><trkpt lat="35.4532989" lon="139.1629908"><ele>1467.5866666666668</ele><time>2023-09-17T03:50:39Z</time></trkpt><trkpt lat="35.4532763" lon="139.1627558"><ele>1459.47</ele><time>2023-09-17T03:51:00Z</time></trkpt><trkpt lat="35.4531315" lon="139.1626163"><ele>1452.9033333333334</ele><time>2023-09-17T03:51:21Z</time></trkpt><trkpt lat="35.4529471" lon="139.1625719"><ele>1446.0166666666667</ele><time>2023-09-17T03:52:03Z</time></trkpt><trkpt lat="35.4527843" lon="139.1623518"><ele>1439.39</ele><time>2023-09-17T03:52:27Z</time></trkpt><trkpt lat="35.4526362" lon="139.1622206"><ele>1433.8633333333335</ele><time>2023-09-17T03:52:54Z</time></trkpt><trkpt lat="35.4524761" lon="139.1621017"><ele>1427.8466666666666</ele><time>2023-09-17T03:53:12Z</time></trkpt><trkpt lat="35.4522863" lon="139.1621661"><ele>1422.6566666666668</ele><time>2023-09-17T03:53:42Z</time></trkpt><trkpt lat="35.4520971" lon="139.1621656"><ele>1416.97</ele><time>2023-09-17T03:54:06Z</time></trkpt><trkpt lat="35.4519395" lon="139.1620575"><ele>1412.3766666666668</ele><time>2023-09-17T03:54:27Z</time></trkpt><trkpt lat="35.4517677" lon="139.1619752"><ele>1408.3666666666668</ele><time>2023-09-17T03:54:51Z</time></trkpt><trkpt lat="35.4515953" lon="139.1618511"><ele>1405.9800000000002</ele><time>2023-09-17T03:55:09Z</time></trkpt><trkpt lat="35.4514538" lon="139.1616973"><ele>1404.7633333333333</ele><time>2023-09-17T03:55:30Z</time></trkpt><trkpt lat="35.4513153" lon="139.1615343"><ele>1403.7600000000002</ele><time>2023-09-17T03:55:54Z</time></trkpt><trkpt lat="35.4511648" lon="139.1613744"><ele>1401.7633333333335</ele><time>2023-09-17T03:56:24Z</time></trkpt><trkpt lat="35.4510048" lon="139.1611846"><ele>1398.2133333333334</ele><time>2023-09-17T03:56:39Z</time></trkpt><trkpt lat="35.4508278" lon="139.1611103"><ele>1393.9733333333334</ele><time>2023-09-17T03:56:57Z</time></trkpt><trkpt lat="35.4506459" lon="139.1609904"><ele>1388.75</ele><time>2023-09-17T03:57:15Z</time></trkpt><trkpt lat="35.4504486" lon="139.161015"><ele>1382.8633333333335</ele><time>2023-09-17T03:57:36Z</time></trkpt><trkpt lat="35.4502779" lon="139.1611094"><ele>1377.5366666666666</ele><time>2023-09-17T03:57:54Z</time></trkpt><trkpt lat="35.4500912" lon="139.1610915"><ele>1374.0466666666669</ele><time>2023-09-17T03:58:12Z</time></trkpt><trkpt lat="35.4499317" lon="139.1609736"><ele>1372.3400000000001</ele><time>2023-09-17T03:58:27Z</time></trkpt><trkpt lat="35.4497477" lon="139.161045"><ele>1369.9366666666665</ele><time>2023-09-17T03:58:57Z</time></trkpt><trkpt lat="35.4496405" lon="139.1612357"><ele>1366.45</ele><time>2023-09-17T03:59:27Z</time></trkpt><trkpt lat="35.4494845" lon="139.161348"><ele>1363.2866666666666</ele><time>2023-09-17T03:59:39Z</time></trkpt><trkpt lat="35.4493475" lon="139.1615221"><ele>1362.1333333333332</ele><time>2023-09-17T04:00:06Z</time></trkpt><trkpt lat="35.4491515" lon="139.1615455"><ele>1362.5600000000002</ele><time>2023-09-17T04:00:30Z</time></trkpt><trkpt lat="35.4489894" lon="139.1616837"><ele>1365.1833333333334</ele><time>2023-09-17T04:00:48Z</time></trkpt><trkpt lat="35.4488546" lon="139.1618382"><ele>1367.5800000000002</ele><time>2023-09-17T04:01:03Z</time></trkpt><trkpt lat="35.4486702" lon="139.1617927"><ele>1368.2133333333331</ele><time>2023-09-17T04:01:21Z</time></trkpt><trkpt lat="35.4484686" lon="139.1617403"><ele>1366.83</ele><time>2023-09-17T04:01:33Z</time></trkpt><trkpt lat="35.4482768" lon="139.1616897"><ele>1367.1633333333332</ele><time>2023-09-17T04:01:57Z</time></trkpt><trkpt lat="35.4480787" lon="139.1616832"><ele>1369.206666666667</ele><time>2023-09-17T04:02:12Z</time></trkpt><trkpt lat="35.4478951" lon="139.1617782"><ele>1371.22</ele><time>2023-09-17T04:02:39Z</time></trkpt><trkpt lat="35.4477243" lon="139.1616482"><ele>1370.7833333333335</ele><time>2023-09-17T04:03:00Z</time></trkpt><trkpt lat="35.4475701" lon="139.1618318"><ele>1369.7633333333333</ele><time>2023-09-17T04:03:12Z</time></trkpt><trkpt lat="35.4473652" lon="139.1618065"><ele>1366.95</ele><time>2023-09-17T04:03:39Z</time></trkpt><trkpt lat="35.4472462" lon="139.1619837"><ele>1361.93</ele><time>2023-09-17T04:04:03Z</time></trkpt><trkpt lat="35.4470612" lon="139.1619408"><ele>1356.29</ele><time>2023-09-17T04:04:30Z</time></trkpt><trkpt lat="35.4469102" lon="139.1620923"><ele>1350.2766666666666</ele><time>2023-09-17T04:05:00Z</time></trkpt><trkpt lat="35.4467545" lon="139.1622771"><ele>1343.1433333333334</ele><time>2023-09-17T04:05:32Z</time></trkpt><trkpt lat="35.4465616" lon="139.1623578"><ele>1335.5500000000002</ele><time>2023-09-17T04:06:02Z</time></trkpt><trkpt lat="35.446404" lon="139.162477"><ele>1328.4733333333334</ele><time>2023-09-17T04:06:26Z</time></trkpt><trkpt lat="35.4462123" lon="139.162582"><ele>1323.28</ele><time>2023-09-17T04:07:02Z</time></trkpt><trkpt lat="35.4460149" lon="139.162607"><ele>1317.5433333333333</ele><time>2023-09-17T04:07:23Z</time></trkpt><trkpt lat="35.4458095" lon="139.1625671"><ele>1311.6033333333335</ele><time>2023-09-17T04:07:41Z</time></trkpt><trkpt lat="35.44563" lon="139.1626255"><ele>1306.1000000000001</ele><time>2023-09-17T04:08:02Z</time></trkpt><trkpt lat="35.4454646" lon="139.1627603"><ele>1301.6066666666666</ele><time>2023-09-17T04:08:59Z</time></trkpt><trkpt lat="35.4452606" lon="139.1627942"><ele>1296.4266666666665</ele><time>2023-09-17T04:09:23Z</time></trkpt><trkpt lat="35.445078" lon="139.1627995"><ele>1289.8233333333335</ele><time>2023-09-17T04:09:50Z</time></trkpt><trkpt lat="35.4448797" lon="139.1628108"><ele>1282.1233333333332</ele><time>2023-09-17T04:10:14Z</time></trkpt><trkpt lat="35.4447018" lon="139.1627455"><ele>1273.2966666666669</ele><time>2023-09-17T04:10:38Z</time></trkpt><trkpt lat="35.4445112" lon="139.1627835"><ele>1262.7433333333336</ele><time>2023-09-17T04:11:32Z</time></trkpt><trkpt lat="35.4443083" lon="139.1628547"><ele>1251.91</ele><time>2023-09-17T04:12:02Z</time></trkpt><trkpt lat="35.4442523" lon="139.1626391"><ele>1244.7666666666667</ele><time>2023-09-17T04:12:23Z</time></trkpt><trkpt lat="35.4440634" lon="139.1625651"><ele>1238.3</ele><time>2023-09-17T04:12:53Z</time></trkpt><trkpt lat="35.4438659" lon="139.1626395"><ele>1230.7</ele><time>2023-09-17T04:13:29Z</time></trkpt><trkpt lat="35.4437079" lon="139.1625308"><ele>1221.1466666666668</ele><time>2023-09-17T04:14:05Z</time></trkpt><trkpt lat="35.4435242" lon="139.1624939"><ele>1211.36</ele><time>2023-09-17T04:14:44Z</time></trkpt><trkpt lat="35.4433478" lon="139.1625712"><ele>1202.75</ele><time>2023-09-17T04:15:20Z</time></trkpt><trkpt lat="35.4431594" lon="139.1625528"><ele>1192.2166666666665</ele><time>2023-09-17T04:16:11Z</time></trkpt><trkpt lat="35.4429819" lon="139.1626353"><ele>1184.3966666666668</ele><time>2023-09-17T04:16:29Z</time></trkpt><trkpt lat="35.4427847" lon="139.162563"><ele>1176.5266666666669</ele><time>2023-09-17T04:16:56Z</time></trkpt><trkpt lat="35.4426161" lon="139.1624802"><ele>1169.8400000000001</ele><time>2023-09-17T04:17:44Z</time></trkpt><trkpt lat="35.4424307" lon="139.1623694"><ele>1162.6733333333334</ele><time>2023-09-17T04:18:05Z</time></trkpt><trkpt lat="35.442218" lon="139.1623153"><ele>1156.8533333333332</ele><time>2023-09-17T04:18:20Z</time></trkpt><trkpt lat="35.4420361" lon="139.1622912"><ele>1151.8566666666668</ele><time>2023-09-17T04:18:53Z</time></trkpt><trkpt lat="35.4418325" lon="139.1622161"><ele>1145.28</ele><time>2023-09-17T04:19:26Z</time></trkpt><trkpt lat="35.441632" lon="139.1622448"><ele>1137.0433333333333</ele><time>2023-09-17T04:19:47Z</time></trkpt><trkpt lat="35.441457" lon="139.1624014"><ele>1132.1633333333334</ele><time>2023-09-17T04:20:11Z</time></trkpt><trkpt lat="35.4412574" lon="139.1624717"><ele>1130.3700000000001</ele><time>2023-09-17T04:20:29Z</time></trkpt><trkpt lat="35.4410929" lon="139.1625889"><ele>1130.7933333333333</ele><time>2023-09-17T04:20:47Z</time></trkpt><trkpt lat="35.440916" lon="139.1626504"><ele>1128.98</ele><time>2023-09-17T04:20:59Z</time></trkpt><trkpt lat="35.4406985" lon="139.162734"><ele>1127.2733333333333</ele><time>2023-09-17T04:21:17Z</time></trkpt><trkpt lat="35.4405428" lon="139.1628885"><ele>1125.46</ele><time>2023-09-17T04:21:26Z</time></trkpt><trkpt lat="35.4403733" lon="139.1630915"><ele>1123.7333333333333</ele><time>2023-09-17T04:21:44Z</time></trkpt><trkpt lat="35.4402157" lon="139.1632187"><ele>1120.9333333333334</ele><time>2023-09-17T04:22:05Z</time></trkpt><trkpt lat="35.4400325" lon="139.1633243"><ele>1116.4666666666665</ele><time>2023-09-17T04:22:29Z</time></trkpt><trkpt lat="35.4398528" lon="139.163357"><ele>1111.2033333333331</ele><time>2023-09-17T04:22:53Z</time></trkpt><trkpt lat="35.4396499" lon="139.1633157"><ele>1104.94</ele><time>2023-09-17T04:23:23Z</time></trkpt><trkpt lat="35.4394572" lon="139.1632946"><ele>1097.9433333333334</ele><time>2023-09-17T04:23:44Z</time></trkpt><trkpt lat="35.4392673" lon="139.1632197"><ele>1089.6133333333335</ele><time>2023-09-17T04:24:17Z</time></trkpt><trkpt lat="35.439109" lon="139.1631093"><ele>1080.8100000000002</ele><time>2023-09-17T04:24:44Z</time></trkpt><trkpt lat="35.438926" lon="139.1630157"><ele>1072.69</ele><time>2023-09-17T04:25:17Z</time></trkpt><trkpt lat="35.4387701" lon="139.1628918"><ele>1064.0866666666666</ele><time>2023-09-17T04:25:50Z</time></trkpt><trkpt lat="35.438593" lon="139.1628188"><ele>1056.1066666666668</ele><time>2023-09-17T04:26:23Z</time></trkpt><trkpt lat="35.4384714" lon="139.1626388"><ele>1048.4033333333334</ele><time>2023-09-17T04:26:53Z</time></trkpt><trkpt lat="35.438307" lon="139.1625237"><ele>1041.5366666666669</ele><time>2023-09-17T04:27:26Z</time></trkpt><trkpt lat="35.4381066" lon="139.1625714"><ele>1034.36</ele><time>2023-09-17T04:28:05Z</time></trkpt><trkpt lat="35.43798" lon="139.1624127"><ele>1027.4</ele><time>2023-09-17T04:28:32Z</time></trkpt><trkpt lat="35.4377982" lon="139.1623571"><ele>1020.2600000000001</ele><time>2023-09-17T04:28:59Z</time></trkpt><trkpt lat="35.4375915" lon="139.1623355"><ele>1012.9733333333334</ele><time>2023-09-17T04:29:17Z</time></trkpt><trkpt lat="35.4374071" lon="139.1623162"><ele>1006.0033333333332</ele><time>2023-09-17T04:30:26Z</time></trkpt><trkpt lat="35.4372256" lon="139.1622802"><ele>997.8266666666667</ele><time>2023-09-17T04:31:17Z</time></trkpt><trkpt lat="35.437067" lon="139.1623858"><ele>989.6133333333333</ele><time>2023-09-17T04:32:11Z</time></trkpt><trkpt lat="35.4368768" lon="139.162332"><ele>980.1166666666668</ele><time>2023-09-17T04:32:41Z</time></trkpt><trkpt lat="35.4367002" lon="139.1623882"><ele>973.14</ele><time>2023-09-17T04:32:56Z</time></trkpt><trkpt lat="35.4365072" lon="139.1623942"><ele>967.2133333333335</ele><time>2023-09-17T04:33:11Z</time></trkpt><trkpt lat="35.4363385" lon="139.1622978"><ele>962.9466666666667</ele><time>2023-09-17T04:33:50Z</time></trkpt><trkpt lat="35.436212" lon="139.1624735"><ele>956.5733333333334</ele><time>2023-09-17T04:34:50Z</time></trkpt><trkpt lat="35.4363106" lon="139.162673"><ele>951.04</ele><time>2023-09-17T04:35:17Z</time></trkpt><trkpt lat="35.4362085" lon="139.1628857"><ele>943.6633333333333</ele><time>2023-09-17T04:35:38Z</time></trkpt><trkpt lat="35.4360741" lon="139.1630368"><ele>938.5500000000001</ele><time>2023-09-17T04:36:08Z</time></trkpt><trkpt lat="35.4358963" lon="139.1631481"><ele>932.18</ele><time>2023-09-17T04:36:26Z</time></trkpt><trkpt lat="35.4358161" lon="139.1633739"><ele>928.0100000000001</ele><time>2023-09-17T04:37:08Z</time></trkpt><trkpt lat="35.4356004" lon="139.1634808"><ele>921.9233333333335</ele><time>2023-09-17T04:37:26Z</time></trkpt><trkpt lat="35.4354165" lon="139.1635332"><ele>916.7133333333335</ele><time>2023-09-17T04:37:35Z</time></trkpt><trkpt lat="35.4352234" lon="139.1635305"><ele>912.3566666666667</ele><time>2023-09-17T04:37:47Z</time></trkpt><trkpt lat="35.4350211" lon="139.1635511"><ele>911.3266666666667</ele><time>2023-09-17T04:38:08Z</time></trkpt><trkpt lat="35.4348034" lon="139.1635402"><ele>912.8833333333333</ele><time>2023-09-17T04:38:23Z</time></trkpt><trkpt lat="35.4346424" lon="139.1636841"><ele>916.1166666666667</ele><time>2023-09-17T04:38:44Z</time></trkpt><trkpt lat="35.4344507" lon="139.1637521"><ele>919.2966666666666</ele><time>2023-09-17T04:39:08Z</time></trkpt><trkpt lat="35.434264" lon="139.1636597"><ele>921.48</ele><time>2023-09-17T04:39:35Z</time></trkpt><trkpt lat="35.4340545" lon="139.1636763"><ele>922.7033333333333</ele><time>2023-09-17T04:39:56Z</time></trkpt><trkpt lat="35.4338627" lon="139.1636747"><ele>924.1433333333334</ele><time>2023-09-17T04:40:14Z</time></trkpt><trkpt lat="35.4336555" lon="139.1636913"><ele>925.7033333333334</ele><time>2023-09-17T04:40:26Z</time></trkpt><trkpt lat="35.4334662" lon="139.1636807"><ele>927.52</ele><time>2023-09-17T04:40:44Z</time></trkpt><trkpt lat="35.4332798" lon="139.1637429"><ele>930.0866666666667</ele><time>2023-09-17T04:40:59Z</time></trkpt><trkpt lat="35.4331239" lon="139.1638683"><ele>933.5500000000001</ele><time>2023-09-17T04:41:20Z</time></trkpt><trkpt lat="35.4329555" lon="139.1640197"><ele>937.1233333333333</ele><time>2023-09-17T04:41:35Z</time></trkpt><trkpt lat="35.4327644" lon="139.1640728"><ele>939.7433333333333</ele><time>2023-09-17T04:41:53Z</time></trkpt><trkpt lat="35.4325555" lon="139.1640319"><ele>940.2199999999999</ele><time>2023-09-17T04:42:14Z</time></trkpt><trkpt lat="35.4323777" lon="139.1639175"><ele>938.9900000000001</ele><time>2023-09-17T04:42:32Z</time></trkpt><trkpt lat="35.4321982" lon="139.1638403"><ele>936.4233333333333</ele><time>2023-09-17T04:42:47Z</time></trkpt><trkpt lat="35.432025" lon="139.1637787"><ele>934.61</ele><time>2023-09-17T04:42:59Z</time></trkpt><trkpt lat="35.4318458" lon="139.1636966"><ele>933.7633333333333</ele><time>2023-09-17T04:43:11Z</time></trkpt><trkpt lat="35.431645" lon="139.1637874"><ele>933.2166666666667</ele><time>2023-09-17T04:43:26Z</time></trkpt><trkpt lat="35.4314737" lon="139.1638861"><ele>931.57</ele><time>2023-09-17T04:43:44Z</time></trkpt><trkpt lat="35.4312895" lon="139.1637952"><ele>930.7033333333334</ele><time>2023-09-17T04:43:56Z</time></trkpt><trkpt lat="35.4311001" lon="139.1637218"><ele>930.1866666666666</ele><time>2023-09-17T04:44:11Z</time></trkpt><trkpt lat="35.4308849" lon="139.1637767"><ele>930.5099999999999</ele><time>2023-09-17T04:44:29Z</time></trkpt><trkpt lat="35.4307738" lon="139.1639923"><ele>928.5133333333333</ele><time>2023-09-17T04:44:44Z</time></trkpt><trkpt lat="35.4306004" lon="139.1641323"><ele>926.35</ele><time>2023-09-17T04:44:59Z</time></trkpt><trkpt lat="35.4304191" lon="139.1641911"><ele>923.6999999999999</ele><time>2023-09-17T04:45:17Z</time></trkpt><trkpt lat="35.4302528" lon="139.1643868"><ele>921.5966666666667</ele><time>2023-09-17T04:45:30Z</time></trkpt><trkpt lat="35.4300785" lon="139.1644866"><ele>919.3766666666667</ele><time>2023-09-17T04:45:50Z</time></trkpt><trkpt lat="35.429925" lon="139.1646215"><ele>917.3466666666667</ele><time>2023-09-17T04:46:05Z</time></trkpt><trkpt lat="35.4297337" lon="139.1647283"><ele>915.5166666666668</ele><time>2023-09-17T04:46:23Z</time></trkpt><trkpt lat="35.4295453" lon="139.1648644"><ele>913.5</ele><time>2023-09-17T04:46:41Z</time></trkpt><trkpt lat="35.4294023" lon="139.1650282"><ele>910.1333333333333</ele><time>2023-09-17T04:46:56Z</time></trkpt><trkpt lat="35.4292071" lon="139.1650859"><ele>906.8733333333334</ele><time>2023-09-17T04:47:11Z</time></trkpt><trkpt lat="35.4290163" lon="139.1651559"><ele>904.0966666666667</ele><time>2023-09-17T04:47:29Z</time></trkpt><trkpt lat="35.428868" lon="139.1652991"><ele>902.4566666666666</ele><time>2023-09-17T04:47:41Z</time></trkpt><trkpt lat="35.4286856" lon="139.1654055"><ele>900.5366666666667</ele><time>2023-09-17T04:48:02Z</time></trkpt><trkpt lat="35.4285581" lon="139.1656221"><ele>897.1133333333333</ele><time>2023-09-17T04:48:17Z</time></trkpt><trkpt lat="35.4284641" lon="139.1658286"><ele>892.6166666666668</ele><time>2023-09-17T04:48:44Z</time></trkpt><trkpt lat="35.4283416" lon="139.1659992"><ele>886.4533333333334</ele><time>2023-09-17T04:48:59Z</time></trkpt><trkpt lat="35.4281846" lon="139.1661249"><ele>881.4566666666666</ele><time>2023-09-17T04:49:38Z</time></trkpt><trkpt lat="35.4280945" lon="139.1663311"><ele>874.5533333333333</ele><time>2023-09-17T04:50:08Z</time></trkpt><trkpt lat="35.4279773" lon="139.1665101"><ele>866.6633333333334</ele><time>2023-09-17T04:50:38Z</time></trkpt><trkpt lat="35.4278598" lon="139.1667185"><ele>856.2666666666665</ele><time>2023-09-17T04:51:08Z</time></trkpt><trkpt lat="35.4276719" lon="139.1667867"><ele>847.46</ele><time>2023-09-17T04:51:26Z</time></trkpt><trkpt lat="35.4275035" lon="139.1666759"><ele>840.5533333333333</ele><time>2023-09-17T04:52:02Z</time></trkpt><trkpt lat="35.4273136" lon="139.1666939"><ele>835.04</ele><time>2023-09-17T04:52:23Z</time></trkpt><trkpt lat="35.4271331" lon="139.1667104"><ele>830.6133333333333</ele><time>2023-09-17T04:52:35Z</time></trkpt><trkpt lat="35.4269585" lon="139.1668135"><ele>824.61</ele><time>2023-09-17T04:52:50Z</time></trkpt><trkpt lat="35.4267723" lon="139.1668359"><ele>818.3133333333334</ele><time>2023-09-17T04:53:05Z</time></trkpt><trkpt lat="35.4265791" lon="139.1667829"><ele>811.6366666666667</ele><time>2023-09-17T04:53:17Z</time></trkpt><trkpt lat="35.4263907" lon="139.1667991"><ele>806.8566666666667</ele><time>2023-09-17T04:53:32Z</time></trkpt><trkpt lat="35.4261763" lon="139.1668238"><ele>803.46</ele><time>2023-09-17T04:53:47Z</time></trkpt><trkpt lat="35.4259581" lon="139.1666893"><ele>800.6733333333333</ele><time>2023-09-17T04:54:02Z</time></trkpt><trkpt lat="35.4257611" lon="139.1666862"><ele>798.71</ele><time>2023-09-17T04:54:14Z</time></trkpt><trkpt lat="35.4255694" lon="139.1665915"><ele>797.8166666666667</ele><time>2023-09-17T04:54:32Z</time></trkpt><trkpt lat="35.4253753" lon="139.166481"><ele>797.6833333333334</ele><time>2023-09-17T04:54:47Z</time></trkpt><trkpt lat="35.4251915" lon="139.1663773"><ele>797.7966666666667</ele><time>2023-09-17T04:55:02Z</time></trkpt><trkpt lat="35.4249856" lon="139.1662601"><ele>796.32</ele><time>2023-09-17T04:55:17Z</time></trkpt><trkpt lat="35.4247826" lon="139.1661892"><ele>793.5733333333334</ele><time>2023-09-17T04:55:32Z</time></trkpt><trkpt lat="35.42459" lon="139.16609"><ele>790.3166666666666</ele><time>2023-09-17T04:55:47Z</time></trkpt><trkpt lat="35.4244115" lon="139.1659947"><ele>787.7066666666666</ele><time>2023-09-17T04:56:05Z</time></trkpt><trkpt lat="35.4242268" lon="139.1658902"><ele>786.0466666666667</ele><time>2023-09-17T04:56:17Z</time></trkpt><trkpt lat="35.4240668" lon="139.1657363"><ele>784.16</ele><time>2023-09-17T04:56:32Z</time></trkpt><trkpt lat="35.4239249" lon="139.1655971"><ele>782.0966666666667</ele><time>2023-09-17T04:56:47Z</time></trkpt><trkpt lat="35.4237526" lon="139.1654651"><ele>779.5066666666667</ele><time>2023-09-17T04:57:02Z</time></trkpt><trkpt lat="35.4235821" lon="139.1653301"><ele>775.9499999999999</ele><time>2023-09-17T04:57:17Z</time></trkpt><trkpt lat="35.4233943" lon="139.1652482"><ele>771.7933333333334</ele><time>2023-09-17T04:57:32Z</time></trkpt><trkpt lat="35.4231936" lon="139.1652509"><ele>767.57</ele><time>2023-09-17T04:57:47Z</time></trkpt><trkpt lat="35.4231062" lon="139.165055"><ele>763.0900000000001</ele><time>2023-09-17T04:58:05Z</time></trkpt><trkpt lat="35.4230139" lon="139.1648425"><ele>757.9933333333333</ele><time>2023-09-17T04:58:32Z</time></trkpt><trkpt lat="35.4228794" lon="139.1646533"><ele>751.2466666666666</ele><time>2023-09-17T04:58:56Z</time></trkpt><trkpt lat="35.4227611" lon="139.1644719"><ele>744.3299999999999</ele><time>2023-09-17T04:59:17Z</time></trkpt><trkpt lat="35.4226371" lon="139.1642822"><ele>738.1433333333334</ele><time>2023-09-17T04:59:41Z</time></trkpt><trkpt lat="35.4224817" lon="139.1641549"><ele>731.5766666666667</ele><time>2023-09-17T05:00:02Z</time></trkpt><trkpt lat="35.4223429" lon="139.1639838"><ele>725.2466666666666</ele><time>2023-09-17T05:00:23Z</time></trkpt><trkpt lat="35.4222508" lon="139.1637842"><ele>719.2000000000002</ele><time>2023-09-17T05:00:41Z</time></trkpt><trkpt lat="35.4221299" lon="139.1635898"><ele>714.5933333333334</ele><time>2023-09-17T05:01:08Z</time></trkpt><trkpt lat="35.4219761" lon="139.1634738"><ele>710.36</ele><time>2023-09-17T05:01:29Z</time></trkpt><trkpt lat="35.4218386" lon="139.1633164"><ele>705.4233333333333</ele><time>2023-09-17T05:01:47Z</time></trkpt><trkpt lat="35.42169" lon="139.1631714"><ele>700.5133333333333</ele><time>2023-09-17T05:02:05Z</time></trkpt><trkpt lat="35.4214999" lon="139.1630824"><ele>695.4033333333333</ele><time>2023-09-17T05:02:23Z</time></trkpt><trkpt lat="35.4213342" lon="139.162956"><ele>690.4133333333334</ele><time>2023-09-17T05:02:44Z</time></trkpt><trkpt lat="35.4211606" lon="139.1628152"><ele>684.7199999999999</ele><time>2023-09-17T05:03:08Z</time></trkpt><trkpt lat="35.421048" lon="139.1626011"><ele>679.29</ele><time>2023-09-17T05:03:44Z</time></trkpt><trkpt lat="35.4209029" lon="139.1624086"><ele>673.1633333333333</ele><time>2023-09-17T05:04:35Z</time></trkpt><trkpt lat="35.4207224" lon="139.1624196"><ele>665.9133333333333</ele><time>2023-09-17T05:04:53Z</time></trkpt><trkpt lat="35.4205032" lon="139.1623875"><ele>656.6533333333333</ele><time>2023-09-17T05:05:44Z</time></trkpt><trkpt lat="35.4202939" lon="139.1622952"><ele>645.22</ele><time>2023-09-17T05:06:17Z</time></trkpt><trkpt lat="35.4201066" lon="139.1622583"><ele>633.3299999999999</ele><time>2023-09-17T05:06:47Z</time></trkpt><trkpt lat="35.4199383" lon="139.1621779"><ele>623.5</ele><time>2023-09-17T05:07:35Z</time></trkpt><trkpt lat="35.4197574" lon="139.1620999"><ele>616.6833333333333</ele><time>2023-09-17T05:08:02Z</time></trkpt><trkpt lat="35.4195919" lon="139.1620105"><ele>612.7199999999999</ele><time>2023-09-17T05:08:29Z</time></trkpt><trkpt lat="35.4193984" lon="139.1620967"><ele>607.9366666666666</ele><time>2023-09-17T05:08:59Z</time></trkpt><trkpt lat="35.4191853" lon="139.1621017"><ele>605.0366666666667</ele><time>2023-09-17T05:09:17Z</time></trkpt><trkpt lat="35.418963" lon="139.1621689"><ele>602.4433333333334</ele><time>2023-09-17T05:09:35Z</time></trkpt><trkpt lat="35.4187546" lon="139.1622441"><ele>601.0766666666667</ele><time>2023-09-17T05:09:50Z</time></trkpt><trkpt lat="35.4185217" lon="139.1621872"><ele>600.3766666666667</ele><time>2023-09-17T05:10:02Z</time></trkpt><trkpt lat="35.4183304" lon="139.1621976"><ele>599.2900000000001</ele><time>2023-09-17T05:10:41Z</time></trkpt><trkpt lat="35.4181214" lon="139.1622454"><ele>599.1766666666667</ele><time>2023-09-17T05:10:53Z</time></trkpt><trkpt lat="35.4179359" lon="139.162272"><ele>597.7966666666666</ele><time>2023-09-17T05:11:05Z</time></trkpt><trkpt lat="35.4177732" lon="139.1623888"><ele>594.23</ele><time>2023-09-17T05:11:20Z</time></trkpt><trkpt lat="35.4175835" lon="139.1624354"><ele>590.7600000000001</ele><time>2023-09-17T05:11:35Z</time></trkpt><trkpt lat="35.4173828" lon="139.1624527"><ele>585.59</ele><time>2023-09-17T05:11:50Z</time></trkpt><trkpt lat="35.417198" lon="139.1625433"><ele>582.0600000000001</ele><time>2023-09-17T05:12:08Z</time></trkpt><trkpt lat="35.4170038" lon="139.1626433"><ele>577.4499999999999</ele><time>2023-09-17T05:12:41Z</time></trkpt><trkpt lat="35.4168022" lon="139.1625408"><ele>573.9733333333334</ele><time>2023-09-17T05:12:56Z</time></trkpt><trkpt lat="35.4166196" lon="139.16256"><ele>569.7266666666666</ele><time>2023-09-17T05:13:17Z</time></trkpt><trkpt lat="35.4164277" lon="139.1625824"><ele>565.3366666666667</ele><time>2023-09-17T05:13:32Z</time></trkpt><trkpt lat="35.4162678" lon="139.1626863"><ele>558.03</ele><time>2023-09-17T05:13:59Z</time></trkpt><trkpt lat="35.4160809" lon="139.1626593"><ele>551.93</ele><time>2023-09-17T05:14:23Z</time></trkpt><trkpt lat="35.4159299" lon="139.1627806"><ele>546.5166666666667</ele><time>2023-09-17T05:14:47Z</time></trkpt><trkpt lat="35.4157819" lon="139.1629553"><ele>542.1533333333333</ele><time>2023-09-17T05:15:02Z</time></trkpt><trkpt lat="35.415604" lon="139.1630058"><ele>536.8333333333334</ele><time>2023-09-17T05:15:20Z</time></trkpt><trkpt lat="35.4154099" lon="139.1629127"><ele>532.4966666666667</ele><time>2023-09-17T05:15:38Z</time></trkpt><trkpt lat="35.4153122" lon="139.1627252"><ele>530.91</ele><time>2023-09-17T05:15:56Z</time></trkpt><trkpt lat="35.4152548" lon="139.1625163"><ele>529.1266666666667</ele><time>2023-09-17T05:16:44Z</time></trkpt><trkpt lat="35.4151238" lon="139.1622919"><ele>522.6666666666666</ele><time>2023-09-17T05:16:59Z</time></trkpt><trkpt lat="35.4149596" lon="139.1621518"><ele>514.8233333333333</ele><time>2023-09-17T05:17:29Z</time></trkpt><trkpt lat="35.4149888" lon="139.1623732"><ele>507.22333333333336</ele><time>2023-09-17T05:18:08Z</time></trkpt><trkpt lat="35.4149736" lon="139.1625969"><ele>504.56666666666666</ele><time>2023-09-17T05:18:26Z</time></trkpt><trkpt lat="35.414797" lon="139.1624639"><ele>500.4533333333334</ele><time>2023-09-17T05:18:47Z</time></trkpt><trkpt lat="35.4146461" lon="139.1623339"><ele>496.2866666666667</ele><time>2023-09-17T05:18:59Z</time></trkpt><trkpt lat="35.4144643" lon="139.1623007"><ele>489.74666666666667</ele><time>2023-09-17T05:19:23Z</time></trkpt><trkpt lat="35.4142663" lon="139.1622828"><ele>484.26</ele><time>2023-09-17T05:19:41Z</time></trkpt><trkpt lat="35.41408" lon="139.1623633"><ele>478.48333333333335</ele><time>2023-09-17T05:20:05Z</time></trkpt><trkpt lat="35.41389" lon="139.1623797"><ele>474.52</ele><time>2023-09-17T05:20:20Z</time></trkpt><trkpt lat="35.4137102" lon="139.1624658"><ele>471.69</ele><time>2023-09-17T05:20:38Z</time></trkpt><trkpt lat="35.4135275" lon="139.1624573"><ele>468.9666666666667</ele><time>2023-09-17T05:20:59Z</time></trkpt><trkpt lat="35.413447" lon="139.1622573"><ele>466.4833333333333</ele><time>2023-09-17T05:21:17Z</time></trkpt><trkpt lat="35.4133153" lon="139.1620932"><ele>461.8633333333334</ele><time>2023-09-17T05:21:32Z</time></trkpt><trkpt lat="35.4131649" lon="139.1619673"><ele>458.03000000000003</ele><time>2023-09-17T05:21:47Z</time></trkpt><trkpt lat="35.4130508" lon="139.1617559"><ele>457.0933333333333</ele><time>2023-09-17T05:22:05Z</time></trkpt><trkpt lat="35.4128438" lon="139.1617654"><ele>455.2933333333333</ele><time>2023-09-17T05:22:21Z</time></trkpt><trkpt lat="35.412643" lon="139.1618302"><ele>454.77666666666664</ele><time>2023-09-17T05:22:48Z</time></trkpt><trkpt lat="35.4124985" lon="139.1620286"><ele>445.7633333333333</ele><time>2023-09-17T05:23:12Z</time></trkpt><trkpt lat="35.4122995" lon="139.16208"><ele>443.16333333333336</ele><time>2023-09-17T05:23:30Z</time></trkpt><trkpt lat="35.4121776" lon="139.1622431"><ele>438.19</ele><time>2023-09-17T05:23:42Z</time></trkpt><trkpt lat="35.4120038" lon="139.1621602"><ele>439.8066666666667</ele><time>2023-09-17T05:23:54Z</time></trkpt><trkpt lat="35.4118656" lon="139.1619991"><ele>439.67333333333335</ele><time>2023-09-17T05:24:06Z</time></trkpt><trkpt lat="35.411732" lon="139.1618231"><ele>442.58</ele><time>2023-09-17T05:24:27Z</time></trkpt><trkpt lat="35.4115476" lon="139.1618436"><ele>441.9066666666667</ele><time>2023-09-17T05:24:45Z</time></trkpt><trkpt lat="35.4114121" lon="139.161992"><ele>437.48333333333335</ele><time>2023-09-17T05:25:03Z</time></trkpt><trkpt lat="35.4112457" lon="139.1621646"><ele>430.3433333333333</ele><time>2023-09-17T05:25:30Z</time></trkpt><trkpt lat="35.4110885" lon="139.1623449"><ele>423.42333333333335</ele><time>2023-09-17T05:25:51Z</time></trkpt><trkpt lat="35.4109586" lon="139.162522"><ele>416.81</ele><time>2023-09-17T05:26:12Z</time></trkpt><trkpt lat="35.4108277" lon="139.162683"><ele>410.6033333333333</ele><time>2023-09-17T05:26:30Z</time></trkpt><trkpt lat="35.4106731" lon="139.162811"><ele>404.5133333333333</ele><time>2023-09-17T05:27:18Z</time></trkpt><trkpt lat="35.4105474" lon="139.1629819"><ele>398.83666666666664</ele><time>2023-09-17T05:27:36Z</time></trkpt><trkpt lat="35.4104386" lon="139.1631798"><ele>393.97666666666663</ele><time>2023-09-17T05:27:48Z</time></trkpt><trkpt lat="35.4102927" lon="139.1633467"><ele>390.4533333333334</ele><time>2023-09-17T05:28:06Z</time></trkpt><trkpt lat="35.4101684" lon="139.1635447"><ele>387.95</ele><time>2023-09-17T05:28:30Z</time></trkpt><trkpt lat="35.4100013" lon="139.1637049"><ele>384.60666666666674</ele><time>2023-09-17T05:28:42Z</time></trkpt><trkpt lat="35.4098122" lon="139.1637559"><ele>380.7033333333334</ele><time>2023-09-17T05:28:57Z</time></trkpt><trkpt lat="35.4095968" lon="139.1637769"><ele>377.5266666666667</ele><time>2023-09-17T05:29:15Z</time></trkpt><trkpt lat="35.4094018" lon="139.1636956"><ele>376.1433333333334</ele><time>2023-09-17T05:29:30Z</time></trkpt><trkpt lat="35.4092252" lon="139.1635832"><ele>375.02</ele><time>2023-09-17T05:29:48Z</time></trkpt><trkpt lat="35.409045" lon="139.1635667"><ele>372.19</ele><time>2023-09-17T05:30:03Z</time></trkpt><trkpt lat="35.4088764" lon="139.1637155"><ele>368.0233333333333</ele><time>2023-09-17T05:30:18Z</time></trkpt><trkpt lat="35.4088264" lon="139.1639598"><ele>364.37999999999994</ele><time>2023-09-17T05:30:30Z</time></trkpt><trkpt lat="35.4087117" lon="139.1641358"><ele>361.56333333333333</ele><time>2023-09-17T05:30:48Z</time></trkpt><trkpt lat="35.4086728" lon="139.164377"><ele>358.08</ele><time>2023-09-17T05:31:36Z</time></trkpt><trkpt lat="35.408587" lon="139.1646203"><ele>353.3666666666666</ele><time>2023-09-17T05:31:45Z</time></trkpt><trkpt lat="35.408389" lon="139.1646888"><ele>349.24666666666667</ele><time>2023-09-17T05:32:00Z</time></trkpt><trkpt lat="35.4082189" lon="139.1647797"><ele>346.5233333333333</ele><time>2023-09-17T05:32:12Z</time></trkpt><trkpt lat="35.4080336" lon="139.1648628"><ele>345.0366666666667</ele><time>2023-09-17T05:32:24Z</time></trkpt><trkpt lat="35.4078488" lon="139.1649299"><ele>343.2633333333333</ele><time>2023-09-17T05:32:36Z</time></trkpt><trkpt lat="35.4076741" lon="139.1650343"><ele>340.82666666666665</ele><time>2023-09-17T05:32:48Z</time></trkpt><trkpt lat="35.4074831" lon="139.165114"><ele>337.31333333333333</ele><time>2023-09-17T05:33:06Z</time></trkpt><trkpt lat="35.4073106" lon="139.1651972"><ele>333.3866666666667</ele><time>2023-09-17T05:33:21Z</time></trkpt><trkpt lat="35.4071384" lon="139.1652693"><ele>330.53000000000003</ele><time>2023-09-17T05:33:36Z</time></trkpt><trkpt lat="35.4069774" lon="139.1653773"><ele>327.81</ele><time>2023-09-17T05:33:51Z</time></trkpt><trkpt lat="35.4068366" lon="139.1655587"><ele>324.8966666666667</ele><time>2023-09-17T05:34:06Z</time></trkpt><trkpt lat="35.4066731" lon="139.1657101"><ele>321.92</ele><time>2023-09-17T05:34:18Z</time></trkpt><trkpt lat="35.4065824" lon="139.1659102"><ele>319.74333333333334</ele><time>2023-09-17T05:34:27Z</time></trkpt><trkpt lat="35.4063924" lon="139.1657547"><ele>320.07666666666665</ele><time>2023-09-17T05:34:45Z</time></trkpt><trkpt lat="35.4062019" lon="139.1658427"><ele>320.15333333333336</ele><time>2023-09-17T05:34:54Z</time></trkpt><trkpt lat="35.4060337" lon="139.1659323"><ele>318.7</ele><time>2023-09-17T05:35:09Z</time></trkpt><trkpt lat="35.4058789" lon="139.166089"><ele>314.6666666666667</ele><time>2023-09-17T05:35:27Z</time></trkpt><trkpt lat="35.4058096" lon="139.166339"><ele>310.1166666666667</ele><time>2023-09-17T05:35:39Z</time></trkpt><trkpt lat="35.405797" lon="139.1665703"><ele>306.7233333333333</ele><time>2023-09-17T05:35:54Z</time></trkpt><trkpt lat="35.4059715" lon="139.1667051"><ele>304.68</ele><time>2023-09-17T05:36:06Z</time></trkpt><trkpt lat="35.4060177" lon="139.1669219"><ele>302.8466666666667</ele><time>2023-09-17T05:36:18Z</time></trkpt><trkpt lat="35.4060283" lon="139.1671928"><ele>300.72333333333336</ele><time>2023-09-17T05:36:30Z</time></trkpt><trkpt lat="35.4060095" lon="139.1674434"><ele>297.18333333333334</ele><time>2023-09-17T05:36:42Z</time></trkpt><trkpt lat="35.405968" lon="139.1676691"><ele>294.4533333333334</ele><time>2023-09-17T05:37:00Z</time></trkpt><trkpt lat="35.4058742" lon="139.1678962"><ele>292.7266666666667</ele><time>2023-09-17T05:37:12Z</time></trkpt><trkpt lat="35.4057135" lon="139.1680509"><ele>292.87</ele><time>2023-09-17T05:37:30Z</time></trkpt><trkpt lat="35.405541" lon="139.1681528"><ele>293.17</ele><time>2023-09-17T05:37:45Z</time></trkpt><trkpt lat="35.4053253" lon="139.1682134"><ele>293.06666666666666</ele><time>2023-09-17T05:37:54Z</time></trkpt><trkpt lat="35.4051299" lon="139.1682933"><ele>291.98999999999995</ele><time>2023-09-17T05:38:12Z</time></trkpt><trkpt lat="35.40495" lon="139.1684024"><ele>290.36999999999995</ele><time>2023-09-17T05:38:24Z</time></trkpt><trkpt lat="35.4048368" lon="139.168578"><ele>289.09666666666664</ele><time>2023-09-17T05:38:33Z</time></trkpt><trkpt lat="35.4048616" lon="139.1688057"><ele>287.9433333333333</ele><time>2023-09-17T05:38:54Z</time></trkpt><trkpt lat="35.4048427" lon="139.1690257"><ele>286.96666666666664</ele><time>2023-09-17T05:39:15Z</time></trkpt></trkseg></trk></gpx>