<?xml version='1.0' encoding='UTF-8'?><gpx creator="YAMAP - https://yamap.com" xsi:schemaLocation="http://www.topografix.com/GPX/1/1 http://www.topografix.com/GPX/1/1/gpx.xsd" version="1.1" xmlns="http://www.topografix.com/GPX/1/1" xmlns:xsi="http://www.w3.org/2001/XMLSchema-instance"><metadata><bounds maxlat="36.1482938" maxlon="139.1607026" minlat="36.1116937" minlon="139.08356"/></metadata><trk><name>長瀞アルプス・陣見山</name><number>1</number><trkseg><trkpt lat="36.1266271" lon="139.1578963"><ele>114.25</ele><time>2025-11-07T23:07:51Z</time></trkpt><trkpt lat="36.1265271" lon="139.1576839"><ele>113.205</ele><time>2025-11-07T23:08:27Z</time></trkpt><trkpt lat="36.126366" lon="139.1578617"><ele>113.36666666666667</ele><time>2025-11-07T23:09:00Z</time></trkpt><trkpt lat="36.1261748" lon="139.157821"><ele>113.16000000000001</ele><time>2025-11-07T23:09:15Z</time></trkpt><trkpt lat="36.126269" lon="139.1580291"><ele>114.06333333333333</ele><time>2025-11-07T23:09:51Z</time></trkpt><trkpt lat="36.1261862" lon="139.158239"><ele>114.89</ele><time>2025-11-07T23:10:15Z</time></trkpt><trkpt lat="36.1259505" lon="139.1581968"><ele>115.68</ele><time>2025-11-07T23:10:32Z</time></trkpt><trkpt lat="36.1257267" lon="139.158085"><ele>115.77</ele><time>2025-11-07T23:10:42Z</time></trkpt><trkpt lat="36.1255167" lon="139.1580483"><ele>115.20333333333333</ele><time>2025-11-07T23:10:57Z</time></trkpt><trkpt lat="36.125315" lon="139.1580633"><ele>114.70333333333333</ele><time>2025-11-07T23:11:12Z</time></trkpt><trkpt lat="36.1251183" lon="139.1581067"><ele>114.71333333333332</ele><time>2025-11-07T23:11:27Z</time></trkpt><trkpt lat="36.1249083" lon="139.15815"><ele>115.06333333333333</ele><time>2025-11-07T23:11:42Z</time></trkpt><trkpt lat="36.1247083" lon="139.1582083"><ele>115.57333333333334</ele><time>2025-11-07T23:11:57Z</time></trkpt><trkpt lat="36.1245117" lon="139.1583033"><ele>116.0</ele><time>2025-11-07T23:12:12Z</time></trkpt><trkpt lat="36.1243133" lon="139.158375"><ele>116.41666666666667</ele><time>2025-11-07T23:12:27Z</time></trkpt><trkpt lat="36.1241267" lon="139.1584551"><ele>116.68333333333334</ele><time>2025-11-07T23:12:41Z</time></trkpt><trkpt lat="36.1239713" lon="139.1585776"><ele>116.85000000000001</ele><time>2025-11-07T23:12:53Z</time></trkpt><trkpt lat="36.123802" lon="139.1586624"><ele>116.89333333333333</ele><time>2025-11-07T23:13:07Z</time></trkpt><trkpt lat="36.1236438" lon="139.1587706"><ele>117.11000000000001</ele><time>2025-11-07T23:13:19Z</time></trkpt><trkpt lat="36.1234931" lon="139.1589392"><ele>117.38666666666666</ele><time>2025-11-07T23:13:37Z</time></trkpt><trkpt lat="36.1234492" lon="139.1591585"><ele>117.74666666666667</ele><time>2025-11-07T23:13:48Z</time></trkpt><trkpt lat="36.1233958" lon="139.1593787"><ele>118.67</ele><time>2025-11-07T23:14:00Z</time></trkpt><trkpt lat="36.1233904" lon="139.1596267"><ele>120.62</ele><time>2025-11-07T23:14:15Z</time></trkpt><trkpt lat="36.1234772" lon="139.159854"><ele>123.68333333333334</ele><time>2025-11-07T23:14:36Z</time></trkpt><trkpt lat="36.1236357" lon="139.1600092"><ele>126.50666666666666</ele><time>2025-11-07T23:14:51Z</time></trkpt><trkpt lat="36.1237635" lon="139.1601867"><ele>127.82333333333332</ele><time>2025-11-07T23:15:05Z</time></trkpt><trkpt lat="36.1238777" lon="139.1603673"><ele>127.27</ele><time>2025-11-07T23:15:16Z</time></trkpt><trkpt lat="36.124069" lon="139.1603435"><ele>127.33999999999999</ele><time>2025-11-07T23:15:35Z</time></trkpt><trkpt lat="36.1241973" lon="139.1601821"><ele>129.87666666666667</ele><time>2025-11-07T23:15:47Z</time></trkpt><trkpt lat="36.1242961" lon="139.1599937"><ele>134.70333333333335</ele><time>2025-11-07T23:16:01Z</time></trkpt><trkpt lat="36.1243348" lon="139.1597432"><ele>138.57000000000002</ele><time>2025-11-07T23:16:19Z</time></trkpt><trkpt lat="36.1244032" lon="139.1595332"><ele>141.17333333333332</ele><time>2025-11-07T23:16:37Z</time></trkpt><trkpt lat="36.1245699" lon="139.1594284"><ele>142.25</ele><time>2025-11-07T23:16:54Z</time></trkpt><trkpt lat="36.1247456" lon="139.1594905"><ele>144.21</ele><time>2025-11-07T23:17:21Z</time></trkpt><trkpt lat="36.1249279" lon="139.1594983"><ele>145.91</ele><time>2025-11-07T23:17:51Z</time></trkpt><trkpt lat="36.1251218" lon="139.1596136"><ele>148.52</ele><time>2025-11-07T23:18:06Z</time></trkpt><trkpt lat="36.1253255" lon="139.1595793"><ele>149.98666666666665</ele><time>2025-11-07T23:18:21Z</time></trkpt><trkpt lat="36.1255345" lon="139.1595008"><ele>150.91333333333333</ele><time>2025-11-07T23:18:39Z</time></trkpt><trkpt lat="36.1257228" lon="139.1594761"><ele>151.81333333333333</ele><time>2025-11-07T23:18:57Z</time></trkpt><trkpt lat="36.1259142" lon="139.1595016"><ele>153.86333333333334</ele><time>2025-11-07T23:19:18Z</time></trkpt><trkpt lat="36.1261312" lon="139.1595291"><ele>155.22333333333336</ele><time>2025-11-07T23:20:33Z</time></trkpt><trkpt lat="36.1263688" lon="139.1594898"><ele>156.99333333333334</ele><time>2025-11-07T23:21:24Z</time></trkpt><trkpt lat="36.1265489" lon="139.1594525"><ele>158.51666666666665</ele><time>2025-11-07T23:21:45Z</time></trkpt><trkpt lat="36.1267404" lon="139.1594472"><ele>163.15333333333334</ele><time>2025-11-07T23:22:06Z</time></trkpt><trkpt lat="36.1268391" lon="139.1596575"><ele>167.5</ele><time>2025-11-07T23:22:42Z</time></trkpt><trkpt lat="36.1268633" lon="139.1598839"><ele>172.28333333333333</ele><time>2025-11-07T23:23:06Z</time></trkpt><trkpt lat="36.1270484" lon="139.1599035"><ele>175.24</ele><time>2025-11-07T23:23:42Z</time></trkpt><trkpt lat="36.127253" lon="139.1598488"><ele>178.34333333333333</ele><time>2025-11-07T23:24:18Z</time></trkpt><trkpt lat="36.1274339" lon="139.1598429"><ele>181.04666666666665</ele><time>2025-11-07T23:24:45Z</time></trkpt><trkpt lat="36.1276138" lon="139.1598727"><ele>183.98666666666668</ele><time>2025-11-07T23:25:09Z</time></trkpt><trkpt lat="36.1277945" lon="139.1599289"><ele>186.63666666666668</ele><time>2025-11-07T23:25:33Z</time></trkpt><trkpt lat="36.1279747" lon="139.1600086"><ele>188.81000000000003</ele><time>2025-11-07T23:25:57Z</time></trkpt><trkpt lat="36.1281735" lon="139.1600112"><ele>191.26</ele><time>2025-11-07T23:26:21Z</time></trkpt><trkpt lat="36.1283741" lon="139.1599992"><ele>193.82333333333335</ele><time>2025-11-07T23:26:42Z</time></trkpt><trkpt lat="36.1285703" lon="139.1599828"><ele>197.20666666666668</ele><time>2025-11-07T23:27:03Z</time></trkpt><trkpt lat="36.1287502" lon="139.1600113"><ele>200.03333333333333</ele><time>2025-11-07T23:27:27Z</time></trkpt><trkpt lat="36.1289677" lon="139.160031"><ele>202.42999999999998</ele><time>2025-11-07T23:28:00Z</time></trkpt><trkpt lat="36.1291586" lon="139.1600635"><ele>204.23000000000002</ele><time>2025-11-07T23:28:23Z</time></trkpt><trkpt lat="36.1293574" lon="139.1600338"><ele>207.76666666666665</ele><time>2025-11-07T23:28:47Z</time></trkpt><trkpt lat="36.1295385" lon="139.1600017"><ele>212.71333333333334</ele><time>2025-11-07T23:29:21Z</time></trkpt><trkpt lat="36.1297191" lon="139.1600108"><ele>219.55000000000004</ele><time>2025-11-07T23:29:54Z</time></trkpt><trkpt lat="36.1299542" lon="139.1601405"><ele>227.87</ele><time>2025-11-07T23:30:54Z</time></trkpt><trkpt lat="36.130102" lon="139.1603093"><ele>237.86333333333332</ele><time>2025-11-07T23:32:06Z</time></trkpt><trkpt lat="36.130272" lon="139.1603859"><ele>245.80999999999997</ele><time>2025-11-07T23:33:19Z</time></trkpt><trkpt lat="36.1305204" lon="139.1604163"><ele>249.98000000000002</ele><time>2025-11-07T23:34:52Z</time></trkpt><trkpt lat="36.1306951" lon="139.1603024"><ele>250.55666666666664</ele><time>2025-11-07T23:35:10Z</time></trkpt><trkpt lat="36.1308816" lon="139.1603069"><ele>250.84666666666666</ele><time>2025-11-07T23:35:31Z</time></trkpt><trkpt lat="36.1310608" lon="139.1603706"><ele>251.27666666666667</ele><time>2025-11-07T23:35:54Z</time></trkpt><trkpt lat="36.1312756" lon="139.160323"><ele>251.41</ele><time>2025-11-07T23:36:10Z</time></trkpt><trkpt lat="36.1314597" lon="139.1603523"><ele>252.41666666666666</ele><time>2025-11-07T23:36:31Z</time></trkpt><trkpt lat="36.1316184" lon="139.1604909"><ele>253.45666666666668</ele><time>2025-11-07T23:36:58Z</time></trkpt><trkpt lat="36.1317983" lon="139.1605566"><ele>256.54333333333335</ele><time>2025-11-07T23:37:34Z</time></trkpt><trkpt lat="36.1319679" lon="139.1606518"><ele>259.69</ele><time>2025-11-07T23:38:16Z</time></trkpt><trkpt lat="36.1321556" lon="139.1606947"><ele>264.31</ele><time>2025-11-07T23:38:31Z</time></trkpt><trkpt lat="36.1323574" lon="139.1607026"><ele>267.55</ele><time>2025-11-07T23:38:58Z</time></trkpt><trkpt lat="36.1325385" lon="139.1606345"><ele>269.08</ele><time>2025-11-07T23:39:25Z</time></trkpt><trkpt lat="36.1326934" lon="139.1605059"><ele>266.8233333333333</ele><time>2025-11-07T23:40:55Z</time></trkpt><trkpt lat="36.1328727" lon="139.1604281"><ele>262.68</ele><time>2025-11-07T23:41:25Z</time></trkpt><trkpt lat="36.1330697" lon="139.1603319"><ele>260.53000000000003</ele><time>2025-11-07T23:41:46Z</time></trkpt><trkpt lat="36.133259" lon="139.1602928"><ele>262.00333333333333</ele><time>2025-11-07T23:42:07Z</time></trkpt><trkpt lat="36.1334391" lon="139.1602322"><ele>266.02666666666664</ele><time>2025-11-07T23:42:36Z</time></trkpt><trkpt lat="36.1336511" lon="139.1602558"><ele>269.06</ele><time>2025-11-07T23:43:01Z</time></trkpt><trkpt lat="36.133841" lon="139.1602785"><ele>270.92</ele><time>2025-11-07T23:43:22Z</time></trkpt><trkpt lat="36.1340347" lon="139.1603423"><ele>272.40000000000003</ele><time>2025-11-07T23:43:43Z</time></trkpt><trkpt lat="36.134312" lon="139.1603773"><ele>277.7633333333333</ele><time>2025-11-07T23:44:31Z</time></trkpt><trkpt lat="36.1345101" lon="139.1603551"><ele>286.56666666666666</ele><time>2025-11-07T23:45:49Z</time></trkpt><trkpt lat="36.1347301" lon="139.1604327"><ele>295.68666666666667</ele><time>2025-11-07T23:46:46Z</time></trkpt><trkpt lat="36.1348713" lon="139.1605758"><ele>301.05333333333334</ele><time>2025-11-07T23:47:07Z</time></trkpt><trkpt lat="36.1350472" lon="139.1605111"><ele>300.23333333333335</ele><time>2025-11-07T23:47:34Z</time></trkpt><trkpt lat="36.1352869" lon="139.1603468"><ele>293.36333333333334</ele><time>2025-11-07T23:48:52Z</time></trkpt><trkpt lat="36.1354434" lon="139.1601838"><ele>284.10333333333335</ele><time>2025-11-07T23:50:19Z</time></trkpt><trkpt lat="36.1356132" lon="139.1600386"><ele>276.05</ele><time>2025-11-07T23:50:46Z</time></trkpt><trkpt lat="36.1357676" lon="139.1598905"><ele>272.3666666666666</ele><time>2025-11-07T23:51:04Z</time></trkpt><trkpt lat="36.1359277" lon="139.159721"><ele>270.8</ele><time>2025-11-07T23:51:22Z</time></trkpt><trkpt lat="36.1361023" lon="139.1596319"><ele>270.90000000000003</ele><time>2025-11-07T23:51:42Z</time></trkpt><trkpt lat="36.1362593" lon="139.1595189"><ele>273.08666666666664</ele><time>2025-11-07T23:52:01Z</time></trkpt><trkpt lat="36.1364429" lon="139.1594299"><ele>276.2966666666666</ele><time>2025-11-07T23:52:19Z</time></trkpt><trkpt lat="36.1366476" lon="139.1594116"><ele>279.2733333333333</ele><time>2025-11-07T23:52:46Z</time></trkpt><trkpt lat="36.1368218" lon="139.1593213"><ele>280.82666666666665</ele><time>2025-11-07T23:53:04Z</time></trkpt><trkpt lat="36.1369521" lon="139.1591425"><ele>280.6366666666667</ele><time>2025-11-07T23:53:25Z</time></trkpt><trkpt lat="36.1370112" lon="139.1589035"><ele>279.40333333333336</ele><time>2025-11-07T23:53:46Z</time></trkpt><trkpt lat="36.137116" lon="139.1587178"><ele>277.4633333333333</ele><time>2025-11-07T23:54:01Z</time></trkpt><trkpt lat="36.1372288" lon="139.1585236"><ele>276.82</ele><time>2025-11-07T23:54:19Z</time></trkpt><trkpt lat="36.1373877" lon="139.1583676"><ele>276.91333333333336</ele><time>2025-11-07T23:54:34Z</time></trkpt><trkpt lat="36.137577" lon="139.1582967"><ele>275.56333333333333</ele><time>2025-11-07T23:54:58Z</time></trkpt><trkpt lat="36.1377421" lon="139.1581554"><ele>271.9166666666667</ele><time>2025-11-07T23:55:19Z</time></trkpt><trkpt lat="36.1378933" lon="139.1580109"><ele>268.6666666666667</ele><time>2025-11-07T23:55:58Z</time></trkpt><trkpt lat="36.1380343" lon="139.1578661"><ele>269.08666666666664</ele><time>2025-11-07T23:56:16Z</time></trkpt><trkpt lat="36.1382124" lon="139.1577638"><ele>272.6933333333333</ele><time>2025-11-07T23:56:37Z</time></trkpt><trkpt lat="36.1384037" lon="139.1577399"><ele>275.6133333333333</ele><time>2025-11-07T23:56:58Z</time></trkpt><trkpt lat="36.1385881" lon="139.1578131"><ele>278.49333333333334</ele><time>2025-11-07T23:57:16Z</time></trkpt><trkpt lat="36.1387567" lon="139.1579222"><ele>282.99</ele><time>2025-11-07T23:57:40Z</time></trkpt><trkpt lat="36.1389253" lon="139.1580119"><ele>292.6433333333334</ele><time>2025-11-07T23:58:19Z</time></trkpt><trkpt lat="36.1390765" lon="139.1581536"><ele>306.43</ele><time>2025-11-07T23:59:13Z</time></trkpt><trkpt lat="36.1392337" lon="139.1583022"><ele>319.6566666666667</ele><time>2025-11-08T00:01:58Z</time></trkpt><trkpt lat="36.139387" lon="139.1584292"><ele>328.36000000000007</ele><time>2025-11-08T00:02:25Z</time></trkpt><trkpt lat="36.1395825" lon="139.1584156"><ele>331.3633333333333</ele><time>2025-11-08T00:02:58Z</time></trkpt><trkpt lat="36.1395252" lon="139.1581813"><ele>331.05</ele><time>2025-11-08T00:04:52Z</time></trkpt><trkpt lat="36.1396436" lon="139.1580106"><ele>327.44</ele><time>2025-11-08T00:05:43Z</time></trkpt><trkpt lat="36.1397188" lon="139.1577783"><ele>323.33666666666664</ele><time>2025-11-08T00:06:31Z</time></trkpt><trkpt lat="36.1397855" lon="139.1575443"><ele>319.5833333333333</ele><time>2025-11-08T00:06:46Z</time></trkpt><trkpt lat="36.1398464" lon="139.1573209"><ele>318.91333333333336</ele><time>2025-11-08T00:07:04Z</time></trkpt><trkpt lat="36.1398865" lon="139.1570919"><ele>317.33</ele><time>2025-11-08T00:07:34Z</time></trkpt><trkpt lat="36.139974" lon="139.1568803"><ele>314.1533333333333</ele><time>2025-11-08T00:08:01Z</time></trkpt><trkpt lat="36.1401029" lon="139.1567084"><ele>308.51</ele><time>2025-11-08T00:08:21Z</time></trkpt><trkpt lat="36.1401829" lon="139.1564697"><ele>303.59666666666664</ele><time>2025-11-08T00:08:43Z</time></trkpt><trkpt lat="36.140292" lon="139.156257"><ele>301.1766666666667</ele><time>2025-11-08T00:09:04Z</time></trkpt><trkpt lat="36.1403333" lon="139.156012"><ele>301.73</ele><time>2025-11-08T00:09:22Z</time></trkpt><trkpt lat="36.140404" lon="139.1557968"><ele>304.8466666666667</ele><time>2025-11-08T00:09:49Z</time></trkpt><trkpt lat="36.1404519" lon="139.1555795"><ele>308.74</ele><time>2025-11-08T00:10:25Z</time></trkpt><trkpt lat="36.1405269" lon="139.1553642"><ele>316.53333333333336</ele><time>2025-11-08T00:10:52Z</time></trkpt><trkpt lat="36.1407081" lon="139.1552195"><ele>326.4766666666667</ele><time>2025-11-08T00:11:40Z</time></trkpt><trkpt lat="36.1408658" lon="139.1550339"><ele>337.99</ele><time>2025-11-08T00:12:40Z</time></trkpt><trkpt lat="36.1410722" lon="139.1548384"><ele>348.65000000000003</ele><time>2025-11-08T00:13:31Z</time></trkpt><trkpt lat="36.141196" lon="139.1546527"><ele>356.00333333333333</ele><time>2025-11-08T00:13:55Z</time></trkpt><trkpt lat="36.1412783" lon="139.154449"><ele>360.65333333333336</ele><time>2025-11-08T00:14:22Z</time></trkpt><trkpt lat="36.1413738" lon="139.1542535"><ele>361.68333333333334</ele><time>2025-11-08T00:14:43Z</time></trkpt><trkpt lat="36.1414806" lon="139.1540511"><ele>361.8033333333333</ele><time>2025-11-08T00:15:04Z</time></trkpt><trkpt lat="36.1416027" lon="139.1538725"><ele>362.3633333333334</ele><time>2025-11-08T00:15:25Z</time></trkpt><trkpt lat="36.1416443" lon="139.1536335"><ele>363.92</ele><time>2025-11-08T00:16:01Z</time></trkpt><trkpt lat="36.1416183" lon="139.1534085"><ele>363.96333333333337</ele><time>2025-11-08T00:16:16Z</time></trkpt><trkpt lat="36.1416081" lon="139.1531709"><ele>362.92666666666673</ele><time>2025-11-08T00:16:40Z</time></trkpt><trkpt lat="36.1415756" lon="139.1529312"><ele>360.90000000000003</ele><time>2025-11-08T00:16:58Z</time></trkpt><trkpt lat="36.1415673" lon="139.1527051"><ele>359.60999999999996</ele><time>2025-11-08T00:17:19Z</time></trkpt><trkpt lat="36.1415192" lon="139.1524808"><ele>356.1366666666667</ele><time>2025-11-08T00:17:43Z</time></trkpt><trkpt lat="36.1415229" lon="139.1522284"><ele>351.5566666666667</ele><time>2025-11-08T00:19:19Z</time></trkpt><trkpt lat="36.1415315" lon="139.1520017"><ele>347.42</ele><time>2025-11-08T00:19:40Z</time></trkpt><trkpt lat="36.1415015" lon="139.1517698"><ele>344.54333333333335</ele><time>2025-11-08T00:19:55Z</time></trkpt><trkpt lat="36.141454" lon="139.1515185"><ele>342.6133333333333</ele><time>2025-11-08T00:20:19Z</time></trkpt><trkpt lat="36.1415024" lon="139.1512745"><ele>340.0133333333333</ele><time>2025-11-08T00:20:37Z</time></trkpt><trkpt lat="36.1416008" lon="139.1510796"><ele>338.05</ele><time>2025-11-08T00:20:55Z</time></trkpt><trkpt lat="36.1416414" lon="139.1508577"><ele>334.79</ele><time>2025-11-08T00:21:34Z</time></trkpt><trkpt lat="36.1415547" lon="139.1506427"><ele>328.6933333333333</ele><time>2025-11-08T00:22:19Z</time></trkpt><trkpt lat="36.1413902" lon="139.150525"><ele>321.24333333333334</ele><time>2025-11-08T00:23:22Z</time></trkpt><trkpt lat="36.1414578" lon="139.1503157"><ele>316.90000000000003</ele><time>2025-11-08T00:24:28Z</time></trkpt><trkpt lat="36.1414806" lon="139.1500898"><ele>318.34</ele><time>2025-11-08T00:25:07Z</time></trkpt><trkpt lat="36.1414673" lon="139.1498597"><ele>324.5</ele><time>2025-11-08T00:25:49Z</time></trkpt><trkpt lat="36.1415596" lon="139.1496395"><ele>329.93666666666667</ele><time>2025-11-08T00:26:16Z</time></trkpt><trkpt lat="36.141681" lon="139.1494428"><ele>334.78000000000003</ele><time>2025-11-08T00:26:40Z</time></trkpt><trkpt lat="36.141787" lon="139.1492476"><ele>337.12333333333333</ele><time>2025-11-08T00:27:01Z</time></trkpt><trkpt lat="36.1418282" lon="139.1490295"><ele>339.48333333333335</ele><time>2025-11-08T00:27:19Z</time></trkpt><trkpt lat="36.1418532" lon="139.1487993"><ele>341.5133333333333</ele><time>2025-11-08T00:27:37Z</time></trkpt><trkpt lat="36.1418482" lon="139.1485596"><ele>343.6433333333334</ele><time>2025-11-08T00:28:01Z</time></trkpt><trkpt lat="36.1417606" lon="139.1483485"><ele>345.8866666666666</ele><time>2025-11-08T00:28:22Z</time></trkpt><trkpt lat="36.1416845" lon="139.1481303"><ele>349.43666666666667</ele><time>2025-11-08T00:28:46Z</time></trkpt><trkpt lat="36.1415747" lon="139.147929"><ele>353.96333333333337</ele><time>2025-11-08T00:29:13Z</time></trkpt><trkpt lat="36.1415142" lon="139.1476833"><ele>358.8233333333333</ele><time>2025-11-08T00:29:46Z</time></trkpt><trkpt lat="36.1415053" lon="139.1474148"><ele>362.37000000000006</ele><time>2025-11-08T00:30:19Z</time></trkpt><trkpt lat="36.1416006" lon="139.1472157"><ele>363.3866666666666</ele><time>2025-11-08T00:30:40Z</time></trkpt><trkpt lat="36.1416935" lon="139.1469918"><ele>360.2833333333333</ele><time>2025-11-08T00:31:10Z</time></trkpt><trkpt lat="36.1417965" lon="139.1467837"><ele>355.99666666666667</ele><time>2025-11-08T00:31:34Z</time></trkpt><trkpt lat="36.1418976" lon="139.1465801"><ele>354.69</ele><time>2025-11-08T00:31:52Z</time></trkpt><trkpt lat="36.142122" lon="139.146397"><ele>360.70000000000005</ele><time>2025-11-08T00:33:16Z</time></trkpt><trkpt lat="36.1423129" lon="139.1462932"><ele>371.5566666666667</ele><time>2025-11-08T00:34:19Z</time></trkpt><trkpt lat="36.1424736" lon="139.1461557"><ele>382.82666666666665</ele><time>2025-11-08T00:35:25Z</time></trkpt><trkpt lat="36.1427116" lon="139.146025"><ele>393.40333333333336</ele><time>2025-11-08T00:36:16Z</time></trkpt><trkpt lat="36.142887" lon="139.1457711"><ele>402.0333333333333</ele><time>2025-11-08T00:37:13Z</time></trkpt><trkpt lat="36.1429138" lon="139.1455243"><ele>408.57666666666665</ele><time>2025-11-08T00:37:52Z</time></trkpt><trkpt lat="36.1428328" lon="139.1453169"><ele>411.0733333333333</ele><time>2025-11-08T00:38:09Z</time></trkpt><trkpt lat="36.1427863" lon="139.1451019"><ele>410.6766666666667</ele><time>2025-11-08T00:38:28Z</time></trkpt><trkpt lat="36.1427172" lon="139.1448691"><ele>409.8766666666667</ele><time>2025-11-08T00:38:49Z</time></trkpt><trkpt lat="36.142738" lon="139.1446415"><ele>406.97</ele><time>2025-11-08T00:39:07Z</time></trkpt><trkpt lat="36.1427556" lon="139.1443978"><ele>404.3233333333333</ele><time>2025-11-08T00:39:25Z</time></trkpt><trkpt lat="36.142751" lon="139.1441753"><ele>402.90000000000003</ele><time>2025-11-08T00:39:40Z</time></trkpt><trkpt lat="36.1427289" lon="139.1439142"><ele>405.59</ele><time>2025-11-08T00:40:04Z</time></trkpt><trkpt lat="36.1427042" lon="139.1436923"><ele>411.27333333333337</ele><time>2025-11-08T00:40:43Z</time></trkpt><trkpt lat="36.142762" lon="139.1434463"><ele>416.90333333333336</ele><time>2025-11-08T00:40:58Z</time></trkpt><trkpt lat="36.1428349" lon="139.1432365"><ele>420.34666666666664</ele><time>2025-11-08T00:41:22Z</time></trkpt><trkpt lat="36.1428911" lon="139.1430128"><ele>419.41333333333336</ele><time>2025-11-08T00:41:40Z</time></trkpt><trkpt lat="36.1429585" lon="139.142797"><ele>416.07666666666665</ele><time>2025-11-08T00:42:01Z</time></trkpt><trkpt lat="36.1429672" lon="139.1425716"><ele>412.28333333333336</ele><time>2025-11-08T00:42:25Z</time></trkpt><trkpt lat="36.1429725" lon="139.1423268"><ele>409.74333333333334</ele><time>2025-11-08T00:42:52Z</time></trkpt><trkpt lat="36.1429798" lon="139.1420369"><ele>409.6033333333334</ele><time>2025-11-08T00:43:28Z</time></trkpt><trkpt lat="36.1430351" lon="139.1417985"><ele>411.3300000000001</ele><time>2025-11-08T00:43:46Z</time></trkpt><trkpt lat="36.1431025" lon="139.1415661"><ele>414.36999999999995</ele><time>2025-11-08T00:44:07Z</time></trkpt><trkpt lat="36.1431472" lon="139.1413308"><ele>418.23333333333335</ele><time>2025-11-08T00:44:46Z</time></trkpt><trkpt lat="36.1432129" lon="139.1411216"><ele>424.23</ele><time>2025-11-08T00:45:55Z</time></trkpt><trkpt lat="36.1433025" lon="139.1408715"><ele>431.43</ele><time>2025-11-08T00:47:01Z</time></trkpt><trkpt lat="36.1432169" lon="139.1406637"><ele>439.7033333333333</ele><time>2025-11-08T00:47:43Z</time></trkpt><trkpt lat="36.1432908" lon="139.1403383"><ele>449.0933333333333</ele><time>2025-11-08T00:48:19Z</time></trkpt><trkpt lat="36.1433224" lon="139.1400819"><ele>459.8333333333333</ele><time>2025-11-08T00:49:46Z</time></trkpt><trkpt lat="36.143414" lon="139.1398053"><ele>470.10666666666674</ele><time>2025-11-08T00:50:25Z</time></trkpt><trkpt lat="36.1435002" lon="139.1395287"><ele>479.06666666666666</ele><time>2025-11-08T00:51:10Z</time></trkpt><trkpt lat="36.1435493" lon="139.1393097"><ele>487.16</ele><time>2025-11-08T00:52:10Z</time></trkpt><trkpt lat="36.1436986" lon="139.1391615"><ele>495.09</ele><time>2025-11-08T00:53:19Z</time></trkpt><trkpt lat="36.1438807" lon="139.1391377"><ele>500.24</ele><time>2025-11-08T00:53:40Z</time></trkpt><trkpt lat="36.1440753" lon="139.1391047"><ele>502.58</ele><time>2025-11-08T00:54:07Z</time></trkpt><trkpt lat="36.1442037" lon="139.1389167"><ele>502.14333333333326</ele><time>2025-11-08T00:54:28Z</time></trkpt><trkpt lat="36.1443075" lon="139.1387041"><ele>501.09999999999997</ele><time>2025-11-08T00:54:49Z</time></trkpt><trkpt lat="36.1444334" lon="139.1385046"><ele>498.1466666666667</ele><time>2025-11-08T00:55:13Z</time></trkpt><trkpt lat="36.1446139" lon="139.1384174"><ele>494.42333333333335</ele><time>2025-11-08T00:55:34Z</time></trkpt><trkpt lat="36.144797" lon="139.138345"><ele>490.7966666666667</ele><time>2025-11-08T00:56:16Z</time></trkpt><trkpt lat="36.1449407" lon="139.1381527"><ele>490.0566666666667</ele><time>2025-11-08T00:56:49Z</time></trkpt><trkpt lat="36.1451217" lon="139.138032"><ele>489.16</ele><time>2025-11-08T00:57:10Z</time></trkpt><trkpt lat="36.1449418" lon="139.1381334"><ele>490.08666666666664</ele><time>2025-11-08T00:58:25Z</time></trkpt><trkpt lat="36.1447746" lon="139.1382477"><ele>489.94</ele><time>2025-11-08T00:58:40Z</time></trkpt><trkpt lat="36.1447675" lon="139.1380073"><ele>493.3333333333333</ele><time>2025-11-08T00:59:31Z</time></trkpt><trkpt lat="36.144878" lon="139.1378152"><ele>496.76</ele><time>2025-11-08T01:00:01Z</time></trkpt><trkpt lat="36.1449953" lon="139.1376432"><ele>501.02</ele><time>2025-11-08T01:00:22Z</time></trkpt><trkpt lat="36.1451084" lon="139.1374507"><ele>504.49000000000007</ele><time>2025-11-08T01:00:43Z</time></trkpt><trkpt lat="36.1451921" lon="139.1372459"><ele>507.71000000000004</ele><time>2025-11-08T01:01:06Z</time></trkpt><trkpt lat="36.1452975" lon="139.1370605"><ele>512.3866666666667</ele><time>2025-11-08T01:01:39Z</time></trkpt><trkpt lat="36.1454294" lon="139.1369084"><ele>517.81</ele><time>2025-11-08T01:02:13Z</time></trkpt><trkpt lat="36.1455604" lon="139.1367399"><ele>524.0133333333333</ele><time>2025-11-08T01:02:36Z</time></trkpt><trkpt lat="36.1457613" lon="139.1367043"><ele>528.0666666666666</ele><time>2025-11-08T01:03:58Z</time></trkpt><trkpt lat="36.1459377" lon="139.1367538"><ele>529.3233333333333</ele><time>2025-11-08T01:04:12Z</time></trkpt><trkpt lat="36.1461141" lon="139.1368016"><ele>528.1866666666666</ele><time>2025-11-08T01:04:37Z</time></trkpt><trkpt lat="36.1462898" lon="139.1368868"><ele>526.8</ele><time>2025-11-08T01:04:52Z</time></trkpt><trkpt lat="36.1460984" lon="139.1367807"><ele>525.6533333333333</ele><time>2025-11-08T01:06:21Z</time></trkpt><trkpt lat="36.1459246" lon="139.1366872"><ele>525.3000000000001</ele><time>2025-11-08T01:06:36Z</time></trkpt><trkpt lat="36.1457156" lon="139.1366766"><ele>526.7733333333334</ele><time>2025-11-08T01:06:54Z</time></trkpt><trkpt lat="36.1456077" lon="139.1364652"><ele>528.8366666666667</ele><time>2025-11-08T01:08:13Z</time></trkpt><trkpt lat="36.1455216" lon="139.1362541"><ele>529.9433333333333</ele><time>2025-11-08T01:08:31Z</time></trkpt><trkpt lat="36.1454547" lon="139.1360293"><ele>528.8066666666667</ele><time>2025-11-08T01:08:49Z</time></trkpt><trkpt lat="36.1453208" lon="139.1358696"><ele>526.3466666666667</ele><time>2025-11-08T01:09:04Z</time></trkpt><trkpt lat="36.1451542" lon="139.1356772"><ele>523.39</ele><time>2025-11-08T01:09:42Z</time></trkpt><trkpt lat="36.1449916" lon="139.1355028"><ele>520.4266666666667</ele><time>2025-11-08T01:09:57Z</time></trkpt><trkpt lat="36.1448624" lon="139.1353366"><ele>516.85</ele><time>2025-11-08T01:10:33Z</time></trkpt><trkpt lat="36.1449328" lon="139.1350941"><ele>510.2066666666667</ele><time>2025-11-08T01:11:18Z</time></trkpt><trkpt lat="36.144878" lon="139.1348635"><ele>500.6766666666667</ele><time>2025-11-08T01:11:48Z</time></trkpt><trkpt lat="36.1448899" lon="139.1346388"><ele>491.3666666666666</ele><time>2025-11-08T01:12:08Z</time></trkpt><trkpt lat="36.1449365" lon="139.134418"><ele>484.93333333333334</ele><time>2025-11-08T01:12:32Z</time></trkpt><trkpt lat="36.1450063" lon="139.1341822"><ele>480.62999999999994</ele><time>2025-11-08T01:12:47Z</time></trkpt><trkpt lat="36.1450913" lon="139.1339373"><ele>476.37999999999994</ele><time>2025-11-08T01:13:05Z</time></trkpt><trkpt lat="36.1451664" lon="139.1336993"><ele>473.07666666666665</ele><time>2025-11-08T01:13:20Z</time></trkpt><trkpt lat="36.1452118" lon="139.1334431"><ele>471.6666666666667</ele><time>2025-11-08T01:13:39Z</time></trkpt><trkpt lat="36.1451663" lon="139.1331824"><ele>471.74333333333334</ele><time>2025-11-08T01:13:57Z</time></trkpt><trkpt lat="36.1450753" lon="139.1329606"><ele>471.8</ele><time>2025-11-08T01:14:11Z</time></trkpt><trkpt lat="36.145036" lon="139.1327225"><ele>471.15000000000003</ele><time>2025-11-08T01:14:28Z</time></trkpt><trkpt lat="36.1450569" lon="139.1324914"><ele>470.4533333333334</ele><time>2025-11-08T01:14:51Z</time></trkpt><trkpt lat="36.1451157" lon="139.1322542"><ele>468.23</ele><time>2025-11-08T01:15:09Z</time></trkpt><trkpt lat="36.1451809" lon="139.1320344"><ele>465.5466666666666</ele><time>2025-11-08T01:15:24Z</time></trkpt><trkpt lat="36.1452144" lon="139.1318071"><ele>463.21000000000004</ele><time>2025-11-08T01:15:44Z</time></trkpt><trkpt lat="36.1452923" lon="139.1315751"><ele>460.37999999999994</ele><time>2025-11-08T01:16:09Z</time></trkpt><trkpt lat="36.1454521" lon="139.1314596"><ele>456.15333333333336</ele><time>2025-11-08T01:16:33Z</time></trkpt><trkpt lat="36.1456426" lon="139.1313886"><ele>453.1766666666667</ele><time>2025-11-08T01:17:00Z</time></trkpt><trkpt lat="36.1457886" lon="139.1312231"><ele>451.8566666666666</ele><time>2025-11-08T01:17:24Z</time></trkpt><trkpt lat="36.1458276" lon="139.1310044"><ele>451.1666666666667</ele><time>2025-11-08T01:17:48Z</time></trkpt><trkpt lat="36.1458696" lon="139.1307707"><ele>447.1000000000001</ele><time>2025-11-08T01:18:09Z</time></trkpt><trkpt lat="36.1459322" lon="139.1305307"><ele>443.8</ele><time>2025-11-08T01:18:27Z</time></trkpt><trkpt lat="36.1459302" lon="139.1302883"><ele>441.23</ele><time>2025-11-08T01:19:06Z</time></trkpt><trkpt lat="36.1459154" lon="139.1300517"><ele>439.66333333333336</ele><time>2025-11-08T01:19:27Z</time></trkpt><trkpt lat="36.1459167" lon="139.1298041"><ele>437.1166666666666</ele><time>2025-11-08T01:19:44Z</time></trkpt><trkpt lat="36.1460465" lon="139.1295557"><ele>434.50666666666666</ele><time>2025-11-08T01:20:24Z</time></trkpt><trkpt lat="36.1461637" lon="139.1293763"><ele>432.2</ele><time>2025-11-08T01:20:45Z</time></trkpt><trkpt lat="36.1462809" lon="139.1291818"><ele>429.29</ele><time>2025-11-08T01:21:03Z</time></trkpt><trkpt lat="36.1464382" lon="139.12907"><ele>425.52666666666664</ele><time>2025-11-08T01:21:24Z</time></trkpt><trkpt lat="36.1465866" lon="139.1289308"><ele>422.68</ele><time>2025-11-08T01:21:45Z</time></trkpt><trkpt lat="36.1467752" lon="139.1288548"><ele>420.43</ele><time>2025-11-08T01:22:03Z</time></trkpt><trkpt lat="36.1469259" lon="139.1287253"><ele>419.31666666666666</ele><time>2025-11-08T01:22:27Z</time></trkpt><trkpt lat="36.147016" lon="139.1285068"><ele>418.00666666666666</ele><time>2025-11-08T01:23:36Z</time></trkpt><trkpt lat="36.1470834" lon="139.1282809"><ele>417.18333333333334</ele><time>2025-11-08T01:24:24Z</time></trkpt><trkpt lat="36.1472508" lon="139.1281222"><ele>419.2233333333333</ele><time>2025-11-08T01:24:57Z</time></trkpt><trkpt lat="36.1473543" lon="139.1279378"><ele>424.34</ele><time>2025-11-08T01:25:33Z</time></trkpt><trkpt lat="36.1474512" lon="139.1277488"><ele>431.9566666666667</ele><time>2025-11-08T01:26:06Z</time></trkpt><trkpt lat="36.1475364" lon="139.1275303"><ele>437.9533333333333</ele><time>2025-11-08T01:26:33Z</time></trkpt><trkpt lat="36.1476759" lon="139.1273615"><ele>440.8333333333333</ele><time>2025-11-08T01:26:54Z</time></trkpt><trkpt lat="36.1477843" lon="139.1271656"><ele>441.59</ele><time>2025-11-08T01:27:12Z</time></trkpt><trkpt lat="36.1478871" lon="139.1269601"><ele>441.5466666666667</ele><time>2025-11-08T01:27:33Z</time></trkpt><trkpt lat="36.1480435" lon="139.1267719"><ele>441.81333333333333</ele><time>2025-11-08T01:27:50Z</time></trkpt><trkpt lat="36.1481824" lon="139.1265762"><ele>442.56</ele><time>2025-11-08T01:28:08Z</time></trkpt><trkpt lat="36.1482904" lon="139.1263775"><ele>443.16</ele><time>2025-11-08T01:28:26Z</time></trkpt><trkpt lat="36.1482938" lon="139.1261423"><ele>443.04333333333335</ele><time>2025-11-08T01:28:48Z</time></trkpt><trkpt lat="36.1482597" lon="139.1259078"><ele>440.7666666666667</ele><time>2025-11-08T01:29:11Z</time></trkpt><trkpt lat="36.1482155" lon="139.1256524"><ele>436.7033333333334</ele><time>2025-11-08T01:29:29Z</time></trkpt><trkpt lat="36.1482292" lon="139.1253894"><ele>434.0</ele><time>2025-11-08T01:29:48Z</time></trkpt><trkpt lat="36.1481841" lon="139.1251406"><ele>435.1966666666667</ele><time>2025-11-08T01:30:09Z</time></trkpt><trkpt lat="36.1481145" lon="139.1249255"><ele>441.32666666666665</ele><time>2025-11-08T01:30:33Z</time></trkpt><trkpt lat="36.1480236" lon="139.1247058"><ele>447.1333333333334</ele><time>2025-11-08T01:31:09Z</time></trkpt><trkpt lat="36.1479608" lon="139.1244789"><ele>450.09</ele><time>2025-11-08T01:31:21Z</time></trkpt><trkpt lat="36.1478826" lon="139.1242748"><ele>448.7</ele><time>2025-11-08T01:31:39Z</time></trkpt><trkpt lat="36.1478082" lon="139.1240468"><ele>445.2833333333333</ele><time>2025-11-08T01:31:57Z</time></trkpt><trkpt lat="36.1478089" lon="139.1238148"><ele>441.32666666666665</ele><time>2025-11-08T01:32:18Z</time></trkpt><trkpt lat="36.1478073" lon="139.1235866"><ele>439.23333333333335</ele><time>2025-11-08T01:32:36Z</time></trkpt><trkpt lat="36.1476876" lon="139.1233786"><ele>438.99333333333334</ele><time>2025-11-08T01:32:54Z</time></trkpt><trkpt lat="36.1475785" lon="139.1231909"><ele>439.75666666666666</ele><time>2025-11-08T01:33:09Z</time></trkpt><trkpt lat="36.1474939" lon="139.1229758"><ele>439.58666666666664</ele><time>2025-11-08T01:33:27Z</time></trkpt><trkpt lat="36.147393" lon="139.1227695"><ele>437.35666666666674</ele><time>2025-11-08T01:34:06Z</time></trkpt><trkpt lat="36.1472341" lon="139.1226239"><ele>434.6433333333334</ele><time>2025-11-08T01:34:33Z</time></trkpt><trkpt lat="36.1471008" lon="139.1224643"><ele>432.3833333333334</ele><time>2025-11-08T01:34:51Z</time></trkpt><trkpt lat="36.1469353" lon="139.1222934"><ele>431.4666666666667</ele><time>2025-11-08T01:35:09Z</time></trkpt><trkpt lat="36.1467825" lon="139.1221584"><ele>431.09999999999997</ele><time>2025-11-08T01:35:24Z</time></trkpt><trkpt lat="36.1466086" lon="139.1220982"><ele>431.03000000000003</ele><time>2025-11-08T01:35:42Z</time></trkpt><trkpt lat="36.1464235" lon="139.1220719"><ele>430.40000000000003</ele><time>2025-11-08T01:35:57Z</time></trkpt><trkpt lat="36.1462336" lon="139.1220691"><ele>429.33</ele><time>2025-11-08T01:36:12Z</time></trkpt><trkpt lat="36.1464154" lon="139.1221255"><ele>426.6433333333334</ele><time>2025-11-08T01:36:59Z</time></trkpt><trkpt lat="36.1465987" lon="139.1220958"><ele>426.9866666666667</ele><time>2025-11-08T01:37:15Z</time></trkpt><trkpt lat="36.1467826" lon="139.1221567"><ele>428.0566666666667</ele><time>2025-11-08T01:37:32Z</time></trkpt><trkpt lat="36.1469211" lon="139.1223389"><ele>430.5333333333333</ele><time>2025-11-08T01:37:48Z</time></trkpt><trkpt lat="36.1470589" lon="139.1225161"><ele>430.77333333333337</ele><time>2025-11-08T01:38:06Z</time></trkpt><trkpt lat="36.1472322" lon="139.1226656"><ele>431.14000000000004</ele><time>2025-11-08T01:38:24Z</time></trkpt><trkpt lat="36.1473249" lon="139.122441"><ele>432.0133333333333</ele><time>2025-11-08T01:39:03Z</time></trkpt><trkpt lat="36.1471306" lon="139.1222304"><ele>433.1033333333333</ele><time>2025-11-08T01:39:26Z</time></trkpt><trkpt lat="36.1470078" lon="139.1220676"><ele>435.00666666666666</ele><time>2025-11-08T01:39:47Z</time></trkpt><trkpt lat="36.1468451" lon="139.1219129"><ele>439.7</ele><time>2025-11-08T01:40:11Z</time></trkpt><trkpt lat="36.146662" lon="139.1217966"><ele>445.7866666666667</ele><time>2025-11-08T01:40:32Z</time></trkpt><trkpt lat="36.146467" lon="139.1217524"><ele>452.03666666666663</ele><time>2025-11-08T01:40:55Z</time></trkpt><trkpt lat="36.1462859" lon="139.121591"><ele>456.14333333333326</ele><time>2025-11-08T01:41:11Z</time></trkpt><trkpt lat="36.1461009" lon="139.1215471"><ele>459.25</ele><time>2025-11-08T01:41:42Z</time></trkpt><trkpt lat="36.1459698" lon="139.1213542"><ele>461.92</ele><time>2025-11-08T01:42:00Z</time></trkpt><trkpt lat="36.1460901" lon="139.1211687"><ele>465.4166666666667</ele><time>2025-11-08T01:42:24Z</time></trkpt><trkpt lat="36.1462388" lon="139.1210146"><ele>467.7266666666667</ele><time>2025-11-08T01:42:42Z</time></trkpt><trkpt lat="36.1464088" lon="139.1209139"><ele>470.4066666666667</ele><time>2025-11-08T01:43:00Z</time></trkpt><trkpt lat="36.1465753" lon="139.1208108"><ele>472.59666666666664</ele><time>2025-11-08T01:43:18Z</time></trkpt><trkpt lat="36.1466402" lon="139.1205871"><ele>476.5566666666667</ele><time>2025-11-08T01:43:42Z</time></trkpt><trkpt lat="36.1466222" lon="139.1203374"><ele>479.24</ele><time>2025-11-08T01:44:09Z</time></trkpt><trkpt lat="36.1467471" lon="139.1201461"><ele>480.17333333333335</ele><time>2025-11-08T01:44:27Z</time></trkpt><trkpt lat="36.1468832" lon="139.1199839"><ele>479.6366666666667</ele><time>2025-11-08T01:44:45Z</time></trkpt><trkpt lat="36.1469402" lon="139.1197284"><ele>478.49666666666667</ele><time>2025-11-08T01:45:03Z</time></trkpt><trkpt lat="36.1468442" lon="139.119507"><ele>477.08666666666664</ele><time>2025-11-08T01:45:24Z</time></trkpt><trkpt lat="36.146688" lon="139.1193165"><ele>477.51666666666665</ele><time>2025-11-08T01:45:42Z</time></trkpt><trkpt lat="36.1465335" lon="139.119171"><ele>478.53</ele><time>2025-11-08T01:45:57Z</time></trkpt><trkpt lat="36.1463402" lon="139.1190324"><ele>480.6666666666667</ele><time>2025-11-08T01:46:15Z</time></trkpt><trkpt lat="36.1462066" lon="139.1188588"><ele>481.65000000000003</ele><time>2025-11-08T01:46:30Z</time></trkpt><trkpt lat="36.1461357" lon="139.1186444"><ele>482.76000000000005</ele><time>2025-11-08T01:46:48Z</time></trkpt><trkpt lat="36.1460271" lon="139.1184662"><ele>483.8766666666667</ele><time>2025-11-08T01:47:06Z</time></trkpt><trkpt lat="36.1458461" lon="139.118348"><ele>484.84666666666664</ele><time>2025-11-08T01:47:21Z</time></trkpt><trkpt lat="36.1456414" lon="139.1183185"><ele>486.21000000000004</ele><time>2025-11-08T01:47:39Z</time></trkpt><trkpt lat="36.1454466" lon="139.1182982"><ele>487.0366666666667</ele><time>2025-11-08T01:47:57Z</time></trkpt><trkpt lat="36.1452947" lon="139.1181742"><ele>487.59666666666664</ele><time>2025-11-08T01:48:12Z</time></trkpt><trkpt lat="36.1451524" lon="139.1179829"><ele>486.30333333333334</ele><time>2025-11-08T01:48:30Z</time></trkpt><trkpt lat="36.1450259" lon="139.1178195"><ele>484.6966666666667</ele><time>2025-11-08T01:48:48Z</time></trkpt><trkpt lat="36.1448406" lon="139.1177468"><ele>482.8866666666667</ele><time>2025-11-08T01:49:09Z</time></trkpt><trkpt lat="36.1446656" lon="139.1176688"><ele>482.31666666666666</ele><time>2025-11-08T01:49:24Z</time></trkpt><trkpt lat="36.1444783" lon="139.1176281"><ele>482.31</ele><time>2025-11-08T01:49:39Z</time></trkpt><trkpt lat="36.1443051" lon="139.1175419"><ele>482.01666666666665</ele><time>2025-11-08T01:49:54Z</time></trkpt><trkpt lat="36.1441422" lon="139.1174442"><ele>481.3733333333334</ele><time>2025-11-08T01:50:09Z</time></trkpt><trkpt lat="36.1440211" lon="139.1172394"><ele>478.93666666666667</ele><time>2025-11-08T01:50:24Z</time></trkpt><trkpt lat="36.1440019" lon="139.1170148"><ele>476.58666666666664</ele><time>2025-11-08T01:50:39Z</time></trkpt><trkpt lat="36.1439578" lon="139.1167977"><ele>473.72333333333336</ele><time>2025-11-08T01:50:54Z</time></trkpt><trkpt lat="36.143862" lon="139.1165831"><ele>470.6233333333333</ele><time>2025-11-08T01:51:09Z</time></trkpt><trkpt lat="36.1437655" lon="139.116336"><ele>467.68666666666667</ele><time>2025-11-08T01:51:24Z</time></trkpt><trkpt lat="36.1436897" lon="139.1161278"><ele>465.2366666666667</ele><time>2025-11-08T01:51:39Z</time></trkpt><trkpt lat="36.1435473" lon="139.1159358"><ele>464.36000000000007</ele><time>2025-11-08T01:51:57Z</time></trkpt><trkpt lat="36.1434259" lon="139.1157711"><ele>462.72333333333336</ele><time>2025-11-08T01:52:12Z</time></trkpt><trkpt lat="36.1432688" lon="139.1156611"><ele>462.03000000000003</ele><time>2025-11-08T01:52:27Z</time></trkpt><trkpt lat="36.1431281" lon="139.1154728"><ele>461.31333333333333</ele><time>2025-11-08T01:52:57Z</time></trkpt><trkpt lat="36.1430287" lon="139.1152836"><ele>461.4766666666667</ele><time>2025-11-08T01:53:12Z</time></trkpt><trkpt lat="36.1430667" lon="139.1150396"><ele>460.43333333333334</ele><time>2025-11-08T01:53:33Z</time></trkpt><trkpt lat="36.143085" lon="139.1148054"><ele>456.1566666666667</ele><time>2025-11-08T01:54:06Z</time></trkpt><trkpt lat="36.1431307" lon="139.1145754"><ele>451.2266666666667</ele><time>2025-11-08T01:54:27Z</time></trkpt><trkpt lat="36.1431118" lon="139.1143146"><ele>446.4366666666667</ele><time>2025-11-08T01:54:48Z</time></trkpt><trkpt lat="36.1430822" lon="139.1140546"><ele>444.5800000000001</ele><time>2025-11-08T01:55:03Z</time></trkpt><trkpt lat="36.1430076" lon="139.1138411"><ele>443.3</ele><time>2025-11-08T01:55:15Z</time></trkpt><trkpt lat="36.142935" lon="139.1136126"><ele>442.25333333333333</ele><time>2025-11-08T01:55:33Z</time></trkpt><trkpt lat="36.1428302" lon="139.1134067"><ele>440.69666666666666</ele><time>2025-11-08T01:55:51Z</time></trkpt><trkpt lat="36.1426474" lon="139.1132891"><ele>441.0133333333333</ele><time>2025-11-08T01:56:08Z</time></trkpt><trkpt lat="36.1424488" lon="139.113192"><ele>443.50333333333333</ele><time>2025-11-08T01:56:26Z</time></trkpt><trkpt lat="36.142324" lon="139.1130044"><ele>447.21</ele><time>2025-11-08T01:56:42Z</time></trkpt><trkpt lat="36.1422842" lon="139.1127708"><ele>449.0466666666666</ele><time>2025-11-08T01:56:56Z</time></trkpt><trkpt lat="36.1423004" lon="139.1125469"><ele>450.47</ele><time>2025-11-08T01:57:12Z</time></trkpt><trkpt lat="36.1422323" lon="139.1123019"><ele>452.87000000000006</ele><time>2025-11-08T01:57:36Z</time></trkpt><trkpt lat="36.142071" lon="139.112177"><ele>456.24666666666667</ele><time>2025-11-08T01:57:54Z</time></trkpt><trkpt lat="36.1418749" lon="139.1121301"><ele>459.3433333333333</ele><time>2025-11-08T01:58:15Z</time></trkpt><trkpt lat="36.1416739" lon="139.1121237"><ele>462.06666666666666</ele><time>2025-11-08T01:58:36Z</time></trkpt><trkpt lat="36.1414804" lon="139.1121329"><ele>465.46333333333337</ele><time>2025-11-08T01:58:57Z</time></trkpt><trkpt lat="36.141292" lon="139.1121873"><ele>468.57666666666665</ele><time>2025-11-08T01:59:14Z</time></trkpt><trkpt lat="36.14116" lon="139.1123764"><ele>470.80999999999995</ele><time>2025-11-08T01:59:39Z</time></trkpt><trkpt lat="36.1410213" lon="139.1125482"><ele>472.06</ele><time>2025-11-08T02:00:03Z</time></trkpt><trkpt lat="36.1408701" lon="139.1126702"><ele>472.86999999999995</ele><time>2025-11-08T02:00:21Z</time></trkpt><trkpt lat="36.1408461" lon="139.1124358"><ele>477.1466666666667</ele><time>2025-11-08T02:01:09Z</time></trkpt><trkpt lat="36.14081" lon="139.1122153"><ele>481.58666666666664</ele><time>2025-11-08T02:01:42Z</time></trkpt><trkpt lat="36.1406325" lon="139.1123154"><ele>487.17333333333335</ele><time>2025-11-08T02:02:06Z</time></trkpt><trkpt lat="36.1404383" lon="139.112336"><ele>490.27</ele><time>2025-11-08T02:02:26Z</time></trkpt><trkpt lat="36.1402558" lon="139.1123976"><ele>492.67</ele><time>2025-11-08T02:02:44Z</time></trkpt><trkpt lat="36.1400811" lon="139.1124862"><ele>494.55333333333334</ele><time>2025-11-08T02:03:05Z</time></trkpt><trkpt lat="36.1399197" lon="139.1125859"><ele>496.78333333333336</ele><time>2025-11-08T02:03:22Z</time></trkpt><trkpt lat="36.1397101" lon="139.1125704"><ele>499.47333333333336</ele><time>2025-11-08T02:03:45Z</time></trkpt><trkpt lat="36.1395207" lon="139.112626"><ele>501.6000000000001</ele><time>2025-11-08T02:04:06Z</time></trkpt><trkpt lat="36.1393208" lon="139.1126423"><ele>502.6033333333333</ele><time>2025-11-08T02:04:23Z</time></trkpt><trkpt lat="36.1391564" lon="139.1127628"><ele>503.9866666666667</ele><time>2025-11-08T02:04:45Z</time></trkpt><trkpt lat="36.1390427" lon="139.1125868"><ele>505.1633333333334</ele><time>2025-11-08T02:05:45Z</time></trkpt><trkpt lat="36.1391068" lon="139.1127948"><ele>505.99666666666667</ele><time>2025-11-08T02:10:54Z</time></trkpt><trkpt lat="36.1389801" lon="139.1126"><ele>506.37000000000006</ele><time>2025-11-08T02:29:55Z</time></trkpt><trkpt lat="36.1388003" lon="139.1124643"><ele>505.09666666666664</ele><time>2025-11-08T02:30:16Z</time></trkpt><trkpt lat="36.1386761" lon="139.1122878"><ele>502.6466666666667</ele><time>2025-11-08T02:30:34Z</time></trkpt><trkpt lat="36.1385565" lon="139.1120943"><ele>499.02</ele><time>2025-11-08T02:30:52Z</time></trkpt><trkpt lat="36.1383882" lon="139.1119719"><ele>496.22</ele><time>2025-11-08T02:31:07Z</time></trkpt><trkpt lat="36.1382369" lon="139.1118305"><ele>494.49</ele><time>2025-11-08T02:31:19Z</time></trkpt><trkpt lat="36.1380929" lon="139.1116925"><ele>492.91333333333336</ele><time>2025-11-08T02:31:34Z</time></trkpt><trkpt lat="36.1379681" lon="139.111509"><ele>491.3433333333333</ele><time>2025-11-08T02:31:52Z</time></trkpt><trkpt lat="36.1378681" lon="139.1113224"><ele>489.4866666666667</ele><time>2025-11-08T02:32:04Z</time></trkpt><trkpt lat="36.1377157" lon="139.1111404"><ele>487.7166666666667</ele><time>2025-11-08T02:32:19Z</time></trkpt><trkpt lat="36.137566" lon="139.1110112"><ele>486.02</ele><time>2025-11-08T02:32:30Z</time></trkpt><trkpt lat="36.1374045" lon="139.110878"><ele>484.9266666666667</ele><time>2025-11-08T02:32:45Z</time></trkpt><trkpt lat="36.1372657" lon="139.1107182"><ele>484.3966666666667</ele><time>2025-11-08T02:32:57Z</time></trkpt><trkpt lat="36.1371153" lon="139.1105956"><ele>483.8866666666666</ele><time>2025-11-08T02:33:12Z</time></trkpt><trkpt lat="36.1369082" lon="139.110514"><ele>483.36999999999995</ele><time>2025-11-08T02:33:38Z</time></trkpt><trkpt lat="36.1369631" lon="139.1102972"><ele>482.2133333333333</ele><time>2025-11-08T02:34:53Z</time></trkpt><trkpt lat="36.1370152" lon="139.1100787"><ele>478.65333333333336</ele><time>2025-11-08T02:35:11Z</time></trkpt><trkpt lat="36.137167" lon="139.109906"><ele>472.74666666666667</ele><time>2025-11-08T02:35:41Z</time></trkpt><trkpt lat="36.1371927" lon="139.1096544"><ele>465.0933333333333</ele><time>2025-11-08T02:36:17Z</time></trkpt><trkpt lat="36.1371207" lon="139.1094234"><ele>459.16</ele><time>2025-11-08T02:36:41Z</time></trkpt><trkpt lat="36.1372221" lon="139.1092344"><ele>453.6000000000001</ele><time>2025-11-08T02:36:59Z</time></trkpt><trkpt lat="36.137383" lon="139.1091223"><ele>448.08</ele><time>2025-11-08T02:37:20Z</time></trkpt><trkpt lat="36.1375704" lon="139.1090338"><ele>441.3766666666667</ele><time>2025-11-08T02:37:38Z</time></trkpt><trkpt lat="36.1376782" lon="139.108854"><ele>434.06</ele><time>2025-11-08T02:38:02Z</time></trkpt><trkpt lat="36.1375626" lon="139.1086593"><ele>428.3833333333334</ele><time>2025-11-08T02:38:23Z</time></trkpt><trkpt lat="36.1375771" lon="139.108432"><ele>422.33</ele><time>2025-11-08T02:38:52Z</time></trkpt><trkpt lat="36.1377154" lon="139.108286"><ele>417.27</ele><time>2025-11-08T02:39:07Z</time></trkpt><trkpt lat="36.1377502" lon="139.1080664"><ele>409.53999999999996</ele><time>2025-11-08T02:39:47Z</time></trkpt><trkpt lat="36.1379268" lon="139.1079353"><ele>401.1266666666667</ele><time>2025-11-08T02:40:05Z</time></trkpt><trkpt lat="36.1379463" lon="139.1077088"><ele>390.1666666666667</ele><time>2025-11-08T02:40:29Z</time></trkpt><trkpt lat="36.1377557" lon="139.1076729"><ele>382.40333333333336</ele><time>2025-11-08T02:40:50Z</time></trkpt><trkpt lat="36.1376151" lon="139.1075303"><ele>377.7833333333333</ele><time>2025-11-08T02:41:14Z</time></trkpt><trkpt lat="36.1374412" lon="139.107328"><ele>376.2266666666667</ele><time>2025-11-08T02:41:29Z</time></trkpt><trkpt lat="36.1374704" lon="139.1070504"><ele>373.8966666666667</ele><time>2025-11-08T02:41:47Z</time></trkpt><trkpt lat="36.1374991" lon="139.1068298"><ele>372.48</ele><time>2025-11-08T02:42:17Z</time></trkpt><trkpt lat="36.1373268" lon="139.1069626"><ele>373.0566666666667</ele><time>2025-11-08T02:43:23Z</time></trkpt><trkpt lat="36.1371523" lon="139.1068221"><ele>379.4866666666667</ele><time>2025-11-08T02:44:23Z</time></trkpt><trkpt lat="36.1370777" lon="139.1065664"><ele>389.1766666666667</ele><time>2025-11-08T02:45:05Z</time></trkpt><trkpt lat="36.1370683" lon="139.1063335"><ele>398.53000000000003</ele><time>2025-11-08T02:45:26Z</time></trkpt><trkpt lat="36.1370169" lon="139.1061179"><ele>404.75666666666666</ele><time>2025-11-08T02:45:46Z</time></trkpt><trkpt lat="36.1370113" lon="139.1058724"><ele>408.37000000000006</ele><time>2025-11-08T02:46:11Z</time></trkpt><trkpt lat="36.1371192" lon="139.1056652"><ele>412.09999999999997</ele><time>2025-11-08T02:46:32Z</time></trkpt><trkpt lat="36.1371667" lon="139.1054213"><ele>415.84999999999997</ele><time>2025-11-08T02:46:53Z</time></trkpt><trkpt lat="36.1371695" lon="139.1051766"><ele>419.74</ele><time>2025-11-08T02:47:20Z</time></trkpt><trkpt lat="36.1371357" lon="139.1049523"><ele>424.10999999999996</ele><time>2025-11-08T02:47:50Z</time></trkpt><trkpt lat="36.1371936" lon="139.1047339"><ele>427.99333333333334</ele><time>2025-11-08T02:48:35Z</time></trkpt><trkpt lat="36.1371648" lon="139.1044983"><ele>432.59666666666664</ele><time>2025-11-08T02:48:50Z</time></trkpt><trkpt lat="36.1372368" lon="139.1042816"><ele>436.59</ele><time>2025-11-08T02:49:14Z</time></trkpt><trkpt lat="36.1371268" lon="139.1040637"><ele>440.3533333333333</ele><time>2025-11-08T02:49:38Z</time></trkpt><trkpt lat="36.1371305" lon="139.1038324"><ele>442.25333333333333</ele><time>2025-11-08T02:50:02Z</time></trkpt><trkpt lat="36.1370504" lon="139.1036264"><ele>445.2633333333333</ele><time>2025-11-08T02:50:20Z</time></trkpt><trkpt lat="36.1369903" lon="139.1034123"><ele>447.7</ele><time>2025-11-08T02:50:44Z</time></trkpt><trkpt lat="36.1369337" lon="139.1031689"><ele>448.56333333333333</ele><time>2025-11-08T02:51:02Z</time></trkpt><trkpt lat="36.136784" lon="139.1029997"><ele>448.46000000000004</ele><time>2025-11-08T02:51:20Z</time></trkpt><trkpt lat="36.1366431" lon="139.1028286"><ele>448.5366666666667</ele><time>2025-11-08T02:51:38Z</time></trkpt><trkpt lat="36.1365276" lon="139.1026287"><ele>449.7866666666667</ele><time>2025-11-08T02:51:53Z</time></trkpt><trkpt lat="36.1364984" lon="139.1023887"><ele>447.52333333333337</ele><time>2025-11-08T02:52:14Z</time></trkpt><trkpt lat="36.1364493" lon="139.1021515"><ele>441.7866666666667</ele><time>2025-11-08T02:52:35Z</time></trkpt><trkpt lat="36.1364886" lon="139.1019278"><ele>433.99</ele><time>2025-11-08T02:53:02Z</time></trkpt><trkpt lat="36.1364804" lon="139.101671"><ele>429.99333333333334</ele><time>2025-11-08T02:53:23Z</time></trkpt><trkpt lat="36.1364326" lon="139.1014488"><ele>429.0133333333333</ele><time>2025-11-08T02:53:56Z</time></trkpt><trkpt lat="36.1364386" lon="139.1012031"><ele>431.51</ele><time>2025-11-08T02:54:29Z</time></trkpt><trkpt lat="36.1364072" lon="139.1009798"><ele>435.67333333333335</ele><time>2025-11-08T02:54:47Z</time></trkpt><trkpt lat="36.1363413" lon="139.1007681"><ele>441.3933333333334</ele><time>2025-11-08T02:55:05Z</time></trkpt><trkpt lat="36.1362162" lon="139.1005826"><ele>447.91</ele><time>2025-11-08T02:55:50Z</time></trkpt><trkpt lat="36.1361385" lon="139.1003516"><ele>453.59666666666664</ele><time>2025-11-08T02:56:26Z</time></trkpt><trkpt lat="36.1362187" lon="139.1001472"><ele>459.75666666666666</ele><time>2025-11-08T02:56:50Z</time></trkpt><trkpt lat="36.1363671" lon="139.1000015"><ele>464.88000000000005</ele><time>2025-11-08T02:57:29Z</time></trkpt><trkpt lat="36.136533" lon="139.0998933"><ele>468.84</ele><time>2025-11-08T02:58:02Z</time></trkpt><trkpt lat="36.136705" lon="139.0997819"><ele>471.7</ele><time>2025-11-08T02:58:32Z</time></trkpt><trkpt lat="36.1368791" lon="139.0996847"><ele>474.6366666666667</ele><time>2025-11-08T02:58:53Z</time></trkpt><trkpt lat="36.1370569" lon="139.0995845"><ele>478.24666666666667</ele><time>2025-11-08T02:59:14Z</time></trkpt><trkpt lat="36.1372267" lon="139.0994865"><ele>481.7033333333334</ele><time>2025-11-08T02:59:35Z</time></trkpt><trkpt lat="36.1373558" lon="139.0993291"><ele>485.12000000000006</ele><time>2025-11-08T02:59:55Z</time></trkpt><trkpt lat="36.137528" lon="139.099211"><ele>488.1933333333334</ele><time>2025-11-08T03:00:23Z</time></trkpt><trkpt lat="36.1376413" lon="139.0990152"><ele>492.23</ele><time>2025-11-08T03:01:02Z</time></trkpt><trkpt lat="36.1376919" lon="139.0987875"><ele>495.8766666666667</ele><time>2025-11-08T03:01:41Z</time></trkpt><trkpt lat="36.1376765" lon="139.0985381"><ele>498.9333333333334</ele><time>2025-11-08T03:02:02Z</time></trkpt><trkpt lat="36.137724" lon="139.0982918"><ele>500.3333333333333</ele><time>2025-11-08T03:02:23Z</time></trkpt><trkpt lat="36.1377432" lon="139.0980527"><ele>500.67666666666673</ele><time>2025-11-08T03:02:41Z</time></trkpt><trkpt lat="36.1377429" lon="139.097805"><ele>500.22333333333336</ele><time>2025-11-08T03:02:59Z</time></trkpt><trkpt lat="36.1377249" lon="139.0975305"><ele>499.2266666666667</ele><time>2025-11-08T03:03:22Z</time></trkpt><trkpt lat="36.1377268" lon="139.0973078"><ele>498.49333333333334</ele><time>2025-11-08T03:03:40Z</time></trkpt><trkpt lat="36.137693" lon="139.0970578"><ele>499.33666666666664</ele><time>2025-11-08T03:04:02Z</time></trkpt><trkpt lat="36.1377194" lon="139.0968344"><ele>503.3</ele><time>2025-11-08T03:04:23Z</time></trkpt><trkpt lat="36.1378091" lon="139.0966267"><ele>509.4533333333334</ele><time>2025-11-08T03:04:53Z</time></trkpt><trkpt lat="36.1378801" lon="139.0964159"><ele>516.5433333333334</ele><time>2025-11-08T03:05:26Z</time></trkpt><trkpt lat="36.1378716" lon="139.0961701"><ele>523.4833333333333</ele><time>2025-11-08T03:05:53Z</time></trkpt><trkpt lat="36.1378629" lon="139.0959391"><ele>530.3933333333333</ele><time>2025-11-08T03:06:20Z</time></trkpt><trkpt lat="36.1379017" lon="139.0957089"><ele>537.33</ele><time>2025-11-08T03:07:02Z</time></trkpt><trkpt lat="36.1377871" lon="139.0955318"><ele>542.6366666666668</ele><time>2025-11-08T03:08:14Z</time></trkpt><trkpt lat="36.1376141" lon="139.0954019"><ele>544.4033333333333</ele><time>2025-11-08T03:08:35Z</time></trkpt><trkpt lat="36.1374476" lon="139.0952902"><ele>543.1533333333333</ele><time>2025-11-08T03:08:53Z</time></trkpt><trkpt lat="36.1372958" lon="139.0951388"><ele>538.9633333333333</ele><time>2025-11-08T03:09:20Z</time></trkpt><trkpt lat="36.1370887" lon="139.0951351"><ele>534.6733333333333</ele><time>2025-11-08T03:10:25Z</time></trkpt><trkpt lat="36.1370815" lon="139.0948809"><ele>530.0233333333334</ele><time>2025-11-08T03:12:07Z</time></trkpt><trkpt lat="36.137118" lon="139.0946245"><ele>523.8666666666667</ele><time>2025-11-08T03:12:37Z</time></trkpt><trkpt lat="36.1370413" lon="139.0944193"><ele>517.6766666666666</ele><time>2025-11-08T03:13:04Z</time></trkpt><trkpt lat="36.1369188" lon="139.0942099"><ele>511.02000000000004</ele><time>2025-11-08T03:13:34Z</time></trkpt><trkpt lat="36.1368494" lon="139.0939762"><ele>506.84999999999997</ele><time>2025-11-08T03:13:52Z</time></trkpt><trkpt lat="36.1367452" lon="139.0937942"><ele>504.28000000000003</ele><time>2025-11-08T03:14:43Z</time></trkpt><trkpt lat="36.1366977" lon="139.0935189"><ele>501.74</ele><time>2025-11-08T03:15:16Z</time></trkpt><trkpt lat="36.1365047" lon="139.0935064"><ele>501.8933333333334</ele><time>2025-11-08T03:17:01Z</time></trkpt><trkpt lat="36.1363459" lon="139.093354"><ele>503.83666666666664</ele><time>2025-11-08T03:17:16Z</time></trkpt><trkpt lat="36.1361849" lon="139.093188"><ele>508.13000000000005</ele><time>2025-11-08T03:17:31Z</time></trkpt><trkpt lat="36.1360821" lon="139.0929601"><ele>511.24</ele><time>2025-11-08T03:17:49Z</time></trkpt><trkpt lat="36.1360212" lon="139.0927316"><ele>513.0866666666667</ele><time>2025-11-08T03:18:04Z</time></trkpt><trkpt lat="36.1359096" lon="139.0925057"><ele>515.14</ele><time>2025-11-08T03:18:22Z</time></trkpt><trkpt lat="36.1357409" lon="139.0924095"><ele>517.2400000000001</ele><time>2025-11-08T03:18:34Z</time></trkpt><trkpt lat="36.1355589" lon="139.0923515"><ele>518.83</ele><time>2025-11-08T03:19:07Z</time></trkpt><trkpt lat="36.1353838" lon="139.0922417"><ele>518.18</ele><time>2025-11-08T03:19:23Z</time></trkpt><trkpt lat="36.1352052" lon="139.0920943"><ele>516.3466666666667</ele><time>2025-11-08T03:19:38Z</time></trkpt><trkpt lat="36.1350418" lon="139.0919478"><ele>513.6833333333333</ele><time>2025-11-08T03:19:53Z</time></trkpt><trkpt lat="36.1348906" lon="139.091788"><ele>512.1266666666667</ele><time>2025-11-08T03:20:08Z</time></trkpt><trkpt lat="36.134694" lon="139.0917437"><ele>509.78000000000003</ele><time>2025-11-08T03:20:20Z</time></trkpt><trkpt lat="36.1345196" lon="139.0916154"><ele>508.0466666666667</ele><time>2025-11-08T03:20:41Z</time></trkpt><trkpt lat="36.1343728" lon="139.0914674"><ele>505.3933333333334</ele><time>2025-11-08T03:20:56Z</time></trkpt><trkpt lat="36.1342097" lon="139.091316"><ele>504.92666666666673</ele><time>2025-11-08T03:21:11Z</time></trkpt><trkpt lat="36.1340037" lon="139.0912083"><ele>502.8833333333334</ele><time>2025-11-08T03:21:28Z</time></trkpt><trkpt lat="36.133811" lon="139.0911053"><ele>502.3633333333334</ele><time>2025-11-08T03:21:43Z</time></trkpt><trkpt lat="36.1336143" lon="139.0910222"><ele>499.40666666666675</ele><time>2025-11-08T03:22:05Z</time></trkpt><trkpt lat="36.133508" lon="139.0908386"><ele>498.1833333333334</ele><time>2025-11-08T03:22:17Z</time></trkpt><trkpt lat="36.1334071" lon="139.0906355"><ele>495.81666666666666</ele><time>2025-11-08T03:22:31Z</time></trkpt><trkpt lat="36.1333401" lon="139.0903608"><ele>495.37000000000006</ele><time>2025-11-08T03:23:08Z</time></trkpt><trkpt lat="36.1332361" lon="139.0901633"><ele>494.08666666666664</ele><time>2025-11-08T03:23:22Z</time></trkpt><trkpt lat="36.1330768" lon="139.0899761"><ele>491.77000000000004</ele><time>2025-11-08T03:23:37Z</time></trkpt><trkpt lat="36.1329166" lon="139.0898163"><ele>488.40333333333336</ele><time>2025-11-08T03:23:54Z</time></trkpt><trkpt lat="36.1327594" lon="139.0896644"><ele>485.3733333333334</ele><time>2025-11-08T03:24:06Z</time></trkpt><trkpt lat="36.1326128" lon="139.0895273"><ele>483.7866666666667</ele><time>2025-11-08T03:24:17Z</time></trkpt><trkpt lat="36.1324157" lon="139.0894326"><ele>482.07666666666665</ele><time>2025-11-08T03:24:35Z</time></trkpt><trkpt lat="36.1322211" lon="139.0893859"><ele>479.68666666666667</ele><time>2025-11-08T03:24:46Z</time></trkpt><trkpt lat="36.1320493" lon="139.0892454"><ele>475.26</ele><time>2025-11-08T03:25:03Z</time></trkpt><trkpt lat="36.1319275" lon="139.0890724"><ele>471.50666666666666</ele><time>2025-11-08T03:25:15Z</time></trkpt><trkpt lat="36.131847" lon="139.0888467"><ele>468.55</ele><time>2025-11-08T03:25:29Z</time></trkpt><trkpt lat="36.1317457" lon="139.0886459"><ele>466.5233333333333</ele><time>2025-11-08T03:25:37Z</time></trkpt><trkpt lat="36.1316194" lon="139.0884695"><ele>463.24</ele><time>2025-11-08T03:25:52Z</time></trkpt><trkpt lat="36.1315669" lon="139.0882258"><ele>460.5466666666667</ele><time>2025-11-08T03:26:06Z</time></trkpt><trkpt lat="36.1316472" lon="139.0879745"><ele>458.87000000000006</ele><time>2025-11-08T03:26:24Z</time></trkpt><trkpt lat="36.1318052" lon="139.0878039"><ele>458.00333333333333</ele><time>2025-11-08T03:26:41Z</time></trkpt><trkpt lat="36.1319811" lon="139.0876707"><ele>456.3999999999999</ele><time>2025-11-08T03:26:56Z</time></trkpt><trkpt lat="36.1321816" lon="139.0875454"><ele>454.3966666666667</ele><time>2025-11-08T03:27:11Z</time></trkpt><trkpt lat="36.1321497" lon="139.0872769"><ele>451.67333333333335</ele><time>2025-11-08T03:27:26Z</time></trkpt><trkpt lat="36.1319858" lon="139.087116"><ele>448.99333333333334</ele><time>2025-11-08T03:27:47Z</time></trkpt><trkpt lat="36.1317863" lon="139.0871838"><ele>446.8966666666667</ele><time>2025-11-08T03:28:05Z</time></trkpt><trkpt lat="36.1315867" lon="139.0872305"><ele>445.15333333333336</ele><time>2025-11-08T03:28:22Z</time></trkpt><trkpt lat="36.1313866" lon="139.087311"><ele>443.96333333333337</ele><time>2025-11-08T03:28:40Z</time></trkpt><trkpt lat="36.1311785" lon="139.0873451"><ele>443.2966666666667</ele><time>2025-11-08T03:28:54Z</time></trkpt><trkpt lat="36.1309677" lon="139.0873469"><ele>443.6033333333333</ele><time>2025-11-08T03:29:09Z</time></trkpt><trkpt lat="36.1307777" lon="139.0872927"><ele>443.16</ele><time>2025-11-08T03:29:21Z</time></trkpt><trkpt lat="36.1305912" lon="139.0871973"><ele>442.02</ele><time>2025-11-08T03:29:35Z</time></trkpt><trkpt lat="36.1304153" lon="139.0871053"><ele>440.35999999999996</ele><time>2025-11-08T03:29:47Z</time></trkpt><trkpt lat="36.1302142" lon="139.0870405"><ele>438.9466666666667</ele><time>2025-11-08T03:30:01Z</time></trkpt><trkpt lat="36.1299935" lon="139.0869931"><ele>437.26666666666665</ele><time>2025-11-08T03:30:19Z</time></trkpt><trkpt lat="36.1298019" lon="139.0869344"><ele>437.09666666666664</ele><time>2025-11-08T03:30:33Z</time></trkpt><trkpt lat="36.1296404" lon="139.0867948"><ele>435.1966666666667</ele><time>2025-11-08T03:30:47Z</time></trkpt><trkpt lat="36.1294657" lon="139.0866452"><ele>432.9866666666667</ele><time>2025-11-08T03:31:02Z</time></trkpt><trkpt lat="36.1293045" lon="139.0864667"><ele>429.47</ele><time>2025-11-08T03:31:16Z</time></trkpt><trkpt lat="36.1290999" lon="139.0864116"><ele>428.78000000000003</ele><time>2025-11-08T03:31:34Z</time></trkpt><trkpt lat="36.1289187" lon="139.0864878"><ele>429.66333333333336</ele><time>2025-11-08T03:31:48Z</time></trkpt><trkpt lat="36.1287112" lon="139.0865763"><ele>429.46333333333337</ele><time>2025-11-08T03:32:02Z</time></trkpt><trkpt lat="36.1285696" lon="139.086718"><ele>427.1933333333333</ele><time>2025-11-08T03:32:17Z</time></trkpt><trkpt lat="36.1284345" lon="139.0869235"><ele>421.8166666666666</ele><time>2025-11-08T03:32:31Z</time></trkpt><trkpt lat="36.128313" lon="139.0870972"><ele>416.8233333333333</ele><time>2025-11-08T03:32:46Z</time></trkpt><trkpt lat="36.1281102" lon="139.0871203"><ele>413.4433333333333</ele><time>2025-11-08T03:33:26Z</time></trkpt><trkpt lat="36.1278752" lon="139.0870969"><ele>412.7966666666667</ele><time>2025-11-08T03:33:45Z</time></trkpt><trkpt lat="36.1276671" lon="139.0871567"><ele>413.51000000000005</ele><time>2025-11-08T03:34:00Z</time></trkpt><trkpt lat="36.1274863" lon="139.0870902"><ele>414.2733333333333</ele><time>2025-11-08T03:34:12Z</time></trkpt><trkpt lat="36.1272839" lon="139.0870048"><ele>414.6166666666666</ele><time>2025-11-08T03:34:26Z</time></trkpt><trkpt lat="36.1270913" lon="139.0869199"><ele>414.2866666666667</ele><time>2025-11-08T03:34:41Z</time></trkpt><trkpt lat="36.1268925" lon="139.0868963"><ele>413.09666666666664</ele><time>2025-11-08T03:34:56Z</time></trkpt><trkpt lat="36.1267172" lon="139.0869601"><ele>412.64333333333326</ele><time>2025-11-08T03:35:08Z</time></trkpt><trkpt lat="36.1265366" lon="139.086873"><ele>411.12999999999994</ele><time>2025-11-08T03:35:23Z</time></trkpt><trkpt lat="36.1263232" lon="139.0868294"><ele>410.8066666666667</ele><time>2025-11-08T03:35:41Z</time></trkpt><trkpt lat="36.1261078" lon="139.0867306"><ele>406.57666666666665</ele><time>2025-11-08T03:35:59Z</time></trkpt><trkpt lat="36.125948" lon="139.0865434"><ele>402.08</ele><time>2025-11-08T03:36:12Z</time></trkpt><trkpt lat="36.1257817" lon="139.0863912"><ele>395.07</ele><time>2025-11-08T03:36:30Z</time></trkpt><trkpt lat="36.1255936" lon="139.0864371"><ele>391.84666666666664</ele><time>2025-11-08T03:36:49Z</time></trkpt><trkpt lat="36.1254366" lon="139.0865555"><ele>389.00666666666666</ele><time>2025-11-08T03:37:10Z</time></trkpt><trkpt lat="36.1252465" lon="139.0866672"><ele>389.5333333333333</ele><time>2025-11-08T03:37:28Z</time></trkpt><trkpt lat="36.1250552" lon="139.0866628"><ele>389.2966666666667</ele><time>2025-11-08T03:37:42Z</time></trkpt><trkpt lat="36.1248447" lon="139.0865882"><ele>387.01</ele><time>2025-11-08T03:37:57Z</time></trkpt><trkpt lat="36.1246423" lon="139.0865569"><ele>383.02</ele><time>2025-11-08T03:38:13Z</time></trkpt><trkpt lat="36.1244423" lon="139.086527"><ele>380.1333333333334</ele><time>2025-11-08T03:38:31Z</time></trkpt><trkpt lat="36.1242774" lon="139.0864274"><ele>380.40000000000003</ele><time>2025-11-08T03:38:46Z</time></trkpt><trkpt lat="36.1240933" lon="139.0862792"><ele>379.33666666666664</ele><time>2025-11-08T03:39:04Z</time></trkpt><trkpt lat="36.1239468" lon="139.0860936"><ele>376.8766666666667</ele><time>2025-11-08T03:39:19Z</time></trkpt><trkpt lat="36.1238821" lon="139.085869"><ele>372.6266666666667</ele><time>2025-11-08T03:39:33Z</time></trkpt><trkpt lat="36.123851" lon="139.0856433"><ele>370.08666666666664</ele><time>2025-11-08T03:39:55Z</time></trkpt><trkpt lat="36.1237013" lon="139.085493"><ele>368.09666666666664</ele><time>2025-11-08T03:40:09Z</time></trkpt><trkpt lat="36.1235" lon="139.0854315"><ele>368.85999999999996</ele><time>2025-11-08T03:40:27Z</time></trkpt><trkpt lat="36.1233172" lon="139.0853071"><ele>369.41</ele><time>2025-11-08T03:40:41Z</time></trkpt><trkpt lat="36.1231493" lon="139.0851585"><ele>370.56333333333333</ele><time>2025-11-08T03:40:56Z</time></trkpt><trkpt lat="36.1229848" lon="139.0850449"><ele>371.07666666666665</ele><time>2025-11-08T03:41:28Z</time></trkpt><trkpt lat="36.1227986" lon="139.0848964"><ele>370.82</ele><time>2025-11-08T03:41:46Z</time></trkpt><trkpt lat="36.1226158" lon="139.0849034"><ele>367.25666666666666</ele><time>2025-11-08T03:41:58Z</time></trkpt><trkpt lat="36.1224534" lon="139.0848028"><ele>362.9566666666667</ele><time>2025-11-08T03:42:10Z</time></trkpt><trkpt lat="36.1222817" lon="139.0847347"><ele>359.3733333333333</ele><time>2025-11-08T03:42:25Z</time></trkpt><trkpt lat="36.1221161" lon="139.0845943"><ele>358.34666666666664</ele><time>2025-11-08T03:42:40Z</time></trkpt><trkpt lat="36.1219877" lon="139.084397"><ele>357.7033333333334</ele><time>2025-11-08T03:42:57Z</time></trkpt><trkpt lat="36.1218781" lon="139.0842173"><ele>357.3766666666667</ele><time>2025-11-08T03:43:06Z</time></trkpt><trkpt lat="36.1216991" lon="139.0841619"><ele>355.84666666666664</ele><time>2025-11-08T03:43:19Z</time></trkpt><trkpt lat="36.1216019" lon="139.0839556"><ele>353.65000000000003</ele><time>2025-11-08T03:44:34Z</time></trkpt><trkpt lat="36.1214912" lon="139.0837751"><ele>350.4166666666667</ele><time>2025-11-08T03:44:49Z</time></trkpt><trkpt lat="36.1213286" lon="139.0836774"><ele>348.63000000000005</ele><time>2025-11-08T03:45:04Z</time></trkpt><trkpt lat="36.1210953" lon="139.0837157"><ele>346.49666666666667</ele><time>2025-11-08T03:45:41Z</time></trkpt><trkpt lat="36.1209026" lon="139.0836421"><ele>345.60999999999996</ele><time>2025-11-08T03:45:57Z</time></trkpt><trkpt lat="36.1207105" lon="139.08356"><ele>343.9533333333333</ele><time>2025-11-08T03:46:15Z</time></trkpt><trkpt lat="36.1205228" lon="139.0836403"><ele>341.15000000000003</ele><time>2025-11-08T03:46:33Z</time></trkpt><trkpt lat="36.1203138" lon="139.0837007"><ele>336.6866666666667</ele><time>2025-11-08T03:46:47Z</time></trkpt><trkpt lat="36.1201249" lon="139.0836587"><ele>333.06</ele><time>2025-11-08T03:46:56Z</time></trkpt><trkpt lat="36.1199301" lon="139.0836208"><ele>332.74</ele><time>2025-11-08T03:47:14Z</time></trkpt><trkpt lat="36.1197443" lon="139.0836671"><ele>331.75333333333333</ele><time>2025-11-08T03:47:28Z</time></trkpt><trkpt lat="36.1195484" lon="139.0837092"><ele>329.59999999999997</ele><time>2025-11-08T03:47:42Z</time></trkpt><trkpt lat="36.119369" lon="139.0837495"><ele>325.9066666666667</ele><time>2025-11-08T03:47:57Z</time></trkpt><trkpt lat="36.1192015" lon="139.0838643"><ele>324.12666666666667</ele><time>2025-11-08T03:48:11Z</time></trkpt><trkpt lat="36.1190097" lon="139.0839101"><ele>323.39000000000004</ele><time>2025-11-08T03:48:26Z</time></trkpt><trkpt lat="36.1188231" lon="139.0839761"><ele>323.01666666666665</ele><time>2025-11-08T03:48:40Z</time></trkpt><trkpt lat="36.1186949" lon="139.0841443"><ele>322.68666666666667</ele><time>2025-11-08T03:49:28Z</time></trkpt><trkpt lat="36.1185569" lon="139.0843106"><ele>320.8566666666666</ele><time>2025-11-08T03:49:55Z</time></trkpt><trkpt lat="36.1183811" lon="139.0844224"><ele>318.56</ele><time>2025-11-08T03:50:10Z</time></trkpt><trkpt lat="36.1185108" lon="139.0845895"><ele>312.27666666666664</ele><time>2025-11-08T03:50:43Z</time></trkpt><trkpt lat="36.1184567" lon="139.0848026"><ele>304.97666666666663</ele><time>2025-11-08T03:51:01Z</time></trkpt><trkpt lat="36.1183678" lon="139.0850054"><ele>297.56333333333333</ele><time>2025-11-08T03:51:19Z</time></trkpt><trkpt lat="36.1183394" lon="139.0852508"><ele>292.5366666666667</ele><time>2025-11-08T03:51:52Z</time></trkpt><trkpt lat="36.1182366" lon="139.0854373"><ele>289.1033333333333</ele><time>2025-11-08T03:52:10Z</time></trkpt><trkpt lat="36.1181884" lon="139.0856538"><ele>284.6433333333334</ele><time>2025-11-08T03:52:37Z</time></trkpt><trkpt lat="36.1180474" lon="139.0858239"><ele>281.37333333333333</ele><time>2025-11-08T03:52:52Z</time></trkpt><trkpt lat="36.1178672" lon="139.0859519"><ele>278.53999999999996</ele><time>2025-11-08T03:53:07Z</time></trkpt><trkpt lat="36.1179046" lon="139.0862139"><ele>275.5133333333334</ele><time>2025-11-08T03:53:40Z</time></trkpt><trkpt lat="36.1179006" lon="139.0864518"><ele>272.66333333333336</ele><time>2025-11-08T03:54:01Z</time></trkpt><trkpt lat="36.1179767" lon="139.0866705"><ele>268.13000000000005</ele><time>2025-11-08T03:54:25Z</time></trkpt><trkpt lat="36.1180926" lon="139.0868805"><ele>263.4866666666667</ele><time>2025-11-08T03:54:51Z</time></trkpt><trkpt lat="36.1181912" lon="139.0870829"><ele>256.99000000000007</ele><time>2025-11-08T03:55:16Z</time></trkpt><trkpt lat="36.1182351" lon="139.0873207"><ele>250.89333333333335</ele><time>2025-11-08T03:55:37Z</time></trkpt><trkpt lat="36.1182949" lon="139.0875584"><ele>244.65333333333334</ele><time>2025-11-08T03:56:03Z</time></trkpt><trkpt lat="36.118383" lon="139.0877619"><ele>237.92</ele><time>2025-11-08T03:56:27Z</time></trkpt><trkpt lat="36.1185597" lon="139.0878241"><ele>233.10333333333335</ele><time>2025-11-08T03:57:25Z</time></trkpt><trkpt lat="36.1187392" lon="139.0877698"><ele>233.5666666666667</ele><time>2025-11-08T03:58:04Z</time></trkpt><trkpt lat="36.118912" lon="139.0876459"><ele>240.05333333333337</ele><time>2025-11-08T03:58:28Z</time></trkpt><trkpt lat="36.1190837" lon="139.0875351"><ele>247.64666666666668</ele><time>2025-11-08T03:58:46Z</time></trkpt><trkpt lat="36.1190973" lon="139.0872945"><ele>254.70333333333335</ele><time>2025-11-08T03:59:22Z</time></trkpt><trkpt lat="36.1192372" lon="139.0874744"><ele>256.8666666666666</ele><time>2025-11-08T04:00:25Z</time></trkpt><trkpt lat="36.119069" lon="139.0876514"><ele>256.03999999999996</ele><time>2025-11-08T04:01:07Z</time></trkpt><trkpt lat="36.1189046" lon="139.0877718"><ele>251.51</ele><time>2025-11-08T04:01:35Z</time></trkpt><trkpt lat="36.1186961" lon="139.0878029"><ele>245.49</ele><time>2025-11-08T04:01:51Z</time></trkpt><trkpt lat="36.1185284" lon="139.0879084"><ele>238.13000000000002</ele><time>2025-11-08T04:02:06Z</time></trkpt><trkpt lat="36.1183528" lon="139.0879958"><ele>231.41666666666666</ele><time>2025-11-08T04:02:25Z</time></trkpt><trkpt lat="36.1182496" lon="139.0881867"><ele>227.20333333333335</ele><time>2025-11-08T04:02:46Z</time></trkpt><trkpt lat="36.1181291" lon="139.0883842"><ele>226.67999999999998</ele><time>2025-11-08T04:03:04Z</time></trkpt><trkpt lat="36.1180237" lon="139.0885778"><ele>225.41333333333333</ele><time>2025-11-08T04:03:22Z</time></trkpt><trkpt lat="36.1179433" lon="139.0888024"><ele>223.35333333333335</ele><time>2025-11-08T04:03:52Z</time></trkpt><trkpt lat="36.1178925" lon="139.0890516"><ele>220.65</ele><time>2025-11-08T04:04:07Z</time></trkpt><trkpt lat="36.1177745" lon="139.0892266"><ele>219.89666666666668</ele><time>2025-11-08T04:04:19Z</time></trkpt><trkpt lat="36.1176435" lon="139.0893809"><ele>219.1</ele><time>2025-11-08T04:04:37Z</time></trkpt><trkpt lat="36.1175205" lon="139.0895712"><ele>216.26333333333332</ele><time>2025-11-08T04:04:52Z</time></trkpt><trkpt lat="36.1175067" lon="139.0897976"><ele>213.83333333333334</ele><time>2025-11-08T04:05:34Z</time></trkpt><trkpt lat="36.1174128" lon="139.0900257"><ele>211.8033333333333</ele><time>2025-11-08T04:05:49Z</time></trkpt><trkpt lat="36.1173645" lon="139.0902712"><ele>211.77666666666664</ele><time>2025-11-08T04:06:07Z</time></trkpt><trkpt lat="36.1174363" lon="139.0904883"><ele>211.09</ele><time>2025-11-08T04:06:25Z</time></trkpt><trkpt lat="36.117529" lon="139.0906801"><ele>211.36666666666667</ele><time>2025-11-08T04:06:43Z</time></trkpt><trkpt lat="36.1175514" lon="139.0909063"><ele>209.29</ele><time>2025-11-08T04:07:07Z</time></trkpt><trkpt lat="36.1174826" lon="139.0911412"><ele>205.08</ele><time>2025-11-08T04:07:19Z</time></trkpt><trkpt lat="36.1173828" lon="139.0913657"><ele>200.35000000000002</ele><time>2025-11-08T04:07:34Z</time></trkpt><trkpt lat="36.1173884" lon="139.0916082"><ele>198.04666666666665</ele><time>2025-11-08T04:07:49Z</time></trkpt><trkpt lat="36.1173989" lon="139.0918557"><ele>197.11666666666667</ele><time>2025-11-08T04:08:04Z</time></trkpt><trkpt lat="36.1174057" lon="139.0921024"><ele>195.57000000000002</ele><time>2025-11-08T04:08:25Z</time></trkpt><trkpt lat="36.1174189" lon="139.092336"><ele>193.07666666666668</ele><time>2025-11-08T04:08:43Z</time></trkpt><trkpt lat="36.1175543" lon="139.0925139"><ele>191.5633333333333</ele><time>2025-11-08T04:09:01Z</time></trkpt><trkpt lat="36.1176297" lon="139.092728"><ele>190.27</ele><time>2025-11-08T04:09:19Z</time></trkpt><trkpt lat="36.1175998" lon="139.0930153"><ele>188.54999999999998</ele><time>2025-11-08T04:09:52Z</time></trkpt><trkpt lat="36.1175913" lon="139.0932724"><ele>185.87</ele><time>2025-11-08T04:10:16Z</time></trkpt><trkpt lat="36.1175974" lon="139.0935229"><ele>184.01999999999998</ele><time>2025-11-08T04:10:36Z</time></trkpt><trkpt lat="36.1175208" lon="139.0937571"><ele>183.11666666666665</ele><time>2025-11-08T04:10:55Z</time></trkpt><trkpt lat="36.1175223" lon="139.0939937"><ele>182.45666666666668</ele><time>2025-11-08T04:11:16Z</time></trkpt><trkpt lat="36.1174488" lon="139.0942322"><ele>179.91333333333333</ele><time>2025-11-08T04:12:07Z</time></trkpt><trkpt lat="36.1173903" lon="139.0944505"><ele>176.88666666666668</ele><time>2025-11-08T04:12:28Z</time></trkpt><trkpt lat="36.1172572" lon="139.0946237"><ele>173.08666666666667</ele><time>2025-11-08T04:12:46Z</time></trkpt><trkpt lat="36.1172165" lon="139.0948476"><ele>171.82000000000002</ele><time>2025-11-08T04:13:04Z</time></trkpt><trkpt lat="36.1171793" lon="139.0950679"><ele>170.89333333333335</ele><time>2025-11-08T04:13:19Z</time></trkpt><trkpt lat="36.1171341" lon="139.0952968"><ele>170.26666666666668</ele><time>2025-11-08T04:13:31Z</time></trkpt><trkpt lat="36.1170749" lon="139.0955511"><ele>168.87000000000003</ele><time>2025-11-08T04:13:46Z</time></trkpt><trkpt lat="36.1170929" lon="139.0957923"><ele>169.45666666666668</ele><time>2025-11-08T04:14:12Z</time></trkpt><trkpt lat="36.1170764" lon="139.0960546"><ele>170.93666666666664</ele><time>2025-11-08T04:14:30Z</time></trkpt><trkpt lat="36.1169677" lon="139.096248"><ele>172.62</ele><time>2025-11-08T04:14:45Z</time></trkpt><trkpt lat="36.1167433" lon="139.0963348"><ele>171.5</ele><time>2025-11-08T04:15:22Z</time></trkpt><trkpt lat="36.1166545" lon="139.0965409"><ele>168.58333333333334</ele><time>2025-11-08T04:15:40Z</time></trkpt><trkpt lat="36.1166987" lon="139.09677"><ele>165.99666666666667</ele><time>2025-11-08T04:15:58Z</time></trkpt><trkpt lat="36.1166921" lon="139.0970136"><ele>164.53333333333333</ele><time>2025-11-08T04:16:16Z</time></trkpt><trkpt lat="36.116691" lon="139.0972777"><ele>163.31</ele><time>2025-11-08T04:16:37Z</time></trkpt><trkpt lat="36.116664" lon="139.0975182"><ele>161.40666666666667</ele><time>2025-11-08T04:16:52Z</time></trkpt><trkpt lat="36.1165894" lon="139.0977735"><ele>159.21666666666667</ele><time>2025-11-08T04:17:11Z</time></trkpt><trkpt lat="36.1166098" lon="139.0980107"><ele>158.4</ele><time>2025-11-08T04:17:29Z</time></trkpt><trkpt lat="36.1164688" lon="139.0982134"><ele>157.35333333333335</ele><time>2025-11-08T04:17:53Z</time></trkpt><trkpt lat="36.1165347" lon="139.0984659"><ele>157.07666666666668</ele><time>2025-11-08T04:18:02Z</time></trkpt><trkpt lat="36.1165027" lon="139.0986906"><ele>156.48666666666668</ele><time>2025-11-08T04:18:14Z</time></trkpt><trkpt lat="36.1163567" lon="139.0988681"><ele>155.92</ele><time>2025-11-08T04:18:29Z</time></trkpt><trkpt lat="36.1161762" lon="139.098955"><ele>154.69</ele><time>2025-11-08T04:18:44Z</time></trkpt><trkpt lat="36.1160124" lon="139.0991741"><ele>153.04</ele><time>2025-11-08T04:19:03Z</time></trkpt><trkpt lat="36.1160347" lon="139.0994056"><ele>151.8</ele><time>2025-11-08T04:19:17Z</time></trkpt><trkpt lat="36.1160933" lon="139.0996576"><ele>151.15333333333334</ele><time>2025-11-08T04:19:35Z</time></trkpt><trkpt lat="36.116205" lon="139.0998678"><ele>151.5533333333333</ele><time>2025-11-08T04:19:48Z</time></trkpt><trkpt lat="36.1162971" lon="139.1000988"><ele>151.78333333333333</ele><time>2025-11-08T04:20:03Z</time></trkpt><trkpt lat="36.1164214" lon="139.1003249"><ele>151.86666666666665</ele><time>2025-11-08T04:20:18Z</time></trkpt><trkpt lat="36.1165297" lon="139.1005412"><ele>151.20666666666668</ele><time>2025-11-08T04:20:36Z</time></trkpt><trkpt lat="36.1165759" lon="139.100759"><ele>149.54</ele><time>2025-11-08T04:20:56Z</time></trkpt><trkpt lat="36.1165873" lon="139.1010143"><ele>147.09</ele><time>2025-11-08T04:21:13Z</time></trkpt><trkpt lat="36.1165627" lon="139.1012487"><ele>145.61333333333334</ele><time>2025-11-08T04:21:22Z</time></trkpt><trkpt lat="36.1165821" lon="139.1014861"><ele>145.84</ele><time>2025-11-08T04:21:36Z</time></trkpt><trkpt lat="36.1166977" lon="139.1016946"><ele>146.93333333333334</ele><time>2025-11-08T04:21:54Z</time></trkpt><trkpt lat="36.1168248" lon="139.1019213"><ele>147.18333333333334</ele><time>2025-11-08T04:22:08Z</time></trkpt><trkpt lat="36.1169292" lon="139.102122"><ele>147.20000000000002</ele><time>2025-11-08T04:22:23Z</time></trkpt><trkpt lat="36.1170486" lon="139.1023408"><ele>146.73666666666668</ele><time>2025-11-08T04:22:38Z</time></trkpt><trkpt lat="36.1171581" lon="139.1025228"><ele>146.2266666666667</ele><time>2025-11-08T04:22:50Z</time></trkpt><trkpt lat="36.1172676" lon="139.1027115"><ele>146.17999999999998</ele><time>2025-11-08T04:23:04Z</time></trkpt><trkpt lat="36.1173286" lon="139.1029388"><ele>146.56</ele><time>2025-11-08T04:23:16Z</time></trkpt><trkpt lat="36.1174033" lon="139.1031572"><ele>147.28</ele><time>2025-11-08T04:23:30Z</time></trkpt><trkpt lat="36.1173668" lon="139.1034264"><ele>147.79666666666665</ele><time>2025-11-08T04:23:45Z</time></trkpt><trkpt lat="36.1173664" lon="139.1036565"><ele>148.71666666666667</ele><time>2025-11-08T04:23:59Z</time></trkpt><trkpt lat="36.1174225" lon="139.1038986"><ele>149.79</ele><time>2025-11-08T04:24:24Z</time></trkpt><trkpt lat="36.1175184" lon="139.1041166"><ele>149.02333333333334</ele><time>2025-11-08T04:24:38Z</time></trkpt><trkpt lat="36.1175311" lon="139.1043404"><ele>147.57666666666668</ele><time>2025-11-08T04:24:56Z</time></trkpt><trkpt lat="36.1175681" lon="139.1045723"><ele>145.25</ele><time>2025-11-08T04:25:10Z</time></trkpt><trkpt lat="36.1175329" lon="139.1048327"><ele>144.35333333333332</ele><time>2025-11-08T04:25:22Z</time></trkpt><trkpt lat="36.1174673" lon="139.1050593"><ele>143.49666666666667</ele><time>2025-11-08T04:25:36Z</time></trkpt><trkpt lat="36.1173933" lon="139.1053035"><ele>143.21666666666667</ele><time>2025-11-08T04:25:51Z</time></trkpt><trkpt lat="36.1173027" lon="139.1055476"><ele>142.66</ele><time>2025-11-08T04:26:08Z</time></trkpt><trkpt lat="36.1172449" lon="139.1057707"><ele>142.54666666666665</ele><time>2025-11-08T04:26:19Z</time></trkpt><trkpt lat="36.1172139" lon="139.1059943"><ele>142.82666666666668</ele><time>2025-11-08T04:26:31Z</time></trkpt><trkpt lat="36.1170577" lon="139.106162"><ele>143.76666666666668</ele><time>2025-11-08T04:26:48Z</time></trkpt><trkpt lat="36.1168578" lon="139.1062226"><ele>144.66333333333333</ele><time>2025-11-08T04:27:03Z</time></trkpt><trkpt lat="36.116628" lon="139.1062286"><ele>144.91666666666666</ele><time>2025-11-08T04:27:20Z</time></trkpt><trkpt lat="36.1164301" lon="139.1062171"><ele>144.61666666666667</ele><time>2025-11-08T04:27:34Z</time></trkpt><trkpt lat="36.1162217" lon="139.1061974"><ele>143.87666666666667</ele><time>2025-11-08T04:27:49Z</time></trkpt><trkpt lat="36.1160253" lon="139.1061646"><ele>142.92666666666665</ele><time>2025-11-08T04:28:06Z</time></trkpt><trkpt lat="36.1158318" lon="139.1061374"><ele>141.72</ele><time>2025-11-08T04:28:18Z</time></trkpt><trkpt lat="36.1156388" lon="139.1061268"><ele>140.52333333333334</ele><time>2025-11-08T04:28:36Z</time></trkpt><trkpt lat="36.115456" lon="139.1061164"><ele>139.7433333333333</ele><time>2025-11-08T04:28:51Z</time></trkpt><trkpt lat="36.1152557" lon="139.1060827"><ele>139.19</ele><time>2025-11-08T04:29:06Z</time></trkpt><trkpt lat="36.1150659" lon="139.106083"><ele>138.85</ele><time>2025-11-08T04:29:24Z</time></trkpt><trkpt lat="36.1148749" lon="139.1060259"><ele>138.68</ele><time>2025-11-08T04:29:39Z</time></trkpt><trkpt lat="36.114656" lon="139.1060151"><ele>138.65666666666667</ele><time>2025-11-08T04:29:54Z</time></trkpt><trkpt lat="36.1144778" lon="139.1059722"><ele>138.69333333333336</ele><time>2025-11-08T04:30:12Z</time></trkpt><trkpt lat="36.1142828" lon="139.1059574"><ele>138.78</ele><time>2025-11-08T04:30:27Z</time></trkpt><trkpt lat="36.1140969" lon="139.1059994"><ele>138.80999999999997</ele><time>2025-11-08T04:30:42Z</time></trkpt><trkpt lat="36.1139345" lon="139.1060981"><ele>138.73666666666668</ele><time>2025-11-08T04:30:57Z</time></trkpt><trkpt lat="36.1137538" lon="139.1062038"><ele>138.54666666666665</ele><time>2025-11-08T04:31:12Z</time></trkpt><trkpt lat="36.113568" lon="139.1062619"><ele>138.39333333333335</ele><time>2025-11-08T04:31:30Z</time></trkpt><trkpt lat="36.1133812" lon="139.1063696"><ele>138.29999999999998</ele><time>2025-11-08T04:31:45Z</time></trkpt><trkpt lat="36.1131893" lon="139.106482"><ele>138.28</ele><time>2025-11-08T04:32:00Z</time></trkpt><trkpt lat="36.1130006" lon="139.1065982"><ele>138.32333333333332</ele><time>2025-11-08T04:32:18Z</time></trkpt><trkpt lat="36.1128292" lon="139.1066932"><ele>138.48</ele><time>2025-11-08T04:32:33Z</time></trkpt><trkpt lat="36.1126459" lon="139.1067913"><ele>138.61666666666667</ele><time>2025-11-08T04:32:51Z</time></trkpt><trkpt lat="36.1124677" lon="139.106909"><ele>138.73</ele><time>2025-11-08T04:33:09Z</time></trkpt><trkpt lat="36.1122987" lon="139.1070104"><ele>138.78666666666666</ele><time>2025-11-08T04:33:27Z</time></trkpt><trkpt lat="36.1121785" lon="139.1072236"><ele>138.83333333333334</ele><time>2025-11-08T04:33:42Z</time></trkpt><trkpt lat="36.1121319" lon="139.1074776"><ele>138.81333333333336</ele><time>2025-11-08T04:34:00Z</time></trkpt><trkpt lat="36.1120835" lon="139.107714"><ele>138.73000000000002</ele><time>2025-11-08T04:34:18Z</time></trkpt><trkpt lat="36.1120656" lon="139.1079406"><ele>138.62</ele><time>2025-11-08T04:34:33Z</time></trkpt><trkpt lat="36.1120269" lon="139.1081798"><ele>138.51333333333332</ele><time>2025-11-08T04:34:48Z</time></trkpt><trkpt lat="36.1119796" lon="139.1084237"><ele>138.40333333333334</ele><time>2025-11-08T04:35:06Z</time></trkpt><trkpt lat="36.1119528" lon="139.1086569"><ele>138.27</ele><time>2025-11-08T04:35:24Z</time></trkpt><trkpt lat="36.1119104" lon="139.1088989"><ele>138.14666666666665</ele><time>2025-11-08T04:35:42Z</time></trkpt><trkpt lat="36.1119062" lon="139.1091219"><ele>138.04</ele><time>2025-11-08T04:35:56Z</time></trkpt><trkpt lat="36.111898" lon="139.1093507"><ele>137.94000000000003</ele><time>2025-11-08T04:36:11Z</time></trkpt><trkpt lat="36.1118508" lon="139.1095755"><ele>137.82666666666668</ele><time>2025-11-08T04:36:23Z</time></trkpt><trkpt lat="36.1118086" lon="139.1098464"><ele>137.70666666666668</ele><time>2025-11-08T04:36:38Z</time></trkpt><trkpt lat="36.1117905" lon="139.1100802"><ele>137.63</ele><time>2025-11-08T04:36:52Z</time></trkpt><trkpt lat="36.1117655" lon="139.1103284"><ele>137.6</ele><time>2025-11-08T04:37:04Z</time></trkpt><trkpt lat="36.1116937" lon="139.1105649"><ele>137.6</ele><time>2025-11-08T04:37:19Z</time></trkpt></trkseg></trk></gpx>