<?xml version='1.0' encoding='UTF-8'?><gpx creator="YAMAP - https://yamap.com" xsi:schemaLocation="http://www.topografix.com/GPX/1/1 http://www.topografix.com/GPX/1/1/gpx.xsd" version="1.1" xmlns="http://www.topografix.com/GPX/1/1" xmlns:xsi="http://www.w3.org/2001/XMLSchema-instance"><metadata><bounds maxlat="36.0189344" maxlon="139.2886172" minlat="36.0013813" minlon="139.1738658"/></metadata><trk><name>笠山（西峰）・堂平山・都幾山</name><number>1</number><trkseg><trkpt lat="36.0165001" lon="139.1738658"><ele>357.7</ele><time>2023-02-24T23:53:10Z</time></trkpt><trkpt lat="36.0163241" lon="139.173957"><ele>357.34000000000003</ele><time>2023-02-24T23:53:45Z</time></trkpt><trkpt lat="36.0161954" lon="139.1741294"><ele>357.11000000000007</ele><time>2023-02-24T23:53:58Z</time></trkpt><trkpt lat="36.0162727" lon="139.1743359"><ele>357.30333333333334</ele><time>2023-02-24T23:54:12Z</time></trkpt><trkpt lat="36.0164293" lon="139.1744573"><ele>359.16</ele><time>2023-02-24T23:54:26Z</time></trkpt><trkpt lat="36.0165129" lon="139.174663"><ele>363.1266666666667</ele><time>2023-02-24T23:54:35Z</time></trkpt><trkpt lat="36.0165277" lon="139.1748864"><ele>366.4466666666667</ele><time>2023-02-24T23:54:48Z</time></trkpt><trkpt lat="36.0165335" lon="139.1751198"><ele>367.93666666666667</ele><time>2023-02-24T23:55:03Z</time></trkpt><trkpt lat="36.0164505" lon="139.1753303"><ele>367.97333333333336</ele><time>2023-02-24T23:55:18Z</time></trkpt><trkpt lat="36.0166353" lon="139.1753637"><ele>368.3533333333333</ele><time>2023-02-24T23:56:00Z</time></trkpt><trkpt lat="36.0168195" lon="139.175409"><ele>369.48333333333335</ele><time>2023-02-24T23:56:13Z</time></trkpt><trkpt lat="36.0169752" lon="139.1755347"><ele>371.22333333333336</ele><time>2023-02-24T23:56:28Z</time></trkpt><trkpt lat="36.0171608" lon="139.175581"><ele>373.85999999999996</ele><time>2023-02-24T23:56:43Z</time></trkpt><trkpt lat="36.0173151" lon="139.1756972"><ele>377.66</ele><time>2023-02-24T23:57:19Z</time></trkpt><trkpt lat="36.0175117" lon="139.175648"><ele>381.78000000000003</ele><time>2023-02-24T23:57:39Z</time></trkpt><trkpt lat="36.017623" lon="139.1758369"><ele>385.9666666666667</ele><time>2023-02-24T23:58:12Z</time></trkpt><trkpt lat="36.0177488" lon="139.1760016"><ele>390.8966666666667</ele><time>2023-02-24T23:58:31Z</time></trkpt><trkpt lat="36.0177441" lon="139.1762247"><ele>393.85999999999996</ele><time>2023-02-25T00:00:04Z</time></trkpt><trkpt lat="36.0178297" lon="139.1764344"><ele>396.49333333333334</ele><time>2023-02-25T00:00:41Z</time></trkpt><trkpt lat="36.0179413" lon="139.1766282"><ele>399.18333333333334</ele><time>2023-02-25T00:00:58Z</time></trkpt><trkpt lat="36.0180833" lon="139.1767863"><ele>403.61666666666673</ele><time>2023-02-25T00:01:12Z</time></trkpt><trkpt lat="36.0181583" lon="139.1769923"><ele>408.7833333333333</ele><time>2023-02-25T00:01:33Z</time></trkpt><trkpt lat="36.0182823" lon="139.1771707"><ele>413.4066666666667</ele><time>2023-02-25T00:01:51Z</time></trkpt><trkpt lat="36.0184063" lon="139.1773392"><ele>419.34</ele><time>2023-02-25T00:02:17Z</time></trkpt><trkpt lat="36.0185489" lon="139.1774764"><ele>425.25333333333333</ele><time>2023-02-25T00:02:46Z</time></trkpt><trkpt lat="36.0183701" lon="139.17751"><ele>431.1433333333334</ele><time>2023-02-25T00:03:45Z</time></trkpt><trkpt lat="36.0183232" lon="139.177737"><ele>437.8866666666667</ele><time>2023-02-25T00:04:42Z</time></trkpt><trkpt lat="36.0183305" lon="139.1779594"><ele>445.16</ele><time>2023-02-25T00:06:13Z</time></trkpt><trkpt lat="36.0184151" lon="139.1781578"><ele>454.78999999999996</ele><time>2023-02-25T00:07:27Z</time></trkpt><trkpt lat="36.0184824" lon="139.1783664"><ele>463.72333333333336</ele><time>2023-02-25T00:08:07Z</time></trkpt><trkpt lat="36.0184713" lon="139.1785887"><ele>474.24666666666667</ele><time>2023-02-25T00:08:39Z</time></trkpt><trkpt lat="36.0186142" lon="139.1787379"><ele>482.24333333333334</ele><time>2023-02-25T00:09:06Z</time></trkpt><trkpt lat="36.0187427" lon="139.178907"><ele>488.2633333333333</ele><time>2023-02-25T00:09:30Z</time></trkpt><trkpt lat="36.0187633" lon="139.1791301"><ele>492.78333333333336</ele><time>2023-02-25T00:09:46Z</time></trkpt><trkpt lat="36.0189208" lon="139.1792414"><ele>496.78999999999996</ele><time>2023-02-25T00:12:23Z</time></trkpt><trkpt lat="36.0189344" lon="139.17947"><ele>502.18</ele><time>2023-02-25T00:13:02Z</time></trkpt><trkpt lat="36.018933" lon="139.1796923"><ele>507.1000000000001</ele><time>2023-02-25T00:14:08Z</time></trkpt><trkpt lat="36.0189159" lon="139.1799196"><ele>514.11</ele><time>2023-02-25T00:14:49Z</time></trkpt><trkpt lat="36.0187642" lon="139.1800406"><ele>522.3433333333334</ele><time>2023-02-25T00:15:52Z</time></trkpt><trkpt lat="36.0186444" lon="139.1802325"><ele>531.6833333333333</ele><time>2023-02-25T00:16:33Z</time></trkpt><trkpt lat="36.0184929" lon="139.1803761"><ele>538.5866666666667</ele><time>2023-02-25T00:17:00Z</time></trkpt><trkpt lat="36.0183467" lon="139.1805159"><ele>545.1</ele><time>2023-02-25T00:17:46Z</time></trkpt><trkpt lat="36.0182539" lon="139.1807088"><ele>550.8866666666667</ele><time>2023-02-25T00:18:18Z</time></trkpt><trkpt lat="36.0181443" lon="139.1808961"><ele>557.3466666666667</ele><time>2023-02-25T00:18:34Z</time></trkpt><trkpt lat="36.0180733" lon="139.1811043"><ele>562.8566666666667</ele><time>2023-02-25T00:19:16Z</time></trkpt><trkpt lat="36.0179933" lon="139.1813078"><ele>566.7766666666666</ele><time>2023-02-25T00:19:51Z</time></trkpt><trkpt lat="36.0179005" lon="139.1815066"><ele>572.1566666666666</ele><time>2023-02-25T00:20:07Z</time></trkpt><trkpt lat="36.0178136" lon="139.1817072"><ele>575.5766666666667</ele><time>2023-02-25T00:20:34Z</time></trkpt><trkpt lat="36.0178648" lon="139.1819297"><ele>579.7466666666666</ele><time>2023-02-25T00:21:02Z</time></trkpt><trkpt lat="36.0179354" lon="139.1821392"><ele>584.9833333333332</ele><time>2023-02-25T00:21:40Z</time></trkpt><trkpt lat="36.0178631" lon="139.1823476"><ele>588.89</ele><time>2023-02-25T00:22:25Z</time></trkpt><trkpt lat="36.0177035" lon="139.1824557"><ele>594.1533333333333</ele><time>2023-02-25T00:22:51Z</time></trkpt><trkpt lat="36.017786" lon="139.182656"><ele>597.7666666666668</ele><time>2023-02-25T00:23:46Z</time></trkpt><trkpt lat="36.0178507" lon="139.182864"><ele>605.09</ele><time>2023-02-25T00:25:01Z</time></trkpt><trkpt lat="36.0178719" lon="139.1830913"><ele>613.36</ele><time>2023-02-25T00:25:40Z</time></trkpt><trkpt lat="36.0179121" lon="139.1833114"><ele>621.14</ele><time>2023-02-25T00:26:31Z</time></trkpt><trkpt lat="36.0178333" lon="139.1835189"><ele>627.32</ele><time>2023-02-25T00:26:53Z</time></trkpt><trkpt lat="36.0177248" lon="139.1837038"><ele>629.99</ele><time>2023-02-25T00:27:14Z</time></trkpt><trkpt lat="36.0175995" lon="139.1838723"><ele>631.58</ele><time>2023-02-25T00:27:32Z</time></trkpt><trkpt lat="36.0174092" lon="139.1839032"><ele>631.17</ele><time>2023-02-25T00:27:45Z</time></trkpt><trkpt lat="36.0172282" lon="139.1839739"><ele>629.6866666666666</ele><time>2023-02-25T00:28:07Z</time></trkpt><trkpt lat="36.0170916" lon="139.184122"><ele>629.8733333333333</ele><time>2023-02-25T00:28:22Z</time></trkpt><trkpt lat="36.016975" lon="139.1842988"><ele>634.0633333333334</ele><time>2023-02-25T00:28:46Z</time></trkpt><trkpt lat="36.0169661" lon="139.1845245"><ele>642.8166666666667</ele><time>2023-02-25T00:29:29Z</time></trkpt><trkpt lat="36.0170091" lon="139.1847489"><ele>650.6533333333333</ele><time>2023-02-25T00:30:23Z</time></trkpt><trkpt lat="36.0170888" lon="139.1849733"><ele>657.4666666666666</ele><time>2023-02-25T00:30:46Z</time></trkpt><trkpt lat="36.0169801" lon="139.1851507"><ele>660.3033333333334</ele><time>2023-02-25T00:31:26Z</time></trkpt><trkpt lat="36.0168475" lon="139.1853035"><ele>660.8366666666667</ele><time>2023-02-25T00:32:03Z</time></trkpt><trkpt lat="36.0166732" lon="139.1852281"><ele>659.2033333333334</ele><time>2023-02-25T00:33:44Z</time></trkpt><trkpt lat="36.0165163" lon="139.1850875"><ele>657.1166666666667</ele><time>2023-02-25T00:33:57Z</time></trkpt><trkpt lat="36.0163235" lon="139.1850827"><ele>658.5533333333334</ele><time>2023-02-25T00:34:12Z</time></trkpt><trkpt lat="36.0162501" lon="139.1852883"><ele>663.67</ele><time>2023-02-25T00:35:09Z</time></trkpt><trkpt lat="36.0162956" lon="139.1855046"><ele>671.3666666666667</ele><time>2023-02-25T00:35:57Z</time></trkpt><trkpt lat="36.0163351" lon="139.1857231"><ele>679.4300000000001</ele><time>2023-02-25T00:36:10Z</time></trkpt><trkpt lat="36.0164725" lon="139.1858829"><ele>687.4833333333332</ele><time>2023-02-25T00:38:11Z</time></trkpt><trkpt lat="36.0163825" lon="139.1860763"><ele>695.0200000000001</ele><time>2023-02-25T00:38:45Z</time></trkpt><trkpt lat="36.0164844" lon="139.1862697"><ele>703.6333333333333</ele><time>2023-02-25T00:39:37Z</time></trkpt><trkpt lat="36.0166615" lon="139.1863386"><ele>709.9766666666666</ele><time>2023-02-25T00:40:11Z</time></trkpt><trkpt lat="36.0167365" lon="139.1865448"><ele>718.1566666666668</ele><time>2023-02-25T00:43:21Z</time></trkpt><trkpt lat="36.0167852" lon="139.1867599"><ele>726.3633333333332</ele><time>2023-02-25T00:44:00Z</time></trkpt><trkpt lat="36.0168308" lon="139.1869799"><ele>736.2666666666668</ele><time>2023-02-25T00:44:55Z</time></trkpt><trkpt lat="36.0168909" lon="139.1871984"><ele>746.9233333333333</ele><time>2023-02-25T00:45:10Z</time></trkpt><trkpt lat="36.0170206" lon="139.1873541"><ele>757.54</ele><time>2023-02-25T00:46:32Z</time></trkpt><trkpt lat="36.0171746" lon="139.1874805"><ele>768.6666666666666</ele><time>2023-02-25T00:47:34Z</time></trkpt><trkpt lat="36.0173392" lon="139.1875874"><ele>777.6066666666667</ele><time>2023-02-25T00:48:10Z</time></trkpt><trkpt lat="36.0175249" lon="139.1875685"><ele>783.8566666666666</ele><time>2023-02-25T00:48:51Z</time></trkpt><trkpt lat="36.0176953" lon="139.1876455"><ele>788.3666666666667</ele><time>2023-02-25T00:49:21Z</time></trkpt><trkpt lat="36.0178385" lon="139.1877823"><ele>792.31</ele><time>2023-02-25T00:49:49Z</time></trkpt><trkpt lat="36.0180085" lon="139.1878997"><ele>796.0766666666667</ele><time>2023-02-25T00:51:50Z</time></trkpt><trkpt lat="36.0181949" lon="139.1878972"><ele>799.8833333333333</ele><time>2023-02-25T00:52:09Z</time></trkpt><trkpt lat="36.0183665" lon="139.1879902"><ele>804.8533333333334</ele><time>2023-02-25T00:52:27Z</time></trkpt><trkpt lat="36.0185013" lon="139.1881556"><ele>809.2866666666667</ele><time>2023-02-25T00:52:52Z</time></trkpt><trkpt lat="36.0186859" lon="139.1881592"><ele>812.2466666666668</ele><time>2023-02-25T00:53:15Z</time></trkpt><trkpt lat="36.0188118" lon="139.1883211"><ele>812.1466666666666</ele><time>2023-02-25T00:53:39Z</time></trkpt><trkpt lat="36.0186703" lon="139.1881797"><ele>812.2233333333334</ele><time>2023-02-25T00:55:03Z</time></trkpt><trkpt lat="36.0185546" lon="139.1880066"><ele>811.7633333333333</ele><time>2023-02-25T00:55:26Z</time></trkpt><trkpt lat="36.0184013" lon="139.1878817"><ele>811.61</ele><time>2023-02-25T00:55:41Z</time></trkpt><trkpt lat="36.0182296" lon="139.1878007"><ele>809.5233333333334</ele><time>2023-02-25T00:56:02Z</time></trkpt><trkpt lat="36.0180518" lon="139.1877611"><ele>806.1300000000001</ele><time>2023-02-25T00:56:26Z</time></trkpt><trkpt lat="36.0178705" lon="139.1877332"><ele>802.1933333333333</ele><time>2023-02-25T00:56:40Z</time></trkpt><trkpt lat="36.017696" lon="139.1876749"><ele>797.5133333333333</ele><time>2023-02-25T00:56:56Z</time></trkpt><trkpt lat="36.0175407" lon="139.1875609"><ele>793.09</ele><time>2023-02-25T00:57:23Z</time></trkpt><trkpt lat="36.0173728" lon="139.1874743"><ele>787.6066666666666</ele><time>2023-02-25T00:57:46Z</time></trkpt><trkpt lat="36.0171934" lon="139.1875298"><ele>783.7199999999999</ele><time>2023-02-25T00:58:24Z</time></trkpt><trkpt lat="36.0170373" lon="139.1876468"><ele>779.6233333333333</ele><time>2023-02-25T00:59:24Z</time></trkpt><trkpt lat="36.0168936" lon="139.1877814"><ele>775.11</ele><time>2023-02-25T00:59:36Z</time></trkpt><trkpt lat="36.0167531" lon="139.1879279"><ele>767.4766666666668</ele><time>2023-02-25T01:00:36Z</time></trkpt><trkpt lat="36.0166297" lon="139.1881049"><ele>759.84</ele><time>2023-02-25T01:01:19Z</time></trkpt><trkpt lat="36.0165575" lon="139.1883108"><ele>751.3266666666667</ele><time>2023-02-25T01:01:38Z</time></trkpt><trkpt lat="36.0163727" lon="139.1883683"><ele>745.27</ele><time>2023-02-25T01:02:17Z</time></trkpt><trkpt lat="36.0161884" lon="139.1883578"><ele>737.93</ele><time>2023-02-25T01:02:25Z</time></trkpt><trkpt lat="36.0161337" lon="139.1881446"><ele>731.5133333333333</ele><time>2023-02-25T01:03:17Z</time></trkpt><trkpt lat="36.0159841" lon="139.1882693"><ele>722.3266666666667</ele><time>2023-02-25T01:04:08Z</time></trkpt><trkpt lat="36.0159964" lon="139.1884956"><ele>721.52</ele><time>2023-02-25T01:04:27Z</time></trkpt><trkpt lat="36.0158767" lon="139.1886657"><ele>721.7566666666667</ele><time>2023-02-25T01:04:40Z</time></trkpt><trkpt lat="36.01577" lon="139.1888736"><ele>722.7566666666667</ele><time>2023-02-25T01:05:06Z</time></trkpt><trkpt lat="36.0155882" lon="139.1889357"><ele>716.6066666666667</ele><time>2023-02-25T01:05:14Z</time></trkpt><trkpt lat="36.0154019" lon="139.188892"><ele>711.89</ele><time>2023-02-25T01:05:25Z</time></trkpt><trkpt lat="36.0152325" lon="139.1890342"><ele>709.1366666666667</ele><time>2023-02-25T01:05:49Z</time></trkpt><trkpt lat="36.0150837" lon="139.1891661"><ele>707.4666666666667</ele><time>2023-02-25T01:06:08Z</time></trkpt><trkpt lat="36.0149465" lon="139.1893145"><ele>705.3166666666667</ele><time>2023-02-25T01:06:25Z</time></trkpt><trkpt lat="36.0147894" lon="139.1894433"><ele>704.1466666666666</ele><time>2023-02-25T01:06:44Z</time></trkpt><trkpt lat="36.01471" lon="139.1896494"><ele>703.3233333333334</ele><time>2023-02-25T01:07:00Z</time></trkpt><trkpt lat="36.0146671" lon="139.1898715"><ele>702.5300000000001</ele><time>2023-02-25T01:07:13Z</time></trkpt><trkpt lat="36.0146247" lon="139.19009"><ele>699.91</ele><time>2023-02-25T01:08:05Z</time></trkpt><trkpt lat="36.0144367" lon="139.1901533"><ele>699.1033333333334</ele><time>2023-02-25T01:08:16Z</time></trkpt><trkpt lat="36.0142624" lon="139.1902351"><ele>698.0133333333333</ele><time>2023-02-25T01:08:25Z</time></trkpt><trkpt lat="36.0140824" lon="139.1902107"><ele>697.9833333333332</ele><time>2023-02-25T01:08:35Z</time></trkpt><trkpt lat="36.0140469" lon="139.1904323"><ele>693.7766666666666</ele><time>2023-02-25T01:09:22Z</time></trkpt><trkpt lat="36.0138828" lon="139.1903236"><ele>691.89</ele><time>2023-02-25T01:11:03Z</time></trkpt><trkpt lat="36.0137462" lon="139.1901651"><ele>689.1366666666667</ele><time>2023-02-25T01:11:13Z</time></trkpt><trkpt lat="36.0135737" lon="139.1902323"><ele>687.7599999999999</ele><time>2023-02-25T01:11:26Z</time></trkpt><trkpt lat="36.0134554" lon="139.1904016"><ele>684.64</ele><time>2023-02-25T01:11:40Z</time></trkpt><trkpt lat="36.0133595" lon="139.1905968"><ele>684.3333333333334</ele><time>2023-02-25T01:12:05Z</time></trkpt><trkpt lat="36.0132311" lon="139.1907559"><ele>686.5100000000001</ele><time>2023-02-25T01:12:23Z</time></trkpt><trkpt lat="36.0130477" lon="139.1907208"><ele>689.8133333333334</ele><time>2023-02-25T01:13:40Z</time></trkpt><trkpt lat="36.0128574" lon="139.1906958"><ele>693.5433333333334</ele><time>2023-02-25T01:13:59Z</time></trkpt><trkpt lat="36.0127011" lon="139.1905828"><ele>697.96</ele><time>2023-02-25T01:14:20Z</time></trkpt><trkpt lat="36.0125225" lon="139.1905502"><ele>703.6133333333333</ele><time>2023-02-25T01:14:51Z</time></trkpt><trkpt lat="36.0125072" lon="139.1903251"><ele>709.8466666666667</ele><time>2023-02-25T01:15:04Z</time></trkpt><trkpt lat="36.0124926" lon="139.1901039"><ele>714.04</ele><time>2023-02-25T01:16:10Z</time></trkpt><trkpt lat="36.0123106" lon="139.1901478"><ele>720.5133333333333</ele><time>2023-02-25T01:16:46Z</time></trkpt><trkpt lat="36.0121629" lon="139.19"><ele>726.52</ele><time>2023-02-25T01:17:27Z</time></trkpt><trkpt lat="36.0120311" lon="139.1898411"><ele>734.9066666666666</ele><time>2023-02-25T01:17:41Z</time></trkpt><trkpt lat="36.0119084" lon="139.1896746"><ele>739.8666666666667</ele><time>2023-02-25T01:18:29Z</time></trkpt><trkpt lat="36.0117432" lon="139.1894681"><ele>745.0900000000001</ele><time>2023-02-25T01:19:39Z</time></trkpt><trkpt lat="36.0115745" lon="139.1893861"><ele>748.93</ele><time>2023-02-25T01:19:52Z</time></trkpt><trkpt lat="36.0114226" lon="139.1892535"><ele>752.57</ele><time>2023-02-25T01:20:43Z</time></trkpt><trkpt lat="36.0112523" lon="139.1891666"><ele>756.1033333333335</ele><time>2023-02-25T01:21:10Z</time></trkpt><trkpt lat="36.011108" lon="139.189032"><ele>759.2866666666667</ele><time>2023-02-25T01:21:39Z</time></trkpt><trkpt lat="36.0109261" lon="139.1890358"><ele>763.3033333333333</ele><time>2023-02-25T01:21:59Z</time></trkpt><trkpt lat="36.0107442" lon="139.1890474"><ele>767.64</ele><time>2023-02-25T01:22:11Z</time></trkpt><trkpt lat="36.0105665" lon="139.1889847"><ele>773.0066666666667</ele><time>2023-02-25T01:22:42Z</time></trkpt><trkpt lat="36.0103939" lon="139.1890947"><ele>778.0</ele><time>2023-02-25T01:23:06Z</time></trkpt><trkpt lat="36.0102367" lon="139.1892085"><ele>782.1433333333334</ele><time>2023-02-25T01:23:26Z</time></trkpt><trkpt lat="36.010078" lon="139.1893337"><ele>786.5600000000001</ele><time>2023-02-25T01:23:46Z</time></trkpt><trkpt lat="36.009916" lon="139.1894643"><ele>790.4699999999999</ele><time>2023-02-25T01:24:03Z</time></trkpt><trkpt lat="36.0097322" lon="139.1894882"><ele>793.8933333333334</ele><time>2023-02-25T01:24:32Z</time></trkpt><trkpt lat="36.0095502" lon="139.1895534"><ele>796.0466666666667</ele><time>2023-02-25T01:24:53Z</time></trkpt><trkpt lat="36.0093591" lon="139.1895937"><ele>798.9166666666666</ele><time>2023-02-25T01:25:36Z</time></trkpt><trkpt lat="36.0091822" lon="139.1896379"><ele>801.8666666666668</ele><time>2023-02-25T01:26:05Z</time></trkpt><trkpt lat="36.0089921" lon="139.1897293"><ele>805.8966666666666</ele><time>2023-02-25T01:26:27Z</time></trkpt><trkpt lat="36.0088079" lon="139.18981"><ele>809.4</ele><time>2023-02-25T01:26:47Z</time></trkpt><trkpt lat="36.0086882" lon="139.1899816"><ele>813.4833333333335</ele><time>2023-02-25T01:27:30Z</time></trkpt><trkpt lat="36.0085034" lon="139.1899865"><ele>816.7933333333334</ele><time>2023-02-25T01:28:11Z</time></trkpt><trkpt lat="36.0083298" lon="139.1900747"><ele>822.2633333333333</ele><time>2023-02-25T01:29:04Z</time></trkpt><trkpt lat="36.0081598" lon="139.1901577"><ele>828.36</ele><time>2023-02-25T01:29:42Z</time></trkpt><trkpt lat="36.0080364" lon="139.1903265"><ele>836.2233333333334</ele><time>2023-02-25T01:30:03Z</time></trkpt><trkpt lat="36.0079527" lon="139.1905292"><ele>842.6466666666665</ele><time>2023-02-25T01:30:31Z</time></trkpt><trkpt lat="36.007771" lon="139.1905915"><ele>847.9266666666666</ele><time>2023-02-25T01:31:26Z</time></trkpt><trkpt lat="36.0076313" lon="139.1907565"><ele>850.8066666666667</ele><time>2023-02-25T01:31:39Z</time></trkpt><trkpt lat="36.0075703" lon="139.1909673"><ele>851.8133333333334</ele><time>2023-02-25T01:31:52Z</time></trkpt><trkpt lat="36.0073948" lon="139.1910544"><ele>852.0900000000001</ele><time>2023-02-25T01:32:12Z</time></trkpt><trkpt lat="36.0074384" lon="139.1908332"><ele>852.62</ele><time>2023-02-25T01:32:36Z</time></trkpt><trkpt lat="36.0072833" lon="139.1906484"><ele>853.9566666666666</ele><time>2023-02-25T01:32:53Z</time></trkpt><trkpt lat="36.0071007" lon="139.1906435"><ele>855.4700000000001</ele><time>2023-02-25T01:33:07Z</time></trkpt><trkpt lat="36.006929" lon="139.190724"><ele>856.8233333333334</ele><time>2023-02-25T01:33:23Z</time></trkpt><trkpt lat="36.0067469" lon="139.1907362"><ele>858.1966666666667</ele><time>2023-02-25T01:33:38Z</time></trkpt><trkpt lat="36.006551" lon="139.190765"><ele>859.5933333333332</ele><time>2023-02-25T01:33:56Z</time></trkpt><trkpt lat="36.0064097" lon="139.1906207"><ele>861.6333333333333</ele><time>2023-02-25T01:34:09Z</time></trkpt><trkpt lat="36.0062149" lon="139.1906432"><ele>864.15</ele><time>2023-02-25T01:34:27Z</time></trkpt><trkpt lat="36.0062718" lon="139.1904256"><ele>866.6466666666666</ele><time>2023-02-25T01:34:49Z</time></trkpt><trkpt lat="36.0062422" lon="139.1901923"><ele>868.7766666666666</ele><time>2023-02-25T01:35:08Z</time></trkpt><trkpt lat="36.0060699" lon="139.190105"><ele>870.0733333333333</ele><time>2023-02-25T01:37:07Z</time></trkpt><trkpt lat="36.0058858" lon="139.1901061"><ele>871.3133333333334</ele><time>2023-02-25T01:37:26Z</time></trkpt><trkpt lat="36.0060703" lon="139.190105"><ele>871.5766666666667</ele><time>2023-02-25T01:41:47Z</time></trkpt><trkpt lat="36.0062465" lon="139.1901704"><ele>871.3133333333334</ele><time>2023-02-25T01:42:06Z</time></trkpt><trkpt lat="36.006319" lon="139.1903813"><ele>870.0733333333334</ele><time>2023-02-25T01:43:03Z</time></trkpt><trkpt lat="36.0061983" lon="139.1905745"><ele>869.5066666666667</ele><time>2023-02-25T01:43:14Z</time></trkpt><trkpt lat="36.0060723" lon="139.1907406"><ele>868.57</ele><time>2023-02-25T01:43:28Z</time></trkpt><trkpt lat="36.0058756" lon="139.1907213"><ele>867.11</ele><time>2023-02-25T01:43:43Z</time></trkpt><trkpt lat="36.0056979" lon="139.1906656"><ele>863.6366666666667</ele><time>2023-02-25T01:43:54Z</time></trkpt><trkpt lat="36.0056743" lon="139.1908882"><ele>860.2966666666666</ele><time>2023-02-25T01:44:15Z</time></trkpt><trkpt lat="36.0057616" lon="139.1910919"><ele>857.93</ele><time>2023-02-25T01:44:29Z</time></trkpt><trkpt lat="36.0057766" lon="139.1913186"><ele>856.9499999999999</ele><time>2023-02-25T01:44:42Z</time></trkpt><trkpt lat="36.0058257" lon="139.191541"><ele>856.4899999999999</ele><time>2023-02-25T01:45:15Z</time></trkpt><trkpt lat="36.0058714" lon="139.1917605"><ele>855.7633333333333</ele><time>2023-02-25T01:45:31Z</time></trkpt><trkpt lat="36.0057282" lon="139.1919034"><ele>855.0100000000001</ele><time>2023-02-25T01:45:43Z</time></trkpt><trkpt lat="36.0056008" lon="139.191737"><ele>853.9066666666668</ele><time>2023-02-25T01:45:56Z</time></trkpt><trkpt lat="36.0054722" lon="139.1919332"><ele>852.5300000000001</ele><time>2023-02-25T01:46:43Z</time></trkpt><trkpt lat="36.0055257" lon="139.1921625"><ele>851.6833333333334</ele><time>2023-02-25T01:46:59Z</time></trkpt><trkpt lat="36.0055891" lon="139.1923842"><ele>851.0433333333334</ele><time>2023-02-25T01:47:10Z</time></trkpt><trkpt lat="36.0057695" lon="139.1924295"><ele>850.9966666666668</ele><time>2023-02-25T01:47:29Z</time></trkpt><trkpt lat="36.0060567" lon="139.1925001"><ele>849.6166666666667</ele><time>2023-02-25T01:47:32Z</time></trkpt><trkpt lat="36.0058708" lon="139.1924911"><ele>849.39</ele><time>2023-02-25T01:47:38Z</time></trkpt><trkpt lat="36.0056827" lon="139.1924913"><ele>848.9866666666667</ele><time>2023-02-25T01:48:29Z</time></trkpt><trkpt lat="36.0055245" lon="139.1926377"><ele>848.6</ele><time>2023-02-25T01:48:41Z</time></trkpt><trkpt lat="36.0054588" lon="139.1928468"><ele>844.5366666666667</ele><time>2023-02-25T01:48:58Z</time></trkpt><trkpt lat="36.0052933" lon="139.1927494"><ele>839.4033333333333</ele><time>2023-02-25T01:49:59Z</time></trkpt><trkpt lat="36.0051948" lon="139.192937"><ele>833.4466666666667</ele><time>2023-02-25T01:50:43Z</time></trkpt><trkpt lat="36.0051758" lon="139.1931601"><ele>828.5833333333334</ele><time>2023-02-25T01:50:57Z</time></trkpt><trkpt lat="36.0050996" lon="139.1933629"><ele>821.0233333333334</ele><time>2023-02-25T01:51:12Z</time></trkpt><trkpt lat="36.0050349" lon="139.1935809"><ele>814.0366666666667</ele><time>2023-02-25T01:51:32Z</time></trkpt><trkpt lat="36.0049724" lon="139.1937919"><ele>806.3666666666668</ele><time>2023-02-25T01:51:47Z</time></trkpt><trkpt lat="36.004837" lon="139.1939402"><ele>803.7533333333334</ele><time>2023-02-25T01:52:12Z</time></trkpt><trkpt lat="36.0047775" lon="139.1941592"><ele>801.0533333333333</ele><time>2023-02-25T01:52:58Z</time></trkpt><trkpt lat="36.0047943" lon="139.1943901"><ele>797.9866666666667</ele><time>2023-02-25T01:53:13Z</time></trkpt><trkpt lat="36.004832" lon="139.194613"><ele>791.6</ele><time>2023-02-25T01:54:00Z</time></trkpt><trkpt lat="36.0048308" lon="139.1948356"><ele>785.66</ele><time>2023-02-25T01:54:24Z</time></trkpt><trkpt lat="36.0048105" lon="139.1950675"><ele>782.6866666666668</ele><time>2023-02-25T01:55:05Z</time></trkpt><trkpt lat="36.0047868" lon="139.1953206"><ele>781.6033333333335</ele><time>2023-02-25T01:55:14Z</time></trkpt><trkpt lat="36.0049286" lon="139.1954618"><ele>779.64</ele><time>2023-02-25T01:55:46Z</time></trkpt><trkpt lat="36.0048236" lon="139.1956654"><ele>777.93</ele><time>2023-02-25T01:56:22Z</time></trkpt><trkpt lat="36.0046602" lon="139.1955675"><ele>776.9966666666668</ele><time>2023-02-25T01:56:57Z</time></trkpt><trkpt lat="36.0045771" lon="139.1957646"><ele>774.84</ele><time>2023-02-25T01:57:26Z</time></trkpt><trkpt lat="36.0044488" lon="139.1956077"><ele>771.0566666666667</ele><time>2023-02-25T01:57:43Z</time></trkpt><trkpt lat="36.0044937" lon="139.1953911"><ele>767.5533333333333</ele><time>2023-02-25T01:58:49Z</time></trkpt><trkpt lat="36.0043046" lon="139.1954046"><ele>762.8933333333333</ele><time>2023-02-25T02:02:25Z</time></trkpt><trkpt lat="36.0044899" lon="139.1954055"><ele>763.9200000000001</ele><time>2023-02-25T02:03:04Z</time></trkpt><trkpt lat="36.0043754" lon="139.195598"><ele>761.9066666666668</ele><time>2023-02-25T02:04:44Z</time></trkpt><trkpt lat="36.0042691" lon="139.1957789"><ele>763.1766666666666</ele><time>2023-02-25T02:04:58Z</time></trkpt><trkpt lat="36.0041782" lon="139.1959805"><ele>755.9699999999999</ele><time>2023-02-25T02:05:15Z</time></trkpt><trkpt lat="36.0039964" lon="139.1960331"><ele>749.0866666666667</ele><time>2023-02-25T02:05:50Z</time></trkpt><trkpt lat="36.0038094" lon="139.196124"><ele>740.9666666666667</ele><time>2023-02-25T02:06:15Z</time></trkpt><trkpt lat="36.0036369" lon="139.1960546"><ele>736.0300000000001</ele><time>2023-02-25T02:06:40Z</time></trkpt><trkpt lat="36.0036066" lon="139.1962904"><ele>730.8933333333333</ele><time>2023-02-25T02:06:53Z</time></trkpt><trkpt lat="36.0034897" lon="139.1964817"><ele>725.8100000000001</ele><time>2023-02-25T02:07:38Z</time></trkpt><trkpt lat="36.0033671" lon="139.1966532"><ele>719.6366666666667</ele><time>2023-02-25T02:07:58Z</time></trkpt><trkpt lat="36.0032312" lon="139.196504"><ele>715.1166666666667</ele><time>2023-02-25T02:08:14Z</time></trkpt><trkpt lat="36.0031784" lon="139.1967249"><ele>710.68</ele><time>2023-02-25T02:08:54Z</time></trkpt><trkpt lat="36.0031848" lon="139.1969491"><ele>705.4833333333335</ele><time>2023-02-25T02:09:08Z</time></trkpt><trkpt lat="36.0030149" lon="139.1970286"><ele>699.5466666666666</ele><time>2023-02-25T02:09:29Z</time></trkpt><trkpt lat="36.0028833" lon="139.196867"><ele>694.61</ele><time>2023-02-25T02:09:41Z</time></trkpt><trkpt lat="36.0027599" lon="139.1970343"><ele>689.7800000000001</ele><time>2023-02-25T02:10:11Z</time></trkpt><trkpt lat="36.0026996" lon="139.1972435"><ele>683.94</ele><time>2023-02-25T02:10:25Z</time></trkpt><trkpt lat="36.0025458" lon="139.1973655"><ele>677.34</ele><time>2023-02-25T02:10:44Z</time></trkpt><trkpt lat="36.002505" lon="139.1975883"><ele>671.1933333333334</ele><time>2023-02-25T02:11:23Z</time></trkpt><trkpt lat="36.0023235" lon="139.1975629"><ele>665.93</ele><time>2023-02-25T02:11:39Z</time></trkpt><trkpt lat="36.002144" lon="139.1975048"><ele>659.9966666666668</ele><time>2023-02-25T02:11:56Z</time></trkpt><trkpt lat="36.0021519" lon="139.1972675"><ele>656.5833333333334</ele><time>2023-02-25T02:12:13Z</time></trkpt><trkpt lat="36.0019815" lon="139.1973762"><ele>652.23</ele><time>2023-02-25T02:12:51Z</time></trkpt><trkpt lat="36.0019061" lon="139.1975888"><ele>649.5966666666667</ele><time>2023-02-25T02:13:03Z</time></trkpt><trkpt lat="36.0017406" lon="139.1976827"><ele>644.0033333333332</ele><time>2023-02-25T02:13:17Z</time></trkpt><trkpt lat="36.00159" lon="139.1975199"><ele>639.1266666666667</ele><time>2023-02-25T02:13:36Z</time></trkpt><trkpt lat="36.001469" lon="139.1976945"><ele>633.1666666666666</ele><time>2023-02-25T02:13:57Z</time></trkpt><trkpt lat="36.0013813" lon="139.1978991"><ele>627.9700000000001</ele><time>2023-02-25T02:14:12Z</time></trkpt><trkpt lat="36.0014556" lon="139.1981262"><ele>624.18</ele><time>2023-02-25T02:15:09Z</time></trkpt><trkpt lat="36.0015414" lon="139.198326"><ele>620.6166666666667</ele><time>2023-02-25T02:15:26Z</time></trkpt><trkpt lat="36.0016964" lon="139.1984608"><ele>619.67</ele><time>2023-02-25T02:15:44Z</time></trkpt><trkpt lat="36.0018191" lon="139.1986384"><ele>618.0766666666667</ele><time>2023-02-25T02:15:56Z</time></trkpt><trkpt lat="36.0017277" lon="139.1988453"><ele>616.3633333333333</ele><time>2023-02-25T02:16:07Z</time></trkpt><trkpt lat="36.0016287" lon="139.1990356"><ele>612.5033333333334</ele><time>2023-02-25T02:16:23Z</time></trkpt><trkpt lat="36.0016817" lon="139.1992708"><ele>607.6566666666666</ele><time>2023-02-25T02:16:38Z</time></trkpt><trkpt lat="36.0018391" lon="139.1993914"><ele>602.94</ele><time>2023-02-25T02:16:45Z</time></trkpt><trkpt lat="36.002027" lon="139.1993527"><ele>597.7466666666668</ele><time>2023-02-25T02:17:03Z</time></trkpt><trkpt lat="36.0022082" lon="139.1992941"><ele>595.4233333333333</ele><time>2023-02-25T02:17:18Z</time></trkpt><trkpt lat="36.0023978" lon="139.1993415"><ele>592.7533333333334</ele><time>2023-02-25T02:17:31Z</time></trkpt><trkpt lat="36.0025768" lon="139.199249"><ele>592.0500000000001</ele><time>2023-02-25T02:17:43Z</time></trkpt><trkpt lat="36.0026753" lon="139.1990597"><ele>592.0433333333334</ele><time>2023-02-25T02:17:53Z</time></trkpt><trkpt lat="36.0028351" lon="139.1989545"><ele>593.4000000000001</ele><time>2023-02-25T02:18:53Z</time></trkpt><trkpt lat="36.0030235" lon="139.1989521"><ele>592.1233333333333</ele><time>2023-02-25T02:19:08Z</time></trkpt><trkpt lat="36.0032017" lon="139.1988464"><ele>589.4966666666667</ele><time>2023-02-25T02:19:19Z</time></trkpt><trkpt lat="36.0033127" lon="139.1986696"><ele>589.2766666666668</ele><time>2023-02-25T02:19:32Z</time></trkpt><trkpt lat="36.0035117" lon="139.1986902"><ele>590.4499999999999</ele><time>2023-02-25T02:20:06Z</time></trkpt><trkpt lat="36.0036795" lon="139.1987977"><ele>590.73</ele><time>2023-02-25T02:20:11Z</time></trkpt><trkpt lat="36.0038382" lon="139.1989236"><ele>588.86</ele><time>2023-02-25T02:20:20Z</time></trkpt><trkpt lat="36.0038802" lon="139.199143"><ele>587.0500000000001</ele><time>2023-02-25T02:20:41Z</time></trkpt><trkpt lat="36.004027" lon="139.1992831"><ele>586.4433333333333</ele><time>2023-02-25T02:20:57Z</time></trkpt><trkpt lat="36.0041677" lon="139.1994482"><ele>584.25</ele><time>2023-02-25T02:21:06Z</time></trkpt><trkpt lat="36.0043559" lon="139.1994357"><ele>586.4066666666668</ele><time>2023-02-25T02:21:19Z</time></trkpt><trkpt lat="36.004538" lon="139.1994389"><ele>589.4833333333335</ele><time>2023-02-25T02:21:52Z</time></trkpt><trkpt lat="36.0044131" lon="139.1996096"><ele>593.69</ele><time>2023-02-25T02:22:54Z</time></trkpt><trkpt lat="36.0042667" lon="139.1997624"><ele>593.43</ele><time>2023-02-25T02:23:05Z</time></trkpt><trkpt lat="36.0041159" lon="139.1999325"><ele>587.6899999999999</ele><time>2023-02-25T02:23:16Z</time></trkpt><trkpt lat="36.0040306" lon="139.2001336"><ele>585.5500000000001</ele><time>2023-02-25T02:23:28Z</time></trkpt><trkpt lat="36.0039182" lon="139.2003126"><ele>583.2466666666667</ele><time>2023-02-25T02:23:38Z</time></trkpt><trkpt lat="36.0039648" lon="139.2005557"><ele>583.3233333333334</ele><time>2023-02-25T02:23:48Z</time></trkpt><trkpt lat="36.0040561" lon="139.2007482"><ele>580.8533333333334</ele><time>2023-02-25T02:23:58Z</time></trkpt><trkpt lat="36.0042312" lon="139.2008241"><ele>580.17</ele><time>2023-02-25T02:24:09Z</time></trkpt><trkpt lat="36.0043987" lon="139.2009088"><ele>581.7966666666666</ele><time>2023-02-25T02:24:20Z</time></trkpt><trkpt lat="36.0045669" lon="139.2009907"><ele>583.08</ele><time>2023-02-25T02:24:32Z</time></trkpt><trkpt lat="36.0047262" lon="139.2010985"><ele>583.3766666666667</ele><time>2023-02-25T02:24:46Z</time></trkpt><trkpt lat="36.0049222" lon="139.2010716"><ele>583.1500000000001</ele><time>2023-02-25T02:24:57Z</time></trkpt><trkpt lat="36.0051022" lon="139.201105"><ele>581.9633333333333</ele><time>2023-02-25T02:25:11Z</time></trkpt><trkpt lat="36.0052611" lon="139.201217"><ele>579.1933333333333</ele><time>2023-02-25T02:25:28Z</time></trkpt><trkpt lat="36.0054307" lon="139.2013234"><ele>575.6999999999999</ele><time>2023-02-25T02:25:51Z</time></trkpt><trkpt lat="36.005581" lon="139.2014744"><ele>571.6999999999999</ele><time>2023-02-25T02:26:00Z</time></trkpt><trkpt lat="36.0057077" lon="139.2016411"><ele>565.3166666666667</ele><time>2023-02-25T02:26:09Z</time></trkpt><trkpt lat="36.0058843" lon="139.2017497"><ele>558.96</ele><time>2023-02-25T02:26:26Z</time></trkpt><trkpt lat="36.0060642" lon="139.2017932"><ele>555.0433333333334</ele><time>2023-02-25T02:26:42Z</time></trkpt><trkpt lat="36.006257" lon="139.2017922"><ele>557.2800000000001</ele><time>2023-02-25T02:27:25Z</time></trkpt><trkpt lat="36.0064417" lon="139.2017645"><ele>561.1733333333333</ele><time>2023-02-25T02:27:36Z</time></trkpt><trkpt lat="36.0066094" lon="139.2016631"><ele>566.6566666666668</ele><time>2023-02-25T02:27:48Z</time></trkpt><trkpt lat="36.0067957" lon="139.2017124"><ele>570.46</ele><time>2023-02-25T02:27:58Z</time></trkpt><trkpt lat="36.0068784" lon="139.2019107"><ele>571.4933333333333</ele><time>2023-02-25T02:28:07Z</time></trkpt><trkpt lat="36.0070446" lon="139.2020242"><ele>570.1233333333333</ele><time>2023-02-25T02:28:27Z</time></trkpt><trkpt lat="36.0071721" lon="139.202209"><ele>566.92</ele><time>2023-02-25T02:28:33Z</time></trkpt><trkpt lat="36.0073143" lon="139.2023503"><ele>563.5500000000001</ele><time>2023-02-25T02:28:48Z</time></trkpt><trkpt lat="36.007493" lon="139.2024429"><ele>558.8566666666666</ele><time>2023-02-25T02:28:56Z</time></trkpt><trkpt lat="36.0075439" lon="139.2026587"><ele>554.7799999999999</ele><time>2023-02-25T02:30:56Z</time></trkpt><trkpt lat="36.0073742" lon="139.2027705"><ele>552.1233333333333</ele><time>2023-02-25T02:31:39Z</time></trkpt><trkpt lat="36.0071791" lon="139.2027941"><ele>549.4533333333334</ele><time>2023-02-25T02:31:50Z</time></trkpt><trkpt lat="36.0070075" lon="139.2027256"><ele>547.2433333333333</ele><time>2023-02-25T02:31:58Z</time></trkpt><trkpt lat="36.0068384" lon="139.2028362"><ele>544.3466666666667</ele><time>2023-02-25T02:32:16Z</time></trkpt><trkpt lat="36.0066741" lon="139.2029304"><ele>541.9166666666666</ele><time>2023-02-25T02:32:32Z</time></trkpt><trkpt lat="36.0064973" lon="139.2028484"><ele>540.3033333333334</ele><time>2023-02-25T02:32:49Z</time></trkpt><trkpt lat="36.0063284" lon="139.2027357"><ele>539.0000000000001</ele><time>2023-02-25T02:32:59Z</time></trkpt><trkpt lat="36.0061609" lon="139.2026231"><ele>537.8033333333334</ele><time>2023-02-25T02:33:13Z</time></trkpt><trkpt lat="36.0060069" lon="139.2025012"><ele>536.0766666666667</ele><time>2023-02-25T02:33:23Z</time></trkpt><trkpt lat="36.005845" lon="139.2024007"><ele>533.49</ele><time>2023-02-25T02:33:37Z</time></trkpt><trkpt lat="36.0056754" lon="139.2024774"><ele>530.99</ele><time>2023-02-25T02:33:47Z</time></trkpt><trkpt lat="36.0054968" lon="139.2025575"><ele>528.41</ele><time>2023-02-25T02:33:59Z</time></trkpt><trkpt lat="36.0053184" lon="139.2026037"><ele>526.89</ele><time>2023-02-25T02:34:18Z</time></trkpt><trkpt lat="36.0051474" lon="139.2026753"><ele>524.6433333333333</ele><time>2023-02-25T02:34:30Z</time></trkpt><trkpt lat="36.0049662" lon="139.2026934"><ele>522.1166666666667</ele><time>2023-02-25T02:34:43Z</time></trkpt><trkpt lat="36.0047764" lon="139.202679"><ele>519.1433333333333</ele><time>2023-02-25T02:34:54Z</time></trkpt><trkpt lat="36.0045873" lon="139.2026927"><ele>516.94</ele><time>2023-02-25T02:35:06Z</time></trkpt><trkpt lat="36.0044244" lon="139.2027976"><ele>514.5866666666667</ele><time>2023-02-25T02:35:20Z</time></trkpt><trkpt lat="36.0043901" lon="139.2030223"><ele>512.5166666666667</ele><time>2023-02-25T02:35:31Z</time></trkpt><trkpt lat="36.0044313" lon="139.2032386"><ele>510.44000000000005</ele><time>2023-02-25T02:35:38Z</time></trkpt><trkpt lat="36.0045733" lon="139.2033909"><ele>507.75666666666666</ele><time>2023-02-25T02:35:46Z</time></trkpt><trkpt lat="36.004758" lon="139.2034289"><ele>505.0366666666667</ele><time>2023-02-25T02:35:55Z</time></trkpt><trkpt lat="36.0049426" lon="139.203462"><ele>503.29333333333335</ele><time>2023-02-25T02:36:07Z</time></trkpt><trkpt lat="36.0051187" lon="139.2035712"><ele>501.59666666666664</ele><time>2023-02-25T02:36:15Z</time></trkpt><trkpt lat="36.0052686" lon="139.2037055"><ele>498.52333333333337</ele><time>2023-02-25T02:36:54Z</time></trkpt><trkpt lat="36.0054474" lon="139.203619"><ele>495.16333333333336</ele><time>2023-02-25T02:37:07Z</time></trkpt><trkpt lat="36.0056161" lon="139.203755"><ele>491.6666666666667</ele><time>2023-02-25T02:37:13Z</time></trkpt><trkpt lat="36.00577" lon="139.2039009"><ele>489.7866666666667</ele><time>2023-02-25T02:37:21Z</time></trkpt><trkpt lat="36.0059564" lon="139.2039112"><ele>489.0566666666667</ele><time>2023-02-25T02:37:32Z</time></trkpt><trkpt lat="36.0059503" lon="139.204139"><ele>489.0166666666667</ele><time>2023-02-25T02:37:48Z</time></trkpt><trkpt lat="36.0058172" lon="139.204308"><ele>487.3033333333333</ele><time>2023-02-25T02:38:01Z</time></trkpt><trkpt lat="36.0057621" lon="139.2045215"><ele>484.0233333333333</ele><time>2023-02-25T02:38:17Z</time></trkpt><trkpt lat="36.0057499" lon="139.204751"><ele>481.60666666666674</ele><time>2023-02-25T02:38:28Z</time></trkpt><trkpt lat="36.0057313" lon="139.2049812"><ele>480.42333333333335</ele><time>2023-02-25T02:38:38Z</time></trkpt><trkpt lat="36.0055837" lon="139.2051314"><ele>478.8533333333333</ele><time>2023-02-25T02:38:54Z</time></trkpt><trkpt lat="36.005422" lon="139.2052375"><ele>475.89000000000004</ele><time>2023-02-25T02:39:03Z</time></trkpt><trkpt lat="36.0053731" lon="139.2054969"><ele>474.35999999999996</ele><time>2023-02-25T02:39:14Z</time></trkpt><trkpt lat="36.0051924" lon="139.205526"><ele>471.80333333333334</ele><time>2023-02-25T02:39:34Z</time></trkpt><trkpt lat="36.0051916" lon="139.2052839"><ele>469.66333333333336</ele><time>2023-02-25T02:39:44Z</time></trkpt><trkpt lat="36.005313" lon="139.2051052"><ele>468.0533333333333</ele><time>2023-02-25T02:39:56Z</time></trkpt><trkpt lat="36.0054061" lon="139.2048941"><ele>467.84666666666664</ele><time>2023-02-25T02:40:10Z</time></trkpt><trkpt lat="36.0052431" lon="139.2047562"><ele>468.09666666666664</ele><time>2023-02-25T02:40:27Z</time></trkpt><trkpt lat="36.0050454" lon="139.2047951"><ele>464.43</ele><time>2023-02-25T02:40:36Z</time></trkpt><trkpt lat="36.0048733" lon="139.2048744"><ele>460.1766666666667</ele><time>2023-02-25T02:40:55Z</time></trkpt><trkpt lat="36.0046931" lon="139.2048381"><ele>456.72</ele><time>2023-02-25T02:41:08Z</time></trkpt><trkpt lat="36.0045206" lon="139.2047712"><ele>454.90000000000003</ele><time>2023-02-25T02:41:14Z</time></trkpt><trkpt lat="36.0043361" lon="139.204677"><ele>453.40000000000003</ele><time>2023-02-25T02:41:24Z</time></trkpt><trkpt lat="36.0041975" lon="139.2045003"><ele>451.83666666666664</ele><time>2023-02-25T02:41:38Z</time></trkpt><trkpt lat="36.0040237" lon="139.2043879"><ele>450.73999999999995</ele><time>2023-02-25T02:41:49Z</time></trkpt><trkpt lat="36.00384" lon="139.2043575"><ele>449.2</ele><time>2023-02-25T02:42:36Z</time></trkpt><trkpt lat="36.0037216" lon="139.2041878"><ele>448.22666666666663</ele><time>2023-02-25T02:42:46Z</time></trkpt><trkpt lat="36.0035887" lon="139.2040331"><ele>448.96000000000004</ele><time>2023-02-25T02:43:05Z</time></trkpt><trkpt lat="36.0037248" lon="139.2042976"><ele>449.08</ele><time>2023-02-25T02:43:30Z</time></trkpt><trkpt lat="36.003909" lon="139.2043854"><ele>448.61000000000007</ele><time>2023-02-25T02:43:42Z</time></trkpt><trkpt lat="36.0039932" lon="139.2045841"><ele>446.8866666666667</ele><time>2023-02-25T02:43:58Z</time></trkpt><trkpt lat="36.0039612" lon="139.2048083"><ele>445.56666666666666</ele><time>2023-02-25T02:44:09Z</time></trkpt><trkpt lat="36.0039231" lon="139.205032"><ele>443.04333333333335</ele><time>2023-02-25T02:44:15Z</time></trkpt><trkpt lat="36.0039925" lon="139.2052413"><ele>440.32</ele><time>2023-02-25T02:44:27Z</time></trkpt><trkpt lat="36.0041702" lon="139.205345"><ele>438.99666666666667</ele><time>2023-02-25T02:44:34Z</time></trkpt><trkpt lat="36.004357" lon="139.2053902"><ele>437.56666666666666</ele><time>2023-02-25T02:44:40Z</time></trkpt><trkpt lat="36.0045404" lon="139.2054166"><ele>436.81</ele><time>2023-02-25T02:44:45Z</time></trkpt><trkpt lat="36.0046635" lon="139.2055883"><ele>437.22333333333336</ele><time>2023-02-25T02:44:51Z</time></trkpt><trkpt lat="36.0044874" lon="139.2056886"><ele>437.10999999999996</ele><time>2023-02-25T02:45:03Z</time></trkpt><trkpt lat="36.0043662" lon="139.2058536"><ele>435.7166666666667</ele><time>2023-02-25T02:45:14Z</time></trkpt><trkpt lat="36.0042159" lon="139.2059783"><ele>430.32666666666665</ele><time>2023-02-25T02:45:24Z</time></trkpt><trkpt lat="36.0041234" lon="139.2061781"><ele>426.0366666666667</ele><time>2023-02-25T02:45:35Z</time></trkpt><trkpt lat="36.0041031" lon="139.2064238"><ele>422.6766666666667</ele><time>2023-02-25T02:45:42Z</time></trkpt><trkpt lat="36.0040521" lon="139.2066412"><ele>422.58666666666664</ele><time>2023-02-25T02:45:48Z</time></trkpt><trkpt lat="36.0040151" lon="139.2068588"><ele>420.84</ele><time>2023-02-25T02:46:00Z</time></trkpt><trkpt lat="36.0040816" lon="139.2070907"><ele>419.3733333333333</ele><time>2023-02-25T02:46:10Z</time></trkpt><trkpt lat="36.0041063" lon="139.2073118"><ele>417.1333333333334</ele><time>2023-02-25T02:46:24Z</time></trkpt><trkpt lat="36.0040376" lon="139.2075328"><ele>415.6666666666667</ele><time>2023-02-25T02:46:38Z</time></trkpt><trkpt lat="36.0039365" lon="139.2077583"><ele>413.06</ele><time>2023-02-25T02:46:50Z</time></trkpt><trkpt lat="36.0041071" lon="139.2078381"><ele>411.79333333333335</ele><time>2023-02-25T02:47:17Z</time></trkpt><trkpt lat="36.0041389" lon="139.2081171"><ele>410.34666666666664</ele><time>2023-02-25T02:47:29Z</time></trkpt><trkpt lat="36.0041635" lon="139.2083483"><ele>408.78999999999996</ele><time>2023-02-25T02:47:40Z</time></trkpt><trkpt lat="36.004273" lon="139.2085362"><ele>405.5366666666667</ele><time>2023-02-25T02:47:51Z</time></trkpt><trkpt lat="36.0044374" lon="139.2086574"><ele>404.63000000000005</ele><time>2023-02-25T02:48:03Z</time></trkpt><trkpt lat="36.0046148" lon="139.2087707"><ele>406.3533333333333</ele><time>2023-02-25T02:48:13Z</time></trkpt><trkpt lat="36.0045102" lon="139.208971"><ele>408.04333333333335</ele><time>2023-02-25T02:48:23Z</time></trkpt><trkpt lat="36.0045769" lon="139.2091881"><ele>409.7066666666667</ele><time>2023-02-25T02:48:40Z</time></trkpt><trkpt lat="36.0047627" lon="139.2091448"><ele>412.4566666666667</ele><time>2023-02-25T02:48:53Z</time></trkpt><trkpt lat="36.0047488" lon="139.2089174"><ele>414.6633333333334</ele><time>2023-02-25T02:49:25Z</time></trkpt><trkpt lat="36.0045683" lon="139.2089287"><ele>414.2166666666667</ele><time>2023-02-25T02:54:45Z</time></trkpt><trkpt lat="36.0047594" lon="139.2089179"><ele>412.9966666666667</ele><time>2023-02-25T02:58:27Z</time></trkpt><trkpt lat="36.004772" lon="139.2091549"><ele>414.2166666666667</ele><time>2023-02-25T02:58:51Z</time></trkpt><trkpt lat="36.0046227" lon="139.2093461"><ele>416.6166666666666</ele><time>2023-02-25T02:59:12Z</time></trkpt><trkpt lat="36.0045797" lon="139.2095765"><ele>418.68</ele><time>2023-02-25T02:59:21Z</time></trkpt><trkpt lat="36.0045004" lon="139.2097863"><ele>420.09666666666664</ele><time>2023-02-25T02:59:35Z</time></trkpt><trkpt lat="36.0043826" lon="139.2099758"><ele>421.79333333333335</ele><time>2023-02-25T02:59:50Z</time></trkpt><trkpt lat="36.0042285" lon="139.2101242"><ele>422.75333333333333</ele><time>2023-02-25T03:00:04Z</time></trkpt><trkpt lat="36.0041772" lon="139.2103748"><ele>423.2733333333333</ele><time>2023-02-25T03:00:21Z</time></trkpt><trkpt lat="36.0041891" lon="139.2105995"><ele>424.68333333333334</ele><time>2023-02-25T03:00:36Z</time></trkpt><trkpt lat="36.0042759" lon="139.2108179"><ele>425.5566666666667</ele><time>2023-02-25T03:00:49Z</time></trkpt><trkpt lat="36.0043065" lon="139.211044"><ele>426.16333333333336</ele><time>2023-02-25T03:01:01Z</time></trkpt><trkpt lat="36.0043695" lon="139.2112544"><ele>428.04333333333335</ele><time>2023-02-25T03:01:13Z</time></trkpt><trkpt lat="36.0044555" lon="139.2114574"><ele>430.4766666666667</ele><time>2023-02-25T03:01:28Z</time></trkpt><trkpt lat="36.004539" lon="139.2117038"><ele>434.5333333333333</ele><time>2023-02-25T03:01:46Z</time></trkpt><trkpt lat="36.0045776" lon="139.2119381"><ele>436.8766666666667</ele><time>2023-02-25T03:02:01Z</time></trkpt><trkpt lat="36.004561" lon="139.2122072"><ele>439.59</ele><time>2023-02-25T03:02:16Z</time></trkpt><trkpt lat="36.0046522" lon="139.212419"><ele>442.8</ele><time>2023-02-25T03:02:30Z</time></trkpt><trkpt lat="36.004529" lon="139.2125927"><ele>446.1466666666667</ele><time>2023-02-25T03:03:09Z</time></trkpt><trkpt lat="36.0044958" lon="139.2128365"><ele>449.78000000000003</ele><time>2023-02-25T03:03:24Z</time></trkpt><trkpt lat="36.0044763" lon="139.2130634"><ele>451.50666666666666</ele><time>2023-02-25T03:03:40Z</time></trkpt><trkpt lat="36.0045415" lon="139.2128249"><ele>453.1033333333333</ele><time>2023-02-25T03:04:01Z</time></trkpt><trkpt lat="36.0046512" lon="139.2126033"><ele>452.8533333333333</ele><time>2023-02-25T03:04:16Z</time></trkpt><trkpt lat="36.0046944" lon="139.2123461"><ele>451.1333333333334</ele><time>2023-02-25T03:04:46Z</time></trkpt><trkpt lat="36.0047652" lon="139.2121325"><ele>448.99333333333334</ele><time>2023-02-25T03:04:57Z</time></trkpt><trkpt lat="36.0048733" lon="139.2123142"><ele>449.50333333333333</ele><time>2023-02-25T03:05:55Z</time></trkpt><trkpt lat="36.0049807" lon="139.212512"><ele>454.6000000000001</ele><time>2023-02-25T03:06:28Z</time></trkpt><trkpt lat="36.0050972" lon="139.2126828"><ele>461.72</ele><time>2023-02-25T03:06:55Z</time></trkpt><trkpt lat="36.0052304" lon="139.2128398"><ele>468.16</ele><time>2023-02-25T03:07:16Z</time></trkpt><trkpt lat="36.0053839" lon="139.2129893"><ele>472.91</ele><time>2023-02-25T03:07:32Z</time></trkpt><trkpt lat="36.0055184" lon="139.2131543"><ele>477.16</ele><time>2023-02-25T03:07:50Z</time></trkpt><trkpt lat="36.0056526" lon="139.2133646"><ele>479.98</ele><time>2023-02-25T03:08:08Z</time></trkpt><trkpt lat="36.0057568" lon="139.2135553"><ele>480.42</ele><time>2023-02-25T03:08:44Z</time></trkpt><trkpt lat="36.0058584" lon="139.2137386"><ele>475.91333333333336</ele><time>2023-02-25T03:09:20Z</time></trkpt><trkpt lat="36.0060485" lon="139.2137822"><ele>470.02666666666664</ele><time>2023-02-25T03:09:32Z</time></trkpt><trkpt lat="36.0062359" lon="139.2137653"><ele>466.2133333333333</ele><time>2023-02-25T03:09:52Z</time></trkpt><trkpt lat="36.0064218" lon="139.2137682"><ele>465.5933333333333</ele><time>2023-02-25T03:10:02Z</time></trkpt><trkpt lat="36.0066063" lon="139.2137396"><ele>465.99333333333334</ele><time>2023-02-25T03:10:17Z</time></trkpt><trkpt lat="36.0067796" lon="139.2136617"><ele>466.24</ele><time>2023-02-25T03:10:32Z</time></trkpt><trkpt lat="36.0069451" lon="139.2137594"><ele>466.17333333333335</ele><time>2023-02-25T03:10:47Z</time></trkpt><trkpt lat="36.0071232" lon="139.2136972"><ele>465.26666666666665</ele><time>2023-02-25T03:11:02Z</time></trkpt><trkpt lat="36.0073149" lon="139.2137129"><ele>462.8966666666667</ele><time>2023-02-25T03:11:17Z</time></trkpt><trkpt lat="36.0074966" lon="139.2137749"><ele>461.2266666666667</ele><time>2023-02-25T03:11:29Z</time></trkpt><trkpt lat="36.0076463" lon="139.2139689"><ele>460.92333333333335</ele><time>2023-02-25T03:11:44Z</time></trkpt><trkpt lat="36.0077813" lon="139.2141271"><ele>461.1366666666666</ele><time>2023-02-25T03:11:56Z</time></trkpt><trkpt lat="36.0078998" lon="139.2143429"><ele>462.05</ele><time>2023-02-25T03:12:14Z</time></trkpt><trkpt lat="36.0080166" lon="139.2145498"><ele>461.50333333333333</ele><time>2023-02-25T03:12:29Z</time></trkpt><trkpt lat="36.0081202" lon="139.2147873"><ele>460.18666666666667</ele><time>2023-02-25T03:12:47Z</time></trkpt><trkpt lat="36.0082568" lon="139.2149701"><ele>458.8033333333333</ele><time>2023-02-25T03:13:02Z</time></trkpt><trkpt lat="36.00843" lon="139.2150971"><ele>459.98333333333335</ele><time>2023-02-25T03:13:21Z</time></trkpt><trkpt lat="36.0086215" lon="139.2150816"><ele>464.28999999999996</ele><time>2023-02-25T03:13:31Z</time></trkpt><trkpt lat="36.0087929" lon="139.215181"><ele>468.9466666666667</ele><time>2023-02-25T03:14:21Z</time></trkpt><trkpt lat="36.0089429" lon="139.2153259"><ele>471.9166666666667</ele><time>2023-02-25T03:14:27Z</time></trkpt><trkpt lat="36.009092" lon="139.2154506"><ele>472.78000000000003</ele><time>2023-02-25T03:14:49Z</time></trkpt><trkpt lat="36.009274" lon="139.2154642"><ele>474.0366666666667</ele><time>2023-02-25T03:15:04Z</time></trkpt><trkpt lat="36.0093511" lon="139.2156851"><ele>474.8333333333333</ele><time>2023-02-25T03:15:25Z</time></trkpt><trkpt lat="36.0093142" lon="139.2159301"><ele>473.76</ele><time>2023-02-25T03:15:31Z</time></trkpt><trkpt lat="36.0095071" lon="139.2160239"><ele>472.3533333333333</ele><time>2023-02-25T03:15:49Z</time></trkpt><trkpt lat="36.0096926" lon="139.2161046"><ele>472.0733333333333</ele><time>2023-02-25T03:16:01Z</time></trkpt><trkpt lat="36.0098797" lon="139.2161271"><ele>474.16333333333336</ele><time>2023-02-25T03:16:16Z</time></trkpt><trkpt lat="36.0100303" lon="139.2162892"><ele>475.50333333333333</ele><time>2023-02-25T03:16:28Z</time></trkpt><trkpt lat="36.0101763" lon="139.2164511"><ele>476.59999999999997</ele><time>2023-02-25T03:16:46Z</time></trkpt><trkpt lat="36.0102744" lon="139.2166672"><ele>476.6266666666666</ele><time>2023-02-25T03:17:06Z</time></trkpt><trkpt lat="36.0103073" lon="139.2169021"><ele>476.02666666666664</ele><time>2023-02-25T03:17:16Z</time></trkpt><trkpt lat="36.0104418" lon="139.2171245"><ele>475.97666666666663</ele><time>2023-02-25T03:17:34Z</time></trkpt><trkpt lat="36.0105071" lon="139.2173352"><ele>476.76</ele><time>2023-02-25T03:17:52Z</time></trkpt><trkpt lat="36.0105232" lon="139.2175745"><ele>477.8633333333333</ele><time>2023-02-25T03:18:07Z</time></trkpt><trkpt lat="36.0105078" lon="139.2178001"><ele>478.00333333333333</ele><time>2023-02-25T03:18:19Z</time></trkpt><trkpt lat="36.0105098" lon="139.2180408"><ele>477.12999999999994</ele><time>2023-02-25T03:18:31Z</time></trkpt><trkpt lat="36.0105311" lon="139.218278"><ele>476.02</ele><time>2023-02-25T03:18:46Z</time></trkpt><trkpt lat="36.0105609" lon="139.2185298"><ele>474.72666666666663</ele><time>2023-02-25T03:19:01Z</time></trkpt><trkpt lat="36.0106203" lon="139.2187433"><ele>473.98333333333335</ele><time>2023-02-25T03:19:13Z</time></trkpt><trkpt lat="36.0106236" lon="139.2189978"><ele>473.00333333333333</ele><time>2023-02-25T03:19:28Z</time></trkpt><trkpt lat="36.010616" lon="139.2192289"><ele>471.8833333333334</ele><time>2023-02-25T03:19:42Z</time></trkpt><trkpt lat="36.0104999" lon="139.2194614"><ele>467.75333333333333</ele><time>2023-02-25T03:19:55Z</time></trkpt><trkpt lat="36.0105713" lon="139.2196744"><ele>464.44000000000005</ele><time>2023-02-25T03:20:07Z</time></trkpt><trkpt lat="36.0106645" lon="139.2198659"><ele>462.9166666666667</ele><time>2023-02-25T03:20:31Z</time></trkpt><trkpt lat="36.0107735" lon="139.2200525"><ele>462.8333333333333</ele><time>2023-02-25T03:21:52Z</time></trkpt><trkpt lat="36.0108978" lon="139.2202539"><ele>461.04333333333335</ele><time>2023-02-25T03:22:13Z</time></trkpt><trkpt lat="36.0109989" lon="139.2204604"><ele>457.20000000000005</ele><time>2023-02-25T03:22:28Z</time></trkpt><trkpt lat="36.0110614" lon="139.2206751"><ele>454.2066666666667</ele><time>2023-02-25T03:22:58Z</time></trkpt><trkpt lat="36.0110407" lon="139.2209161"><ele>451.4133333333334</ele><time>2023-02-25T03:23:25Z</time></trkpt><trkpt lat="36.0110332" lon="139.2211651"><ele>447.62000000000006</ele><time>2023-02-25T03:23:33Z</time></trkpt><trkpt lat="36.0110275" lon="139.2213979"><ele>444.5033333333334</ele><time>2023-02-25T03:23:48Z</time></trkpt><trkpt lat="36.0110242" lon="139.2216393"><ele>442.7766666666667</ele><time>2023-02-25T03:24:06Z</time></trkpt><trkpt lat="36.0109971" lon="139.2218735"><ele>443.81666666666666</ele><time>2023-02-25T03:24:27Z</time></trkpt><trkpt lat="36.0109832" lon="139.2221207"><ele>447.17333333333335</ele><time>2023-02-25T03:24:45Z</time></trkpt><trkpt lat="36.0109364" lon="139.2223371"><ele>452.00666666666666</ele><time>2023-02-25T03:25:00Z</time></trkpt><trkpt lat="36.0109048" lon="139.2225619"><ele>456.91</ele><time>2023-02-25T03:25:18Z</time></trkpt><trkpt lat="36.0108436" lon="139.2227821"><ele>457.97666666666663</ele><time>2023-02-25T03:25:33Z</time></trkpt><trkpt lat="36.0107802" lon="139.2230181"><ele>455.18</ele><time>2023-02-25T03:25:48Z</time></trkpt><trkpt lat="36.0107064" lon="139.2232327"><ele>450.51000000000005</ele><time>2023-02-25T03:26:03Z</time></trkpt><trkpt lat="36.0107256" lon="139.2234581"><ele>446.65000000000003</ele><time>2023-02-25T03:26:16Z</time></trkpt><trkpt lat="36.0108563" lon="139.2236277"><ele>444.2633333333333</ele><time>2023-02-25T03:26:31Z</time></trkpt><trkpt lat="36.0109409" lon="139.2239149"><ele>441.3933333333334</ele><time>2023-02-25T03:26:48Z</time></trkpt><trkpt lat="36.0111081" lon="139.2240798"><ele>437.8866666666667</ele><time>2023-02-25T03:27:12Z</time></trkpt><trkpt lat="36.0112733" lon="139.224212"><ele>434.7966666666666</ele><time>2023-02-25T03:27:30Z</time></trkpt><trkpt lat="36.0113895" lon="139.2243972"><ele>432.74333333333334</ele><time>2023-02-25T03:27:42Z</time></trkpt><trkpt lat="36.0115484" lon="139.224509"><ele>431.90333333333336</ele><time>2023-02-25T03:27:54Z</time></trkpt><trkpt lat="36.0117036" lon="139.2246251"><ele>431.66</ele><time>2023-02-25T03:28:18Z</time></trkpt><trkpt lat="36.0118756" lon="139.2248075"><ele>432.28999999999996</ele><time>2023-02-25T03:28:30Z</time></trkpt><trkpt lat="36.0120298" lon="139.2249626"><ele>434.0933333333333</ele><time>2023-02-25T03:28:42Z</time></trkpt><trkpt lat="36.0121997" lon="139.2251081"><ele>438.0266666666667</ele><time>2023-02-25T03:29:00Z</time></trkpt><trkpt lat="36.012342" lon="139.2252515"><ele>443.6233333333333</ele><time>2023-02-25T03:29:36Z</time></trkpt><trkpt lat="36.0125091" lon="139.225337"><ele>449.6000000000001</ele><time>2023-02-25T03:29:54Z</time></trkpt><trkpt lat="36.0126474" lon="139.2255283"><ele>455.06666666666666</ele><time>2023-02-25T03:30:09Z</time></trkpt><trkpt lat="36.0127027" lon="139.2257524"><ele>458.31666666666666</ele><time>2023-02-25T03:30:26Z</time></trkpt><trkpt lat="36.0127237" lon="139.2259975"><ele>458.01</ele><time>2023-02-25T03:31:23Z</time></trkpt><trkpt lat="36.0126459" lon="139.2262248"><ele>452.6833333333334</ele><time>2023-02-25T03:31:53Z</time></trkpt><trkpt lat="36.0125474" lon="139.2264278"><ele>444.4166666666667</ele><time>2023-02-25T03:32:11Z</time></trkpt><trkpt lat="36.0125943" lon="139.2266522"><ele>437.00666666666666</ele><time>2023-02-25T03:32:35Z</time></trkpt><trkpt lat="36.0125602" lon="139.2269152"><ele>430.1366666666667</ele><time>2023-02-25T03:33:15Z</time></trkpt><trkpt lat="36.012477" lon="139.227137"><ele>424.42333333333335</ele><time>2023-02-25T03:33:30Z</time></trkpt><trkpt lat="36.0124238" lon="139.2273634"><ele>416.68</ele><time>2023-02-25T03:34:18Z</time></trkpt><trkpt lat="36.0123125" lon="139.2275501"><ele>410.0833333333333</ele><time>2023-02-25T03:34:33Z</time></trkpt><trkpt lat="36.0121635" lon="139.2277009"><ele>402.84666666666664</ele><time>2023-02-25T03:34:48Z</time></trkpt><trkpt lat="36.0121583" lon="139.2279542"><ele>397.56333333333333</ele><time>2023-02-25T03:35:56Z</time></trkpt><trkpt lat="36.0121048" lon="139.2281955"><ele>391.7633333333333</ele><time>2023-02-25T03:36:20Z</time></trkpt><trkpt lat="36.0120513" lon="139.2284143"><ele>387.95000000000005</ele><time>2023-02-25T03:36:32Z</time></trkpt><trkpt lat="36.0120252" lon="139.2286403"><ele>383.70666666666665</ele><time>2023-02-25T03:36:47Z</time></trkpt><trkpt lat="36.0119364" lon="139.228873"><ele>380.71</ele><time>2023-02-25T03:37:02Z</time></trkpt><trkpt lat="36.0117687" lon="139.2290535"><ele>377.51</ele><time>2023-02-25T03:37:17Z</time></trkpt><trkpt lat="36.0116512" lon="139.2292417"><ele>375.58666666666664</ele><time>2023-02-25T03:37:35Z</time></trkpt><trkpt lat="36.0115332" lon="139.2294273"><ele>374.06666666666666</ele><time>2023-02-25T03:37:47Z</time></trkpt><trkpt lat="36.0114235" lon="139.2296154"><ele>372.7833333333333</ele><time>2023-02-25T03:38:10Z</time></trkpt><trkpt lat="36.0112851" lon="139.2294601"><ele>371.6166666666666</ele><time>2023-02-25T03:38:36Z</time></trkpt><trkpt lat="36.0111322" lon="139.2296263"><ele>369.1433333333334</ele><time>2023-02-25T03:39:51Z</time></trkpt><trkpt lat="36.0109433" lon="139.2296381"><ele>362.35999999999996</ele><time>2023-02-25T03:40:05Z</time></trkpt><trkpt lat="36.0108402" lon="139.2298615"><ele>356.4766666666667</ele><time>2023-02-25T03:40:24Z</time></trkpt><trkpt lat="36.01081" lon="139.2301027"><ele>352.22333333333336</ele><time>2023-02-25T03:40:39Z</time></trkpt><trkpt lat="36.010763" lon="139.2298842"><ele>352.4266666666667</ele><time>2023-02-25T03:41:15Z</time></trkpt><trkpt lat="36.0108881" lon="139.2300528"><ele>353.14333333333326</ele><time>2023-02-25T03:41:42Z</time></trkpt><trkpt lat="36.0110707" lon="139.2300962"><ele>354.9666666666667</ele><time>2023-02-25T03:42:16Z</time></trkpt><trkpt lat="36.0112319" lon="139.2302353"><ele>357.3933333333334</ele><time>2023-02-25T03:42:28Z</time></trkpt><trkpt lat="36.0110432" lon="139.2301701"><ele>357.2633333333333</ele><time>2023-02-25T03:43:01Z</time></trkpt><trkpt lat="36.0111594" lon="139.2303458"><ele>355.5366666666667</ele><time>2023-02-25T03:43:37Z</time></trkpt><trkpt lat="36.0111983" lon="139.2305705"><ele>351.01666666666665</ele><time>2023-02-25T03:44:00Z</time></trkpt><trkpt lat="36.011206" lon="139.2308427"><ele>344.8533333333333</ele><time>2023-02-25T03:44:18Z</time></trkpt><trkpt lat="36.01123" lon="139.2310869"><ele>336.7666666666667</ele><time>2023-02-25T03:45:07Z</time></trkpt><trkpt lat="36.0113458" lon="139.2312648"><ele>330.78000000000003</ele><time>2023-02-25T03:45:51Z</time></trkpt><trkpt lat="36.0112684" lon="139.2314754"><ele>325.5366666666667</ele><time>2023-02-25T03:46:16Z</time></trkpt><trkpt lat="36.011287" lon="139.2317225"><ele>322.42333333333335</ele><time>2023-02-25T03:46:31Z</time></trkpt><trkpt lat="36.0113641" lon="139.231936"><ele>320.24666666666667</ele><time>2023-02-25T03:46:40Z</time></trkpt><trkpt lat="36.0114024" lon="139.2321549"><ele>319.66333333333336</ele><time>2023-02-25T03:47:07Z</time></trkpt><trkpt lat="36.0112272" lon="139.2320456"><ele>318.56666666666666</ele><time>2023-02-25T03:48:04Z</time></trkpt><trkpt lat="36.0110818" lon="139.2318915"><ele>315.6766666666667</ele><time>2023-02-25T03:49:02Z</time></trkpt><trkpt lat="36.0109907" lon="139.2316823"><ele>313.5333333333333</ele><time>2023-02-25T03:49:14Z</time></trkpt><trkpt lat="36.0108192" lon="139.2315408"><ele>312.23333333333335</ele><time>2023-02-25T03:49:29Z</time></trkpt><trkpt lat="36.010691" lon="139.2313844"><ele>312.5333333333333</ele><time>2023-02-25T03:49:44Z</time></trkpt><trkpt lat="36.0106278" lon="139.2316275"><ele>310.8833333333333</ele><time>2023-02-25T03:50:28Z</time></trkpt><trkpt lat="36.0104756" lon="139.2314969"><ele>310.06</ele><time>2023-02-25T03:51:07Z</time></trkpt><trkpt lat="36.0102899" lon="139.2314721"><ele>306.93333333333334</ele><time>2023-02-25T03:52:16Z</time></trkpt><trkpt lat="36.0101045" lon="139.2314174"><ele>304.51000000000005</ele><time>2023-02-25T03:52:31Z</time></trkpt><trkpt lat="36.0098888" lon="139.2314638"><ele>299.7066666666667</ele><time>2023-02-25T03:53:52Z</time></trkpt><trkpt lat="36.0096907" lon="139.2315356"><ele>296.4866666666667</ele><time>2023-02-25T03:54:28Z</time></trkpt><trkpt lat="36.0095351" lon="139.2317157"><ele>292.8833333333334</ele><time>2023-02-25T03:54:40Z</time></trkpt><trkpt lat="36.0093803" lon="139.2318716"><ele>289.4266666666667</ele><time>2023-02-25T03:54:52Z</time></trkpt><trkpt lat="36.009239" lon="139.2320183"><ele>286.1566666666667</ele><time>2023-02-25T03:55:07Z</time></trkpt><trkpt lat="36.0090679" lon="139.232091"><ele>284.13000000000005</ele><time>2023-02-25T03:55:24Z</time></trkpt><trkpt lat="36.0089347" lon="139.232251"><ele>283.82</ele><time>2023-02-25T03:56:27Z</time></trkpt><trkpt lat="36.0087824" lon="139.2323729"><ele>283.4166666666667</ele><time>2023-02-25T03:56:45Z</time></trkpt><trkpt lat="36.0086015" lon="139.2325097"><ele>283.0833333333333</ele><time>2023-02-25T03:57:03Z</time></trkpt><trkpt lat="36.0084608" lon="139.2326762"><ele>282.26</ele><time>2023-02-25T03:57:21Z</time></trkpt><trkpt lat="36.0084076" lon="139.2328949"><ele>281.5066666666667</ele><time>2023-02-25T03:58:03Z</time></trkpt><trkpt lat="36.008337" lon="139.2331145"><ele>280.57</ele><time>2023-02-25T03:58:15Z</time></trkpt><trkpt lat="36.0082394" lon="139.2333332"><ele>278.65000000000003</ele><time>2023-02-25T03:58:30Z</time></trkpt><trkpt lat="36.0081506" lon="139.2335393"><ele>274.06666666666666</ele><time>2023-02-25T03:58:42Z</time></trkpt><trkpt lat="36.0080729" lon="139.2337423"><ele>267.49333333333334</ele><time>2023-02-25T03:58:54Z</time></trkpt><trkpt lat="36.0078935" lon="139.2338053"><ele>261.00333333333333</ele><time>2023-02-25T03:59:09Z</time></trkpt><trkpt lat="36.0078691" lon="139.2340318"><ele>255.72</ele><time>2023-02-25T03:59:42Z</time></trkpt><trkpt lat="36.0076734" lon="139.2341771"><ele>251.25</ele><time>2023-02-25T03:59:57Z</time></trkpt><trkpt lat="36.0078448" lon="139.2342905"><ele>247.61666666666667</ele><time>2023-02-25T04:00:02Z</time></trkpt><trkpt lat="36.007618" lon="139.2342356"><ele>245.04666666666665</ele><time>2023-02-25T04:00:32Z</time></trkpt><trkpt lat="36.0075539" lon="139.2344672"><ele>241.83</ele><time>2023-02-25T04:01:02Z</time></trkpt><trkpt lat="36.0074397" lon="139.234288"><ele>239.3033333333333</ele><time>2023-02-25T04:01:38Z</time></trkpt><trkpt lat="36.007271" lon="139.2343897"><ele>235.78666666666666</ele><time>2023-02-25T04:01:50Z</time></trkpt><trkpt lat="36.0071158" lon="139.2345302"><ele>233.79333333333332</ele><time>2023-02-25T04:02:05Z</time></trkpt><trkpt lat="36.0069367" lon="139.2344739"><ele>230.8066666666667</ele><time>2023-02-25T04:02:23Z</time></trkpt><trkpt lat="36.0068775" lon="139.234705"><ele>227.78666666666666</ele><time>2023-02-25T04:02:44Z</time></trkpt><trkpt lat="36.0067431" lon="139.2348557"><ele>222.20666666666668</ele><time>2023-02-25T04:03:14Z</time></trkpt><trkpt lat="36.0065534" lon="139.2348967"><ele>214.76</ele><time>2023-02-25T04:03:29Z</time></trkpt><trkpt lat="36.0063621" lon="139.2348441"><ele>206.70000000000002</ele><time>2023-02-25T04:04:17Z</time></trkpt><trkpt lat="36.0061483" lon="139.2347918"><ele>200.93999999999997</ele><time>2023-02-25T04:04:32Z</time></trkpt><trkpt lat="36.0059514" lon="139.2348169"><ele>197.58</ele><time>2023-02-25T04:04:49Z</time></trkpt><trkpt lat="36.0058412" lon="139.2349947"><ele>195.86333333333334</ele><time>2023-02-25T04:04:56Z</time></trkpt><trkpt lat="36.0056568" lon="139.234867"><ele>192.22000000000003</ele><time>2023-02-25T04:05:10Z</time></trkpt><trkpt lat="36.0055017" lon="139.234996"><ele>188.78666666666666</ele><time>2023-02-25T04:05:25Z</time></trkpt><trkpt lat="36.005351" lon="139.2351823"><ele>185.04666666666665</ele><time>2023-02-25T04:05:37Z</time></trkpt><trkpt lat="36.0052941" lon="139.235427"><ele>184.00666666666666</ele><time>2023-02-25T04:05:52Z</time></trkpt><trkpt lat="36.0051775" lon="139.2356582"><ele>183.01999999999998</ele><time>2023-02-25T04:06:07Z</time></trkpt><trkpt lat="36.0049711" lon="139.2355578"><ele>180.08</ele><time>2023-02-25T04:06:37Z</time></trkpt><trkpt lat="36.0050452" lon="139.2353171"><ele>177.34666666666666</ele><time>2023-02-25T04:06:52Z</time></trkpt><trkpt lat="36.0050874" lon="139.2350992"><ele>173.98333333333335</ele><time>2023-02-25T04:07:07Z</time></trkpt><trkpt lat="36.0049654" lon="139.23489"><ele>171.87333333333333</ele><time>2023-02-25T04:07:19Z</time></trkpt><trkpt lat="36.004931" lon="139.2346676"><ele>167.92333333333332</ele><time>2023-02-25T04:07:34Z</time></trkpt><trkpt lat="36.0047289" lon="139.2346656"><ele>163.65666666666667</ele><time>2023-02-25T04:07:49Z</time></trkpt><trkpt lat="36.0046976" lon="139.2348926"><ele>161.79</ele><time>2023-02-25T04:07:58Z</time></trkpt><trkpt lat="36.0047018" lon="139.2351203"><ele>162.03</ele><time>2023-02-25T04:08:10Z</time></trkpt><trkpt lat="36.0046799" lon="139.2353493"><ele>163.43999999999997</ele><time>2023-02-25T04:08:19Z</time></trkpt><trkpt lat="36.0045475" lon="139.2355376"><ele>163.51999999999998</ele><time>2023-02-25T04:08:34Z</time></trkpt><trkpt lat="36.0044113" lon="139.2357305"><ele>163.43666666666667</ele><time>2023-02-25T04:08:49Z</time></trkpt><trkpt lat="36.0042658" lon="139.2358873"><ele>160.38333333333333</ele><time>2023-02-25T04:09:01Z</time></trkpt><trkpt lat="36.0041258" lon="139.2360606"><ele>157.32333333333335</ele><time>2023-02-25T04:09:15Z</time></trkpt><trkpt lat="36.0039416" lon="139.2361845"><ele>152.38666666666668</ele><time>2023-02-25T04:09:25Z</time></trkpt><trkpt lat="36.0037825" lon="139.2363638"><ele>149.96666666666667</ele><time>2023-02-25T04:09:55Z</time></trkpt><trkpt lat="36.0035931" lon="139.2364903"><ele>146.5666666666667</ele><time>2023-02-25T04:10:07Z</time></trkpt><trkpt lat="36.0034192" lon="139.2365718"><ele>143.81333333333333</ele><time>2023-02-25T04:10:22Z</time></trkpt><trkpt lat="36.0032786" lon="139.2367272"><ele>141.03666666666666</ele><time>2023-02-25T04:10:33Z</time></trkpt><trkpt lat="36.0031027" lon="139.2367784"><ele>139.67333333333335</ele><time>2023-02-25T04:10:53Z</time></trkpt><trkpt lat="36.0029314" lon="139.2368994"><ele>139.41666666666666</ele><time>2023-02-25T04:11:06Z</time></trkpt><trkpt lat="36.0029564" lon="139.2371368"><ele>139.23000000000002</ele><time>2023-02-25T04:11:29Z</time></trkpt><trkpt lat="36.0030125" lon="139.2373751"><ele>139.03666666666666</ele><time>2023-02-25T04:11:44Z</time></trkpt><trkpt lat="36.0031942" lon="139.2374464"><ele>139.01</ele><time>2023-02-25T04:11:56Z</time></trkpt><trkpt lat="36.0033746" lon="139.2374627"><ele>139.22666666666666</ele><time>2023-02-25T04:12:08Z</time></trkpt><trkpt lat="36.0034248" lon="139.2377281"><ele>139.29666666666668</ele><time>2023-02-25T04:12:17Z</time></trkpt><trkpt lat="36.0034311" lon="139.2379757"><ele>139.25666666666666</ele><time>2023-02-25T04:12:50Z</time></trkpt><trkpt lat="36.0034514" lon="139.2382477"><ele>139.15</ele><time>2023-02-25T04:13:11Z</time></trkpt><trkpt lat="36.0035244" lon="139.2384766"><ele>139.54333333333332</ele><time>2023-02-25T04:13:26Z</time></trkpt><trkpt lat="36.0036135" lon="139.2387032"><ele>139.76666666666668</ele><time>2023-02-25T04:13:43Z</time></trkpt><trkpt lat="36.0036829" lon="139.2389151"><ele>139.66</ele><time>2023-02-25T04:13:50Z</time></trkpt><trkpt lat="36.0037525" lon="139.2391457"><ele>138.86</ele><time>2023-02-25T04:13:59Z</time></trkpt><trkpt lat="36.0039371" lon="139.2393175"><ele>138.04666666666668</ele><time>2023-02-25T04:14:08Z</time></trkpt><trkpt lat="36.00412" lon="139.2394252"><ele>137.54666666666665</ele><time>2023-02-25T04:14:35Z</time></trkpt><trkpt lat="36.004351" lon="139.2394726"><ele>137.20000000000002</ele><time>2023-02-25T04:14:56Z</time></trkpt><trkpt lat="36.0044867" lon="139.2396425"><ele>136.68</ele><time>2023-02-25T04:15:05Z</time></trkpt><trkpt lat="36.0046393" lon="139.2397999"><ele>135.72666666666666</ele><time>2023-02-25T04:15:14Z</time></trkpt><trkpt lat="36.0048274" lon="139.2398192"><ele>135.23</ele><time>2023-02-25T04:15:32Z</time></trkpt><trkpt lat="36.0050069" lon="139.2398744"><ele>135.04</ele><time>2023-02-25T04:15:42Z</time></trkpt><trkpt lat="36.0049944" lon="139.2401012"><ele>134.79</ele><time>2023-02-25T04:15:53Z</time></trkpt><trkpt lat="36.0049407" lon="139.2403534"><ele>133.76</ele><time>2023-02-25T04:16:07Z</time></trkpt><trkpt lat="36.0048559" lon="139.2405585"><ele>132.17333333333335</ele><time>2023-02-25T04:16:16Z</time></trkpt><trkpt lat="36.0048412" lon="139.2408262"><ele>131.08666666666667</ele><time>2023-02-25T04:16:28Z</time></trkpt><trkpt lat="36.0048564" lon="139.241104"><ele>132.78333333333333</ele><time>2023-02-25T04:16:37Z</time></trkpt><trkpt lat="36.0049607" lon="139.2413398"><ele>135.51333333333335</ele><time>2023-02-25T04:16:58Z</time></trkpt><trkpt lat="36.0050395" lon="139.2415821"><ele>138.31</ele><time>2023-02-25T04:17:13Z</time></trkpt><trkpt lat="36.0051551" lon="139.2417736"><ele>138.64333333333335</ele><time>2023-02-25T04:17:25Z</time></trkpt><trkpt lat="36.0052478" lon="139.2419648"><ele>137.49666666666667</ele><time>2023-02-25T04:17:37Z</time></trkpt><trkpt lat="36.0052654" lon="139.242192"><ele>135.98000000000002</ele><time>2023-02-25T04:17:50Z</time></trkpt><trkpt lat="36.0052366" lon="139.2424165"><ele>134.49333333333334</ele><time>2023-02-25T04:18:05Z</time></trkpt><trkpt lat="36.0052353" lon="139.2426431"><ele>133.73333333333335</ele><time>2023-02-25T04:18:16Z</time></trkpt><trkpt lat="36.0052142" lon="139.2428931"><ele>133.21333333333334</ele><time>2023-02-25T04:18:32Z</time></trkpt><trkpt lat="36.0051351" lon="139.2431046"><ele>133.07333333333335</ele><time>2023-02-25T04:18:53Z</time></trkpt><trkpt lat="36.0051066" lon="139.2433239"><ele>132.72333333333336</ele><time>2023-02-25T04:19:08Z</time></trkpt><trkpt lat="36.0051304" lon="139.2435773"><ele>132.03</ele><time>2023-02-25T04:19:23Z</time></trkpt><trkpt lat="36.0050727" lon="139.243831"><ele>131.47666666666666</ele><time>2023-02-25T04:19:35Z</time></trkpt><trkpt lat="36.0050113" lon="139.244063"><ele>131.26666666666668</ele><time>2023-02-25T04:20:59Z</time></trkpt><trkpt lat="36.0050179" lon="139.2443016"><ele>130.37</ele><time>2023-02-25T04:21:14Z</time></trkpt><trkpt lat="36.0050052" lon="139.2445267"><ele>129.09666666666666</ele><time>2023-02-25T04:21:27Z</time></trkpt><trkpt lat="36.0050608" lon="139.2447933"><ele>127.08666666666666</ele><time>2023-02-25T04:21:41Z</time></trkpt><trkpt lat="36.005027" lon="139.2450122"><ele>125.63999999999999</ele><time>2023-02-25T04:21:53Z</time></trkpt><trkpt lat="36.0049504" lon="139.245236"><ele>124.58999999999999</ele><time>2023-02-25T04:22:05Z</time></trkpt><trkpt lat="36.0048764" lon="139.2454548"><ele>124.33666666666666</ele><time>2023-02-25T04:22:19Z</time></trkpt><trkpt lat="36.0048207" lon="139.2457423"><ele>123.78666666666668</ele><time>2023-02-25T04:22:37Z</time></trkpt><trkpt lat="36.0049542" lon="139.2459221"><ele>119.35000000000001</ele><time>2023-02-25T04:22:52Z</time></trkpt><trkpt lat="36.0051409" lon="139.2458746"><ele>114.45666666666666</ele><time>2023-02-25T04:23:04Z</time></trkpt><trkpt lat="36.0052407" lon="139.2461302"><ele>113.23666666666668</ele><time>2023-02-25T04:23:13Z</time></trkpt><trkpt lat="36.005385" lon="139.2462948"><ele>116.92000000000002</ele><time>2023-02-25T04:23:28Z</time></trkpt><trkpt lat="36.0051833" lon="139.2463597"><ele>120.65666666666668</ele><time>2023-02-25T04:23:43Z</time></trkpt><trkpt lat="36.0051522" lon="139.2466031"><ele>122.47333333333334</ele><time>2023-02-25T04:24:01Z</time></trkpt><trkpt lat="36.0049987" lon="139.2467541"><ele>123.59333333333332</ele><time>2023-02-25T04:24:28Z</time></trkpt><trkpt lat="36.0048644" lon="139.2469296"><ele>125.94333333333333</ele><time>2023-02-25T04:24:40Z</time></trkpt><trkpt lat="36.0047496" lon="139.2471569"><ele>128.1966666666667</ele><time>2023-02-25T04:24:53Z</time></trkpt><trkpt lat="36.0046835" lon="139.2473702"><ele>131.10333333333332</ele><time>2023-02-25T04:25:04Z</time></trkpt><trkpt lat="36.0045904" lon="139.2475686"><ele>132.64333333333335</ele><time>2023-02-25T04:25:16Z</time></trkpt><trkpt lat="36.0045538" lon="139.2477878"><ele>135.13333333333333</ele><time>2023-02-25T04:25:28Z</time></trkpt><trkpt lat="36.0044358" lon="139.2480261"><ele>133.29999999999998</ele><time>2023-02-25T04:25:43Z</time></trkpt><trkpt lat="36.004375" lon="139.2482723"><ele>131.35333333333332</ele><time>2023-02-25T04:25:55Z</time></trkpt><trkpt lat="36.0043217" lon="139.2485014"><ele>122.86333333333334</ele><time>2023-02-25T04:26:10Z</time></trkpt><trkpt lat="36.0043498" lon="139.2487412"><ele>123.11666666666667</ele><time>2023-02-25T04:26:22Z</time></trkpt><trkpt lat="36.0043316" lon="139.248971"><ele>124.87666666666667</ele><time>2023-02-25T04:26:34Z</time></trkpt><trkpt lat="36.004305" lon="139.2492196"><ele>129.64666666666668</ele><time>2023-02-25T04:26:46Z</time></trkpt><trkpt lat="36.0042936" lon="139.2495176"><ele>127.53000000000002</ele><time>2023-02-25T04:27:04Z</time></trkpt><trkpt lat="36.0042609" lon="139.2497737"><ele>124.90333333333335</ele><time>2023-02-25T04:27:19Z</time></trkpt><trkpt lat="36.0041794" lon="139.2499763"><ele>122.38333333333333</ele><time>2023-02-25T04:27:31Z</time></trkpt><trkpt lat="36.0041852" lon="139.2502068"><ele>120.08333333333333</ele><time>2023-02-25T04:27:40Z</time></trkpt><trkpt lat="36.0042251" lon="139.2504555"><ele>117.29666666666667</ele><time>2023-02-25T04:27:52Z</time></trkpt><trkpt lat="36.0042751" lon="139.2506708"><ele>115.81666666666666</ele><time>2023-02-25T04:28:01Z</time></trkpt><trkpt lat="36.0043208" lon="139.2509069"><ele>114.50666666666666</ele><time>2023-02-25T04:28:16Z</time></trkpt><trkpt lat="36.0044567" lon="139.2510712"><ele>113.51666666666667</ele><time>2023-02-25T04:28:31Z</time></trkpt><trkpt lat="36.0045327" lon="139.2512747"><ele>112.21666666666665</ele><time>2023-02-25T04:28:41Z</time></trkpt><trkpt lat="36.004653" lon="139.2514816"><ele>111.27999999999999</ele><time>2023-02-25T04:29:08Z</time></trkpt><trkpt lat="36.0047656" lon="139.2516866"><ele>110.82000000000001</ele><time>2023-02-25T04:29:20Z</time></trkpt><trkpt lat="36.0048606" lon="139.2519188"><ele>110.39333333333333</ele><time>2023-02-25T04:29:32Z</time></trkpt><trkpt lat="36.0049735" lon="139.2521085"><ele>110.87333333333333</ele><time>2023-02-25T04:29:43Z</time></trkpt><trkpt lat="36.0051146" lon="139.2523297"><ele>110.85333333333334</ele><time>2023-02-25T04:30:02Z</time></trkpt><trkpt lat="36.0052096" lon="139.2525352"><ele>111.13333333333333</ele><time>2023-02-25T04:30:14Z</time></trkpt><trkpt lat="36.0053111" lon="139.252721"><ele>111.30333333333333</ele><time>2023-02-25T04:30:44Z</time></trkpt><trkpt lat="36.0054583" lon="139.2528781"><ele>111.83</ele><time>2023-02-25T04:30:59Z</time></trkpt><trkpt lat="36.0055451" lon="139.2531158"><ele>112.10666666666667</ele><time>2023-02-25T04:31:10Z</time></trkpt><trkpt lat="36.0056036" lon="139.2533357"><ele>112.33</ele><time>2023-02-25T04:31:22Z</time></trkpt><trkpt lat="36.0056305" lon="139.2535804"><ele>111.90333333333335</ele><time>2023-02-25T04:31:37Z</time></trkpt><trkpt lat="36.0056408" lon="139.253812"><ele>111.64333333333333</ele><time>2023-02-25T04:31:50Z</time></trkpt><trkpt lat="36.0056543" lon="139.2540373"><ele>111.65000000000002</ele><time>2023-02-25T04:32:02Z</time></trkpt><trkpt lat="36.005637" lon="139.2542732"><ele>111.12</ele><time>2023-02-25T04:32:14Z</time></trkpt><trkpt lat="36.0055908" lon="139.2545319"><ele>111.09666666666668</ele><time>2023-02-25T04:32:29Z</time></trkpt><trkpt lat="36.0055433" lon="139.2547695"><ele>110.32333333333334</ele><time>2023-02-25T04:32:41Z</time></trkpt><trkpt lat="36.0054797" lon="139.2550373"><ele>110.20333333333333</ele><time>2023-02-25T04:32:56Z</time></trkpt><trkpt lat="36.0055226" lon="139.2552865"><ele>111.12666666666667</ele><time>2023-02-25T04:33:08Z</time></trkpt><trkpt lat="36.0054715" lon="139.2555279"><ele>111.94000000000001</ele><time>2023-02-25T04:33:20Z</time></trkpt><trkpt lat="36.0054811" lon="139.2557816"><ele>113.05333333333334</ele><time>2023-02-25T04:33:35Z</time></trkpt><trkpt lat="36.005479" lon="139.2560204"><ele>113.06333333333333</ele><time>2023-02-25T04:33:47Z</time></trkpt><trkpt lat="36.0053985" lon="139.2562749"><ele>112.68333333333334</ele><time>2023-02-25T04:33:59Z</time></trkpt><trkpt lat="36.005389" lon="139.2565145"><ele>112.24000000000001</ele><time>2023-02-25T04:34:11Z</time></trkpt><trkpt lat="36.0053466" lon="139.2567518"><ele>110.67000000000002</ele><time>2023-02-25T04:34:23Z</time></trkpt><trkpt lat="36.0051807" lon="139.2568851"><ele>108.35666666666667</ele><time>2023-02-25T04:34:35Z</time></trkpt><trkpt lat="36.0050278" lon="139.2570296"><ele>108.02</ele><time>2023-02-25T04:34:50Z</time></trkpt><trkpt lat="36.0049131" lon="139.2572101"><ele>109.86333333333334</ele><time>2023-02-25T04:35:02Z</time></trkpt><trkpt lat="36.0048852" lon="139.2574316"><ele>112.94999999999999</ele><time>2023-02-25T04:35:11Z</time></trkpt><trkpt lat="36.0048802" lon="139.2576759"><ele>114.33999999999999</ele><time>2023-02-25T04:35:23Z</time></trkpt><trkpt lat="36.0048627" lon="139.2579149"><ele>115.02999999999999</ele><time>2023-02-25T04:35:35Z</time></trkpt><trkpt lat="36.0049662" lon="139.2581245"><ele>114.79333333333334</ele><time>2023-02-25T04:36:05Z</time></trkpt><trkpt lat="36.0049461" lon="139.25837"><ele>114.77</ele><time>2023-02-25T04:36:14Z</time></trkpt><trkpt lat="36.0048361" lon="139.2585899"><ele>113.94666666666667</ele><time>2023-02-25T04:36:26Z</time></trkpt><trkpt lat="36.0047443" lon="139.2588012"><ele>113.90000000000002</ele><time>2023-02-25T04:36:41Z</time></trkpt><trkpt lat="36.0046327" lon="139.2589842"><ele>113.20666666666666</ele><time>2023-02-25T04:36:53Z</time></trkpt><trkpt lat="36.0044748" lon="139.259158"><ele>112.58999999999999</ele><time>2023-02-25T04:37:08Z</time></trkpt><trkpt lat="36.0043582" lon="139.2593472"><ele>112.08666666666666</ele><time>2023-02-25T04:37:23Z</time></trkpt><trkpt lat="36.0042234" lon="139.2595065"><ele>110.51333333333332</ele><time>2023-02-25T04:37:34Z</time></trkpt><trkpt lat="36.004111" lon="139.2597058"><ele>108.95666666666666</ele><time>2023-02-25T04:37:44Z</time></trkpt><trkpt lat="36.0040267" lon="139.2599137"><ele>107.68</ele><time>2023-02-25T04:37:59Z</time></trkpt><trkpt lat="36.0039048" lon="139.260112"><ele>107.99000000000001</ele><time>2023-02-25T04:38:08Z</time></trkpt><trkpt lat="36.0038877" lon="139.2603381"><ele>108.05333333333333</ele><time>2023-02-25T04:38:24Z</time></trkpt><trkpt lat="36.0037959" lon="139.2605499"><ele>107.84666666666668</ele><time>2023-02-25T04:38:38Z</time></trkpt><trkpt lat="36.0037501" lon="139.2607861"><ele>106.98</ele><time>2023-02-25T04:38:50Z</time></trkpt><trkpt lat="36.0037147" lon="139.2610209"><ele>105.74666666666667</ele><time>2023-02-25T04:39:05Z</time></trkpt><trkpt lat="36.0036181" lon="139.2612405"><ele>104.73333333333333</ele><time>2023-02-25T04:39:17Z</time></trkpt><trkpt lat="36.0035244" lon="139.261487"><ele>104.13333333333333</ele><time>2023-02-25T04:39:32Z</time></trkpt><trkpt lat="36.003513" lon="139.2617306"><ele>104.31666666666666</ele><time>2023-02-25T04:39:46Z</time></trkpt><trkpt lat="36.0034445" lon="139.2619647"><ele>104.70666666666666</ele><time>2023-02-25T04:40:00Z</time></trkpt><trkpt lat="36.0033931" lon="139.2621985"><ele>105.14999999999999</ele><time>2023-02-25T04:40:15Z</time></trkpt><trkpt lat="36.003515" lon="139.2623664"><ele>105.32</ele><time>2023-02-25T04:40:28Z</time></trkpt><trkpt lat="36.0036327" lon="139.2626251"><ele>105.11</ele><time>2023-02-25T04:40:45Z</time></trkpt><trkpt lat="36.0037307" lon="139.2628491"><ele>104.77333333333333</ele><time>2023-02-25T04:40:57Z</time></trkpt><trkpt lat="36.0038878" lon="139.2629851"><ele>104.78333333333335</ele><time>2023-02-25T04:41:09Z</time></trkpt><trkpt lat="36.0040514" lon="139.2631304"><ele>104.93666666666667</ele><time>2023-02-25T04:41:21Z</time></trkpt><trkpt lat="36.0042377" lon="139.2630172"><ele>104.51666666666667</ele><time>2023-02-25T04:41:34Z</time></trkpt><trkpt lat="36.0044089" lon="139.2631442"><ele>103.88333333333333</ele><time>2023-02-25T04:42:13Z</time></trkpt><trkpt lat="36.0045846" lon="139.2632617"><ele>102.83333333333333</ele><time>2023-02-25T04:42:25Z</time></trkpt><trkpt lat="36.0047543" lon="139.2633386"><ele>101.48333333333333</ele><time>2023-02-25T04:42:43Z</time></trkpt><trkpt lat="36.004941" lon="139.263393"><ele>99.81333333333333</ele><time>2023-02-25T04:42:58Z</time></trkpt><trkpt lat="36.0050735" lon="139.2635528"><ele>98.76666666666667</ele><time>2023-02-25T04:43:07Z</time></trkpt><trkpt lat="36.0051541" lon="139.2637713"><ele>99.69666666666666</ele><time>2023-02-25T04:43:38Z</time></trkpt><trkpt lat="36.0052122" lon="139.2639883"><ele>102.73666666666666</ele><time>2023-02-25T04:43:49Z</time></trkpt><trkpt lat="36.0052652" lon="139.2642065"><ele>105.45666666666666</ele><time>2023-02-25T04:44:02Z</time></trkpt><trkpt lat="36.0052209" lon="139.2644341"><ele>107.36333333333334</ele><time>2023-02-25T04:44:17Z</time></trkpt><trkpt lat="36.005195" lon="139.2646906"><ele>107.66000000000001</ele><time>2023-02-25T04:44:33Z</time></trkpt><trkpt lat="36.0051864" lon="139.2649227"><ele>108.17333333333333</ele><time>2023-02-25T04:44:44Z</time></trkpt><trkpt lat="36.0051674" lon="139.2651731"><ele>108.48666666666668</ele><time>2023-02-25T04:45:02Z</time></trkpt><trkpt lat="36.0051866" lon="139.265443"><ele>108.21999999999998</ele><time>2023-02-25T04:45:14Z</time></trkpt><trkpt lat="36.00509" lon="139.2656925"><ele>108.02333333333333</ele><time>2023-02-25T04:45:23Z</time></trkpt><trkpt lat="36.0051054" lon="139.2659136"><ele>107.33999999999999</ele><time>2023-02-25T04:45:40Z</time></trkpt><trkpt lat="36.0050553" lon="139.2662116"><ele>107.23</ele><time>2023-02-25T04:45:53Z</time></trkpt><trkpt lat="36.005073" lon="139.2664459"><ele>107.14999999999999</ele><time>2023-02-25T04:46:05Z</time></trkpt><trkpt lat="36.0050271" lon="139.266664"><ele>107.48</ele><time>2023-02-25T04:46:20Z</time></trkpt><trkpt lat="36.0050144" lon="139.2669137"><ele>107.77</ele><time>2023-02-25T04:46:35Z</time></trkpt><trkpt lat="36.00509" lon="139.2671445"><ele>107.68</ele><time>2023-02-25T04:46:50Z</time></trkpt><trkpt lat="36.0050747" lon="139.2673724"><ele>107.36333333333334</ele><time>2023-02-25T04:47:01Z</time></trkpt><trkpt lat="36.0049143" lon="139.2675459"><ele>107.22666666666667</ele><time>2023-02-25T04:47:08Z</time></trkpt><trkpt lat="36.0049732" lon="139.2677666"><ele>106.98666666666666</ele><time>2023-02-25T04:47:26Z</time></trkpt><trkpt lat="36.0050089" lon="139.2680247"><ele>106.70666666666666</ele><time>2023-02-25T04:47:35Z</time></trkpt><trkpt lat="36.0051233" lon="139.2682871"><ele>105.95</ele><time>2023-02-25T04:47:53Z</time></trkpt><trkpt lat="36.0050954" lon="139.2685258"><ele>105.36333333333334</ele><time>2023-02-25T04:48:02Z</time></trkpt><trkpt lat="36.0050911" lon="139.2687739"><ele>104.41333333333334</ele><time>2023-02-25T04:48:17Z</time></trkpt><trkpt lat="36.0051093" lon="139.2690215"><ele>103.16000000000001</ele><time>2023-02-25T04:48:31Z</time></trkpt><trkpt lat="36.0051276" lon="139.2692512"><ele>101.51</ele><time>2023-02-25T04:48:44Z</time></trkpt><trkpt lat="36.0050871" lon="139.2694698"><ele>100.33999999999999</ele><time>2023-02-25T04:49:05Z</time></trkpt><trkpt lat="36.0051193" lon="139.2697036"><ele>99.63333333333333</ele><time>2023-02-25T04:49:17Z</time></trkpt><trkpt lat="36.0051595" lon="139.2699482"><ele>99.38666666666667</ele><time>2023-02-25T04:49:32Z</time></trkpt><trkpt lat="36.0052215" lon="139.2701749"><ele>99.05</ele><time>2023-02-25T04:49:47Z</time></trkpt><trkpt lat="36.0051997" lon="139.2704295"><ele>98.92333333333333</ele><time>2023-02-25T04:49:55Z</time></trkpt><trkpt lat="36.0051827" lon="139.2706563"><ele>98.88333333333333</ele><time>2023-02-25T04:50:07Z</time></trkpt><trkpt lat="36.005169" lon="139.2708917"><ele>99.03333333333335</ele><time>2023-02-25T04:50:21Z</time></trkpt><trkpt lat="36.0050905" lon="139.2711092"><ele>99.19333333333333</ele><time>2023-02-25T04:50:29Z</time></trkpt><trkpt lat="36.0050735" lon="139.271363"><ele>99.32666666666667</ele><time>2023-02-25T04:50:44Z</time></trkpt><trkpt lat="36.0050369" lon="139.2715831"><ele>99.35666666666667</ele><time>2023-02-25T04:50:53Z</time></trkpt><trkpt lat="36.0050233" lon="139.2718432"><ele>99.04</ele><time>2023-02-25T04:51:05Z</time></trkpt><trkpt lat="36.0049193" lon="139.272046"><ele>98.53333333333335</ele><time>2023-02-25T04:51:20Z</time></trkpt><trkpt lat="36.0048598" lon="139.2722662"><ele>97.72666666666667</ele><time>2023-02-25T04:51:35Z</time></trkpt><trkpt lat="36.0047802" lon="139.27247"><ele>96.93333333333332</ele><time>2023-02-25T04:52:14Z</time></trkpt><trkpt lat="36.0049909" lon="139.2725114"><ele>96.25666666666667</ele><time>2023-02-25T04:52:29Z</time></trkpt><trkpt lat="36.0048387" lon="139.2726938"><ele>95.91333333333334</ele><time>2023-02-25T04:52:35Z</time></trkpt><trkpt lat="36.004673" lon="139.2728558"><ele>95.77333333333333</ele><time>2023-02-25T04:52:47Z</time></trkpt><trkpt lat="36.0045694" lon="139.2730989"><ele>95.63666666666666</ele><time>2023-02-25T04:52:56Z</time></trkpt><trkpt lat="36.004477" lon="139.2733181"><ele>95.47333333333334</ele><time>2023-02-25T04:54:12Z</time></trkpt><trkpt lat="36.004366" lon="139.2735345"><ele>95.3</ele><time>2023-02-25T04:54:24Z</time></trkpt><trkpt lat="36.0043741" lon="139.2737771"><ele>95.14666666666666</ele><time>2023-02-25T04:54:34Z</time></trkpt><trkpt lat="36.0042518" lon="139.2739818"><ele>94.86</ele><time>2023-02-25T04:54:48Z</time></trkpt><trkpt lat="36.004208" lon="139.274208"><ele>94.39333333333333</ele><time>2023-02-25T04:55:00Z</time></trkpt><trkpt lat="36.0041507" lon="139.2744603"><ele>93.71333333333332</ele><time>2023-02-25T04:55:15Z</time></trkpt><trkpt lat="36.0040718" lon="139.2746775"><ele>93.08666666666666</ele><time>2023-02-25T04:55:27Z</time></trkpt><trkpt lat="36.0040217" lon="139.2749106"><ele>92.42999999999999</ele><time>2023-02-25T04:55:51Z</time></trkpt><trkpt lat="36.0039648" lon="139.2751517"><ele>91.79666666666668</ele><time>2023-02-25T04:56:06Z</time></trkpt><trkpt lat="36.003968" lon="139.2753777"><ele>91.14</ele><time>2023-02-25T04:56:17Z</time></trkpt><trkpt lat="36.0038508" lon="139.2755835"><ele>90.54333333333334</ele><time>2023-02-25T04:56:32Z</time></trkpt><trkpt lat="36.0037755" lon="139.2758176"><ele>90.14</ele><time>2023-02-25T04:56:42Z</time></trkpt><trkpt lat="36.0036837" lon="139.2760651"><ele>89.90666666666668</ele><time>2023-02-25T04:56:54Z</time></trkpt><trkpt lat="36.0036313" lon="139.2762803"><ele>90.13333333333334</ele><time>2023-02-25T04:57:03Z</time></trkpt><trkpt lat="36.0035288" lon="139.2764628"><ele>90.5</ele><time>2023-02-25T04:57:17Z</time></trkpt><trkpt lat="36.0034647" lon="139.2766967"><ele>90.91666666666667</ele><time>2023-02-25T04:57:33Z</time></trkpt><trkpt lat="36.0033413" lon="139.2769046"><ele>91.25</ele><time>2023-02-25T04:57:42Z</time></trkpt><trkpt lat="36.0033077" lon="139.2771373"><ele>91.49000000000001</ele><time>2023-02-25T04:57:57Z</time></trkpt><trkpt lat="36.003332" lon="139.277395"><ele>91.74333333333334</ele><time>2023-02-25T04:58:09Z</time></trkpt><trkpt lat="36.0033818" lon="139.2776512"><ele>91.81666666666666</ele><time>2023-02-25T04:58:21Z</time></trkpt><trkpt lat="36.0033746" lon="139.2779017"><ele>91.74666666666667</ele><time>2023-02-25T04:58:30Z</time></trkpt><trkpt lat="36.0033075" lon="139.2781314"><ele>91.44999999999999</ele><time>2023-02-25T04:58:42Z</time></trkpt><trkpt lat="36.0033193" lon="139.2784051"><ele>90.90999999999998</ele><time>2023-02-25T04:58:57Z</time></trkpt><trkpt lat="36.0032154" lon="139.2785905"><ele>90.38333333333333</ele><time>2023-02-25T04:59:09Z</time></trkpt><trkpt lat="36.0032551" lon="139.2788278"><ele>89.79333333333334</ele><time>2023-02-25T04:59:22Z</time></trkpt><trkpt lat="36.0032841" lon="139.279083"><ele>88.96666666666668</ele><time>2023-02-25T04:59:30Z</time></trkpt><trkpt lat="36.0032799" lon="139.2793289"><ele>88.07666666666667</ele><time>2023-02-25T04:59:48Z</time></trkpt><trkpt lat="36.0032058" lon="139.2795627"><ele>87.17333333333335</ele><time>2023-02-25T05:00:06Z</time></trkpt><trkpt lat="36.0031035" lon="139.2797699"><ele>86.65333333333335</ele><time>2023-02-25T05:00:18Z</time></trkpt><trkpt lat="36.003055" lon="139.27999"><ele>86.25666666666666</ele><time>2023-02-25T05:00:33Z</time></trkpt><trkpt lat="36.0030475" lon="139.2802216"><ele>85.99333333333334</ele><time>2023-02-25T05:00:45Z</time></trkpt><trkpt lat="36.0029453" lon="139.2804573"><ele>85.79</ele><time>2023-02-25T05:01:00Z</time></trkpt><trkpt lat="36.0028629" lon="139.28066"><ele>85.58666666666666</ele><time>2023-02-25T05:01:12Z</time></trkpt><trkpt lat="36.0028856" lon="139.2809002"><ele>85.28666666666668</ele><time>2023-02-25T05:01:27Z</time></trkpt><trkpt lat="36.0028009" lon="139.2811599"><ele>85.04333333333334</ele><time>2023-02-25T05:01:39Z</time></trkpt><trkpt lat="36.0027244" lon="139.2814071"><ele>85.08666666666666</ele><time>2023-02-25T05:01:51Z</time></trkpt><trkpt lat="36.0026791" lon="139.2816404"><ele>85.33333333333333</ele><time>2023-02-25T05:02:00Z</time></trkpt><trkpt lat="36.0027228" lon="139.2818885"><ele>85.53666666666668</ele><time>2023-02-25T05:02:11Z</time></trkpt><trkpt lat="36.002655" lon="139.2821403"><ele>85.5</ele><time>2023-02-25T05:02:27Z</time></trkpt><trkpt lat="36.0026476" lon="139.2823658"><ele>85.36666666666667</ele><time>2023-02-25T05:02:39Z</time></trkpt><trkpt lat="36.0026483" lon="139.2826293"><ele>85.22666666666667</ele><time>2023-02-25T05:02:48Z</time></trkpt><trkpt lat="36.0026867" lon="139.2829216"><ele>85.12666666666667</ele><time>2023-02-25T05:03:06Z</time></trkpt><trkpt lat="36.0027244" lon="139.2831443"><ele>84.28666666666668</ele><time>2023-02-25T05:03:18Z</time></trkpt><trkpt lat="36.0026164" lon="139.2833248"><ele>82.85666666666667</ele><time>2023-02-25T05:03:29Z</time></trkpt><trkpt lat="36.0026653" lon="139.2835636"><ele>81.14333333333333</ele><time>2023-02-25T05:03:45Z</time></trkpt><trkpt lat="36.0025964" lon="139.2837937"><ele>80.33</ele><time>2023-02-25T05:03:57Z</time></trkpt><trkpt lat="36.0025163" lon="139.2839952"><ele>80.27999999999999</ele><time>2023-02-25T05:04:06Z</time></trkpt><trkpt lat="36.0025032" lon="139.284226"><ele>80.40333333333334</ele><time>2023-02-25T05:04:21Z</time></trkpt><trkpt lat="36.0024959" lon="139.2844665"><ele>80.41333333333334</ele><time>2023-02-25T05:04:30Z</time></trkpt><trkpt lat="36.0024173" lon="139.2846727"><ele>80.98928411869505</ele><time>2023-02-25T05:04:45Z</time></trkpt><trkpt lat="36.0024285" lon="139.2849036"><ele>81.69853983523429</ele><time>2023-02-25T05:04:56Z</time></trkpt><trkpt lat="36.002478" lon="139.2851237"><ele>82.40113622873474</ele><time>2023-02-25T05:05:08Z</time></trkpt><trkpt lat="36.0025446" lon="139.2853525"><ele>83.10113469523175</ele><time>2023-02-25T05:05:20Z</time></trkpt><trkpt lat="36.0025085" lon="139.2855999"><ele>83.7677568328896</ele><time>2023-02-25T05:05:35Z</time></trkpt><trkpt lat="36.0025511" lon="139.2858603"><ele>83.40103341584522</ele><time>2023-02-25T05:05:53Z</time></trkpt><trkpt lat="36.0027049" lon="139.2860024"><ele>82.33439917678201</ele><time>2023-02-25T05:06:01Z</time></trkpt><trkpt lat="36.0026315" lon="139.2862198"><ele>80.66773680907534</ele><time>2023-02-25T05:06:17Z</time></trkpt><trkpt lat="36.0026651" lon="139.2864621"><ele>80.06773509772465</ele><time>2023-02-25T05:06:42Z</time></trkpt><trkpt lat="36.0028408" lon="139.2865816"><ele>79.46775534875496</ele><time>2023-02-25T05:06:57Z</time></trkpt><trkpt lat="36.0029443" lon="139.2867755"><ele>79.4679316380708</ele><time>2023-02-25T05:07:08Z</time></trkpt><trkpt lat="36.0030763" lon="139.28699"><ele>78.73486374473516</ele><time>2023-02-25T05:07:23Z</time></trkpt><trkpt lat="36.0032063" lon="139.2871536"><ele>78.00174893250949</ele><time>2023-02-25T05:07:34Z</time></trkpt><trkpt lat="36.0033242" lon="139.2873295"><ele>77.10198214463738</ele><time>2023-02-25T05:07:47Z</time></trkpt><trkpt lat="36.0034683" lon="139.2875216"><ele>76.93556103392629</ele><time>2023-02-25T05:07:59Z</time></trkpt><trkpt lat="36.0036242" lon="139.2876923"><ele>76.80249298904435</ele><time>2023-02-25T05:08:11Z</time></trkpt><trkpt lat="36.003721" lon="139.2879542"><ele>76.83605860599246</ele><time>2023-02-25T05:08:26Z</time></trkpt><trkpt lat="36.0036878" lon="139.2882158"><ele>77.13612910554615</ele><time>2023-02-25T05:08:47Z</time></trkpt><trkpt lat="36.003502" lon="139.2884061"><ele>77.90257340425983</ele><time>2023-02-25T05:09:02Z</time></trkpt><trkpt lat="36.0033733" lon="139.2886172"><ele>78.66883527375984</ele><time>2023-02-25T05:09:29Z</time></trkpt></trkseg></trk></gpx>