<?xml version='1.0' encoding='UTF-8'?><gpx creator="YAMAP - https://yamap.com" xsi:schemaLocation="http://www.topografix.com/GPX/1/1 http://www.topografix.com/GPX/1/1/gpx.xsd" version="1.1" xmlns="http://www.topografix.com/GPX/1/1" xmlns:xsi="http://www.w3.org/2001/XMLSchema-instance"><metadata><bounds maxlat="35.8736169" maxlon="139.2306689" minlat="35.8398158" minlon="139.1550397"/></metadata><trk><name>棒ノ折山から小沢峠、唐竹バス停</name><number>1</number><trkseg><trkpt lat="35.872966" lon="139.1834816"><ele>253.3</ele><time>2024-04-12T23:22:35Z</time></trkpt><trkpt lat="35.873163" lon="139.1834239"><ele>253.46</ele><time>2024-04-12T23:23:04Z</time></trkpt><trkpt lat="35.8733388" lon="139.1833056"><ele>254.00666666666666</ele><time>2024-04-12T23:23:17Z</time></trkpt><trkpt lat="35.8735228" lon="139.1832339"><ele>255.07333333333335</ele><time>2024-04-12T23:23:32Z</time></trkpt><trkpt lat="35.8734882" lon="139.1829794"><ele>256.6766666666667</ele><time>2024-04-12T23:23:47Z</time></trkpt><trkpt lat="35.8734489" lon="139.1827592"><ele>258.3</ele><time>2024-04-12T23:23:59Z</time></trkpt><trkpt lat="35.8733446" lon="139.1825308"><ele>260.64000000000004</ele><time>2024-04-12T23:24:14Z</time></trkpt><trkpt lat="35.8732572" lon="139.1823352"><ele>263.1033333333333</ele><time>2024-04-12T23:24:29Z</time></trkpt><trkpt lat="35.873165" lon="139.1821243"><ele>265.62999999999994</ele><time>2024-04-12T23:24:44Z</time></trkpt><trkpt lat="35.8730979" lon="139.1819178"><ele>268.64000000000004</ele><time>2024-04-12T23:24:59Z</time></trkpt><trkpt lat="35.8730138" lon="139.1817113"><ele>273.2033333333333</ele><time>2024-04-12T23:25:17Z</time></trkpt><trkpt lat="35.8729159" lon="139.1815239"><ele>278.69</ele><time>2024-04-12T23:25:32Z</time></trkpt><trkpt lat="35.8727878" lon="139.1813668"><ele>285.3533333333333</ele><time>2024-04-12T23:25:50Z</time></trkpt><trkpt lat="35.8726793" lon="139.1811551"><ele>291.74333333333334</ele><time>2024-04-12T23:26:08Z</time></trkpt><trkpt lat="35.8725513" lon="139.180966"><ele>297.59</ele><time>2024-04-12T23:26:26Z</time></trkpt><trkpt lat="35.8723976" lon="139.180818"><ele>299.37333333333333</ele><time>2024-04-12T23:26:44Z</time></trkpt><trkpt lat="35.8722888" lon="139.180631"><ele>300.49333333333334</ele><time>2024-04-12T23:27:02Z</time></trkpt><trkpt lat="35.8721867" lon="139.1804471"><ele>302.53000000000003</ele><time>2024-04-12T23:27:19Z</time></trkpt><trkpt lat="35.8720086" lon="139.180314"><ele>301.66333333333336</ele><time>2024-04-12T23:27:38Z</time></trkpt><trkpt lat="35.8718991" lon="139.1801065"><ele>299.06</ele><time>2024-04-12T23:27:58Z</time></trkpt><trkpt lat="35.871934" lon="139.179862"><ele>294.16333333333336</ele><time>2024-04-12T23:28:18Z</time></trkpt><trkpt lat="35.8721087" lon="139.1797324"><ele>297.25333333333333</ele><time>2024-04-12T23:28:36Z</time></trkpt><trkpt lat="35.8722181" lon="139.1795365"><ele>301.7633333333333</ele><time>2024-04-12T23:29:00Z</time></trkpt><trkpt lat="35.8723812" lon="139.1793781"><ele>307.61999999999995</ele><time>2024-04-12T23:29:23Z</time></trkpt><trkpt lat="35.8725391" lon="139.1792127"><ele>309.44666666666666</ele><time>2024-04-12T23:29:44Z</time></trkpt><trkpt lat="35.87272" lon="139.1790858"><ele>312.9266666666667</ele><time>2024-04-12T23:30:05Z</time></trkpt><trkpt lat="35.8728927" lon="139.1789294"><ele>316.56333333333333</ele><time>2024-04-12T23:30:23Z</time></trkpt><trkpt lat="35.8730325" lon="139.1787536"><ele>319.96666666666664</ele><time>2024-04-12T23:30:41Z</time></trkpt><trkpt lat="35.8731614" lon="139.1785855"><ele>320.6566666666667</ele><time>2024-04-12T23:30:59Z</time></trkpt><trkpt lat="35.8733429" lon="139.1784662"><ele>322.63</ele><time>2024-04-12T23:31:17Z</time></trkpt><trkpt lat="35.8735143" lon="139.1783739"><ele>325.01666666666665</ele><time>2024-04-12T23:31:32Z</time></trkpt><trkpt lat="35.8736169" lon="139.178136"><ele>326.96999999999997</ele><time>2024-04-12T23:31:50Z</time></trkpt><trkpt lat="35.8734815" lon="139.1779636"><ele>325.43</ele><time>2024-04-12T23:31:59Z</time></trkpt><trkpt lat="35.8733703" lon="139.177758"><ele>323.42</ele><time>2024-04-12T23:32:20Z</time></trkpt><trkpt lat="35.8731866" lon="139.1777101"><ele>321.92</ele><time>2024-04-12T23:32:50Z</time></trkpt><trkpt lat="35.8730314" lon="139.1775926"><ele>321.54</ele><time>2024-04-12T23:32:59Z</time></trkpt><trkpt lat="35.8728605" lon="139.1774916"><ele>321.6333333333334</ele><time>2024-04-12T23:33:17Z</time></trkpt><trkpt lat="35.8727418" lon="139.1773105"><ele>321.55333333333334</ele><time>2024-04-12T23:33:26Z</time></trkpt><trkpt lat="35.8726278" lon="139.177108"><ele>321.1033333333333</ele><time>2024-04-12T23:33:35Z</time></trkpt><trkpt lat="35.8724569" lon="139.1770146"><ele>320.62333333333333</ele><time>2024-04-12T23:33:47Z</time></trkpt><trkpt lat="35.8722805" lon="139.1769681"><ele>320.5</ele><time>2024-04-12T23:34:05Z</time></trkpt><trkpt lat="35.8720666" lon="139.1768822"><ele>320.80333333333334</ele><time>2024-04-12T23:34:17Z</time></trkpt><trkpt lat="35.8719336" lon="139.1767228"><ele>320.9533333333334</ele><time>2024-04-12T23:34:29Z</time></trkpt><trkpt lat="35.8717183" lon="139.1767044"><ele>321.19</ele><time>2024-04-12T23:34:50Z</time></trkpt><trkpt lat="35.8716747" lon="139.1764386"><ele>321.95000000000005</ele><time>2024-04-12T23:35:08Z</time></trkpt><trkpt lat="35.8718291" lon="139.1763204"><ele>323.85333333333335</ele><time>2024-04-12T23:35:23Z</time></trkpt><trkpt lat="35.8720234" lon="139.1761967"><ele>327.96999999999997</ele><time>2024-04-12T23:35:38Z</time></trkpt><trkpt lat="35.8720657" lon="139.1759699"><ele>336.06</ele><time>2024-04-12T23:35:56Z</time></trkpt><trkpt lat="35.8722425" lon="139.1758642"><ele>339.01666666666665</ele><time>2024-04-12T23:36:08Z</time></trkpt><trkpt lat="35.8722672" lon="139.1756155"><ele>339.5933333333333</ele><time>2024-04-12T23:36:23Z</time></trkpt><trkpt lat="35.8721234" lon="139.1754385"><ele>337.6933333333333</ele><time>2024-04-12T23:36:35Z</time></trkpt><trkpt lat="35.8721565" lon="139.1751943"><ele>338.03666666666663</ele><time>2024-04-12T23:36:53Z</time></trkpt><trkpt lat="35.8721389" lon="139.1749378"><ele>339.1433333333333</ele><time>2024-04-12T23:37:11Z</time></trkpt><trkpt lat="35.8719779" lon="139.1748021"><ele>337.5166666666667</ele><time>2024-04-12T23:37:44Z</time></trkpt><trkpt lat="35.8718426" lon="139.1745847"><ele>336.87333333333333</ele><time>2024-04-12T23:37:53Z</time></trkpt><trkpt lat="35.8716598" lon="139.1744607"><ele>335.31333333333333</ele><time>2024-04-12T23:38:05Z</time></trkpt><trkpt lat="35.8714692" lon="139.1745297"><ele>334.70666666666665</ele><time>2024-04-12T23:38:20Z</time></trkpt><trkpt lat="35.8713628" lon="139.1743441"><ele>335.0</ele><time>2024-04-12T23:38:31Z</time></trkpt><trkpt lat="35.8712803" lon="139.1741321"><ele>336.74333333333334</ele><time>2024-04-12T23:38:43Z</time></trkpt><trkpt lat="35.8712716" lon="139.1738785"><ele>331.97</ele><time>2024-04-12T23:39:02Z</time></trkpt><trkpt lat="35.871136" lon="139.1736984"><ele>330.80333333333334</ele><time>2024-04-12T23:39:14Z</time></trkpt><trkpt lat="35.870961" lon="139.1735651"><ele>332.04333333333335</ele><time>2024-04-12T23:39:29Z</time></trkpt><trkpt lat="35.8708395" lon="139.1733555"><ele>336.91333333333336</ele><time>2024-04-12T23:39:41Z</time></trkpt><trkpt lat="35.8708" lon="139.1731283"><ele>333.50666666666666</ele><time>2024-04-12T23:39:53Z</time></trkpt><trkpt lat="35.8706546" lon="139.1729582"><ele>325.1566666666667</ele><time>2024-04-12T23:40:08Z</time></trkpt><trkpt lat="35.8704504" lon="139.172855"><ele>319.54</ele><time>2024-04-12T23:40:23Z</time></trkpt><trkpt lat="35.8702616" lon="139.1727038"><ele>318.37333333333333</ele><time>2024-04-12T23:40:38Z</time></trkpt><trkpt lat="35.8700511" lon="139.1726445"><ele>319.70666666666665</ele><time>2024-04-12T23:40:53Z</time></trkpt><trkpt lat="35.8698777" lon="139.1724657"><ele>319.1666666666667</ele><time>2024-04-12T23:41:08Z</time></trkpt><trkpt lat="35.8699704" lon="139.1722511"><ele>320.58</ele><time>2024-04-12T23:41:23Z</time></trkpt><trkpt lat="35.8700948" lon="139.1720658"><ele>322.62</ele><time>2024-04-12T23:41:41Z</time></trkpt><trkpt lat="35.8699144" lon="139.1719502"><ele>329.48333333333335</ele><time>2024-04-12T23:41:59Z</time></trkpt><trkpt lat="35.8697273" lon="139.1719218"><ele>334.9866666666667</ele><time>2024-04-12T23:42:23Z</time></trkpt><trkpt lat="35.8696508" lon="139.1717027"><ele>344.35999999999996</ele><time>2024-04-12T23:42:53Z</time></trkpt><trkpt lat="35.8695104" lon="139.1715289"><ele>353.40000000000003</ele><time>2024-04-12T23:43:26Z</time></trkpt><trkpt lat="35.8694215" lon="139.1713285"><ele>362.66333333333336</ele><time>2024-04-12T23:43:56Z</time></trkpt><trkpt lat="35.8694625" lon="139.1711098"><ele>369.0800000000001</ele><time>2024-04-12T23:44:41Z</time></trkpt><trkpt lat="35.8694526" lon="139.1708884"><ele>374.1266666666667</ele><time>2024-04-12T23:45:09Z</time></trkpt><trkpt lat="35.8693144" lon="139.1707333"><ele>378.4266666666667</ele><time>2024-04-12T23:45:21Z</time></trkpt><trkpt lat="35.869233" lon="139.170518"><ele>381.4066666666667</ele><time>2024-04-12T23:45:39Z</time></trkpt><trkpt lat="35.8690569" lon="139.1704387"><ele>383.66</ele><time>2024-04-12T23:46:09Z</time></trkpt><trkpt lat="35.8689139" lon="139.1702937"><ele>389.25</ele><time>2024-04-12T23:46:44Z</time></trkpt><trkpt lat="35.8691402" lon="139.1703153"><ele>395.4433333333333</ele><time>2024-04-12T23:46:53Z</time></trkpt><trkpt lat="35.8689629" lon="139.1701953"><ele>402.4066666666667</ele><time>2024-04-12T23:47:02Z</time></trkpt><trkpt lat="35.8687788" lon="139.1701819"><ele>403.8666666666666</ele><time>2024-04-12T23:47:20Z</time></trkpt><trkpt lat="35.8685955" lon="139.1701467"><ele>403.2366666666667</ele><time>2024-04-12T23:47:41Z</time></trkpt><trkpt lat="35.8685384" lon="139.1698906"><ele>404.15000000000003</ele><time>2024-04-12T23:47:59Z</time></trkpt><trkpt lat="35.8683806" lon="139.1697346"><ele>404.18333333333334</ele><time>2024-04-12T23:48:14Z</time></trkpt><trkpt lat="35.8683424" lon="139.1694983"><ele>407.1766666666667</ele><time>2024-04-12T23:48:38Z</time></trkpt><trkpt lat="35.868162" lon="139.1694965"><ele>406.56</ele><time>2024-04-12T23:48:59Z</time></trkpt><trkpt lat="35.8679657" lon="139.1694333"><ele>410.6933333333333</ele><time>2024-04-12T23:49:14Z</time></trkpt><trkpt lat="35.867873" lon="139.1692057"><ele>415.29333333333335</ele><time>2024-04-12T23:49:38Z</time></trkpt><trkpt lat="35.8676855" lon="139.1692632"><ele>416.57</ele><time>2024-04-12T23:50:05Z</time></trkpt><trkpt lat="35.8675343" lon="139.1691351"><ele>418.1366666666667</ele><time>2024-04-12T23:50:38Z</time></trkpt><trkpt lat="35.8673727" lon="139.169031"><ele>416.90333333333336</ele><time>2024-04-12T23:51:20Z</time></trkpt><trkpt lat="35.8672604" lon="139.1688314"><ele>421.3333333333333</ele><time>2024-04-12T23:51:41Z</time></trkpt><trkpt lat="35.8671383" lon="139.1686639"><ele>422.57666666666665</ele><time>2024-04-12T23:51:56Z</time></trkpt><trkpt lat="35.8669263" lon="139.1686921"><ele>422.46333333333337</ele><time>2024-04-12T23:52:38Z</time></trkpt><trkpt lat="35.8667352" lon="139.1686517"><ele>419.81333333333333</ele><time>2024-04-12T23:53:44Z</time></trkpt><trkpt lat="35.8665858" lon="139.1684567"><ele>418.5566666666667</ele><time>2024-04-12T23:54:05Z</time></trkpt><trkpt lat="35.8665092" lon="139.1681942"><ele>420.2166666666667</ele><time>2024-04-12T23:54:20Z</time></trkpt><trkpt lat="35.8664402" lon="139.1679636"><ele>423.96333333333337</ele><time>2024-04-12T23:54:35Z</time></trkpt><trkpt lat="35.8663094" lon="139.1677841"><ele>430.07</ele><time>2024-04-12T23:55:02Z</time></trkpt><trkpt lat="35.866178" lon="139.1676021"><ele>436.85999999999996</ele><time>2024-04-12T23:55:35Z</time></trkpt><trkpt lat="35.8660497" lon="139.1674257"><ele>445.2733333333333</ele><time>2024-04-12T23:55:56Z</time></trkpt><trkpt lat="35.8658719" lon="139.1674787"><ele>448.72333333333336</ele><time>2024-04-12T23:56:35Z</time></trkpt><trkpt lat="35.8657804" lon="139.1672498"><ele>451.90333333333336</ele><time>2024-04-12T23:56:59Z</time></trkpt><trkpt lat="35.865596" lon="139.1672025"><ele>453.5133333333333</ele><time>2024-04-12T23:57:52Z</time></trkpt><trkpt lat="35.8656059" lon="139.1669636"><ele>458.79333333333335</ele><time>2024-04-12T23:58:17Z</time></trkpt><trkpt lat="35.8655172" lon="139.1667659"><ele>464.84</ele><time>2024-04-12T23:58:35Z</time></trkpt><trkpt lat="35.8656788" lon="139.1666468"><ele>474.76</ele><time>2024-04-12T23:59:20Z</time></trkpt><trkpt lat="35.8655303" lon="139.1667738"><ele>478.4166666666667</ele><time>2024-04-12T23:59:29Z</time></trkpt><trkpt lat="35.8653397" lon="139.1667377"><ele>477.7133333333333</ele><time>2024-04-12T23:59:44Z</time></trkpt><trkpt lat="35.865199" lon="139.1665499"><ele>475.7133333333333</ele><time>2024-04-13T00:00:23Z</time></trkpt><trkpt lat="35.8650497" lon="139.1663994"><ele>478.42333333333335</ele><time>2024-04-13T00:00:47Z</time></trkpt><trkpt lat="35.8649963" lon="139.1661868"><ele>486.80333333333334</ele><time>2024-04-13T00:01:17Z</time></trkpt><trkpt lat="35.8647913" lon="139.1662565"><ele>490.9366666666667</ele><time>2024-04-13T00:01:50Z</time></trkpt><trkpt lat="35.8645971" lon="139.166292"><ele>496.25666666666666</ele><time>2024-04-13T00:02:29Z</time></trkpt><trkpt lat="35.8644128" lon="139.1661978"><ele>499.29333333333335</ele><time>2024-04-13T00:04:14Z</time></trkpt><trkpt lat="35.8642283" lon="139.1661546"><ele>502.4533333333334</ele><time>2024-04-13T00:04:59Z</time></trkpt><trkpt lat="35.86424" lon="139.165826"><ele>514.1633333333333</ele><time>2024-04-13T00:06:05Z</time></trkpt><trkpt lat="35.8640872" lon="139.1656585"><ele>524.8366666666667</ele><time>2024-04-13T00:06:34Z</time></trkpt><trkpt lat="35.8643727" lon="139.1656349"><ele>539.1366666666668</ele><time>2024-04-13T00:06:56Z</time></trkpt><trkpt lat="35.8638666" lon="139.1658477"><ele>534.0633333333334</ele><time>2024-04-13T00:07:11Z</time></trkpt><trkpt lat="35.8636868" lon="139.1657434"><ele>530.63</ele><time>2024-04-13T00:07:35Z</time></trkpt><trkpt lat="35.8635584" lon="139.1655651"><ele>529.0633333333334</ele><time>2024-04-13T00:08:26Z</time></trkpt><trkpt lat="35.863729" lon="139.1656389"><ele>534.5166666666668</ele><time>2024-04-13T00:09:05Z</time></trkpt><trkpt lat="35.8634911" lon="139.1655275"><ele>542.3666666666667</ele><time>2024-04-13T00:11:23Z</time></trkpt><trkpt lat="35.8634752" lon="139.1652813"><ele>549.65</ele><time>2024-04-13T00:12:02Z</time></trkpt><trkpt lat="35.8633495" lon="139.1654431"><ele>555.68</ele><time>2024-04-13T00:12:50Z</time></trkpt><trkpt lat="35.8630775" lon="139.1651704"><ele>558.6133333333333</ele><time>2024-04-13T00:13:41Z</time></trkpt><trkpt lat="35.8631291" lon="139.1649437"><ele>560.8000000000001</ele><time>2024-04-13T00:14:11Z</time></trkpt><trkpt lat="35.8630016" lon="139.1647832"><ele>565.85</ele><time>2024-04-13T00:14:38Z</time></trkpt><trkpt lat="35.8631148" lon="139.1645933"><ele>574.25</ele><time>2024-04-13T00:15:23Z</time></trkpt><trkpt lat="35.8632663" lon="139.1644638"><ele>585.63</ele><time>2024-04-13T00:15:46Z</time></trkpt><trkpt lat="35.8630691" lon="139.1642665"><ele>594.8766666666667</ele><time>2024-04-13T00:16:26Z</time></trkpt><trkpt lat="35.8628664" lon="139.1642731"><ele>592.1999999999999</ele><time>2024-04-13T00:16:38Z</time></trkpt><trkpt lat="35.8626844" lon="139.164346"><ele>581.5333333333333</ele><time>2024-04-13T00:16:53Z</time></trkpt><trkpt lat="35.8624948" lon="139.1643145"><ele>575.4733333333334</ele><time>2024-04-13T00:17:20Z</time></trkpt><trkpt lat="35.8623308" lon="139.1641965"><ele>577.5666666666666</ele><time>2024-04-13T00:17:56Z</time></trkpt><trkpt lat="35.8621786" lon="139.1640712"><ele>583.1766666666666</ele><time>2024-04-13T00:18:32Z</time></trkpt><trkpt lat="35.8620001" lon="139.1641682"><ele>588.3366666666667</ele><time>2024-04-13T00:18:53Z</time></trkpt><trkpt lat="35.8619077" lon="139.163956"><ele>594.3933333333334</ele><time>2024-04-13T00:19:17Z</time></trkpt><trkpt lat="35.8617603" lon="139.1638279"><ele>597.7133333333334</ele><time>2024-04-13T00:19:47Z</time></trkpt><trkpt lat="35.861571" lon="139.1637583"><ele>601.5000000000001</ele><time>2024-04-13T00:20:23Z</time></trkpt><trkpt lat="35.8614252" lon="139.1636113"><ele>603.2433333333333</ele><time>2024-04-13T00:21:02Z</time></trkpt><trkpt lat="35.8613186" lon="139.1633922"><ele>607.0833333333334</ele><time>2024-04-13T00:22:17Z</time></trkpt><trkpt lat="35.8611229" lon="139.1633591"><ele>611.8600000000001</ele><time>2024-04-13T00:22:38Z</time></trkpt><trkpt lat="35.8610378" lon="139.1631628"><ele>617.83</ele><time>2024-04-13T00:23:02Z</time></trkpt><trkpt lat="35.8609196" lon="139.1629888"><ele>623.0933333333334</ele><time>2024-04-13T00:23:23Z</time></trkpt><trkpt lat="35.8607627" lon="139.1628496"><ele>627.6533333333333</ele><time>2024-04-13T00:23:44Z</time></trkpt><trkpt lat="35.8609698" lon="139.162726"><ele>632.2966666666666</ele><time>2024-04-13T00:23:56Z</time></trkpt><trkpt lat="35.8610761" lon="139.1625231"><ele>640.03</ele><time>2024-04-13T00:25:44Z</time></trkpt><trkpt lat="35.8610101" lon="139.1623133"><ele>647.35</ele><time>2024-04-13T00:25:59Z</time></trkpt><trkpt lat="35.8608447" lon="139.1621774"><ele>653.8533333333334</ele><time>2024-04-13T00:26:14Z</time></trkpt><trkpt lat="35.8607048" lon="139.1619965"><ele>656.8933333333334</ele><time>2024-04-13T00:26:41Z</time></trkpt><trkpt lat="35.8605571" lon="139.1618272"><ele>660.88</ele><time>2024-04-13T00:26:59Z</time></trkpt><trkpt lat="35.8606273" lon="139.1616202"><ele>668.3733333333333</ele><time>2024-04-13T00:27:38Z</time></trkpt><trkpt lat="35.8604791" lon="139.1614863"><ele>676.7533333333333</ele><time>2024-04-13T00:28:20Z</time></trkpt><trkpt lat="35.8603282" lon="139.1613564"><ele>682.4766666666668</ele><time>2024-04-13T00:29:05Z</time></trkpt><trkpt lat="35.8601177" lon="139.1612516"><ele>680.0566666666667</ele><time>2024-04-13T00:29:38Z</time></trkpt><trkpt lat="35.8599139" lon="139.1611331"><ele>679.12</ele><time>2024-04-13T00:31:20Z</time></trkpt><trkpt lat="35.8597226" lon="139.1611381"><ele>683.0799999999999</ele><time>2024-04-13T00:31:53Z</time></trkpt><trkpt lat="35.8595634" lon="139.161265"><ele>691.4933333333333</ele><time>2024-04-13T00:32:44Z</time></trkpt><trkpt lat="35.8594557" lon="139.1610864"><ele>700.5733333333333</ele><time>2024-04-13T00:33:14Z</time></trkpt><trkpt lat="35.8592935" lon="139.1609623"><ele>709.1</ele><time>2024-04-13T00:34:50Z</time></trkpt><trkpt lat="35.8591905" lon="139.1611547"><ele>719.33</ele><time>2024-04-13T00:35:08Z</time></trkpt><trkpt lat="35.8593055" lon="139.1613501"><ele>723.4466666666667</ele><time>2024-04-13T00:35:38Z</time></trkpt><trkpt lat="35.8593629" lon="139.1615746"><ele>724.0466666666666</ele><time>2024-04-13T00:35:59Z</time></trkpt><trkpt lat="35.8594334" lon="139.1617902"><ele>724.5</ele><time>2024-04-13T00:36:20Z</time></trkpt><trkpt lat="35.8595489" lon="139.1619886"><ele>727.0166666666668</ele><time>2024-04-13T00:36:39Z</time></trkpt><trkpt lat="35.8594152" lon="139.1621401"><ele>730.6033333333334</ele><time>2024-04-13T00:37:12Z</time></trkpt><trkpt lat="35.8592786" lon="139.1623365"><ele>733.8066666666667</ele><time>2024-04-13T00:37:27Z</time></trkpt><trkpt lat="35.8592494" lon="139.1625601"><ele>739.6633333333334</ele><time>2024-04-13T00:37:45Z</time></trkpt><trkpt lat="35.8593272" lon="139.1627611"><ele>742.11</ele><time>2024-04-13T00:38:33Z</time></trkpt><trkpt lat="35.8591952" lon="139.1629172"><ele>743.12</ele><time>2024-04-13T00:38:45Z</time></trkpt><trkpt lat="35.8591351" lon="139.1631431"><ele>743.16</ele><time>2024-04-13T00:39:00Z</time></trkpt><trkpt lat="35.8592412" lon="139.1633589"><ele>741.0766666666668</ele><time>2024-04-13T00:39:15Z</time></trkpt><trkpt lat="35.859291" lon="139.1635767"><ele>738.25</ele><time>2024-04-13T00:39:27Z</time></trkpt><trkpt lat="35.8593872" lon="139.1637906"><ele>733.2633333333333</ele><time>2024-04-13T00:39:42Z</time></trkpt><trkpt lat="35.8592342" lon="139.163634"><ele>735.0866666666667</ele><time>2024-04-13T00:40:51Z</time></trkpt><trkpt lat="35.8590873" lon="139.1634831"><ele>740.1033333333334</ele><time>2024-04-13T00:41:54Z</time></trkpt><trkpt lat="35.8589031" lon="139.1635007"><ele>749.2166666666667</ele><time>2024-04-13T00:42:51Z</time></trkpt><trkpt lat="35.8588087" lon="139.1633005"><ele>757.4333333333334</ele><time>2024-04-13T00:43:48Z</time></trkpt><trkpt lat="35.8587137" lon="139.1631003"><ele>765.0633333333334</ele><time>2024-04-13T00:44:27Z</time></trkpt><trkpt lat="35.8586501" lon="139.1628714"><ele>772.5966666666667</ele><time>2024-04-13T00:45:45Z</time></trkpt><trkpt lat="35.8586067" lon="139.162622"><ele>780.2166666666667</ele><time>2024-04-13T00:46:27Z</time></trkpt><trkpt lat="35.8585671" lon="139.1623883"><ele>786.84</ele><time>2024-04-13T00:47:00Z</time></trkpt><trkpt lat="35.8585703" lon="139.1621586"><ele>792.1933333333333</ele><time>2024-04-13T00:48:00Z</time></trkpt><trkpt lat="35.858497" lon="139.1619168"><ele>797.9866666666667</ele><time>2024-04-13T00:48:42Z</time></trkpt><trkpt lat="35.8583617" lon="139.1617078"><ele>803.3766666666667</ele><time>2024-04-13T00:49:00Z</time></trkpt><trkpt lat="35.8582998" lon="139.1614811"><ele>808.0833333333334</ele><time>2024-04-13T00:49:24Z</time></trkpt><trkpt lat="35.8581284" lon="139.1613828"><ele>812.6133333333333</ele><time>2024-04-13T00:50:00Z</time></trkpt><trkpt lat="35.8580549" lon="139.1611672"><ele>817.1633333333333</ele><time>2024-04-13T00:50:30Z</time></trkpt><trkpt lat="35.8579261" lon="139.1610105"><ele>822.86</ele><time>2024-04-13T00:50:57Z</time></trkpt><trkpt lat="35.8577896" lon="139.1608379"><ele>829.5333333333334</ele><time>2024-04-13T00:52:09Z</time></trkpt><trkpt lat="35.8576159" lon="139.1607377"><ele>836.5166666666668</ele><time>2024-04-13T00:52:39Z</time></trkpt><trkpt lat="35.8577336" lon="139.1605658"><ele>842.2066666666668</ele><time>2024-04-13T00:53:45Z</time></trkpt><trkpt lat="35.8576767" lon="139.1603199"><ele>847.5566666666667</ele><time>2024-04-13T00:54:03Z</time></trkpt><trkpt lat="35.8574859" lon="139.1602412"><ele>853.8833333333333</ele><time>2024-04-13T00:54:18Z</time></trkpt><trkpt lat="35.8573382" lon="139.160087"><ele>862.4433333333333</ele><time>2024-04-13T00:55:48Z</time></trkpt><trkpt lat="35.8572271" lon="139.1599053"><ele>871.2266666666668</ele><time>2024-04-13T00:56:42Z</time></trkpt><trkpt lat="35.8571225" lon="139.1596898"><ele>881.0400000000001</ele><time>2024-04-13T00:58:00Z</time></trkpt><trkpt lat="35.8570767" lon="139.1594583"><ele>887.59</ele><time>2024-04-13T00:59:15Z</time></trkpt><trkpt lat="35.8571678" lon="139.1592392"><ele>891.0666666666666</ele><time>2024-04-13T00:59:30Z</time></trkpt><trkpt lat="35.8572759" lon="139.1590357"><ele>890.5066666666667</ele><time>2024-04-13T00:59:45Z</time></trkpt><trkpt lat="35.8573996" lon="139.1588611"><ele>888.84</ele><time>2024-04-13T01:00:00Z</time></trkpt><trkpt lat="35.8574984" lon="139.1586335"><ele>886.1633333333333</ele><time>2024-04-13T01:00:21Z</time></trkpt><trkpt lat="35.8575149" lon="139.1583789"><ele>883.71</ele><time>2024-04-13T01:00:36Z</time></trkpt><trkpt lat="35.8575425" lon="139.1581469"><ele>883.4033333333333</ele><time>2024-04-13T01:00:51Z</time></trkpt><trkpt lat="35.8576391" lon="139.1579368"><ele>886.87</ele><time>2024-04-13T01:01:12Z</time></trkpt><trkpt lat="35.8577342" lon="139.1577226"><ele>892.6466666666666</ele><time>2024-04-13T01:01:36Z</time></trkpt><trkpt lat="35.8577256" lon="139.157488"><ele>898.1733333333333</ele><time>2024-04-13T01:02:03Z</time></trkpt><trkpt lat="35.8578128" lon="139.1572828"><ele>903.6933333333333</ele><time>2024-04-13T01:03:18Z</time></trkpt><trkpt lat="35.8578954" lon="139.1570852"><ele>909.7233333333334</ele><time>2024-04-13T01:04:06Z</time></trkpt><trkpt lat="35.857984" lon="139.15689"><ele>916.6500000000001</ele><time>2024-04-13T01:04:48Z</time></trkpt><trkpt lat="35.8580534" lon="139.1566804"><ele>923.84</ele><time>2024-04-13T01:05:30Z</time></trkpt><trkpt lat="35.8581064" lon="139.1564558"><ele>929.6566666666668</ele><time>2024-04-13T01:05:54Z</time></trkpt><trkpt lat="35.8581957" lon="139.1562485"><ele>935.9900000000001</ele><time>2024-04-13T01:06:30Z</time></trkpt><trkpt lat="35.8582353" lon="139.1560158"><ele>940.66</ele><time>2024-04-13T01:07:18Z</time></trkpt><trkpt lat="35.8583364" lon="139.1558146"><ele>947.41</ele><time>2024-04-13T01:08:18Z</time></trkpt><trkpt lat="35.8584284" lon="139.1556176"><ele>953.4799999999999</ele><time>2024-04-13T01:08:42Z</time></trkpt><trkpt lat="35.8585085" lon="139.1554168"><ele>959.4233333333333</ele><time>2024-04-13T01:09:08Z</time></trkpt><trkpt lat="35.8586402" lon="139.1552631"><ele>962.9466666666667</ele><time>2024-04-13T01:10:39Z</time></trkpt><trkpt lat="35.8586581" lon="139.1550397"><ele>965.27</ele><time>2024-04-13T01:13:33Z</time></trkpt><trkpt lat="35.8587243" lon="139.1552599"><ele>966.25</ele><time>2024-04-13T01:14:27Z</time></trkpt><trkpt lat="35.8585606" lon="139.1553727"><ele>965.6933333333333</ele><time>2024-04-13T01:17:06Z</time></trkpt><trkpt lat="35.8584331" lon="139.1555642"><ele>963.5866666666667</ele><time>2024-04-13T01:17:36Z</time></trkpt><trkpt lat="35.8583417" lon="139.1557811"><ele>960.21</ele><time>2024-04-13T01:18:05Z</time></trkpt><trkpt lat="35.8582496" lon="139.1559839"><ele>955.5433333333334</ele><time>2024-04-13T01:19:00Z</time></trkpt><trkpt lat="35.8581741" lon="139.1561865"><ele>949.2566666666667</ele><time>2024-04-13T01:19:18Z</time></trkpt><trkpt lat="35.8580844" lon="139.1563792"><ele>942.0566666666667</ele><time>2024-04-13T01:19:48Z</time></trkpt><trkpt lat="35.8579916" lon="139.1566107"><ele>934.71</ele><time>2024-04-13T01:20:15Z</time></trkpt><trkpt lat="35.8579281" lon="139.1568182"><ele>928.12</ele><time>2024-04-13T01:20:36Z</time></trkpt><trkpt lat="35.8578355" lon="139.1570193"><ele>922.2800000000001</ele><time>2024-04-13T01:21:00Z</time></trkpt><trkpt lat="35.8577162" lon="139.1572025"><ele>914.9699999999999</ele><time>2024-04-13T01:21:30Z</time></trkpt><trkpt lat="35.857695" lon="139.1574495"><ele>908.7633333333333</ele><time>2024-04-13T01:21:57Z</time></trkpt><trkpt lat="35.8575985" lon="139.1576529"><ele>900.7566666666668</ele><time>2024-04-13T01:22:15Z</time></trkpt><trkpt lat="35.8576427" lon="139.1578772"><ele>896.5633333333334</ele><time>2024-04-13T01:22:33Z</time></trkpt><trkpt lat="35.8575347" lon="139.1580617"><ele>890.6933333333333</ele><time>2024-04-13T01:22:51Z</time></trkpt><trkpt lat="35.8574461" lon="139.1582731"><ele>887.3933333333334</ele><time>2024-04-13T01:23:12Z</time></trkpt><trkpt lat="35.8574361" lon="139.1585213"><ele>883.1833333333334</ele><time>2024-04-13T01:23:27Z</time></trkpt><trkpt lat="35.8573565" lon="139.1587279"><ele>881.9266666666667</ele><time>2024-04-13T01:23:42Z</time></trkpt><trkpt lat="35.857278" lon="139.1589364"><ele>883.61</ele><time>2024-04-13T01:24:03Z</time></trkpt><trkpt lat="35.8571547" lon="139.1591213"><ele>886.15</ele><time>2024-04-13T01:24:24Z</time></trkpt><trkpt lat="35.8570524" lon="139.1593267"><ele>888.2466666666668</ele><time>2024-04-13T01:24:39Z</time></trkpt><trkpt lat="35.856951" lon="139.1595327"><ele>889.43</ele><time>2024-04-13T01:24:54Z</time></trkpt><trkpt lat="35.8567504" lon="139.1595447"><ele>888.4433333333333</ele><time>2024-04-13T01:25:18Z</time></trkpt><trkpt lat="35.8565662" lon="139.1596551"><ele>886.5233333333334</ele><time>2024-04-13T01:25:42Z</time></trkpt><trkpt lat="35.856355" lon="139.1596745"><ele>881.69</ele><time>2024-04-13T01:26:00Z</time></trkpt><trkpt lat="35.8561703" lon="139.159704"><ele>877.8566666666666</ele><time>2024-04-13T01:26:15Z</time></trkpt><trkpt lat="35.8559942" lon="139.1597811"><ele>873.1433333333334</ele><time>2024-04-13T01:26:32Z</time></trkpt><trkpt lat="35.8558246" lon="139.1598861"><ele>869.7966666666667</ele><time>2024-04-13T01:26:51Z</time></trkpt><trkpt lat="35.8556533" lon="139.159995"><ele>864.6733333333333</ele><time>2024-04-13T01:27:18Z</time></trkpt><trkpt lat="35.8554881" lon="139.1601081"><ele>860.4933333333333</ele><time>2024-04-13T01:27:42Z</time></trkpt><trkpt lat="35.8553308" lon="139.1602551"><ele>858.3566666666666</ele><time>2024-04-13T01:28:00Z</time></trkpt><trkpt lat="35.8551655" lon="139.1603689"><ele>856.36</ele><time>2024-04-13T01:28:21Z</time></trkpt><trkpt lat="35.8550644" lon="139.1605833"><ele>854.8100000000001</ele><time>2024-04-13T01:28:45Z</time></trkpt><trkpt lat="35.8548747" lon="139.1606565"><ele>848.1266666666667</ele><time>2024-04-13T01:29:06Z</time></trkpt><trkpt lat="35.8546979" lon="139.1607876"><ele>842.1033333333334</ele><time>2024-04-13T01:29:24Z</time></trkpt><trkpt lat="35.8545465" lon="139.16093"><ele>834.4866666666667</ele><time>2024-04-13T01:29:42Z</time></trkpt><trkpt lat="35.8543871" lon="139.1610987"><ele>828.8866666666667</ele><time>2024-04-13T01:30:12Z</time></trkpt><trkpt lat="35.854294" lon="139.1612944"><ele>825.9699999999999</ele><time>2024-04-13T01:30:30Z</time></trkpt><trkpt lat="35.8541084" lon="139.1613539"><ele>824.88</ele><time>2024-04-13T01:30:48Z</time></trkpt><trkpt lat="35.8539245" lon="139.1613788"><ele>825.0300000000001</ele><time>2024-04-13T01:31:06Z</time></trkpt><trkpt lat="35.8537108" lon="139.1614005"><ele>823.3166666666666</ele><time>2024-04-13T01:31:24Z</time></trkpt><trkpt lat="35.853514" lon="139.1614931"><ele>821.8166666666667</ele><time>2024-04-13T01:31:39Z</time></trkpt><trkpt lat="35.8533341" lon="139.1615368"><ele>819.4966666666668</ele><time>2024-04-13T01:32:09Z</time></trkpt><trkpt lat="35.8531385" lon="139.1615857"><ele>814.7133333333333</ele><time>2024-04-13T01:32:39Z</time></trkpt><trkpt lat="35.8530567" lon="139.1618043"><ele>808.3299999999999</ele><time>2024-04-13T01:33:18Z</time></trkpt><trkpt lat="35.8528629" lon="139.1618245"><ele>800.2466666666668</ele><time>2024-04-13T01:33:33Z</time></trkpt><trkpt lat="35.8526498" lon="139.1618988"><ele>794.2066666666666</ele><time>2024-04-13T01:33:51Z</time></trkpt><trkpt lat="35.8524439" lon="139.161917"><ele>788.14</ele><time>2024-04-13T01:34:09Z</time></trkpt><trkpt lat="35.8522696" lon="139.1620595"><ele>788.2733333333334</ele><time>2024-04-13T01:34:42Z</time></trkpt><trkpt lat="35.8520858" lon="139.1621335"><ele>791.2033333333333</ele><time>2024-04-13T01:35:30Z</time></trkpt><trkpt lat="35.8519237" lon="139.1622695"><ele>796.0933333333332</ele><time>2024-04-13T01:35:45Z</time></trkpt><trkpt lat="35.8517654" lon="139.1623799"><ele>799.2033333333334</ele><time>2024-04-13T01:36:00Z</time></trkpt><trkpt lat="35.8516304" lon="139.16253"><ele>802.5766666666667</ele><time>2024-04-13T01:37:24Z</time></trkpt><trkpt lat="35.8514852" lon="139.1626697"><ele>809.5500000000001</ele><time>2024-04-13T01:38:27Z</time></trkpt><trkpt lat="35.8513348" lon="139.1628038"><ele>817.9866666666667</ele><time>2024-04-13T01:39:00Z</time></trkpt><trkpt lat="35.8511796" lon="139.162959"><ele>825.09</ele><time>2024-04-13T01:39:39Z</time></trkpt><trkpt lat="35.8510573" lon="139.1631563"><ele>830.2466666666668</ele><time>2024-04-13T01:39:57Z</time></trkpt><trkpt lat="35.8509355" lon="139.1633205"><ele>834.4266666666667</ele><time>2024-04-13T01:40:12Z</time></trkpt><trkpt lat="35.8508486" lon="139.16352"><ele>838.1966666666667</ele><time>2024-04-13T01:40:45Z</time></trkpt><trkpt lat="35.8507941" lon="139.1637548"><ele>837.85</ele><time>2024-04-13T01:41:09Z</time></trkpt><trkpt lat="35.850698" lon="139.1639777"><ele>834.3466666666667</ele><time>2024-04-13T01:41:27Z</time></trkpt><trkpt lat="35.8506033" lon="139.1641845"><ele>830.8533333333334</ele><time>2024-04-13T01:41:51Z</time></trkpt><trkpt lat="35.8505008" lon="139.1643935"><ele>828.1633333333333</ele><time>2024-04-13T01:42:27Z</time></trkpt><trkpt lat="35.8503439" lon="139.164564"><ele>825.7166666666667</ele><time>2024-04-13T01:42:45Z</time></trkpt><trkpt lat="35.8502439" lon="139.1647565"><ele>823.2266666666668</ele><time>2024-04-13T01:43:45Z</time></trkpt><trkpt lat="35.8501373" lon="139.1649542"><ele>820.4533333333334</ele><time>2024-04-13T01:44:12Z</time></trkpt><trkpt lat="35.8501249" lon="139.1651893"><ele>817.5666666666666</ele><time>2024-04-13T01:45:06Z</time></trkpt><trkpt lat="35.8500293" lon="139.1653885"><ele>809.4133333333334</ele><time>2024-04-13T01:45:36Z</time></trkpt><trkpt lat="35.849969" lon="139.1656137"><ele>802.0966666666667</ele><time>2024-04-13T01:45:51Z</time></trkpt><trkpt lat="35.8499253" lon="139.1658987"><ele>795.0</ele><time>2024-04-13T01:46:12Z</time></trkpt><trkpt lat="35.8499295" lon="139.1661501"><ele>791.9066666666668</ele><time>2024-04-13T01:46:33Z</time></trkpt><trkpt lat="35.8498788" lon="139.1664023"><ele>785.9066666666668</ele><time>2024-04-13T01:47:09Z</time></trkpt><trkpt lat="35.8499739" lon="139.1666023"><ele>778.39</ele><time>2024-04-13T01:47:30Z</time></trkpt><trkpt lat="35.8500335" lon="139.1668219"><ele>770.5666666666667</ele><time>2024-04-13T01:47:51Z</time></trkpt><trkpt lat="35.8502278" lon="139.1668973"><ele>764.8766666666667</ele><time>2024-04-13T01:48:18Z</time></trkpt><trkpt lat="35.8501005" lon="139.1670557"><ele>762.3299999999999</ele><time>2024-04-13T01:48:21Z</time></trkpt><trkpt lat="35.8501513" lon="139.1673684"><ele>762.3833333333333</ele><time>2024-04-13T01:48:31Z</time></trkpt><trkpt lat="35.8500136" lon="139.1675237"><ele>765.3866666666667</ele><time>2024-04-13T01:49:36Z</time></trkpt><trkpt lat="35.8500271" lon="139.167769"><ele>768.09</ele><time>2024-04-13T01:49:51Z</time></trkpt><trkpt lat="35.8500482" lon="139.1679973"><ele>768.5533333333333</ele><time>2024-04-13T01:50:03Z</time></trkpt><trkpt lat="35.850068" lon="139.1682394"><ele>766.4366666666666</ele><time>2024-04-13T01:50:18Z</time></trkpt><trkpt lat="35.8500449" lon="139.1684862"><ele>763.5466666666667</ele><time>2024-04-13T01:50:48Z</time></trkpt><trkpt lat="35.8500158" lon="139.1687675"><ele>761.93</ele><time>2024-04-13T01:51:33Z</time></trkpt><trkpt lat="35.8499284" lon="139.1689843"><ele>761.8600000000001</ele><time>2024-04-13T01:52:01Z</time></trkpt><trkpt lat="35.8498555" lon="139.1692313"><ele>763.5</ele><time>2024-04-13T01:52:22Z</time></trkpt><trkpt lat="35.8497991" lon="139.1694698"><ele>766.19</ele><time>2024-04-13T01:52:35Z</time></trkpt><trkpt lat="35.8496788" lon="139.1696404"><ele>769.1866666666666</ele><time>2024-04-13T01:52:50Z</time></trkpt><trkpt lat="35.849521" lon="139.169784"><ele>770.6733333333333</ele><time>2024-04-13T01:53:08Z</time></trkpt><trkpt lat="35.8493702" lon="139.1699719"><ele>770.2700000000001</ele><time>2024-04-13T01:53:29Z</time></trkpt><trkpt lat="35.8491747" lon="139.170039"><ele>767.1466666666666</ele><time>2024-04-13T01:53:50Z</time></trkpt><trkpt lat="35.8490381" lon="139.1701836"><ele>762.0833333333334</ele><time>2024-04-13T01:54:11Z</time></trkpt><trkpt lat="35.8488395" lon="139.1703004"><ele>756.0500000000001</ele><time>2024-04-13T01:54:58Z</time></trkpt><trkpt lat="35.84874" lon="139.1705157"><ele>752.3866666666667</ele><time>2024-04-13T01:55:10Z</time></trkpt><trkpt lat="35.848647" lon="139.1707779"><ele>753.0733333333334</ele><time>2024-04-13T01:55:25Z</time></trkpt><trkpt lat="35.8485132" lon="139.1709607"><ele>755.6533333333333</ele><time>2024-04-13T01:55:40Z</time></trkpt><trkpt lat="35.8485359" lon="139.1712069"><ele>758.1366666666668</ele><time>2024-04-13T01:56:04Z</time></trkpt><trkpt lat="35.8484935" lon="139.171457"><ele>756.2466666666666</ele><time>2024-04-13T01:56:27Z</time></trkpt><trkpt lat="35.8484611" lon="139.1716933"><ele>752.4866666666667</ele><time>2024-04-13T01:56:48Z</time></trkpt><trkpt lat="35.8484814" lon="139.1719216"><ele>748.7866666666667</ele><time>2024-04-13T01:57:06Z</time></trkpt><trkpt lat="35.848407" lon="139.1721448"><ele>748.7233333333334</ele><time>2024-04-13T01:57:27Z</time></trkpt><trkpt lat="35.8484168" lon="139.1723765"><ele>751.3800000000001</ele><time>2024-04-13T01:57:51Z</time></trkpt><trkpt lat="35.8484299" lon="139.172613"><ele>755.3633333333333</ele><time>2024-04-13T01:58:18Z</time></trkpt><trkpt lat="35.8484657" lon="139.1728323"><ele>758.0333333333333</ele><time>2024-04-13T01:58:36Z</time></trkpt><trkpt lat="35.8485425" lon="139.1730558"><ele>759.9366666666666</ele><time>2024-04-13T01:59:15Z</time></trkpt><trkpt lat="35.8486971" lon="139.1731754"><ele>760.1333333333333</ele><time>2024-04-13T01:59:44Z</time></trkpt><trkpt lat="35.8484892" lon="139.1731689"><ele>759.1933333333333</ele><time>2024-04-13T01:59:47Z</time></trkpt><trkpt lat="35.8483313" lon="139.173348"><ele>754.7666666666668</ele><time>2024-04-13T01:59:59Z</time></trkpt><trkpt lat="35.8483387" lon="139.173609"><ele>749.98</ele><time>2024-04-13T02:00:18Z</time></trkpt><trkpt lat="35.8482399" lon="139.1738045"><ele>745.5433333333334</ele><time>2024-04-13T02:00:33Z</time></trkpt><trkpt lat="35.8482288" lon="139.1740365"><ele>743.0066666666667</ele><time>2024-04-13T02:00:57Z</time></trkpt><trkpt lat="35.848204" lon="139.1742578"><ele>738.7166666666667</ele><time>2024-04-13T02:01:12Z</time></trkpt><trkpt lat="35.8481956" lon="139.1744985"><ele>732.1133333333333</ele><time>2024-04-13T02:01:39Z</time></trkpt><trkpt lat="35.8480035" lon="139.1744294"><ele>724.2466666666666</ele><time>2024-04-13T02:02:05Z</time></trkpt><trkpt lat="35.8477959" lon="139.1745406"><ele>714.9666666666667</ele><time>2024-04-13T02:02:40Z</time></trkpt><trkpt lat="35.847646" lon="139.1746753"><ele>707.3766666666667</ele><time>2024-04-13T02:02:52Z</time></trkpt><trkpt lat="35.8475624" lon="139.1748735"><ele>703.0166666666665</ele><time>2024-04-13T02:03:07Z</time></trkpt><trkpt lat="35.8473925" lon="139.1750144"><ele>702.18</ele><time>2024-04-13T02:03:28Z</time></trkpt><trkpt lat="35.8472264" lon="139.1751562"><ele>702.9233333333333</ele><time>2024-04-13T02:03:49Z</time></trkpt><trkpt lat="35.8470899" lon="139.1753298"><ele>702.9866666666667</ele><time>2024-04-13T02:04:07Z</time></trkpt><trkpt lat="35.8470232" lon="139.1755747"><ele>703.23</ele><time>2024-04-13T02:04:22Z</time></trkpt><trkpt lat="35.8469832" lon="139.1757911"><ele>703.3000000000001</ele><time>2024-04-13T02:04:38Z</time></trkpt><trkpt lat="35.846841" lon="139.1759787"><ele>703.3033333333334</ele><time>2024-04-13T02:05:03Z</time></trkpt><trkpt lat="35.8467907" lon="139.1762013"><ele>703.1866666666666</ele><time>2024-04-13T02:05:34Z</time></trkpt><trkpt lat="35.8467909" lon="139.1764497"><ele>702.62</ele><time>2024-04-13T02:05:49Z</time></trkpt><trkpt lat="35.8467337" lon="139.1766605"><ele>702.04</ele><time>2024-04-13T02:06:04Z</time></trkpt><trkpt lat="35.8466257" lon="139.1769008"><ele>701.3100000000001</ele><time>2024-04-13T02:06:19Z</time></trkpt><trkpt lat="35.846591" lon="139.1771557"><ele>700.5166666666668</ele><time>2024-04-13T02:06:34Z</time></trkpt><trkpt lat="35.8465508" lon="139.1773866"><ele>698.5866666666667</ele><time>2024-04-13T02:06:49Z</time></trkpt><trkpt lat="35.846357" lon="139.1774781"><ele>696.43</ele><time>2024-04-13T02:07:07Z</time></trkpt><trkpt lat="35.8464001" lon="139.177724"><ele>693.6966666666667</ele><time>2024-04-13T02:07:23Z</time></trkpt><trkpt lat="35.846208" lon="139.1778079"><ele>691.98</ele><time>2024-04-13T02:07:55Z</time></trkpt><trkpt lat="35.846088" lon="139.1780205"><ele>688.7666666666668</ele><time>2024-04-13T02:08:10Z</time></trkpt><trkpt lat="35.84599" lon="139.1782716"><ele>684.8066666666667</ele><time>2024-04-13T02:08:25Z</time></trkpt><trkpt lat="35.8458743" lon="139.1784863"><ele>680.0066666666667</ele><time>2024-04-13T02:08:46Z</time></trkpt><trkpt lat="35.8458355" lon="139.1787048"><ele>675.8466666666667</ele><time>2024-04-13T02:09:04Z</time></trkpt><trkpt lat="35.8457637" lon="139.1789441"><ele>673.0366666666666</ele><time>2024-04-13T02:09:25Z</time></trkpt><trkpt lat="35.8456557" lon="139.1791291"><ele>671.31</ele><time>2024-04-13T02:09:40Z</time></trkpt><trkpt lat="35.8455104" lon="139.1793137"><ele>670.98</ele><time>2024-04-13T02:09:49Z</time></trkpt><trkpt lat="35.8454782" lon="139.1795349"><ele>671.7066666666666</ele><time>2024-04-13T02:10:25Z</time></trkpt><trkpt lat="35.8453109" lon="139.1796473"><ele>673.5066666666667</ele><time>2024-04-13T02:11:01Z</time></trkpt><trkpt lat="35.8451533" lon="139.1798008"><ele>677.9366666666667</ele><time>2024-04-13T02:11:31Z</time></trkpt><trkpt lat="35.8450366" lon="139.1800256"><ele>682.4433333333333</ele><time>2024-04-13T02:11:46Z</time></trkpt><trkpt lat="35.844898" lon="139.1802159"><ele>685.27</ele><time>2024-04-13T02:12:03Z</time></trkpt><trkpt lat="35.8447816" lon="139.1804582"><ele>684.5533333333333</ele><time>2024-04-13T02:12:21Z</time></trkpt><trkpt lat="35.8446584" lon="139.1806277"><ele>681.7199999999999</ele><time>2024-04-13T02:12:31Z</time></trkpt><trkpt lat="35.8446361" lon="139.1808479"><ele>679.3166666666666</ele><time>2024-04-13T02:12:49Z</time></trkpt><trkpt lat="35.8445118" lon="139.1810244"><ele>676.5966666666667</ele><time>2024-04-13T02:13:07Z</time></trkpt><trkpt lat="35.8443901" lon="139.181239"><ele>674.5866666666666</ele><time>2024-04-13T02:13:28Z</time></trkpt><trkpt lat="35.8442516" lon="139.1813905"><ele>674.16</ele><time>2024-04-13T02:13:43Z</time></trkpt><trkpt lat="35.8440996" lon="139.1815597"><ele>676.35</ele><time>2024-04-13T02:14:01Z</time></trkpt><trkpt lat="35.8439044" lon="139.1816134"><ele>679.61</ele><time>2024-04-13T02:14:19Z</time></trkpt><trkpt lat="35.8437057" lon="139.1815706"><ele>680.9233333333333</ele><time>2024-04-13T02:14:40Z</time></trkpt><trkpt lat="35.8437264" lon="139.1817915"><ele>681.2733333333333</ele><time>2024-04-13T02:17:28Z</time></trkpt><trkpt lat="35.8437448" lon="139.1820457"><ele>680.3833333333333</ele><time>2024-04-13T02:19:50Z</time></trkpt><trkpt lat="35.8436793" lon="139.1822743"><ele>678.04</ele><time>2024-04-13T02:20:02Z</time></trkpt><trkpt lat="35.8435772" lon="139.1824762"><ele>674.37</ele><time>2024-04-13T02:20:19Z</time></trkpt><trkpt lat="35.8435779" lon="139.1827283"><ele>670.7866666666667</ele><time>2024-04-13T02:20:37Z</time></trkpt><trkpt lat="35.8435676" lon="139.1829789"><ele>668.61</ele><time>2024-04-13T02:20:52Z</time></trkpt><trkpt lat="35.8435173" lon="139.1832182"><ele>665.7833333333333</ele><time>2024-04-13T02:21:10Z</time></trkpt><trkpt lat="35.8433825" lon="139.1833712"><ele>660.8666666666667</ele><time>2024-04-13T02:21:31Z</time></trkpt><trkpt lat="35.8432202" lon="139.1835552"><ele>656.4166666666666</ele><time>2024-04-13T02:22:16Z</time></trkpt><trkpt lat="35.8430169" lon="139.1836612"><ele>654.0033333333333</ele><time>2024-04-13T02:22:31Z</time></trkpt><trkpt lat="35.8428381" lon="139.1835513"><ele>651.0433333333334</ele><time>2024-04-13T02:22:49Z</time></trkpt><trkpt lat="35.8426327" lon="139.1835793"><ele>647.4133333333334</ele><time>2024-04-13T02:23:07Z</time></trkpt><trkpt lat="35.8424191" lon="139.1836217"><ele>640.4933333333333</ele><time>2024-04-13T02:23:25Z</time></trkpt><trkpt lat="35.8422164" lon="139.1836995"><ele>635.6266666666667</ele><time>2024-04-13T02:23:52Z</time></trkpt><trkpt lat="35.8420905" lon="139.1838712"><ele>633.09</ele><time>2024-04-13T02:24:13Z</time></trkpt><trkpt lat="35.8419512" lon="139.184021"><ele>634.0833333333334</ele><time>2024-04-13T02:24:34Z</time></trkpt><trkpt lat="35.841843" lon="139.1842319"><ele>636.8766666666667</ele><time>2024-04-13T02:24:56Z</time></trkpt><trkpt lat="35.841978" lon="139.1844071"><ele>638.9066666666668</ele><time>2024-04-13T02:25:17Z</time></trkpt><trkpt lat="35.8421413" lon="139.1845281"><ele>636.7066666666666</ele><time>2024-04-13T02:26:00Z</time></trkpt><trkpt lat="35.8422335" lon="139.18474"><ele>631.13</ele><time>2024-04-13T02:27:12Z</time></trkpt><trkpt lat="35.8424012" lon="139.1848866"><ele>624.8566666666667</ele><time>2024-04-13T02:27:30Z</time></trkpt><trkpt lat="35.8424985" lon="139.1850859"><ele>620.43</ele><time>2024-04-13T02:27:48Z</time></trkpt><trkpt lat="35.8426432" lon="139.1852404"><ele>618.53</ele><time>2024-04-13T02:28:06Z</time></trkpt><trkpt lat="35.8428217" lon="139.1853306"><ele>617.8100000000001</ele><time>2024-04-13T02:28:27Z</time></trkpt><trkpt lat="35.8428461" lon="139.1855744"><ele>616.16</ele><time>2024-04-13T02:28:54Z</time></trkpt><trkpt lat="35.8427009" lon="139.185751"><ele>615.46</ele><time>2024-04-13T02:29:06Z</time></trkpt><trkpt lat="35.8426666" lon="139.1860133"><ele>614.4033333333333</ele><time>2024-04-13T02:29:27Z</time></trkpt><trkpt lat="35.8428003" lon="139.1861681"><ele>616.8366666666667</ele><time>2024-04-13T02:29:39Z</time></trkpt><trkpt lat="35.842844" lon="139.1864274"><ele>618.6766666666667</ele><time>2024-04-13T02:30:18Z</time></trkpt><trkpt lat="35.8429641" lon="139.1865926"><ele>620.3333333333334</ele><time>2024-04-13T02:31:02Z</time></trkpt><trkpt lat="35.8428281" lon="139.1867518"><ele>621.0933333333334</ele><time>2024-04-13T02:31:17Z</time></trkpt><trkpt lat="35.8427253" lon="139.1869373"><ele>622.4633333333333</ele><time>2024-04-13T02:31:35Z</time></trkpt><trkpt lat="35.842563" lon="139.1871084"><ele>624.0</ele><time>2024-04-13T02:31:47Z</time></trkpt><trkpt lat="35.8424243" lon="139.1872741"><ele>626.9233333333333</ele><time>2024-04-13T02:32:02Z</time></trkpt><trkpt lat="35.8423285" lon="139.1875137"><ele>629.67</ele><time>2024-04-13T02:32:17Z</time></trkpt><trkpt lat="35.8422355" lon="139.1877578"><ele>633.7199999999999</ele><time>2024-04-13T02:32:35Z</time></trkpt><trkpt lat="35.8421422" lon="139.187985"><ele>635.41</ele><time>2024-04-13T02:32:56Z</time></trkpt><trkpt lat="35.8421111" lon="139.1882755"><ele>635.83</ele><time>2024-04-13T02:33:20Z</time></trkpt><trkpt lat="35.8419858" lon="139.1884486"><ele>633.5533333333334</ele><time>2024-04-13T02:33:47Z</time></trkpt><trkpt lat="35.8418209" lon="139.1886118"><ele>629.5466666666667</ele><time>2024-04-13T02:34:08Z</time></trkpt><trkpt lat="35.841655" lon="139.1887424"><ele>624.7633333333333</ele><time>2024-04-13T02:34:26Z</time></trkpt><trkpt lat="35.8415116" lon="139.1889136"><ele>620.04</ele><time>2024-04-13T02:34:41Z</time></trkpt><trkpt lat="35.841374" lon="139.1891029"><ele>617.1366666666667</ele><time>2024-04-13T02:34:59Z</time></trkpt><trkpt lat="35.8413024" lon="139.1893356"><ele>614.6266666666667</ele><time>2024-04-13T02:35:17Z</time></trkpt><trkpt lat="35.841213" lon="139.189538"><ele>611.4</ele><time>2024-04-13T02:35:31Z</time></trkpt><trkpt lat="35.8411251" lon="139.1897707"><ele>606.85</ele><time>2024-04-13T02:35:50Z</time></trkpt><trkpt lat="35.8411252" lon="139.1900099"><ele>601.8966666666666</ele><time>2024-04-13T02:36:12Z</time></trkpt><trkpt lat="35.8411268" lon="139.1902676"><ele>596.3633333333333</ele><time>2024-04-13T02:36:34Z</time></trkpt><trkpt lat="35.8410344" lon="139.190479"><ele>589.3000000000001</ele><time>2024-04-13T02:37:19Z</time></trkpt><trkpt lat="35.8408436" lon="139.190559"><ele>578.39</ele><time>2024-04-13T02:38:13Z</time></trkpt><trkpt lat="35.8408281" lon="139.1907985"><ele>567.4699999999999</ele><time>2024-04-13T02:38:28Z</time></trkpt><trkpt lat="35.8408239" lon="139.1910462"><ele>558.4566666666666</ele><time>2024-04-13T02:39:52Z</time></trkpt><trkpt lat="35.8407216" lon="139.1912434"><ele>552.35</ele><time>2024-04-13T02:40:34Z</time></trkpt><trkpt lat="35.8406294" lon="139.1914643"><ele>545.4366666666666</ele><time>2024-04-13T02:41:16Z</time></trkpt><trkpt lat="35.8406046" lon="139.1916971"><ele>539.0866666666666</ele><time>2024-04-13T02:42:04Z</time></trkpt><trkpt lat="35.8404529" lon="139.1918248"><ele>534.5833333333334</ele><time>2024-04-13T02:42:19Z</time></trkpt><trkpt lat="35.8403698" lon="139.1920438"><ele>533.0</ele><time>2024-04-13T02:42:46Z</time></trkpt><trkpt lat="35.8402331" lon="139.1922057"><ele>534.6133333333333</ele><time>2024-04-13T02:43:04Z</time></trkpt><trkpt lat="35.8401176" lon="139.1923782"><ele>536.6666666666666</ele><time>2024-04-13T02:43:19Z</time></trkpt><trkpt lat="35.8400177" lon="139.1925659"><ele>539.0633333333334</ele><time>2024-04-13T02:43:37Z</time></trkpt><trkpt lat="35.8399603" lon="139.19281"><ele>540.5300000000001</ele><time>2024-04-13T02:43:52Z</time></trkpt><trkpt lat="35.84005" lon="139.1930481"><ele>542.63</ele><time>2024-04-13T02:44:07Z</time></trkpt><trkpt lat="35.8400675" lon="139.1933363"><ele>542.42</ele><time>2024-04-13T02:44:28Z</time></trkpt><trkpt lat="35.8400028" lon="139.1935535"><ele>538.4166666666666</ele><time>2024-04-13T02:44:44Z</time></trkpt><trkpt lat="35.839924" lon="139.1937575"><ele>532.6366666666668</ele><time>2024-04-13T02:45:42Z</time></trkpt><trkpt lat="35.8398158" lon="139.193973"><ele>525.6566666666666</ele><time>2024-04-13T02:45:57Z</time></trkpt><trkpt lat="35.8399556" lon="139.1941378"><ele>518.9933333333333</ele><time>2024-04-13T02:46:54Z</time></trkpt><trkpt lat="35.8400636" lon="139.1943585"><ele>510.8333333333333</ele><time>2024-04-13T02:47:27Z</time></trkpt><trkpt lat="35.8400629" lon="139.1946709"><ele>502.27666666666664</ele><time>2024-04-13T02:47:58Z</time></trkpt><trkpt lat="35.8400418" lon="139.1948943"><ele>494.80333333333334</ele><time>2024-04-13T02:48:25Z</time></trkpt><trkpt lat="35.8399843" lon="139.1951512"><ele>486.4666666666667</ele><time>2024-04-13T02:49:01Z</time></trkpt><trkpt lat="35.8398797" lon="139.1953332"><ele>478.34999999999997</ele><time>2024-04-13T02:49:13Z</time></trkpt><trkpt lat="35.8399375" lon="139.1955516"><ele>469.42333333333335</ele><time>2024-04-13T02:49:36Z</time></trkpt><trkpt lat="35.8401103" lon="139.1956751"><ele>463.66333333333336</ele><time>2024-04-13T02:49:58Z</time></trkpt><trkpt lat="35.8400643" lon="139.1958963"><ele>460.52666666666664</ele><time>2024-04-13T02:50:19Z</time></trkpt><trkpt lat="35.8399776" lon="139.1960939"><ele>456.0466666666666</ele><time>2024-04-13T02:50:46Z</time></trkpt><trkpt lat="35.8401155" lon="139.1962912"><ele>450.6033333333333</ele><time>2024-04-13T02:51:05Z</time></trkpt><trkpt lat="35.8401002" lon="139.1965226"><ele>445.28000000000003</ele><time>2024-04-13T02:51:20Z</time></trkpt><trkpt lat="35.8401638" lon="139.1967318"><ele>445.25333333333333</ele><time>2024-04-13T02:52:08Z</time></trkpt><trkpt lat="35.8403164" lon="139.1968862"><ele>448.18333333333334</ele><time>2024-04-13T02:52:14Z</time></trkpt><trkpt lat="35.8403376" lon="139.1971219"><ele>450.2866666666667</ele><time>2024-04-13T02:52:39Z</time></trkpt><trkpt lat="35.840228" lon="139.1973102"><ele>448.08666666666664</ele><time>2024-04-13T02:53:11Z</time></trkpt><trkpt lat="35.840399" lon="139.1972271"><ele>445.28999999999996</ele><time>2024-04-13T02:54:36Z</time></trkpt><trkpt lat="35.8405533" lon="139.1973438"><ele>440.91333333333336</ele><time>2024-04-13T02:55:29Z</time></trkpt><trkpt lat="35.8407002" lon="139.1975052"><ele>435.2866666666667</ele><time>2024-04-13T02:58:31Z</time></trkpt><trkpt lat="35.8408343" lon="139.1976596"><ele>423.47</ele><time>2024-04-13T02:58:46Z</time></trkpt><trkpt lat="35.8408542" lon="139.1978967"><ele>415.05</ele><time>2024-04-13T02:59:07Z</time></trkpt><trkpt lat="35.840724" lon="139.1980903"><ele>406.4266666666667</ele><time>2024-04-13T03:00:56Z</time></trkpt><trkpt lat="35.8408968" lon="139.1982078"><ele>407.5366666666667</ele><time>2024-04-13T03:01:18Z</time></trkpt><trkpt lat="35.8408536" lon="139.1984594"><ele>408.9633333333333</ele><time>2024-04-13T03:01:30Z</time></trkpt><trkpt lat="35.8408107" lon="139.1987237"><ele>412.3</ele><time>2024-04-13T03:01:45Z</time></trkpt><trkpt lat="35.8408921" lon="139.1989508"><ele>412.90000000000003</ele><time>2024-04-13T03:02:00Z</time></trkpt><trkpt lat="35.8409096" lon="139.1992043"><ele>412.3533333333334</ele><time>2024-04-13T03:02:18Z</time></trkpt><trkpt lat="35.8410005" lon="139.1994005"><ele>415.8666666666666</ele><time>2024-04-13T03:02:33Z</time></trkpt><trkpt lat="35.840878" lon="139.1995855"><ele>419.03</ele><time>2024-04-13T03:03:03Z</time></trkpt><trkpt lat="35.8409558" lon="139.1998393"><ele>424.22333333333336</ele><time>2024-04-13T03:03:33Z</time></trkpt><trkpt lat="35.8408732" lon="139.2000759"><ele>423.69</ele><time>2024-04-13T03:03:48Z</time></trkpt><trkpt lat="35.8409016" lon="139.2002947"><ele>420.91333333333336</ele><time>2024-04-13T03:04:01Z</time></trkpt><trkpt lat="35.8410542" lon="139.2004916"><ele>420.0</ele><time>2024-04-13T03:04:14Z</time></trkpt><trkpt lat="35.8410464" lon="139.2007447"><ele>423.5733333333333</ele><time>2024-04-13T03:04:32Z</time></trkpt><trkpt lat="35.8410446" lon="139.2009766"><ele>430.5466666666666</ele><time>2024-04-13T03:06:54Z</time></trkpt><trkpt lat="35.8411084" lon="139.2012147"><ele>439.3</ele><time>2024-04-13T03:10:15Z</time></trkpt><trkpt lat="35.8410573" lon="139.2014678"><ele>451.2733333333333</ele><time>2024-04-13T03:13:22Z</time></trkpt><trkpt lat="35.8410702" lon="139.2017091"><ele>462.58666666666664</ele><time>2024-04-13T03:13:37Z</time></trkpt><trkpt lat="35.8411027" lon="139.2019414"><ele>469.1233333333333</ele><time>2024-04-13T03:13:52Z</time></trkpt><trkpt lat="35.8411365" lon="139.2021864"><ele>472.1966666666667</ele><time>2024-04-13T03:14:13Z</time></trkpt><trkpt lat="35.8410738" lon="139.2024114"><ele>473.23333333333335</ele><time>2024-04-13T03:14:37Z</time></trkpt><trkpt lat="35.8411729" lon="139.2026302"><ele>475.7966666666666</ele><time>2024-04-13T03:14:52Z</time></trkpt><trkpt lat="35.841149" lon="139.2028769"><ele>480.4533333333334</ele><time>2024-04-13T03:16:04Z</time></trkpt><trkpt lat="35.8412061" lon="139.2031181"><ele>486.0733333333333</ele><time>2024-04-13T03:16:34Z</time></trkpt><trkpt lat="35.841254" lon="139.2033638"><ele>488.24</ele><time>2024-04-13T03:16:49Z</time></trkpt><trkpt lat="35.8413998" lon="139.2035199"><ele>486.48</ele><time>2024-04-13T03:17:17Z</time></trkpt><trkpt lat="35.8414957" lon="139.2037083"><ele>482.93</ele><time>2024-04-13T03:17:36Z</time></trkpt><trkpt lat="35.8416907" lon="139.2037335"><ele>479.33666666666664</ele><time>2024-04-13T03:18:03Z</time></trkpt><trkpt lat="35.8418797" lon="139.2038061"><ele>476.3533333333333</ele><time>2024-04-13T03:18:21Z</time></trkpt><trkpt lat="35.8420765" lon="139.2038652"><ele>474.36666666666673</ele><time>2024-04-13T03:18:42Z</time></trkpt><trkpt lat="35.8421441" lon="139.2040962"><ele>470.19</ele><time>2024-04-13T03:18:54Z</time></trkpt><trkpt lat="35.8423385" lon="139.2040684"><ele>469.32</ele><time>2024-04-13T03:19:10Z</time></trkpt><trkpt lat="35.8424413" lon="139.2042569"><ele>468.1166666666666</ele><time>2024-04-13T03:19:27Z</time></trkpt><trkpt lat="35.8425253" lon="139.204479"><ele>470.2966666666666</ele><time>2024-04-13T03:19:57Z</time></trkpt><trkpt lat="35.8426907" lon="139.2045966"><ele>469.42</ele><time>2024-04-13T03:20:18Z</time></trkpt><trkpt lat="35.8428208" lon="139.2047656"><ele>466.99666666666667</ele><time>2024-04-13T03:20:54Z</time></trkpt><trkpt lat="35.8430108" lon="139.2048481"><ele>464.92333333333335</ele><time>2024-04-13T03:21:12Z</time></trkpt><trkpt lat="35.8431713" lon="139.2049836"><ele>463.56</ele><time>2024-04-13T03:21:29Z</time></trkpt><trkpt lat="35.8433319" lon="139.2048458"><ele>463.3833333333334</ele><time>2024-04-13T03:21:53Z</time></trkpt><trkpt lat="35.8435308" lon="139.204881"><ele>461.93666666666667</ele><time>2024-04-13T03:22:20Z</time></trkpt><trkpt lat="35.8437089" lon="139.2048393"><ele>458.1233333333333</ele><time>2024-04-13T03:22:50Z</time></trkpt><trkpt lat="35.8439221" lon="139.2048108"><ele>454.80333333333334</ele><time>2024-04-13T03:23:10Z</time></trkpt><trkpt lat="35.8440812" lon="139.2049916"><ele>452.47</ele><time>2024-04-13T03:23:32Z</time></trkpt><trkpt lat="35.8442623" lon="139.2050719"><ele>452.5</ele><time>2024-04-13T03:23:51Z</time></trkpt><trkpt lat="35.8444685" lon="139.20498"><ele>455.16</ele><time>2024-04-13T03:24:15Z</time></trkpt><trkpt lat="35.8446578" lon="139.2049414"><ele>457.23333333333335</ele><time>2024-04-13T03:24:30Z</time></trkpt><trkpt lat="35.8447337" lon="139.2051438"><ele>456.41</ele><time>2024-04-13T03:25:11Z</time></trkpt><trkpt lat="35.8448835" lon="139.2052805"><ele>447.97</ele><time>2024-04-13T03:26:20Z</time></trkpt><trkpt lat="35.8450354" lon="139.2054216"><ele>437.71000000000004</ele><time>2024-04-13T03:27:09Z</time></trkpt><trkpt lat="35.8452325" lon="139.205382"><ele>428.0033333333334</ele><time>2024-04-13T03:27:39Z</time></trkpt><trkpt lat="35.8452968" lon="139.2056037"><ele>423.06333333333333</ele><time>2024-04-13T03:28:13Z</time></trkpt><trkpt lat="35.8454868" lon="139.2056773"><ele>420.10999999999996</ele><time>2024-04-13T03:28:40Z</time></trkpt><trkpt lat="35.8455911" lon="139.2058777"><ele>422.10666666666674</ele><time>2024-04-13T03:30:44Z</time></trkpt><trkpt lat="35.8457185" lon="139.2060424"><ele>425.99</ele><time>2024-04-13T03:31:08Z</time></trkpt><trkpt lat="35.8458233" lon="139.206243"><ele>430.92333333333335</ele><time>2024-04-13T03:31:41Z</time></trkpt><trkpt lat="35.8459776" lon="139.2063838"><ele>434.5566666666667</ele><time>2024-04-13T03:32:11Z</time></trkpt><trkpt lat="35.8461277" lon="139.2065378"><ele>438.5733333333333</ele><time>2024-04-13T03:32:39Z</time></trkpt><trkpt lat="35.846191" lon="139.2067573"><ele>444.5466666666667</ele><time>2024-04-13T03:33:59Z</time></trkpt><trkpt lat="35.8463082" lon="139.2069978"><ele>451.9866666666667</ele><time>2024-04-13T03:35:35Z</time></trkpt><trkpt lat="35.8464185" lon="139.2072044"><ele>460.16</ele><time>2024-04-13T03:36:20Z</time></trkpt><trkpt lat="35.8465751" lon="139.2073853"><ele>466.85999999999996</ele><time>2024-04-13T03:36:50Z</time></trkpt><trkpt lat="35.8466718" lon="139.2076177"><ele>471.06333333333333</ele><time>2024-04-13T03:37:11Z</time></trkpt><trkpt lat="35.8466521" lon="139.2079729"><ele>474.3566666666666</ele><time>2024-04-13T03:37:50Z</time></trkpt><trkpt lat="35.8465364" lon="139.2081697"><ele>480.06333333333333</ele><time>2024-04-13T03:39:30Z</time></trkpt><trkpt lat="35.8465128" lon="139.2084113"><ele>485.91333333333336</ele><time>2024-04-13T03:40:00Z</time></trkpt><trkpt lat="35.8464763" lon="139.2086316"><ele>489.95666666666665</ele><time>2024-04-13T03:40:15Z</time></trkpt><trkpt lat="35.8465314" lon="139.2088548"><ele>489.46000000000004</ele><time>2024-04-13T03:40:30Z</time></trkpt><trkpt lat="35.8464083" lon="139.2090646"><ele>484.5533333333333</ele><time>2024-04-13T03:40:42Z</time></trkpt><trkpt lat="35.8463874" lon="139.2092932"><ele>480.0133333333333</ele><time>2024-04-13T03:40:57Z</time></trkpt><trkpt lat="35.8463435" lon="139.2095171"><ele>477.2</ele><time>2024-04-13T03:41:18Z</time></trkpt><trkpt lat="35.8462353" lon="139.2097351"><ele>476.55999999999995</ele><time>2024-04-13T03:41:36Z</time></trkpt><trkpt lat="35.8462554" lon="139.2100101"><ele>474.81333333333333</ele><time>2024-04-13T03:42:50Z</time></trkpt><trkpt lat="35.8463186" lon="139.2102486"><ele>470.83</ele><time>2024-04-13T03:43:05Z</time></trkpt><trkpt lat="35.8463614" lon="139.2104976"><ele>467.62000000000006</ele><time>2024-04-13T03:43:19Z</time></trkpt><trkpt lat="35.8464446" lon="139.2107481"><ele>464.74</ele><time>2024-04-13T03:43:41Z</time></trkpt><trkpt lat="35.8463934" lon="139.211055"><ele>462.4866666666667</ele><time>2024-04-13T03:44:03Z</time></trkpt><trkpt lat="35.8465175" lon="139.2112329"><ele>458.25</ele><time>2024-04-13T03:44:39Z</time></trkpt><trkpt lat="35.8465967" lon="139.2114649"><ele>451.0566666666667</ele><time>2024-04-13T03:45:00Z</time></trkpt><trkpt lat="35.8467715" lon="139.2116037"><ele>441.51</ele><time>2024-04-13T03:45:30Z</time></trkpt><trkpt lat="35.8467381" lon="139.2118307"><ele>434.6133333333333</ele><time>2024-04-13T03:45:45Z</time></trkpt><trkpt lat="35.8466799" lon="139.2120423"><ele>432.5333333333333</ele><time>2024-04-13T03:46:55Z</time></trkpt><trkpt lat="35.846682" lon="139.2122643"><ele>435.1666666666667</ele><time>2024-04-13T03:47:22Z</time></trkpt><trkpt lat="35.8466849" lon="139.2124931"><ele>440.1433333333334</ele><time>2024-04-13T03:48:25Z</time></trkpt><trkpt lat="35.8466541" lon="139.2127303"><ele>446.70666666666665</ele><time>2024-04-13T03:51:06Z</time></trkpt><trkpt lat="35.8464957" lon="139.2128476"><ele>454.63000000000005</ele><time>2024-04-13T03:52:00Z</time></trkpt><trkpt lat="35.8463233" lon="139.2127802"><ele>460.7533333333334</ele><time>2024-04-13T03:53:45Z</time></trkpt><trkpt lat="35.8461385" lon="139.2127817"><ele>465.92</ele><time>2024-04-13T03:54:39Z</time></trkpt><trkpt lat="35.8459777" lon="139.2129022"><ele>473.7166666666667</ele><time>2024-04-13T03:55:27Z</time></trkpt><trkpt lat="35.8458125" lon="139.2130669"><ele>484.8066666666667</ele><time>2024-04-13T03:56:11Z</time></trkpt><trkpt lat="35.8457867" lon="139.2133109"><ele>495.02</ele><time>2024-04-13T03:57:05Z</time></trkpt><trkpt lat="35.8457781" lon="139.213554"><ele>499.6566666666667</ele><time>2024-04-13T03:58:48Z</time></trkpt><trkpt lat="35.8456154" lon="139.2136737"><ele>499.83666666666664</ele><time>2024-04-13T03:59:08Z</time></trkpt><trkpt lat="35.8454788" lon="139.2138439"><ele>497.3233333333333</ele><time>2024-04-13T03:59:30Z</time></trkpt><trkpt lat="35.8454" lon="139.2140644"><ele>494.85999999999996</ele><time>2024-04-13T03:59:51Z</time></trkpt><trkpt lat="35.8455691" lon="139.2141841"><ele>493.11666666666673</ele><time>2024-04-13T04:00:06Z</time></trkpt><trkpt lat="35.8457039" lon="139.2143822"><ele>492.75333333333333</ele><time>2024-04-13T04:00:24Z</time></trkpt><trkpt lat="35.8457662" lon="139.2145969"><ele>492.21333333333337</ele><time>2024-04-13T04:00:39Z</time></trkpt><trkpt lat="35.8457228" lon="139.2148263"><ele>491.23</ele><time>2024-04-13T04:01:03Z</time></trkpt><trkpt lat="35.845602" lon="139.2149913"><ele>489.42</ele><time>2024-04-13T04:02:20Z</time></trkpt><trkpt lat="35.8454766" lon="139.2151801"><ele>486.74333333333334</ele><time>2024-04-13T04:02:44Z</time></trkpt><trkpt lat="35.8456532" lon="139.2152576"><ele>483.99666666666667</ele><time>2024-04-13T04:03:08Z</time></trkpt><trkpt lat="35.8458517" lon="139.2152332"><ele>482.82666666666665</ele><time>2024-04-13T04:03:20Z</time></trkpt><trkpt lat="35.8460364" lon="139.2152773"><ele>483.01</ele><time>2024-04-13T04:03:47Z</time></trkpt><trkpt lat="35.8462171" lon="139.2153381"><ele>482.6766666666667</ele><time>2024-04-13T04:04:05Z</time></trkpt><trkpt lat="35.8463829" lon="139.2152401"><ele>482.79</ele><time>2024-04-13T04:04:20Z</time></trkpt><trkpt lat="35.8465684" lon="139.2152908"><ele>484.3</ele><time>2024-04-13T04:04:38Z</time></trkpt><trkpt lat="35.8467211" lon="139.2154295"><ele>485.2466666666667</ele><time>2024-04-13T04:04:53Z</time></trkpt><trkpt lat="35.8468975" lon="139.2155135"><ele>486.52</ele><time>2024-04-13T04:05:08Z</time></trkpt><trkpt lat="35.8469679" lon="139.2157346"><ele>486.77</ele><time>2024-04-13T04:05:29Z</time></trkpt><trkpt lat="35.8470448" lon="139.2159354"><ele>488.93</ele><time>2024-04-13T04:05:44Z</time></trkpt><trkpt lat="35.8470623" lon="139.2161891"><ele>490.8033333333333</ele><time>2024-04-13T04:05:56Z</time></trkpt><trkpt lat="35.8469754" lon="139.2164746"><ele>490.39000000000004</ele><time>2024-04-13T04:06:11Z</time></trkpt><trkpt lat="35.8469445" lon="139.2167237"><ele>489.1666666666667</ele><time>2024-04-13T04:06:32Z</time></trkpt><trkpt lat="35.8469068" lon="139.2169417"><ele>486.31666666666666</ele><time>2024-04-13T04:06:47Z</time></trkpt><trkpt lat="35.846845" lon="139.2171507"><ele>484.4433333333333</ele><time>2024-04-13T04:07:21Z</time></trkpt><trkpt lat="35.8469239" lon="139.217352"><ele>482.3333333333333</ele><time>2024-04-13T04:08:01Z</time></trkpt><trkpt lat="35.847016" lon="139.2175832"><ele>479.21000000000004</ele><time>2024-04-13T04:08:46Z</time></trkpt><trkpt lat="35.8470802" lon="139.2178359"><ele>476.34999999999997</ele><time>2024-04-13T04:09:07Z</time></trkpt><trkpt lat="35.847165" lon="139.2181117"><ele>472.31666666666666</ele><time>2024-04-13T04:09:25Z</time></trkpt><trkpt lat="35.8471274" lon="139.2184045"><ele>469.15333333333336</ele><time>2024-04-13T04:09:44Z</time></trkpt><trkpt lat="35.8471782" lon="139.2186419"><ele>464.9200000000001</ele><time>2024-04-13T04:10:05Z</time></trkpt><trkpt lat="35.8471515" lon="139.2188841"><ele>461.50333333333333</ele><time>2024-04-13T04:10:23Z</time></trkpt><trkpt lat="35.8470594" lon="139.2191131"><ele>457.2966666666667</ele><time>2024-04-13T04:10:45Z</time></trkpt><trkpt lat="35.8469179" lon="139.2192968"><ele>453.3833333333334</ele><time>2024-04-13T04:11:25Z</time></trkpt><trkpt lat="35.8467672" lon="139.2194652"><ele>450.50333333333333</ele><time>2024-04-13T04:11:43Z</time></trkpt><trkpt lat="35.8465687" lon="139.2196114"><ele>449.07</ele><time>2024-04-13T04:11:58Z</time></trkpt><trkpt lat="35.8463573" lon="139.2196825"><ele>445.18</ele><time>2024-04-13T04:12:13Z</time></trkpt><trkpt lat="35.8461535" lon="139.2197865"><ele>441.57666666666665</ele><time>2024-04-13T04:12:31Z</time></trkpt><trkpt lat="35.8460523" lon="139.2199778"><ele>439.00666666666666</ele><time>2024-04-13T04:12:43Z</time></trkpt><trkpt lat="35.8461418" lon="139.2202236"><ele>443.60999999999996</ele><time>2024-04-13T04:13:00Z</time></trkpt><trkpt lat="35.84609" lon="139.2204839"><ele>442.53</ele><time>2024-04-13T04:13:21Z</time></trkpt><trkpt lat="35.8462164" lon="139.2206766"><ele>441.49</ele><time>2024-04-13T04:13:45Z</time></trkpt><trkpt lat="35.8462456" lon="139.2209707"><ele>434.97</ele><time>2024-04-13T04:14:00Z</time></trkpt><trkpt lat="35.8464292" lon="139.2210369"><ele>432.23</ele><time>2024-04-13T04:14:21Z</time></trkpt><trkpt lat="35.846618" lon="139.2209896"><ele>427.2266666666667</ele><time>2024-04-13T04:14:36Z</time></trkpt><trkpt lat="35.8468082" lon="139.2210083"><ele>423.98</ele><time>2024-04-13T04:14:51Z</time></trkpt><trkpt lat="35.84695" lon="139.2211696"><ele>421.7</ele><time>2024-04-13T04:15:35Z</time></trkpt><trkpt lat="35.8468488" lon="139.2214439"><ele>418.39000000000004</ele><time>2024-04-13T04:15:44Z</time></trkpt><trkpt lat="35.8468571" lon="139.2216703"><ele>413.74</ele><time>2024-04-13T04:15:59Z</time></trkpt><trkpt lat="35.846768" lon="139.2219119"><ele>408.5133333333333</ele><time>2024-04-13T04:16:46Z</time></trkpt><trkpt lat="35.8465919" lon="139.2220171"><ele>402.78666666666663</ele><time>2024-04-13T04:17:04Z</time></trkpt><trkpt lat="35.8467435" lon="139.2221421"><ele>400.35666666666674</ele><time>2024-04-13T04:19:16Z</time></trkpt><trkpt lat="35.8469165" lon="139.2222584"><ele>400.19666666666666</ele><time>2024-04-13T04:23:12Z</time></trkpt><trkpt lat="35.8470938" lon="139.2223538"><ele>403.5233333333333</ele><time>2024-04-13T04:23:27Z</time></trkpt><trkpt lat="35.8472826" lon="139.2224451"><ele>405.74</ele><time>2024-04-13T04:23:41Z</time></trkpt><trkpt lat="35.8473164" lon="139.2227037"><ele>407.45000000000005</ele><time>2024-04-13T04:24:06Z</time></trkpt><trkpt lat="35.8472912" lon="139.2229538"><ele>410.3433333333333</ele><time>2024-04-13T04:24:24Z</time></trkpt><trkpt lat="35.8471063" lon="139.2230478"><ele>410.6700000000001</ele><time>2024-04-13T04:24:48Z</time></trkpt><trkpt lat="35.8469613" lon="139.2231797"><ele>408.17333333333335</ele><time>2024-04-13T04:25:15Z</time></trkpt><trkpt lat="35.8469287" lon="139.2234249"><ele>405.01666666666665</ele><time>2024-04-13T04:25:30Z</time></trkpt><trkpt lat="35.8469248" lon="139.2237503"><ele>403.9466666666667</ele><time>2024-04-13T04:25:45Z</time></trkpt><trkpt lat="35.8467967" lon="139.2239095"><ele>402.56666666666666</ele><time>2024-04-13T04:26:00Z</time></trkpt><trkpt lat="35.8469095" lon="139.2240972"><ele>398.3933333333334</ele><time>2024-04-13T04:26:24Z</time></trkpt><trkpt lat="35.8470899" lon="139.2240887"><ele>392.7733333333333</ele><time>2024-04-13T04:26:39Z</time></trkpt><trkpt lat="35.8472749" lon="139.2240295"><ele>389.73333333333335</ele><time>2024-04-13T04:26:54Z</time></trkpt><trkpt lat="35.8474491" lon="139.2239439"><ele>388.41333333333336</ele><time>2024-04-13T04:27:09Z</time></trkpt><trkpt lat="35.8475724" lon="139.2237396"><ele>389.88000000000005</ele><time>2024-04-13T04:27:27Z</time></trkpt><trkpt lat="35.8477944" lon="139.2236532"><ele>390.92</ele><time>2024-04-13T04:27:39Z</time></trkpt><trkpt lat="35.8479978" lon="139.2237139"><ele>392.47</ele><time>2024-04-13T04:28:00Z</time></trkpt><trkpt lat="35.8481246" lon="139.22388"><ele>392.22333333333336</ele><time>2024-04-13T04:28:18Z</time></trkpt><trkpt lat="35.8482863" lon="139.2239855"><ele>392.66333333333336</ele><time>2024-04-13T04:28:36Z</time></trkpt><trkpt lat="35.8484106" lon="139.2241578"><ele>392.10999999999996</ele><time>2024-04-13T04:29:06Z</time></trkpt><trkpt lat="35.8484944" lon="139.2243741"><ele>392.02</ele><time>2024-04-13T04:29:18Z</time></trkpt><trkpt lat="35.8485381" lon="139.2246072"><ele>390.84</ele><time>2024-04-13T04:29:30Z</time></trkpt><trkpt lat="35.8486152" lon="139.224821"><ele>388.95</ele><time>2024-04-13T04:29:42Z</time></trkpt><trkpt lat="35.8488055" lon="139.224951"><ele>388.1000000000001</ele><time>2024-04-13T04:29:57Z</time></trkpt><trkpt lat="35.8489686" lon="139.2251401"><ele>389.1133333333334</ele><time>2024-04-13T04:30:32Z</time></trkpt><trkpt lat="35.8491879" lon="139.2253361"><ele>390.09999999999997</ele><time>2024-04-13T04:30:47Z</time></trkpt><trkpt lat="35.8493394" lon="139.2254995"><ele>388.90000000000003</ele><time>2024-04-13T04:31:02Z</time></trkpt><trkpt lat="35.8494914" lon="139.225679"><ele>387.28999999999996</ele><time>2024-04-13T04:31:20Z</time></trkpt><trkpt lat="35.8496489" lon="139.2258432"><ele>388.1033333333333</ele><time>2024-04-13T04:31:38Z</time></trkpt><trkpt lat="35.8498101" lon="139.2259465"><ele>390.1266666666666</ele><time>2024-04-13T04:31:56Z</time></trkpt><trkpt lat="35.8500056" lon="139.2260478"><ele>393.40333333333336</ele><time>2024-04-13T04:32:08Z</time></trkpt><trkpt lat="35.8501913" lon="139.226093"><ele>395.0566666666667</ele><time>2024-04-13T04:32:23Z</time></trkpt><trkpt lat="35.8503835" lon="139.2261102"><ele>395.33666666666664</ele><time>2024-04-13T04:32:38Z</time></trkpt><trkpt lat="35.8506062" lon="139.226066"><ele>392.11000000000007</ele><time>2024-04-13T04:32:53Z</time></trkpt><trkpt lat="35.8507861" lon="139.2260265"><ele>390.51666666666665</ele><time>2024-04-13T04:33:05Z</time></trkpt><trkpt lat="35.8509759" lon="139.2260367"><ele>388.9666666666667</ele><time>2024-04-13T04:33:20Z</time></trkpt><trkpt lat="35.8511455" lon="139.2262088"><ele>386.6933333333333</ele><time>2024-04-13T04:33:38Z</time></trkpt><trkpt lat="35.8512945" lon="139.2263626"><ele>382.48333333333335</ele><time>2024-04-13T04:33:55Z</time></trkpt><trkpt lat="35.8514181" lon="139.2265312"><ele>380.2633333333333</ele><time>2024-04-13T04:34:10Z</time></trkpt><trkpt lat="35.8515434" lon="139.2267405"><ele>380.97333333333336</ele><time>2024-04-13T04:34:28Z</time></trkpt><trkpt lat="35.8517287" lon="139.2268471"><ele>382.55333333333334</ele><time>2024-04-13T04:34:46Z</time></trkpt><trkpt lat="35.8519021" lon="139.2270163"><ele>385.5233333333333</ele><time>2024-04-13T04:35:01Z</time></trkpt><trkpt lat="35.8520379" lon="139.2271654"><ele>389.3333333333333</ele><time>2024-04-13T04:35:13Z</time></trkpt><trkpt lat="35.8521326" lon="139.2274474"><ele>394.83666666666664</ele><time>2024-04-13T04:35:25Z</time></trkpt><trkpt lat="35.8521353" lon="139.2276777"><ele>394.81</ele><time>2024-04-13T04:35:37Z</time></trkpt><trkpt lat="35.8523225" lon="139.2277101"><ele>392.06333333333333</ele><time>2024-04-13T04:36:10Z</time></trkpt><trkpt lat="35.8524944" lon="139.2276417"><ele>388.50333333333333</ele><time>2024-04-13T04:36:31Z</time></trkpt><trkpt lat="35.8526737" lon="139.2277183"><ele>387.05999999999995</ele><time>2024-04-13T04:36:49Z</time></trkpt><trkpt lat="35.8528599" lon="139.2277932"><ele>388.72</ele><time>2024-04-13T04:36:58Z</time></trkpt><trkpt lat="35.8529968" lon="139.2279446"><ele>390.71000000000004</ele><time>2024-04-13T04:37:13Z</time></trkpt><trkpt lat="35.8530332" lon="139.2281644"><ele>393.8933333333334</ele><time>2024-04-13T04:37:41Z</time></trkpt><trkpt lat="35.8531453" lon="139.2283706"><ele>393.74</ele><time>2024-04-13T04:37:58Z</time></trkpt><trkpt lat="35.8533328" lon="139.2285244"><ele>387.93000000000006</ele><time>2024-04-13T04:38:13Z</time></trkpt><trkpt lat="35.8534729" lon="139.2287186"><ele>380.77000000000004</ele><time>2024-04-13T04:38:34Z</time></trkpt><trkpt lat="35.8535265" lon="139.2289761"><ele>375.66</ele><time>2024-04-13T04:38:49Z</time></trkpt><trkpt lat="35.8536191" lon="139.2291949"><ele>374.1266666666666</ele><time>2024-04-13T04:39:05Z</time></trkpt><trkpt lat="35.8537719" lon="139.2293322"><ele>370.83666666666664</ele><time>2024-04-13T04:39:23Z</time></trkpt><trkpt lat="35.8538428" lon="139.2295464"><ele>364.8766666666667</ele><time>2024-04-13T04:39:41Z</time></trkpt><trkpt lat="35.853895" lon="139.2297626"><ele>357.5533333333333</ele><time>2024-04-13T04:39:58Z</time></trkpt><trkpt lat="35.8539752" lon="139.2300546"><ele>352.4166666666667</ele><time>2024-04-13T04:40:20Z</time></trkpt><trkpt lat="35.8541714" lon="139.2300939"><ele>348.15000000000003</ele><time>2024-04-13T04:40:38Z</time></trkpt><trkpt lat="35.8543505" lon="139.230191"><ele>344.62000000000006</ele><time>2024-04-13T04:40:53Z</time></trkpt><trkpt lat="35.8545267" lon="139.2302605"><ele>340.46000000000004</ele><time>2024-04-13T04:41:08Z</time></trkpt><trkpt lat="35.8547083" lon="139.230456"><ele>335.6766666666667</ele><time>2024-04-13T04:41:20Z</time></trkpt><trkpt lat="35.854791" lon="139.2306689"><ele>332.9766666666667</ele><time>2024-04-13T04:41:40Z</time></trkpt><trkpt lat="35.8549155" lon="139.2304814"><ele>328.75666666666666</ele><time>2024-04-13T04:42:01Z</time></trkpt><trkpt lat="35.8552064" lon="139.2304889"><ele>325.66</ele><time>2024-04-13T04:42:07Z</time></trkpt><trkpt lat="35.8553335" lon="139.2302294"><ele>317.2333333333333</ele><time>2024-04-13T04:42:15Z</time></trkpt><trkpt lat="35.8554948" lon="139.2300823"><ele>310.49333333333334</ele><time>2024-04-13T04:42:40Z</time></trkpt><trkpt lat="35.8556857" lon="139.2300508"><ele>303.19000000000005</ele><time>2024-04-13T04:42:57Z</time></trkpt><trkpt lat="35.8558749" lon="139.2299253"><ele>298.23</ele><time>2024-04-13T04:43:18Z</time></trkpt><trkpt lat="35.8560722" lon="139.2299736"><ele>292.90000000000003</ele><time>2024-04-13T04:43:31Z</time></trkpt><trkpt lat="35.8562542" lon="139.2299378"><ele>285.34</ele><time>2024-04-13T04:43:48Z</time></trkpt><trkpt lat="35.8563755" lon="139.2301018"><ele>280.38666666666666</ele><time>2024-04-13T04:44:07Z</time></trkpt><trkpt lat="35.8563627" lon="139.2298771"><ele>272.70666666666665</ele><time>2024-04-13T04:44:49Z</time></trkpt><trkpt lat="35.8562393" lon="139.2297057"><ele>266.98</ele><time>2024-04-13T04:45:07Z</time></trkpt><trkpt lat="35.8560337" lon="139.2296258"><ele>260.82666666666665</ele><time>2024-04-13T04:45:31Z</time></trkpt><trkpt lat="35.855842" lon="139.2295903"><ele>260.29333333333335</ele><time>2024-04-13T04:45:46Z</time></trkpt><trkpt lat="35.8559425" lon="139.2293867"><ele>255.7166666666667</ele><time>2024-04-13T04:46:10Z</time></trkpt><trkpt lat="35.8560339" lon="139.229618"><ele>255.7166666666667</ele><time>2024-04-13T04:46:22Z</time></trkpt><trkpt lat="35.8561969" lon="139.2295157"><ele>252.49</ele><time>2024-04-13T04:46:33Z</time></trkpt><trkpt lat="35.8563633" lon="139.2294162"><ele>252.25666666666666</ele><time>2024-04-13T04:46:49Z</time></trkpt><trkpt lat="35.856569" lon="139.229401"><ele>246.26666666666668</ele><time>2024-04-13T04:47:06Z</time></trkpt><trkpt lat="35.8563968" lon="139.2293179"><ele>241.76000000000002</ele><time>2024-04-13T04:47:39Z</time></trkpt><trkpt lat="35.8565901" lon="139.2292155"><ele>235.54333333333332</ele><time>2024-04-13T04:48:10Z</time></trkpt><trkpt lat="35.8568026" lon="139.2291697"><ele>228.33</ele><time>2024-04-13T04:48:31Z</time></trkpt><trkpt lat="35.8569867" lon="139.2291933"><ele>220.57333333333335</ele><time>2024-04-13T04:48:46Z</time></trkpt><trkpt lat="35.8571653" lon="139.2290666"><ele>214.54</ele><time>2024-04-13T04:49:04Z</time></trkpt><trkpt lat="35.8573045" lon="139.2288732"><ele>208.51</ele><time>2024-04-13T04:49:28Z</time></trkpt><trkpt lat="35.8575116" lon="139.2287747"><ele>201.53333333333333</ele><time>2024-04-13T04:49:40Z</time></trkpt><trkpt lat="35.8577248" lon="139.2289058"><ele>195.31333333333336</ele><time>2024-04-13T04:50:05Z</time></trkpt><trkpt lat="35.8578598" lon="139.2290584"><ele>190.60000000000002</ele><time>2024-04-13T04:50:27Z</time></trkpt><trkpt lat="35.8580389" lon="139.2291548"><ele>186.89333333333335</ele><time>2024-04-13T04:50:42Z</time></trkpt><trkpt lat="35.8581949" lon="139.2292974"><ele>184.40666666666667</ele><time>2024-04-13T04:51:07Z</time></trkpt><trkpt lat="35.8584091" lon="139.2293058"><ele>181.79</ele><time>2024-04-13T04:51:21Z</time></trkpt><trkpt lat="35.8586235" lon="139.2293281"><ele>179.1966666666667</ele><time>2024-04-13T04:51:37Z</time></trkpt><trkpt lat="35.8589029" lon="139.2292983"><ele>176.25333333333333</ele><time>2024-04-13T04:51:49Z</time></trkpt><trkpt lat="35.8588632" lon="139.2290449"><ele>174.89333333333335</ele><time>2024-04-13T04:52:00Z</time></trkpt><trkpt lat="35.8589272" lon="139.2288185"><ele>174.47000000000003</ele><time>2024-04-13T04:52:11Z</time></trkpt><trkpt lat="35.8589887" lon="139.2285715"><ele>175.53</ele><time>2024-04-13T04:52:23Z</time></trkpt><trkpt lat="35.8590711" lon="139.2283667"><ele>175.93666666666664</ele><time>2024-04-13T04:52:47Z</time></trkpt><trkpt lat="35.8590412" lon="139.2281168"><ele>177.20666666666668</ele><time>2024-04-13T04:52:59Z</time></trkpt><trkpt lat="35.8591755" lon="139.2279645"><ele>177.76666666666665</ele><time>2024-04-13T04:53:08Z</time></trkpt><trkpt lat="35.8593022" lon="139.2277949"><ele>177.89333333333335</ele><time>2024-04-13T04:53:20Z</time></trkpt><trkpt lat="35.8593156" lon="139.2275274"><ele>176.97</ele><time>2024-04-13T04:53:35Z</time></trkpt><trkpt lat="35.8593604" lon="139.2273047"><ele>175.86</ele><time>2024-04-13T04:53:53Z</time></trkpt><trkpt lat="35.8595199" lon="139.2271891"><ele>175.26000000000002</ele><time>2024-04-13T04:54:08Z</time></trkpt><trkpt lat="35.8597239" lon="139.2272482"><ele>175.49666666666667</ele><time>2024-04-13T04:54:27Z</time></trkpt><trkpt lat="35.8599276" lon="139.2271914"><ele>176.20666666666668</ele><time>2024-04-13T04:54:39Z</time></trkpt><trkpt lat="35.8601097" lon="139.2271739"><ele>176.60333333333335</ele><time>2024-04-13T04:54:54Z</time></trkpt><trkpt lat="35.8603089" lon="139.2272563"><ele>175.92333333333332</ele><time>2024-04-13T04:55:06Z</time></trkpt><trkpt lat="35.8604984" lon="139.2272361"><ele>175.41333333333333</ele><time>2024-04-13T04:55:21Z</time></trkpt><trkpt lat="35.8606855" lon="139.227197"><ele>175.20333333333335</ele><time>2024-04-13T04:55:34Z</time></trkpt><trkpt lat="35.8609003" lon="139.2271032"><ele>175.76</ele><time>2024-04-13T04:55:49Z</time></trkpt><trkpt lat="35.861117" lon="139.2270578"><ele>176.35333333333335</ele><time>2024-04-13T04:56:04Z</time></trkpt><trkpt lat="35.8613051" lon="139.2271268"><ele>176.5666666666667</ele><time>2024-04-13T04:56:20Z</time></trkpt><trkpt lat="35.8614948" lon="139.2271614"><ele>176.47000000000003</ele><time>2024-04-13T04:56:35Z</time></trkpt><trkpt lat="35.861671" lon="139.22706"><ele>176.07666666666668</ele><time>2024-04-13T04:56:53Z</time></trkpt><trkpt lat="35.8618724" lon="139.2271781"><ele>175.6766666666667</ele><time>2024-04-13T04:57:02Z</time></trkpt><trkpt lat="35.8620709" lon="139.227105"><ele>175.10666666666668</ele><time>2024-04-13T04:57:17Z</time></trkpt><trkpt lat="35.8622563" lon="139.2270878"><ele>174.65</ele><time>2024-04-13T04:57:29Z</time></trkpt><trkpt lat="35.8624978" lon="139.2271524"><ele>174.04</ele><time>2024-04-13T04:57:47Z</time></trkpt><trkpt lat="35.8626966" lon="139.227176"><ele>173.76999999999998</ele><time>2024-04-13T04:58:08Z</time></trkpt><trkpt lat="35.8629234" lon="139.227204"><ele>174.16</ele><time>2024-04-13T04:58:26Z</time></trkpt><trkpt lat="35.863096" lon="139.227295"><ele>175.40333333333334</ele><time>2024-04-13T04:58:39Z</time></trkpt></trkseg></trk></gpx>