<?xml version='1.0' encoding='UTF-8'?><gpx creator="YAMAP - https://yamap.com" xsi:schemaLocation="http://www.topografix.com/GPX/1/1 http://www.topografix.com/GPX/1/1/gpx.xsd" version="1.1" xmlns="http://www.topografix.com/GPX/1/1" xmlns:xsi="http://www.w3.org/2001/XMLSchema-instance"><metadata><bounds maxlat="35.6157934" maxlon="139.1755953" minlat="35.5972005" minlon="139.1303261"/></metadata><trk><name>日連アルプスと緑のラブレター</name><number>1</number><trkseg><trkpt lat="35.615745" lon="139.1521268"><ele>216.75</ele><time>2024-03-01T22:43:11Z</time></trkpt><trkpt lat="35.6157692" lon="139.1523594"><ele>216.875</ele><time>2024-03-01T22:43:23Z</time></trkpt><trkpt lat="35.6156444" lon="139.1525295"><ele>216.36333333333334</ele><time>2024-03-01T22:44:43Z</time></trkpt><trkpt lat="35.6154688" lon="139.152442"><ele>215.27666666666667</ele><time>2024-03-01T22:44:54Z</time></trkpt><trkpt lat="35.6152796" lon="139.1524922"><ele>213.0566666666667</ele><time>2024-03-01T22:45:11Z</time></trkpt><trkpt lat="35.6150963" lon="139.1525421"><ele>210.51333333333335</ele><time>2024-03-01T22:46:10Z</time></trkpt><trkpt lat="35.6150222" lon="139.1523382"><ele>207.70666666666668</ele><time>2024-03-01T22:46:20Z</time></trkpt><trkpt lat="35.6150397" lon="139.152108"><ele>206.49333333333334</ele><time>2024-03-01T22:46:33Z</time></trkpt><trkpt lat="35.6149508" lon="139.1519149"><ele>205.08666666666667</ele><time>2024-03-01T22:47:00Z</time></trkpt><trkpt lat="35.6149765" lon="139.151686"><ele>204.6766666666667</ele><time>2024-03-01T22:47:13Z</time></trkpt><trkpt lat="35.615117" lon="139.1515193"><ele>204.34</ele><time>2024-03-01T22:47:20Z</time></trkpt><trkpt lat="35.6152204" lon="139.1513254"><ele>205.04333333333332</ele><time>2024-03-01T22:47:31Z</time></trkpt><trkpt lat="35.615325" lon="139.1511418"><ele>205.67333333333332</ele><time>2024-03-01T22:47:45Z</time></trkpt><trkpt lat="35.6153437" lon="139.1509172"><ele>204.37333333333333</ele><time>2024-03-01T22:47:58Z</time></trkpt><trkpt lat="35.6154191" lon="139.150701"><ele>203.14333333333332</ele><time>2024-03-01T22:48:10Z</time></trkpt><trkpt lat="35.615453" lon="139.1504757"><ele>202.21</ele><time>2024-03-01T22:48:24Z</time></trkpt><trkpt lat="35.6154719" lon="139.1502363"><ele>202.27</ele><time>2024-03-01T22:48:36Z</time></trkpt><trkpt lat="35.6155011" lon="139.1500062"><ele>201.74333333333334</ele><time>2024-03-01T22:48:50Z</time></trkpt><trkpt lat="35.6155853" lon="139.1497985"><ele>202.09333333333333</ele><time>2024-03-01T22:49:05Z</time></trkpt><trkpt lat="35.6155351" lon="139.1495572"><ele>200.54000000000005</ele><time>2024-03-01T22:49:17Z</time></trkpt><trkpt lat="35.6154404" lon="139.1493659"><ele>197.74666666666667</ele><time>2024-03-01T22:49:27Z</time></trkpt><trkpt lat="35.615293" lon="139.1492232"><ele>192.60333333333332</ele><time>2024-03-01T22:49:39Z</time></trkpt><trkpt lat="35.61514" lon="139.1490864"><ele>189.2266666666667</ele><time>2024-03-01T22:49:53Z</time></trkpt><trkpt lat="35.6149834" lon="139.148943"><ele>187.17666666666665</ele><time>2024-03-01T22:50:03Z</time></trkpt><trkpt lat="35.6148356" lon="139.1487935"><ele>185.62666666666667</ele><time>2024-03-01T22:50:16Z</time></trkpt><trkpt lat="35.6146611" lon="139.1487204"><ele>183.61</ele><time>2024-03-01T22:50:29Z</time></trkpt><trkpt lat="35.6145408" lon="139.1485407"><ele>180.24666666666667</ele><time>2024-03-01T22:50:42Z</time></trkpt><trkpt lat="35.6144044" lon="139.1483575"><ele>175.42</ele><time>2024-03-01T22:50:54Z</time></trkpt><trkpt lat="35.6142755" lon="139.1481967"><ele>171.34333333333333</ele><time>2024-03-01T22:51:08Z</time></trkpt><trkpt lat="35.6141327" lon="139.148041"><ele>168.9266666666667</ele><time>2024-03-01T22:51:19Z</time></trkpt><trkpt lat="35.6139677" lon="139.1479448"><ele>168.70000000000002</ele><time>2024-03-01T22:51:28Z</time></trkpt><trkpt lat="35.6139751" lon="139.1477167"><ele>168.74</ele><time>2024-03-01T22:51:42Z</time></trkpt><trkpt lat="35.613821" lon="139.1475959"><ele>169.59</ele><time>2024-03-01T22:51:53Z</time></trkpt><trkpt lat="35.6137562" lon="139.1473753"><ele>172.54333333333332</ele><time>2024-03-01T22:52:09Z</time></trkpt><trkpt lat="35.6136956" lon="139.1471607"><ele>178.15</ele><time>2024-03-01T22:52:26Z</time></trkpt><trkpt lat="35.6136424" lon="139.1469399"><ele>184.21</ele><time>2024-03-01T22:52:39Z</time></trkpt><trkpt lat="35.61361" lon="139.1467181"><ele>189.75</ele><time>2024-03-01T22:52:52Z</time></trkpt><trkpt lat="35.6137154" lon="139.1465325"><ele>191.34333333333333</ele><time>2024-03-01T22:53:07Z</time></trkpt><trkpt lat="35.6137026" lon="139.1463101"><ele>192.17333333333332</ele><time>2024-03-01T22:53:23Z</time></trkpt><trkpt lat="35.6137913" lon="139.1461129"><ele>191.99333333333334</ele><time>2024-03-01T22:53:36Z</time></trkpt><trkpt lat="35.6137921" lon="139.145892"><ele>194.45666666666668</ele><time>2024-03-01T22:53:51Z</time></trkpt><trkpt lat="35.6138367" lon="139.1456712"><ele>198.04</ele><time>2024-03-01T22:54:09Z</time></trkpt><trkpt lat="35.6138187" lon="139.1454439"><ele>201.56333333333336</ele><time>2024-03-01T22:54:24Z</time></trkpt><trkpt lat="35.6138105" lon="139.1452204"><ele>203.99333333333334</ele><time>2024-03-01T22:54:40Z</time></trkpt><trkpt lat="35.6138436" lon="139.1449501"><ele>204.63333333333333</ele><time>2024-03-01T22:55:19Z</time></trkpt><trkpt lat="35.6138628" lon="139.14471"><ele>205.80999999999997</ele><time>2024-03-01T22:55:32Z</time></trkpt><trkpt lat="35.6138927" lon="139.1444816"><ele>207.87666666666667</ele><time>2024-03-01T22:55:45Z</time></trkpt><trkpt lat="35.6137285" lon="139.1443753"><ele>211.24</ele><time>2024-03-01T22:56:01Z</time></trkpt><trkpt lat="35.6136571" lon="139.1445816"><ele>213.09333333333333</ele><time>2024-03-01T22:56:10Z</time></trkpt><trkpt lat="35.613547" lon="139.1447675"><ele>214.0233333333333</ele><time>2024-03-01T22:56:26Z</time></trkpt><trkpt lat="35.6137056" lon="139.1449101"><ele>212.29333333333332</ele><time>2024-03-01T22:56:33Z</time></trkpt><trkpt lat="35.613703" lon="139.145144"><ele>210.59666666666666</ele><time>2024-03-01T22:56:48Z</time></trkpt><trkpt lat="35.6136596" lon="139.1453619"><ele>209.02666666666667</ele><time>2024-03-01T22:57:02Z</time></trkpt><trkpt lat="35.6136116" lon="139.1455869"><ele>209.8766666666667</ele><time>2024-03-01T22:57:15Z</time></trkpt><trkpt lat="35.6134936" lon="139.1457565"><ele>212.82666666666668</ele><time>2024-03-01T22:57:29Z</time></trkpt><trkpt lat="35.6133696" lon="139.1459313"><ele>216.28666666666666</ele><time>2024-03-01T22:57:41Z</time></trkpt><trkpt lat="35.6132077" lon="139.1460311"><ele>219.76666666666665</ele><time>2024-03-01T22:57:54Z</time></trkpt><trkpt lat="35.613225" lon="139.1462627"><ele>219.49</ele><time>2024-03-01T22:58:04Z</time></trkpt><trkpt lat="35.6131323" lon="139.1464542"><ele>219.36333333333334</ele><time>2024-03-01T22:58:16Z</time></trkpt><trkpt lat="35.6129565" lon="139.1466024"><ele>219.47000000000003</ele><time>2024-03-01T22:58:31Z</time></trkpt><trkpt lat="35.612828" lon="139.1468064"><ele>222.3166666666667</ele><time>2024-03-01T22:58:44Z</time></trkpt><trkpt lat="35.612705" lon="139.146972"><ele>224.35333333333332</ele><time>2024-03-01T22:58:59Z</time></trkpt><trkpt lat="35.6126077" lon="139.147159"><ele>224.76333333333332</ele><time>2024-03-01T22:59:12Z</time></trkpt><trkpt lat="35.6124521" lon="139.1472844"><ele>223.35333333333335</ele><time>2024-03-01T22:59:27Z</time></trkpt><trkpt lat="35.6123227" lon="139.1474549"><ele>220.00333333333333</ele><time>2024-03-01T22:59:39Z</time></trkpt><trkpt lat="35.6121897" lon="139.1476162"><ele>216.08</ele><time>2024-03-01T22:59:53Z</time></trkpt><trkpt lat="35.6121905" lon="139.1478483"><ele>212.99666666666667</ele><time>2024-03-01T23:00:05Z</time></trkpt><trkpt lat="35.6121031" lon="139.1480436"><ele>214.59333333333333</ele><time>2024-03-01T23:00:18Z</time></trkpt><trkpt lat="35.6120143" lon="139.1482426"><ele>218.22</ele><time>2024-03-01T23:00:32Z</time></trkpt><trkpt lat="35.611894" lon="139.1484128"><ele>222.6866666666667</ele><time>2024-03-01T23:00:47Z</time></trkpt><trkpt lat="35.6117311" lon="139.1485393"><ele>224.9466666666667</ele><time>2024-03-01T23:01:00Z</time></trkpt><trkpt lat="35.6115565" lon="139.1486081"><ele>226.5466666666667</ele><time>2024-03-01T23:01:13Z</time></trkpt><trkpt lat="35.6116678" lon="139.1484334"><ele>227.5566666666667</ele><time>2024-03-01T23:01:33Z</time></trkpt><trkpt lat="35.6114969" lon="139.1483565"><ele>228.22000000000003</ele><time>2024-03-01T23:05:22Z</time></trkpt><trkpt lat="35.6113168" lon="139.1484028"><ele>229.81333333333336</ele><time>2024-03-01T23:05:59Z</time></trkpt><trkpt lat="35.6111668" lon="139.1485296"><ele>232.04000000000005</ele><time>2024-03-01T23:06:10Z</time></trkpt><trkpt lat="35.6109875" lon="139.1484776"><ele>234.64333333333335</ele><time>2024-03-01T23:06:38Z</time></trkpt><trkpt lat="35.6109062" lon="139.1482576"><ele>238.86666666666667</ele><time>2024-03-01T23:07:29Z</time></trkpt><trkpt lat="35.6108084" lon="139.1480684"><ele>244.96</ele><time>2024-03-01T23:08:15Z</time></trkpt><trkpt lat="35.6106712" lon="139.1482134"><ele>250.23000000000002</ele><time>2024-03-01T23:08:28Z</time></trkpt><trkpt lat="35.6106458" lon="139.1479947"><ele>254.57333333333335</ele><time>2024-03-01T23:09:49Z</time></trkpt><trkpt lat="35.6104622" lon="139.1479524"><ele>258.22333333333336</ele><time>2024-03-01T23:10:17Z</time></trkpt><trkpt lat="35.6103137" lon="139.1480963"><ele>263.4533333333333</ele><time>2024-03-01T23:11:00Z</time></trkpt><trkpt lat="35.6101818" lon="139.1482579"><ele>267.43666666666667</ele><time>2024-03-01T23:11:15Z</time></trkpt><trkpt lat="35.6100601" lon="139.1484228"><ele>269.75666666666666</ele><time>2024-03-01T23:15:24Z</time></trkpt><trkpt lat="35.6100375" lon="139.1486445"><ele>270.3833333333333</ele><time>2024-03-01T23:15:40Z</time></trkpt><trkpt lat="35.6099535" lon="139.1484447"><ele>270.71666666666664</ele><time>2024-03-01T23:16:24Z</time></trkpt><trkpt lat="35.6098214" lon="139.1482827"><ele>271.09666666666664</ele><time>2024-03-01T23:16:38Z</time></trkpt><trkpt lat="35.6096827" lon="139.1481305"><ele>271.7833333333333</ele><time>2024-03-01T23:16:54Z</time></trkpt><trkpt lat="35.609588" lon="139.1479396"><ele>271.8066666666667</ele><time>2024-03-01T23:17:11Z</time></trkpt><trkpt lat="35.6094426" lon="139.1478079"><ele>272.8566666666666</ele><time>2024-03-01T23:17:49Z</time></trkpt><trkpt lat="35.6093373" lon="139.147613"><ele>275.76</ele><time>2024-03-01T23:18:02Z</time></trkpt><trkpt lat="35.6091855" lon="139.1474931"><ele>280.72</ele><time>2024-03-01T23:18:23Z</time></trkpt><trkpt lat="35.6090046" lon="139.1474722"><ele>285.98</ele><time>2024-03-01T23:18:48Z</time></trkpt><trkpt lat="35.6088255" lon="139.1474092"><ele>289.9166666666667</ele><time>2024-03-01T23:19:10Z</time></trkpt><trkpt lat="35.6086368" lon="139.1473373"><ele>293.5466666666667</ele><time>2024-03-01T23:19:33Z</time></trkpt><trkpt lat="35.6084663" lon="139.1472243"><ele>296.8733333333334</ele><time>2024-03-01T23:19:50Z</time></trkpt><trkpt lat="35.6082899" lon="139.1472783"><ele>300.55</ele><time>2024-03-01T23:20:08Z</time></trkpt><trkpt lat="35.6081635" lon="139.147446"><ele>303.49666666666667</ele><time>2024-03-01T23:20:29Z</time></trkpt><trkpt lat="35.6080117" lon="139.1475958"><ele>306.44</ele><time>2024-03-01T23:20:47Z</time></trkpt><trkpt lat="35.60783" lon="139.1476197"><ele>309.85999999999996</ele><time>2024-03-01T23:21:10Z</time></trkpt><trkpt lat="35.607665" lon="139.1477376"><ele>312.29</ele><time>2024-03-01T23:21:25Z</time></trkpt><trkpt lat="35.6074928" lon="139.147838"><ele>313.37333333333333</ele><time>2024-03-01T23:21:45Z</time></trkpt><trkpt lat="35.60746" lon="139.1476059"><ele>314.23</ele><time>2024-03-01T23:22:01Z</time></trkpt><trkpt lat="35.6076043" lon="139.1474638"><ele>316.78</ele><time>2024-03-01T23:22:15Z</time></trkpt><trkpt lat="35.6077713" lon="139.1473767"><ele>319.5466666666666</ele><time>2024-03-01T23:22:54Z</time></trkpt><trkpt lat="35.6078413" lon="139.1471671"><ele>321.99666666666667</ele><time>2024-03-01T23:23:26Z</time></trkpt><trkpt lat="35.6078397" lon="139.1469398"><ele>324.19666666666666</ele><time>2024-03-01T23:23:41Z</time></trkpt><trkpt lat="35.6078654" lon="139.1467143"><ele>328.23333333333335</ele><time>2024-03-01T23:24:03Z</time></trkpt><trkpt lat="35.6078129" lon="139.1465027"><ele>332.75</ele><time>2024-03-01T23:25:04Z</time></trkpt><trkpt lat="35.6078149" lon="139.1462797"><ele>339.40000000000003</ele><time>2024-03-01T23:25:18Z</time></trkpt><trkpt lat="35.6077907" lon="139.1460554"><ele>345.3</ele><time>2024-03-01T23:25:33Z</time></trkpt><trkpt lat="35.6077158" lon="139.1458408"><ele>350.0033333333334</ele><time>2024-03-01T23:26:07Z</time></trkpt><trkpt lat="35.6076008" lon="139.1456598"><ele>351.58</ele><time>2024-03-01T23:26:33Z</time></trkpt><trkpt lat="35.6074411" lon="139.1455518"><ele>351.8633333333334</ele><time>2024-03-01T23:27:13Z</time></trkpt><trkpt lat="35.6074716" lon="139.145324"><ele>351.93333333333334</ele><time>2024-03-01T23:28:31Z</time></trkpt><trkpt lat="35.6074804" lon="139.1450864"><ele>350.49333333333334</ele><time>2024-03-01T23:28:48Z</time></trkpt><trkpt lat="35.6074056" lon="139.1448796"><ele>347.9266666666667</ele><time>2024-03-01T23:29:16Z</time></trkpt><trkpt lat="35.6073271" lon="139.1446718"><ele>344.42333333333335</ele><time>2024-03-01T23:29:34Z</time></trkpt><trkpt lat="35.6072136" lon="139.1444991"><ele>343.57666666666665</ele><time>2024-03-01T23:29:55Z</time></trkpt><trkpt lat="35.6073579" lon="139.1443492"><ele>343.93</ele><time>2024-03-01T23:30:16Z</time></trkpt><trkpt lat="35.6074272" lon="139.1441303"><ele>346.28000000000003</ele><time>2024-03-01T23:30:36Z</time></trkpt><trkpt lat="35.6073998" lon="139.1439087"><ele>347.31</ele><time>2024-03-01T23:31:02Z</time></trkpt><trkpt lat="35.6074057" lon="139.1436853"><ele>344.07</ele><time>2024-03-01T23:31:41Z</time></trkpt><trkpt lat="35.6073631" lon="139.1434247"><ele>338.3833333333334</ele><time>2024-03-01T23:32:01Z</time></trkpt><trkpt lat="35.6074502" lon="139.1432185"><ele>332.53333333333336</ele><time>2024-03-01T23:32:15Z</time></trkpt><trkpt lat="35.607543" lon="139.1430189"><ele>331.3066666666667</ele><time>2024-03-01T23:32:29Z</time></trkpt><trkpt lat="35.6075675" lon="139.1427886"><ele>331.34</ele><time>2024-03-01T23:32:45Z</time></trkpt><trkpt lat="35.6076229" lon="139.142572"><ele>330.8233333333333</ele><time>2024-03-01T23:32:56Z</time></trkpt><trkpt lat="35.6078038" lon="139.1425994"><ele>329.23333333333335</ele><time>2024-03-01T23:33:15Z</time></trkpt><trkpt lat="35.6079618" lon="139.1427057"><ele>327.6266666666667</ele><time>2024-03-01T23:33:36Z</time></trkpt><trkpt lat="35.6081254" lon="139.1428077"><ele>323.69666666666666</ele><time>2024-03-01T23:33:50Z</time></trkpt><trkpt lat="35.6082593" lon="139.142963"><ele>319.10333333333335</ele><time>2024-03-01T23:34:05Z</time></trkpt><trkpt lat="35.6084457" lon="139.1429904"><ele>314.40000000000003</ele><time>2024-03-01T23:34:19Z</time></trkpt><trkpt lat="35.6086258" lon="139.1429542"><ele>312.07</ele><time>2024-03-01T23:34:51Z</time></trkpt><trkpt lat="35.6087726" lon="139.143091"><ele>311.4266666666667</ele><time>2024-03-01T23:35:04Z</time></trkpt><trkpt lat="35.6089298" lon="139.1432027"><ele>310.21666666666664</ele><time>2024-03-01T23:35:20Z</time></trkpt><trkpt lat="35.609118" lon="139.1432465"><ele>308.85999999999996</ele><time>2024-03-01T23:35:35Z</time></trkpt><trkpt lat="35.6092748" lon="139.1433757"><ele>307.02666666666664</ele><time>2024-03-01T23:35:51Z</time></trkpt><trkpt lat="35.6094473" lon="139.1434887"><ele>305.13</ele><time>2024-03-01T23:36:08Z</time></trkpt><trkpt lat="35.6096146" lon="139.1435709"><ele>304.53</ele><time>2024-03-01T23:36:21Z</time></trkpt><trkpt lat="35.6097468" lon="139.143727"><ele>303.65333333333336</ele><time>2024-03-01T23:36:36Z</time></trkpt><trkpt lat="35.6098885" lon="139.1438894"><ele>303.08</ele><time>2024-03-01T23:36:53Z</time></trkpt><trkpt lat="35.6099161" lon="139.1441155"><ele>302.2266666666667</ele><time>2024-03-01T23:37:10Z</time></trkpt><trkpt lat="35.6100674" lon="139.1442571"><ele>301.6166666666667</ele><time>2024-03-01T23:37:27Z</time></trkpt><trkpt lat="35.6099098" lon="139.144123"><ele>301.71333333333337</ele><time>2024-03-01T23:38:15Z</time></trkpt><trkpt lat="35.6097974" lon="139.1439435"><ele>301.98333333333335</ele><time>2024-03-01T23:38:28Z</time></trkpt><trkpt lat="35.6098008" lon="139.1437182"><ele>302.1366666666667</ele><time>2024-03-01T23:39:01Z</time></trkpt><trkpt lat="35.6096157" lon="139.1436704"><ele>302.56333333333333</ele><time>2024-03-01T23:39:13Z</time></trkpt><trkpt lat="35.6094763" lon="139.1435259"><ele>302.77000000000004</ele><time>2024-03-01T23:39:29Z</time></trkpt><trkpt lat="35.6092958" lon="139.1434663"><ele>303.6033333333333</ele><time>2024-03-01T23:39:47Z</time></trkpt><trkpt lat="35.6091363" lon="139.1433303"><ele>304.26</ele><time>2024-03-01T23:40:01Z</time></trkpt><trkpt lat="35.6089731" lon="139.1432286"><ele>305.45</ele><time>2024-03-01T23:40:16Z</time></trkpt><trkpt lat="35.6087856" lon="139.1432035"><ele>307.54</ele><time>2024-03-01T23:40:35Z</time></trkpt><trkpt lat="35.6086337" lon="139.1430545"><ele>309.8633333333334</ele><time>2024-03-01T23:40:51Z</time></trkpt><trkpt lat="35.6084554" lon="139.1429949"><ele>311.78000000000003</ele><time>2024-03-01T23:41:03Z</time></trkpt><trkpt lat="35.6083129" lon="139.1428582"><ele>312.42</ele><time>2024-03-01T23:41:34Z</time></trkpt><trkpt lat="35.6082008" lon="139.142685"><ele>311.18666666666667</ele><time>2024-03-01T23:41:49Z</time></trkpt><trkpt lat="35.6081568" lon="139.1424704"><ele>309.82666666666665</ele><time>2024-03-01T23:42:04Z</time></trkpt><trkpt lat="35.6082752" lon="139.1422874"><ele>306.04333333333335</ele><time>2024-03-01T23:42:18Z</time></trkpt><trkpt lat="35.6083598" lon="139.1420665"><ele>305.1566666666667</ele><time>2024-03-01T23:42:34Z</time></trkpt><trkpt lat="35.6084408" lon="139.1418664"><ele>305.97</ele><time>2024-03-01T23:42:44Z</time></trkpt><trkpt lat="35.6085671" lon="139.1417064"><ele>310.18333333333334</ele><time>2024-03-01T23:43:44Z</time></trkpt><trkpt lat="35.6086547" lon="139.141498"><ele>314.7033333333333</ele><time>2024-03-01T23:44:12Z</time></trkpt><trkpt lat="35.6087784" lon="139.1413275"><ele>317.43666666666667</ele><time>2024-03-01T23:44:54Z</time></trkpt><trkpt lat="35.6086837" lon="139.1415179"><ele>318.23</ele><time>2024-03-01T23:46:19Z</time></trkpt><trkpt lat="35.6086632" lon="139.14174"><ele>315.9633333333333</ele><time>2024-03-01T23:46:35Z</time></trkpt><trkpt lat="35.6085243" lon="139.1418876"><ele>313.3533333333333</ele><time>2024-03-01T23:46:55Z</time></trkpt><trkpt lat="35.608546" lon="139.1416608"><ele>312.9533333333333</ele><time>2024-03-01T23:47:15Z</time></trkpt><trkpt lat="35.608491" lon="139.1414424"><ele>313.56</ele><time>2024-03-01T23:47:26Z</time></trkpt><trkpt lat="35.6084171" lon="139.1412373"><ele>313.75333333333333</ele><time>2024-03-01T23:47:43Z</time></trkpt><trkpt lat="35.6085564" lon="139.1410844"><ele>313.46999999999997</ele><time>2024-03-01T23:47:58Z</time></trkpt><trkpt lat="35.6087419" lon="139.1410685"><ele>312.09</ele><time>2024-03-01T23:48:11Z</time></trkpt><trkpt lat="35.6089047" lon="139.1409671"><ele>311.69666666666666</ele><time>2024-03-01T23:48:33Z</time></trkpt><trkpt lat="35.6090624" lon="139.1408318"><ele>309.7933333333333</ele><time>2024-03-01T23:48:49Z</time></trkpt><trkpt lat="35.6091119" lon="139.1406037"><ele>307.65000000000003</ele><time>2024-03-01T23:49:01Z</time></trkpt><trkpt lat="35.6092163" lon="139.140413"><ele>305.20666666666665</ele><time>2024-03-01T23:49:16Z</time></trkpt><trkpt lat="35.6093841" lon="139.140294"><ele>303.2133333333333</ele><time>2024-03-01T23:49:29Z</time></trkpt><trkpt lat="35.609462" lon="139.1400756"><ele>302.52666666666664</ele><time>2024-03-01T23:49:44Z</time></trkpt><trkpt lat="35.6094094" lon="139.1398491"><ele>302.5933333333333</ele><time>2024-03-01T23:50:02Z</time></trkpt><trkpt lat="35.6094807" lon="139.1396335"><ele>302.6566666666667</ele><time>2024-03-01T23:50:17Z</time></trkpt><trkpt lat="35.6096442" lon="139.1395351"><ele>301.28000000000003</ele><time>2024-03-01T23:50:30Z</time></trkpt><trkpt lat="35.6096654" lon="139.1393091"><ele>300.50666666666666</ele><time>2024-03-01T23:50:46Z</time></trkpt><trkpt lat="35.6097397" lon="139.1390811"><ele>302.99666666666667</ele><time>2024-03-01T23:51:29Z</time></trkpt><trkpt lat="35.6099294" lon="139.13895"><ele>307.66333333333336</ele><time>2024-03-01T23:51:50Z</time></trkpt><trkpt lat="35.6100787" lon="139.1388237"><ele>311.5133333333333</ele><time>2024-03-01T23:52:10Z</time></trkpt><trkpt lat="35.6100452" lon="139.1386046"><ele>312.6033333333333</ele><time>2024-03-01T23:53:21Z</time></trkpt><trkpt lat="35.6101011" lon="139.1383878"><ele>312.35</ele><time>2024-03-01T23:53:55Z</time></trkpt><trkpt lat="35.6101771" lon="139.1381874"><ele>312.54333333333335</ele><time>2024-03-01T23:54:11Z</time></trkpt><trkpt lat="35.6103222" lon="139.1380483"><ele>315.6933333333333</ele><time>2024-03-01T23:54:27Z</time></trkpt><trkpt lat="35.6102111" lon="139.1378687"><ele>321.2366666666667</ele><time>2024-03-01T23:55:21Z</time></trkpt><trkpt lat="35.6100306" lon="139.1378591"><ele>328.27000000000004</ele><time>2024-03-01T23:55:38Z</time></trkpt><trkpt lat="35.6101674" lon="139.1380134"><ele>329.4666666666667</ele><time>2024-03-01T23:56:33Z</time></trkpt><trkpt lat="35.6103488" lon="139.1380561"><ele>327.6333333333334</ele><time>2024-03-01T23:56:51Z</time></trkpt><trkpt lat="35.6105111" lon="139.1379545"><ele>322.34666666666664</ele><time>2024-03-01T23:57:07Z</time></trkpt><trkpt lat="35.6106971" lon="139.1379309"><ele>318.92333333333335</ele><time>2024-03-01T23:57:26Z</time></trkpt><trkpt lat="35.6108862" lon="139.1379028"><ele>316.3633333333333</ele><time>2024-03-01T23:57:41Z</time></trkpt><trkpt lat="35.6110272" lon="139.1380547"><ele>314.43</ele><time>2024-03-01T23:58:13Z</time></trkpt><trkpt lat="35.6110187" lon="139.138276"><ele>312.57</ele><time>2024-03-01T23:58:40Z</time></trkpt><trkpt lat="35.6112381" lon="139.138292"><ele>310.58666666666664</ele><time>2024-03-01T23:58:45Z</time></trkpt><trkpt lat="35.6111056" lon="139.1381168"><ele>310.1266666666666</ele><time>2024-03-01T23:59:52Z</time></trkpt><trkpt lat="35.6109766" lon="139.1379589"><ele>310.56333333333333</ele><time>2024-03-02T00:00:11Z</time></trkpt><trkpt lat="35.6109079" lon="139.1377542"><ele>310.4733333333333</ele><time>2024-03-02T00:00:45Z</time></trkpt><trkpt lat="35.6110985" lon="139.1377099"><ele>306.27333333333337</ele><time>2024-03-02T00:01:03Z</time></trkpt><trkpt lat="35.6109958" lon="139.1375247"><ele>299.99333333333334</ele><time>2024-03-02T00:01:19Z</time></trkpt><trkpt lat="35.6111427" lon="139.1373684"><ele>292.06</ele><time>2024-03-02T00:02:06Z</time></trkpt><trkpt lat="35.611069" lon="139.1371608"><ele>285.05</ele><time>2024-03-02T00:02:22Z</time></trkpt><trkpt lat="35.6109325" lon="139.1373077"><ele>282.05333333333334</ele><time>2024-03-02T00:02:49Z</time></trkpt><trkpt lat="35.6107522" lon="139.1372989"><ele>283.6666666666667</ele><time>2024-03-02T00:03:06Z</time></trkpt><trkpt lat="35.6106047" lon="139.1371586"><ele>286.8933333333333</ele><time>2024-03-02T00:03:20Z</time></trkpt><trkpt lat="35.6105535" lon="139.1369427"><ele>288.0466666666667</ele><time>2024-03-02T00:03:31Z</time></trkpt><trkpt lat="35.6106869" lon="139.136763"><ele>287.17</ele><time>2024-03-02T00:03:42Z</time></trkpt><trkpt lat="35.6106573" lon="139.1365392"><ele>287.90000000000003</ele><time>2024-03-02T00:03:59Z</time></trkpt><trkpt lat="35.6104749" lon="139.1365089"><ele>290.07666666666665</ele><time>2024-03-02T00:04:10Z</time></trkpt><trkpt lat="35.6103159" lon="139.1366211"><ele>293.92333333333335</ele><time>2024-03-02T00:04:49Z</time></trkpt><trkpt lat="35.6101565" lon="139.1367364"><ele>297.2766666666667</ele><time>2024-03-02T00:05:07Z</time></trkpt><trkpt lat="35.609974" lon="139.1366904"><ele>297.54</ele><time>2024-03-02T00:05:15Z</time></trkpt><trkpt lat="35.6097876" lon="139.1367562"><ele>296.21</ele><time>2024-03-02T00:05:24Z</time></trkpt><trkpt lat="35.6096522" lon="139.1369133"><ele>295.22333333333336</ele><time>2024-03-02T00:05:40Z</time></trkpt><trkpt lat="35.609578" lon="139.1371146"><ele>293.84999999999997</ele><time>2024-03-02T00:05:51Z</time></trkpt><trkpt lat="35.6094253" lon="139.1372375"><ele>289.3</ele><time>2024-03-02T00:06:03Z</time></trkpt><trkpt lat="35.6092412" lon="139.1372696"><ele>282.6166666666667</ele><time>2024-03-02T00:06:16Z</time></trkpt><trkpt lat="35.6090754" lon="139.1373602"><ele>277.92</ele><time>2024-03-02T00:06:31Z</time></trkpt><trkpt lat="35.6088922" lon="139.1374049"><ele>276.92</ele><time>2024-03-02T00:06:59Z</time></trkpt><trkpt lat="35.6087136" lon="139.137463"><ele>275.1933333333334</ele><time>2024-03-02T00:07:13Z</time></trkpt><trkpt lat="35.6085223" lon="139.1374286"><ele>271.28333333333336</ele><time>2024-03-02T00:07:43Z</time></trkpt><trkpt lat="35.6083441" lon="139.1373524"><ele>266.37000000000006</ele><time>2024-03-02T00:07:56Z</time></trkpt><trkpt lat="35.6081817" lon="139.1372447"><ele>263.4166666666667</ele><time>2024-03-02T00:08:10Z</time></trkpt><trkpt lat="35.6080159" lon="139.1371542"><ele>262.70666666666665</ele><time>2024-03-02T00:08:24Z</time></trkpt><trkpt lat="35.6078299" lon="139.1371519"><ele>262.90333333333336</ele><time>2024-03-02T00:08:37Z</time></trkpt><trkpt lat="35.6076487" lon="139.1371465"><ele>263.91333333333336</ele><time>2024-03-02T00:08:49Z</time></trkpt><trkpt lat="35.6074666" lon="139.1370822"><ele>266.3233333333333</ele><time>2024-03-02T00:09:02Z</time></trkpt><trkpt lat="35.6073501" lon="139.1369117"><ele>268.5933333333333</ele><time>2024-03-02T00:09:14Z</time></trkpt><trkpt lat="35.6072467" lon="139.1367226"><ele>270.02000000000004</ele><time>2024-03-02T00:09:26Z</time></trkpt><trkpt lat="35.6072118" lon="139.1365035"><ele>269.6933333333333</ele><time>2024-03-02T00:09:59Z</time></trkpt><trkpt lat="35.6070911" lon="139.1363175"><ele>269.59</ele><time>2024-03-02T00:10:12Z</time></trkpt><trkpt lat="35.6069762" lon="139.1361316"><ele>269.8966666666667</ele><time>2024-03-02T00:10:26Z</time></trkpt><trkpt lat="35.6068219" lon="139.1359983"><ele>270.84999999999997</ele><time>2024-03-02T00:10:38Z</time></trkpt><trkpt lat="35.6067355" lon="139.1357835"><ele>271.49666666666667</ele><time>2024-03-02T00:10:50Z</time></trkpt><trkpt lat="35.6066145" lon="139.135588"><ele>271.6366666666667</ele><time>2024-03-02T00:12:11Z</time></trkpt><trkpt lat="35.606771" lon="139.135712"><ele>271.3833333333334</ele><time>2024-03-02T00:12:38Z</time></trkpt><trkpt lat="35.6066236" lon="139.1355608"><ele>270.83666666666664</ele><time>2024-03-02T00:14:03Z</time></trkpt><trkpt lat="35.606429" lon="139.1354959"><ele>271.1333333333333</ele><time>2024-03-02T00:14:16Z</time></trkpt><trkpt lat="35.6064223" lon="139.1352739"><ele>269.77000000000004</ele><time>2024-03-02T00:14:21Z</time></trkpt><trkpt lat="35.6062451" lon="139.1353501"><ele>270.65000000000003</ele><time>2024-03-02T00:14:34Z</time></trkpt><trkpt lat="35.6060761" lon="139.1352603"><ele>270.8766666666666</ele><time>2024-03-02T00:15:16Z</time></trkpt><trkpt lat="35.6059138" lon="139.1351388"><ele>273.43333333333334</ele><time>2024-03-02T00:15:28Z</time></trkpt><trkpt lat="35.6057554" lon="139.1350065"><ele>274.24333333333334</ele><time>2024-03-02T00:15:44Z</time></trkpt><trkpt lat="35.605588" lon="139.1349083"><ele>274.8966666666667</ele><time>2024-03-02T00:15:55Z</time></trkpt><trkpt lat="35.605408" lon="139.134882"><ele>275.1166666666667</ele><time>2024-03-02T00:16:06Z</time></trkpt><trkpt lat="35.6052364" lon="139.1347995"><ele>275.19</ele><time>2024-03-02T00:16:19Z</time></trkpt><trkpt lat="35.6050569" lon="139.1347571"><ele>275.4166666666667</ele><time>2024-03-02T00:16:40Z</time></trkpt><trkpt lat="35.604903" lon="139.1346107"><ele>274.96999999999997</ele><time>2024-03-02T00:16:57Z</time></trkpt><trkpt lat="35.6047418" lon="139.1347141"><ele>275.75</ele><time>2024-03-02T00:17:05Z</time></trkpt><trkpt lat="35.6045706" lon="139.1346305"><ele>276.64666666666665</ele><time>2024-03-02T00:17:19Z</time></trkpt><trkpt lat="35.6043832" lon="139.13454"><ele>278.1266666666666</ele><time>2024-03-02T00:18:21Z</time></trkpt><trkpt lat="35.6041885" lon="139.1344159"><ele>278.38000000000005</ele><time>2024-03-02T00:18:33Z</time></trkpt><trkpt lat="35.6040121" lon="139.134353"><ele>278.56</ele><time>2024-03-02T00:18:44Z</time></trkpt><trkpt lat="35.603817" lon="139.1343131"><ele>278.0733333333333</ele><time>2024-03-02T00:19:01Z</time></trkpt><trkpt lat="35.6036565" lon="139.134205"><ele>278.13</ele><time>2024-03-02T00:19:11Z</time></trkpt><trkpt lat="35.6035182" lon="139.1340562"><ele>278.18333333333334</ele><time>2024-03-02T00:19:39Z</time></trkpt><trkpt lat="35.6034101" lon="139.1338497"><ele>280.17333333333335</ele><time>2024-03-02T00:20:03Z</time></trkpt><trkpt lat="35.6032964" lon="139.1340285"><ele>280.31666666666666</ele><time>2024-03-02T00:20:13Z</time></trkpt><trkpt lat="35.6031462" lon="139.1341699"><ele>279.18333333333334</ele><time>2024-03-02T00:20:22Z</time></trkpt><trkpt lat="35.6029612" lon="139.134172"><ele>277.41</ele><time>2024-03-02T00:20:36Z</time></trkpt><trkpt lat="35.6028111" lon="139.134047"><ele>278.5133333333334</ele><time>2024-03-02T00:20:50Z</time></trkpt><trkpt lat="35.6026677" lon="139.1338911"><ele>281.81333333333333</ele><time>2024-03-02T00:21:03Z</time></trkpt><trkpt lat="35.6025672" lon="139.1336899"><ele>285.3</ele><time>2024-03-02T00:21:15Z</time></trkpt><trkpt lat="35.6024404" lon="139.1335313"><ele>286.77666666666664</ele><time>2024-03-02T00:21:27Z</time></trkpt><trkpt lat="35.6022672" lon="139.1334131"><ele>287.94666666666666</ele><time>2024-03-02T00:21:39Z</time></trkpt><trkpt lat="35.6021834" lon="139.1331948"><ele>289.0233333333333</ele><time>2024-03-02T00:21:55Z</time></trkpt><trkpt lat="35.6021505" lon="139.1329758"><ele>290.92333333333335</ele><time>2024-03-02T00:22:12Z</time></trkpt><trkpt lat="35.6019506" lon="139.1329879"><ele>292.58666666666664</ele><time>2024-03-02T00:22:20Z</time></trkpt><trkpt lat="35.6017856" lon="139.1328825"><ele>294.1066666666666</ele><time>2024-03-02T00:22:30Z</time></trkpt><trkpt lat="35.6015977" lon="139.132813"><ele>295.93666666666667</ele><time>2024-03-02T00:23:01Z</time></trkpt><trkpt lat="35.6014053" lon="139.1327902"><ele>297.7866666666667</ele><time>2024-03-02T00:23:14Z</time></trkpt><trkpt lat="35.6012591" lon="139.1326504"><ele>301.19666666666666</ele><time>2024-03-02T00:23:33Z</time></trkpt><trkpt lat="35.6011212" lon="139.1327958"><ele>304.32666666666665</ele><time>2024-03-02T00:24:14Z</time></trkpt><trkpt lat="35.6012119" lon="139.1330086"><ele>304.07666666666665</ele><time>2024-03-02T00:24:23Z</time></trkpt><trkpt lat="35.6011191" lon="139.1328048"><ele>304.5366666666667</ele><time>2024-03-02T00:24:36Z</time></trkpt><trkpt lat="35.6009798" lon="139.1326615"><ele>307.6366666666667</ele><time>2024-03-02T00:24:51Z</time></trkpt><trkpt lat="35.6007979" lon="139.1326015"><ele>315.7633333333333</ele><time>2024-03-02T00:25:19Z</time></trkpt><trkpt lat="35.6006547" lon="139.132467"><ele>323.7666666666667</ele><time>2024-03-02T00:26:01Z</time></trkpt><trkpt lat="35.6004987" lon="139.132353"><ele>332.05</ele><time>2024-03-02T00:27:05Z</time></trkpt><trkpt lat="35.6004524" lon="139.1321273"><ele>339.79333333333335</ele><time>2024-03-02T00:27:29Z</time></trkpt><trkpt lat="35.6004696" lon="139.131894"><ele>346.53999999999996</ele><time>2024-03-02T00:28:12Z</time></trkpt><trkpt lat="35.6004876" lon="139.1316739"><ele>352.09</ele><time>2024-03-02T00:28:38Z</time></trkpt><trkpt lat="35.600333" lon="139.1315129"><ele>358.06333333333333</ele><time>2024-03-02T00:29:52Z</time></trkpt><trkpt lat="35.6001419" lon="139.131464"><ele>364.69000000000005</ele><time>2024-03-02T00:30:31Z</time></trkpt><trkpt lat="35.5999577" lon="139.1314699"><ele>370.2966666666667</ele><time>2024-03-02T00:31:25Z</time></trkpt><trkpt lat="35.5997652" lon="139.1314237"><ele>375.41333333333336</ele><time>2024-03-02T00:31:53Z</time></trkpt><trkpt lat="35.5995763" lon="139.1314245"><ele>380.91</ele><time>2024-03-02T00:32:11Z</time></trkpt><trkpt lat="35.5994019" lon="139.1313641"><ele>385.7833333333333</ele><time>2024-03-02T00:32:42Z</time></trkpt><trkpt lat="35.5992313" lon="139.1312868"><ele>390.3866666666667</ele><time>2024-03-02T00:33:10Z</time></trkpt><trkpt lat="35.5990455" lon="139.131237"><ele>395.01000000000005</ele><time>2024-03-02T00:33:29Z</time></trkpt><trkpt lat="35.5988822" lon="139.1311355"><ele>401.35666666666674</ele><time>2024-03-02T00:34:15Z</time></trkpt><trkpt lat="35.5987395" lon="139.1309989"><ele>407.9666666666667</ele><time>2024-03-02T00:35:00Z</time></trkpt><trkpt lat="35.5986197" lon="139.1308275"><ele>413.07</ele><time>2024-03-02T00:35:53Z</time></trkpt><trkpt lat="35.5984555" lon="139.1307279"><ele>418.6566666666667</ele><time>2024-03-02T00:36:18Z</time></trkpt><trkpt lat="35.5982641" lon="139.1306711"><ele>428.57666666666665</ele><time>2024-03-02T00:37:27Z</time></trkpt><trkpt lat="35.59812" lon="139.1305353"><ele>440.34666666666664</ele><time>2024-03-02T00:38:35Z</time></trkpt><trkpt lat="35.5980364" lon="139.1303261"><ele>449.5166666666667</ele><time>2024-03-02T00:38:51Z</time></trkpt><trkpt lat="35.5979783" lon="139.13054"><ele>451.25666666666666</ele><time>2024-03-02T00:40:00Z</time></trkpt><trkpt lat="35.5979137" lon="139.1307581"><ele>448.77</ele><time>2024-03-02T00:40:29Z</time></trkpt><trkpt lat="35.5978064" lon="139.1309472"><ele>446.6766666666667</ele><time>2024-03-02T00:41:02Z</time></trkpt><trkpt lat="35.5977219" lon="139.1311444"><ele>444.47666666666663</ele><time>2024-03-02T00:41:18Z</time></trkpt><trkpt lat="35.5976775" lon="139.1313613"><ele>441.99333333333334</ele><time>2024-03-02T00:41:37Z</time></trkpt><trkpt lat="35.5977446" lon="139.131576"><ele>442.59999999999997</ele><time>2024-03-02T00:42:55Z</time></trkpt><trkpt lat="35.5977411" lon="139.1318026"><ele>444.49333333333334</ele><time>2024-03-02T00:43:10Z</time></trkpt><trkpt lat="35.597616" lon="139.1319678"><ele>444.59</ele><time>2024-03-02T00:43:20Z</time></trkpt><trkpt lat="35.5974931" lon="139.1321355"><ele>438.95666666666665</ele><time>2024-03-02T00:44:08Z</time></trkpt><trkpt lat="35.5973904" lon="139.132323"><ele>433.2666666666667</ele><time>2024-03-02T00:44:23Z</time></trkpt><trkpt lat="35.5975785" lon="139.1323678"><ele>431.3</ele><time>2024-03-02T00:44:57Z</time></trkpt><trkpt lat="35.5975519" lon="139.1325911"><ele>430.0</ele><time>2024-03-02T00:45:12Z</time></trkpt><trkpt lat="35.5975964" lon="139.1328068"><ele>426.1866666666667</ele><time>2024-03-02T00:45:42Z</time></trkpt><trkpt lat="35.5976979" lon="139.1329945"><ele>420.01666666666665</ele><time>2024-03-02T00:46:02Z</time></trkpt><trkpt lat="35.5976709" lon="139.1332278"><ele>412.75333333333333</ele><time>2024-03-02T00:46:22Z</time></trkpt><trkpt lat="35.5978042" lon="139.1334166"><ele>409.1133333333333</ele><time>2024-03-02T00:46:56Z</time></trkpt><trkpt lat="35.5978377" lon="139.1336372"><ele>406.90333333333336</ele><time>2024-03-02T00:47:08Z</time></trkpt><trkpt lat="35.5977935" lon="139.133857"><ele>408.0</ele><time>2024-03-02T00:47:24Z</time></trkpt><trkpt lat="35.5977535" lon="139.1340752"><ele>407.10666666666674</ele><time>2024-03-02T00:47:43Z</time></trkpt><trkpt lat="35.5976562" lon="139.1342671"><ele>405.25333333333333</ele><time>2024-03-02T00:47:58Z</time></trkpt><trkpt lat="35.5975772" lon="139.1344729"><ele>401.49666666666667</ele><time>2024-03-02T00:48:14Z</time></trkpt><trkpt lat="35.597491" lon="139.1346941"><ele>399.1033333333333</ele><time>2024-03-02T00:48:29Z</time></trkpt><trkpt lat="35.5973746" lon="139.134872"><ele>397.8566666666666</ele><time>2024-03-02T00:49:36Z</time></trkpt><trkpt lat="35.5973269" lon="139.1350906"><ele>395.8633333333334</ele><time>2024-03-02T00:49:55Z</time></trkpt><trkpt lat="35.5972701" lon="139.1353101"><ele>390.31666666666666</ele><time>2024-03-02T00:51:18Z</time></trkpt><trkpt lat="35.5972005" lon="139.135518"><ele>380.82</ele><time>2024-03-02T00:51:31Z</time></trkpt><trkpt lat="35.5972927" lon="139.1357151"><ele>375.20666666666665</ele><time>2024-03-02T00:51:44Z</time></trkpt><trkpt lat="35.5972776" lon="139.1359373"><ele>372.48</ele><time>2024-03-02T00:52:04Z</time></trkpt><trkpt lat="35.5973581" lon="139.1361509"><ele>373.92666666666673</ele><time>2024-03-02T00:52:22Z</time></trkpt><trkpt lat="35.5975247" lon="139.1362563"><ele>371.8433333333333</ele><time>2024-03-02T00:52:52Z</time></trkpt><trkpt lat="35.5975612" lon="139.1364784"><ele>367.94000000000005</ele><time>2024-03-02T00:53:12Z</time></trkpt><trkpt lat="35.5977478" lon="139.1365022"><ele>361.45000000000005</ele><time>2024-03-02T00:53:39Z</time></trkpt><trkpt lat="35.5979025" lon="139.136644"><ele>356.8833333333334</ele><time>2024-03-02T00:53:58Z</time></trkpt><trkpt lat="35.5978817" lon="139.136872"><ele>355.66</ele><time>2024-03-02T00:54:22Z</time></trkpt><trkpt lat="35.5979124" lon="139.1370997"><ele>356.6066666666666</ele><time>2024-03-02T00:54:35Z</time></trkpt><trkpt lat="35.5978424" lon="139.1373123"><ele>356.3</ele><time>2024-03-02T00:54:52Z</time></trkpt><trkpt lat="35.5977368" lon="139.1375091"><ele>354.84666666666664</ele><time>2024-03-02T00:55:08Z</time></trkpt><trkpt lat="35.5975758" lon="139.1376572"><ele>351.43</ele><time>2024-03-02T00:55:43Z</time></trkpt><trkpt lat="35.5974301" lon="139.1377878"><ele>347.16</ele><time>2024-03-02T00:55:56Z</time></trkpt><trkpt lat="35.5973163" lon="139.1379609"><ele>342.45</ele><time>2024-03-02T00:56:28Z</time></trkpt><trkpt lat="35.5973672" lon="139.1381736"><ele>339.42</ele><time>2024-03-02T00:56:45Z</time></trkpt><trkpt lat="35.5975167" lon="139.1382989"><ele>337.6933333333334</ele><time>2024-03-02T00:56:54Z</time></trkpt><trkpt lat="35.5973855" lon="139.1381423"><ele>338.6033333333333</ele><time>2024-03-02T00:56:56Z</time></trkpt><trkpt lat="35.5972036" lon="139.1382222"><ele>334.92333333333335</ele><time>2024-03-02T00:57:11Z</time></trkpt><trkpt lat="35.597326" lon="139.1383953"><ele>332.7966666666666</ele><time>2024-03-02T00:58:44Z</time></trkpt><trkpt lat="35.5975235" lon="139.1384294"><ele>328.1266666666667</ele><time>2024-03-02T00:59:04Z</time></trkpt><trkpt lat="35.5977204" lon="139.1384724"><ele>326.23333333333335</ele><time>2024-03-02T00:59:28Z</time></trkpt><trkpt lat="35.5979348" lon="139.1384019"><ele>322.3533333333333</ele><time>2024-03-02T00:59:35Z</time></trkpt><trkpt lat="35.597971" lon="139.1386333"><ele>318.5833333333333</ele><time>2024-03-02T01:00:36Z</time></trkpt><trkpt lat="35.598249" lon="139.1385123"><ele>315.42333333333335</ele><time>2024-03-02T01:00:46Z</time></trkpt><trkpt lat="35.5984352" lon="139.1385355"><ele>312.52</ele><time>2024-03-02T01:00:55Z</time></trkpt><trkpt lat="35.598599" lon="139.1386667"><ele>310.4166666666667</ele><time>2024-03-02T01:01:06Z</time></trkpt><trkpt lat="35.5987608" lon="139.1387904"><ele>310.72666666666663</ele><time>2024-03-02T01:01:15Z</time></trkpt><trkpt lat="35.5989295" lon="139.1388687"><ele>309.62000000000006</ele><time>2024-03-02T01:01:27Z</time></trkpt><trkpt lat="35.5990985" lon="139.1389813"><ele>307.5933333333333</ele><time>2024-03-02T01:01:41Z</time></trkpt><trkpt lat="35.5992722" lon="139.1390696"><ele>303.33333333333337</ele><time>2024-03-02T01:01:54Z</time></trkpt><trkpt lat="35.5993073" lon="139.1392902"><ele>304.5933333333333</ele><time>2024-03-02T01:02:11Z</time></trkpt><trkpt lat="35.5991997" lon="139.139474"><ele>308.0733333333333</ele><time>2024-03-02T01:02:22Z</time></trkpt><trkpt lat="35.5991618" lon="139.1397011"><ele>312.94</ele><time>2024-03-02T01:02:33Z</time></trkpt><trkpt lat="35.5993143" lon="139.1395635"><ele>313.2966666666667</ele><time>2024-03-02T01:03:21Z</time></trkpt><trkpt lat="35.5994391" lon="139.1393788"><ele>308.49333333333334</ele><time>2024-03-02T01:03:31Z</time></trkpt><trkpt lat="35.5994757" lon="139.1391622"><ele>302.1066666666666</ele><time>2024-03-02T01:03:50Z</time></trkpt><trkpt lat="35.599487" lon="139.138919"><ele>296.15</ele><time>2024-03-02T01:04:04Z</time></trkpt><trkpt lat="35.5993491" lon="139.1387362"><ele>293.95000000000005</ele><time>2024-03-02T01:04:10Z</time></trkpt><trkpt lat="35.5993842" lon="139.1383463"><ele>294.2333333333333</ele><time>2024-03-02T01:04:23Z</time></trkpt><trkpt lat="35.5994635" lon="139.1381055"><ele>294.8666666666666</ele><time>2024-03-02T01:04:52Z</time></trkpt><trkpt lat="35.5995317" lon="139.1378507"><ele>295.70000000000005</ele><time>2024-03-02T01:05:10Z</time></trkpt><trkpt lat="35.5995829" lon="139.1376377"><ele>296.4266666666667</ele><time>2024-03-02T01:05:25Z</time></trkpt><trkpt lat="35.5998169" lon="139.13771"><ele>294.19666666666666</ele><time>2024-03-02T01:05:34Z</time></trkpt><trkpt lat="35.5999913" lon="139.1376247"><ele>290.8866666666667</ele><time>2024-03-02T01:05:52Z</time></trkpt><trkpt lat="35.6001738" lon="139.137506"><ele>286.24</ele><time>2024-03-02T01:06:04Z</time></trkpt><trkpt lat="35.6003546" lon="139.1374174"><ele>284.25</ele><time>2024-03-02T01:06:18Z</time></trkpt><trkpt lat="35.6004769" lon="139.137252"><ele>282.34999999999997</ele><time>2024-03-02T01:06:30Z</time></trkpt><trkpt lat="35.6005748" lon="139.1370567"><ele>281.28333333333336</ele><time>2024-03-02T01:06:45Z</time></trkpt><trkpt lat="35.6006955" lon="139.1368697"><ele>280.43</ele><time>2024-03-02T01:06:59Z</time></trkpt><trkpt lat="35.6007882" lon="139.1366798"><ele>279.49</ele><time>2024-03-02T01:07:11Z</time></trkpt><trkpt lat="35.6008872" lon="139.136488"><ele>278.3633333333333</ele><time>2024-03-02T01:07:28Z</time></trkpt><trkpt lat="35.6009761" lon="139.1362796"><ele>277.48333333333335</ele><time>2024-03-02T01:08:01Z</time></trkpt><trkpt lat="35.6009733" lon="139.1360404"><ele>278.38000000000005</ele><time>2024-03-02T01:08:09Z</time></trkpt><trkpt lat="35.601111" lon="139.135871"><ele>279.1266666666667</ele><time>2024-03-02T01:08:21Z</time></trkpt><trkpt lat="35.6012721" lon="139.1357511"><ele>279.39000000000004</ele><time>2024-03-02T01:08:36Z</time></trkpt><trkpt lat="35.6014275" lon="139.1358726"><ele>276.9866666666667</ele><time>2024-03-02T01:08:54Z</time></trkpt><trkpt lat="35.6015623" lon="139.1360395"><ele>273.99333333333334</ele><time>2024-03-02T01:09:09Z</time></trkpt><trkpt lat="35.6016193" lon="139.1362636"><ele>270.63</ele><time>2024-03-02T01:09:27Z</time></trkpt><trkpt lat="35.6016846" lon="139.1364793"><ele>267.48333333333335</ele><time>2024-03-02T01:09:39Z</time></trkpt><trkpt lat="35.6018587" lon="139.1366124"><ele>264.98</ele><time>2024-03-02T01:09:59Z</time></trkpt><trkpt lat="35.6019838" lon="139.1367983"><ele>264.27666666666664</ele><time>2024-03-02T01:10:11Z</time></trkpt><trkpt lat="35.601917" lon="139.1370162"><ele>264.65</ele><time>2024-03-02T01:10:24Z</time></trkpt><trkpt lat="35.6018615" lon="139.1372373"><ele>265.1466666666667</ele><time>2024-03-02T01:10:38Z</time></trkpt><trkpt lat="35.6019089" lon="139.1374528"><ele>265.3333333333333</ele><time>2024-03-02T01:10:50Z</time></trkpt><trkpt lat="35.601933" lon="139.1376753"><ele>265.47333333333336</ele><time>2024-03-02T01:11:02Z</time></trkpt><trkpt lat="35.6019165" lon="139.1379129"><ele>264.58666666666664</ele><time>2024-03-02T01:11:18Z</time></trkpt><trkpt lat="35.6020627" lon="139.13805"><ele>262.39000000000004</ele><time>2024-03-02T01:11:28Z</time></trkpt><trkpt lat="35.6021379" lon="139.1382649"><ele>259.71</ele><time>2024-03-02T01:11:40Z</time></trkpt><trkpt lat="35.6021892" lon="139.1384766"><ele>258.1933333333333</ele><time>2024-03-02T01:11:50Z</time></trkpt><trkpt lat="35.602372" lon="139.1385524"><ele>257.7233333333333</ele><time>2024-03-02T01:12:03Z</time></trkpt><trkpt lat="35.602492" lon="139.1387271"><ele>258.09666666666664</ele><time>2024-03-02T01:12:19Z</time></trkpt><trkpt lat="35.6025462" lon="139.1389417"><ele>256.5133333333334</ele><time>2024-03-02T01:12:31Z</time></trkpt><trkpt lat="35.6025652" lon="139.1391844"><ele>253.13333333333335</ele><time>2024-03-02T01:12:43Z</time></trkpt><trkpt lat="35.602661" lon="139.1393783"><ele>248.91</ele><time>2024-03-02T01:12:59Z</time></trkpt><trkpt lat="35.6028589" lon="139.1394613"><ele>246.37</ele><time>2024-03-02T01:13:17Z</time></trkpt><trkpt lat="35.6030336" lon="139.1395364"><ele>247.48333333333335</ele><time>2024-03-02T01:13:26Z</time></trkpt><trkpt lat="35.6031598" lon="139.1396963"><ele>249.6</ele><time>2024-03-02T01:13:37Z</time></trkpt><trkpt lat="35.6031759" lon="139.1399408"><ele>252.0566666666667</ele><time>2024-03-02T01:13:48Z</time></trkpt><trkpt lat="35.6031672" lon="139.1401627"><ele>252.22</ele><time>2024-03-02T01:13:59Z</time></trkpt><trkpt lat="35.6030593" lon="139.1403514"><ele>247.24333333333334</ele><time>2024-03-02T01:14:12Z</time></trkpt><trkpt lat="35.6030601" lon="139.1405799"><ele>240.17</ele><time>2024-03-02T01:14:24Z</time></trkpt><trkpt lat="35.6031326" lon="139.1407872"><ele>235.42666666666665</ele><time>2024-03-02T01:14:37Z</time></trkpt><trkpt lat="35.6030961" lon="139.1410122"><ele>234.77666666666664</ele><time>2024-03-02T01:14:51Z</time></trkpt><trkpt lat="35.6031146" lon="139.1412342"><ele>235.02333333333334</ele><time>2024-03-02T01:15:03Z</time></trkpt><trkpt lat="35.6031617" lon="139.1414686"><ele>231.66666666666666</ele><time>2024-03-02T01:15:16Z</time></trkpt><trkpt lat="35.6032937" lon="139.1416246"><ele>228.5</ele><time>2024-03-02T01:15:29Z</time></trkpt><trkpt lat="35.6034523" lon="139.1417372"><ele>228.5633333333333</ele><time>2024-03-02T01:15:44Z</time></trkpt><trkpt lat="35.6035007" lon="139.1419528"><ele>227.51333333333332</ele><time>2024-03-02T01:15:56Z</time></trkpt><trkpt lat="35.6036562" lon="139.1420836"><ele>225.82000000000002</ele><time>2024-03-02T01:16:10Z</time></trkpt><trkpt lat="35.6038325" lon="139.1421377"><ele>220.74666666666667</ele><time>2024-03-02T01:16:19Z</time></trkpt><trkpt lat="35.6039457" lon="139.1423134"><ele>216.88</ele><time>2024-03-02T01:16:33Z</time></trkpt><trkpt lat="35.6040573" lon="139.142492"><ele>213.91333333333333</ele><time>2024-03-02T01:16:45Z</time></trkpt><trkpt lat="35.6041041" lon="139.1427347"><ele>211.15666666666667</ele><time>2024-03-02T01:16:58Z</time></trkpt><trkpt lat="35.6041417" lon="139.1429647"><ele>207.73000000000002</ele><time>2024-03-02T01:17:14Z</time></trkpt><trkpt lat="35.6043346" lon="139.1429887"><ele>204.36666666666667</ele><time>2024-03-02T01:17:26Z</time></trkpt><trkpt lat="35.6044534" lon="139.1431727"><ele>200.90666666666667</ele><time>2024-03-02T01:18:05Z</time></trkpt><trkpt lat="35.6045423" lon="139.1433699"><ele>200.91</ele><time>2024-03-02T01:18:16Z</time></trkpt><trkpt lat="35.6046926" lon="139.1435069"><ele>203.84666666666666</ele><time>2024-03-02T01:18:29Z</time></trkpt><trkpt lat="35.6046662" lon="139.1437326"><ele>207.76999999999998</ele><time>2024-03-02T01:18:40Z</time></trkpt><trkpt lat="35.6046573" lon="139.143973"><ele>210.25333333333333</ele><time>2024-03-02T01:18:55Z</time></trkpt><trkpt lat="35.6046415" lon="139.1442044"><ele>209.55333333333337</ele><time>2024-03-02T01:19:07Z</time></trkpt><trkpt lat="35.6045476" lon="139.1444024"><ele>208.9666666666667</ele><time>2024-03-02T01:19:23Z</time></trkpt><trkpt lat="35.6044839" lon="139.1446112"><ele>210.56333333333336</ele><time>2024-03-02T01:19:36Z</time></trkpt><trkpt lat="35.6045435" lon="139.144835"><ele>215.56333333333336</ele><time>2024-03-02T01:19:53Z</time></trkpt><trkpt lat="35.6045133" lon="139.1450651"><ele>220.92</ele><time>2024-03-02T01:20:07Z</time></trkpt><trkpt lat="35.6045114" lon="139.1453099"><ele>219.58333333333334</ele><time>2024-03-02T01:20:23Z</time></trkpt><trkpt lat="35.6046631" lon="139.1454438"><ele>214.85</ele><time>2024-03-02T01:20:39Z</time></trkpt><trkpt lat="35.604848" lon="139.1454522"><ele>210.71</ele><time>2024-03-02T01:20:50Z</time></trkpt><trkpt lat="35.6049353" lon="139.1456536"><ele>212.47000000000003</ele><time>2024-03-02T01:21:05Z</time></trkpt><trkpt lat="35.6048862" lon="139.1458812"><ele>212.38333333333335</ele><time>2024-03-02T01:21:21Z</time></trkpt><trkpt lat="35.6047261" lon="139.1460076"><ele>209.87</ele><time>2024-03-02T01:21:25Z</time></trkpt><trkpt lat="35.6049027" lon="139.1460741"><ele>206.54666666666665</ele><time>2024-03-02T01:21:34Z</time></trkpt><trkpt lat="35.6049995" lon="139.1462628"><ele>207.12666666666667</ele><time>2024-03-02T01:21:43Z</time></trkpt><trkpt lat="35.6051032" lon="139.146456"><ele>210.13666666666668</ele><time>2024-03-02T01:21:55Z</time></trkpt><trkpt lat="35.6050978" lon="139.1467039"><ele>210.73666666666665</ele><time>2024-03-02T01:22:10Z</time></trkpt><trkpt lat="35.605262" lon="139.1468324"><ele>211.41333333333333</ele><time>2024-03-02T01:22:20Z</time></trkpt><trkpt lat="35.6052316" lon="139.1470684"><ele>211.17333333333332</ele><time>2024-03-02T01:22:33Z</time></trkpt><trkpt lat="35.6052999" lon="139.1472995"><ele>212.29333333333332</ele><time>2024-03-02T01:22:52Z</time></trkpt><trkpt lat="35.6053366" lon="139.1475272"><ele>211.38333333333333</ele><time>2024-03-02T01:23:03Z</time></trkpt><trkpt lat="35.6054226" lon="139.1477291"><ele>209.79333333333332</ele><time>2024-03-02T01:23:17Z</time></trkpt><trkpt lat="35.6055823" lon="139.1478654"><ele>208.65333333333334</ele><time>2024-03-02T01:23:29Z</time></trkpt><trkpt lat="35.6057318" lon="139.1479935"><ele>208.33</ele><time>2024-03-02T01:23:43Z</time></trkpt><trkpt lat="35.6059407" lon="139.1481422"><ele>209.98666666666668</ele><time>2024-03-02T01:24:06Z</time></trkpt><trkpt lat="35.6061421" lon="139.1482379"><ele>213.9</ele><time>2024-03-02T01:24:09Z</time></trkpt><trkpt lat="35.6061471" lon="139.1484592"><ele>215.65</ele><time>2024-03-02T01:24:29Z</time></trkpt><trkpt lat="35.6061936" lon="139.1486982"><ele>216.09</ele><time>2024-03-02T01:24:40Z</time></trkpt><trkpt lat="35.6062639" lon="139.1489087"><ele>215.01333333333332</ele><time>2024-03-02T01:24:51Z</time></trkpt><trkpt lat="35.606303" lon="139.1491402"><ele>216.71333333333334</ele><time>2024-03-02T01:25:07Z</time></trkpt><trkpt lat="35.6063388" lon="139.1493672"><ele>216.10333333333332</ele><time>2024-03-02T01:25:19Z</time></trkpt><trkpt lat="35.6064073" lon="139.1495805"><ele>213.22333333333333</ele><time>2024-03-02T01:25:34Z</time></trkpt><trkpt lat="35.6065174" lon="139.149758"><ele>209.30666666666664</ele><time>2024-03-02T01:25:46Z</time></trkpt><trkpt lat="35.6065901" lon="139.1499741"><ele>207.07000000000002</ele><time>2024-03-02T01:25:57Z</time></trkpt><trkpt lat="35.606773" lon="139.15002"><ele>206.25666666666666</ele><time>2024-03-02T01:26:07Z</time></trkpt><trkpt lat="35.6069405" lon="139.1501067"><ele>205.61333333333334</ele><time>2024-03-02T01:26:18Z</time></trkpt><trkpt lat="35.607068" lon="139.1502767"><ele>204.5</ele><time>2024-03-02T01:26:31Z</time></trkpt><trkpt lat="35.6070832" lon="139.1504992"><ele>202.75333333333333</ele><time>2024-03-02T01:26:46Z</time></trkpt><trkpt lat="35.6072406" lon="139.1506267"><ele>201.38333333333335</ele><time>2024-03-02T01:27:03Z</time></trkpt><trkpt lat="35.607353" lon="139.1508003"><ele>201.40666666666667</ele><time>2024-03-02T01:27:15Z</time></trkpt><trkpt lat="35.6074428" lon="139.1510114"><ele>200.92</ele><time>2024-03-02T01:27:28Z</time></trkpt><trkpt lat="35.6075714" lon="139.151191"><ele>199.53333333333333</ele><time>2024-03-02T01:27:38Z</time></trkpt><trkpt lat="35.6076763" lon="139.1513744"><ele>194.98666666666668</ele><time>2024-03-02T01:27:53Z</time></trkpt><trkpt lat="35.6078296" lon="139.1515068"><ele>193.16333333333333</ele><time>2024-03-02T01:28:07Z</time></trkpt><trkpt lat="35.6079707" lon="139.1516733"><ele>192.20333333333335</ele><time>2024-03-02T01:28:20Z</time></trkpt><trkpt lat="35.6080809" lon="139.1518691"><ele>195.26333333333335</ele><time>2024-03-02T01:28:32Z</time></trkpt><trkpt lat="35.6082058" lon="139.1520411"><ele>197.93666666666664</ele><time>2024-03-02T01:28:45Z</time></trkpt><trkpt lat="35.6082775" lon="139.1522478"><ele>198.71333333333334</ele><time>2024-03-02T01:28:59Z</time></trkpt><trkpt lat="35.6083271" lon="139.1524732"><ele>198.42333333333332</ele><time>2024-03-02T01:29:12Z</time></trkpt><trkpt lat="35.608378" lon="139.1527025"><ele>193.86333333333334</ele><time>2024-03-02T01:29:26Z</time></trkpt><trkpt lat="35.6084488" lon="139.1529206"><ele>190.40666666666667</ele><time>2024-03-02T01:29:37Z</time></trkpt><trkpt lat="35.6085305" lon="139.1531269"><ele>188.62333333333333</ele><time>2024-03-02T01:29:52Z</time></trkpt><trkpt lat="35.608649" lon="139.1533024"><ele>190.91333333333333</ele><time>2024-03-02T01:30:08Z</time></trkpt><trkpt lat="35.6086485" lon="139.1535335"><ele>189.23000000000002</ele><time>2024-03-02T01:30:19Z</time></trkpt><trkpt lat="35.6086769" lon="139.15377"><ele>183.57666666666668</ele><time>2024-03-02T01:30:31Z</time></trkpt><trkpt lat="35.6086535" lon="139.1539946"><ele>175.36</ele><time>2024-03-02T01:31:03Z</time></trkpt><trkpt lat="35.6086775" lon="139.1542211"><ele>171.27</ele><time>2024-03-02T01:31:12Z</time></trkpt><trkpt lat="35.6086343" lon="139.1544435"><ele>169.38666666666666</ele><time>2024-03-02T01:31:26Z</time></trkpt><trkpt lat="35.6086982" lon="139.1546633"><ele>169.21</ele><time>2024-03-02T01:31:37Z</time></trkpt><trkpt lat="35.608697" lon="139.1548914"><ele>169.27666666666667</ele><time>2024-03-02T01:31:51Z</time></trkpt><trkpt lat="35.6087657" lon="139.1551072"><ele>169.6966666666667</ele><time>2024-03-02T01:32:03Z</time></trkpt><trkpt lat="35.6089043" lon="139.1552667"><ele>169.96</ele><time>2024-03-02T01:32:19Z</time></trkpt><trkpt lat="35.6090674" lon="139.1553696"><ele>170.51333333333335</ele><time>2024-03-02T01:32:37Z</time></trkpt><trkpt lat="35.6092566" lon="139.1554238"><ele>171.9466666666667</ele><time>2024-03-02T01:32:52Z</time></trkpt><trkpt lat="35.6094337" lon="139.155376"><ele>172.46333333333337</ele><time>2024-03-02T01:33:02Z</time></trkpt><trkpt lat="35.6096238" lon="139.1553625"><ele>173.53</ele><time>2024-03-02T01:33:20Z</time></trkpt><trkpt lat="35.609765" lon="139.1552228"><ele>172.61333333333334</ele><time>2024-03-02T01:33:30Z</time></trkpt><trkpt lat="35.6099423" lon="139.1551482"><ele>176.39000000000001</ele><time>2024-03-02T01:33:45Z</time></trkpt><trkpt lat="35.6101141" lon="139.1552189"><ele>180.51666666666665</ele><time>2024-03-02T01:34:02Z</time></trkpt><trkpt lat="35.6102802" lon="139.1553348"><ele>187.03666666666666</ele><time>2024-03-02T01:34:21Z</time></trkpt><trkpt lat="35.6104005" lon="139.1555024"><ele>190.54333333333332</ele><time>2024-03-02T01:34:35Z</time></trkpt><trkpt lat="35.6105527" lon="139.1556232"><ele>192.38666666666668</ele><time>2024-03-02T01:34:52Z</time></trkpt><trkpt lat="35.6104456" lon="139.1558073"><ele>193.5666666666667</ele><time>2024-03-02T01:35:06Z</time></trkpt><trkpt lat="35.6102636" lon="139.1558041"><ele>194.91333333333333</ele><time>2024-03-02T01:35:16Z</time></trkpt><trkpt lat="35.6100768" lon="139.1557674"><ele>197.20333333333335</ele><time>2024-03-02T01:35:30Z</time></trkpt><trkpt lat="35.6099014" lon="139.1557134"><ele>199.16333333333333</ele><time>2024-03-02T01:35:59Z</time></trkpt><trkpt lat="35.6097068" lon="139.1557017"><ele>200.49</ele><time>2024-03-02T01:36:16Z</time></trkpt><trkpt lat="35.6094782" lon="139.1557939"><ele>201.35</ele><time>2024-03-02T01:36:25Z</time></trkpt><trkpt lat="35.6092888" lon="139.1557459"><ele>201.06000000000003</ele><time>2024-03-02T01:36:44Z</time></trkpt><trkpt lat="35.6091256" lon="139.155848"><ele>201.71333333333334</ele><time>2024-03-02T01:36:57Z</time></trkpt><trkpt lat="35.6089469" lon="139.1557769"><ele>202.38333333333333</ele><time>2024-03-02T01:37:04Z</time></trkpt><trkpt lat="35.6087649" lon="139.1557454"><ele>203.90333333333334</ele><time>2024-03-02T01:37:07Z</time></trkpt><trkpt lat="35.6087243" lon="139.1559664"><ele>205.5533333333333</ele><time>2024-03-02T01:37:21Z</time></trkpt><trkpt lat="35.6085417" lon="139.1559148"><ele>207.68666666666664</ele><time>2024-03-02T01:37:36Z</time></trkpt><trkpt lat="35.6083719" lon="139.1558387"><ele>210.14000000000001</ele><time>2024-03-02T01:37:49Z</time></trkpt><trkpt lat="35.6082222" lon="139.1556957"><ele>210.90666666666667</ele><time>2024-03-02T01:38:09Z</time></trkpt><trkpt lat="35.608073" lon="139.155892"><ele>211.32333333333335</ele><time>2024-03-02T01:38:19Z</time></trkpt><trkpt lat="35.6079104" lon="139.1559928"><ele>211.04999999999998</ele><time>2024-03-02T01:38:29Z</time></trkpt><trkpt lat="35.6077273" lon="139.1560487"><ele>210.9666666666667</ele><time>2024-03-02T01:38:46Z</time></trkpt><trkpt lat="35.6075396" lon="139.1560281"><ele>210.59666666666666</ele><time>2024-03-02T01:38:57Z</time></trkpt><trkpt lat="35.60736" lon="139.1559717"><ele>208.75666666666666</ele><time>2024-03-02T01:39:11Z</time></trkpt><trkpt lat="35.6071799" lon="139.1559369"><ele>206.63666666666668</ele><time>2024-03-02T01:39:23Z</time></trkpt><trkpt lat="35.6069993" lon="139.1559019"><ele>204.13</ele><time>2024-03-02T01:39:39Z</time></trkpt><trkpt lat="35.6068193" lon="139.1559314"><ele>204.33333333333334</ele><time>2024-03-02T01:39:57Z</time></trkpt><trkpt lat="35.606633" lon="139.1559009"><ele>204.62666666666667</ele><time>2024-03-02T01:40:08Z</time></trkpt><trkpt lat="35.6064513" lon="139.1558807"><ele>205.63333333333335</ele><time>2024-03-02T01:40:22Z</time></trkpt><trkpt lat="35.6062623" lon="139.1558541"><ele>205.83666666666667</ele><time>2024-03-02T01:40:36Z</time></trkpt><trkpt lat="35.606082" lon="139.1558791"><ele>206.87</ele><time>2024-03-02T01:40:54Z</time></trkpt><trkpt lat="35.6059129" lon="139.1557963"><ele>207.28333333333333</ele><time>2024-03-02T01:41:07Z</time></trkpt><trkpt lat="35.6057374" lon="139.1557185"><ele>207.27333333333334</ele><time>2024-03-02T01:41:21Z</time></trkpt><trkpt lat="35.6055566" lon="139.1556594"><ele>206.49</ele><time>2024-03-02T01:41:31Z</time></trkpt><trkpt lat="35.6053837" lon="139.1555875"><ele>206.73000000000002</ele><time>2024-03-02T01:41:46Z</time></trkpt><trkpt lat="35.6052245" lon="139.1554704"><ele>206.74333333333334</ele><time>2024-03-02T01:41:59Z</time></trkpt><trkpt lat="35.6050645" lon="139.155356"><ele>207.30666666666664</ele><time>2024-03-02T01:43:37Z</time></trkpt><trkpt lat="35.6048837" lon="139.1553417"><ele>208.15666666666667</ele><time>2024-03-02T01:44:59Z</time></trkpt><trkpt lat="35.6046989" lon="139.1553308"><ele>210.86666666666667</ele><time>2024-03-02T01:45:21Z</time></trkpt><trkpt lat="35.604527" lon="139.1554192"><ele>217.04</ele><time>2024-03-02T01:45:43Z</time></trkpt><trkpt lat="35.6044922" lon="139.1551954"><ele>220.38666666666668</ele><time>2024-03-02T01:46:04Z</time></trkpt><trkpt lat="35.6043232" lon="139.1551064"><ele>225.51333333333332</ele><time>2024-03-02T01:46:30Z</time></trkpt><trkpt lat="35.6043226" lon="139.1553296"><ele>228.70666666666668</ele><time>2024-03-02T01:47:21Z</time></trkpt><trkpt lat="35.6041802" lon="139.155192"><ele>236.31000000000003</ele><time>2024-03-02T01:48:14Z</time></trkpt><trkpt lat="35.6040597" lon="139.1550047"><ele>242.85</ele><time>2024-03-02T01:48:34Z</time></trkpt><trkpt lat="35.6039145" lon="139.1548704"><ele>248.21333333333334</ele><time>2024-03-02T01:49:00Z</time></trkpt><trkpt lat="35.6037226" lon="139.1548144"><ele>253.24333333333334</ele><time>2024-03-02T01:49:26Z</time></trkpt><trkpt lat="35.6035386" lon="139.1547766"><ele>257.86333333333334</ele><time>2024-03-02T01:50:20Z</time></trkpt><trkpt lat="35.6034057" lon="139.1549301"><ele>268.5233333333333</ele><time>2024-03-02T01:52:39Z</time></trkpt><trkpt lat="35.6032622" lon="139.1550774"><ele>282.21999999999997</ele><time>2024-03-02T01:53:33Z</time></trkpt><trkpt lat="35.6034413" lon="139.1551185"><ele>290.79</ele><time>2024-03-02T01:54:01Z</time></trkpt><trkpt lat="35.6033319" lon="139.1553001"><ele>298.83</ele><time>2024-03-02T01:55:47Z</time></trkpt><trkpt lat="35.6031953" lon="139.1554495"><ele>306.0933333333333</ele><time>2024-03-02T01:56:48Z</time></trkpt><trkpt lat="35.6030086" lon="139.1554718"><ele>317.59999999999997</ele><time>2024-03-02T01:57:53Z</time></trkpt><trkpt lat="35.6028864" lon="139.155639"><ele>326.19666666666666</ele><time>2024-03-02T01:58:15Z</time></trkpt><trkpt lat="35.6030557" lon="139.1557192"><ele>330.4866666666667</ele><time>2024-03-02T01:58:54Z</time></trkpt><trkpt lat="35.6031017" lon="139.1559417"><ele>334.4766666666667</ele><time>2024-03-02T02:04:30Z</time></trkpt><trkpt lat="35.6029718" lon="139.1561001"><ele>337.40000000000003</ele><time>2024-03-02T02:05:00Z</time></trkpt><trkpt lat="35.6028306" lon="139.1562377"><ele>342.3233333333333</ele><time>2024-03-02T02:05:17Z</time></trkpt><trkpt lat="35.602655" lon="139.1561839"><ele>350.61999999999995</ele><time>2024-03-02T02:06:40Z</time></trkpt><trkpt lat="35.6025303" lon="139.1563503"><ele>359.8666666666666</ele><time>2024-03-02T02:08:06Z</time></trkpt><trkpt lat="35.6023316" lon="139.1563724"><ele>369.65333333333336</ele><time>2024-03-02T02:09:33Z</time></trkpt><trkpt lat="35.6022388" lon="139.1565723"><ele>378.75666666666666</ele><time>2024-03-02T02:10:27Z</time></trkpt><trkpt lat="35.6020629" lon="139.1565232"><ele>388.84666666666664</ele><time>2024-03-02T02:11:16Z</time></trkpt><trkpt lat="35.6019069" lon="139.1566489"><ele>398.52</ele><time>2024-03-02T02:12:24Z</time></trkpt><trkpt lat="35.601726" lon="139.1566865"><ele>407.1233333333334</ele><time>2024-03-02T02:13:14Z</time></trkpt><trkpt lat="35.6015484" lon="139.1566351"><ele>413.34999999999997</ele><time>2024-03-02T02:13:48Z</time></trkpt><trkpt lat="35.601439" lon="139.1564318"><ele>417.55</ele><time>2024-03-02T02:14:15Z</time></trkpt><trkpt lat="35.6015545" lon="139.1566135"><ele>419.21333333333337</ele><time>2024-03-02T02:16:04Z</time></trkpt><trkpt lat="35.6016158" lon="139.156828"><ele>417.81666666666666</ele><time>2024-03-02T02:16:20Z</time></trkpt><trkpt lat="35.6015412" lon="139.1570438"><ele>415.67333333333335</ele><time>2024-03-02T02:16:35Z</time></trkpt><trkpt lat="35.6015067" lon="139.1572669"><ele>413.04999999999995</ele><time>2024-03-02T02:16:50Z</time></trkpt><trkpt lat="35.6015677" lon="139.1574914"><ele>409.4766666666667</ele><time>2024-03-02T02:17:12Z</time></trkpt><trkpt lat="35.601737" lon="139.1575835"><ele>405.81</ele><time>2024-03-02T02:17:33Z</time></trkpt><trkpt lat="35.6018858" lon="139.1577203"><ele>402.75666666666666</ele><time>2024-03-02T02:17:47Z</time></trkpt><trkpt lat="35.6020126" lon="139.1578966"><ele>403.27666666666664</ele><time>2024-03-02T02:18:01Z</time></trkpt><trkpt lat="35.6020564" lon="139.1581265"><ele>405.3633333333334</ele><time>2024-03-02T02:18:17Z</time></trkpt><trkpt lat="35.602207" lon="139.1582614"><ele>408.5366666666667</ele><time>2024-03-02T02:18:51Z</time></trkpt><trkpt lat="35.6023176" lon="139.1584378"><ele>411.68333333333334</ele><time>2024-03-02T02:19:07Z</time></trkpt><trkpt lat="35.6024215" lon="139.1586201"><ele>415.6166666666666</ele><time>2024-03-02T02:19:31Z</time></trkpt><trkpt lat="35.6025124" lon="139.1588217"><ele>419.0033333333334</ele><time>2024-03-02T02:19:46Z</time></trkpt><trkpt lat="35.6026938" lon="139.1587778"><ele>419.57</ele><time>2024-03-02T02:20:01Z</time></trkpt><trkpt lat="35.6025133" lon="139.1587375"><ele>420.03333333333336</ele><time>2024-03-02T02:21:14Z</time></trkpt><trkpt lat="35.6024059" lon="139.1589205"><ele>419.15000000000003</ele><time>2024-03-02T02:21:41Z</time></trkpt><trkpt lat="35.6023996" lon="139.1591477"><ele>413.08666666666664</ele><time>2024-03-02T02:22:46Z</time></trkpt><trkpt lat="35.6023942" lon="139.1593766"><ele>401.07666666666665</ele><time>2024-03-02T02:23:08Z</time></trkpt><trkpt lat="35.6022606" lon="139.1595474"><ele>386.98</ele><time>2024-03-02T02:23:21Z</time></trkpt><trkpt lat="35.6023911" lon="139.1597187"><ele>377.68</ele><time>2024-03-02T02:23:40Z</time></trkpt><trkpt lat="35.6025329" lon="139.1598629"><ele>372.75</ele><time>2024-03-02T02:24:03Z</time></trkpt><trkpt lat="35.6026395" lon="139.1600544"><ele>369.03999999999996</ele><time>2024-03-02T02:24:25Z</time></trkpt><trkpt lat="35.6027431" lon="139.1602509"><ele>364.3066666666667</ele><time>2024-03-02T02:24:38Z</time></trkpt><trkpt lat="35.6027181" lon="139.1604773"><ele>360.69000000000005</ele><time>2024-03-02T02:24:53Z</time></trkpt><trkpt lat="35.6026744" lon="139.1606965"><ele>357.51</ele><time>2024-03-02T02:25:16Z</time></trkpt><trkpt lat="35.6027062" lon="139.160914"><ele>356.53000000000003</ele><time>2024-03-02T02:25:39Z</time></trkpt><trkpt lat="35.6028133" lon="139.1610931"><ele>354.2033333333334</ele><time>2024-03-02T02:25:57Z</time></trkpt><trkpt lat="35.60293" lon="139.1612707"><ele>352.93</ele><time>2024-03-02T02:26:10Z</time></trkpt><trkpt lat="35.603083" lon="139.1614672"><ele>353.09666666666664</ele><time>2024-03-02T02:26:18Z</time></trkpt><trkpt lat="35.6031304" lon="139.1616858"><ele>354.98333333333335</ele><time>2024-03-02T02:26:35Z</time></trkpt><trkpt lat="35.6031606" lon="139.1619084"><ele>358.21999999999997</ele><time>2024-03-02T02:26:56Z</time></trkpt><trkpt lat="35.6032578" lon="139.1621018"><ele>360.55</ele><time>2024-03-02T02:27:14Z</time></trkpt><trkpt lat="35.6033274" lon="139.162314"><ele>358.77666666666664</ele><time>2024-03-02T02:27:27Z</time></trkpt><trkpt lat="35.6034889" lon="139.1624187"><ele>356.82666666666665</ele><time>2024-03-02T02:27:47Z</time></trkpt><trkpt lat="35.6035405" lon="139.1626458"><ele>354.2733333333333</ele><time>2024-03-02T02:28:02Z</time></trkpt><trkpt lat="35.6035803" lon="139.1628632"><ele>350.93</ele><time>2024-03-02T02:28:14Z</time></trkpt><trkpt lat="35.6037226" lon="139.1630011"><ele>345.31333333333333</ele><time>2024-03-02T02:28:26Z</time></trkpt><trkpt lat="35.6038957" lon="139.163093"><ele>337.81333333333333</ele><time>2024-03-02T02:28:46Z</time></trkpt><trkpt lat="35.6038846" lon="139.1633186"><ele>334.8966666666667</ele><time>2024-03-02T02:29:03Z</time></trkpt><trkpt lat="35.6039662" lon="139.1635156"><ele>336.1166666666666</ele><time>2024-03-02T02:30:34Z</time></trkpt><trkpt lat="35.6039856" lon="139.1637457"><ele>341.3566666666666</ele><time>2024-03-02T02:31:15Z</time></trkpt><trkpt lat="35.6040997" lon="139.163917"><ele>346.9766666666667</ele><time>2024-03-02T02:31:40Z</time></trkpt><trkpt lat="35.6042357" lon="139.1640809"><ele>352.1366666666667</ele><time>2024-03-02T02:32:37Z</time></trkpt><trkpt lat="35.6043235" lon="139.1642908"><ele>356.88000000000005</ele><time>2024-03-02T02:32:51Z</time></trkpt><trkpt lat="35.6044371" lon="139.1644644"><ele>360.32666666666665</ele><time>2024-03-02T02:33:07Z</time></trkpt><trkpt lat="35.6044459" lon="139.1646942"><ele>361.8733333333334</ele><time>2024-03-02T02:33:24Z</time></trkpt><trkpt lat="35.6044866" lon="139.1649123"><ele>362.46666666666664</ele><time>2024-03-02T02:33:37Z</time></trkpt><trkpt lat="35.6047191" lon="139.1649244"><ele>362.7633333333333</ele><time>2024-03-02T02:33:47Z</time></trkpt><trkpt lat="35.6048229" lon="139.1651061"><ele>363.68</ele><time>2024-03-02T02:34:03Z</time></trkpt><trkpt lat="35.6048907" lon="139.1653233"><ele>364.05333333333334</ele><time>2024-03-02T02:34:18Z</time></trkpt><trkpt lat="35.604966" lon="139.165537"><ele>362.82</ele><time>2024-03-02T02:34:49Z</time></trkpt><trkpt lat="35.6050065" lon="139.1657557"><ele>359.43666666666667</ele><time>2024-03-02T02:35:03Z</time></trkpt><trkpt lat="35.6051524" lon="139.1659051"><ele>356.18666666666667</ele><time>2024-03-02T02:35:28Z</time></trkpt><trkpt lat="35.6052696" lon="139.1660778"><ele>352.37000000000006</ele><time>2024-03-02T02:35:40Z</time></trkpt><trkpt lat="35.6053954" lon="139.166237"><ele>348.1233333333333</ele><time>2024-03-02T02:35:52Z</time></trkpt><trkpt lat="35.6055669" lon="139.1663137"><ele>344.4766666666667</ele><time>2024-03-02T02:36:14Z</time></trkpt><trkpt lat="35.6056833" lon="139.1664896"><ele>343.1066666666666</ele><time>2024-03-02T02:36:28Z</time></trkpt><trkpt lat="35.6058194" lon="139.1666482"><ele>342.83</ele><time>2024-03-02T02:36:38Z</time></trkpt><trkpt lat="35.605888" lon="139.1668607"><ele>344.26666666666665</ele><time>2024-03-02T02:36:55Z</time></trkpt><trkpt lat="35.605936" lon="139.1670765"><ele>347.06666666666666</ele><time>2024-03-02T02:37:15Z</time></trkpt><trkpt lat="35.6060601" lon="139.1672438"><ele>351.2</ele><time>2024-03-02T02:37:32Z</time></trkpt><trkpt lat="35.6061557" lon="139.1674381"><ele>354.11999999999995</ele><time>2024-03-02T02:37:57Z</time></trkpt><trkpt lat="35.6063024" lon="139.1675691"><ele>355.2166666666667</ele><time>2024-03-02T02:38:34Z</time></trkpt><trkpt lat="35.6063666" lon="139.1677865"><ele>357.9633333333333</ele><time>2024-03-02T02:39:14Z</time></trkpt><trkpt lat="35.6063367" lon="139.1680291"><ele>360.97333333333336</ele><time>2024-03-02T02:39:32Z</time></trkpt><trkpt lat="35.6063029" lon="139.1682564"><ele>364.8066666666667</ele><time>2024-03-02T02:39:45Z</time></trkpt><trkpt lat="35.6062364" lon="139.1684771"><ele>366.75</ele><time>2024-03-02T02:40:03Z</time></trkpt><trkpt lat="35.6062075" lon="139.1687038"><ele>367.25666666666666</ele><time>2024-03-02T02:40:19Z</time></trkpt><trkpt lat="35.6062201" lon="139.1689324"><ele>368.1766666666667</ele><time>2024-03-02T02:40:55Z</time></trkpt><trkpt lat="35.6063237" lon="139.1691141"><ele>369.3966666666667</ele><time>2024-03-02T02:41:20Z</time></trkpt><trkpt lat="35.6063822" lon="139.1693265"><ele>374.30333333333334</ele><time>2024-03-02T02:42:11Z</time></trkpt><trkpt lat="35.6064433" lon="139.1695469"><ele>378.38000000000005</ele><time>2024-03-02T02:42:29Z</time></trkpt><trkpt lat="35.6063757" lon="139.1697588"><ele>381.9666666666667</ele><time>2024-03-02T02:42:44Z</time></trkpt><trkpt lat="35.6062329" lon="139.1699117"><ele>382.32</ele><time>2024-03-02T02:44:11Z</time></trkpt><trkpt lat="35.6060701" lon="139.1700232"><ele>381.8</ele><time>2024-03-02T02:44:34Z</time></trkpt><trkpt lat="35.60596" lon="139.1702035"><ele>379.4166666666667</ele><time>2024-03-02T02:44:49Z</time></trkpt><trkpt lat="35.6059199" lon="139.1704304"><ele>375.7633333333333</ele><time>2024-03-02T02:45:10Z</time></trkpt><trkpt lat="35.6059382" lon="139.1706557"><ele>372.59</ele><time>2024-03-02T02:45:30Z</time></trkpt><trkpt lat="35.6059321" lon="139.1708903"><ele>369.06666666666666</ele><time>2024-03-02T02:45:49Z</time></trkpt><trkpt lat="35.6059695" lon="139.1711065"><ele>364.18</ele><time>2024-03-02T02:46:10Z</time></trkpt><trkpt lat="35.6057535" lon="139.1712112"><ele>358.5933333333334</ele><time>2024-03-02T02:46:31Z</time></trkpt><trkpt lat="35.6059222" lon="139.1712954"><ele>356.74</ele><time>2024-03-02T02:46:59Z</time></trkpt><trkpt lat="35.605977" lon="139.1715124"><ele>360.0566666666667</ele><time>2024-03-02T02:47:53Z</time></trkpt><trkpt lat="35.6060647" lon="139.1717232"><ele>365.5933333333334</ele><time>2024-03-02T02:48:14Z</time></trkpt><trkpt lat="35.6062179" lon="139.1718585"><ele>369.96000000000004</ele><time>2024-03-02T02:48:37Z</time></trkpt><trkpt lat="35.6062205" lon="139.1720849"><ele>371.3866666666667</ele><time>2024-03-02T02:51:56Z</time></trkpt><trkpt lat="35.6061944" lon="139.1723034"><ele>370.38000000000005</ele><time>2024-03-02T02:52:15Z</time></trkpt><trkpt lat="35.6062003" lon="139.1725306"><ele>365.41333333333336</ele><time>2024-03-02T02:52:49Z</time></trkpt><trkpt lat="35.6061186" lon="139.1727415"><ele>358.67</ele><time>2024-03-02T02:53:05Z</time></trkpt><trkpt lat="35.6061601" lon="139.1729605"><ele>350.7133333333333</ele><time>2024-03-02T02:53:26Z</time></trkpt><trkpt lat="35.6060564" lon="139.1731429"><ele>344.4433333333333</ele><time>2024-03-02T02:54:15Z</time></trkpt><trkpt lat="35.6060033" lon="139.1733708"><ele>337.88666666666666</ele><time>2024-03-02T02:54:40Z</time></trkpt><trkpt lat="35.6059271" lon="139.1735768"><ele>333.00333333333333</ele><time>2024-03-02T02:55:01Z</time></trkpt><trkpt lat="35.6060159" lon="139.1737763"><ele>327.1666666666667</ele><time>2024-03-02T02:55:26Z</time></trkpt><trkpt lat="35.6060829" lon="139.173985"><ele>322.75000000000006</ele><time>2024-03-02T02:55:42Z</time></trkpt><trkpt lat="35.6061712" lon="139.1741914"><ele>316.7266666666667</ele><time>2024-03-02T02:55:56Z</time></trkpt><trkpt lat="35.6061877" lon="139.1744145"><ele>311.42333333333335</ele><time>2024-03-02T02:56:16Z</time></trkpt><trkpt lat="35.6060648" lon="139.1746045"><ele>305.58</ele><time>2024-03-02T02:56:37Z</time></trkpt><trkpt lat="35.6060701" lon="139.1748264"><ele>297.49333333333334</ele><time>2024-03-02T02:57:32Z</time></trkpt><trkpt lat="35.6059614" lon="139.1750051"><ele>290.07</ele><time>2024-03-02T02:57:54Z</time></trkpt><trkpt lat="35.606138" lon="139.1750807"><ele>279.65333333333336</ele><time>2024-03-02T02:58:01Z</time></trkpt><trkpt lat="35.6060004" lon="139.1752262"><ele>276.74666666666667</ele><time>2024-03-02T02:58:17Z</time></trkpt><trkpt lat="35.6058635" lon="139.1753826"><ele>274.1</ele><time>2024-03-02T02:59:01Z</time></trkpt><trkpt lat="35.605815" lon="139.1755953"><ele>271.3533333333333</ele><time>2024-03-02T03:00:26Z</time></trkpt><trkpt lat="35.6060087" lon="139.1754825"><ele>267.73</ele><time>2024-03-02T03:02:41Z</time></trkpt><trkpt lat="35.6061519" lon="139.1753445"><ele>263.72999999999996</ele><time>2024-03-02T03:02:51Z</time></trkpt><trkpt lat="35.606206" lon="139.175131"><ele>264.55333333333334</ele><time>2024-03-02T03:03:03Z</time></trkpt><trkpt lat="35.6063419" lon="139.1749727"><ele>264.97</ele><time>2024-03-02T03:03:18Z</time></trkpt><trkpt lat="35.6065343" lon="139.174962"><ele>263.49333333333334</ele><time>2024-03-02T03:03:37Z</time></trkpt><trkpt lat="35.606574" lon="139.174739"><ele>263.25</ele><time>2024-03-02T03:03:50Z</time></trkpt><trkpt lat="35.6065823" lon="139.1745177"><ele>263.57666666666665</ele><time>2024-03-02T03:04:06Z</time></trkpt><trkpt lat="35.6067109" lon="139.1743503"><ele>265.8233333333333</ele><time>2024-03-02T03:04:22Z</time></trkpt><trkpt lat="35.6066633" lon="139.1741331"><ele>264.98</ele><time>2024-03-02T03:04:35Z</time></trkpt><trkpt lat="35.6064848" lon="139.1740492"><ele>266.9266666666667</ele><time>2024-03-02T03:04:47Z</time></trkpt><trkpt lat="35.6065401" lon="139.1738312"><ele>271.45</ele><time>2024-03-02T03:05:02Z</time></trkpt><trkpt lat="35.6067281" lon="139.1737868"><ele>274.49666666666667</ele><time>2024-03-02T03:05:45Z</time></trkpt><trkpt lat="35.6068968" lon="139.1737063"><ele>272.5566666666667</ele><time>2024-03-02T03:06:01Z</time></trkpt><trkpt lat="35.6070715" lon="139.1736442"><ele>269.62000000000006</ele><time>2024-03-02T03:06:16Z</time></trkpt><trkpt lat="35.6072151" lon="139.1735016"><ele>271.1666666666667</ele><time>2024-03-02T03:06:28Z</time></trkpt><trkpt lat="35.6073909" lon="139.1734298"><ele>271.49</ele><time>2024-03-02T03:06:44Z</time></trkpt><trkpt lat="35.6075621" lon="139.1733548"><ele>269.0433333333333</ele><time>2024-03-02T03:07:01Z</time></trkpt><trkpt lat="35.6076998" lon="139.1732121"><ele>262.82666666666665</ele><time>2024-03-02T03:07:24Z</time></trkpt><trkpt lat="35.6075667" lon="139.1730565"><ele>258.2733333333333</ele><time>2024-03-02T03:07:38Z</time></trkpt><trkpt lat="35.6076835" lon="139.1728868"><ele>257.2</ele><time>2024-03-02T03:08:12Z</time></trkpt><trkpt lat="35.6078638" lon="139.1728835"><ele>255.9266666666667</ele><time>2024-03-02T03:08:24Z</time></trkpt><trkpt lat="35.6080547" lon="139.1728617"><ele>253.61333333333334</ele><time>2024-03-02T03:08:36Z</time></trkpt><trkpt lat="35.6082108" lon="139.1727446"><ele>250.9366666666667</ele><time>2024-03-02T03:08:48Z</time></trkpt><trkpt lat="35.6083042" lon="139.1725446"><ele>251.38666666666668</ele><time>2024-03-02T03:09:02Z</time></trkpt><trkpt lat="35.6081868" lon="139.1723594"><ele>252.43333333333337</ele><time>2024-03-02T03:09:19Z</time></trkpt><trkpt lat="35.6081368" lon="139.1721404"><ele>251.61666666666667</ele><time>2024-03-02T03:09:37Z</time></trkpt><trkpt lat="35.6082758" lon="139.1719963"><ele>248.30999999999997</ele><time>2024-03-02T03:09:53Z</time></trkpt><trkpt lat="35.6081868" lon="139.1717996"><ele>244.04999999999998</ele><time>2024-03-02T03:10:06Z</time></trkpt><trkpt lat="35.6083655" lon="139.1717582"><ele>240.0</ele><time>2024-03-02T03:11:44Z</time></trkpt><trkpt lat="35.6085476" lon="139.1716805"><ele>237.30000000000004</ele><time>2024-03-02T03:11:56Z</time></trkpt><trkpt lat="35.6087281" lon="139.1716428"><ele>235.33</ele><time>2024-03-02T03:12:13Z</time></trkpt><trkpt lat="35.6088938" lon="139.1715437"><ele>231.91333333333333</ele><time>2024-03-02T03:12:34Z</time></trkpt><trkpt lat="35.6090604" lon="139.1714382"><ele>228.06333333333336</ele><time>2024-03-02T03:13:01Z</time></trkpt><trkpt lat="35.6092402" lon="139.1713687"><ele>224.8066666666667</ele><time>2024-03-02T03:13:56Z</time></trkpt><trkpt lat="35.6093558" lon="139.1711877"><ele>223.56333333333336</ele><time>2024-03-02T03:14:14Z</time></trkpt><trkpt lat="35.6094021" lon="139.1709658"><ele>222.73000000000002</ele><time>2024-03-02T03:14:27Z</time></trkpt><trkpt lat="35.6094156" lon="139.1707416"><ele>221.57333333333335</ele><time>2024-03-02T03:14:43Z</time></trkpt><trkpt lat="35.60938" lon="139.170518"><ele>220.26666666666668</ele><time>2024-03-02T03:15:02Z</time></trkpt><trkpt lat="35.6095636" lon="139.1704422"><ele>219.13333333333335</ele><time>2024-03-02T03:15:19Z</time></trkpt><trkpt lat="35.6095968" lon="139.1702213"><ele>217.07000000000002</ele><time>2024-03-02T03:15:39Z</time></trkpt><trkpt lat="35.6096871" lon="139.1700255"><ele>214.95000000000002</ele><time>2024-03-02T03:15:51Z</time></trkpt><trkpt lat="35.6098586" lon="139.1699295"><ele>212.88666666666666</ele><time>2024-03-02T03:16:04Z</time></trkpt><trkpt lat="35.6097552" lon="139.1697481"><ele>211.6933333333333</ele><time>2024-03-02T03:16:22Z</time></trkpt><trkpt lat="35.6097461" lon="139.1695268"><ele>210.9</ele><time>2024-03-02T03:16:31Z</time></trkpt><trkpt lat="35.6097431" lon="139.1693031"><ele>210.71</ele><time>2024-03-02T03:16:42Z</time></trkpt><trkpt lat="35.6097411" lon="139.1690725"><ele>210.48666666666668</ele><time>2024-03-02T03:16:59Z</time></trkpt><trkpt lat="35.6097416" lon="139.1688057"><ele>210.50666666666666</ele><time>2024-03-02T03:17:14Z</time></trkpt><trkpt lat="35.6098699" lon="139.1686423"><ele>210.13333333333333</ele><time>2024-03-02T03:17:34Z</time></trkpt><trkpt lat="35.6098307" lon="139.1684195"><ele>209.95666666666668</ele><time>2024-03-02T03:17:40Z</time></trkpt><trkpt lat="35.6098133" lon="139.168187"><ele>209.64666666666668</ele><time>2024-03-02T03:17:57Z</time></trkpt><trkpt lat="35.6097048" lon="139.1679993"><ele>210.37333333333333</ele><time>2024-03-02T03:18:03Z</time></trkpt><trkpt lat="35.6097938" lon="139.1678055"><ele>210.29333333333332</ele><time>2024-03-02T03:18:22Z</time></trkpt><trkpt lat="35.6099292" lon="139.1676211"><ele>210.09333333333333</ele><time>2024-03-02T03:18:34Z</time></trkpt><trkpt lat="35.6101639" lon="139.1675889"><ele>208.42333333333332</ele><time>2024-03-02T03:18:56Z</time></trkpt><trkpt lat="35.6103526" lon="139.1676171"><ele>206.83</ele><time>2024-03-02T03:19:10Z</time></trkpt><trkpt lat="35.6105084" lon="139.167489"><ele>204.77333333333334</ele><time>2024-03-02T03:19:22Z</time></trkpt><trkpt lat="35.6104146" lon="139.1672989"><ele>203.84333333333333</ele><time>2024-03-02T03:19:39Z</time></trkpt><trkpt lat="35.6103135" lon="139.167113"><ele>203.50333333333336</ele><time>2024-03-02T03:19:53Z</time></trkpt><trkpt lat="35.6102766" lon="139.166892"><ele>203.49333333333334</ele><time>2024-03-02T03:20:08Z</time></trkpt><trkpt lat="35.6101846" lon="139.1666978"><ele>203.04666666666665</ele><time>2024-03-02T03:20:19Z</time></trkpt><trkpt lat="35.6101742" lon="139.1664705"><ele>202.1966666666667</ele><time>2024-03-02T03:20:34Z</time></trkpt><trkpt lat="35.6101088" lon="139.1662505"><ele>201.89666666666668</ele><time>2024-03-02T03:20:48Z</time></trkpt><trkpt lat="35.6101275" lon="139.1660297"><ele>201.7266666666667</ele><time>2024-03-02T03:21:01Z</time></trkpt><trkpt lat="35.6100874" lon="139.1658096"><ele>201.9433333333333</ele><time>2024-03-02T03:21:19Z</time></trkpt><trkpt lat="35.6100724" lon="139.1655556"><ele>200.79333333333332</ele><time>2024-03-02T03:21:33Z</time></trkpt><trkpt lat="35.6100261" lon="139.1653377"><ele>193.10333333333332</ele><time>2024-03-02T03:21:45Z</time></trkpt><trkpt lat="35.6099846" lon="139.1650959"><ele>182.42666666666665</ele><time>2024-03-02T03:21:58Z</time></trkpt><trkpt lat="35.6099792" lon="139.164872"><ele>172.85333333333335</ele><time>2024-03-02T03:22:10Z</time></trkpt><trkpt lat="35.6099535" lon="139.164635"><ele>169.87333333333333</ele><time>2024-03-02T03:22:23Z</time></trkpt><trkpt lat="35.6099773" lon="139.1644137"><ele>170.04666666666668</ele><time>2024-03-02T03:22:39Z</time></trkpt><trkpt lat="35.6099081" lon="139.164124"><ele>174.58666666666667</ele><time>2024-03-02T03:22:48Z</time></trkpt><trkpt lat="35.6098626" lon="139.1639008"><ele>185.5666666666667</ele><time>2024-03-02T03:23:00Z</time></trkpt><trkpt lat="35.6099823" lon="139.1637323"><ele>196.92666666666665</ele><time>2024-03-02T03:23:22Z</time></trkpt><trkpt lat="35.6100644" lon="139.1635355"><ele>203.72</ele><time>2024-03-02T03:23:38Z</time></trkpt><trkpt lat="35.6099886" lon="139.1633129"><ele>204.40666666666667</ele><time>2024-03-02T03:23:49Z</time></trkpt><trkpt lat="35.6098962" lon="139.163112"><ele>205.70333333333335</ele><time>2024-03-02T03:23:59Z</time></trkpt><trkpt lat="35.6098716" lon="139.1628846"><ele>208.4466666666667</ele><time>2024-03-02T03:24:12Z</time></trkpt><trkpt lat="35.6098243" lon="139.162668"><ele>211.4666666666667</ele><time>2024-03-02T03:24:30Z</time></trkpt><trkpt lat="35.6097743" lon="139.1624551"><ele>213.65666666666667</ele><time>2024-03-02T03:24:46Z</time></trkpt><trkpt lat="35.6096995" lon="139.1622491"><ele>215.52666666666664</ele><time>2024-03-02T03:25:05Z</time></trkpt><trkpt lat="35.6095578" lon="139.1620959"><ele>217.74</ele><time>2024-03-02T03:25:17Z</time></trkpt><trkpt lat="35.6095076" lon="139.1618678"><ele>220.0666666666667</ele><time>2024-03-02T03:25:36Z</time></trkpt><trkpt lat="35.6094413" lon="139.161615"><ele>221.42999999999998</ele><time>2024-03-02T03:25:50Z</time></trkpt><trkpt lat="35.609328" lon="139.161433"><ele>222.00666666666666</ele><time>2024-03-02T03:26:11Z</time></trkpt><trkpt lat="35.609258" lon="139.1612216"><ele>222.13666666666668</ele><time>2024-03-02T03:26:24Z</time></trkpt><trkpt lat="35.6092796" lon="139.1609906"><ele>222.17666666666665</ele><time>2024-03-02T03:26:41Z</time></trkpt><trkpt lat="35.6091991" lon="139.1607899"><ele>221.90333333333334</ele><time>2024-03-02T03:26:55Z</time></trkpt><trkpt lat="35.6091384" lon="139.1605554"><ele>221.47</ele><time>2024-03-02T03:27:10Z</time></trkpt><trkpt lat="35.6090468" lon="139.1603531"><ele>221.1933333333333</ele><time>2024-03-02T03:27:23Z</time></trkpt><trkpt lat="35.6089823" lon="139.1601339"><ele>221.03</ele><time>2024-03-02T03:27:38Z</time></trkpt><trkpt lat="35.6088444" lon="139.1599765"><ele>221.20000000000002</ele><time>2024-03-02T03:27:50Z</time></trkpt><trkpt lat="35.6087355" lon="139.1597927"><ele>221.53666666666666</ele><time>2024-03-02T03:28:14Z</time></trkpt><trkpt lat="35.6085804" lon="139.1596577"><ele>222.12333333333333</ele><time>2024-03-02T03:28:24Z</time></trkpt><trkpt lat="35.6084858" lon="139.1594574"><ele>222.70666666666668</ele><time>2024-03-02T03:28:38Z</time></trkpt><trkpt lat="35.608379" lon="139.159259"><ele>223.61999999999998</ele><time>2024-03-02T03:28:50Z</time></trkpt><trkpt lat="35.6084315" lon="139.1590304"><ele>223.98666666666668</ele><time>2024-03-02T03:29:05Z</time></trkpt><trkpt lat="35.608484" lon="139.1588042"><ele>223.86999999999998</ele><time>2024-03-02T03:29:30Z</time></trkpt><trkpt lat="35.6086906" lon="139.1587784"><ele>222.2833333333333</ele><time>2024-03-02T03:29:42Z</time></trkpt><trkpt lat="35.6088816" lon="139.1587297"><ele>220.4766666666667</ele><time>2024-03-02T03:30:09Z</time></trkpt><trkpt lat="35.6090314" lon="139.1586004"><ele>218.16333333333333</ele><time>2024-03-02T03:30:29Z</time></trkpt><trkpt lat="35.6091876" lon="139.1584872"><ele>216.27333333333334</ele><time>2024-03-02T03:30:44Z</time></trkpt><trkpt lat="35.609364" lon="139.1584198"><ele>214.43999999999997</ele><time>2024-03-02T03:30:57Z</time></trkpt><trkpt lat="35.6095014" lon="139.1582525"><ele>212.89000000000001</ele><time>2024-03-02T03:31:23Z</time></trkpt><trkpt lat="35.6096628" lon="139.1581419"><ele>210.85999999999999</ele><time>2024-03-02T03:31:36Z</time></trkpt><trkpt lat="35.6098228" lon="139.1580312"><ele>208.42333333333332</ele><time>2024-03-02T03:31:53Z</time></trkpt><trkpt lat="35.6099846" lon="139.1579129"><ele>205.69000000000003</ele><time>2024-03-02T03:32:06Z</time></trkpt><trkpt lat="35.6101647" lon="139.1578741"><ele>202.71333333333334</ele><time>2024-03-02T03:32:20Z</time></trkpt><trkpt lat="35.6103256" lon="139.1577473"><ele>199.74333333333334</ele><time>2024-03-02T03:32:37Z</time></trkpt><trkpt lat="35.610508" lon="139.1577373"><ele>196.01666666666668</ele><time>2024-03-02T03:32:46Z</time></trkpt><trkpt lat="35.6106893" lon="139.1577715"><ele>192.6966666666667</ele><time>2024-03-02T03:33:01Z</time></trkpt><trkpt lat="35.6107583" lon="139.157545"><ele>189.92999999999998</ele><time>2024-03-02T03:33:14Z</time></trkpt><trkpt lat="35.6108542" lon="139.1573439"><ele>188.5666666666667</ele><time>2024-03-02T03:33:27Z</time></trkpt><trkpt lat="35.6108976" lon="139.1571264"><ele>188.30999999999997</ele><time>2024-03-02T03:33:45Z</time></trkpt><trkpt lat="35.6109732" lon="139.156921"><ele>188.4433333333333</ele><time>2024-03-02T03:33:59Z</time></trkpt><trkpt lat="35.6110101" lon="139.1566916"><ele>188.82666666666668</ele><time>2024-03-02T03:34:12Z</time></trkpt><trkpt lat="35.6110873" lon="139.15649"><ele>188.89000000000001</ele><time>2024-03-02T03:34:23Z</time></trkpt><trkpt lat="35.6111983" lon="139.1563081"><ele>188.38333333333333</ele><time>2024-03-02T03:34:37Z</time></trkpt><trkpt lat="35.6113252" lon="139.1561307"><ele>186.33666666666667</ele><time>2024-03-02T03:34:54Z</time></trkpt><trkpt lat="35.6114773" lon="139.1559917"><ele>180.84</ele><time>2024-03-02T03:35:04Z</time></trkpt><trkpt lat="35.6116394" lon="139.1561252"><ele>178.91</ele><time>2024-03-02T03:35:19Z</time></trkpt><trkpt lat="35.6118222" lon="139.1562098"><ele>178.28333333333333</ele><time>2024-03-02T03:35:29Z</time></trkpt><trkpt lat="35.6120025" lon="139.1562344"><ele>180.32333333333335</ele><time>2024-03-02T03:35:41Z</time></trkpt><trkpt lat="35.6121856" lon="139.1562143"><ele>176.69000000000003</ele><time>2024-03-02T03:35:53Z</time></trkpt><trkpt lat="35.6123597" lon="139.1562863"><ele>172.93999999999997</ele><time>2024-03-02T03:36:18Z</time></trkpt><trkpt lat="35.6125381" lon="139.1562034"><ele>169.93333333333334</ele><time>2024-03-02T03:36:43Z</time></trkpt><trkpt lat="35.6127214" lon="139.1561851"><ele>169.4333333333333</ele><time>2024-03-02T03:36:54Z</time></trkpt><trkpt lat="35.6129076" lon="139.1561295"><ele>169.13333333333333</ele><time>2024-03-02T03:37:27Z</time></trkpt><trkpt lat="35.6130844" lon="139.1560621"><ele>168.9466666666667</ele><time>2024-03-02T03:37:37Z</time></trkpt><trkpt lat="35.6132765" lon="139.1560456"><ele>168.94000000000003</ele><time>2024-03-02T03:37:51Z</time></trkpt><trkpt lat="35.6134597" lon="139.1560318"><ele>169.1266666666667</ele><time>2024-03-02T03:38:02Z</time></trkpt><trkpt lat="35.613598" lon="139.1558861"><ele>169.39333333333335</ele><time>2024-03-02T03:38:11Z</time></trkpt><trkpt lat="35.6137612" lon="139.1557615"><ele>170.18</ele><time>2024-03-02T03:38:23Z</time></trkpt><trkpt lat="35.61393" lon="139.1556703"><ele>176.84333333333333</ele><time>2024-03-02T03:38:46Z</time></trkpt><trkpt lat="35.6141018" lon="139.1555565"><ele>185.26666666666668</ele><time>2024-03-02T03:38:59Z</time></trkpt><trkpt lat="35.6141873" lon="139.1553474"><ele>194.14666666666668</ele><time>2024-03-02T03:39:14Z</time></trkpt><trkpt lat="35.6142301" lon="139.1551258"><ele>196.68333333333337</ele><time>2024-03-02T03:39:27Z</time></trkpt><trkpt lat="35.6143121" lon="139.1549146"><ele>197.81000000000003</ele><time>2024-03-02T03:39:40Z</time></trkpt><trkpt lat="35.6144097" lon="139.1547237"><ele>199.1966666666667</ele><time>2024-03-02T03:39:54Z</time></trkpt><trkpt lat="35.614479" lon="139.1545183"><ele>201.8466666666667</ele><time>2024-03-02T03:40:09Z</time></trkpt><trkpt lat="35.614579" lon="139.1543309"><ele>204.02</ele><time>2024-03-02T03:40:23Z</time></trkpt><trkpt lat="35.6147054" lon="139.1541679"><ele>204.89</ele><time>2024-03-02T03:40:37Z</time></trkpt><trkpt lat="35.614888" lon="139.1541872"><ele>206.06000000000003</ele><time>2024-03-02T03:40:49Z</time></trkpt><trkpt lat="35.6150436" lon="139.1540726"><ele>207.76666666666668</ele><time>2024-03-02T03:41:01Z</time></trkpt><trkpt lat="35.6151365" lon="139.153871"><ele>209.47000000000003</ele><time>2024-03-02T03:41:12Z</time></trkpt><trkpt lat="35.6151322" lon="139.1536362"><ele>209.50666666666666</ele><time>2024-03-02T03:41:24Z</time></trkpt><trkpt lat="35.6152725" lon="139.1534595"><ele>209.2266666666667</ele><time>2024-03-02T03:43:06Z</time></trkpt><trkpt lat="35.6153569" lon="139.1532589"><ele>209.38666666666668</ele><time>2024-03-02T03:43:22Z</time></trkpt><trkpt lat="35.6153243" lon="139.1530353"><ele>210.06333333333336</ele><time>2024-03-02T03:43:30Z</time></trkpt><trkpt lat="35.6154195" lon="139.1528351"><ele>210.98333333333335</ele><time>2024-03-02T03:43:43Z</time></trkpt><trkpt lat="35.6156091" lon="139.1528636"><ele>212.47</ele><time>2024-03-02T03:43:58Z</time></trkpt><trkpt lat="35.6156562" lon="139.1526378"><ele>214.35</ele><time>2024-03-02T03:44:11Z</time></trkpt><trkpt lat="35.6156548" lon="139.1524027"><ele>215.76</ele><time>2024-03-02T03:44:23Z</time></trkpt><trkpt lat="35.6157934" lon="139.1522484"><ele>216.7266666666667</ele><time>2024-03-02T03:44:48Z</time></trkpt></trkseg></trk></gpx>