<?xml version='1.0' encoding='UTF-8'?><gpx creator="YAMAP - https://yamap.com" xsi:schemaLocation="http://www.topografix.com/GPX/1/1 http://www.topografix.com/GPX/1/1/gpx.xsd" version="1.1" xmlns="http://www.topografix.com/GPX/1/1" xmlns:xsi="http://www.w3.org/2001/XMLSchema-instance"><metadata><bounds maxlat="35.8299012" maxlon="139.0971206" minlat="35.7828943" minlon="139.0122866"/></metadata><trk><name>倉戸口から鷹ノ巣山、石尾根歩き</name><number>1</number><trkseg><trkpt lat="35.7839607" lon="139.0448978"><ele>530.0</ele><time>2024-05-04T22:43:29Z</time></trkpt><trkpt lat="35.7837564" lon="139.0449703"><ele>535.56</ele><time>2024-05-04T22:44:04Z</time></trkpt><trkpt lat="35.783685" lon="139.0452138"><ele>536.9066666666666</ele><time>2024-05-04T22:44:22Z</time></trkpt><trkpt lat="35.7836176" lon="139.0454427"><ele>540.8533333333334</ele><time>2024-05-04T22:44:40Z</time></trkpt><trkpt lat="35.7836076" lon="139.0456792"><ele>538.57</ele><time>2024-05-04T22:44:58Z</time></trkpt><trkpt lat="35.7834282" lon="139.0457287"><ele>539.6333333333333</ele><time>2024-05-04T22:45:13Z</time></trkpt><trkpt lat="35.7832656" lon="139.045543"><ele>544.82</ele><time>2024-05-04T22:45:31Z</time></trkpt><trkpt lat="35.7832402" lon="139.0452004"><ele>554.7633333333333</ele><time>2024-05-04T22:45:40Z</time></trkpt><trkpt lat="35.7831977" lon="139.0454167"><ele>561.0433333333334</ele><time>2024-05-04T22:45:47Z</time></trkpt><trkpt lat="35.7830226" lon="139.0455557"><ele>560.32</ele><time>2024-05-04T22:45:59Z</time></trkpt><trkpt lat="35.7828943" lon="139.0453892"><ele>557.75</ele><time>2024-05-04T22:46:35Z</time></trkpt><trkpt lat="35.7829022" lon="139.04516"><ele>554.9433333333333</ele><time>2024-05-04T22:46:56Z</time></trkpt><trkpt lat="35.7830461" lon="139.0449878"><ele>554.9166666666666</ele><time>2024-05-04T22:47:11Z</time></trkpt><trkpt lat="35.7832147" lon="139.0448682"><ele>555.5866666666667</ele><time>2024-05-04T22:47:25Z</time></trkpt><trkpt lat="35.7833532" lon="139.044691"><ele>557.7399999999999</ele><time>2024-05-04T22:47:44Z</time></trkpt><trkpt lat="35.7835136" lon="139.0445502"><ele>560.1333333333333</ele><time>2024-05-04T22:48:00Z</time></trkpt><trkpt lat="35.7836807" lon="139.0444402"><ele>560.4166666666666</ele><time>2024-05-04T22:48:15Z</time></trkpt><trkpt lat="35.7838253" lon="139.0442954"><ele>561.36</ele><time>2024-05-04T22:48:37Z</time></trkpt><trkpt lat="35.7839663" lon="139.0441457"><ele>563.2933333333334</ele><time>2024-05-04T22:48:49Z</time></trkpt><trkpt lat="35.7841791" lon="139.0440906"><ele>564.4033333333333</ele><time>2024-05-04T22:49:07Z</time></trkpt><trkpt lat="35.7843804" lon="139.0440317"><ele>563.8366666666667</ele><time>2024-05-04T22:49:22Z</time></trkpt><trkpt lat="35.7845286" lon="139.0438853"><ele>564.8066666666667</ele><time>2024-05-04T22:49:39Z</time></trkpt><trkpt lat="35.7846988" lon="139.0436983"><ele>571.9166666666666</ele><time>2024-05-04T22:49:55Z</time></trkpt><trkpt lat="35.7848908" lon="139.0436851"><ele>578.7633333333333</ele><time>2024-05-04T22:50:19Z</time></trkpt><trkpt lat="35.7850379" lon="139.0435172"><ele>582.7366666666667</ele><time>2024-05-04T22:50:34Z</time></trkpt><trkpt lat="35.7851407" lon="139.0433047"><ele>583.4000000000001</ele><time>2024-05-04T22:50:52Z</time></trkpt><trkpt lat="35.7852925" lon="139.0431523"><ele>583.8366666666667</ele><time>2024-05-04T22:51:07Z</time></trkpt><trkpt lat="35.7851205" lon="139.0432614"><ele>584.8166666666666</ele><time>2024-05-04T22:51:30Z</time></trkpt><trkpt lat="35.7849456" lon="139.0433961"><ele>587.0533333333333</ele><time>2024-05-04T22:51:45Z</time></trkpt><trkpt lat="35.7848257" lon="139.0432256"><ele>592.0300000000001</ele><time>2024-05-04T22:52:57Z</time></trkpt><trkpt lat="35.7848592" lon="139.0429614"><ele>597.1466666666666</ele><time>2024-05-04T22:53:15Z</time></trkpt><trkpt lat="35.7849106" lon="139.042739"><ele>600.7333333333332</ele><time>2024-05-04T22:53:33Z</time></trkpt><trkpt lat="35.7850046" lon="139.0425352"><ele>605.6866666666666</ele><time>2024-05-04T22:54:09Z</time></trkpt><trkpt lat="35.7851481" lon="139.0423806"><ele>609.6833333333333</ele><time>2024-05-04T22:54:33Z</time></trkpt><trkpt lat="35.7852204" lon="139.0421498"><ele>615.8633333333333</ele><time>2024-05-04T22:55:06Z</time></trkpt><trkpt lat="35.7853023" lon="139.0419285"><ele>620.7666666666668</ele><time>2024-05-04T22:55:27Z</time></trkpt><trkpt lat="35.7853366" lon="139.0416871"><ele>626.5933333333334</ele><time>2024-05-04T22:56:00Z</time></trkpt><trkpt lat="35.7854565" lon="139.0415112"><ele>629.68</ele><time>2024-05-04T22:56:15Z</time></trkpt><trkpt lat="35.7854996" lon="139.0412765"><ele>634.17</ele><time>2024-05-04T22:56:45Z</time></trkpt><trkpt lat="35.7855866" lon="139.041071"><ele>640.8366666666667</ele><time>2024-05-04T22:57:33Z</time></trkpt><trkpt lat="35.7857462" lon="139.0409601"><ele>648.7266666666668</ele><time>2024-05-04T22:58:42Z</time></trkpt><trkpt lat="35.7858722" lon="139.0407804"><ele>656.8766666666667</ele><time>2024-05-04T22:59:15Z</time></trkpt><trkpt lat="35.7859576" lon="139.0405681"><ele>664.2666666666668</ele><time>2024-05-04T23:00:03Z</time></trkpt><trkpt lat="35.7860888" lon="139.0404007"><ele>672.8866666666667</ele><time>2024-05-04T23:00:48Z</time></trkpt><trkpt lat="35.7862333" lon="139.0402402"><ele>680.2566666666668</ele><time>2024-05-04T23:01:18Z</time></trkpt><trkpt lat="35.7863839" lon="139.0400952"><ele>686.4233333333333</ele><time>2024-05-04T23:01:36Z</time></trkpt><trkpt lat="35.7865848" lon="139.0400504"><ele>688.6433333333334</ele><time>2024-05-04T23:01:51Z</time></trkpt><trkpt lat="35.7867593" lon="139.0399022"><ele>688.5500000000001</ele><time>2024-05-04T23:02:12Z</time></trkpt><trkpt lat="35.7868737" lon="139.0397302"><ele>688.68</ele><time>2024-05-04T23:02:33Z</time></trkpt><trkpt lat="35.7870351" lon="139.0396004"><ele>691.2999999999998</ele><time>2024-05-04T23:02:57Z</time></trkpt><trkpt lat="35.787157" lon="139.0393834"><ele>695.7633333333333</ele><time>2024-05-04T23:03:30Z</time></trkpt><trkpt lat="35.7872281" lon="139.0391778"><ele>701.88</ele><time>2024-05-04T23:03:49Z</time></trkpt><trkpt lat="35.7873753" lon="139.03905"><ele>706.25</ele><time>2024-05-04T23:04:07Z</time></trkpt><trkpt lat="35.7874937" lon="139.0388393"><ele>711.11</ele><time>2024-05-04T23:04:28Z</time></trkpt><trkpt lat="35.7875955" lon="139.0386567"><ele>714.16</ele><time>2024-05-04T23:05:13Z</time></trkpt><trkpt lat="35.7876316" lon="139.0384378"><ele>721.5433333333334</ele><time>2024-05-04T23:07:31Z</time></trkpt><trkpt lat="35.7876954" lon="139.0382282"><ele>733.5966666666667</ele><time>2024-05-04T23:09:04Z</time></trkpt><trkpt lat="35.78788" lon="139.0381638"><ele>745.0300000000001</ele><time>2024-05-04T23:10:13Z</time></trkpt><trkpt lat="35.7880167" lon="139.0380057"><ele>755.5266666666666</ele><time>2024-05-04T23:10:40Z</time></trkpt><trkpt lat="35.7881832" lon="139.0378709"><ele>763.3000000000001</ele><time>2024-05-04T23:11:41Z</time></trkpt><trkpt lat="35.7883609" lon="139.0377649"><ele>771.08</ele><time>2024-05-04T23:12:14Z</time></trkpt><trkpt lat="35.7884867" lon="139.0375975"><ele>777.52</ele><time>2024-05-04T23:12:47Z</time></trkpt><trkpt lat="35.7886438" lon="139.0374547"><ele>781.3866666666667</ele><time>2024-05-04T23:13:26Z</time></trkpt><trkpt lat="35.7887781" lon="139.0373015"><ele>789.0099999999999</ele><time>2024-05-04T23:14:08Z</time></trkpt><trkpt lat="35.78897" lon="139.0373254"><ele>793.0033333333334</ele><time>2024-05-04T23:14:35Z</time></trkpt><trkpt lat="35.7890654" lon="139.0371353"><ele>800.61</ele><time>2024-05-04T23:15:41Z</time></trkpt><trkpt lat="35.7892099" lon="139.0369881"><ele>806.9833333333332</ele><time>2024-05-04T23:16:26Z</time></trkpt><trkpt lat="35.7893352" lon="139.0368115"><ele>817.6033333333334</ele><time>2024-05-04T23:17:05Z</time></trkpt><trkpt lat="35.7894848" lon="139.0366606"><ele>824.1233333333333</ele><time>2024-05-04T23:17:32Z</time></trkpt><trkpt lat="35.7896934" lon="139.036672"><ele>830.7933333333334</ele><time>2024-05-04T23:18:02Z</time></trkpt><trkpt lat="35.7898732" lon="139.0366287"><ele>837.0433333333334</ele><time>2024-05-04T23:18:32Z</time></trkpt><trkpt lat="35.7900601" lon="139.036673"><ele>844.64</ele><time>2024-05-04T23:19:26Z</time></trkpt><trkpt lat="35.7902423" lon="139.0366285"><ele>850.3000000000001</ele><time>2024-05-04T23:20:32Z</time></trkpt><trkpt lat="35.790293" lon="139.0364097"><ele>857.6766666666666</ele><time>2024-05-04T23:21:08Z</time></trkpt><trkpt lat="35.7904623" lon="139.036323"><ele>865.3066666666667</ele><time>2024-05-04T23:22:32Z</time></trkpt><trkpt lat="35.7906504" lon="139.036312"><ele>873.1666666666666</ele><time>2024-05-04T23:23:26Z</time></trkpt><trkpt lat="35.7908259" lon="139.0362345"><ele>880.96</ele><time>2024-05-04T23:24:14Z</time></trkpt><trkpt lat="35.7910189" lon="139.0361612"><ele>890.17</ele><time>2024-05-04T23:25:09Z</time></trkpt><trkpt lat="35.7911858" lon="139.0362513"><ele>899.3266666666667</ele><time>2024-05-04T23:25:46Z</time></trkpt><trkpt lat="35.7913675" lon="139.0362159"><ele>907.3433333333334</ele><time>2024-05-04T23:27:11Z</time></trkpt><trkpt lat="35.7915461" lon="139.036181"><ele>912.8666666666668</ele><time>2024-05-04T23:28:11Z</time></trkpt><trkpt lat="35.7917052" lon="139.0360732"><ele>918.4000000000001</ele><time>2024-05-04T23:29:17Z</time></trkpt><trkpt lat="35.7918768" lon="139.0359577"><ele>924.39</ele><time>2024-05-04T23:30:02Z</time></trkpt><trkpt lat="35.7920523" lon="139.035891"><ele>931.2133333333335</ele><time>2024-05-04T23:30:53Z</time></trkpt><trkpt lat="35.79223" lon="139.0358211"><ele>938.3066666666667</ele><time>2024-05-04T23:31:20Z</time></trkpt><trkpt lat="35.7924106" lon="139.0357349"><ele>944.1233333333334</ele><time>2024-05-04T23:31:50Z</time></trkpt><trkpt lat="35.792521" lon="139.0355593"><ele>948.91</ele><time>2024-05-04T23:32:02Z</time></trkpt><trkpt lat="35.7927053" lon="139.0354918"><ele>952.6766666666667</ele><time>2024-05-04T23:32:41Z</time></trkpt><trkpt lat="35.7928097" lon="139.0352953"><ele>957.27</ele><time>2024-05-04T23:34:14Z</time></trkpt><trkpt lat="35.7929387" lon="139.0351387"><ele>965.2266666666666</ele><time>2024-05-04T23:35:14Z</time></trkpt><trkpt lat="35.7930483" lon="139.0349298"><ele>976.1233333333333</ele><time>2024-05-04T23:36:05Z</time></trkpt><trkpt lat="35.7931273" lon="139.0347222"><ele>986.7266666666668</ele><time>2024-05-04T23:36:58Z</time></trkpt><trkpt lat="35.793248" lon="139.0345222"><ele>994.4</ele><time>2024-05-04T23:37:37Z</time></trkpt><trkpt lat="35.7933663" lon="139.0343513"><ele>999.2400000000001</ele><time>2024-05-04T23:38:08Z</time></trkpt><trkpt lat="35.7934526" lon="139.0341569"><ele>1003.7666666666668</ele><time>2024-05-04T23:38:47Z</time></trkpt><trkpt lat="35.7935786" lon="139.0339565"><ele>1007.8733333333333</ele><time>2024-05-04T23:39:11Z</time></trkpt><trkpt lat="35.7936924" lon="139.0337761"><ele>1011.23</ele><time>2024-05-04T23:39:38Z</time></trkpt><trkpt lat="35.7937625" lon="139.0335548"><ele>1014.1766666666666</ele><time>2024-05-04T23:39:56Z</time></trkpt><trkpt lat="35.7938943" lon="139.0333666"><ele>1016.0266666666666</ele><time>2024-05-04T23:40:17Z</time></trkpt><trkpt lat="35.7939896" lon="139.0331598"><ele>1019.4500000000002</ele><time>2024-05-04T23:40:38Z</time></trkpt><trkpt lat="35.7940488" lon="139.0329441"><ele>1022.4266666666666</ele><time>2024-05-04T23:41:14Z</time></trkpt><trkpt lat="35.7941449" lon="139.0327537"><ele>1027.33</ele><time>2024-05-04T23:42:11Z</time></trkpt><trkpt lat="35.7942443" lon="139.0325512"><ele>1032.1866666666667</ele><time>2024-05-04T23:43:04Z</time></trkpt><trkpt lat="35.7943623" lon="139.0323834"><ele>1038.1733333333334</ele><time>2024-05-04T23:43:31Z</time></trkpt><trkpt lat="35.7944443" lon="139.0321737"><ele>1043.8666666666668</ele><time>2024-05-04T23:44:43Z</time></trkpt><trkpt lat="35.7945296" lon="139.0319783"><ele>1049.7433333333333</ele><time>2024-05-04T23:45:16Z</time></trkpt><trkpt lat="35.7945963" lon="139.0317527"><ele>1055.8666666666668</ele><time>2024-05-04T23:45:49Z</time></trkpt><trkpt lat="35.7946283" lon="139.0315175"><ele>1063.4166666666667</ele><time>2024-05-04T23:46:28Z</time></trkpt><trkpt lat="35.7945741" lon="139.0312982"><ele>1070.62</ele><time>2024-05-04T23:47:04Z</time></trkpt><trkpt lat="35.7944325" lon="139.0311602"><ele>1077.0533333333333</ele><time>2024-05-04T23:47:37Z</time></trkpt><trkpt lat="35.7942689" lon="139.0310258"><ele>1081.0166666666667</ele><time>2024-05-04T23:48:01Z</time></trkpt><trkpt lat="35.7943616" lon="139.0308313"><ele>1087.9633333333334</ele><time>2024-05-04T23:50:28Z</time></trkpt><trkpt lat="35.7945394" lon="139.0307557"><ele>1095.2866666666666</ele><time>2024-05-04T23:50:49Z</time></trkpt><trkpt lat="35.7945338" lon="139.030529"><ele>1104.84</ele><time>2024-05-04T23:51:34Z</time></trkpt><trkpt lat="35.7944085" lon="139.030367"><ele>1112.9233333333334</ele><time>2024-05-04T23:53:11Z</time></trkpt><trkpt lat="35.7942533" lon="139.0302228"><ele>1121.8033333333333</ele><time>2024-05-04T23:53:41Z</time></trkpt><trkpt lat="35.7941638" lon="139.0300198"><ele>1130.0433333333333</ele><time>2024-05-04T23:54:47Z</time></trkpt><trkpt lat="35.7940515" lon="139.0298441"><ele>1136.9633333333334</ele><time>2024-05-04T23:55:41Z</time></trkpt><trkpt lat="35.7940173" lon="139.0296187"><ele>1144.55</ele><time>2024-05-04T23:56:44Z</time></trkpt><trkpt lat="35.7939719" lon="139.0293983"><ele>1151.9766666666667</ele><time>2024-05-04T23:57:29Z</time></trkpt><trkpt lat="35.7939728" lon="139.0291578"><ele>1158.6766666666667</ele><time>2024-05-04T23:58:08Z</time></trkpt><trkpt lat="35.7941803" lon="139.0290981"><ele>1162.2666666666667</ele><time>2024-05-04T23:58:32Z</time></trkpt><trkpt lat="35.7943511" lon="139.0290131"><ele>1163.3866666666668</ele><time>2024-05-04T23:58:47Z</time></trkpt><trkpt lat="35.7945246" lon="139.0289373"><ele>1162.8400000000001</ele><time>2024-05-04T23:59:02Z</time></trkpt><trkpt lat="35.7947099" lon="139.0289889"><ele>1161.75</ele><time>2024-05-04T23:59:17Z</time></trkpt><trkpt lat="35.794889" lon="139.0289411"><ele>1160.8766666666668</ele><time>2024-05-04T23:59:35Z</time></trkpt><trkpt lat="35.7950599" lon="139.0287902"><ele>1160.67</ele><time>2024-05-04T23:59:59Z</time></trkpt><trkpt lat="35.7952549" lon="139.0287339"><ele>1160.32</ele><time>2024-05-05T00:00:26Z</time></trkpt><trkpt lat="35.7953817" lon="139.0285237"><ele>1160.5800000000002</ele><time>2024-05-05T00:00:41Z</time></trkpt><trkpt lat="35.7955538" lon="139.0284578"><ele>1160.6333333333332</ele><time>2024-05-05T00:00:59Z</time></trkpt><trkpt lat="35.7957556" lon="139.0284231"><ele>1161.3</ele><time>2024-05-05T00:01:20Z</time></trkpt><trkpt lat="35.7959116" lon="139.0283097"><ele>1162.1200000000001</ele><time>2024-05-05T00:01:38Z</time></trkpt><trkpt lat="35.7960536" lon="139.0281517"><ele>1164.3</ele><time>2024-05-05T00:02:14Z</time></trkpt><trkpt lat="35.7962305" lon="139.0280391"><ele>1167.5166666666667</ele><time>2024-05-05T00:02:44Z</time></trkpt><trkpt lat="35.7963934" lon="139.027927"><ele>1172.1066666666668</ele><time>2024-05-05T00:03:05Z</time></trkpt><trkpt lat="35.7965802" lon="139.0278552"><ele>1176.22</ele><time>2024-05-05T00:03:47Z</time></trkpt><trkpt lat="35.7967562" lon="139.02779"><ele>1179.2966666666669</ele><time>2024-05-05T00:04:11Z</time></trkpt><trkpt lat="35.7969255" lon="139.0276495"><ele>1181.4133333333336</ele><time>2024-05-05T00:04:26Z</time></trkpt><trkpt lat="35.7971115" lon="139.0276392"><ele>1182.2266666666667</ele><time>2024-05-05T00:05:03Z</time></trkpt><trkpt lat="35.7972862" lon="139.0275591"><ele>1183.9533333333334</ele><time>2024-05-05T00:05:36Z</time></trkpt><trkpt lat="35.7974978" lon="139.02761"><ele>1185.0833333333333</ele><time>2024-05-05T00:05:58Z</time></trkpt><trkpt lat="35.7976821" lon="139.0276231"><ele>1188.5900000000001</ele><time>2024-05-05T00:06:19Z</time></trkpt><trkpt lat="35.7978771" lon="139.0275993"><ele>1193.1633333333332</ele><time>2024-05-05T00:06:52Z</time></trkpt><trkpt lat="35.7980767" lon="139.0276039"><ele>1197.9866666666667</ele><time>2024-05-05T00:07:10Z</time></trkpt><trkpt lat="35.7982589" lon="139.0276294"><ele>1201.0633333333333</ele><time>2024-05-05T00:07:28Z</time></trkpt><trkpt lat="35.7984612" lon="139.0276188"><ele>1203.0</ele><time>2024-05-05T00:07:49Z</time></trkpt><trkpt lat="35.7986536" lon="139.0275544"><ele>1206.2366666666667</ele><time>2024-05-05T00:08:07Z</time></trkpt><trkpt lat="35.7988339" lon="139.0275772"><ele>1210.7833333333335</ele><time>2024-05-05T00:08:44Z</time></trkpt><trkpt lat="35.7990095" lon="139.0276352"><ele>1214.7900000000002</ele><time>2024-05-05T00:09:51Z</time></trkpt><trkpt lat="35.7991928" lon="139.0275318"><ele>1219.0233333333333</ele><time>2024-05-05T00:10:24Z</time></trkpt><trkpt lat="35.7993684" lon="139.0274642"><ele>1224.1266666666668</ele><time>2024-05-05T00:10:57Z</time></trkpt><trkpt lat="35.7995444" lon="139.0273987"><ele>1230.5666666666668</ele><time>2024-05-05T00:11:21Z</time></trkpt><trkpt lat="35.7997207" lon="139.0272834"><ele>1236.0566666666666</ele><time>2024-05-05T00:11:54Z</time></trkpt><trkpt lat="35.7999055" lon="139.0273866"><ele>1239.1666666666667</ele><time>2024-05-05T00:12:30Z</time></trkpt><trkpt lat="35.8000879" lon="139.0274599"><ele>1240.8266666666668</ele><time>2024-05-05T00:12:48Z</time></trkpt><trkpt lat="35.800259" lon="139.027569"><ele>1241.1333333333334</ele><time>2024-05-05T00:13:00Z</time></trkpt><trkpt lat="35.8004024" lon="139.0277635"><ele>1241.2966666666669</ele><time>2024-05-05T00:13:19Z</time></trkpt><trkpt lat="35.8005738" lon="139.0278398"><ele>1241.9366666666667</ele><time>2024-05-05T00:13:43Z</time></trkpt><trkpt lat="35.8007447" lon="139.0279831"><ele>1242.0366666666669</ele><time>2024-05-05T00:14:13Z</time></trkpt><trkpt lat="35.8009199" lon="139.0280848"><ele>1242.17</ele><time>2024-05-05T00:14:28Z</time></trkpt><trkpt lat="35.801093" lon="139.0281854"><ele>1240.5900000000001</ele><time>2024-05-05T00:14:43Z</time></trkpt><trkpt lat="35.8012977" lon="139.0281752"><ele>1238.8866666666665</ele><time>2024-05-05T00:15:01Z</time></trkpt><trkpt lat="35.8014844" lon="139.0281103"><ele>1238.0066666666667</ele><time>2024-05-05T00:15:16Z</time></trkpt><trkpt lat="35.8016682" lon="139.0280963"><ele>1237.3400000000001</ele><time>2024-05-05T00:15:31Z</time></trkpt><trkpt lat="35.8018459" lon="139.0280447"><ele>1236.6766666666665</ele><time>2024-05-05T00:15:46Z</time></trkpt><trkpt lat="35.8020297" lon="139.0279575"><ele>1236.7833333333335</ele><time>2024-05-05T00:16:07Z</time></trkpt><trkpt lat="35.8022188" lon="139.0279933"><ele>1238.3966666666668</ele><time>2024-05-05T00:16:22Z</time></trkpt><trkpt lat="35.8024129" lon="139.0280065"><ele>1241.7633333333333</ele><time>2024-05-05T00:17:04Z</time></trkpt><trkpt lat="35.8025967" lon="139.0280304"><ele>1245.0333333333335</ele><time>2024-05-05T00:17:46Z</time></trkpt><trkpt lat="35.8027579" lon="139.0279129"><ele>1250.38</ele><time>2024-05-05T00:18:07Z</time></trkpt><trkpt lat="35.8029338" lon="139.0279765"><ele>1254.5033333333333</ele><time>2024-05-05T00:18:23Z</time></trkpt><trkpt lat="35.8031122" lon="139.0279224"><ele>1258.1666666666667</ele><time>2024-05-05T00:18:50Z</time></trkpt><trkpt lat="35.8032639" lon="139.027762"><ele>1259.5933333333332</ele><time>2024-05-05T00:19:08Z</time></trkpt><trkpt lat="35.8034017" lon="139.0275801"><ele>1261.5466666666666</ele><time>2024-05-05T00:19:32Z</time></trkpt><trkpt lat="35.8035684" lon="139.0274622"><ele>1262.67</ele><time>2024-05-05T00:19:59Z</time></trkpt><trkpt lat="35.8037731" lon="139.0273904"><ele>1263.6766666666667</ele><time>2024-05-05T00:20:20Z</time></trkpt><trkpt lat="35.8039537" lon="139.0273506"><ele>1264.1366666666665</ele><time>2024-05-05T00:20:35Z</time></trkpt><trkpt lat="35.8041335" lon="139.0272568"><ele>1265.3</ele><time>2024-05-05T00:21:08Z</time></trkpt><trkpt lat="35.8043032" lon="139.0271505"><ele>1266.9766666666667</ele><time>2024-05-05T00:21:35Z</time></trkpt><trkpt lat="35.804463" lon="139.026962"><ele>1269.8533333333335</ele><time>2024-05-05T00:21:53Z</time></trkpt><trkpt lat="35.8046135" lon="139.0268256"><ele>1272.4833333333333</ele><time>2024-05-05T00:22:08Z</time></trkpt><trkpt lat="35.8047563" lon="139.0266785"><ele>1274.5866666666666</ele><time>2024-05-05T00:22:23Z</time></trkpt><trkpt lat="35.8048921" lon="139.0264808"><ele>1276.2766666666666</ele><time>2024-05-05T00:22:41Z</time></trkpt><trkpt lat="35.8050529" lon="139.0263744"><ele>1277.8333333333335</ele><time>2024-05-05T00:23:14Z</time></trkpt><trkpt lat="35.8050994" lon="139.0261249"><ele>1280.006666666667</ele><time>2024-05-05T00:23:39Z</time></trkpt><trkpt lat="35.8052325" lon="139.0259526"><ele>1283.3066666666666</ele><time>2024-05-05T00:23:57Z</time></trkpt><trkpt lat="35.8054134" lon="139.0259312"><ele>1286.5566666666666</ele><time>2024-05-05T00:24:27Z</time></trkpt><trkpt lat="35.8056149" lon="139.0259192"><ele>1288.2633333333333</ele><time>2024-05-05T00:25:33Z</time></trkpt><trkpt lat="35.805768" lon="139.0258008"><ele>1290.4833333333333</ele><time>2024-05-05T00:26:00Z</time></trkpt><trkpt lat="35.8058693" lon="139.025604"><ele>1294.8600000000001</ele><time>2024-05-05T00:26:36Z</time></trkpt><trkpt lat="35.8060724" lon="139.0256095"><ele>1300.48</ele><time>2024-05-05T00:28:03Z</time></trkpt><trkpt lat="35.8062197" lon="139.0254476"><ele>1307.3466666666666</ele><time>2024-05-05T00:28:30Z</time></trkpt><trkpt lat="35.8063764" lon="139.0253136"><ele>1314.15</ele><time>2024-05-05T00:29:28Z</time></trkpt><trkpt lat="35.8065021" lon="139.0251398"><ele>1323.1466666666668</ele><time>2024-05-05T00:30:13Z</time></trkpt><trkpt lat="35.806647" lon="139.0249852"><ele>1330.9399999999998</ele><time>2024-05-05T00:30:37Z</time></trkpt><trkpt lat="35.8067797" lon="139.0248293"><ele>1337.38</ele><time>2024-05-05T00:31:25Z</time></trkpt><trkpt lat="35.8069708" lon="139.0247047"><ele>1340.8433333333332</ele><time>2024-05-05T00:31:59Z</time></trkpt><trkpt lat="35.8071571" lon="139.0246687"><ele>1341.59</ele><time>2024-05-05T00:32:13Z</time></trkpt><trkpt lat="35.8073327" lon="139.0246156"><ele>1340.006666666667</ele><time>2024-05-05T00:32:31Z</time></trkpt><trkpt lat="35.8074296" lon="139.0243936"><ele>1339.75</ele><time>2024-05-05T00:32:46Z</time></trkpt><trkpt lat="35.8075571" lon="139.0242234"><ele>1339.5166666666667</ele><time>2024-05-05T00:33:10Z</time></trkpt><trkpt lat="35.8076613" lon="139.0240373"><ele>1340.6499999999999</ele><time>2024-05-05T00:33:31Z</time></trkpt><trkpt lat="35.807738" lon="139.0238332"><ele>1340.8100000000002</ele><time>2024-05-05T00:33:46Z</time></trkpt><trkpt lat="35.8078182" lon="139.0236176"><ele>1341.5466666666669</ele><time>2024-05-05T00:34:03Z</time></trkpt><trkpt lat="35.8079451" lon="139.0234577"><ele>1343.5133333333333</ele><time>2024-05-05T00:34:21Z</time></trkpt><trkpt lat="35.8080601" lon="139.0232257"><ele>1347.3133333333335</ele><time>2024-05-05T00:35:16Z</time></trkpt><trkpt lat="35.8081917" lon="139.0230483"><ele>1352.0733333333335</ele><time>2024-05-05T00:35:31Z</time></trkpt><trkpt lat="35.8082562" lon="139.022837"><ele>1357.7066666666667</ele><time>2024-05-05T00:36:25Z</time></trkpt><trkpt lat="35.8084329" lon="139.0227047"><ele>1364.77</ele><time>2024-05-05T00:37:37Z</time></trkpt><trkpt lat="35.8086154" lon="139.0226706"><ele>1371.2733333333333</ele><time>2024-05-05T00:38:38Z</time></trkpt><trkpt lat="35.8087443" lon="139.0224972"><ele>1380.5466666666664</ele><time>2024-05-05T00:39:47Z</time></trkpt><trkpt lat="35.8089111" lon="139.0223934"><ele>1389.8133333333335</ele><time>2024-05-05T00:41:14Z</time></trkpt><trkpt lat="35.809083" lon="139.0222569"><ele>1401.4899999999998</ele><time>2024-05-05T00:42:31Z</time></trkpt><trkpt lat="35.8091524" lon="139.022036"><ele>1411.3033333333333</ele><time>2024-05-05T00:42:57Z</time></trkpt><trkpt lat="35.8092334" lon="139.0218166"><ele>1420.3666666666666</ele><time>2024-05-05T00:43:44Z</time></trkpt><trkpt lat="35.8093411" lon="139.0216294"><ele>1427.3400000000001</ele><time>2024-05-05T00:44:11Z</time></trkpt><trkpt lat="35.8094023" lon="139.0214003"><ele>1431.8466666666666</ele><time>2024-05-05T00:44:35Z</time></trkpt><trkpt lat="35.8094977" lon="139.0211925"><ele>1434.676666666667</ele><time>2024-05-05T00:44:56Z</time></trkpt><trkpt lat="35.809599" lon="139.0209803"><ele>1437.5166666666667</ele><time>2024-05-05T00:45:20Z</time></trkpt><trkpt lat="35.8096485" lon="139.0207589"><ele>1440.9800000000002</ele><time>2024-05-05T00:45:47Z</time></trkpt><trkpt lat="35.8098193" lon="139.020672"><ele>1445.6733333333334</ele><time>2024-05-05T00:47:05Z</time></trkpt><trkpt lat="35.8099505" lon="139.0204937"><ele>1453.36</ele><time>2024-05-05T00:47:50Z</time></trkpt><trkpt lat="35.8101316" lon="139.0204893"><ele>1461.2466666666667</ele><time>2024-05-05T00:48:47Z</time></trkpt><trkpt lat="35.810303" lon="139.0206037"><ele>1467.1133333333335</ele><time>2024-05-05T00:50:32Z</time></trkpt><trkpt lat="35.8105056" lon="139.0205481"><ele>1471.41</ele><time>2024-05-05T00:50:59Z</time></trkpt><trkpt lat="35.8107024" lon="139.0205428"><ele>1475.0733333333335</ele><time>2024-05-05T00:51:23Z</time></trkpt><trkpt lat="35.8109081" lon="139.0205333"><ele>1479.6800000000003</ele><time>2024-05-05T00:51:47Z</time></trkpt><trkpt lat="35.8110995" lon="139.0204977"><ele>1481.7</ele><time>2024-05-05T00:52:17Z</time></trkpt><trkpt lat="35.8112821" lon="139.0204643"><ele>1481.9399999999998</ele><time>2024-05-05T00:52:35Z</time></trkpt><trkpt lat="35.811481" lon="139.0204989"><ele>1479.5233333333333</ele><time>2024-05-05T00:52:59Z</time></trkpt><trkpt lat="35.8116816" lon="139.0205773"><ele>1475.79</ele><time>2024-05-05T00:53:29Z</time></trkpt><trkpt lat="35.8118813" lon="139.0205711"><ele>1471.6433333333334</ele><time>2024-05-05T00:53:59Z</time></trkpt><trkpt lat="35.8120641" lon="139.0205905"><ele>1468.5966666666666</ele><time>2024-05-05T00:54:23Z</time></trkpt><trkpt lat="35.81225" lon="139.0206182"><ele>1466.2900000000002</ele><time>2024-05-05T00:54:44Z</time></trkpt><trkpt lat="35.8124359" lon="139.0206847"><ele>1464.3700000000001</ele><time>2024-05-05T00:55:17Z</time></trkpt><trkpt lat="35.8126274" lon="139.0207276"><ele>1462.9233333333334</ele><time>2024-05-05T00:55:35Z</time></trkpt><trkpt lat="35.8128151" lon="139.0207725"><ele>1462.0266666666666</ele><time>2024-05-05T00:55:56Z</time></trkpt><trkpt lat="35.8129917" lon="139.0208335"><ele>1462.1866666666665</ele><time>2024-05-05T00:56:07Z</time></trkpt><trkpt lat="35.813188" lon="139.0208399"><ele>1464.1000000000001</ele><time>2024-05-05T00:56:25Z</time></trkpt><trkpt lat="35.8133779" lon="139.0208945"><ele>1466.996666666667</ele><time>2024-05-05T00:56:56Z</time></trkpt><trkpt lat="35.8135591" lon="139.0208742"><ele>1469.66</ele><time>2024-05-05T00:57:17Z</time></trkpt><trkpt lat="35.813713" lon="139.0210299"><ele>1471.3466666666666</ele><time>2024-05-05T00:57:46Z</time></trkpt><trkpt lat="35.8138533" lon="139.0211885"><ele>1471.8933333333334</ele><time>2024-05-05T00:58:07Z</time></trkpt><trkpt lat="35.8140469" lon="139.0212757"><ele>1472.2</ele><time>2024-05-05T00:58:41Z</time></trkpt><trkpt lat="35.8142467" lon="139.0212866"><ele>1471.57</ele><time>2024-05-05T00:59:05Z</time></trkpt><trkpt lat="35.8144386" lon="139.0213374"><ele>1469.8500000000001</ele><time>2024-05-05T00:59:30Z</time></trkpt><trkpt lat="35.8146311" lon="139.0212392"><ele>1464.8266666666666</ele><time>2024-05-05T00:59:45Z</time></trkpt><trkpt lat="35.814816" lon="139.0212933"><ele>1458.8</ele><time>2024-05-05T01:00:18Z</time></trkpt><trkpt lat="35.8150312" lon="139.0213101"><ele>1451.1200000000001</ele><time>2024-05-05T01:00:39Z</time></trkpt><trkpt lat="35.815179" lon="139.0211629"><ele>1446.7233333333334</ele><time>2024-05-05T01:00:54Z</time></trkpt><trkpt lat="35.8153745" lon="139.0211353"><ele>1443.1533333333334</ele><time>2024-05-05T01:01:27Z</time></trkpt><trkpt lat="35.8155414" lon="139.02104"><ele>1442.8366666666668</ele><time>2024-05-05T01:01:42Z</time></trkpt><trkpt lat="35.8157266" lon="139.0209247"><ele>1442.5266666666666</ele><time>2024-05-05T01:02:06Z</time></trkpt><trkpt lat="35.81591" lon="139.0208679"><ele>1441.89</ele><time>2024-05-05T01:02:30Z</time></trkpt><trkpt lat="35.816071" lon="139.0207366"><ele>1439.3999999999999</ele><time>2024-05-05T01:02:59Z</time></trkpt><trkpt lat="35.8162525" lon="139.0208004"><ele>1440.5333333333335</ele><time>2024-05-05T01:03:48Z</time></trkpt><trkpt lat="35.8164485" lon="139.0208379"><ele>1445.9533333333336</ele><time>2024-05-05T01:04:46Z</time></trkpt><trkpt lat="35.8166261" lon="139.0209758"><ele>1454.2333333333333</ele><time>2024-05-05T01:05:43Z</time></trkpt><trkpt lat="35.8168274" lon="139.0209354"><ele>1459.4766666666667</ele><time>2024-05-05T01:06:07Z</time></trkpt><trkpt lat="35.8170045" lon="139.0208739"><ele>1460.9099999999999</ele><time>2024-05-05T01:06:40Z</time></trkpt><trkpt lat="35.8172001" lon="139.020736"><ele>1460.8333333333333</ele><time>2024-05-05T01:07:01Z</time></trkpt><trkpt lat="35.8173738" lon="139.0205899"><ele>1460.0233333333333</ele><time>2024-05-05T01:08:52Z</time></trkpt><trkpt lat="35.8175473" lon="139.0204614"><ele>1458.7</ele><time>2024-05-05T01:09:10Z</time></trkpt><trkpt lat="35.8177178" lon="139.0203875"><ele>1458.1533333333334</ele><time>2024-05-05T01:09:28Z</time></trkpt><trkpt lat="35.8178781" lon="139.0202407"><ele>1459.3033333333333</ele><time>2024-05-05T01:09:49Z</time></trkpt><trkpt lat="35.8180586" lon="139.0201944"><ele>1463.3</ele><time>2024-05-05T01:10:22Z</time></trkpt><trkpt lat="35.8181806" lon="139.0203704"><ele>1466.4166666666667</ele><time>2024-05-05T01:10:40Z</time></trkpt><trkpt lat="35.8182862" lon="139.0201736"><ele>1469.8766666666668</ele><time>2024-05-05T01:10:49Z</time></trkpt><trkpt lat="35.818481" lon="139.0201001"><ele>1471.6533333333334</ele><time>2024-05-05T01:11:19Z</time></trkpt><trkpt lat="35.8186702" lon="139.0200585"><ele>1474.1433333333334</ele><time>2024-05-05T01:11:52Z</time></trkpt><trkpt lat="35.8188652" lon="139.0200043"><ele>1476.22</ele><time>2024-05-05T01:12:16Z</time></trkpt><trkpt lat="35.8190407" lon="139.0199224"><ele>1479.46</ele><time>2024-05-05T01:12:25Z</time></trkpt><trkpt lat="35.8192151" lon="139.0198316"><ele>1484.92</ele><time>2024-05-05T01:13:16Z</time></trkpt><trkpt lat="35.8193761" lon="139.0197242"><ele>1491.0566666666666</ele><time>2024-05-05T01:15:16Z</time></trkpt><trkpt lat="35.8195663" lon="139.0196474"><ele>1498.4366666666665</ele><time>2024-05-05T01:16:01Z</time></trkpt><trkpt lat="35.8197586" lon="139.0196388"><ele>1505.4233333333334</ele><time>2024-05-05T01:16:58Z</time></trkpt><trkpt lat="35.8199432" lon="139.0196127"><ele>1513.8466666666666</ele><time>2024-05-05T01:18:10Z</time></trkpt><trkpt lat="35.8201104" lon="139.0195162"><ele>1521.92</ele><time>2024-05-05T01:18:52Z</time></trkpt><trkpt lat="35.8203107" lon="139.0194502"><ele>1529.17</ele><time>2024-05-05T01:19:31Z</time></trkpt><trkpt lat="35.8204634" lon="139.0193202"><ele>1535.18</ele><time>2024-05-05T01:19:55Z</time></trkpt><trkpt lat="35.8206271" lon="139.019413"><ele>1539.506666666667</ele><time>2024-05-05T01:20:43Z</time></trkpt><trkpt lat="35.8208078" lon="139.0193478"><ele>1544.43</ele><time>2024-05-05T01:21:27Z</time></trkpt><trkpt lat="35.8209989" lon="139.0193056"><ele>1548.6366666666665</ele><time>2024-05-05T01:22:27Z</time></trkpt><trkpt lat="35.8211914" lon="139.0192828"><ele>1553.9466666666667</ele><time>2024-05-05T01:23:03Z</time></trkpt><trkpt lat="35.8212993" lon="139.0191049"><ele>1560.5333333333335</ele><time>2024-05-05T01:23:39Z</time></trkpt><trkpt lat="35.8214862" lon="139.0190739"><ele>1568.0400000000002</ele><time>2024-05-05T01:25:03Z</time></trkpt><trkpt lat="35.8216933" lon="139.0190782"><ele>1575.4800000000002</ele><time>2024-05-05T01:25:18Z</time></trkpt><trkpt lat="35.8218825" lon="139.0190476"><ele>1580.3799999999999</ele><time>2024-05-05T01:25:36Z</time></trkpt><trkpt lat="35.8220651" lon="139.0189916"><ele>1584.71</ele><time>2024-05-05T01:26:06Z</time></trkpt><trkpt lat="35.8222782" lon="139.0190385"><ele>1586.7466666666667</ele><time>2024-05-05T01:26:24Z</time></trkpt><trkpt lat="35.8224489" lon="139.0189319"><ele>1590.2900000000002</ele><time>2024-05-05T01:26:57Z</time></trkpt><trkpt lat="35.8226277" lon="139.0188682"><ele>1593.9133333333332</ele><time>2024-05-05T01:27:22Z</time></trkpt><trkpt lat="35.822829" lon="139.0188884"><ele>1599.97</ele><time>2024-05-05T01:27:46Z</time></trkpt><trkpt lat="35.8230149" lon="139.0188609"><ele>1605.28</ele><time>2024-05-05T01:28:10Z</time></trkpt><trkpt lat="35.8231964" lon="139.0187885"><ele>1609.3833333333332</ele><time>2024-05-05T01:28:31Z</time></trkpt><trkpt lat="35.8233647" lon="139.01868"><ele>1611.3866666666665</ele><time>2024-05-05T01:28:55Z</time></trkpt><trkpt lat="35.8235318" lon="139.0185723"><ele>1611.9066666666668</ele><time>2024-05-05T01:29:10Z</time></trkpt><trkpt lat="35.8236202" lon="139.0183432"><ele>1611.4933333333336</ele><time>2024-05-05T01:29:28Z</time></trkpt><trkpt lat="35.8237655" lon="139.0181425"><ele>1610.8100000000002</ele><time>2024-05-05T01:29:46Z</time></trkpt><trkpt lat="35.8239439" lon="139.0179609"><ele>1610.3566666666666</ele><time>2024-05-05T01:30:01Z</time></trkpt><trkpt lat="35.8240923" lon="139.0178139"><ele>1610.0333333333335</ele><time>2024-05-05T01:30:19Z</time></trkpt><trkpt lat="35.8242609" lon="139.017725"><ele>1609.996666666667</ele><time>2024-05-05T01:30:43Z</time></trkpt><trkpt lat="35.8244011" lon="139.01758"><ele>1609.993333333333</ele><time>2024-05-05T01:30:58Z</time></trkpt><trkpt lat="35.824577" lon="139.0174842"><ele>1611.0533333333333</ele><time>2024-05-05T01:31:28Z</time></trkpt><trkpt lat="35.8247842" lon="139.0174285"><ele>1612.86</ele><time>2024-05-05T01:31:52Z</time></trkpt><trkpt lat="35.8249898" lon="139.0173909"><ele>1615.57</ele><time>2024-05-05T01:32:07Z</time></trkpt><trkpt lat="35.8251335" lon="139.0172236"><ele>1618.676666666667</ele><time>2024-05-05T01:32:46Z</time></trkpt><trkpt lat="35.8252873" lon="139.0170822"><ele>1622.9133333333332</ele><time>2024-05-05T01:33:06Z</time></trkpt><trkpt lat="35.825443" lon="139.0169466"><ele>1628.0900000000001</ele><time>2024-05-05T01:34:05Z</time></trkpt><trkpt lat="35.8256358" lon="139.0169073"><ele>1633.9866666666667</ele><time>2024-05-05T01:34:44Z</time></trkpt><trkpt lat="35.8258174" lon="139.0168723"><ele>1639.5566666666666</ele><time>2024-05-05T01:35:17Z</time></trkpt><trkpt lat="35.8260223" lon="139.0168398"><ele>1644.206666666667</ele><time>2024-05-05T01:35:38Z</time></trkpt><trkpt lat="35.8261942" lon="139.0167255"><ele>1648.0600000000002</ele><time>2024-05-05T01:35:56Z</time></trkpt><trkpt lat="35.8263667" lon="139.0165723"><ele>1649.5833333333333</ele><time>2024-05-05T01:36:11Z</time></trkpt><trkpt lat="35.8265568" lon="139.016495"><ele>1649.5600000000002</ele><time>2024-05-05T01:36:32Z</time></trkpt><trkpt lat="35.8266718" lon="139.0163039"><ele>1648.3366666666668</ele><time>2024-05-05T01:36:50Z</time></trkpt><trkpt lat="35.8268771" lon="139.0162276"><ele>1648.1333333333332</ele><time>2024-05-05T01:37:14Z</time></trkpt><trkpt lat="35.8270648" lon="139.0161567"><ele>1648.7466666666667</ele><time>2024-05-05T01:37:53Z</time></trkpt><trkpt lat="35.827236" lon="139.0160139"><ele>1649.7233333333334</ele><time>2024-05-05T01:38:08Z</time></trkpt><trkpt lat="35.8273436" lon="139.0157853"><ele>1650.3500000000001</ele><time>2024-05-05T01:38:26Z</time></trkpt><trkpt lat="35.8274795" lon="139.0156284"><ele>1650.45</ele><time>2024-05-05T01:38:47Z</time></trkpt><trkpt lat="35.8274903" lon="139.0154032"><ele>1649.8999999999999</ele><time>2024-05-05T01:38:59Z</time></trkpt><trkpt lat="35.827473" lon="139.0151664"><ele>1648.8233333333335</ele><time>2024-05-05T01:39:14Z</time></trkpt><trkpt lat="35.8273767" lon="139.0149761"><ele>1646.8333333333333</ele><time>2024-05-05T01:39:35Z</time></trkpt><trkpt lat="35.8275525" lon="139.0148586"><ele>1645.8433333333332</ele><time>2024-05-05T01:40:41Z</time></trkpt><trkpt lat="35.8276645" lon="139.0146832"><ele>1646.2733333333333</ele><time>2024-05-05T01:41:02Z</time></trkpt><trkpt lat="35.8277563" lon="139.0144766"><ele>1648.7833333333335</ele><time>2024-05-05T01:41:14Z</time></trkpt><trkpt lat="35.8278846" lon="139.0142804"><ele>1652.136666666667</ele><time>2024-05-05T01:41:32Z</time></trkpt><trkpt lat="35.8280682" lon="139.0142179"><ele>1655.4533333333336</ele><time>2024-05-05T01:41:59Z</time></trkpt><trkpt lat="35.8282236" lon="139.0140956"><ele>1659.5833333333333</ele><time>2024-05-05T01:43:11Z</time></trkpt><trkpt lat="35.828393" lon="139.0139785"><ele>1664.2533333333333</ele><time>2024-05-05T01:43:29Z</time></trkpt><trkpt lat="35.8286036" lon="139.013833"><ele>1669.6633333333332</ele><time>2024-05-05T01:43:50Z</time></trkpt><trkpt lat="35.8287611" lon="139.0137099"><ele>1674.4399999999998</ele><time>2024-05-05T01:44:02Z</time></trkpt><trkpt lat="35.8288735" lon="139.0135251"><ele>1678.93</ele><time>2024-05-05T01:44:45Z</time></trkpt><trkpt lat="35.8290329" lon="139.0133952"><ele>1683.8999999999999</ele><time>2024-05-05T01:45:24Z</time></trkpt><trkpt lat="35.8292181" lon="139.0133246"><ele>1689.86</ele><time>2024-05-05T01:46:36Z</time></trkpt><trkpt lat="35.8293566" lon="139.0131755"><ele>1697.26</ele><time>2024-05-05T01:47:06Z</time></trkpt><trkpt lat="35.8295196" lon="139.0130568"><ele>1705.24</ele><time>2024-05-05T01:48:06Z</time></trkpt><trkpt lat="35.8296903" lon="139.0129191"><ele>1713.3566666666666</ele><time>2024-05-05T01:48:39Z</time></trkpt><trkpt lat="35.8297442" lon="139.0126871"><ele>1720.2666666666667</ele><time>2024-05-05T01:49:21Z</time></trkpt><trkpt lat="35.8298658" lon="139.0125218"><ele>1726.1066666666668</ele><time>2024-05-05T01:49:48Z</time></trkpt><trkpt lat="35.8298714" lon="139.0122866"><ele>1730.74</ele><time>2024-05-05T01:50:57Z</time></trkpt><trkpt lat="35.8298437" lon="139.0125388"><ele>1732.2366666666667</ele><time>2024-05-05T02:03:51Z</time></trkpt><trkpt lat="35.8297144" lon="139.0127165"><ele>1730.6933333333334</ele><time>2024-05-05T02:05:18Z</time></trkpt><trkpt lat="35.8297595" lon="139.0124875"><ele>1729.6933333333334</ele><time>2024-05-05T02:05:36Z</time></trkpt><trkpt lat="35.8299012" lon="139.0126509"><ele>1729.1366666666665</ele><time>2024-05-05T02:10:02Z</time></trkpt><trkpt lat="35.829789" lon="139.0124482"><ele>1731.2266666666665</ele><time>2024-05-05T02:10:14Z</time></trkpt><trkpt lat="35.8296696" lon="139.0126474"><ele>1729.6266666666663</ele><time>2024-05-05T02:16:35Z</time></trkpt><trkpt lat="35.8295913" lon="139.0128618"><ele>1726.2666666666667</ele><time>2024-05-05T02:16:56Z</time></trkpt><trkpt lat="35.8294267" lon="139.013"><ele>1719.0833333333333</ele><time>2024-05-05T02:17:40Z</time></trkpt><trkpt lat="35.8293047" lon="139.0131681"><ele>1712.0866666666668</ele><time>2024-05-05T02:18:10Z</time></trkpt><trkpt lat="35.8291207" lon="139.0132352"><ele>1704.3966666666668</ele><time>2024-05-05T02:18:34Z</time></trkpt><trkpt lat="35.8289387" lon="139.013328"><ele>1695.93</ele><time>2024-05-05T02:19:00Z</time></trkpt><trkpt lat="35.8288288" lon="139.0135102"><ele>1688.53</ele><time>2024-05-05T02:19:12Z</time></trkpt><trkpt lat="35.828665" lon="139.0136805"><ele>1682.3400000000001</ele><time>2024-05-05T02:19:33Z</time></trkpt><trkpt lat="35.8285071" lon="139.0138221"><ele>1678.22</ele><time>2024-05-05T02:19:45Z</time></trkpt><trkpt lat="35.8283571" lon="139.0139993"><ele>1673.3333333333333</ele><time>2024-05-05T02:20:03Z</time></trkpt><trkpt lat="35.8281718" lon="139.0140744"><ele>1668.246666666667</ele><time>2024-05-05T02:20:20Z</time></trkpt><trkpt lat="35.828013" lon="139.0142189"><ele>1663.006666666667</ele><time>2024-05-05T02:20:43Z</time></trkpt><trkpt lat="35.8278216" lon="139.0143278"><ele>1658.22</ele><time>2024-05-05T02:20:58Z</time></trkpt><trkpt lat="35.8276853" lon="139.0144907"><ele>1654.4633333333331</ele><time>2024-05-05T02:21:10Z</time></trkpt><trkpt lat="35.8274855" lon="139.014591"><ele>1650.9866666666667</ele><time>2024-05-05T02:21:31Z</time></trkpt><trkpt lat="35.8273458" lon="139.0148148"><ele>1647.0599999999997</ele><time>2024-05-05T02:21:42Z</time></trkpt><trkpt lat="35.8273862" lon="139.0150426"><ele>1644.9733333333334</ele><time>2024-05-05T02:21:51Z</time></trkpt><trkpt lat="35.8273593" lon="139.0153043"><ele>1644.92</ele><time>2024-05-05T02:22:10Z</time></trkpt><trkpt lat="35.82725" lon="139.0155467"><ele>1646.9566666666667</ele><time>2024-05-05T02:22:23Z</time></trkpt><trkpt lat="35.8272203" lon="139.0157768"><ele>1648.8433333333335</ele><time>2024-05-05T02:22:38Z</time></trkpt><trkpt lat="35.8271617" lon="139.0160075"><ele>1650.05</ele><time>2024-05-05T02:22:56Z</time></trkpt><trkpt lat="35.8269614" lon="139.0161291"><ele>1650.17</ele><time>2024-05-05T02:23:11Z</time></trkpt><trkpt lat="35.826747" lon="139.0161324"><ele>1648.8366666666668</ele><time>2024-05-05T02:23:23Z</time></trkpt><trkpt lat="35.8265941" lon="139.0162777"><ele>1647.5033333333333</ele><time>2024-05-05T02:23:38Z</time></trkpt><trkpt lat="35.8264229" lon="139.0164025"><ele>1646.1933333333334</ele><time>2024-05-05T02:23:53Z</time></trkpt><trkpt lat="35.8262698" lon="139.0165898"><ele>1647.18</ele><time>2024-05-05T02:24:14Z</time></trkpt><trkpt lat="35.8260941" lon="139.016745"><ele>1648.0900000000001</ele><time>2024-05-05T02:24:29Z</time></trkpt><trkpt lat="35.8259094" lon="139.0166489"><ele>1648.2066666666667</ele><time>2024-05-05T02:24:38Z</time></trkpt><trkpt lat="35.8257223" lon="139.0167713"><ele>1645.6466666666668</ele><time>2024-05-05T02:24:53Z</time></trkpt><trkpt lat="35.8255282" lon="139.0168665"><ele>1641.1833333333334</ele><time>2024-05-05T02:25:11Z</time></trkpt><trkpt lat="35.825335" lon="139.0169652"><ele>1636.4466666666667</ele><time>2024-05-05T02:25:29Z</time></trkpt><trkpt lat="35.8251498" lon="139.017023"><ele>1630.6233333333332</ele><time>2024-05-05T02:25:44Z</time></trkpt><trkpt lat="35.8250226" lon="139.0172394"><ele>1625.2733333333333</ele><time>2024-05-05T02:26:01Z</time></trkpt><trkpt lat="35.8248784" lon="139.0173896"><ele>1620.2666666666664</ele><time>2024-05-05T02:26:16Z</time></trkpt><trkpt lat="35.8247225" lon="139.017517"><ele>1616.89</ele><time>2024-05-05T02:26:31Z</time></trkpt><trkpt lat="35.8245228" lon="139.0174622"><ele>1613.8300000000002</ele><time>2024-05-05T02:26:46Z</time></trkpt><trkpt lat="35.824372" lon="139.0176658"><ele>1612.03</ele><time>2024-05-05T02:27:01Z</time></trkpt><trkpt lat="35.8242764" lon="139.0178618"><ele>1611.0733333333335</ele><time>2024-05-05T02:27:20Z</time></trkpt><trkpt lat="35.8240933" lon="139.0179832"><ele>1611.18</ele><time>2024-05-05T02:27:35Z</time></trkpt><trkpt lat="35.8239724" lon="139.0181675"><ele>1611.3400000000001</ele><time>2024-05-05T02:27:47Z</time></trkpt><trkpt lat="35.8238113" lon="139.0183114"><ele>1611.5233333333333</ele><time>2024-05-05T02:27:59Z</time></trkpt><trkpt lat="35.8236731" lon="139.0184567"><ele>1612.07</ele><time>2024-05-05T02:28:11Z</time></trkpt><trkpt lat="35.8236346" lon="139.0186847"><ele>1613.5</ele><time>2024-05-05T02:28:23Z</time></trkpt><trkpt lat="35.8235296" lon="139.0188668"><ele>1615.5766666666666</ele><time>2024-05-05T02:28:41Z</time></trkpt><trkpt lat="35.823511" lon="139.0191182"><ele>1616.8100000000002</ele><time>2024-05-05T02:28:59Z</time></trkpt><trkpt lat="35.8234733" lon="139.0193649"><ele>1616.3366666666668</ele><time>2024-05-05T02:29:26Z</time></trkpt><trkpt lat="35.8234274" lon="139.019579"><ele>1613.3466666666666</ele><time>2024-05-05T02:29:41Z</time></trkpt><trkpt lat="35.823457" lon="139.0198436"><ele>1610.6866666666667</ele><time>2024-05-05T02:29:56Z</time></trkpt><trkpt lat="35.8234848" lon="139.0200827"><ele>1606.7133333333334</ele><time>2024-05-05T02:30:08Z</time></trkpt><trkpt lat="35.8235476" lon="139.0203226"><ele>1600.5866666666668</ele><time>2024-05-05T02:30:23Z</time></trkpt><trkpt lat="35.8237026" lon="139.0205007"><ele>1592.243333333333</ele><time>2024-05-05T02:30:47Z</time></trkpt><trkpt lat="35.8237945" lon="139.0207074"><ele>1583.2</ele><time>2024-05-05T02:31:05Z</time></trkpt><trkpt lat="35.8238463" lon="139.020936"><ele>1574.3433333333335</ele><time>2024-05-05T02:31:32Z</time></trkpt><trkpt lat="35.823982" lon="139.021115"><ele>1566.22</ele><time>2024-05-05T02:32:05Z</time></trkpt><trkpt lat="35.8239917" lon="139.0213529"><ele>1558.8633333333335</ele><time>2024-05-05T02:32:24Z</time></trkpt><trkpt lat="35.8240367" lon="139.0215678"><ele>1554.1466666666668</ele><time>2024-05-05T02:32:39Z</time></trkpt><trkpt lat="35.824048" lon="139.0218146"><ele>1549.506666666667</ele><time>2024-05-05T02:32:51Z</time></trkpt><trkpt lat="35.8241203" lon="139.022059"><ele>1545.1466666666668</ele><time>2024-05-05T02:33:09Z</time></trkpt><trkpt lat="35.824202" lon="139.0222687"><ele>1540.3700000000001</ele><time>2024-05-05T02:33:42Z</time></trkpt><trkpt lat="35.8240808" lon="139.0224978"><ele>1535.7133333333334</ele><time>2024-05-05T02:33:57Z</time></trkpt><trkpt lat="35.8239969" lon="139.0227222"><ele>1531.0333333333335</ele><time>2024-05-05T02:34:09Z</time></trkpt><trkpt lat="35.8239266" lon="139.0229436"><ele>1526.8966666666668</ele><time>2024-05-05T02:34:24Z</time></trkpt><trkpt lat="35.8238783" lon="139.0231664"><ele>1523.6133333333335</ele><time>2024-05-05T02:34:42Z</time></trkpt><trkpt lat="35.823846" lon="139.0233939"><ele>1520.9233333333334</ele><time>2024-05-05T02:34:54Z</time></trkpt><trkpt lat="35.8237585" lon="139.0235887"><ele>1518.216666666667</ele><time>2024-05-05T02:35:06Z</time></trkpt><trkpt lat="35.8237229" lon="139.0238393"><ele>1515.14</ele><time>2024-05-05T02:35:18Z</time></trkpt><trkpt lat="35.8236812" lon="139.024067"><ele>1513.2600000000002</ele><time>2024-05-05T02:35:30Z</time></trkpt><trkpt lat="35.8236101" lon="139.0243482"><ele>1511.8366666666668</ele><time>2024-05-05T02:35:51Z</time></trkpt><trkpt lat="35.8235501" lon="139.0245927"><ele>1511.9933333333336</ele><time>2024-05-05T02:36:09Z</time></trkpt><trkpt lat="35.8235392" lon="139.0248351"><ele>1513.24</ele><time>2024-05-05T02:36:24Z</time></trkpt><trkpt lat="35.823668" lon="139.0250138"><ele>1516.38</ele><time>2024-05-05T02:36:36Z</time></trkpt><trkpt lat="35.8236708" lon="139.0252947"><ele>1518.8033333333333</ele><time>2024-05-05T02:36:55Z</time></trkpt><trkpt lat="35.823638" lon="139.0255556"><ele>1518.9866666666667</ele><time>2024-05-05T02:37:11Z</time></trkpt><trkpt lat="35.8235909" lon="139.0257888"><ele>1517.2833333333335</ele><time>2024-05-05T02:37:32Z</time></trkpt><trkpt lat="35.8235541" lon="139.0260297"><ele>1514.0366666666666</ele><time>2024-05-05T02:37:50Z</time></trkpt><trkpt lat="35.8236868" lon="139.0262407"><ele>1512.4800000000002</ele><time>2024-05-05T02:38:02Z</time></trkpt><trkpt lat="35.8237472" lon="139.0264574"><ele>1511.5533333333333</ele><time>2024-05-05T02:38:14Z</time></trkpt><trkpt lat="35.8237697" lon="139.026701"><ele>1512.006666666667</ele><time>2024-05-05T02:38:29Z</time></trkpt><trkpt lat="35.8238014" lon="139.0269439"><ele>1511.5866666666668</ele><time>2024-05-05T02:38:47Z</time></trkpt><trkpt lat="35.8238365" lon="139.0271693"><ele>1510.5966666666666</ele><time>2024-05-05T02:38:59Z</time></trkpt><trkpt lat="35.8238052" lon="139.0274183"><ele>1510.1000000000001</ele><time>2024-05-05T02:39:14Z</time></trkpt><trkpt lat="35.8237286" lon="139.0276253"><ele>1509.9966666666667</ele><time>2024-05-05T02:39:29Z</time></trkpt><trkpt lat="35.8236593" lon="139.0278438"><ele>1510.36</ele><time>2024-05-05T02:39:50Z</time></trkpt><trkpt lat="35.8237519" lon="139.0280407"><ele>1510.216666666667</ele><time>2024-05-05T02:40:08Z</time></trkpt><trkpt lat="35.8239124" lon="139.0281834"><ele>1510.2866666666666</ele><time>2024-05-05T02:40:26Z</time></trkpt><trkpt lat="35.8240373" lon="139.0283658"><ele>1510.7933333333333</ele><time>2024-05-05T02:40:41Z</time></trkpt><trkpt lat="35.8241787" lon="139.0285261"><ele>1512.5033333333333</ele><time>2024-05-05T02:41:01Z</time></trkpt><trkpt lat="35.8242001" lon="139.0287643"><ele>1513.49</ele><time>2024-05-05T02:41:14Z</time></trkpt><trkpt lat="35.824157" lon="139.0289935"><ele>1513.7766666666666</ele><time>2024-05-05T02:41:32Z</time></trkpt><trkpt lat="35.8241686" lon="139.0292194"><ele>1513.8633333333335</ele><time>2024-05-05T02:41:50Z</time></trkpt><trkpt lat="35.8241229" lon="139.0294498"><ele>1515.0200000000002</ele><time>2024-05-05T02:42:17Z</time></trkpt><trkpt lat="35.8240569" lon="139.0296581"><ele>1516.2699999999998</ele><time>2024-05-05T02:42:35Z</time></trkpt><trkpt lat="35.8240925" lon="139.0298814"><ele>1518.0666666666668</ele><time>2024-05-05T02:42:50Z</time></trkpt><trkpt lat="35.8241194" lon="139.0301258"><ele>1518.66</ele><time>2024-05-05T02:43:08Z</time></trkpt><trkpt lat="35.8241917" lon="139.0303649"><ele>1519.4033333333334</ele><time>2024-05-05T02:43:26Z</time></trkpt><trkpt lat="35.8242657" lon="139.0305719"><ele>1518.2300000000002</ele><time>2024-05-05T02:43:44Z</time></trkpt><trkpt lat="35.8241801" lon="139.0307735"><ele>1515.5166666666667</ele><time>2024-05-05T02:44:05Z</time></trkpt><trkpt lat="35.8241037" lon="139.0309771"><ele>1511.1966666666667</ele><time>2024-05-05T02:44:23Z</time></trkpt><trkpt lat="35.8239948" lon="139.0311551"><ele>1506.506666666667</ele><time>2024-05-05T02:44:41Z</time></trkpt><trkpt lat="35.823919" lon="139.0313794"><ele>1503.4866666666667</ele><time>2024-05-05T02:45:05Z</time></trkpt><trkpt lat="35.8239041" lon="139.03162"><ele>1501.38</ele><time>2024-05-05T02:45:20Z</time></trkpt><trkpt lat="35.8240284" lon="139.0318013"><ele>1500.746666666667</ele><time>2024-05-05T02:45:38Z</time></trkpt><trkpt lat="35.8241417" lon="139.0319755"><ele>1499.8866666666665</ele><time>2024-05-05T02:45:59Z</time></trkpt><trkpt lat="35.8242182" lon="139.0322127"><ele>1498.0466666666669</ele><time>2024-05-05T02:46:11Z</time></trkpt><trkpt lat="35.8243359" lon="139.0324257"><ele>1495.01</ele><time>2024-05-05T02:46:26Z</time></trkpt><trkpt lat="35.8243355" lon="139.0326731"><ele>1492.3566666666666</ele><time>2024-05-05T02:46:44Z</time></trkpt><trkpt lat="35.8243797" lon="139.0329341"><ele>1491.59</ele><time>2024-05-05T02:47:05Z</time></trkpt><trkpt lat="35.8242485" lon="139.0330903"><ele>1490.6599999999999</ele><time>2024-05-05T02:48:26Z</time></trkpt><trkpt lat="35.8240562" lon="139.0330956"><ele>1486.2666666666667</ele><time>2024-05-05T02:50:02Z</time></trkpt><trkpt lat="35.823895" lon="139.0332461"><ele>1477.6599999999999</ele><time>2024-05-05T02:51:20Z</time></trkpt><trkpt lat="35.8237512" lon="139.0333922"><ele>1468.2466666666667</ele><time>2024-05-05T02:51:38Z</time></trkpt><trkpt lat="35.8236309" lon="139.0335759"><ele>1461.7633333333333</ele><time>2024-05-05T02:51:59Z</time></trkpt><trkpt lat="35.8235503" lon="139.0337933"><ele>1457.96</ele><time>2024-05-05T02:52:14Z</time></trkpt><trkpt lat="35.8234225" lon="139.0339755"><ele>1456.006666666667</ele><time>2024-05-05T02:52:35Z</time></trkpt><trkpt lat="35.8233382" lon="139.0342112"><ele>1454.4266666666665</ele><time>2024-05-05T02:52:51Z</time></trkpt><trkpt lat="35.8232378" lon="139.0344293"><ele>1453.1566666666668</ele><time>2024-05-05T02:53:13Z</time></trkpt><trkpt lat="35.8231554" lon="139.0346305"><ele>1451.5033333333333</ele><time>2024-05-05T02:53:29Z</time></trkpt><trkpt lat="35.8230666" lon="139.0348354"><ele>1450.5133333333333</ele><time>2024-05-05T02:53:44Z</time></trkpt><trkpt lat="35.8229818" lon="139.0350626"><ele>1450.1133333333335</ele><time>2024-05-05T02:54:02Z</time></trkpt><trkpt lat="35.8228686" lon="139.0352483"><ele>1449.71</ele><time>2024-05-05T02:54:14Z</time></trkpt><trkpt lat="35.8227389" lon="139.0354027"><ele>1447.7733333333333</ele><time>2024-05-05T02:54:29Z</time></trkpt><trkpt lat="35.8225967" lon="139.0355583"><ele>1445.6233333333332</ele><time>2024-05-05T02:54:50Z</time></trkpt><trkpt lat="35.8224924" lon="139.0357735"><ele>1443.5266666666666</ele><time>2024-05-05T02:55:05Z</time></trkpt><trkpt lat="35.8223343" lon="139.0358988"><ele>1442.0466666666664</ele><time>2024-05-05T02:55:17Z</time></trkpt><trkpt lat="35.8222757" lon="139.0361129"><ele>1441.9166666666667</ele><time>2024-05-05T02:55:32Z</time></trkpt><trkpt lat="35.8222382" lon="139.0363626"><ele>1439.87</ele><time>2024-05-05T02:55:48Z</time></trkpt><trkpt lat="35.8222861" lon="139.0365908"><ele>1437.7666666666664</ele><time>2024-05-05T02:56:03Z</time></trkpt><trkpt lat="35.8221913" lon="139.0368183"><ele>1430.8633333333335</ele><time>2024-05-05T02:56:25Z</time></trkpt><trkpt lat="35.822108" lon="139.0370516"><ele>1425.6466666666668</ele><time>2024-05-05T02:56:43Z</time></trkpt><trkpt lat="35.8220437" lon="139.0372741"><ele>1421.29</ele><time>2024-05-05T02:57:05Z</time></trkpt><trkpt lat="35.8218596" lon="139.0373656"><ele>1419.1866666666667</ele><time>2024-05-05T02:57:25Z</time></trkpt><trkpt lat="35.821792" lon="139.0376286"><ele>1418.0233333333333</ele><time>2024-05-05T02:57:40Z</time></trkpt><trkpt lat="35.8216832" lon="139.0378242"><ele>1416.4233333333334</ele><time>2024-05-05T02:57:55Z</time></trkpt><trkpt lat="35.8215595" lon="139.0380061"><ele>1417.0100000000002</ele><time>2024-05-05T02:58:13Z</time></trkpt><trkpt lat="35.8213664" lon="139.038127"><ele>1417.2833333333335</ele><time>2024-05-05T02:58:31Z</time></trkpt><trkpt lat="35.8212489" lon="139.0382967"><ele>1418.2566666666664</ele><time>2024-05-05T02:58:46Z</time></trkpt><trkpt lat="35.8211481" lon="139.038499"><ele>1417.2466666666667</ele><time>2024-05-05T02:59:01Z</time></trkpt><trkpt lat="35.8210891" lon="139.0387084"><ele>1417.2166666666665</ele><time>2024-05-05T02:59:19Z</time></trkpt><trkpt lat="35.8210106" lon="139.0389138"><ele>1416.3266666666666</ele><time>2024-05-05T02:59:34Z</time></trkpt><trkpt lat="35.8209195" lon="139.0391251"><ele>1418.4766666666667</ele><time>2024-05-05T02:59:52Z</time></trkpt><trkpt lat="35.8208018" lon="139.0392979"><ele>1419.0200000000002</ele><time>2024-05-05T03:00:10Z</time></trkpt><trkpt lat="35.8206549" lon="139.0394828"><ele>1419.7633333333333</ele><time>2024-05-05T03:00:22Z</time></trkpt><trkpt lat="35.8205354" lon="139.0397084"><ele>1420.0100000000002</ele><time>2024-05-05T03:00:37Z</time></trkpt><trkpt lat="35.8203901" lon="139.0399005"><ele>1420.6733333333334</ele><time>2024-05-05T03:00:52Z</time></trkpt><trkpt lat="35.8202166" lon="139.0400394"><ele>1421.3266666666668</ele><time>2024-05-05T03:01:08Z</time></trkpt><trkpt lat="35.8200365" lon="139.0401662"><ele>1421.2066666666667</ele><time>2024-05-05T03:01:23Z</time></trkpt><trkpt lat="35.8198923" lon="139.0403247"><ele>1420.993333333333</ele><time>2024-05-05T03:01:41Z</time></trkpt><trkpt lat="35.8199621" lon="139.0405675"><ele>1421.0166666666667</ele><time>2024-05-05T03:01:57Z</time></trkpt><trkpt lat="35.8201114" lon="139.0407326"><ele>1420.9800000000002</ele><time>2024-05-05T03:02:22Z</time></trkpt><trkpt lat="35.8202921" lon="139.0408893"><ele>1420.3266666666666</ele><time>2024-05-05T03:02:40Z</time></trkpt><trkpt lat="35.8201035" lon="139.0410021"><ele>1417.3866666666665</ele><time>2024-05-05T03:03:04Z</time></trkpt><trkpt lat="35.819908" lon="139.0410485"><ele>1413.68</ele><time>2024-05-05T03:03:22Z</time></trkpt><trkpt lat="35.8201037" lon="139.0411418"><ele>1409.8166666666666</ele><time>2024-05-05T03:03:46Z</time></trkpt><trkpt lat="35.8202409" lon="139.0413314"><ele>1405.5266666666666</ele><time>2024-05-05T03:03:58Z</time></trkpt><trkpt lat="35.8204434" lon="139.0414061"><ele>1400.99</ele><time>2024-05-05T03:04:13Z</time></trkpt><trkpt lat="35.8202632" lon="139.0415077"><ele>1396.1666666666667</ele><time>2024-05-05T03:04:31Z</time></trkpt><trkpt lat="35.8200576" lon="139.041627"><ele>1391.4766666666667</ele><time>2024-05-05T03:04:46Z</time></trkpt><trkpt lat="35.8199289" lon="139.0417885"><ele>1386.6266666666668</ele><time>2024-05-05T03:04:58Z</time></trkpt><trkpt lat="35.8197863" lon="139.0419556"><ele>1385.3833333333332</ele><time>2024-05-05T03:05:13Z</time></trkpt><trkpt lat="35.8197036" lon="139.0421765"><ele>1388.5733333333335</ele><time>2024-05-05T03:05:31Z</time></trkpt><trkpt lat="35.8196674" lon="139.0423954"><ele>1394.6833333333334</ele><time>2024-05-05T03:05:46Z</time></trkpt><trkpt lat="35.8195927" lon="139.0426047"><ele>1399.8433333333335</ele><time>2024-05-05T03:06:10Z</time></trkpt><trkpt lat="35.8195252" lon="139.0428154"><ele>1404.2933333333333</ele><time>2024-05-05T03:06:30Z</time></trkpt><trkpt lat="35.8194512" lon="139.0430174"><ele>1407.0433333333333</ele><time>2024-05-05T03:07:01Z</time></trkpt><trkpt lat="35.8193275" lon="139.0432206"><ele>1409.21</ele><time>2024-05-05T03:07:21Z</time></trkpt><trkpt lat="35.8191819" lon="139.0433621"><ele>1410.9800000000002</ele><time>2024-05-05T03:07:38Z</time></trkpt><trkpt lat="35.8190414" lon="139.0435564"><ele>1413.3066666666666</ele><time>2024-05-05T03:07:56Z</time></trkpt><trkpt lat="35.81899" lon="139.043769"><ele>1414.0666666666666</ele><time>2024-05-05T03:08:11Z</time></trkpt><trkpt lat="35.8189034" lon="139.0440015"><ele>1414.2133333333334</ele><time>2024-05-05T03:08:29Z</time></trkpt><trkpt lat="35.8188559" lon="139.0442307"><ele>1414.9433333333334</ele><time>2024-05-05T03:08:47Z</time></trkpt><trkpt lat="35.8188336" lon="139.0444647"><ele>1417.256666666667</ele><time>2024-05-05T03:09:05Z</time></trkpt><trkpt lat="35.8188231" lon="139.0446877"><ele>1419.4033333333334</ele><time>2024-05-05T03:09:42Z</time></trkpt><trkpt lat="35.8187709" lon="139.0449226"><ele>1421.67</ele><time>2024-05-05T03:10:14Z</time></trkpt><trkpt lat="35.8187518" lon="139.0451711"><ele>1423.2966666666664</ele><time>2024-05-05T03:10:50Z</time></trkpt><trkpt lat="35.8186892" lon="139.0454131"><ele>1427.0366666666669</ele><time>2024-05-05T03:11:11Z</time></trkpt><trkpt lat="35.818654" lon="139.0456316"><ele>1429.6333333333332</ele><time>2024-05-05T03:11:41Z</time></trkpt><trkpt lat="35.8185703" lon="139.0458392"><ele>1433.32</ele><time>2024-05-05T03:12:08Z</time></trkpt><trkpt lat="35.8184829" lon="139.0460537"><ele>1435.5900000000001</ele><time>2024-05-05T03:12:23Z</time></trkpt><trkpt lat="35.8183676" lon="139.0462425"><ele>1438.6066666666666</ele><time>2024-05-05T03:12:44Z</time></trkpt><trkpt lat="35.8182432" lon="139.0464054"><ele>1439.8933333333334</ele><time>2024-05-05T03:13:02Z</time></trkpt><trkpt lat="35.8180997" lon="139.0465467"><ele>1442.38</ele><time>2024-05-05T03:13:20Z</time></trkpt><trkpt lat="35.8180604" lon="139.0467852"><ele>1444.7633333333333</ele><time>2024-05-05T03:13:44Z</time></trkpt><trkpt lat="35.8180894" lon="139.0470136"><ele>1448.7433333333336</ele><time>2024-05-05T03:14:11Z</time></trkpt><trkpt lat="35.8180306" lon="139.0472682"><ele>1450.6200000000001</ele><time>2024-05-05T03:14:32Z</time></trkpt><trkpt lat="35.8180258" lon="139.0474906"><ele>1450.5666666666668</ele><time>2024-05-05T03:14:47Z</time></trkpt><trkpt lat="35.8179921" lon="139.0477261"><ele>1448.67</ele><time>2024-05-05T03:15:02Z</time></trkpt><trkpt lat="35.817887" lon="139.0475149"><ele>1448.95</ele><time>2024-05-05T03:16:23Z</time></trkpt><trkpt lat="35.8177682" lon="139.0473416"><ele>1452.2533333333333</ele><time>2024-05-05T03:17:02Z</time></trkpt><trkpt lat="35.8176576" lon="139.0471509"><ele>1457.5233333333333</ele><time>2024-05-05T03:17:35Z</time></trkpt><trkpt lat="35.8175336" lon="139.0469531"><ele>1462.8933333333334</ele><time>2024-05-05T03:18:08Z</time></trkpt><trkpt lat="35.8174457" lon="139.0467519"><ele>1467.6633333333332</ele><time>2024-05-05T03:18:32Z</time></trkpt><trkpt lat="35.8172598" lon="139.0466753"><ele>1471.37</ele><time>2024-05-05T03:18:50Z</time></trkpt><trkpt lat="35.8172073" lon="139.0464634"><ele>1473.4633333333331</ele><time>2024-05-05T03:20:23Z</time></trkpt><trkpt lat="35.8172477" lon="139.0466821"><ele>1473.3466666666666</ele><time>2024-05-05T03:23:15Z</time></trkpt><trkpt lat="35.8173591" lon="139.0468622"><ele>1472.243333333333</ele><time>2024-05-05T03:23:45Z</time></trkpt><trkpt lat="35.8175245" lon="139.0470054"><ele>1468.9833333333333</ele><time>2024-05-05T03:24:07Z</time></trkpt><trkpt lat="35.8175721" lon="139.0472291"><ele>1464.4766666666667</ele><time>2024-05-05T03:24:29Z</time></trkpt><trkpt lat="35.8176846" lon="139.047451"><ele>1458.2033333333331</ele><time>2024-05-05T03:24:47Z</time></trkpt><trkpt lat="35.8177969" lon="139.0476657"><ele>1451.4799999999998</ele><time>2024-05-05T03:25:23Z</time></trkpt><trkpt lat="35.8179876" lon="139.0477514"><ele>1447.42</ele><time>2024-05-05T03:25:35Z</time></trkpt><trkpt lat="35.8180269" lon="139.0479893"><ele>1444.7833333333335</ele><time>2024-05-05T03:25:50Z</time></trkpt><trkpt lat="35.8180801" lon="139.0482104"><ele>1443.5633333333335</ele><time>2024-05-05T03:26:05Z</time></trkpt><trkpt lat="35.8180876" lon="139.0484585"><ele>1441.8133333333335</ele><time>2024-05-05T03:26:23Z</time></trkpt><trkpt lat="35.8180804" lon="139.0486985"><ele>1440.5533333333333</ele><time>2024-05-05T03:26:38Z</time></trkpt><trkpt lat="35.8180878" lon="139.0489512"><ele>1439.2366666666667</ele><time>2024-05-05T03:26:53Z</time></trkpt><trkpt lat="35.8181182" lon="139.0491792"><ele>1437.7300000000002</ele><time>2024-05-05T03:27:08Z</time></trkpt><trkpt lat="35.8182227" lon="139.0493894"><ele>1436.0600000000002</ele><time>2024-05-05T03:27:23Z</time></trkpt><trkpt lat="35.8183499" lon="139.0495848"><ele>1434.3999999999999</ele><time>2024-05-05T03:27:38Z</time></trkpt><trkpt lat="35.8184656" lon="139.0498001"><ele>1432.9333333333332</ele><time>2024-05-05T03:27:53Z</time></trkpt><trkpt lat="35.8185298" lon="139.0500507"><ele>1431.5966666666666</ele><time>2024-05-05T03:28:08Z</time></trkpt><trkpt lat="35.8184681" lon="139.0502734"><ele>1429.4433333333334</ele><time>2024-05-05T03:28:23Z</time></trkpt><trkpt lat="35.8185777" lon="139.050507"><ele>1428.3833333333334</ele><time>2024-05-05T03:28:35Z</time></trkpt><trkpt lat="35.8186594" lon="139.050719"><ele>1426.7233333333334</ele><time>2024-05-05T03:28:47Z</time></trkpt><trkpt lat="35.8187935" lon="139.0508802"><ele>1425.8866666666665</ele><time>2024-05-05T03:29:02Z</time></trkpt><trkpt lat="35.8187399" lon="139.0510955"><ele>1421.6200000000001</ele><time>2024-05-05T03:29:26Z</time></trkpt><trkpt lat="35.8186899" lon="139.0513335"><ele>1416.0833333333333</ele><time>2024-05-05T03:29:41Z</time></trkpt><trkpt lat="35.8187368" lon="139.0515887"><ele>1413.3700000000001</ele><time>2024-05-05T03:29:59Z</time></trkpt><trkpt lat="35.8186559" lon="139.0517998"><ele>1410.9933333333336</ele><time>2024-05-05T03:30:14Z</time></trkpt><trkpt lat="35.8185884" lon="139.0520358"><ele>1409.6299999999999</ele><time>2024-05-05T03:30:31Z</time></trkpt><trkpt lat="35.8184929" lon="139.0522269"><ele>1403.5566666666666</ele><time>2024-05-05T03:30:52Z</time></trkpt><trkpt lat="35.8183791" lon="139.0524341"><ele>1401.0766666666668</ele><time>2024-05-05T03:31:17Z</time></trkpt><trkpt lat="35.8182457" lon="139.0525937"><ele>1397.1133333333335</ele><time>2024-05-05T03:31:32Z</time></trkpt><trkpt lat="35.8181518" lon="139.0527909"><ele>1392.88</ele><time>2024-05-05T03:31:50Z</time></trkpt><trkpt lat="35.818017" lon="139.0529583"><ele>1383.6599999999999</ele><time>2024-05-05T03:32:11Z</time></trkpt><trkpt lat="35.8179394" lon="139.0531644"><ele>1376.3400000000001</ele><time>2024-05-05T03:32:38Z</time></trkpt><trkpt lat="35.8178902" lon="139.0533861"><ele>1371.6266666666668</ele><time>2024-05-05T03:33:04Z</time></trkpt><trkpt lat="35.8179587" lon="139.0535954"><ele>1370.68</ele><time>2024-05-05T03:33:20Z</time></trkpt><trkpt lat="35.8178549" lon="139.0537934"><ele>1367.3233333333335</ele><time>2024-05-05T03:33:38Z</time></trkpt><trkpt lat="35.8176735" lon="139.0538238"><ele>1360.8266666666668</ele><time>2024-05-05T03:34:01Z</time></trkpt><trkpt lat="35.8177564" lon="139.0540285"><ele>1355.3333333333333</ele><time>2024-05-05T03:34:35Z</time></trkpt><trkpt lat="35.8175757" lon="139.0539522"><ele>1350.1333333333334</ele><time>2024-05-05T03:34:56Z</time></trkpt><trkpt lat="35.8174799" lon="139.0541781"><ele>1346.7866666666666</ele><time>2024-05-05T03:35:17Z</time></trkpt><trkpt lat="35.8173137" lon="139.0543042"><ele>1337.53</ele><time>2024-05-05T03:36:03Z</time></trkpt><trkpt lat="35.8173956" lon="139.0545413"><ele>1331.7633333333333</ele><time>2024-05-05T03:36:21Z</time></trkpt><trkpt lat="35.8173449" lon="139.0547695"><ele>1324.9933333333333</ele><time>2024-05-05T03:36:47Z</time></trkpt><trkpt lat="35.8171587" lon="139.0548625"><ele>1318.7933333333333</ele><time>2024-05-05T03:36:59Z</time></trkpt><trkpt lat="35.8173219" lon="139.0549847"><ele>1313.8666666666666</ele><time>2024-05-05T03:37:14Z</time></trkpt><trkpt lat="35.8171984" lon="139.0551737"><ele>1308.66</ele><time>2024-05-05T03:37:28Z</time></trkpt><trkpt lat="35.8171831" lon="139.0554181"><ele>1305.7233333333334</ele><time>2024-05-05T03:37:45Z</time></trkpt><trkpt lat="35.8170417" lon="139.0556329"><ele>1298.73</ele><time>2024-05-05T03:38:06Z</time></trkpt><trkpt lat="35.8168738" lon="139.0557859"><ele>1292.4333333333334</ele><time>2024-05-05T03:38:27Z</time></trkpt><trkpt lat="35.8168072" lon="139.0560325"><ele>1285.53</ele><time>2024-05-05T03:39:11Z</time></trkpt><trkpt lat="35.8166445" lon="139.0561485"><ele>1277.5866666666666</ele><time>2024-05-05T03:39:29Z</time></trkpt><trkpt lat="35.816624" lon="139.056379"><ele>1269.7866666666666</ele><time>2024-05-05T03:39:47Z</time></trkpt><trkpt lat="35.816502" lon="139.0565544"><ele>1263.26</ele><time>2024-05-05T03:40:02Z</time></trkpt><trkpt lat="35.8163174" lon="139.0566255"><ele>1256.3100000000002</ele><time>2024-05-05T03:40:31Z</time></trkpt><trkpt lat="35.8161777" lon="139.0567665"><ele>1249.4066666666665</ele><time>2024-05-05T03:41:02Z</time></trkpt><trkpt lat="35.8162144" lon="139.0569857"><ele>1244.64</ele><time>2024-05-05T03:41:11Z</time></trkpt><trkpt lat="35.8159966" lon="139.0569028"><ele>1240.41</ele><time>2024-05-05T03:41:47Z</time></trkpt><trkpt lat="35.8158021" lon="139.0568406"><ele>1235.9966666666667</ele><time>2024-05-05T03:42:20Z</time></trkpt><trkpt lat="35.8156432" lon="139.0569932"><ele>1228.3033333333335</ele><time>2024-05-05T03:42:44Z</time></trkpt><trkpt lat="35.8154651" lon="139.0569513"><ele>1220.97</ele><time>2024-05-05T03:43:02Z</time></trkpt><trkpt lat="35.8153627" lon="139.0571824"><ele>1214.8533333333335</ele><time>2024-05-05T03:43:20Z</time></trkpt><trkpt lat="35.8152733" lon="139.0573764"><ele>1210.45</ele><time>2024-05-05T03:43:32Z</time></trkpt><trkpt lat="35.8151946" lon="139.0576126"><ele>1207.9333333333334</ele><time>2024-05-05T03:43:53Z</time></trkpt><trkpt lat="35.8150831" lon="139.057835"><ele>1203.1933333333334</ele><time>2024-05-05T03:44:11Z</time></trkpt><trkpt lat="35.8150149" lon="139.0580627"><ele>1197.7533333333333</ele><time>2024-05-05T03:44:32Z</time></trkpt><trkpt lat="35.8148299" lon="139.0581183"><ele>1189.8966666666665</ele><time>2024-05-05T03:44:50Z</time></trkpt><trkpt lat="35.8147444" lon="139.0583165"><ele>1182.7866666666666</ele><time>2024-05-05T03:45:14Z</time></trkpt><trkpt lat="35.8146186" lon="139.0585101"><ele>1176.42</ele><time>2024-05-05T03:45:47Z</time></trkpt><trkpt lat="35.8145525" lon="139.0587177"><ele>1173.33</ele><time>2024-05-05T03:46:02Z</time></trkpt><trkpt lat="35.8145696" lon="139.0589552"><ele>1172.59</ele><time>2024-05-05T03:46:20Z</time></trkpt><trkpt lat="35.8144828" lon="139.0591908"><ele>1170.5500000000002</ele><time>2024-05-05T03:46:38Z</time></trkpt><trkpt lat="35.8143996" lon="139.0594079"><ele>1166.4933333333336</ele><time>2024-05-05T03:46:51Z</time></trkpt><trkpt lat="35.8143243" lon="139.0596318"><ele>1162.2066666666667</ele><time>2024-05-05T03:47:06Z</time></trkpt><trkpt lat="35.8141761" lon="139.0598242"><ele>1158.7833333333333</ele><time>2024-05-05T03:47:21Z</time></trkpt><trkpt lat="35.8140657" lon="139.0600004"><ele>1159.3366666666668</ele><time>2024-05-05T03:47:36Z</time></trkpt><trkpt lat="35.8139007" lon="139.0601475"><ele>1160.6033333333332</ele><time>2024-05-05T03:47:51Z</time></trkpt><trkpt lat="35.8137563" lon="139.0603473"><ele>1164.22</ele><time>2024-05-05T03:48:06Z</time></trkpt><trkpt lat="35.8136206" lon="139.0605144"><ele>1166.8966666666665</ele><time>2024-05-05T03:48:21Z</time></trkpt><trkpt lat="35.8134843" lon="139.060686"><ele>1168.1866666666667</ele><time>2024-05-05T03:48:36Z</time></trkpt><trkpt lat="35.8134831" lon="139.0609411"><ele>1168.0166666666667</ele><time>2024-05-05T03:48:51Z</time></trkpt><trkpt lat="35.8136595" lon="139.061071"><ele>1169.0100000000002</ele><time>2024-05-05T03:49:06Z</time></trkpt><trkpt lat="35.8137218" lon="139.0612817"><ele>1168.8600000000001</ele><time>2024-05-05T03:49:18Z</time></trkpt><trkpt lat="35.8136966" lon="139.0615246"><ele>1167.2033333333331</ele><time>2024-05-05T03:49:30Z</time></trkpt><trkpt lat="35.8136765" lon="139.0617591"><ele>1163.1566666666668</ele><time>2024-05-05T03:49:48Z</time></trkpt><trkpt lat="35.8136764" lon="139.0619983"><ele>1160.3633333333332</ele><time>2024-05-05T03:50:06Z</time></trkpt><trkpt lat="35.8136612" lon="139.0622246"><ele>1158.0</ele><time>2024-05-05T03:50:30Z</time></trkpt><trkpt lat="35.8137156" lon="139.062482"><ele>1155.36</ele><time>2024-05-05T03:50:45Z</time></trkpt><trkpt lat="35.8138183" lon="139.0627321"><ele>1154.7233333333336</ele><time>2024-05-05T03:51:03Z</time></trkpt><trkpt lat="35.813847" lon="139.0629776"><ele>1155.7700000000002</ele><time>2024-05-05T03:51:19Z</time></trkpt><trkpt lat="35.8139005" lon="139.0632134"><ele>1159.0333333333335</ele><time>2024-05-05T03:51:55Z</time></trkpt><trkpt lat="35.8140004" lon="139.0634209"><ele>1159.56</ele><time>2024-05-05T03:52:10Z</time></trkpt><trkpt lat="35.8139686" lon="139.0636627"><ele>1160.5100000000002</ele><time>2024-05-05T03:52:25Z</time></trkpt><trkpt lat="35.813897" lon="139.0638716"><ele>1160.6899999999998</ele><time>2024-05-05T03:52:40Z</time></trkpt><trkpt lat="35.8138037" lon="139.0640906"><ele>1162.15</ele><time>2024-05-05T03:52:58Z</time></trkpt><trkpt lat="35.8137117" lon="139.0643093"><ele>1162.1633333333336</ele><time>2024-05-05T03:53:16Z</time></trkpt><trkpt lat="35.8136794" lon="139.0645697"><ele>1161.2666666666667</ele><time>2024-05-05T03:53:34Z</time></trkpt><trkpt lat="35.8136043" lon="139.0647812"><ele>1160.9633333333334</ele><time>2024-05-05T03:53:52Z</time></trkpt><trkpt lat="35.8134985" lon="139.0649622"><ele>1160.71</ele><time>2024-05-05T03:54:13Z</time></trkpt><trkpt lat="35.813394" lon="139.0651941"><ele>1161.3633333333335</ele><time>2024-05-05T03:54:32Z</time></trkpt><trkpt lat="35.8133037" lon="139.0654174"><ele>1159.8000000000002</ele><time>2024-05-05T03:54:50Z</time></trkpt><trkpt lat="35.8132494" lon="139.0656534"><ele>1157.6833333333334</ele><time>2024-05-05T03:55:08Z</time></trkpt><trkpt lat="35.8131991" lon="139.0659057"><ele>1154.9066666666668</ele><time>2024-05-05T03:55:23Z</time></trkpt><trkpt lat="35.8131568" lon="139.0661389"><ele>1153.0333333333335</ele><time>2024-05-05T03:55:38Z</time></trkpt><trkpt lat="35.813093" lon="139.0663995"><ele>1151.1233333333332</ele><time>2024-05-05T03:55:53Z</time></trkpt><trkpt lat="35.8129774" lon="139.066589"><ele>1149.8033333333333</ele><time>2024-05-05T03:56:17Z</time></trkpt><trkpt lat="35.812981" lon="139.066852"><ele>1148.1333333333334</ele><time>2024-05-05T03:56:35Z</time></trkpt><trkpt lat="35.8129565" lon="139.0671217"><ele>1145.736666666667</ele><time>2024-05-05T03:56:50Z</time></trkpt><trkpt lat="35.8129432" lon="139.0673842"><ele>1142.2633333333333</ele><time>2024-05-05T03:57:05Z</time></trkpt><trkpt lat="35.8130923" lon="139.0675453"><ele>1138.8333333333333</ele><time>2024-05-05T03:57:22Z</time></trkpt><trkpt lat="35.8132136" lon="139.0677349"><ele>1136.2066666666667</ele><time>2024-05-05T03:57:39Z</time></trkpt><trkpt lat="35.8133652" lon="139.0679255"><ele>1132.0266666666666</ele><time>2024-05-05T03:58:22Z</time></trkpt><trkpt lat="35.8134674" lon="139.0681162"><ele>1127.9833333333333</ele><time>2024-05-05T03:58:37Z</time></trkpt><trkpt lat="35.8135476" lon="139.0683301"><ele>1122.63</ele><time>2024-05-05T03:58:58Z</time></trkpt><trkpt lat="35.8135491" lon="139.0685519"><ele>1116.0966666666666</ele><time>2024-05-05T03:59:13Z</time></trkpt><trkpt lat="35.8136127" lon="139.0687599"><ele>1109.5333333333333</ele><time>2024-05-05T03:59:28Z</time></trkpt><trkpt lat="35.8137321" lon="139.0689472"><ele>1104.15</ele><time>2024-05-05T03:59:51Z</time></trkpt><trkpt lat="35.8138047" lon="139.0691624"><ele>1099.71</ele><time>2024-05-05T04:00:07Z</time></trkpt><trkpt lat="35.8137265" lon="139.0693805"><ele>1094.9266666666665</ele><time>2024-05-05T04:00:28Z</time></trkpt><trkpt lat="35.8135342" lon="139.0694325"><ele>1089.3000000000002</ele><time>2024-05-05T04:01:21Z</time></trkpt><trkpt lat="35.8134362" lon="139.0696305"><ele>1083.93</ele><time>2024-05-05T04:01:43Z</time></trkpt><trkpt lat="35.8133049" lon="139.0697838"><ele>1077.29</ele><time>2024-05-05T04:02:06Z</time></trkpt><trkpt lat="35.8131604" lon="139.0699962"><ele>1069.4066666666668</ele><time>2024-05-05T04:02:45Z</time></trkpt><trkpt lat="35.8130454" lon="139.0702186"><ele>1061.5966666666666</ele><time>2024-05-05T04:03:01Z</time></trkpt><trkpt lat="35.8129604" lon="139.0704397"><ele>1055.0600000000002</ele><time>2024-05-05T04:03:40Z</time></trkpt><trkpt lat="35.8128259" lon="139.0706315"><ele>1048.7033333333334</ele><time>2024-05-05T04:03:55Z</time></trkpt><trkpt lat="35.8126833" lon="139.0707936"><ele>1042.1833333333334</ele><time>2024-05-05T04:04:10Z</time></trkpt><trkpt lat="35.812597" lon="139.0709924"><ele>1036.53</ele><time>2024-05-05T04:04:37Z</time></trkpt><trkpt lat="35.8124084" lon="139.0710753"><ele>1030.8733333333332</ele><time>2024-05-05T04:04:53Z</time></trkpt><trkpt lat="35.8122941" lon="139.071256"><ele>1025.1433333333334</ele><time>2024-05-05T04:05:11Z</time></trkpt><trkpt lat="35.8121771" lon="139.0714617"><ele>1019.4333333333334</ele><time>2024-05-05T04:05:29Z</time></trkpt><trkpt lat="35.8119897" lon="139.0715468"><ele>1013.5733333333334</ele><time>2024-05-05T04:05:47Z</time></trkpt><trkpt lat="35.8118748" lon="139.071719"><ele>1008.4766666666668</ele><time>2024-05-05T04:06:08Z</time></trkpt><trkpt lat="35.8117571" lon="139.0719345"><ele>1002.7466666666668</ele><time>2024-05-05T04:06:30Z</time></trkpt><trkpt lat="35.8116183" lon="139.0720856"><ele>997.0099999999999</ele><time>2024-05-05T04:06:54Z</time></trkpt><trkpt lat="35.8114481" lon="139.0721913"><ele>990.3000000000001</ele><time>2024-05-05T04:07:12Z</time></trkpt><trkpt lat="35.811262" lon="139.072283"><ele>982.0133333333333</ele><time>2024-05-05T04:07:27Z</time></trkpt><trkpt lat="35.8110956" lon="139.0724131"><ele>976.5300000000001</ele><time>2024-05-05T04:07:41Z</time></trkpt><trkpt lat="35.8108618" lon="139.0723915"><ele>969.0866666666667</ele><time>2024-05-05T04:07:59Z</time></trkpt><trkpt lat="35.810718" lon="139.072532"><ele>965.21</ele><time>2024-05-05T04:08:08Z</time></trkpt><trkpt lat="35.8105476" lon="139.0726611"><ele>960.8233333333334</ele><time>2024-05-05T04:08:23Z</time></trkpt><trkpt lat="35.8104404" lon="139.0728476"><ele>959.94</ele><time>2024-05-05T04:08:40Z</time></trkpt><trkpt lat="35.8102977" lon="139.0730255"><ele>955.4433333333333</ele><time>2024-05-05T04:09:00Z</time></trkpt><trkpt lat="35.8102664" lon="139.0732478"><ele>949.4166666666666</ele><time>2024-05-05T04:09:36Z</time></trkpt><trkpt lat="35.8101415" lon="139.0734288"><ele>941.6933333333333</ele><time>2024-05-05T04:09:42Z</time></trkpt><trkpt lat="35.8100878" lon="139.0736488"><ele>935.6066666666667</ele><time>2024-05-05T04:10:00Z</time></trkpt><trkpt lat="35.8099787" lon="139.0738415"><ele>930.0733333333333</ele><time>2024-05-05T04:10:18Z</time></trkpt><trkpt lat="35.8098457" lon="139.074044"><ele>924.5300000000001</ele><time>2024-05-05T04:10:34Z</time></trkpt><trkpt lat="35.8098118" lon="139.0742622"><ele>919.1066666666667</ele><time>2024-05-05T04:10:49Z</time></trkpt><trkpt lat="35.8098196" lon="139.0744955"><ele>914.2133333333335</ele><time>2024-05-05T04:11:04Z</time></trkpt><trkpt lat="35.8097719" lon="139.0747427"><ele>909.8866666666667</ele><time>2024-05-05T04:11:19Z</time></trkpt><trkpt lat="35.8097305" lon="139.0749775"><ele>905.6466666666666</ele><time>2024-05-05T04:11:34Z</time></trkpt><trkpt lat="35.8095964" lon="139.0751643"><ele>900.5166666666668</ele><time>2024-05-05T04:11:49Z</time></trkpt><trkpt lat="35.8094233" lon="139.0753034"><ele>895.0366666666667</ele><time>2024-05-05T04:12:07Z</time></trkpt><trkpt lat="35.8094178" lon="139.0755597"><ele>890.9566666666666</ele><time>2024-05-05T04:12:21Z</time></trkpt><trkpt lat="35.8094335" lon="139.075785"><ele>888.1233333333334</ele><time>2024-05-05T04:12:36Z</time></trkpt><trkpt lat="35.8094125" lon="139.0760501"><ele>886.6133333333333</ele><time>2024-05-05T04:12:51Z</time></trkpt><trkpt lat="35.8094039" lon="139.0762799"><ele>884.1633333333333</ele><time>2024-05-05T04:13:03Z</time></trkpt><trkpt lat="35.8094529" lon="139.0765008"><ele>882.1300000000001</ele><time>2024-05-05T04:13:15Z</time></trkpt><trkpt lat="35.8094774" lon="139.0767208"><ele>880.9433333333333</ele><time>2024-05-05T04:13:31Z</time></trkpt><trkpt lat="35.8095018" lon="139.076954"><ele>879.5933333333332</ele><time>2024-05-05T04:13:46Z</time></trkpt><trkpt lat="35.8095594" lon="139.0772001"><ele>877.4899999999999</ele><time>2024-05-05T04:14:01Z</time></trkpt><trkpt lat="35.8095757" lon="139.0774751"><ele>872.9466666666667</ele><time>2024-05-05T04:14:16Z</time></trkpt><trkpt lat="35.8096988" lon="139.0776791"><ele>868.67</ele><time>2024-05-05T04:14:37Z</time></trkpt><trkpt lat="35.8098079" lon="139.0778962"><ele>864.0533333333333</ele><time>2024-05-05T04:14:52Z</time></trkpt><trkpt lat="35.8099093" lon="139.0780855"><ele>860.81</ele><time>2024-05-05T04:15:07Z</time></trkpt><trkpt lat="35.8099474" lon="139.0783418"><ele>857.35</ele><time>2024-05-05T04:15:25Z</time></trkpt><trkpt lat="35.8098917" lon="139.0785902"><ele>854.1033333333334</ele><time>2024-05-05T04:15:40Z</time></trkpt><trkpt lat="35.8099391" lon="139.0788281"><ele>851.7666666666668</ele><time>2024-05-05T04:16:01Z</time></trkpt><trkpt lat="35.8099802" lon="139.0790451"><ele>849.5500000000001</ele><time>2024-05-05T04:16:16Z</time></trkpt><trkpt lat="35.8100575" lon="139.0793038"><ele>846.7833333333333</ele><time>2024-05-05T04:16:28Z</time></trkpt><trkpt lat="35.8101433" lon="139.0795459"><ele>843.3033333333333</ele><time>2024-05-05T04:16:36Z</time></trkpt><trkpt lat="35.8101985" lon="139.0798448"><ele>839.4366666666666</ele><time>2024-05-05T04:16:45Z</time></trkpt><trkpt lat="35.8102276" lon="139.0800942"><ele>835.6166666666667</ele><time>2024-05-05T04:16:52Z</time></trkpt><trkpt lat="35.8103024" lon="139.0803218"><ele>830.7866666666665</ele><time>2024-05-05T04:17:07Z</time></trkpt><trkpt lat="35.8103589" lon="139.0805489"><ele>825.4066666666666</ele><time>2024-05-05T04:17:22Z</time></trkpt><trkpt lat="35.810471" lon="139.0808007"><ele>819.4766666666666</ele><time>2024-05-05T04:17:40Z</time></trkpt><trkpt lat="35.8105897" lon="139.0810114"><ele>815.3133333333334</ele><time>2024-05-05T04:17:52Z</time></trkpt><trkpt lat="35.8106228" lon="139.0812427"><ele>812.61</ele><time>2024-05-05T04:18:08Z</time></trkpt><trkpt lat="35.8105525" lon="139.0814751"><ele>811.8299999999999</ele><time>2024-05-05T04:18:19Z</time></trkpt><trkpt lat="35.810592" lon="139.0817169"><ele>811.36</ele><time>2024-05-05T04:18:32Z</time></trkpt><trkpt lat="35.810644" lon="139.0819537"><ele>811.1366666666667</ele><time>2024-05-05T04:18:49Z</time></trkpt><trkpt lat="35.8105858" lon="139.0821901"><ele>810.77</ele><time>2024-05-05T04:19:07Z</time></trkpt><trkpt lat="35.8105954" lon="139.0824644"><ele>806.5266666666666</ele><time>2024-05-05T04:19:22Z</time></trkpt><trkpt lat="35.8106277" lon="139.0827071"><ele>800.4200000000001</ele><time>2024-05-05T04:19:37Z</time></trkpt><trkpt lat="35.8106282" lon="139.0829686"><ele>790.9433333333333</ele><time>2024-05-05T04:19:55Z</time></trkpt><trkpt lat="35.8105874" lon="139.0832085"><ele>783.2266666666668</ele><time>2024-05-05T04:20:10Z</time></trkpt><trkpt lat="35.8104165" lon="139.0831267"><ele>773.0566666666667</ele><time>2024-05-05T04:20:42Z</time></trkpt><trkpt lat="35.8103473" lon="139.0829025"><ele>766.4499999999999</ele><time>2024-05-05T04:20:54Z</time></trkpt><trkpt lat="35.8102148" lon="139.0827111"><ele>761.82</ele><time>2024-05-05T04:21:11Z</time></trkpt><trkpt lat="35.8099956" lon="139.0827179"><ele>759.12</ele><time>2024-05-05T04:21:30Z</time></trkpt><trkpt lat="35.8098043" lon="139.0827533"><ele>754.4233333333335</ele><time>2024-05-05T04:21:47Z</time></trkpt><trkpt lat="35.8096288" lon="139.0826827"><ele>748.2400000000001</ele><time>2024-05-05T04:22:02Z</time></trkpt><trkpt lat="35.8094685" lon="139.0825721"><ele>741.8433333333332</ele><time>2024-05-05T04:22:19Z</time></trkpt><trkpt lat="35.8092939" lon="139.0825169"><ele>734.2866666666667</ele><time>2024-05-05T04:22:34Z</time></trkpt><trkpt lat="35.8091269" lon="139.0824289"><ele>729.4866666666667</ele><time>2024-05-05T04:22:50Z</time></trkpt><trkpt lat="35.8092359" lon="139.0826635"><ele>721.5500000000001</ele><time>2024-05-05T04:23:21Z</time></trkpt><trkpt lat="35.8092543" lon="139.0829243"><ele>715.35</ele><time>2024-05-05T04:23:37Z</time></trkpt><trkpt lat="35.8094171" lon="139.0830835"><ele>708.7266666666668</ele><time>2024-05-05T04:23:55Z</time></trkpt><trkpt lat="35.809597" lon="139.0831654"><ele>708.1266666666667</ele><time>2024-05-05T04:24:10Z</time></trkpt><trkpt lat="35.8097168" lon="139.0833449"><ele>707.9499999999999</ele><time>2024-05-05T04:24:25Z</time></trkpt><trkpt lat="35.8096869" lon="139.0835702"><ele>704.56</ele><time>2024-05-05T04:24:37Z</time></trkpt><trkpt lat="35.8095387" lon="139.0837169"><ele>696.81</ele><time>2024-05-05T04:26:16Z</time></trkpt><trkpt lat="35.8095301" lon="139.0839691"><ele>689.5766666666667</ele><time>2024-05-05T04:26:31Z</time></trkpt><trkpt lat="35.8095725" lon="139.0842105"><ele>686.1433333333333</ele><time>2024-05-05T04:26:46Z</time></trkpt><trkpt lat="35.8095136" lon="139.0844221"><ele>685.2466666666668</ele><time>2024-05-05T04:27:01Z</time></trkpt><trkpt lat="35.8093274" lon="139.0845013"><ele>684.7400000000001</ele><time>2024-05-05T04:27:16Z</time></trkpt><trkpt lat="35.8091657" lon="139.0846129"><ele>681.9833333333335</ele><time>2024-05-05T04:27:29Z</time></trkpt><trkpt lat="35.8090912" lon="139.0848529"><ele>679.3000000000001</ele><time>2024-05-05T04:28:15Z</time></trkpt><trkpt lat="35.8090099" lon="139.0850901"><ele>674.7566666666667</ele><time>2024-05-05T04:28:40Z</time></trkpt><trkpt lat="35.8088423" lon="139.0852603"><ele>669.6933333333333</ele><time>2024-05-05T04:28:58Z</time></trkpt><trkpt lat="35.808701" lon="139.0854566"><ele>664.74</ele><time>2024-05-05T04:29:13Z</time></trkpt><trkpt lat="35.8085959" lon="139.0856955"><ele>661.23</ele><time>2024-05-05T04:29:28Z</time></trkpt><trkpt lat="35.8085587" lon="139.0859637"><ele>656.1899999999999</ele><time>2024-05-05T04:29:43Z</time></trkpt><trkpt lat="35.8083949" lon="139.0860882"><ele>651.54</ele><time>2024-05-05T04:30:04Z</time></trkpt><trkpt lat="35.8082867" lon="139.0859033"><ele>647.75</ele><time>2024-05-05T04:30:16Z</time></trkpt><trkpt lat="35.8081705" lon="139.0857115"><ele>645.9333333333334</ele><time>2024-05-05T04:30:31Z</time></trkpt><trkpt lat="35.80819" lon="139.0859692"><ele>643.64</ele><time>2024-05-05T04:31:00Z</time></trkpt><trkpt lat="35.8081167" lon="139.0861906"><ele>639.0933333333334</ele><time>2024-05-05T04:31:22Z</time></trkpt><trkpt lat="35.807964" lon="139.0863548"><ele>633.0933333333334</ele><time>2024-05-05T04:31:37Z</time></trkpt><trkpt lat="35.8079341" lon="139.0861269"><ele>627.4066666666666</ele><time>2024-05-05T04:32:36Z</time></trkpt><trkpt lat="35.8078395" lon="139.0859117"><ele>619.65</ele><time>2024-05-05T04:32:54Z</time></trkpt><trkpt lat="35.8078434" lon="139.0862154"><ele>615.3000000000001</ele><time>2024-05-05T04:33:16Z</time></trkpt><trkpt lat="35.8076523" lon="139.086333"><ele>609.1933333333333</ele><time>2024-05-05T04:33:37Z</time></trkpt><trkpt lat="35.8075369" lon="139.0865241"><ele>605.2200000000001</ele><time>2024-05-05T04:33:52Z</time></trkpt><trkpt lat="35.8074635" lon="139.0867846"><ele>599.8933333333333</ele><time>2024-05-05T04:34:10Z</time></trkpt><trkpt lat="35.8076599" lon="139.0869099"><ele>598.5500000000001</ele><time>2024-05-05T04:34:34Z</time></trkpt><trkpt lat="35.8078418" lon="139.0870192"><ele>595.5266666666666</ele><time>2024-05-05T04:34:46Z</time></trkpt><trkpt lat="35.8080684" lon="139.087103"><ele>592.7399999999999</ele><time>2024-05-05T04:35:07Z</time></trkpt><trkpt lat="35.8081115" lon="139.0873736"><ele>586.9066666666666</ele><time>2024-05-05T04:35:19Z</time></trkpt><trkpt lat="35.808181" lon="139.0876103"><ele>584.4533333333333</ele><time>2024-05-05T04:35:37Z</time></trkpt><trkpt lat="35.8081575" lon="139.0878432"><ele>582.0666666666666</ele><time>2024-05-05T04:35:52Z</time></trkpt><trkpt lat="35.8080265" lon="139.0880147"><ele>579.16</ele><time>2024-05-05T04:36:10Z</time></trkpt><trkpt lat="35.8079608" lon="139.088233"><ele>575.3633333333333</ele><time>2024-05-05T04:36:28Z</time></trkpt><trkpt lat="35.807965" lon="139.0884829"><ele>571.4133333333334</ele><time>2024-05-05T04:36:46Z</time></trkpt><trkpt lat="35.8080399" lon="139.088685"><ele>568.7266666666667</ele><time>2024-05-05T04:37:04Z</time></trkpt><trkpt lat="35.8080518" lon="139.0889528"><ele>566.65</ele><time>2024-05-05T04:37:16Z</time></trkpt><trkpt lat="35.8080523" lon="139.0891983"><ele>565.08</ele><time>2024-05-05T04:37:35Z</time></trkpt><trkpt lat="35.8079195" lon="139.0894011"><ele>562.7966666666666</ele><time>2024-05-05T04:37:49Z</time></trkpt><trkpt lat="35.8079213" lon="139.0896652"><ele>561.6833333333333</ele><time>2024-05-05T04:38:01Z</time></trkpt><trkpt lat="35.8078271" lon="139.089468"><ele>558.82</ele><time>2024-05-05T04:38:34Z</time></trkpt><trkpt lat="35.8079151" lon="139.0892316"><ele>558.5833333333334</ele><time>2024-05-05T04:38:49Z</time></trkpt><trkpt lat="35.8078824" lon="139.0889816"><ele>557.4966666666668</ele><time>2024-05-05T04:39:03Z</time></trkpt><trkpt lat="35.8077503" lon="139.0887808"><ele>556.4133333333334</ele><time>2024-05-05T04:39:18Z</time></trkpt><trkpt lat="35.8076341" lon="139.0885687"><ele>552.5466666666666</ele><time>2024-05-05T04:39:33Z</time></trkpt><trkpt lat="35.8076688" lon="139.0883037"><ele>551.2866666666667</ele><time>2024-05-05T04:39:48Z</time></trkpt><trkpt lat="35.807593" lon="139.0880869"><ele>549.2266666666666</ele><time>2024-05-05T04:40:03Z</time></trkpt><trkpt lat="35.8074946" lon="139.0878451"><ele>548.9666666666667</ele><time>2024-05-05T04:40:24Z</time></trkpt><trkpt lat="35.8073087" lon="139.0877851"><ele>546.18</ele><time>2024-05-05T04:40:36Z</time></trkpt><trkpt lat="35.8071262" lon="139.087841"><ele>544.6733333333333</ele><time>2024-05-05T04:41:18Z</time></trkpt><trkpt lat="35.8069969" lon="139.0879989"><ele>538.5966666666667</ele><time>2024-05-05T04:41:36Z</time></trkpt><trkpt lat="35.8068996" lon="139.0882077"><ele>530.8966666666666</ele><time>2024-05-05T04:41:57Z</time></trkpt><trkpt lat="35.8068519" lon="139.0884576"><ele>523.9433333333333</ele><time>2024-05-05T04:43:06Z</time></trkpt><trkpt lat="35.8067465" lon="139.0886519"><ele>519.5133333333333</ele><time>2024-05-05T04:43:18Z</time></trkpt><trkpt lat="35.806624" lon="139.0888752"><ele>515.68</ele><time>2024-05-05T04:43:33Z</time></trkpt><trkpt lat="35.8065345" lon="139.0890749"><ele>509.96000000000004</ele><time>2024-05-05T04:43:51Z</time></trkpt><trkpt lat="35.8063921" lon="139.089227"><ele>505.80999999999995</ele><time>2024-05-05T04:44:09Z</time></trkpt><trkpt lat="35.8062327" lon="139.0893953"><ele>501.57666666666665</ele><time>2024-05-05T04:44:24Z</time></trkpt><trkpt lat="35.8061071" lon="139.0895595"><ele>498.02</ele><time>2024-05-05T04:44:39Z</time></trkpt><trkpt lat="35.8059494" lon="139.089673"><ele>493.85999999999996</ele><time>2024-05-05T04:44:53Z</time></trkpt><trkpt lat="35.8058584" lon="139.0898713"><ele>489.80333333333334</ele><time>2024-05-05T04:45:09Z</time></trkpt><trkpt lat="35.805688" lon="139.090034"><ele>484.7866666666667</ele><time>2024-05-05T04:45:24Z</time></trkpt><trkpt lat="35.8056789" lon="139.0902558"><ele>482.09666666666664</ele><time>2024-05-05T04:45:42Z</time></trkpt><trkpt lat="35.8055409" lon="139.090401"><ele>480.16</ele><time>2024-05-05T04:46:18Z</time></trkpt><trkpt lat="35.805606" lon="139.090622"><ele>478.92333333333335</ele><time>2024-05-05T04:46:56Z</time></trkpt><trkpt lat="35.8056171" lon="139.0908796"><ele>471.43</ele><time>2024-05-05T04:47:26Z</time></trkpt><trkpt lat="35.8056191" lon="139.0911424"><ele>458.81666666666666</ele><time>2024-05-05T04:47:49Z</time></trkpt><trkpt lat="35.8056265" lon="139.0913932"><ele>442.68666666666667</ele><time>2024-05-05T04:48:07Z</time></trkpt><trkpt lat="35.8057722" lon="139.0915556"><ele>433.9266666666667</ele><time>2024-05-05T04:48:46Z</time></trkpt><trkpt lat="35.8057332" lon="139.0917757"><ele>427.08666666666664</ele><time>2024-05-05T04:49:03Z</time></trkpt><trkpt lat="35.8058321" lon="139.0920007"><ele>424.38000000000005</ele><time>2024-05-05T04:49:39Z</time></trkpt><trkpt lat="35.80589" lon="139.0922557"><ele>418.15333333333336</ele><time>2024-05-05T04:49:58Z</time></trkpt><trkpt lat="35.8058849" lon="139.0924836"><ele>414.6466666666667</ele><time>2024-05-05T04:50:22Z</time></trkpt><trkpt lat="35.8060324" lon="139.0922263"><ele>413.9266666666667</ele><time>2024-05-05T04:50:40Z</time></trkpt><trkpt lat="35.8060285" lon="139.0919962"><ele>415.2033333333334</ele><time>2024-05-05T04:51:14Z</time></trkpt><trkpt lat="35.8061739" lon="139.0918197"><ele>416.4666666666667</ele><time>2024-05-05T04:51:29Z</time></trkpt><trkpt lat="35.806296" lon="139.0920269"><ele>413.9066666666667</ele><time>2024-05-05T04:51:47Z</time></trkpt><trkpt lat="35.8064087" lon="139.0922634"><ele>408.74</ele><time>2024-05-05T04:52:06Z</time></trkpt><trkpt lat="35.8065478" lon="139.0924183"><ele>403.01</ele><time>2024-05-05T04:52:22Z</time></trkpt><trkpt lat="35.8066902" lon="139.0926182"><ele>396.92</ele><time>2024-05-05T04:52:43Z</time></trkpt><trkpt lat="35.8067674" lon="139.0928464"><ele>391.2933333333333</ele><time>2024-05-05T04:53:04Z</time></trkpt><trkpt lat="35.8068228" lon="139.0930711"><ele>386.90000000000003</ele><time>2024-05-05T04:53:13Z</time></trkpt><trkpt lat="35.8068152" lon="139.0933283"><ele>383.92</ele><time>2024-05-05T04:53:55Z</time></trkpt><trkpt lat="35.8069082" lon="139.0935722"><ele>382.82666666666665</ele><time>2024-05-05T04:54:10Z</time></trkpt><trkpt lat="35.8070915" lon="139.0935983"><ele>382.60666666666674</ele><time>2024-05-05T04:54:22Z</time></trkpt><trkpt lat="35.8072366" lon="139.0937608"><ele>383.25</ele><time>2024-05-05T04:54:40Z</time></trkpt><trkpt lat="35.8073476" lon="139.0940129"><ele>381.78000000000003</ele><time>2024-05-05T04:55:01Z</time></trkpt><trkpt lat="35.8075099" lon="139.0941584"><ele>379.29</ele><time>2024-05-05T04:55:19Z</time></trkpt><trkpt lat="35.8077014" lon="139.0942878"><ele>377.19666666666666</ele><time>2024-05-05T04:55:34Z</time></trkpt><trkpt lat="35.8078352" lon="139.0944384"><ele>374.2</ele><time>2024-05-05T04:55:49Z</time></trkpt><trkpt lat="35.8076295" lon="139.0945489"><ele>370.59</ele><time>2024-05-05T04:56:10Z</time></trkpt><trkpt lat="35.8074354" lon="139.0946146"><ele>364.98333333333335</ele><time>2024-05-05T04:56:25Z</time></trkpt><trkpt lat="35.8072588" lon="139.0947079"><ele>361.23333333333335</ele><time>2024-05-05T04:56:37Z</time></trkpt><trkpt lat="35.8070997" lon="139.0948471"><ele>357.4433333333333</ele><time>2024-05-05T04:57:01Z</time></trkpt><trkpt lat="35.8070717" lon="139.0951107"><ele>353.71000000000004</ele><time>2024-05-05T04:57:22Z</time></trkpt><trkpt lat="35.8070998" lon="139.0953467"><ele>348.59</ele><time>2024-05-05T04:57:55Z</time></trkpt><trkpt lat="35.8069815" lon="139.0955508"><ele>343.55</ele><time>2024-05-05T04:58:13Z</time></trkpt><trkpt lat="35.8071827" lon="139.0956922"><ele>339.43666666666667</ele><time>2024-05-05T04:58:34Z</time></trkpt><trkpt lat="35.8073826" lon="139.0957412"><ele>336.9633333333333</ele><time>2024-05-05T04:58:55Z</time></trkpt><trkpt lat="35.8075218" lon="139.0959255"><ele>334.2633333333333</ele><time>2024-05-05T04:59:38Z</time></trkpt><trkpt lat="35.8076534" lon="139.096132"><ele>325.32</ele><time>2024-05-05T04:59:50Z</time></trkpt><trkpt lat="35.8078175" lon="139.0962742"><ele>316.5933333333333</ele><time>2024-05-05T05:00:11Z</time></trkpt><trkpt lat="35.8079247" lon="139.0965012"><ele>309.73</ele><time>2024-05-05T05:00:23Z</time></trkpt><trkpt lat="35.8081132" lon="139.0966506"><ele>320.1933333333333</ele><time>2024-05-05T05:00:41Z</time></trkpt><trkpt lat="35.8081202" lon="139.0968903"><ele>331.23333333333335</ele><time>2024-05-05T05:00:50Z</time></trkpt><trkpt lat="35.8082085" lon="139.0970863"><ele>342.1066666666666</ele><time>2024-05-05T05:01:02Z</time></trkpt><trkpt lat="35.8084414" lon="139.0971206"><ele>342.9433333333333</ele><time>2024-05-05T05:01:25Z</time></trkpt><trkpt lat="35.8086043" lon="139.097021"><ele>343.48333333333335</ele><time>2024-05-05T05:01:49Z</time></trkpt><trkpt lat="35.8087495" lon="139.0968508"><ele>343.46333333333337</ele><time>2024-05-05T05:02:01Z</time></trkpt><trkpt lat="35.8088728" lon="139.0966624"><ele>342.9966666666667</ele><time>2024-05-05T05:02:19Z</time></trkpt></trkseg></trk></gpx>