<?xml version='1.0' encoding='UTF-8'?><gpx creator="YAMAP - https://yamap.com" xsi:schemaLocation="http://www.topografix.com/GPX/1/1 http://www.topografix.com/GPX/1/1/gpx.xsd" version="1.1" xmlns="http://www.topografix.com/GPX/1/1" xmlns:xsi="http://www.w3.org/2001/XMLSchema-instance"><metadata><bounds maxlat="35.9944947" maxlon="139.1709943" minlat="35.974443" minlon="139.1348003"/></metadata><trk><name>天王山と横瀬丸山西斜面ルート</name><number>1</number><trkseg><trkpt lat="35.9771274" lon="139.1369572"><ele>306.79</ele><time>2024-02-02T23:44:56Z</time></trkpt><trkpt lat="35.9772898" lon="139.1370703"><ele>306.32000000000005</ele><time>2024-02-02T23:45:29Z</time></trkpt><trkpt lat="35.9774111" lon="139.1372479"><ele>305.78000000000003</ele><time>2024-02-02T23:45:50Z</time></trkpt><trkpt lat="35.9775918" lon="139.1372559"><ele>305.34999999999997</ele><time>2024-02-02T23:46:19Z</time></trkpt><trkpt lat="35.9776927" lon="139.1370567"><ele>305.1233333333334</ele><time>2024-02-02T23:46:31Z</time></trkpt><trkpt lat="35.9777803" lon="139.1368609"><ele>305.04</ele><time>2024-02-02T23:46:43Z</time></trkpt><trkpt lat="35.9778479" lon="139.136649"><ele>304.71</ele><time>2024-02-02T23:46:54Z</time></trkpt><trkpt lat="35.9779954" lon="139.1365132"><ele>304.82</ele><time>2024-02-02T23:47:11Z</time></trkpt><trkpt lat="35.9780486" lon="139.1362926"><ele>305.40333333333336</ele><time>2024-02-02T23:47:23Z</time></trkpt><trkpt lat="35.978237" lon="139.1362649"><ele>307.2033333333334</ele><time>2024-02-02T23:47:38Z</time></trkpt><trkpt lat="35.9784086" lon="139.1361834"><ele>310.37</ele><time>2024-02-02T23:47:56Z</time></trkpt><trkpt lat="35.9785868" lon="139.1361104"><ele>315.14000000000004</ele><time>2024-02-02T23:48:13Z</time></trkpt><trkpt lat="35.978764" lon="139.1360656"><ele>318.31666666666666</ele><time>2024-02-02T23:48:35Z</time></trkpt><trkpt lat="35.9789379" lon="139.1359962"><ele>320.11</ele><time>2024-02-02T23:48:47Z</time></trkpt><trkpt lat="35.9790532" lon="139.1358181"><ele>319.93333333333334</ele><time>2024-02-02T23:49:08Z</time></trkpt><trkpt lat="35.9792245" lon="139.1357206"><ele>320.98</ele><time>2024-02-02T23:49:22Z</time></trkpt><trkpt lat="35.9794009" lon="139.1356632"><ele>322.7333333333333</ele><time>2024-02-02T23:49:39Z</time></trkpt><trkpt lat="35.9795808" lon="139.1356336"><ele>325.2166666666667</ele><time>2024-02-02T23:49:54Z</time></trkpt><trkpt lat="35.9797572" lon="139.1357005"><ele>328.28</ele><time>2024-02-02T23:50:09Z</time></trkpt><trkpt lat="35.9799396" lon="139.13571"><ele>331.48333333333335</ele><time>2024-02-02T23:50:28Z</time></trkpt><trkpt lat="35.9800524" lon="139.1355337"><ele>335.27666666666664</ele><time>2024-02-02T23:50:42Z</time></trkpt><trkpt lat="35.980212" lon="139.135639"><ele>338.61999999999995</ele><time>2024-02-02T23:50:59Z</time></trkpt><trkpt lat="35.9802859" lon="139.135844"><ele>343.28999999999996</ele><time>2024-02-02T23:51:20Z</time></trkpt><trkpt lat="35.9804658" lon="139.1358181"><ele>346.1233333333333</ele><time>2024-02-02T23:51:35Z</time></trkpt><trkpt lat="35.9806522" lon="139.1358042"><ele>348.47333333333336</ele><time>2024-02-02T23:51:49Z</time></trkpt><trkpt lat="35.980818" lon="139.1358975"><ele>349.17666666666673</ele><time>2024-02-02T23:52:06Z</time></trkpt><trkpt lat="35.9809989" lon="139.1359124"><ele>351.9766666666667</ele><time>2024-02-02T23:52:24Z</time></trkpt><trkpt lat="35.9811599" lon="139.1360234"><ele>354.9166666666667</ele><time>2024-02-02T23:52:38Z</time></trkpt><trkpt lat="35.9810548" lon="139.1362096"><ele>357.9433333333333</ele><time>2024-02-02T23:52:56Z</time></trkpt><trkpt lat="35.9808742" lon="139.1361552"><ele>358.5233333333333</ele><time>2024-02-02T23:53:12Z</time></trkpt><trkpt lat="35.980692" lon="139.1361507"><ele>358.26666666666665</ele><time>2024-02-02T23:53:27Z</time></trkpt><trkpt lat="35.9804973" lon="139.1361737"><ele>357.27333333333337</ele><time>2024-02-02T23:53:41Z</time></trkpt><trkpt lat="35.9803279" lon="139.1362644"><ele>358.97</ele><time>2024-02-02T23:53:59Z</time></trkpt><trkpt lat="35.9801484" lon="139.1363137"><ele>362.48</ele><time>2024-02-02T23:54:29Z</time></trkpt><trkpt lat="35.9799687" lon="139.1362372"><ele>363.6166666666666</ele><time>2024-02-02T23:54:59Z</time></trkpt><trkpt lat="35.9800424" lon="139.1364461"><ele>367.34</ele><time>2024-02-02T23:55:29Z</time></trkpt><trkpt lat="35.9801601" lon="139.1366149"><ele>374.2233333333333</ele><time>2024-02-02T23:56:46Z</time></trkpt><trkpt lat="35.9802803" lon="139.1367841"><ele>387.2833333333333</ele><time>2024-02-02T23:57:53Z</time></trkpt><trkpt lat="35.9803811" lon="139.1369714"><ele>399.3333333333333</ele><time>2024-02-02T23:59:31Z</time></trkpt><trkpt lat="35.9805521" lon="139.137054"><ele>406.29</ele><time>2024-02-03T00:00:34Z</time></trkpt><trkpt lat="35.9807294" lon="139.1371068"><ele>409.0933333333333</ele><time>2024-02-03T00:00:47Z</time></trkpt><trkpt lat="35.9809095" lon="139.1371282"><ele>404.9333333333334</ele><time>2024-02-03T00:01:13Z</time></trkpt><trkpt lat="35.9810732" lon="139.1370295"><ele>400.52333333333337</ele><time>2024-02-03T00:02:40Z</time></trkpt><trkpt lat="35.9812581" lon="139.137007"><ele>394.48333333333335</ele><time>2024-02-03T00:02:51Z</time></trkpt><trkpt lat="35.9814341" lon="139.1369501"><ele>391.45000000000005</ele><time>2024-02-03T00:03:23Z</time></trkpt><trkpt lat="35.9815556" lon="139.1367821"><ele>389.58666666666676</ele><time>2024-02-03T00:03:41Z</time></trkpt><trkpt lat="35.9817381" lon="139.1367288"><ele>390.0466666666667</ele><time>2024-02-03T00:04:05Z</time></trkpt><trkpt lat="35.9818862" lon="139.1365994"><ele>392.2166666666667</ele><time>2024-02-03T00:05:08Z</time></trkpt><trkpt lat="35.982016" lon="139.1364246"><ele>394.92333333333335</ele><time>2024-02-03T00:05:22Z</time></trkpt><trkpt lat="35.9821786" lon="139.1363277"><ele>399.8433333333333</ele><time>2024-02-03T00:05:43Z</time></trkpt><trkpt lat="35.9823192" lon="139.1361858"><ele>405.2</ele><time>2024-02-03T00:06:04Z</time></trkpt><trkpt lat="35.9824951" lon="139.136238"><ele>411.01</ele><time>2024-02-03T00:06:24Z</time></trkpt><trkpt lat="35.9825628" lon="139.1360284"><ele>413.41</ele><time>2024-02-03T00:06:59Z</time></trkpt><trkpt lat="35.9827202" lon="139.1358983"><ele>416.5933333333333</ele><time>2024-02-03T00:07:26Z</time></trkpt><trkpt lat="35.9828383" lon="139.1357126"><ele>419.46000000000004</ele><time>2024-02-03T00:07:50Z</time></trkpt><trkpt lat="35.9829732" lon="139.1355615"><ele>424.9766666666667</ele><time>2024-02-03T00:08:22Z</time></trkpt><trkpt lat="35.9830584" lon="139.1353561"><ele>429.48333333333335</ele><time>2024-02-03T00:08:33Z</time></trkpt><trkpt lat="35.9831406" lon="139.1351548"><ele>433.8</ele><time>2024-02-03T00:08:48Z</time></trkpt><trkpt lat="35.9833278" lon="139.1351957"><ele>438.62000000000006</ele><time>2024-02-03T00:10:01Z</time></trkpt><trkpt lat="35.9835075" lon="139.1352516"><ele>444.4766666666667</ele><time>2024-02-03T00:10:22Z</time></trkpt><trkpt lat="35.9836806" lon="139.1353455"><ele>449.4433333333333</ele><time>2024-02-03T00:10:40Z</time></trkpt><trkpt lat="35.9838062" lon="139.1355072"><ele>452.9433333333333</ele><time>2024-02-03T00:11:11Z</time></trkpt><trkpt lat="35.9839328" lon="139.1356797"><ele>455.2966666666666</ele><time>2024-02-03T00:11:30Z</time></trkpt><trkpt lat="35.9841103" lon="139.135733"><ele>457.6066666666666</ele><time>2024-02-03T00:11:47Z</time></trkpt><trkpt lat="35.9842787" lon="139.1356403"><ele>459.4433333333333</ele><time>2024-02-03T00:12:03Z</time></trkpt><trkpt lat="35.9844142" lon="139.135485"><ele>459.57666666666665</ele><time>2024-02-03T00:12:19Z</time></trkpt><trkpt lat="35.9845047" lon="139.135293"><ele>458.54</ele><time>2024-02-03T00:12:38Z</time></trkpt><trkpt lat="35.9846851" lon="139.135295"><ele>458.69000000000005</ele><time>2024-02-03T00:12:53Z</time></trkpt><trkpt lat="35.984865" lon="139.1352453"><ele>460.68333333333334</ele><time>2024-02-03T00:13:07Z</time></trkpt><trkpt lat="35.9850191" lon="139.135363"><ele>463.8</ele><time>2024-02-03T00:13:26Z</time></trkpt><trkpt lat="35.9851691" lon="139.1355078"><ele>465.74333333333334</ele><time>2024-02-03T00:13:42Z</time></trkpt><trkpt lat="35.9853469" lon="139.1355522"><ele>466.39000000000004</ele><time>2024-02-03T00:13:56Z</time></trkpt><trkpt lat="35.9855274" lon="139.1355694"><ele>466.8433333333333</ele><time>2024-02-03T00:14:13Z</time></trkpt><trkpt lat="35.9856777" lon="139.1354336"><ele>466.67</ele><time>2024-02-03T00:14:28Z</time></trkpt><trkpt lat="35.9858276" lon="139.1352885"><ele>466.6433333333334</ele><time>2024-02-03T00:14:41Z</time></trkpt><trkpt lat="35.9859275" lon="139.1351024"><ele>467.16</ele><time>2024-02-03T00:14:56Z</time></trkpt><trkpt lat="35.9860993" lon="139.1350279"><ele>469.5566666666667</ele><time>2024-02-03T00:15:34Z</time></trkpt><trkpt lat="35.9862797" lon="139.1349972"><ele>477.37000000000006</ele><time>2024-02-03T00:16:32Z</time></trkpt><trkpt lat="35.9864553" lon="139.1349316"><ele>486.67666666666673</ele><time>2024-02-03T00:17:25Z</time></trkpt><trkpt lat="35.9866338" lon="139.1348798"><ele>495.8966666666667</ele><time>2024-02-03T00:17:46Z</time></trkpt><trkpt lat="35.9868066" lon="139.1348003"><ele>499.79</ele><time>2024-02-03T00:18:17Z</time></trkpt><trkpt lat="35.9867576" lon="139.1350159"><ele>505.7966666666666</ele><time>2024-02-03T00:19:18Z</time></trkpt><trkpt lat="35.9867101" lon="139.1352306"><ele>510.4866666666667</ele><time>2024-02-03T00:20:11Z</time></trkpt><trkpt lat="35.9868514" lon="139.1353701"><ele>517.6333333333333</ele><time>2024-02-03T00:20:27Z</time></trkpt><trkpt lat="35.9870286" lon="139.135426"><ele>522.3366666666667</ele><time>2024-02-03T00:21:17Z</time></trkpt><trkpt lat="35.9872125" lon="139.1354144"><ele>528.4166666666666</ele><time>2024-02-03T00:21:43Z</time></trkpt><trkpt lat="35.9873927" lon="139.1353965"><ele>533.2233333333332</ele><time>2024-02-03T00:22:17Z</time></trkpt><trkpt lat="35.9875735" lon="139.1354311"><ele>537.5366666666666</ele><time>2024-02-03T00:22:39Z</time></trkpt><trkpt lat="35.9877312" lon="139.1355472"><ele>541.34</ele><time>2024-02-03T00:23:06Z</time></trkpt><trkpt lat="35.9878314" lon="139.1357418"><ele>544.2466666666667</ele><time>2024-02-03T00:23:25Z</time></trkpt><trkpt lat="35.9879415" lon="139.1359318"><ele>547.2533333333333</ele><time>2024-02-03T00:23:43Z</time></trkpt><trkpt lat="35.9880369" lon="139.1361261"><ele>549.37</ele><time>2024-02-03T00:23:56Z</time></trkpt><trkpt lat="35.9879825" lon="139.1363516"><ele>550.8266666666667</ele><time>2024-02-03T00:24:14Z</time></trkpt><trkpt lat="35.9879694" lon="139.1365907"><ele>551.39</ele><time>2024-02-03T00:24:38Z</time></trkpt><trkpt lat="35.9880348" lon="139.1368015"><ele>552.4833333333332</ele><time>2024-02-03T00:25:10Z</time></trkpt><trkpt lat="35.9880347" lon="139.137036"><ele>553.75</ele><time>2024-02-03T00:25:23Z</time></trkpt><trkpt lat="35.9881509" lon="139.1372088"><ele>554.8933333333333</ele><time>2024-02-03T00:25:38Z</time></trkpt><trkpt lat="35.9882571" lon="139.1373893"><ele>554.39</ele><time>2024-02-03T00:25:54Z</time></trkpt><trkpt lat="35.9883905" lon="139.1375462"><ele>553.94</ele><time>2024-02-03T00:26:08Z</time></trkpt><trkpt lat="35.9883815" lon="139.1377837"><ele>553.21</ele><time>2024-02-03T00:26:24Z</time></trkpt><trkpt lat="35.9884018" lon="139.1380104"><ele>555.1566666666666</ele><time>2024-02-03T00:26:37Z</time></trkpt><trkpt lat="35.9883624" lon="139.1382304"><ele>557.9533333333334</ele><time>2024-02-03T00:26:53Z</time></trkpt><trkpt lat="35.9884264" lon="139.1384381"><ele>560.8666666666667</ele><time>2024-02-03T00:27:13Z</time></trkpt><trkpt lat="35.9883475" lon="139.1386426"><ele>563.0766666666667</ele><time>2024-02-03T00:27:30Z</time></trkpt><trkpt lat="35.9882981" lon="139.1388671"><ele>566.0833333333334</ele><time>2024-02-03T00:27:56Z</time></trkpt><trkpt lat="35.9883157" lon="139.139097"><ele>570.4833333333335</ele><time>2024-02-03T00:28:13Z</time></trkpt><trkpt lat="35.988358" lon="139.1393206"><ele>575.8133333333334</ele><time>2024-02-03T00:28:30Z</time></trkpt><trkpt lat="35.9883983" lon="139.1395401"><ele>581.27</ele><time>2024-02-03T00:28:47Z</time></trkpt><trkpt lat="35.9885062" lon="139.1397339"><ele>585.4866666666667</ele><time>2024-02-03T00:29:10Z</time></trkpt><trkpt lat="35.9886118" lon="139.1399401"><ele>587.0133333333334</ele><time>2024-02-03T00:29:22Z</time></trkpt><trkpt lat="35.988598" lon="139.1401714"><ele>587.1733333333333</ele><time>2024-02-03T00:29:39Z</time></trkpt><trkpt lat="35.9885417" lon="139.1403972"><ele>588.5600000000001</ele><time>2024-02-03T00:29:56Z</time></trkpt><trkpt lat="35.9885847" lon="139.1406155"><ele>589.8766666666667</ele><time>2024-02-03T00:30:16Z</time></trkpt><trkpt lat="35.9884844" lon="139.1408126"><ele>593.28</ele><time>2024-02-03T00:30:26Z</time></trkpt><trkpt lat="35.9884209" lon="139.1410337"><ele>597.4666666666667</ele><time>2024-02-03T00:30:37Z</time></trkpt><trkpt lat="35.9885639" lon="139.1411978"><ele>598.5266666666666</ele><time>2024-02-03T00:30:47Z</time></trkpt><trkpt lat="35.9887214" lon="139.141325"><ele>595.2433333333333</ele><time>2024-02-03T00:30:59Z</time></trkpt><trkpt lat="35.9887994" lon="139.1415341"><ele>591.52</ele><time>2024-02-03T00:31:15Z</time></trkpt><trkpt lat="35.9889582" lon="139.141646"><ele>590.8233333333334</ele><time>2024-02-03T00:31:27Z</time></trkpt><trkpt lat="35.9890801" lon="139.1418202"><ele>591.8166666666666</ele><time>2024-02-03T00:31:41Z</time></trkpt><trkpt lat="35.9891611" lon="139.1420266"><ele>592.67</ele><time>2024-02-03T00:31:56Z</time></trkpt><trkpt lat="35.9892001" lon="139.1422536"><ele>594.5133333333333</ele><time>2024-02-03T00:32:11Z</time></trkpt><trkpt lat="35.9891971" lon="139.1424874"><ele>599.7333333333332</ele><time>2024-02-03T00:33:43Z</time></trkpt><trkpt lat="35.9892505" lon="139.1427013"><ele>606.14</ele><time>2024-02-03T00:34:09Z</time></trkpt><trkpt lat="35.9893502" lon="139.1429057"><ele>612.52</ele><time>2024-02-03T00:34:40Z</time></trkpt><trkpt lat="35.9894206" lon="139.1431156"><ele>616.7933333333334</ele><time>2024-02-03T00:34:59Z</time></trkpt><trkpt lat="35.9894886" lon="139.1433241"><ele>620.5366666666667</ele><time>2024-02-03T00:35:21Z</time></trkpt><trkpt lat="35.9894949" lon="139.1435541"><ele>625.63</ele><time>2024-02-03T00:35:59Z</time></trkpt><trkpt lat="35.9894728" lon="139.1437956"><ele>631.82</ele><time>2024-02-03T00:36:09Z</time></trkpt><trkpt lat="35.9894726" lon="139.1440276"><ele>637.4766666666667</ele><time>2024-02-03T00:36:52Z</time></trkpt><trkpt lat="35.9895675" lon="139.1442173"><ele>643.5066666666667</ele><time>2024-02-03T00:37:33Z</time></trkpt><trkpt lat="35.9897264" lon="139.1443234"><ele>648.09</ele><time>2024-02-03T00:37:56Z</time></trkpt><trkpt lat="35.9898749" lon="139.1444596"><ele>651.9466666666667</ele><time>2024-02-03T00:38:20Z</time></trkpt><trkpt lat="35.9900125" lon="139.1446098"><ele>654.6666666666666</ele><time>2024-02-03T00:38:38Z</time></trkpt><trkpt lat="35.9901809" lon="139.1446903"><ele>657.3966666666666</ele><time>2024-02-03T00:39:23Z</time></trkpt><trkpt lat="35.9902978" lon="139.1448662"><ele>660.3166666666666</ele><time>2024-02-03T00:40:14Z</time></trkpt><trkpt lat="35.9903847" lon="139.1450646"><ele>663.7433333333333</ele><time>2024-02-03T00:40:35Z</time></trkpt><trkpt lat="35.9905402" lon="139.1451842"><ele>667.2600000000001</ele><time>2024-02-03T00:41:12Z</time></trkpt><trkpt lat="35.9906203" lon="139.1454082"><ele>671.4366666666666</ele><time>2024-02-03T00:41:21Z</time></trkpt><trkpt lat="35.9907968" lon="139.145469"><ele>674.6466666666666</ele><time>2024-02-03T00:42:00Z</time></trkpt><trkpt lat="35.9907215" lon="139.1456729"><ele>677.71</ele><time>2024-02-03T00:43:03Z</time></trkpt><trkpt lat="35.9908041" lon="139.1458847"><ele>680.1533333333333</ele><time>2024-02-03T00:43:20Z</time></trkpt><trkpt lat="35.9909279" lon="139.1460619"><ele>682.0066666666667</ele><time>2024-02-03T00:43:47Z</time></trkpt><trkpt lat="35.9909829" lon="139.1462735"><ele>686.07</ele><time>2024-02-03T00:44:03Z</time></trkpt><trkpt lat="35.9909964" lon="139.1464982"><ele>691.37</ele><time>2024-02-03T00:44:26Z</time></trkpt><trkpt lat="35.9910088" lon="139.1467229"><ele>698.8166666666666</ele><time>2024-02-03T00:44:58Z</time></trkpt><trkpt lat="35.9910199" lon="139.146951"><ele>706.1066666666667</ele><time>2024-02-03T00:45:27Z</time></trkpt><trkpt lat="35.9911295" lon="139.1471289"><ele>711.8966666666666</ele><time>2024-02-03T00:45:44Z</time></trkpt><trkpt lat="35.9912615" lon="139.1472817"><ele>715.5733333333334</ele><time>2024-02-03T00:46:26Z</time></trkpt><trkpt lat="35.991345" lon="139.1474824"><ele>715.88</ele><time>2024-02-03T00:46:41Z</time></trkpt><trkpt lat="35.9914099" lon="139.1476932"><ele>717.5233333333332</ele><time>2024-02-03T00:46:55Z</time></trkpt><trkpt lat="35.9914726" lon="139.1479108"><ele>720.5133333333333</ele><time>2024-02-03T00:47:10Z</time></trkpt><trkpt lat="35.9915505" lon="139.1481139"><ele>726.0333333333333</ele><time>2024-02-03T00:48:10Z</time></trkpt><trkpt lat="35.9917251" lon="139.1481841"><ele>729.6266666666667</ele><time>2024-02-03T00:48:29Z</time></trkpt><trkpt lat="35.9918544" lon="139.1483491"><ele>736.2700000000001</ele><time>2024-02-03T00:49:20Z</time></trkpt><trkpt lat="35.9919898" lon="139.1484986"><ele>743.6766666666667</ele><time>2024-02-03T00:49:51Z</time></trkpt><trkpt lat="35.9922397" lon="139.1484884"><ele>750.57</ele><time>2024-02-03T00:50:22Z</time></trkpt><trkpt lat="35.9923084" lon="139.1487227"><ele>755.0</ele><time>2024-02-03T00:52:34Z</time></trkpt><trkpt lat="35.9923961" lon="139.1489229"><ele>757.0366666666667</ele><time>2024-02-03T00:52:51Z</time></trkpt><trkpt lat="35.9924722" lon="139.1491336"><ele>760.2566666666667</ele><time>2024-02-03T00:53:18Z</time></trkpt><trkpt lat="35.9925994" lon="139.1493002"><ele>762.0033333333334</ele><time>2024-02-03T00:53:41Z</time></trkpt><trkpt lat="35.9926797" lon="139.1495005"><ele>764.9033333333333</ele><time>2024-02-03T00:54:17Z</time></trkpt><trkpt lat="35.9928266" lon="139.1496572"><ele>767.9733333333334</ele><time>2024-02-03T00:54:50Z</time></trkpt><trkpt lat="35.9929836" lon="139.149773"><ele>771.5833333333334</ele><time>2024-02-03T00:55:07Z</time></trkpt><trkpt lat="35.9931317" lon="139.1499016"><ele>773.86</ele><time>2024-02-03T00:55:40Z</time></trkpt><trkpt lat="35.9931924" lon="139.1501134"><ele>776.9233333333335</ele><time>2024-02-03T00:55:51Z</time></trkpt><trkpt lat="35.9931185" lon="139.1503182"><ele>781.3266666666667</ele><time>2024-02-03T00:56:07Z</time></trkpt><trkpt lat="35.9932539" lon="139.1504749"><ele>785.43</ele><time>2024-02-03T00:56:30Z</time></trkpt><trkpt lat="35.9933578" lon="139.1506715"><ele>788.2066666666666</ele><time>2024-02-03T00:56:46Z</time></trkpt><trkpt lat="35.9935006" lon="139.1508177"><ele>790.32</ele><time>2024-02-03T00:57:22Z</time></trkpt><trkpt lat="35.9936285" lon="139.1509777"><ele>794.2199999999999</ele><time>2024-02-03T00:58:01Z</time></trkpt><trkpt lat="35.993726" lon="139.1511877"><ele>799.3166666666667</ele><time>2024-02-03T00:58:30Z</time></trkpt><trkpt lat="35.9938583" lon="139.1513516"><ele>805.0833333333334</ele><time>2024-02-03T00:59:11Z</time></trkpt><trkpt lat="35.9940265" lon="139.151266"><ele>809.35</ele><time>2024-02-03T00:59:30Z</time></trkpt><trkpt lat="35.9939936" lon="139.1515003"><ele>812.96</ele><time>2024-02-03T01:00:29Z</time></trkpt><trkpt lat="35.9940058" lon="139.1517468"><ele>815.7133333333333</ele><time>2024-02-03T01:01:09Z</time></trkpt><trkpt lat="35.9940768" lon="139.151993"><ele>820.1133333333333</ele><time>2024-02-03T01:01:39Z</time></trkpt><trkpt lat="35.9940726" lon="139.1522253"><ele>824.4266666666667</ele><time>2024-02-03T01:02:27Z</time></trkpt><trkpt lat="35.9941067" lon="139.1524516"><ele>828.6300000000001</ele><time>2024-02-03T01:02:42Z</time></trkpt><trkpt lat="35.9942339" lon="139.1526212"><ele>831.46</ele><time>2024-02-03T01:02:58Z</time></trkpt><trkpt lat="35.9943491" lon="139.1527943"><ele>833.7766666666666</ele><time>2024-02-03T01:03:10Z</time></trkpt><trkpt lat="35.9944947" lon="139.1529365"><ele>835.9633333333335</ele><time>2024-02-03T01:03:22Z</time></trkpt><trkpt lat="35.9943722" lon="139.1527721"><ele>836.62</ele><time>2024-02-03T01:03:44Z</time></trkpt><trkpt lat="35.9941914" lon="139.1527835"><ele>836.7700000000001</ele><time>2024-02-03T01:04:02Z</time></trkpt><trkpt lat="35.9939947" lon="139.1527823"><ele>835.8166666666666</ele><time>2024-02-03T01:04:16Z</time></trkpt><trkpt lat="35.9938076" lon="139.1528109"><ele>835.3066666666667</ele><time>2024-02-03T01:04:26Z</time></trkpt><trkpt lat="35.9938919" lon="139.1530141"><ele>835.84</ele><time>2024-02-03T01:05:29Z</time></trkpt><trkpt lat="35.9940587" lon="139.1531047"><ele>838.4499999999999</ele><time>2024-02-03T01:05:42Z</time></trkpt><trkpt lat="35.9942268" lon="139.1532"><ele>844.0600000000001</ele><time>2024-02-03T01:05:54Z</time></trkpt><trkpt lat="35.9941179" lon="139.1533903"><ele>849.3833333333333</ele><time>2024-02-03T01:06:45Z</time></trkpt><trkpt lat="35.9939429" lon="139.1535129"><ele>853.1033333333335</ele><time>2024-02-03T01:07:00Z</time></trkpt><trkpt lat="35.9937647" lon="139.153556"><ele>855.0766666666667</ele><time>2024-02-03T01:07:15Z</time></trkpt><trkpt lat="35.9936223" lon="139.1534159"><ele>856.2933333333334</ele><time>2024-02-03T01:07:30Z</time></trkpt><trkpt lat="35.9935551" lon="139.1536313"><ele>859.1466666666666</ele><time>2024-02-03T01:08:02Z</time></trkpt><trkpt lat="35.993559" lon="139.1538569"><ele>862.5733333333334</ele><time>2024-02-03T01:08:13Z</time></trkpt><trkpt lat="35.9935889" lon="139.15408"><ele>868.3833333333333</ele><time>2024-02-03T01:08:28Z</time></trkpt><trkpt lat="35.9937349" lon="139.1542217"><ele>873.6199999999999</ele><time>2024-02-03T01:08:43Z</time></trkpt><trkpt lat="35.9939149" lon="139.1543045"><ele>877.0766666666667</ele><time>2024-02-03T01:08:58Z</time></trkpt><trkpt lat="35.9940635" lon="139.1544314"><ele>878.0533333333334</ele><time>2024-02-03T01:09:39Z</time></trkpt><trkpt lat="35.9942153" lon="139.1545719"><ele>878.6233333333333</ele><time>2024-02-03T01:09:53Z</time></trkpt><trkpt lat="35.9943844" lon="139.1546696"><ele>880.98</ele><time>2024-02-03T01:10:06Z</time></trkpt><trkpt lat="35.9943118" lon="139.1548732"><ele>884.0433333333334</ele><time>2024-02-03T01:10:30Z</time></trkpt><trkpt lat="35.9941518" lon="139.1549845"><ele>886.41</ele><time>2024-02-03T01:10:49Z</time></trkpt><trkpt lat="35.9940028" lon="139.1551247"><ele>887.7733333333334</ele><time>2024-02-03T01:11:27Z</time></trkpt><trkpt lat="35.9941695" lon="139.1552145"><ele>887.48</ele><time>2024-02-03T01:11:56Z</time></trkpt><trkpt lat="35.9940015" lon="139.1553059"><ele>886.77</ele><time>2024-02-03T01:12:38Z</time></trkpt><trkpt lat="35.9938155" lon="139.1552443"><ele>886.5866666666667</ele><time>2024-02-03T01:12:58Z</time></trkpt><trkpt lat="35.9936448" lon="139.1553225"><ele>887.94</ele><time>2024-02-03T01:14:10Z</time></trkpt><trkpt lat="35.9934791" lon="139.1554316"><ele>890.4133333333334</ele><time>2024-02-03T01:14:24Z</time></trkpt><trkpt lat="35.9932898" lon="139.1554607"><ele>892.8433333333334</ele><time>2024-02-03T01:14:39Z</time></trkpt><trkpt lat="35.993104" lon="139.1555027"><ele>895.0133333333333</ele><time>2024-02-03T01:14:52Z</time></trkpt><trkpt lat="35.992911" lon="139.1555381"><ele>897.2266666666668</ele><time>2024-02-03T01:15:07Z</time></trkpt><trkpt lat="35.9927898" lon="139.1557171"><ele>898.61</ele><time>2024-02-03T01:15:21Z</time></trkpt><trkpt lat="35.992703" lon="139.1559151"><ele>899.0366666666667</ele><time>2024-02-03T01:15:34Z</time></trkpt><trkpt lat="35.9925613" lon="139.1560878"><ele>898.4066666666668</ele><time>2024-02-03T01:15:47Z</time></trkpt><trkpt lat="35.9924462" lon="139.1562761"><ele>899.1</ele><time>2024-02-03T01:16:05Z</time></trkpt><trkpt lat="35.9924551" lon="139.1565005"><ele>897.04</ele><time>2024-02-03T01:16:21Z</time></trkpt><trkpt lat="35.9924211" lon="139.1567311"><ele>893.5</ele><time>2024-02-03T01:16:48Z</time></trkpt><trkpt lat="35.9922711" lon="139.1568546"><ele>888.75</ele><time>2024-02-03T01:17:16Z</time></trkpt><trkpt lat="35.9920839" lon="139.1569044"><ele>887.5366666666667</ele><time>2024-02-03T01:17:29Z</time></trkpt><trkpt lat="35.9919248" lon="139.1570226"><ele>887.6199999999999</ele><time>2024-02-03T01:17:41Z</time></trkpt><trkpt lat="35.9917668" lon="139.1571336"><ele>886.8733333333333</ele><time>2024-02-03T01:17:53Z</time></trkpt><trkpt lat="35.9916029" lon="139.1572638"><ele>885.7833333333333</ele><time>2024-02-03T01:18:07Z</time></trkpt><trkpt lat="35.9914425" lon="139.1573715"><ele>884.5933333333334</ele><time>2024-02-03T01:18:20Z</time></trkpt><trkpt lat="35.991278" lon="139.1574815"><ele>883.8266666666667</ele><time>2024-02-03T01:18:32Z</time></trkpt><trkpt lat="35.9911092" lon="139.1575761"><ele>883.9566666666666</ele><time>2024-02-03T01:18:44Z</time></trkpt><trkpt lat="35.9909633" lon="139.1577217"><ele>884.6133333333333</ele><time>2024-02-03T01:18:57Z</time></trkpt><trkpt lat="35.9907854" lon="139.1577912"><ele>886.2833333333334</ele><time>2024-02-03T01:19:53Z</time></trkpt><trkpt lat="35.9906404" lon="139.1579302"><ele>888.8533333333335</ele><time>2024-02-03T01:20:53Z</time></trkpt><trkpt lat="35.9904866" lon="139.1580601"><ele>891.1366666666667</ele><time>2024-02-03T01:21:06Z</time></trkpt><trkpt lat="35.9903224" lon="139.1581584"><ele>892.9833333333332</ele><time>2024-02-03T01:21:17Z</time></trkpt><trkpt lat="35.9901775" lon="139.1582965"><ele>894.09</ele><time>2024-02-03T01:21:33Z</time></trkpt><trkpt lat="35.9901382" lon="139.1585172"><ele>897.4066666666666</ele><time>2024-02-03T01:21:46Z</time></trkpt><trkpt lat="35.990029" lon="139.158702"><ele>902.7033333333334</ele><time>2024-02-03T01:22:15Z</time></trkpt><trkpt lat="35.9899973" lon="139.1589216"><ele>908.5633333333334</ele><time>2024-02-03T01:22:37Z</time></trkpt><trkpt lat="35.9898916" lon="139.1591041"><ele>913.6633333333333</ele><time>2024-02-03T01:23:24Z</time></trkpt><trkpt lat="35.9897809" lon="139.159288"><ele>918.1733333333335</ele><time>2024-02-03T01:23:42Z</time></trkpt><trkpt lat="35.9896142" lon="139.1594019"><ele>922.8833333333333</ele><time>2024-02-03T01:23:59Z</time></trkpt><trkpt lat="35.9894369" lon="139.1594604"><ele>928.0366666666667</ele><time>2024-02-03T01:24:38Z</time></trkpt><trkpt lat="35.9892707" lon="139.1593511"><ele>934.1233333333333</ele><time>2024-02-03T01:25:00Z</time></trkpt><trkpt lat="35.9890925" lon="139.1593961"><ele>940.6166666666667</ele><time>2024-02-03T01:25:52Z</time></trkpt><trkpt lat="35.9889091" lon="139.1594532"><ele>947.7833333333333</ele><time>2024-02-03T01:26:19Z</time></trkpt><trkpt lat="35.9887537" lon="139.1595886"><ele>953.96</ele><time>2024-02-03T01:26:43Z</time></trkpt><trkpt lat="35.9886306" lon="139.1594249"><ele>958.1166666666668</ele><time>2024-02-03T01:27:24Z</time></trkpt><trkpt lat="35.9887653" lon="139.1596124"><ele>959.5600000000001</ele><time>2024-02-03T01:35:24Z</time></trkpt><trkpt lat="35.9886537" lon="139.1594088"><ele>959.6633333333334</ele><time>2024-02-03T01:36:03Z</time></trkpt><trkpt lat="35.9887082" lon="139.1596206"><ele>959.3633333333333</ele><time>2024-02-03T01:44:18Z</time></trkpt><trkpt lat="35.98872" lon="139.1598507"><ele>957.9000000000001</ele><time>2024-02-03T01:44:46Z</time></trkpt><trkpt lat="35.9885586" lon="139.1599609"><ele>957.1300000000001</ele><time>2024-02-03T01:44:57Z</time></trkpt><trkpt lat="35.9884957" lon="139.1601796"><ele>955.9466666666667</ele><time>2024-02-03T01:45:12Z</time></trkpt><trkpt lat="35.9884433" lon="139.1603944"><ele>955.8866666666667</ele><time>2024-02-03T01:45:27Z</time></trkpt><trkpt lat="35.9884274" lon="139.1606275"><ele>954.8333333333334</ele><time>2024-02-03T01:45:44Z</time></trkpt><trkpt lat="35.9884005" lon="139.1608487"><ele>954.0733333333334</ele><time>2024-02-03T01:45:59Z</time></trkpt><trkpt lat="35.9884563" lon="139.1610684"><ele>953.3566666666667</ele><time>2024-02-03T01:46:10Z</time></trkpt><trkpt lat="35.9885749" lon="139.1612481"><ele>952.4833333333332</ele><time>2024-02-03T01:46:18Z</time></trkpt><trkpt lat="35.9886024" lon="139.1614717"><ele>951.7666666666668</ele><time>2024-02-03T01:46:40Z</time></trkpt><trkpt lat="35.9887794" lon="139.1614066"><ele>950.6633333333334</ele><time>2024-02-03T01:47:00Z</time></trkpt><trkpt lat="35.9888283" lon="139.1616217"><ele>949.7066666666668</ele><time>2024-02-03T01:47:08Z</time></trkpt><trkpt lat="35.9888122" lon="139.1618565"><ele>947.8433333333334</ele><time>2024-02-03T01:47:33Z</time></trkpt><trkpt lat="35.9887609" lon="139.1616422"><ele>947.86</ele><time>2024-02-03T01:47:52Z</time></trkpt><trkpt lat="35.9887079" lon="139.1614253"><ele>948.3866666666667</ele><time>2024-02-03T01:48:09Z</time></trkpt><trkpt lat="35.9886076" lon="139.1612345"><ele>950.6233333333333</ele><time>2024-02-03T01:48:27Z</time></trkpt><trkpt lat="35.9884654" lon="139.161371"><ele>950.96</ele><time>2024-02-03T01:49:04Z</time></trkpt><trkpt lat="35.9883251" lon="139.1615155"><ele>949.4066666666668</ele><time>2024-02-03T01:49:19Z</time></trkpt><trkpt lat="35.9881777" lon="139.1616472"><ele>945.88</ele><time>2024-02-03T01:49:36Z</time></trkpt><trkpt lat="35.9880554" lon="139.1618119"><ele>940.79</ele><time>2024-02-03T01:49:52Z</time></trkpt><trkpt lat="35.9879365" lon="139.1619794"><ele>935.2133333333335</ele><time>2024-02-03T01:50:24Z</time></trkpt><trkpt lat="35.9878092" lon="139.1621481"><ele>929.7599999999999</ele><time>2024-02-03T01:50:39Z</time></trkpt><trkpt lat="35.9876774" lon="139.1623103"><ele>924.4766666666666</ele><time>2024-02-03T01:50:59Z</time></trkpt><trkpt lat="35.9875586" lon="139.1624835"><ele>919.79</ele><time>2024-02-03T01:51:16Z</time></trkpt><trkpt lat="35.9874563" lon="139.1626664"><ele>915.3333333333334</ele><time>2024-02-03T01:51:31Z</time></trkpt><trkpt lat="35.9874099" lon="139.1628876"><ele>911.3699999999999</ele><time>2024-02-03T01:51:45Z</time></trkpt><trkpt lat="35.9872596" lon="139.1630342"><ele>908.5766666666667</ele><time>2024-02-03T01:51:58Z</time></trkpt><trkpt lat="35.9871329" lon="139.1632123"><ele>906.0300000000001</ele><time>2024-02-03T01:52:11Z</time></trkpt><trkpt lat="35.9870422" lon="139.1634061"><ele>904.3266666666667</ele><time>2024-02-03T01:52:31Z</time></trkpt><trkpt lat="35.9868901" lon="139.163547"><ele>902.4399999999999</ele><time>2024-02-03T01:52:44Z</time></trkpt><trkpt lat="35.9867894" lon="139.1637503"><ele>901.0433333333334</ele><time>2024-02-03T01:52:59Z</time></trkpt><trkpt lat="35.9866948" lon="139.1639415"><ele>899.1766666666667</ele><time>2024-02-03T01:53:14Z</time></trkpt><trkpt lat="35.9865744" lon="139.1641177"><ele>896.4966666666668</ele><time>2024-02-03T01:53:26Z</time></trkpt><trkpt lat="35.9864675" lon="139.1643004"><ele>892.6</ele><time>2024-02-03T01:53:42Z</time></trkpt><trkpt lat="35.9863256" lon="139.1644381"><ele>888.9633333333333</ele><time>2024-02-03T01:53:57Z</time></trkpt><trkpt lat="35.9863863" lon="139.1646502"><ele>887.75</ele><time>2024-02-03T01:54:19Z</time></trkpt><trkpt lat="35.9865687" lon="139.1646822"><ele>886.8833333333332</ele><time>2024-02-03T01:54:33Z</time></trkpt><trkpt lat="35.9867493" lon="139.1646893"><ele>886.0</ele><time>2024-02-03T01:54:48Z</time></trkpt><trkpt lat="35.986931" lon="139.1646665"><ele>883.1466666666666</ele><time>2024-02-03T01:55:04Z</time></trkpt><trkpt lat="35.9870503" lon="139.1644865"><ele>879.68</ele><time>2024-02-03T01:55:20Z</time></trkpt><trkpt lat="35.9868878" lon="139.1645945"><ele>878.7933333333334</ele><time>2024-02-03T01:56:13Z</time></trkpt><trkpt lat="35.9869002" lon="139.164825"><ele>879.1999999999999</ele><time>2024-02-03T01:56:55Z</time></trkpt><trkpt lat="35.9867856" lon="139.16465"><ele>880.9966666666666</ele><time>2024-02-03T01:58:03Z</time></trkpt><trkpt lat="35.9866191" lon="139.1645226"><ele>881.3666666666667</ele><time>2024-02-03T01:58:23Z</time></trkpt><trkpt lat="35.9864545" lon="139.1644234"><ele>883.1433333333334</ele><time>2024-02-03T01:58:32Z</time></trkpt><trkpt lat="35.9863388" lon="139.1646336"><ele>886.0</ele><time>2024-02-03T01:59:01Z</time></trkpt><trkpt lat="35.9862661" lon="139.164842"><ele>888.6533333333333</ele><time>2024-02-03T01:59:17Z</time></trkpt><trkpt lat="35.986091" lon="139.1649002"><ele>888.7800000000001</ele><time>2024-02-03T01:59:30Z</time></trkpt><trkpt lat="35.9859262" lon="139.164992"><ele>887.3533333333334</ele><time>2024-02-03T01:59:45Z</time></trkpt><trkpt lat="35.9858811" lon="139.1652171"><ele>884.5833333333334</ele><time>2024-02-03T02:00:01Z</time></trkpt><trkpt lat="35.9859196" lon="139.1654511"><ele>880.7533333333334</ele><time>2024-02-03T02:00:14Z</time></trkpt><trkpt lat="35.9859205" lon="139.1656837"><ele>876.8633333333333</ele><time>2024-02-03T02:00:39Z</time></trkpt><trkpt lat="35.9859132" lon="139.1659118"><ele>873.7866666666667</ele><time>2024-02-03T02:00:54Z</time></trkpt><trkpt lat="35.9859358" lon="139.1661435"><ele>872.8100000000001</ele><time>2024-02-03T02:01:07Z</time></trkpt><trkpt lat="35.9859271" lon="139.1663665"><ele>872.8299999999999</ele><time>2024-02-03T02:01:20Z</time></trkpt><trkpt lat="35.985882" lon="139.1665896"><ele>872.9200000000001</ele><time>2024-02-03T02:01:34Z</time></trkpt><trkpt lat="35.9858453" lon="139.1668096"><ele>873.4399999999999</ele><time>2024-02-03T02:01:47Z</time></trkpt><trkpt lat="35.9858481" lon="139.1670377"><ele>875.6633333333333</ele><time>2024-02-03T02:02:05Z</time></trkpt><trkpt lat="35.9857284" lon="139.1672155"><ele>880.2166666666667</ele><time>2024-02-03T02:02:39Z</time></trkpt><trkpt lat="35.9857398" lon="139.1674376"><ele>885.6333333333332</ele><time>2024-02-03T02:02:50Z</time></trkpt><trkpt lat="35.9857503" lon="139.167662"><ele>889.61</ele><time>2024-02-03T02:03:04Z</time></trkpt><trkpt lat="35.9857154" lon="139.1678867"><ele>891.1933333333333</ele><time>2024-02-03T02:03:17Z</time></trkpt><trkpt lat="35.9856987" lon="139.168118"><ele>890.88</ele><time>2024-02-03T02:03:31Z</time></trkpt><trkpt lat="35.9857087" lon="139.168354"><ele>890.2800000000001</ele><time>2024-02-03T02:03:47Z</time></trkpt><trkpt lat="35.9857223" lon="139.1685882"><ele>890.4966666666668</ele><time>2024-02-03T02:03:59Z</time></trkpt><trkpt lat="35.9856092" lon="139.1687621"><ele>890.0600000000001</ele><time>2024-02-03T02:04:23Z</time></trkpt><trkpt lat="35.9854144" lon="139.168743"><ele>887.9833333333332</ele><time>2024-02-03T02:04:37Z</time></trkpt><trkpt lat="35.9852951" lon="139.168928"><ele>885.89</ele><time>2024-02-03T02:04:54Z</time></trkpt><trkpt lat="35.9851949" lon="139.1691142"><ele>885.7133333333333</ele><time>2024-02-03T02:05:09Z</time></trkpt><trkpt lat="35.9851084" lon="139.1693151"><ele>888.2866666666665</ele><time>2024-02-03T02:05:28Z</time></trkpt><trkpt lat="35.9850861" lon="139.1695386"><ele>890.7866666666667</ele><time>2024-02-03T02:05:45Z</time></trkpt><trkpt lat="35.9850218" lon="139.1697501"><ele>891.9200000000001</ele><time>2024-02-03T02:05:59Z</time></trkpt><trkpt lat="35.9849576" lon="139.1699595"><ele>891.8566666666666</ele><time>2024-02-03T02:06:12Z</time></trkpt><trkpt lat="35.9848333" lon="139.1701326"><ele>890.6366666666667</ele><time>2024-02-03T02:15:26Z</time></trkpt><trkpt lat="35.9846521" lon="139.1701562"><ele>887.18</ele><time>2024-02-03T02:15:40Z</time></trkpt><trkpt lat="35.9844949" lon="139.1702863"><ele>880.71</ele><time>2024-02-03T02:16:24Z</time></trkpt><trkpt lat="35.9843225" lon="139.1703571"><ele>871.84</ele><time>2024-02-03T02:16:41Z</time></trkpt><trkpt lat="35.9841708" lon="139.1705041"><ele>864.3333333333334</ele><time>2024-02-03T02:16:59Z</time></trkpt><trkpt lat="35.9840135" lon="139.1706193"><ele>859.5933333333334</ele><time>2024-02-03T02:17:16Z</time></trkpt><trkpt lat="35.9838637" lon="139.1707713"><ele>857.34</ele><time>2024-02-03T02:17:49Z</time></trkpt><trkpt lat="35.9838662" lon="139.1709943"><ele>855.0066666666667</ele><time>2024-02-03T02:18:07Z</time></trkpt><trkpt lat="35.9838484" lon="139.170764"><ele>854.84</ele><time>2024-02-03T02:18:24Z</time></trkpt><trkpt lat="35.9839145" lon="139.1705519"><ele>854.7933333333334</ele><time>2024-02-03T02:18:38Z</time></trkpt><trkpt lat="35.9841021" lon="139.1705144"><ele>856.8866666666667</ele><time>2024-02-03T02:19:04Z</time></trkpt><trkpt lat="35.984195" lon="139.1703156"><ele>857.5333333333333</ele><time>2024-02-03T02:19:18Z</time></trkpt><trkpt lat="35.9842214" lon="139.1700931"><ele>858.0533333333334</ele><time>2024-02-03T02:19:30Z</time></trkpt><trkpt lat="35.9843871" lon="139.1699933"><ele>859.1933333333333</ele><time>2024-02-03T02:19:40Z</time></trkpt><trkpt lat="35.9844735" lon="139.169736"><ele>862.5566666666667</ele><time>2024-02-03T02:19:54Z</time></trkpt><trkpt lat="35.984582" lon="139.1695504"><ele>866.5866666666667</ele><time>2024-02-03T02:20:00Z</time></trkpt><trkpt lat="35.9846505" lon="139.1693419"><ele>869.2566666666668</ele><time>2024-02-03T02:20:15Z</time></trkpt><trkpt lat="35.9847188" lon="139.169122"><ele>866.8633333333333</ele><time>2024-02-03T02:20:29Z</time></trkpt><trkpt lat="35.9848591" lon="139.168967"><ele>864.2266666666668</ele><time>2024-02-03T02:20:44Z</time></trkpt><trkpt lat="35.9849724" lon="139.1687857"><ele>862.4</ele><time>2024-02-03T02:21:00Z</time></trkpt><trkpt lat="35.9850759" lon="139.1685986"><ele>861.3933333333334</ele><time>2024-02-03T02:21:13Z</time></trkpt><trkpt lat="35.9851197" lon="139.1683463"><ele>861.3333333333334</ele><time>2024-02-03T02:21:24Z</time></trkpt><trkpt lat="35.9850517" lon="139.1681407"><ele>859.7366666666667</ele><time>2024-02-03T02:21:36Z</time></trkpt><trkpt lat="35.984958" lon="139.1679483"><ele>859.6933333333333</ele><time>2024-02-03T02:21:49Z</time></trkpt><trkpt lat="35.9849371" lon="139.1677258"><ele>858.1833333333334</ele><time>2024-02-03T02:22:06Z</time></trkpt><trkpt lat="35.9849796" lon="139.167493"><ele>857.52</ele><time>2024-02-03T02:22:17Z</time></trkpt><trkpt lat="35.9851304" lon="139.1672952"><ele>858.5766666666667</ele><time>2024-02-03T02:22:22Z</time></trkpt><trkpt lat="35.9852038" lon="139.167089"><ele>859.5633333333334</ele><time>2024-02-03T02:22:48Z</time></trkpt><trkpt lat="35.9853343" lon="139.1669149"><ele>859.9066666666668</ele><time>2024-02-03T02:23:00Z</time></trkpt><trkpt lat="35.9854766" lon="139.1667574"><ele>856.98</ele><time>2024-02-03T02:23:14Z</time></trkpt><trkpt lat="35.9855779" lon="139.1665617"><ele>854.2933333333334</ele><time>2024-02-03T02:23:27Z</time></trkpt><trkpt lat="35.9857193" lon="139.1664241"><ele>856.96</ele><time>2024-02-03T02:23:34Z</time></trkpt><trkpt lat="35.9857588" lon="139.1661967"><ele>860.8733333333333</ele><time>2024-02-03T02:23:43Z</time></trkpt><trkpt lat="35.9856211" lon="139.1660354"><ele>861.0833333333334</ele><time>2024-02-03T02:23:54Z</time></trkpt><trkpt lat="35.985533" lon="139.1658323"><ele>856.1866666666668</ele><time>2024-02-03T02:24:05Z</time></trkpt><trkpt lat="35.985456" lon="139.1656046"><ele>852.6166666666667</ele><time>2024-02-03T02:24:18Z</time></trkpt><trkpt lat="35.9854" lon="139.1653863"><ele>854.2533333333334</ele><time>2024-02-03T02:24:33Z</time></trkpt><trkpt lat="35.9853296" lon="139.1651652"><ele>858.0</ele><time>2024-02-03T02:24:47Z</time></trkpt><trkpt lat="35.9852299" lon="139.1649748"><ele>861.6033333333334</ele><time>2024-02-03T02:25:00Z</time></trkpt><trkpt lat="35.985149" lon="139.1647596"><ele>864.0333333333333</ele><time>2024-02-03T02:25:16Z</time></trkpt><trkpt lat="35.985121" lon="139.1649788"><ele>863.8033333333333</ele><time>2024-02-03T02:26:38Z</time></trkpt><trkpt lat="35.9851808" lon="139.1652076"><ele>860.7133333333333</ele><time>2024-02-03T02:26:50Z</time></trkpt><trkpt lat="35.9853015" lon="139.1653747"><ele>857.4433333333333</ele><time>2024-02-03T02:27:01Z</time></trkpt><trkpt lat="35.9854008" lon="139.165565"><ele>853.7833333333333</ele><time>2024-02-03T02:27:13Z</time></trkpt><trkpt lat="35.9853863" lon="139.1657972"><ele>850.6999999999999</ele><time>2024-02-03T02:27:24Z</time></trkpt><trkpt lat="35.9854513" lon="139.1660044"><ele>848.09</ele><time>2024-02-03T02:27:38Z</time></trkpt><trkpt lat="35.9855238" lon="139.1662149"><ele>846.82</ele><time>2024-02-03T02:27:52Z</time></trkpt><trkpt lat="35.9855219" lon="139.1664434"><ele>846.9833333333335</ele><time>2024-02-03T02:28:08Z</time></trkpt><trkpt lat="35.9854535" lon="139.1666501"><ele>846.91</ele><time>2024-02-03T02:28:21Z</time></trkpt><trkpt lat="35.985337" lon="139.1668269"><ele>849.2566666666667</ele><time>2024-02-03T02:28:37Z</time></trkpt><trkpt lat="35.9851805" lon="139.1669503"><ele>851.7466666666666</ele><time>2024-02-03T02:28:53Z</time></trkpt><trkpt lat="35.9850915" lon="139.1671526"><ele>854.91</ele><time>2024-02-03T02:29:09Z</time></trkpt><trkpt lat="35.9850103" lon="139.1673594"><ele>855.5566666666667</ele><time>2024-02-03T02:29:24Z</time></trkpt><trkpt lat="35.9848897" lon="139.1675447"><ele>855.9466666666667</ele><time>2024-02-03T02:29:40Z</time></trkpt><trkpt lat="35.9848287" lon="139.1677591"><ele>855.4499999999999</ele><time>2024-02-03T02:29:56Z</time></trkpt><trkpt lat="35.9848491" lon="139.1679822"><ele>854.6433333333333</ele><time>2024-02-03T02:30:10Z</time></trkpt><trkpt lat="35.9849345" lon="139.168193"><ele>854.1999999999999</ele><time>2024-02-03T02:30:25Z</time></trkpt><trkpt lat="35.9850037" lon="139.1683995"><ele>854.5766666666667</ele><time>2024-02-03T02:30:38Z</time></trkpt><trkpt lat="35.9850023" lon="139.1686229"><ele>855.58</ele><time>2024-02-03T02:30:50Z</time></trkpt><trkpt lat="35.9849028" lon="139.1688131"><ele>858.6300000000001</ele><time>2024-02-03T02:31:05Z</time></trkpt><trkpt lat="35.9847731" lon="139.1689767"><ele>861.0233333333332</ele><time>2024-02-03T02:31:23Z</time></trkpt><trkpt lat="35.9845984" lon="139.1690616"><ele>860.4766666666668</ele><time>2024-02-03T02:31:38Z</time></trkpt><trkpt lat="35.9845077" lon="139.1692602"><ele>857.9500000000002</ele><time>2024-02-03T02:31:50Z</time></trkpt><trkpt lat="35.9844677" lon="139.1694807"><ele>856.9133333333334</ele><time>2024-02-03T02:32:04Z</time></trkpt><trkpt lat="35.9843659" lon="139.1696823"><ele>857.7199999999999</ele><time>2024-02-03T02:32:17Z</time></trkpt><trkpt lat="35.9842813" lon="139.1698842"><ele>858.1233333333333</ele><time>2024-02-03T02:32:30Z</time></trkpt><trkpt lat="35.9842539" lon="139.1701039"><ele>857.2766666666666</ele><time>2024-02-03T02:32:44Z</time></trkpt><trkpt lat="35.9841522" lon="139.1703064"><ele>857.0033333333334</ele><time>2024-02-03T02:32:56Z</time></trkpt><trkpt lat="35.9840581" lon="139.170508"><ele>856.9200000000001</ele><time>2024-02-03T02:33:07Z</time></trkpt><trkpt lat="35.9839308" lon="139.1706655"><ele>856.8966666666666</ele><time>2024-02-03T02:33:22Z</time></trkpt><trkpt lat="35.9837908" lon="139.1705106"><ele>855.0133333333333</ele><time>2024-02-03T02:33:42Z</time></trkpt><trkpt lat="35.9836152" lon="139.1704314"><ele>852.2066666666666</ele><time>2024-02-03T02:33:59Z</time></trkpt><trkpt lat="35.9837487" lon="139.1702757"><ele>847.9000000000001</ele><time>2024-02-03T02:34:15Z</time></trkpt><trkpt lat="35.9839222" lon="139.1702131"><ele>847.0300000000001</ele><time>2024-02-03T02:34:39Z</time></trkpt><trkpt lat="35.9840083" lon="139.1700135"><ele>846.9733333333334</ele><time>2024-02-03T02:35:16Z</time></trkpt><trkpt lat="35.9840087" lon="139.169779"><ele>846.7733333333334</ele><time>2024-02-03T02:35:30Z</time></trkpt><trkpt lat="35.9839677" lon="139.1695472"><ele>842.2433333333335</ele><time>2024-02-03T02:35:41Z</time></trkpt><trkpt lat="35.9839277" lon="139.1693205"><ele>836.4833333333332</ele><time>2024-02-03T02:35:55Z</time></trkpt><trkpt lat="35.9839708" lon="139.1691037"><ele>830.2666666666668</ele><time>2024-02-03T02:36:13Z</time></trkpt><trkpt lat="35.9838815" lon="139.1689059"><ele>824.57</ele><time>2024-02-03T02:36:45Z</time></trkpt><trkpt lat="35.9840066" lon="139.1687409"><ele>819.8366666666667</ele><time>2024-02-03T02:37:01Z</time></trkpt><trkpt lat="35.9841575" lon="139.1686156"><ele>817.5433333333334</ele><time>2024-02-03T02:37:19Z</time></trkpt><trkpt lat="35.9841671" lon="139.1683909"><ele>816.04</ele><time>2024-02-03T02:37:43Z</time></trkpt><trkpt lat="35.9840192" lon="139.1682442"><ele>811.57</ele><time>2024-02-03T02:37:55Z</time></trkpt><trkpt lat="35.9838809" lon="139.168093"><ele>804.0033333333334</ele><time>2024-02-03T02:38:09Z</time></trkpt><trkpt lat="35.9837871" lon="139.1679033"><ele>796.4399999999999</ele><time>2024-02-03T02:38:21Z</time></trkpt><trkpt lat="35.9836565" lon="139.1680562"><ele>789.9</ele><time>2024-02-03T02:38:38Z</time></trkpt><trkpt lat="35.9835431" lon="139.1682295"><ele>784.9900000000001</ele><time>2024-02-03T02:39:07Z</time></trkpt><trkpt lat="35.983508" lon="139.1680087"><ele>780.1533333333333</ele><time>2024-02-03T02:39:31Z</time></trkpt><trkpt lat="35.983333" lon="139.1679417"><ele>773.85</ele><time>2024-02-03T02:40:42Z</time></trkpt><trkpt lat="35.9831547" lon="139.1678969"><ele>766.3433333333334</ele><time>2024-02-03T02:41:02Z</time></trkpt><trkpt lat="35.9829739" lon="139.1679122"><ele>756.7466666666668</ele><time>2024-02-03T02:41:57Z</time></trkpt><trkpt lat="35.9828734" lon="139.1676972"><ele>749.2766666666666</ele><time>2024-02-03T02:42:19Z</time></trkpt><trkpt lat="35.9827786" lon="139.1675072"><ele>740.1033333333334</ele><time>2024-02-03T02:43:29Z</time></trkpt><trkpt lat="35.9825993" lon="139.1675524"><ele>730.9266666666667</ele><time>2024-02-03T02:43:50Z</time></trkpt><trkpt lat="35.9824286" lon="139.167625"><ele>719.7399999999999</ele><time>2024-02-03T02:44:21Z</time></trkpt><trkpt lat="35.9822439" lon="139.1676714"><ele>711.5533333333333</ele><time>2024-02-03T02:44:42Z</time></trkpt><trkpt lat="35.9820674" lon="139.1676135"><ele>705.4166666666666</ele><time>2024-02-03T02:44:59Z</time></trkpt><trkpt lat="35.9818841" lon="139.1676122"><ele>700.0366666666667</ele><time>2024-02-03T02:45:57Z</time></trkpt><trkpt lat="35.9817722" lon="139.1674259"><ele>693.9033333333333</ele><time>2024-02-03T02:46:08Z</time></trkpt><trkpt lat="35.9816278" lon="139.1672929"><ele>687.1</ele><time>2024-02-03T02:46:32Z</time></trkpt><trkpt lat="35.9814835" lon="139.1671532"><ele>680.9533333333334</ele><time>2024-02-03T02:47:28Z</time></trkpt><trkpt lat="35.981331" lon="139.1670213"><ele>675.9300000000001</ele><time>2024-02-03T02:47:41Z</time></trkpt><trkpt lat="35.9811888" lon="139.1668577"><ele>671.7733333333334</ele><time>2024-02-03T02:47:53Z</time></trkpt><trkpt lat="35.9810806" lon="139.1666767"><ele>667.7600000000001</ele><time>2024-02-03T02:48:06Z</time></trkpt><trkpt lat="35.980911" lon="139.1665976"><ele>664.0033333333332</ele><time>2024-02-03T02:48:28Z</time></trkpt><trkpt lat="35.9807752" lon="139.1664448"><ele>659.2133333333333</ele><time>2024-02-03T02:48:59Z</time></trkpt><trkpt lat="35.9807453" lon="139.166223"><ele>654.9033333333333</ele><time>2024-02-03T02:49:27Z</time></trkpt><trkpt lat="35.9806141" lon="139.1660583"><ele>647.1133333333333</ele><time>2024-02-03T02:50:08Z</time></trkpt><trkpt lat="35.9804871" lon="139.1658983"><ele>638.08</ele><time>2024-02-03T02:50:25Z</time></trkpt><trkpt lat="35.9803288" lon="139.1660078"><ele>629.13</ele><time>2024-02-03T02:50:53Z</time></trkpt><trkpt lat="35.9803059" lon="139.1662282"><ele>623.78</ele><time>2024-02-03T02:51:25Z</time></trkpt><trkpt lat="35.9801907" lon="139.1663994"><ele>618.1333333333333</ele><time>2024-02-03T02:52:24Z</time></trkpt><trkpt lat="35.9802785" lon="139.1666119"><ele>617.5966666666667</ele><time>2024-02-03T02:53:04Z</time></trkpt><trkpt lat="35.9801345" lon="139.1664671"><ele>613.1233333333333</ele><time>2024-02-03T02:53:18Z</time></trkpt><trkpt lat="35.9800695" lon="139.1662513"><ele>610.7433333333333</ele><time>2024-02-03T02:53:28Z</time></trkpt><trkpt lat="35.9799687" lon="139.1660583"><ele>603.66</ele><time>2024-02-03T02:53:53Z</time></trkpt><trkpt lat="35.9799258" lon="139.1658358"><ele>599.4666666666666</ele><time>2024-02-03T02:54:20Z</time></trkpt><trkpt lat="35.9799029" lon="139.1656119"><ele>595.54</ele><time>2024-02-03T02:54:36Z</time></trkpt><trkpt lat="35.9799974" lon="139.1654214"><ele>592.64</ele><time>2024-02-03T02:55:03Z</time></trkpt><trkpt lat="35.9798715" lon="139.165261"><ele>587.1</ele><time>2024-02-03T02:55:24Z</time></trkpt><trkpt lat="35.9798564" lon="139.1650359"><ele>581.8866666666668</ele><time>2024-02-03T02:55:36Z</time></trkpt><trkpt lat="35.9797822" lon="139.1648336"><ele>575.1233333333333</ele><time>2024-02-03T02:56:01Z</time></trkpt><trkpt lat="35.9796813" lon="139.1646497"><ele>571.71</ele><time>2024-02-03T02:58:28Z</time></trkpt><trkpt lat="35.9796492" lon="139.1644276"><ele>570.7800000000001</ele><time>2024-02-03T02:58:48Z</time></trkpt><trkpt lat="35.9794997" lon="139.1642907"><ele>571.8533333333334</ele><time>2024-02-03T02:59:01Z</time></trkpt><trkpt lat="35.9793437" lon="139.1641646"><ele>571.84</ele><time>2024-02-03T02:59:13Z</time></trkpt><trkpt lat="35.979211" lon="139.1640096"><ele>568.7466666666667</ele><time>2024-02-03T02:59:34Z</time></trkpt><trkpt lat="35.9791099" lon="139.1638022"><ele>562.62</ele><time>2024-02-03T02:59:46Z</time></trkpt><trkpt lat="35.9791628" lon="139.1635773"><ele>559.8233333333334</ele><time>2024-02-03T02:59:59Z</time></trkpt><trkpt lat="35.9792243" lon="139.1633652"><ele>560.0633333333334</ele><time>2024-02-03T03:00:13Z</time></trkpt><trkpt lat="35.9792219" lon="139.1631433"><ele>561.9366666666666</ele><time>2024-02-03T03:00:53Z</time></trkpt><trkpt lat="35.9792678" lon="139.1629231"><ele>562.8933333333334</ele><time>2024-02-03T03:01:20Z</time></trkpt><trkpt lat="35.979205" lon="139.1627134"><ele>560.6133333333333</ele><time>2024-02-03T03:01:46Z</time></trkpt><trkpt lat="35.9791461" lon="139.1625011"><ele>558.2466666666667</ele><time>2024-02-03T03:01:59Z</time></trkpt><trkpt lat="35.979089" lon="139.1622508"><ele>553.8633333333333</ele><time>2024-02-03T03:02:13Z</time></trkpt><trkpt lat="35.9791252" lon="139.162022"><ele>553.3133333333334</ele><time>2024-02-03T03:03:26Z</time></trkpt><trkpt lat="35.9790694" lon="139.161808"><ele>551.68</ele><time>2024-02-03T03:03:40Z</time></trkpt><trkpt lat="35.9791246" lon="139.1615938"><ele>551.8866666666667</ele><time>2024-02-03T03:04:01Z</time></trkpt><trkpt lat="35.9792754" lon="139.1614717"><ele>550.1166666666667</ele><time>2024-02-03T03:04:40Z</time></trkpt><trkpt lat="35.9794556" lon="139.1614189"><ele>551.1833333333334</ele><time>2024-02-03T03:04:57Z</time></trkpt><trkpt lat="35.979636" lon="139.161357"><ele>549.7500000000001</ele><time>2024-02-03T03:05:11Z</time></trkpt><trkpt lat="35.9798162" lon="139.161413"><ele>549.6366666666667</ele><time>2024-02-03T03:06:09Z</time></trkpt><trkpt lat="35.9797551" lon="139.1611956"><ele>545.25</ele><time>2024-02-03T03:07:26Z</time></trkpt><trkpt lat="35.979681" lon="139.1609878"><ele>541.2266666666666</ele><time>2024-02-03T03:07:42Z</time></trkpt><trkpt lat="35.9795327" lon="139.1608552"><ele>534.31</ele><time>2024-02-03T03:07:55Z</time></trkpt><trkpt lat="35.9793898" lon="139.1607104"><ele>530.34</ele><time>2024-02-03T03:08:09Z</time></trkpt><trkpt lat="35.9792439" lon="139.1605789"><ele>526.28</ele><time>2024-02-03T03:08:23Z</time></trkpt><trkpt lat="35.9790974" lon="139.1604421"><ele>524.3466666666667</ele><time>2024-02-03T03:08:36Z</time></trkpt><trkpt lat="35.9789595" lon="139.1602908"><ele>523.4666666666667</ele><time>2024-02-03T03:08:53Z</time></trkpt><trkpt lat="35.9787842" lon="139.1602069"><ele>522.5033333333332</ele><time>2024-02-03T03:09:20Z</time></trkpt><trkpt lat="35.9786208" lon="139.1601051"><ele>518.8566666666667</ele><time>2024-02-03T03:09:35Z</time></trkpt><trkpt lat="35.97855" lon="139.1598872"><ele>518.1466666666666</ele><time>2024-02-03T03:09:46Z</time></trkpt><trkpt lat="35.9784541" lon="139.1596985"><ele>521.8433333333334</ele><time>2024-02-03T03:10:08Z</time></trkpt><trkpt lat="35.978277" lon="139.1597693"><ele>525.62</ele><time>2024-02-03T03:10:27Z</time></trkpt><trkpt lat="35.9780948" lon="139.1597091"><ele>524.4266666666667</ele><time>2024-02-03T03:10:38Z</time></trkpt><trkpt lat="35.9779932" lon="139.1595148"><ele>519.9133333333334</ele><time>2024-02-03T03:10:50Z</time></trkpt><trkpt lat="35.9779312" lon="139.1592984"><ele>515.3433333333334</ele><time>2024-02-03T03:11:13Z</time></trkpt><trkpt lat="35.9779123" lon="139.1590754"><ele>511.39000000000004</ele><time>2024-02-03T03:11:24Z</time></trkpt><trkpt lat="35.9779692" lon="139.1588496"><ele>508.12999999999994</ele><time>2024-02-03T03:11:41Z</time></trkpt><trkpt lat="35.9781185" lon="139.1587033"><ele>507.34666666666664</ele><time>2024-02-03T03:11:56Z</time></trkpt><trkpt lat="35.9782759" lon="139.1585873"><ele>508.74666666666667</ele><time>2024-02-03T03:12:24Z</time></trkpt><trkpt lat="35.9781056" lon="139.1585047"><ele>506.88000000000005</ele><time>2024-02-03T03:12:48Z</time></trkpt><trkpt lat="35.9779345" lon="139.1584264"><ele>501.5366666666667</ele><time>2024-02-03T03:13:16Z</time></trkpt><trkpt lat="35.9777536" lon="139.1584277"><ele>493.71333333333337</ele><time>2024-02-03T03:13:24Z</time></trkpt><trkpt lat="35.9775693" lon="139.1584404"><ele>488.8866666666667</ele><time>2024-02-03T03:13:37Z</time></trkpt><trkpt lat="35.9773837" lon="139.158423"><ele>488.1499999999999</ele><time>2024-02-03T03:13:49Z</time></trkpt><trkpt lat="35.9772092" lon="139.1584792"><ele>491.29333333333335</ele><time>2024-02-03T03:14:15Z</time></trkpt><trkpt lat="35.9770465" lon="139.1583733"><ele>496.94666666666666</ele><time>2024-02-03T03:14:39Z</time></trkpt><trkpt lat="35.9768989" lon="139.1582388"><ele>503.2866666666667</ele><time>2024-02-03T03:14:54Z</time></trkpt><trkpt lat="35.9767783" lon="139.1580644"><ele>506.05333333333334</ele><time>2024-02-03T03:15:12Z</time></trkpt><trkpt lat="35.9767188" lon="139.1578451"><ele>505.81666666666666</ele><time>2024-02-03T03:15:27Z</time></trkpt><trkpt lat="35.9766732" lon="139.157629"><ele>503.70666666666665</ele><time>2024-02-03T03:15:54Z</time></trkpt><trkpt lat="35.9764839" lon="139.1575794"><ele>499.51</ele><time>2024-02-03T03:16:29Z</time></trkpt><trkpt lat="35.9763064" lon="139.1574879"><ele>494.48333333333335</ele><time>2024-02-03T03:16:45Z</time></trkpt><trkpt lat="35.9761333" lon="139.1575667"><ele>487.6966666666667</ele><time>2024-02-03T03:17:35Z</time></trkpt><trkpt lat="35.9759512" lon="139.1574706"><ele>483.42</ele><time>2024-02-03T03:18:56Z</time></trkpt><trkpt lat="35.9757585" lon="139.1574009"><ele>477.5333333333333</ele><time>2024-02-03T03:19:08Z</time></trkpt><trkpt lat="35.9755728" lon="139.1574539"><ele>469.2033333333334</ele><time>2024-02-03T03:19:26Z</time></trkpt><trkpt lat="35.9755556" lon="139.157224"><ele>463.5133333333333</ele><time>2024-02-03T03:19:44Z</time></trkpt><trkpt lat="35.9754639" lon="139.1570266"><ele>461.8633333333334</ele><time>2024-02-03T03:20:02Z</time></trkpt><trkpt lat="35.9753638" lon="139.15683"><ele>462.57</ele><time>2024-02-03T03:20:23Z</time></trkpt><trkpt lat="35.9752109" lon="139.1566686"><ele>458.5566666666667</ele><time>2024-02-03T03:20:36Z</time></trkpt><trkpt lat="35.975067" lon="139.1565224"><ele>451.47</ele><time>2024-02-03T03:21:07Z</time></trkpt><trkpt lat="35.9750019" lon="139.156311"><ele>446.25</ele><time>2024-02-03T03:21:21Z</time></trkpt><trkpt lat="35.9749749" lon="139.1560796"><ele>446.37999999999994</ele><time>2024-02-03T03:21:33Z</time></trkpt><trkpt lat="35.9748954" lon="139.1558742"><ele>447.9866666666667</ele><time>2024-02-03T03:21:45Z</time></trkpt><trkpt lat="35.9747717" lon="139.155705"><ele>446.20666666666665</ele><time>2024-02-03T03:21:57Z</time></trkpt><trkpt lat="35.9746094" lon="139.1558233"><ele>437.92333333333335</ele><time>2024-02-03T03:23:07Z</time></trkpt><trkpt lat="35.97446" lon="139.1556702"><ele>424.83</ele><time>2024-02-03T03:23:37Z</time></trkpt><trkpt lat="35.974443" lon="139.1554401"><ele>415.1666666666667</ele><time>2024-02-03T03:23:47Z</time></trkpt><trkpt lat="35.9745739" lon="139.1552854"><ele>410.9166666666667</ele><time>2024-02-03T03:23:59Z</time></trkpt><trkpt lat="35.9747426" lon="139.1552035"><ele>414.72</ele><time>2024-02-03T03:24:15Z</time></trkpt><trkpt lat="35.9749077" lon="139.1551032"><ele>419.61999999999995</ele><time>2024-02-03T03:24:45Z</time></trkpt><trkpt lat="35.9750425" lon="139.1549556"><ele>422.3766666666667</ele><time>2024-02-03T03:24:56Z</time></trkpt><trkpt lat="35.9751053" lon="139.1547426"><ele>420.6033333333333</ele><time>2024-02-03T03:25:10Z</time></trkpt><trkpt lat="35.9751818" lon="139.154535"><ele>414.3966666666667</ele><time>2024-02-03T03:25:28Z</time></trkpt><trkpt lat="35.9751538" lon="139.1543156"><ele>405.3333333333333</ele><time>2024-02-03T03:25:45Z</time></trkpt><trkpt lat="35.9751456" lon="139.1540913"><ele>395.23</ele><time>2024-02-03T03:26:01Z</time></trkpt><trkpt lat="35.9752498" lon="139.1538847"><ele>388.5566666666667</ele><time>2024-02-03T03:26:21Z</time></trkpt><trkpt lat="35.9753471" lon="139.153696"><ele>385.41333333333336</ele><time>2024-02-03T03:26:34Z</time></trkpt><trkpt lat="35.9751648" lon="139.1536804"><ele>383.48</ele><time>2024-02-03T03:28:54Z</time></trkpt><trkpt lat="35.9751407" lon="139.1534579"><ele>380.66333333333336</ele><time>2024-02-03T03:29:02Z</time></trkpt><trkpt lat="35.9751152" lon="139.1532381"><ele>377.6033333333333</ele><time>2024-02-03T03:29:12Z</time></trkpt><trkpt lat="35.9750239" lon="139.15304"><ele>375.28333333333336</ele><time>2024-02-03T03:29:43Z</time></trkpt><trkpt lat="35.9749274" lon="139.1528518"><ele>372.25</ele><time>2024-02-03T03:30:00Z</time></trkpt><trkpt lat="35.9751118" lon="139.1528567"><ele>371.3533333333333</ele><time>2024-02-03T03:30:34Z</time></trkpt><trkpt lat="35.9751734" lon="139.1526184"><ele>370.96333333333337</ele><time>2024-02-03T03:30:46Z</time></trkpt><trkpt lat="35.9752213" lon="139.1523951"><ele>371.04333333333335</ele><time>2024-02-03T03:30:57Z</time></trkpt><trkpt lat="35.9752712" lon="139.1521606"><ele>368.23</ele><time>2024-02-03T03:31:12Z</time></trkpt><trkpt lat="35.9754227" lon="139.1520378"><ele>364.91333333333336</ele><time>2024-02-03T03:31:27Z</time></trkpt><trkpt lat="35.9755864" lon="139.1519272"><ele>365.6866666666667</ele><time>2024-02-03T03:31:39Z</time></trkpt><trkpt lat="35.9756961" lon="139.1517491"><ele>365.3633333333334</ele><time>2024-02-03T03:31:53Z</time></trkpt><trkpt lat="35.9757594" lon="139.1515396"><ele>365.05</ele><time>2024-02-03T03:32:06Z</time></trkpt><trkpt lat="35.9759017" lon="139.1513946"><ele>363.42</ele><time>2024-02-03T03:32:17Z</time></trkpt><trkpt lat="35.9760338" lon="139.1512188"><ele>366.9766666666667</ele><time>2024-02-03T03:32:31Z</time></trkpt><trkpt lat="35.9761046" lon="139.1510095"><ele>369.8766666666667</ele><time>2024-02-03T03:32:42Z</time></trkpt><trkpt lat="35.9761327" lon="139.1507771"><ele>371.02333333333337</ele><time>2024-02-03T03:32:56Z</time></trkpt><trkpt lat="35.9761072" lon="139.150548"><ele>366.56</ele><time>2024-02-03T03:33:08Z</time></trkpt><trkpt lat="35.9760295" lon="139.1503326"><ele>363.0266666666667</ele><time>2024-02-03T03:33:21Z</time></trkpt><trkpt lat="35.9759352" lon="139.150138"><ele>359.47333333333336</ele><time>2024-02-03T03:33:33Z</time></trkpt><trkpt lat="35.9758455" lon="139.1499321"><ele>356.6266666666667</ele><time>2024-02-03T03:33:47Z</time></trkpt><trkpt lat="35.9758991" lon="139.1497084"><ele>355.66</ele><time>2024-02-03T03:33:52Z</time></trkpt><trkpt lat="35.9757124" lon="139.1497031"><ele>351.06</ele><time>2024-02-03T03:34:01Z</time></trkpt><trkpt lat="35.9756025" lon="139.1495147"><ele>348.03999999999996</ele><time>2024-02-03T03:34:17Z</time></trkpt><trkpt lat="35.9755011" lon="139.1493126"><ele>344.01</ele><time>2024-02-03T03:34:29Z</time></trkpt><trkpt lat="35.9754289" lon="139.1491054"><ele>344.3533333333333</ele><time>2024-02-03T03:34:42Z</time></trkpt><trkpt lat="35.9753305" lon="139.1489121"><ele>345.1466666666667</ele><time>2024-02-03T03:34:55Z</time></trkpt><trkpt lat="35.9752172" lon="139.1487357"><ele>345.3666666666666</ele><time>2024-02-03T03:35:05Z</time></trkpt><trkpt lat="35.9751259" lon="139.1485397"><ele>345.25666666666666</ele><time>2024-02-03T03:35:18Z</time></trkpt><trkpt lat="35.9750883" lon="139.1483193"><ele>344.51</ele><time>2024-02-03T03:35:31Z</time></trkpt><trkpt lat="35.9750598" lon="139.1480931"><ele>342.9766666666667</ele><time>2024-02-03T03:35:43Z</time></trkpt><trkpt lat="35.9749875" lon="139.1478766"><ele>340.17333333333335</ele><time>2024-02-03T03:36:00Z</time></trkpt><trkpt lat="35.974934" lon="139.1476639"><ele>337.24333333333334</ele><time>2024-02-03T03:36:14Z</time></trkpt><trkpt lat="35.9749471" lon="139.1474392"><ele>335.43</ele><time>2024-02-03T03:36:27Z</time></trkpt><trkpt lat="35.9750216" lon="139.1472086"><ele>335.12</ele><time>2024-02-03T03:36:40Z</time></trkpt><trkpt lat="35.9751852" lon="139.1469631"><ele>334.90000000000003</ele><time>2024-02-03T03:36:49Z</time></trkpt><trkpt lat="35.9753404" lon="139.1468325"><ele>335.42</ele><time>2024-02-03T03:37:11Z</time></trkpt><trkpt lat="35.975474" lon="139.1466709"><ele>335.17333333333335</ele><time>2024-02-03T03:37:24Z</time></trkpt><trkpt lat="35.9756602" lon="139.1466222"><ele>335.54</ele><time>2024-02-03T03:37:37Z</time></trkpt><trkpt lat="35.9758383" lon="139.1466654"><ele>336.4533333333333</ele><time>2024-02-03T03:37:48Z</time></trkpt><trkpt lat="35.9759176" lon="139.1464658"><ele>335.97333333333336</ele><time>2024-02-03T03:37:59Z</time></trkpt><trkpt lat="35.976065" lon="139.1463089"><ele>334.8566666666666</ele><time>2024-02-03T03:38:19Z</time></trkpt><trkpt lat="35.9761728" lon="139.1461103"><ele>329.51</ele><time>2024-02-03T03:38:34Z</time></trkpt><trkpt lat="35.9762816" lon="139.1459082"><ele>325.9</ele><time>2024-02-03T03:38:49Z</time></trkpt><trkpt lat="35.976341" lon="139.1456984"><ele>325.40000000000003</ele><time>2024-02-03T03:39:02Z</time></trkpt><trkpt lat="35.9764724" lon="139.1455347"><ele>328.23333333333335</ele><time>2024-02-03T03:39:22Z</time></trkpt><trkpt lat="35.9765887" lon="139.145351"><ele>328.8766666666666</ele><time>2024-02-03T03:39:51Z</time></trkpt><trkpt lat="35.9765597" lon="139.1451218"><ele>327.29</ele><time>2024-02-03T03:40:06Z</time></trkpt><trkpt lat="35.9765181" lon="139.144903"><ele>325.16333333333336</ele><time>2024-02-03T03:40:21Z</time></trkpt><trkpt lat="35.9765941" lon="139.144692"><ele>323.08666666666664</ele><time>2024-02-03T03:40:47Z</time></trkpt><trkpt lat="35.9766016" lon="139.144463"><ele>320.9433333333333</ele><time>2024-02-03T03:40:59Z</time></trkpt><trkpt lat="35.97663" lon="139.1442425"><ele>320.63</ele><time>2024-02-03T03:41:05Z</time></trkpt><trkpt lat="35.9765576" lon="139.144034"><ele>322.2033333333333</ele><time>2024-02-03T03:41:22Z</time></trkpt><trkpt lat="35.9766059" lon="139.1438195"><ele>323.27</ele><time>2024-02-03T03:41:35Z</time></trkpt><trkpt lat="35.9765696" lon="139.1436015"><ele>322.74666666666667</ele><time>2024-02-03T03:41:50Z</time></trkpt><trkpt lat="35.9766117" lon="139.1433696"><ele>322.3733333333334</ele><time>2024-02-03T03:42:01Z</time></trkpt><trkpt lat="35.9767197" lon="139.1431869"><ele>322.7633333333333</ele><time>2024-02-03T03:42:39Z</time></trkpt><trkpt lat="35.9767534" lon="139.1429523"><ele>322.0133333333333</ele><time>2024-02-03T03:42:49Z</time></trkpt><trkpt lat="35.9768948" lon="139.1427904"><ele>322.1033333333333</ele><time>2024-02-03T03:43:02Z</time></trkpt><trkpt lat="35.9769091" lon="139.1425677"><ele>321.34</ele><time>2024-02-03T03:43:09Z</time></trkpt><trkpt lat="35.9770092" lon="139.1423779"><ele>321.78999999999996</ele><time>2024-02-03T03:43:27Z</time></trkpt><trkpt lat="35.9770686" lon="139.1421649"><ele>320.8</ele><time>2024-02-03T03:43:40Z</time></trkpt><trkpt lat="35.9771977" lon="139.1419915"><ele>320.24666666666667</ele><time>2024-02-03T03:43:53Z</time></trkpt><trkpt lat="35.9773382" lon="139.1418346"><ele>320.07</ele><time>2024-02-03T03:44:04Z</time></trkpt><trkpt lat="35.9774632" lon="139.1416559"><ele>319.68333333333334</ele><time>2024-02-03T03:44:16Z</time></trkpt><trkpt lat="35.9775897" lon="139.1414838"><ele>318.06</ele><time>2024-02-03T03:44:30Z</time></trkpt><trkpt lat="35.9776877" lon="139.1412946"><ele>316.0166666666667</ele><time>2024-02-03T03:44:47Z</time></trkpt><trkpt lat="35.9776504" lon="139.1410721"><ele>313.99</ele><time>2024-02-03T03:45:03Z</time></trkpt><trkpt lat="35.9775972" lon="139.1408547"><ele>313.32</ele><time>2024-02-03T03:45:16Z</time></trkpt><trkpt lat="35.9775331" lon="139.1406407"><ele>312.88000000000005</ele><time>2024-02-03T03:45:27Z</time></trkpt><trkpt lat="35.9774769" lon="139.1404293"><ele>313.58</ele><time>2024-02-03T03:45:40Z</time></trkpt><trkpt lat="35.9773806" lon="139.1402272"><ele>313.01666666666665</ele><time>2024-02-03T03:45:54Z</time></trkpt><trkpt lat="35.9773223" lon="139.1400084"><ele>312.6466666666667</ele><time>2024-02-03T03:46:05Z</time></trkpt><trkpt lat="35.9773475" lon="139.1397861"><ele>312.2766666666667</ele><time>2024-02-03T03:46:18Z</time></trkpt><trkpt lat="35.9773015" lon="139.1395634"><ele>311.86000000000007</ele><time>2024-02-03T03:46:32Z</time></trkpt><trkpt lat="35.9772584" lon="139.1393283"><ele>311.0866666666667</ele><time>2024-02-03T03:46:44Z</time></trkpt><trkpt lat="35.9772377" lon="139.1391036"><ele>309.74</ele><time>2024-02-03T03:46:57Z</time></trkpt><trkpt lat="35.9772029" lon="139.1388834"><ele>309.25333333333333</ele><time>2024-02-03T03:47:08Z</time></trkpt><trkpt lat="35.9771687" lon="139.1386487"><ele>308.3666666666667</ele><time>2024-02-03T03:47:23Z</time></trkpt><trkpt lat="35.9771449" lon="139.1384194"><ele>307.75</ele><time>2024-02-03T03:47:34Z</time></trkpt><trkpt lat="35.9771287" lon="139.1381854"><ele>306.99666666666667</ele><time>2024-02-03T03:47:45Z</time></trkpt><trkpt lat="35.9771868" lon="139.1379538"><ele>306.75</ele><time>2024-02-03T03:47:54Z</time></trkpt><trkpt lat="35.9773117" lon="139.1377762"><ele>306.91</ele><time>2024-02-03T03:48:13Z</time></trkpt><trkpt lat="35.9773731" lon="139.1375603"><ele>306.68</ele><time>2024-02-03T03:48:24Z</time></trkpt><trkpt lat="35.9774123" lon="139.1373404"><ele>306.06333333333333</ele><time>2024-02-03T03:48:51Z</time></trkpt><trkpt lat="35.9773685" lon="139.1371221"><ele>305.32666666666665</ele><time>2024-02-03T03:49:05Z</time></trkpt><trkpt lat="35.9773674" lon="139.1368937"><ele>305.27</ele><time>2024-02-03T03:49:20Z</time></trkpt><trkpt lat="35.9772967" lon="139.1366876"><ele>305.68</ele><time>2024-02-03T03:49:36Z</time></trkpt><trkpt lat="35.9772196" lon="139.1364849"><ele>306.07</ele><time>2024-02-03T03:49:47Z</time></trkpt><trkpt lat="35.9771924" lon="139.1362628"><ele>306.16333333333336</ele><time>2024-02-03T03:49:56Z</time></trkpt><trkpt lat="35.9771576" lon="139.1360292"><ele>306.06</ele><time>2024-02-03T03:50:09Z</time></trkpt><trkpt lat="35.9769807" lon="139.1359432"><ele>306.06</ele><time>2024-02-03T03:50:21Z</time></trkpt></trkseg></trk></gpx>