<?xml version='1.0' encoding='UTF-8'?><gpx creator="YAMAP - https://yamap.com" xsi:schemaLocation="http://www.topografix.com/GPX/1/1 http://www.topografix.com/GPX/1/1/gpx.xsd" version="1.1" xmlns="http://www.topografix.com/GPX/1/1" xmlns:xsi="http://www.w3.org/2001/XMLSchema-instance"><metadata><bounds maxlat="35.613319" maxlon="138.9551897" minlat="35.5716056" minlon="138.9290084"/></metadata><trk><name>菊花山から九鬼山</name><number>1</number><trkseg><trkpt lat="35.613319" lon="138.9430645"><ele>359.19</ele><time>2024-11-23T23:36:43Z</time></trkpt><trkpt lat="35.6131172" lon="138.943077"><ele>359.48</ele><time>2024-11-23T23:37:16Z</time></trkpt><trkpt lat="35.6129706" lon="138.9432411"><ele>359.99</ele><time>2024-11-23T23:37:31Z</time></trkpt><trkpt lat="35.612775" lon="138.9431148"><ele>360.78666666666663</ele><time>2024-11-23T23:37:49Z</time></trkpt><trkpt lat="35.6125824" lon="138.9431941"><ele>361.67333333333335</ele><time>2024-11-23T23:38:07Z</time></trkpt><trkpt lat="35.6124227" lon="138.9433089"><ele>362.59666666666664</ele><time>2024-11-23T23:38:22Z</time></trkpt><trkpt lat="35.6122618" lon="138.9434319"><ele>363.71000000000004</ele><time>2024-11-23T23:38:55Z</time></trkpt><trkpt lat="35.6120534" lon="138.9435391"><ele>364.99666666666667</ele><time>2024-11-23T23:39:13Z</time></trkpt><trkpt lat="35.6118477" lon="138.9436358"><ele>366.2866666666667</ele><time>2024-11-23T23:39:28Z</time></trkpt><trkpt lat="35.6116529" lon="138.9437423"><ele>367.65333333333336</ele><time>2024-11-23T23:39:43Z</time></trkpt><trkpt lat="35.6114667" lon="138.9438642"><ele>368.85666666666674</ele><time>2024-11-23T23:40:01Z</time></trkpt><trkpt lat="35.6112977" lon="138.9439489"><ele>370.49</ele><time>2024-11-23T23:40:13Z</time></trkpt><trkpt lat="35.6111251" lon="138.9440858"><ele>372.3533333333333</ele><time>2024-11-23T23:40:28Z</time></trkpt><trkpt lat="35.6109425" lon="138.9442406"><ele>374.9566666666667</ele><time>2024-11-23T23:40:43Z</time></trkpt><trkpt lat="35.6108435" lon="138.9444361"><ele>377.4266666666667</ele><time>2024-11-23T23:41:13Z</time></trkpt><trkpt lat="35.610649" lon="138.944297"><ele>379.8866666666666</ele><time>2024-11-23T23:42:31Z</time></trkpt><trkpt lat="35.6105183" lon="138.9444603"><ele>382.79</ele><time>2024-11-23T23:43:16Z</time></trkpt><trkpt lat="35.6103768" lon="138.9442871"><ele>384.9200000000001</ele><time>2024-11-23T23:43:25Z</time></trkpt><trkpt lat="35.6102602" lon="138.9441054"><ele>386.3766666666667</ele><time>2024-11-23T23:43:39Z</time></trkpt><trkpt lat="35.6101361" lon="138.9439141"><ele>386.2066666666667</ele><time>2024-11-23T23:43:58Z</time></trkpt><trkpt lat="35.610023" lon="138.9437151"><ele>385.73333333333335</ele><time>2024-11-23T23:44:16Z</time></trkpt><trkpt lat="35.6099035" lon="138.9435421"><ele>385.9466666666667</ele><time>2024-11-23T23:44:31Z</time></trkpt><trkpt lat="35.6098038" lon="138.9433488"><ele>386.41333333333336</ele><time>2024-11-23T23:44:46Z</time></trkpt><trkpt lat="35.6097005" lon="138.9431641"><ele>387.59666666666664</ele><time>2024-11-23T23:44:58Z</time></trkpt><trkpt lat="35.6096019" lon="138.942966"><ele>385.17333333333335</ele><time>2024-11-23T23:45:11Z</time></trkpt><trkpt lat="35.6094767" lon="138.9427401"><ele>383.07666666666665</ele><time>2024-11-23T23:45:26Z</time></trkpt><trkpt lat="35.6093567" lon="138.9425208"><ele>380.00333333333333</ele><time>2024-11-23T23:45:41Z</time></trkpt><trkpt lat="35.6092451" lon="138.9427046"><ele>383.3533333333333</ele><time>2024-11-23T23:47:10Z</time></trkpt><trkpt lat="35.6091566" lon="138.9429059"><ele>393.6366666666666</ele><time>2024-11-23T23:48:14Z</time></trkpt><trkpt lat="35.6091772" lon="138.9431266"><ele>408.02000000000004</ele><time>2024-11-23T23:49:38Z</time></trkpt><trkpt lat="35.6090922" lon="138.9433274"><ele>422.77666666666664</ele><time>2024-11-23T23:51:05Z</time></trkpt><trkpt lat="35.6090561" lon="138.9435485"><ele>433.12000000000006</ele><time>2024-11-23T23:51:41Z</time></trkpt><trkpt lat="35.6089605" lon="138.9437461"><ele>443.70000000000005</ele><time>2024-11-23T23:53:05Z</time></trkpt><trkpt lat="35.6088917" lon="138.9439614"><ele>455.7866666666667</ele><time>2024-11-23T23:54:14Z</time></trkpt><trkpt lat="35.6087317" lon="138.9440676"><ele>468.47</ele><time>2024-11-23T23:55:02Z</time></trkpt><trkpt lat="35.6085475" lon="138.9440673"><ele>478.78999999999996</ele><time>2024-11-23T23:56:17Z</time></trkpt><trkpt lat="35.6084226" lon="138.9442343"><ele>486.74</ele><time>2024-11-23T23:57:11Z</time></trkpt><trkpt lat="35.6083282" lon="138.944423"><ele>494.66</ele><time>2024-11-23T23:58:44Z</time></trkpt><trkpt lat="35.6082075" lon="138.9446077"><ele>506.8966666666667</ele><time>2024-11-24T00:00:17Z</time></trkpt><trkpt lat="35.6080725" lon="138.9448167"><ele>519.14</ele><time>2024-11-24T00:01:46Z</time></trkpt><trkpt lat="35.6079755" lon="138.9450357"><ele>531.0233333333334</ele><time>2024-11-24T00:02:49Z</time></trkpt><trkpt lat="35.6079285" lon="138.9453081"><ele>542.5133333333333</ele><time>2024-11-24T00:05:01Z</time></trkpt><trkpt lat="35.6077835" lon="138.9454755"><ele>553.2800000000001</ele><time>2024-11-24T00:05:22Z</time></trkpt><trkpt lat="35.6076254" lon="138.9455903"><ele>561.9666666666667</ele><time>2024-11-24T00:05:55Z</time></trkpt><trkpt lat="35.6075927" lon="138.9458254"><ele>566.6700000000001</ele><time>2024-11-24T00:06:57Z</time></trkpt><trkpt lat="35.6076213" lon="138.9460591"><ele>571.7133333333333</ele><time>2024-11-24T00:07:46Z</time></trkpt><trkpt lat="35.6076117" lon="138.9463099"><ele>580.0733333333334</ele><time>2024-11-24T00:11:08Z</time></trkpt><trkpt lat="35.60766" lon="138.946529"><ele>590.2600000000001</ele><time>2024-11-24T00:12:02Z</time></trkpt><trkpt lat="35.6076571" lon="138.9467524"><ele>599.25</ele><time>2024-11-24T00:14:14Z</time></trkpt><trkpt lat="35.6076922" lon="138.9469817"><ele>606.54</ele><time>2024-11-24T00:14:41Z</time></trkpt><trkpt lat="35.6077548" lon="138.9472041"><ele>614.5466666666666</ele><time>2024-11-24T00:15:14Z</time></trkpt><trkpt lat="35.6076955" lon="138.947415"><ele>621.3366666666666</ele><time>2024-11-24T00:17:05Z</time></trkpt><trkpt lat="35.6078146" lon="138.94761"><ele>627.7666666666665</ele><time>2024-11-24T00:18:02Z</time></trkpt><trkpt lat="35.6079398" lon="138.9478108"><ele>632.5799999999999</ele><time>2024-11-24T00:18:50Z</time></trkpt><trkpt lat="35.6080012" lon="138.9480509"><ele>636.7199999999999</ele><time>2024-11-24T00:21:38Z</time></trkpt><trkpt lat="35.6079945" lon="138.9482751"><ele>636.8833333333333</ele><time>2024-11-24T00:22:35Z</time></trkpt><trkpt lat="35.6078993" lon="138.9485094"><ele>632.8766666666667</ele><time>2024-11-24T00:23:56Z</time></trkpt><trkpt lat="35.607833" lon="138.9487174"><ele>627.3833333333333</ele><time>2024-11-24T00:24:20Z</time></trkpt><trkpt lat="35.6077286" lon="138.9489112"><ele>620.66</ele><time>2024-11-24T00:25:56Z</time></trkpt><trkpt lat="35.6076426" lon="138.9491271"><ele>613.2399999999999</ele><time>2024-11-24T00:26:41Z</time></trkpt><trkpt lat="35.6074937" lon="138.949259"><ele>605.23</ele><time>2024-11-24T00:27:56Z</time></trkpt><trkpt lat="35.6073307" lon="138.949368"><ele>597.0233333333334</ele><time>2024-11-24T00:28:47Z</time></trkpt><trkpt lat="35.6071619" lon="138.9495057"><ele>590.46</ele><time>2024-11-24T00:29:05Z</time></trkpt><trkpt lat="35.6070645" lon="138.9496973"><ele>585.7866666666667</ele><time>2024-11-24T00:29:38Z</time></trkpt><trkpt lat="35.6069832" lon="138.9499332"><ele>583.19</ele><time>2024-11-24T00:30:11Z</time></trkpt><trkpt lat="35.6068176" lon="138.9500599"><ele>580.0766666666667</ele><time>2024-11-24T00:31:14Z</time></trkpt><trkpt lat="35.6066382" lon="138.9500952"><ele>574.71</ele><time>2024-11-24T00:31:31Z</time></trkpt><trkpt lat="35.6064666" lon="138.9502522"><ele>569.8866666666667</ele><time>2024-11-24T00:31:52Z</time></trkpt><trkpt lat="35.606302" lon="138.9503818"><ele>566.8966666666666</ele><time>2024-11-24T00:32:07Z</time></trkpt><trkpt lat="35.6061337" lon="138.9504786"><ele>567.7833333333333</ele><time>2024-11-24T00:32:31Z</time></trkpt><trkpt lat="35.6060128" lon="138.9506469"><ele>569.9066666666666</ele><time>2024-11-24T00:33:22Z</time></trkpt><trkpt lat="35.6058312" lon="138.9507255"><ele>572.11</ele><time>2024-11-24T00:34:08Z</time></trkpt><trkpt lat="35.6056383" lon="138.9508146"><ele>573.1033333333334</ele><time>2024-11-24T00:34:35Z</time></trkpt><trkpt lat="35.6054856" lon="138.9509428"><ele>572.89</ele><time>2024-11-24T00:34:59Z</time></trkpt><trkpt lat="35.6053152" lon="138.9510332"><ele>571.5633333333334</ele><time>2024-11-24T00:35:23Z</time></trkpt><trkpt lat="35.6051249" lon="138.9510016"><ele>568.2466666666666</ele><time>2024-11-24T00:37:16Z</time></trkpt><trkpt lat="35.6049401" lon="138.9509146"><ele>562.5666666666666</ele><time>2024-11-24T00:37:39Z</time></trkpt><trkpt lat="35.6047326" lon="138.9508823"><ele>555.1333333333333</ele><time>2024-11-24T00:38:01Z</time></trkpt><trkpt lat="35.6045372" lon="138.9508987"><ele>547.36</ele><time>2024-11-24T00:38:15Z</time></trkpt><trkpt lat="35.6043451" lon="138.9510178"><ele>540.2266666666666</ele><time>2024-11-24T00:38:46Z</time></trkpt><trkpt lat="35.6041627" lon="138.9511279"><ele>535.8866666666667</ele><time>2024-11-24T00:39:16Z</time></trkpt><trkpt lat="35.6040167" lon="138.951259"><ele>535.9900000000001</ele><time>2024-11-24T00:39:55Z</time></trkpt><trkpt lat="35.6038276" lon="138.9512899"><ele>539.8966666666666</ele><time>2024-11-24T00:40:20Z</time></trkpt><trkpt lat="35.6036453" lon="138.9513657"><ele>545.1966666666667</ele><time>2024-11-24T00:40:43Z</time></trkpt><trkpt lat="35.6034548" lon="138.9514701"><ele>550.16</ele><time>2024-11-24T00:41:10Z</time></trkpt><trkpt lat="35.6032885" lon="138.9515631"><ele>556.5233333333333</ele><time>2024-11-24T00:41:40Z</time></trkpt><trkpt lat="35.6031222" lon="138.9516879"><ele>562.22</ele><time>2024-11-24T00:42:25Z</time></trkpt><trkpt lat="35.6029176" lon="138.9516968"><ele>568.9533333333334</ele><time>2024-11-24T00:43:08Z</time></trkpt><trkpt lat="35.6027339" lon="138.9517339"><ele>574.32</ele><time>2024-11-24T00:43:51Z</time></trkpt><trkpt lat="35.6025599" lon="138.9518065"><ele>580.0500000000001</ele><time>2024-11-24T00:45:15Z</time></trkpt><trkpt lat="35.6024009" lon="138.9519157"><ele>584.5233333333334</ele><time>2024-11-24T00:45:39Z</time></trkpt><trkpt lat="35.6022233" lon="138.9519929"><ele>587.76</ele><time>2024-11-24T00:46:36Z</time></trkpt><trkpt lat="35.6021993" lon="138.9522274"><ele>590.48</ele><time>2024-11-24T00:47:12Z</time></trkpt><trkpt lat="35.602162" lon="138.95247"><ele>593.0566666666667</ele><time>2024-11-24T00:47:33Z</time></trkpt><trkpt lat="35.6020738" lon="138.9526745"><ele>595.9533333333333</ele><time>2024-11-24T00:47:54Z</time></trkpt><trkpt lat="35.6019736" lon="138.9528838"><ele>599.37</ele><time>2024-11-24T00:48:25Z</time></trkpt><trkpt lat="35.6019178" lon="138.9531081"><ele>601.4699999999999</ele><time>2024-11-24T00:48:44Z</time></trkpt><trkpt lat="35.6017323" lon="138.9532065"><ele>605.0966666666667</ele><time>2024-11-24T00:49:10Z</time></trkpt><trkpt lat="35.6015399" lon="138.953234"><ele>608.1</ele><time>2024-11-24T00:49:41Z</time></trkpt><trkpt lat="35.6013627" lon="138.9531795"><ele>611.4833333333335</ele><time>2024-11-24T00:50:05Z</time></trkpt><trkpt lat="35.6011686" lon="138.9532098"><ele>615.63</ele><time>2024-11-24T00:50:31Z</time></trkpt><trkpt lat="35.6010104" lon="138.9533374"><ele>620.3966666666666</ele><time>2024-11-24T00:51:29Z</time></trkpt><trkpt lat="35.6008866" lon="138.9535242"><ele>627.9833333333332</ele><time>2024-11-24T00:52:17Z</time></trkpt><trkpt lat="35.6007251" lon="138.9536419"><ele>634.3266666666667</ele><time>2024-11-24T00:52:59Z</time></trkpt><trkpt lat="35.6005712" lon="138.953789"><ele>640.0166666666668</ele><time>2024-11-24T00:53:26Z</time></trkpt><trkpt lat="35.6004274" lon="138.9539317"><ele>643.4533333333334</ele><time>2024-11-24T00:54:11Z</time></trkpt><trkpt lat="35.6003192" lon="138.9541131"><ele>645.57</ele><time>2024-11-24T00:54:44Z</time></trkpt><trkpt lat="35.6000834" lon="138.9542747"><ele>650.4366666666666</ele><time>2024-11-24T00:56:05Z</time></trkpt><trkpt lat="35.5999453" lon="138.954451"><ele>657.37</ele><time>2024-11-24T00:57:23Z</time></trkpt><trkpt lat="35.5998121" lon="138.9546003"><ele>667.0466666666667</ele><time>2024-11-24T00:58:08Z</time></trkpt><trkpt lat="35.5996743" lon="138.9547523"><ele>676.25</ele><time>2024-11-24T00:59:17Z</time></trkpt><trkpt lat="35.5995606" lon="138.9549546"><ele>687.1133333333333</ele><time>2024-11-24T01:01:05Z</time></trkpt><trkpt lat="35.5993718" lon="138.9550954"><ele>701.0433333333334</ele><time>2024-11-24T01:02:41Z</time></trkpt><trkpt lat="35.5991952" lon="138.9551897"><ele>715.2966666666666</ele><time>2024-11-24T01:04:29Z</time></trkpt><trkpt lat="35.5990103" lon="138.9551772"><ele>727.1533333333333</ele><time>2024-11-24T01:05:26Z</time></trkpt><trkpt lat="35.5988548" lon="138.9550598"><ele>734.9366666666666</ele><time>2024-11-24T01:05:56Z</time></trkpt><trkpt lat="35.5986728" lon="138.95496"><ele>739.4033333333333</ele><time>2024-11-24T01:06:38Z</time></trkpt><trkpt lat="35.5985064" lon="138.954866"><ele>741.2833333333334</ele><time>2024-11-24T01:07:56Z</time></trkpt><trkpt lat="35.5984387" lon="138.954629"><ele>739.3766666666667</ele><time>2024-11-24T01:08:34Z</time></trkpt><trkpt lat="35.5983437" lon="138.9544393"><ele>735.89</ele><time>2024-11-24T01:09:05Z</time></trkpt><trkpt lat="35.598245" lon="138.9542228"><ele>733.5666666666666</ele><time>2024-11-24T01:09:23Z</time></trkpt><trkpt lat="35.5981473" lon="138.9540314"><ele>733.1733333333333</ele><time>2024-11-24T01:09:41Z</time></trkpt><trkpt lat="35.5980559" lon="138.953819"><ele>733.5833333333334</ele><time>2024-11-24T01:09:59Z</time></trkpt><trkpt lat="35.5979458" lon="138.9536155"><ele>733.5433333333334</ele><time>2024-11-24T01:10:14Z</time></trkpt><trkpt lat="35.5977866" lon="138.9534892"><ele>732.7066666666666</ele><time>2024-11-24T01:10:35Z</time></trkpt><trkpt lat="35.5975962" lon="138.9533464"><ele>732.5833333333334</ele><time>2024-11-24T01:10:53Z</time></trkpt><trkpt lat="35.5974234" lon="138.953253"><ele>731.91</ele><time>2024-11-24T01:11:08Z</time></trkpt><trkpt lat="35.5972312" lon="138.9531578"><ele>731.5200000000001</ele><time>2024-11-24T01:11:26Z</time></trkpt><trkpt lat="35.5970742" lon="138.9530351"><ele>730.9066666666666</ele><time>2024-11-24T01:11:44Z</time></trkpt><trkpt lat="35.5968829" lon="138.952997"><ele>730.1733333333335</ele><time>2024-11-24T01:12:05Z</time></trkpt><trkpt lat="35.5967026" lon="138.9530113"><ele>729.3433333333334</ele><time>2024-11-24T01:12:26Z</time></trkpt><trkpt lat="35.5965111" lon="138.9530499"><ele>731.5300000000001</ele><time>2024-11-24T01:12:48Z</time></trkpt><trkpt lat="35.5963242" lon="138.9530976"><ele>735.4833333333332</ele><time>2024-11-24T01:13:26Z</time></trkpt><trkpt lat="35.5961636" lon="138.9529429"><ele>737.63</ele><time>2024-11-24T01:15:00Z</time></trkpt><trkpt lat="35.5960043" lon="138.9528125"><ele>736.18</ele><time>2024-11-24T01:15:21Z</time></trkpt><trkpt lat="35.5958792" lon="138.9526109"><ele>734.5633333333334</ele><time>2024-11-24T01:15:48Z</time></trkpt><trkpt lat="35.5957524" lon="138.9524187"><ele>737.7933333333334</ele><time>2024-11-24T01:16:27Z</time></trkpt><trkpt lat="35.5956032" lon="138.9522834"><ele>746.0566666666667</ele><time>2024-11-24T01:18:00Z</time></trkpt><trkpt lat="35.595423" lon="138.9523126"><ele>757.0100000000001</ele><time>2024-11-24T01:19:18Z</time></trkpt><trkpt lat="35.5952159" lon="138.9522727"><ele>768.3866666666667</ele><time>2024-11-24T01:20:06Z</time></trkpt><trkpt lat="35.5952057" lon="138.9520341"><ele>779.6366666666667</ele><time>2024-11-24T01:22:18Z</time></trkpt><trkpt lat="35.5952234" lon="138.9518015"><ele>787.9000000000001</ele><time>2024-11-24T01:22:53Z</time></trkpt><trkpt lat="35.595118" lon="138.9515989"><ele>790.1966666666667</ele><time>2024-11-24T01:24:15Z</time></trkpt><trkpt lat="35.5950521" lon="138.9513688"><ele>785.7966666666666</ele><time>2024-11-24T01:24:39Z</time></trkpt><trkpt lat="35.5949434" lon="138.9511852"><ele>778.07</ele><time>2024-11-24T01:25:08Z</time></trkpt><trkpt lat="35.5948079" lon="138.9510302"><ele>770.5766666666667</ele><time>2024-11-24T01:25:48Z</time></trkpt><trkpt lat="35.594707" lon="138.9508439"><ele>763.7033333333333</ele><time>2024-11-24T01:26:09Z</time></trkpt><trkpt lat="35.5945462" lon="138.9507183"><ele>757.82</ele><time>2024-11-24T01:26:57Z</time></trkpt><trkpt lat="35.5944321" lon="138.950535"><ele>754.6933333333333</ele><time>2024-11-24T01:27:18Z</time></trkpt><trkpt lat="35.5942976" lon="138.9503515"><ele>754.4699999999999</ele><time>2024-11-24T01:27:42Z</time></trkpt><trkpt lat="35.5941287" lon="138.9502047"><ele>756.8333333333334</ele><time>2024-11-24T01:28:03Z</time></trkpt><trkpt lat="35.5940099" lon="138.9500381"><ele>758.8733333333333</ele><time>2024-11-24T01:28:21Z</time></trkpt><trkpt lat="35.5939192" lon="138.9498469"><ele>759.8933333333333</ele><time>2024-11-24T01:28:42Z</time></trkpt><trkpt lat="35.5937398" lon="138.9498201"><ele>758.2066666666666</ele><time>2024-11-24T01:30:33Z</time></trkpt><trkpt lat="35.5935618" lon="138.9498907"><ele>749.8633333333333</ele><time>2024-11-24T01:32:42Z</time></trkpt><trkpt lat="35.5933756" lon="138.9499873"><ele>736.4933333333333</ele><time>2024-11-24T01:35:03Z</time></trkpt><trkpt lat="35.5931948" lon="138.9499206"><ele>722.4699999999999</ele><time>2024-11-24T01:35:33Z</time></trkpt><trkpt lat="35.5930116" lon="138.9499607"><ele>711.7900000000001</ele><time>2024-11-24T01:37:06Z</time></trkpt><trkpt lat="35.5928348" lon="138.9500528"><ele>704.0466666666666</ele><time>2024-11-24T01:37:39Z</time></trkpt><trkpt lat="35.5926343" lon="138.950066"><ele>696.8766666666667</ele><time>2024-11-24T01:38:09Z</time></trkpt><trkpt lat="35.5924485" lon="138.9501149"><ele>689.6233333333333</ele><time>2024-11-24T01:38:33Z</time></trkpt><trkpt lat="35.592271" lon="138.9502465"><ele>681.9166666666666</ele><time>2024-11-24T01:39:00Z</time></trkpt><trkpt lat="35.5920708" lon="138.9502816"><ele>675.9566666666666</ele><time>2024-11-24T01:39:21Z</time></trkpt><trkpt lat="35.591887" lon="138.9502096"><ele>674.8833333333333</ele><time>2024-11-24T01:39:42Z</time></trkpt><trkpt lat="35.5917151" lon="138.9501285"><ele>677.7600000000001</ele><time>2024-11-24T01:40:00Z</time></trkpt><trkpt lat="35.5915223" lon="138.950163"><ele>681.5066666666667</ele><time>2024-11-24T01:41:32Z</time></trkpt><trkpt lat="35.5913357" lon="138.9501133"><ele>684.8833333333333</ele><time>2024-11-24T01:42:41Z</time></trkpt><trkpt lat="35.5912109" lon="138.9499474"><ele>688.1266666666667</ele><time>2024-11-24T01:42:59Z</time></trkpt><trkpt lat="35.5910829" lon="138.9497869"><ele>691.4233333333333</ele><time>2024-11-24T01:43:20Z</time></trkpt><trkpt lat="35.5908906" lon="138.9497523"><ele>695.1466666666666</ele><time>2024-11-24T01:43:44Z</time></trkpt><trkpt lat="35.5906974" lon="138.9496824"><ele>697.82</ele><time>2024-11-24T01:44:02Z</time></trkpt><trkpt lat="35.5905281" lon="138.9495928"><ele>700.2766666666666</ele><time>2024-11-24T01:44:23Z</time></trkpt><trkpt lat="35.5903373" lon="138.9496944"><ele>700.8166666666666</ele><time>2024-11-24T01:44:51Z</time></trkpt><trkpt lat="35.5901378" lon="138.9496951"><ele>700.1500000000001</ele><time>2024-11-24T01:45:28Z</time></trkpt><trkpt lat="35.5899819" lon="138.9495721"><ele>694.65</ele><time>2024-11-24T01:47:13Z</time></trkpt><trkpt lat="35.5898172" lon="138.9494719"><ele>685.61</ele><time>2024-11-24T01:48:06Z</time></trkpt><trkpt lat="35.5896352" lon="138.9494291"><ele>675.1266666666667</ele><time>2024-11-24T01:48:44Z</time></trkpt><trkpt lat="35.5894531" lon="138.9494455"><ele>663.9033333333333</ele><time>2024-11-24T01:50:07Z</time></trkpt><trkpt lat="35.5893014" lon="138.9493034"><ele>653.93</ele><time>2024-11-24T01:51:07Z</time></trkpt><trkpt lat="35.5890993" lon="138.9492675"><ele>643.5433333333334</ele><time>2024-11-24T01:51:36Z</time></trkpt><trkpt lat="35.5889719" lon="138.9494599"><ele>635.4333333333334</ele><time>2024-11-24T01:52:00Z</time></trkpt><trkpt lat="35.5888699" lon="138.9496785"><ele>627.32</ele><time>2024-11-24T01:55:08Z</time></trkpt><trkpt lat="35.5887551" lon="138.9494731"><ele>625.0366666666667</ele><time>2024-11-24T01:56:08Z</time></trkpt><trkpt lat="35.5885475" lon="138.9494221"><ele>627.7866666666667</ele><time>2024-11-24T01:56:41Z</time></trkpt><trkpt lat="35.5883662" lon="138.9494458"><ele>634.6066666666667</ele><time>2024-11-24T01:57:33Z</time></trkpt><trkpt lat="35.5881747" lon="138.9494491"><ele>638.8966666666666</ele><time>2024-11-24T01:58:06Z</time></trkpt><trkpt lat="35.5880205" lon="138.9493279"><ele>640.9866666666667</ele><time>2024-11-24T01:58:33Z</time></trkpt><trkpt lat="35.5878526" lon="138.9492064"><ele>642.1333333333333</ele><time>2024-11-24T01:58:54Z</time></trkpt><trkpt lat="35.5877161" lon="138.949058"><ele>643.2333333333335</ele><time>2024-11-24T01:59:15Z</time></trkpt><trkpt lat="35.5875469" lon="138.9489499"><ele>644.3233333333334</ele><time>2024-11-24T01:59:41Z</time></trkpt><trkpt lat="35.587353" lon="138.948885"><ele>645.11</ele><time>2024-11-24T02:00:03Z</time></trkpt><trkpt lat="35.5871638" lon="138.948901"><ele>645.6233333333333</ele><time>2024-11-24T02:00:21Z</time></trkpt><trkpt lat="35.5869623" lon="138.9488943"><ele>646.5266666666666</ele><time>2024-11-24T02:00:45Z</time></trkpt><trkpt lat="35.5867732" lon="138.9489345"><ele>648.3833333333333</ele><time>2024-11-24T02:01:06Z</time></trkpt><trkpt lat="35.5865863" lon="138.9488694"><ele>650.63</ele><time>2024-11-24T02:01:27Z</time></trkpt><trkpt lat="35.5864011" lon="138.9488894"><ele>652.8766666666667</ele><time>2024-11-24T02:01:51Z</time></trkpt><trkpt lat="35.5861981" lon="138.9488528"><ele>655.0366666666667</ele><time>2024-11-24T02:02:09Z</time></trkpt><trkpt lat="35.5859941" lon="138.9488405"><ele>657.5466666666667</ele><time>2024-11-24T02:02:53Z</time></trkpt><trkpt lat="35.5857935" lon="138.9488116"><ele>660.14</ele><time>2024-11-24T02:03:11Z</time></trkpt><trkpt lat="35.5856226" lon="138.9489388"><ele>663.71</ele><time>2024-11-24T02:03:29Z</time></trkpt><trkpt lat="35.5854838" lon="138.9491201"><ele>667.43</ele><time>2024-11-24T02:03:56Z</time></trkpt><trkpt lat="35.5852873" lon="138.9491171"><ele>673.7666666666668</ele><time>2024-11-24T02:04:29Z</time></trkpt><trkpt lat="35.5852378" lon="138.9488989"><ele>680.1266666666667</ele><time>2024-11-24T02:05:50Z</time></trkpt><trkpt lat="35.5850661" lon="138.9488043"><ele>687.2666666666668</ele><time>2024-11-24T02:06:18Z</time></trkpt><trkpt lat="35.5848759" lon="138.9488148"><ele>691.5333333333333</ele><time>2024-11-24T02:06:42Z</time></trkpt><trkpt lat="35.5846782" lon="138.9488426"><ele>695.1633333333333</ele><time>2024-11-24T02:07:06Z</time></trkpt><trkpt lat="35.5845333" lon="138.9486669"><ele>698.1266666666667</ele><time>2024-11-24T02:07:39Z</time></trkpt><trkpt lat="35.5843424" lon="138.9485711"><ele>702.2033333333334</ele><time>2024-11-24T02:08:02Z</time></trkpt><trkpt lat="35.5841476" lon="138.9485363"><ele>705.46</ele><time>2024-11-24T02:08:24Z</time></trkpt><trkpt lat="35.5839753" lon="138.9486321"><ele>709.1366666666667</ele><time>2024-11-24T02:08:45Z</time></trkpt><trkpt lat="35.5838266" lon="138.94878"><ele>711.6166666666667</ele><time>2024-11-24T02:09:12Z</time></trkpt><trkpt lat="35.5836681" lon="138.9489455"><ele>713.5133333333333</ele><time>2024-11-24T02:09:33Z</time></trkpt><trkpt lat="35.58354" lon="138.9491261"><ele>713.2266666666668</ele><time>2024-11-24T02:09:51Z</time></trkpt><trkpt lat="35.5833675" lon="138.9492253"><ele>712.6199999999999</ele><time>2024-11-24T02:10:09Z</time></trkpt><trkpt lat="35.5831773" lon="138.9492257"><ele>713.2433333333333</ele><time>2024-11-24T02:10:27Z</time></trkpt><trkpt lat="35.5829744" lon="138.9492082"><ele>714.5500000000001</ele><time>2024-11-24T02:10:51Z</time></trkpt><trkpt lat="35.5828104" lon="138.9493273"><ele>717.9566666666666</ele><time>2024-11-24T02:11:09Z</time></trkpt><trkpt lat="35.5826603" lon="138.9494962"><ele>721.91</ele><time>2024-11-24T02:11:27Z</time></trkpt><trkpt lat="35.5825933" lon="138.9497056"><ele>726.7199999999999</ele><time>2024-11-24T02:11:45Z</time></trkpt><trkpt lat="35.5824669" lon="138.9498712"><ele>729.33</ele><time>2024-11-24T02:12:03Z</time></trkpt><trkpt lat="35.5823035" lon="138.9499831"><ele>730.2233333333334</ele><time>2024-11-24T02:12:21Z</time></trkpt><trkpt lat="35.5821532" lon="138.9501191"><ele>730.9966666666668</ele><time>2024-11-24T02:12:36Z</time></trkpt><trkpt lat="35.5819899" lon="138.9502419"><ele>731.7266666666666</ele><time>2024-11-24T02:12:54Z</time></trkpt><trkpt lat="35.5817802" lon="138.9502424"><ele>732.5366666666667</ele><time>2024-11-24T02:13:15Z</time></trkpt><trkpt lat="35.5815767" lon="138.9502396"><ele>732.86</ele><time>2024-11-24T02:13:33Z</time></trkpt><trkpt lat="35.5813837" lon="138.9502056"><ele>733.5300000000001</ele><time>2024-11-24T02:13:51Z</time></trkpt><trkpt lat="35.581209" lon="138.9500905"><ele>734.3366666666667</ele><time>2024-11-24T02:14:18Z</time></trkpt><trkpt lat="35.5810213" lon="138.950174"><ele>735.5033333333332</ele><time>2024-11-24T02:23:27Z</time></trkpt><trkpt lat="35.5808399" lon="138.9501282"><ele>737.0</ele><time>2024-11-24T02:23:51Z</time></trkpt><trkpt lat="35.5806563" lon="138.9500866"><ele>740.2433333333333</ele><time>2024-11-24T02:24:12Z</time></trkpt><trkpt lat="35.5804444" lon="138.9501478"><ele>743.9833333333335</ele><time>2024-11-24T02:24:30Z</time></trkpt><trkpt lat="35.5802645" lon="138.9501789"><ele>748.4333333333334</ele><time>2024-11-24T02:24:48Z</time></trkpt><trkpt lat="35.5800832" lon="138.9501728"><ele>751.6433333333334</ele><time>2024-11-24T02:25:09Z</time></trkpt><trkpt lat="35.5799021" lon="138.9501545"><ele>754.7366666666667</ele><time>2024-11-24T02:25:27Z</time></trkpt><trkpt lat="35.5796976" lon="138.9500848"><ele>759.3433333333334</ele><time>2024-11-24T02:25:48Z</time></trkpt><trkpt lat="35.5794996" lon="138.9500898"><ele>762.9366666666666</ele><time>2024-11-24T02:26:18Z</time></trkpt><trkpt lat="35.579305" lon="138.9501397"><ele>763.25</ele><time>2024-11-24T02:26:55Z</time></trkpt><trkpt lat="35.5791884" lon="138.9503292"><ele>758.8333333333334</ele><time>2024-11-24T02:27:07Z</time></trkpt><trkpt lat="35.5791019" lon="138.9505673"><ele>753.62</ele><time>2024-11-24T02:27:34Z</time></trkpt><trkpt lat="35.5789284" lon="138.9507142"><ele>753.7533333333334</ele><time>2024-11-24T02:27:58Z</time></trkpt><trkpt lat="35.5787672" lon="138.9508633"><ele>757.5366666666667</ele><time>2024-11-24T02:28:22Z</time></trkpt><trkpt lat="35.5786014" lon="138.9509509"><ele>765.0966666666667</ele><time>2024-11-24T02:28:46Z</time></trkpt><trkpt lat="35.5784818" lon="138.9511396"><ele>773.1333333333333</ele><time>2024-11-24T02:29:10Z</time></trkpt><trkpt lat="35.578528" lon="138.9513627"><ele>778.6433333333334</ele><time>2024-11-24T02:29:34Z</time></trkpt><trkpt lat="35.5785328" lon="138.951588"><ele>783.5666666666667</ele><time>2024-11-24T02:30:01Z</time></trkpt><trkpt lat="35.5786216" lon="138.9517892"><ele>784.4266666666667</ele><time>2024-11-24T02:30:34Z</time></trkpt><trkpt lat="35.5786345" lon="138.9520139"><ele>787.37</ele><time>2024-11-24T02:31:04Z</time></trkpt><trkpt lat="35.5785415" lon="138.9522177"><ele>790.48</ele><time>2024-11-24T02:31:52Z</time></trkpt><trkpt lat="35.5785613" lon="138.9524483"><ele>796.7266666666666</ele><time>2024-11-24T02:32:25Z</time></trkpt><trkpt lat="35.5786296" lon="138.95268"><ele>807.6633333333333</ele><time>2024-11-24T02:32:58Z</time></trkpt><trkpt lat="35.578818" lon="138.9527579"><ele>815.4366666666666</ele><time>2024-11-24T02:33:22Z</time></trkpt><trkpt lat="35.5789961" lon="138.9528206"><ele>821.5233333333334</ele><time>2024-11-24T02:34:04Z</time></trkpt><trkpt lat="35.5791664" lon="138.9529014"><ele>821.2666666666668</ele><time>2024-11-24T02:34:34Z</time></trkpt><trkpt lat="35.5789695" lon="138.9529517"><ele>824.6233333333333</ele><time>2024-11-24T02:35:25Z</time></trkpt><trkpt lat="35.578801" lon="138.9530364"><ele>828.02</ele><time>2024-11-24T02:35:52Z</time></trkpt><trkpt lat="35.5786006" lon="138.9530712"><ele>832.48</ele><time>2024-11-24T02:37:11Z</time></trkpt><trkpt lat="35.578415" lon="138.9530582"><ele>836.2333333333332</ele><time>2024-11-24T02:37:37Z</time></trkpt><trkpt lat="35.5782306" lon="138.9530576"><ele>841.8533333333335</ele><time>2024-11-24T02:38:08Z</time></trkpt><trkpt lat="35.5780935" lon="138.9529055"><ele>849.8733333333333</ele><time>2024-11-24T02:39:05Z</time></trkpt><trkpt lat="35.5780223" lon="138.9526915"><ele>857.9166666666666</ele><time>2024-11-24T02:40:20Z</time></trkpt><trkpt lat="35.5779449" lon="138.9524859"><ele>865.9166666666666</ele><time>2024-11-24T02:41:41Z</time></trkpt><trkpt lat="35.5778795" lon="138.9522791"><ele>872.7000000000002</ele><time>2024-11-24T02:42:35Z</time></trkpt><trkpt lat="35.5777009" lon="138.9521629"><ele>881.1166666666668</ele><time>2024-11-24T02:43:17Z</time></trkpt><trkpt lat="35.5775292" lon="138.9520461"><ele>889.16</ele><time>2024-11-24T02:43:40Z</time></trkpt><trkpt lat="35.5773476" lon="138.9519455"><ele>896.59</ele><time>2024-11-24T02:44:05Z</time></trkpt><trkpt lat="35.577168" lon="138.9518862"><ele>902.6933333333333</ele><time>2024-11-24T02:45:32Z</time></trkpt><trkpt lat="35.5769995" lon="138.9517998"><ele>908.6833333333334</ele><time>2024-11-24T02:46:14Z</time></trkpt><trkpt lat="35.5768172" lon="138.9517176"><ele>919.1433333333334</ele><time>2024-11-24T02:47:50Z</time></trkpt><trkpt lat="35.5766487" lon="138.9516269"><ele>931.3166666666666</ele><time>2024-11-24T02:48:41Z</time></trkpt><trkpt lat="35.5764806" lon="138.9515233"><ele>945.9633333333335</ele><time>2024-11-24T02:49:41Z</time></trkpt><trkpt lat="35.5764473" lon="138.9512932"><ele>957.0766666666667</ele><time>2024-11-24T02:50:32Z</time></trkpt><trkpt lat="35.5766174" lon="138.9511503"><ele>963.7366666666667</ele><time>2024-11-24T02:51:08Z</time></trkpt><trkpt lat="35.5766462" lon="138.9508905"><ele>962.6466666666666</ele><time>2024-11-24T02:52:34Z</time></trkpt><trkpt lat="35.5766131" lon="138.9506522"><ele>960.1266666666667</ele><time>2024-11-24T02:52:49Z</time></trkpt><trkpt lat="35.576544" lon="138.9504414"><ele>957.2800000000001</ele><time>2024-11-24T02:53:13Z</time></trkpt><trkpt lat="35.5763833" lon="138.9502868"><ele>957.3366666666666</ele><time>2024-11-24T02:53:34Z</time></trkpt><trkpt lat="35.5762128" lon="138.9501622"><ele>954.4</ele><time>2024-11-24T02:53:49Z</time></trkpt><trkpt lat="35.5759997" lon="138.9501291"><ele>953.6333333333333</ele><time>2024-11-24T02:54:07Z</time></trkpt><trkpt lat="35.5758046" lon="138.9500856"><ele>952.4933333333333</ele><time>2024-11-24T02:54:34Z</time></trkpt><trkpt lat="35.5756176" lon="138.9501177"><ele>952.7533333333334</ele><time>2024-11-24T02:54:53Z</time></trkpt><trkpt lat="35.5754142" lon="138.9501756"><ele>949.6266666666667</ele><time>2024-11-24T02:55:11Z</time></trkpt><trkpt lat="35.5752194" lon="138.9502407"><ele>946.4033333333333</ele><time>2024-11-24T02:55:26Z</time></trkpt><trkpt lat="35.575053" lon="138.9503434"><ele>944.3366666666667</ele><time>2024-11-24T02:55:41Z</time></trkpt><trkpt lat="35.5748535" lon="138.950459"><ele>945.8333333333334</ele><time>2024-11-24T02:55:57Z</time></trkpt><trkpt lat="35.5746785" lon="138.9505245"><ele>948.5600000000001</ele><time>2024-11-24T02:56:21Z</time></trkpt><trkpt lat="35.5744908" lon="138.950479"><ele>950.7933333333334</ele><time>2024-11-24T02:57:03Z</time></trkpt><trkpt lat="35.5743856" lon="138.9502969"><ele>950.0200000000001</ele><time>2024-11-24T02:57:36Z</time></trkpt><trkpt lat="35.5742266" lon="138.9501806"><ele>946.5933333333332</ele><time>2024-11-24T02:58:05Z</time></trkpt><trkpt lat="35.5741993" lon="138.9499502"><ele>939.3766666666667</ele><time>2024-11-24T02:58:26Z</time></trkpt><trkpt lat="35.5741318" lon="138.9497381"><ele>930.35</ele><time>2024-11-24T02:58:49Z</time></trkpt><trkpt lat="35.5740364" lon="138.9495318"><ele>923.0099999999999</ele><time>2024-11-24T02:59:10Z</time></trkpt><trkpt lat="35.5739052" lon="138.9493525"><ele>918.9733333333334</ele><time>2024-11-24T02:59:30Z</time></trkpt><trkpt lat="35.5737348" lon="138.9492263"><ele>915.39</ele><time>2024-11-24T03:00:00Z</time></trkpt><trkpt lat="35.5735804" lon="138.9490693"><ele>908.5600000000001</ele><time>2024-11-24T03:00:21Z</time></trkpt><trkpt lat="35.5734181" lon="138.9489247"><ele>901.5799999999999</ele><time>2024-11-24T03:00:51Z</time></trkpt><trkpt lat="35.5733512" lon="138.9486964"><ele>893.2766666666666</ele><time>2024-11-24T03:01:15Z</time></trkpt><trkpt lat="35.5732494" lon="138.9484932"><ele>886.6866666666668</ele><time>2024-11-24T03:01:48Z</time></trkpt><trkpt lat="35.5731817" lon="138.9482354"><ele>877.1066666666667</ele><time>2024-11-24T03:02:46Z</time></trkpt><trkpt lat="35.5730983" lon="138.9480388"><ele>868.9166666666666</ele><time>2024-11-24T03:03:04Z</time></trkpt><trkpt lat="35.5729977" lon="138.9478548"><ele>863.5033333333334</ele><time>2024-11-24T03:03:19Z</time></trkpt><trkpt lat="35.5730442" lon="138.9476206"><ele>860.0566666666667</ele><time>2024-11-24T03:03:37Z</time></trkpt><trkpt lat="35.5730083" lon="138.9473969"><ele>858.19</ele><time>2024-11-24T03:03:55Z</time></trkpt><trkpt lat="35.5729701" lon="138.9471696"><ele>853.1233333333333</ele><time>2024-11-24T03:04:21Z</time></trkpt><trkpt lat="35.5729394" lon="138.9469334"><ele>847.36</ele><time>2024-11-24T03:04:39Z</time></trkpt><trkpt lat="35.5727752" lon="138.9468336"><ele>843.9966666666666</ele><time>2024-11-24T03:05:00Z</time></trkpt><trkpt lat="35.5725926" lon="138.9467646"><ele>843.3433333333334</ele><time>2024-11-24T03:05:21Z</time></trkpt><trkpt lat="35.5724292" lon="138.9466519"><ele>843.29</ele><time>2024-11-24T03:05:39Z</time></trkpt><trkpt lat="35.5722717" lon="138.9465352"><ele>840.6633333333334</ele><time>2024-11-24T03:05:55Z</time></trkpt><trkpt lat="35.5721189" lon="138.9463747"><ele>836.2433333333333</ele><time>2024-11-24T03:06:10Z</time></trkpt><trkpt lat="35.5719564" lon="138.9462386"><ele>831.3266666666667</ele><time>2024-11-24T03:06:29Z</time></trkpt><trkpt lat="35.5718227" lon="138.9460674"><ele>825.4833333333332</ele><time>2024-11-24T03:06:52Z</time></trkpt><trkpt lat="35.5716773" lon="138.9459099"><ele>819.2333333333332</ele><time>2024-11-24T03:07:23Z</time></trkpt><trkpt lat="35.5716056" lon="138.9456694"><ele>812.2766666666666</ele><time>2024-11-24T03:07:41Z</time></trkpt><trkpt lat="35.5717896" lon="138.945684"><ele>804.3933333333333</ele><time>2024-11-24T03:08:50Z</time></trkpt><trkpt lat="35.5719738" lon="138.9457231"><ele>798.8133333333334</ele><time>2024-11-24T03:09:11Z</time></trkpt><trkpt lat="35.5721502" lon="138.9456722"><ele>794.7299999999999</ele><time>2024-11-24T03:09:26Z</time></trkpt><trkpt lat="35.5722831" lon="138.9454892"><ele>791.6466666666666</ele><time>2024-11-24T03:09:47Z</time></trkpt><trkpt lat="35.5723914" lon="138.9452678"><ele>785.77</ele><time>2024-11-24T03:10:07Z</time></trkpt><trkpt lat="35.5722398" lon="138.9451478"><ele>777.1733333333333</ele><time>2024-11-24T03:10:56Z</time></trkpt><trkpt lat="35.5723712" lon="138.9449821"><ele>768.6566666666668</ele><time>2024-11-24T03:11:26Z</time></trkpt><trkpt lat="35.5725034" lon="138.9447796"><ele>761.8866666666667</ele><time>2024-11-24T03:11:47Z</time></trkpt><trkpt lat="35.5726535" lon="138.9446538"><ele>758.7233333333334</ele><time>2024-11-24T03:12:02Z</time></trkpt><trkpt lat="35.5727304" lon="138.9444117"><ele>755.4666666666667</ele><time>2024-11-24T03:12:20Z</time></trkpt><trkpt lat="35.5728184" lon="138.9442034"><ele>750.9700000000001</ele><time>2024-11-24T03:12:41Z</time></trkpt><trkpt lat="35.5729659" lon="138.9440687"><ele>744.0033333333334</ele><time>2024-11-24T03:13:02Z</time></trkpt><trkpt lat="35.573137" lon="138.9439188"><ele>735.35</ele><time>2024-11-24T03:13:23Z</time></trkpt><trkpt lat="35.5729867" lon="138.9437878"><ele>726.7666666666668</ele><time>2024-11-24T03:13:56Z</time></trkpt><trkpt lat="35.5731666" lon="138.9436874"><ele>720.1533333333333</ele><time>2024-11-24T03:14:20Z</time></trkpt><trkpt lat="35.5729674" lon="138.9436161"><ele>715.35</ele><time>2024-11-24T03:14:56Z</time></trkpt><trkpt lat="35.5727713" lon="138.9435677"><ele>709.8766666666667</ele><time>2024-11-24T03:15:17Z</time></trkpt><trkpt lat="35.5729162" lon="138.943398"><ele>703.3833333333333</ele><time>2024-11-24T03:15:53Z</time></trkpt><trkpt lat="35.5730392" lon="138.9432315"><ele>696.3100000000001</ele><time>2024-11-24T03:16:21Z</time></trkpt><trkpt lat="35.5732131" lon="138.9431621"><ele>691.7466666666666</ele><time>2024-11-24T03:16:39Z</time></trkpt><trkpt lat="35.5733934" lon="138.9430856"><ele>687.4666666666667</ele><time>2024-11-24T03:16:57Z</time></trkpt><trkpt lat="35.5735731" lon="138.9429538"><ele>682.71</ele><time>2024-11-24T03:17:18Z</time></trkpt><trkpt lat="35.5734023" lon="138.9428403"><ele>676.9966666666668</ele><time>2024-11-24T03:17:54Z</time></trkpt><trkpt lat="35.5735706" lon="138.9427196"><ele>671.7033333333334</ele><time>2024-11-24T03:18:15Z</time></trkpt><trkpt lat="35.5736974" lon="138.942529"><ele>664.9066666666668</ele><time>2024-11-24T03:18:42Z</time></trkpt><trkpt lat="35.5738974" lon="138.9424844"><ele>656.4933333333333</ele><time>2024-11-24T03:19:00Z</time></trkpt><trkpt lat="35.5737542" lon="138.9423402"><ele>648.6966666666667</ele><time>2024-11-24T03:19:18Z</time></trkpt><trkpt lat="35.5735901" lon="138.9422217"><ele>644.4166666666666</ele><time>2024-11-24T03:20:03Z</time></trkpt><trkpt lat="35.5737545" lon="138.9421034"><ele>639.94</ele><time>2024-11-24T03:20:21Z</time></trkpt><trkpt lat="35.5735819" lon="138.9420341"><ele>635.7133333333334</ele><time>2024-11-24T03:20:48Z</time></trkpt><trkpt lat="35.5737548" lon="138.9419381"><ele>630.1166666666667</ele><time>2024-11-24T03:21:09Z</time></trkpt><trkpt lat="35.5736011" lon="138.9418137"><ele>624.7366666666667</ele><time>2024-11-24T03:21:45Z</time></trkpt><trkpt lat="35.5736846" lon="138.9416113"><ele>618.1999999999999</ele><time>2024-11-24T03:22:18Z</time></trkpt><trkpt lat="35.57383" lon="138.9414731"><ele>611.3533333333334</ele><time>2024-11-24T03:22:42Z</time></trkpt><trkpt lat="35.5736544" lon="138.9413773"><ele>605.11</ele><time>2024-11-24T03:23:13Z</time></trkpt><trkpt lat="35.5737395" lon="138.9411756"><ele>597.5133333333333</ele><time>2024-11-24T03:24:04Z</time></trkpt><trkpt lat="35.5739081" lon="138.9410633"><ele>589.4733333333334</ele><time>2024-11-24T03:24:22Z</time></trkpt><trkpt lat="35.5737247" lon="138.9410037"><ele>582.9</ele><time>2024-11-24T03:25:04Z</time></trkpt><trkpt lat="35.5738735" lon="138.940816"><ele>575.33</ele><time>2024-11-24T03:25:31Z</time></trkpt><trkpt lat="35.5740223" lon="138.940681"><ele>568.9</ele><time>2024-11-24T03:25:49Z</time></trkpt><trkpt lat="35.5741944" lon="138.9405761"><ele>560.2133333333333</ele><time>2024-11-24T03:26:10Z</time></trkpt><trkpt lat="35.574353" lon="138.940467"><ele>551.9333333333333</ele><time>2024-11-24T03:26:34Z</time></trkpt><trkpt lat="35.5743274" lon="138.9402399"><ele>543.7266666666666</ele><time>2024-11-24T03:27:31Z</time></trkpt><trkpt lat="35.5744543" lon="138.9400351"><ele>533.8133333333333</ele><time>2024-11-24T03:28:29Z</time></trkpt><trkpt lat="35.5746243" lon="138.9398924"><ele>525.8966666666666</ele><time>2024-11-24T03:28:54Z</time></trkpt><trkpt lat="35.5747355" lon="138.939694"><ele>517.3066666666666</ele><time>2024-11-24T03:29:15Z</time></trkpt><trkpt lat="35.5748928" lon="138.9395741"><ele>511.98999999999995</ele><time>2024-11-24T03:29:30Z</time></trkpt><trkpt lat="35.5749804" lon="138.93938"><ele>507.00333333333333</ele><time>2024-11-24T03:29:45Z</time></trkpt><trkpt lat="35.5750979" lon="138.9391536"><ele>502.74333333333334</ele><time>2024-11-24T03:30:03Z</time></trkpt><trkpt lat="35.575136" lon="138.9389304"><ele>497.41333333333336</ele><time>2024-11-24T03:30:18Z</time></trkpt><trkpt lat="35.5751648" lon="138.938691"><ele>491.97333333333336</ele><time>2024-11-24T03:30:36Z</time></trkpt><trkpt lat="35.5752706" lon="138.9384961"><ele>486.18333333333334</ele><time>2024-11-24T03:30:53Z</time></trkpt><trkpt lat="35.5754777" lon="138.9385512"><ele>480.9766666666667</ele><time>2024-11-24T03:31:14Z</time></trkpt><trkpt lat="35.5756166" lon="138.9387344"><ele>480.17333333333335</ele><time>2024-11-24T03:32:06Z</time></trkpt><trkpt lat="35.5756925" lon="138.9385026"><ele>482.21000000000004</ele><time>2024-11-24T03:32:27Z</time></trkpt><trkpt lat="35.5756948" lon="138.9382406"><ele>483.27333333333337</ele><time>2024-11-24T03:32:42Z</time></trkpt><trkpt lat="35.5757456" lon="138.9380258"><ele>481.34</ele><time>2024-11-24T03:32:57Z</time></trkpt><trkpt lat="35.5757372" lon="138.937776"><ele>476.12000000000006</ele><time>2024-11-24T03:33:15Z</time></trkpt><trkpt lat="35.5758521" lon="138.9376026"><ele>472.17</ele><time>2024-11-24T03:33:33Z</time></trkpt><trkpt lat="35.5759569" lon="138.9374202"><ele>467.42</ele><time>2024-11-24T03:33:48Z</time></trkpt><trkpt lat="35.5760303" lon="138.9371908"><ele>463.1966666666667</ele><time>2024-11-24T03:34:06Z</time></trkpt><trkpt lat="35.5761282" lon="138.9369781"><ele>458.9066666666667</ele><time>2024-11-24T03:34:24Z</time></trkpt><trkpt lat="35.5762453" lon="138.9367733"><ele>453.68</ele><time>2024-11-24T03:34:42Z</time></trkpt><trkpt lat="35.5763937" lon="138.9366038"><ele>449.43</ele><time>2024-11-24T03:35:00Z</time></trkpt><trkpt lat="35.5765185" lon="138.9364287"><ele>445.1766666666667</ele><time>2024-11-24T03:35:15Z</time></trkpt><trkpt lat="35.5766938" lon="138.93636"><ele>442.1433333333334</ele><time>2024-11-24T03:35:33Z</time></trkpt><trkpt lat="35.5768612" lon="138.9362267"><ele>439.4433333333333</ele><time>2024-11-24T03:35:48Z</time></trkpt><trkpt lat="35.57705" lon="138.9361367"><ele>436.73</ele><time>2024-11-24T03:36:06Z</time></trkpt><trkpt lat="35.5771416" lon="138.9359397"><ele>432.49666666666667</ele><time>2024-11-24T03:36:21Z</time></trkpt><trkpt lat="35.5773467" lon="138.935933"><ele>427.08666666666664</ele><time>2024-11-24T03:36:51Z</time></trkpt><trkpt lat="35.577568" lon="138.9359694"><ele>422.36666666666673</ele><time>2024-11-24T03:37:21Z</time></trkpt><trkpt lat="35.5777623" lon="138.9359723"><ele>419.0</ele><time>2024-11-24T03:37:36Z</time></trkpt><trkpt lat="35.577967" lon="138.9359364"><ele>416.7666666666667</ele><time>2024-11-24T03:37:54Z</time></trkpt><trkpt lat="35.5779487" lon="138.9357054"><ele>414.8633333333334</ele><time>2024-11-24T03:38:06Z</time></trkpt><trkpt lat="35.5778805" lon="138.9354922"><ele>413.0133333333333</ele><time>2024-11-24T03:38:20Z</time></trkpt><trkpt lat="35.5778038" lon="138.9352757"><ele>411.56</ele><time>2024-11-24T03:38:39Z</time></trkpt><trkpt lat="35.5779439" lon="138.9351324"><ele>409.96000000000004</ele><time>2024-11-24T03:39:12Z</time></trkpt><trkpt lat="35.5781527" lon="138.9352255"><ele>408.8766666666667</ele><time>2024-11-24T03:39:24Z</time></trkpt><trkpt lat="35.5783555" lon="138.9352719"><ele>408.2833333333333</ele><time>2024-11-24T03:39:38Z</time></trkpt><trkpt lat="35.5785426" lon="138.9352916"><ele>407.9866666666667</ele><time>2024-11-24T03:39:50Z</time></trkpt><trkpt lat="35.5786429" lon="138.9350887"><ele>407.49333333333334</ele><time>2024-11-24T03:40:16Z</time></trkpt><trkpt lat="35.5785417" lon="138.9348936"><ele>406.63000000000005</ele><time>2024-11-24T03:40:28Z</time></trkpt><trkpt lat="35.5784101" lon="138.9346999"><ele>406.28</ele><time>2024-11-24T03:40:43Z</time></trkpt><trkpt lat="35.5782569" lon="138.9344954"><ele>407.09</ele><time>2024-11-24T03:40:57Z</time></trkpt><trkpt lat="35.5781254" lon="138.9342874"><ele>408.71</ele><time>2024-11-24T03:41:14Z</time></trkpt><trkpt lat="35.5780138" lon="138.9340688"><ele>410.15000000000003</ele><time>2024-11-24T03:41:29Z</time></trkpt><trkpt lat="35.5778697" lon="138.9338877"><ele>410.97666666666663</ele><time>2024-11-24T03:41:44Z</time></trkpt><trkpt lat="35.5777352" lon="138.9336965"><ele>411.6166666666666</ele><time>2024-11-24T03:41:55Z</time></trkpt><trkpt lat="35.5775873" lon="138.9335216"><ele>412.17</ele><time>2024-11-24T03:42:09Z</time></trkpt><trkpt lat="35.5774629" lon="138.9333179"><ele>412.60666666666674</ele><time>2024-11-24T03:42:24Z</time></trkpt><trkpt lat="35.5772993" lon="138.9331299"><ele>412.96333333333337</ele><time>2024-11-24T03:42:39Z</time></trkpt><trkpt lat="35.5771655" lon="138.9329333"><ele>413.4866666666667</ele><time>2024-11-24T03:42:54Z</time></trkpt><trkpt lat="35.5770214" lon="138.9327445"><ele>413.96</ele><time>2024-11-24T03:43:10Z</time></trkpt><trkpt lat="35.5768854" lon="138.9325366"><ele>414.3633333333333</ele><time>2024-11-24T03:43:24Z</time></trkpt><trkpt lat="35.5767565" lon="138.932363"><ele>414.84</ele><time>2024-11-24T03:43:36Z</time></trkpt><trkpt lat="35.5766135" lon="138.9322205"><ele>415.35666666666674</ele><time>2024-11-24T03:43:51Z</time></trkpt><trkpt lat="35.5764769" lon="138.9320614"><ele>415.8833333333334</ele><time>2024-11-24T03:44:00Z</time></trkpt><trkpt lat="35.5763703" lon="138.9318514"><ele>416.1366666666667</ele><time>2024-11-24T03:44:14Z</time></trkpt><trkpt lat="35.5762292" lon="138.9316689"><ele>416.40333333333336</ele><time>2024-11-24T03:44:30Z</time></trkpt><trkpt lat="35.5760975" lon="138.9315047"><ele>416.69</ele><time>2024-11-24T03:44:42Z</time></trkpt><trkpt lat="35.5759701" lon="138.9313471"><ele>416.91</ele><time>2024-11-24T03:44:53Z</time></trkpt><trkpt lat="35.5758061" lon="138.9311272"><ele>417.19</ele><time>2024-11-24T03:45:24Z</time></trkpt><trkpt lat="35.5756671" lon="138.9309449"><ele>417.45666666666665</ele><time>2024-11-24T03:45:36Z</time></trkpt><trkpt lat="35.5755301" lon="138.9307587"><ele>417.72333333333336</ele><time>2024-11-24T03:45:50Z</time></trkpt><trkpt lat="35.5754021" lon="138.9305809"><ele>417.9666666666667</ele><time>2024-11-24T03:46:05Z</time></trkpt><trkpt lat="35.5753204" lon="138.9303591"><ele>418.26000000000005</ele><time>2024-11-24T03:46:19Z</time></trkpt><trkpt lat="35.5751664" lon="138.930172"><ele>418.79333333333335</ele><time>2024-11-24T03:46:34Z</time></trkpt><trkpt lat="35.5750409" lon="138.9299648"><ele>419.5733333333333</ele><time>2024-11-24T03:46:48Z</time></trkpt><trkpt lat="35.574878" lon="138.9298031"><ele>420.57666666666665</ele><time>2024-11-24T03:47:03Z</time></trkpt><trkpt lat="35.574698" lon="138.929577"><ele>421.52333333333337</ele><time>2024-11-24T03:47:17Z</time></trkpt><trkpt lat="35.5745655" lon="138.9293911"><ele>422.2166666666667</ele><time>2024-11-24T03:47:34Z</time></trkpt><trkpt lat="35.5746609" lon="138.9291515"><ele>422.96000000000004</ele><time>2024-11-24T03:47:58Z</time></trkpt><trkpt lat="35.5748051" lon="138.9290084"><ele>423.75</ele><time>2024-11-24T03:48:08Z</time></trkpt></trkseg></trk></gpx>