<?xml version='1.0' encoding='UTF-8'?><gpx creator="YAMAP - https://yamap.com" xsi:schemaLocation="http://www.topografix.com/GPX/1/1 http://www.topografix.com/GPX/1/1/gpx.xsd" version="1.1" xmlns="http://www.topografix.com/GPX/1/1" xmlns:xsi="http://www.w3.org/2001/XMLSchema-instance"><metadata><bounds maxlat="35.5563645" maxlon="138.8091259" minlat="35.4983122" minlon="138.7683665"/></metadata><trk><name>三ッ峠山</name><number>1</number><trkseg><trkpt lat="35.5563645" lon="138.7963613"><ele>1298.97</ele><time>2024-07-07T01:38:02Z</time></trkpt><trkpt lat="35.5561702" lon="138.7963554"><ele>1300.2</ele><time>2024-07-07T01:38:53Z</time></trkpt><trkpt lat="35.5559986" lon="138.7964519"><ele>1301.3933333333334</ele><time>2024-07-07T01:39:12Z</time></trkpt><trkpt lat="35.5559168" lon="138.796678"><ele>1305.0966666666666</ele><time>2024-07-07T01:39:29Z</time></trkpt><trkpt lat="35.5559467" lon="138.796911"><ele>1309.62</ele><time>2024-07-07T01:39:54Z</time></trkpt><trkpt lat="35.5559634" lon="138.7971694"><ele>1314.5766666666666</ele><time>2024-07-07T01:40:28Z</time></trkpt><trkpt lat="35.5559287" lon="138.7973866"><ele>1317.93</ele><time>2024-07-07T01:40:57Z</time></trkpt><trkpt lat="35.5558154" lon="138.797592"><ele>1321.2933333333333</ele><time>2024-07-07T01:41:19Z</time></trkpt><trkpt lat="35.5557411" lon="138.7978301"><ele>1325.0566666666666</ele><time>2024-07-07T01:41:46Z</time></trkpt><trkpt lat="35.5556739" lon="138.7980608"><ele>1329.74</ele><time>2024-07-07T01:42:07Z</time></trkpt><trkpt lat="35.5554759" lon="138.7980445"><ele>1334.5233333333333</ele><time>2024-07-07T01:42:48Z</time></trkpt><trkpt lat="35.5552967" lon="138.797974"><ele>1338.0033333333333</ele><time>2024-07-07T01:43:05Z</time></trkpt><trkpt lat="35.5553679" lon="138.7981999"><ele>1341.3066666666666</ele><time>2024-07-07T01:43:33Z</time></trkpt><trkpt lat="35.5554332" lon="138.7984304"><ele>1342.4066666666668</ele><time>2024-07-07T01:43:56Z</time></trkpt><trkpt lat="35.5552494" lon="138.7983179"><ele>1345.1966666666667</ele><time>2024-07-07T01:44:14Z</time></trkpt><trkpt lat="35.5550922" lon="138.7981743"><ele>1346.8533333333332</ele><time>2024-07-07T01:44:29Z</time></trkpt><trkpt lat="35.5549044" lon="138.7982113"><ele>1351.1333333333332</ele><time>2024-07-07T01:44:46Z</time></trkpt><trkpt lat="35.5549555" lon="138.798425"><ele>1353.8266666666666</ele><time>2024-07-07T01:45:10Z</time></trkpt><trkpt lat="35.5547623" lon="138.7985067"><ele>1359.4066666666665</ele><time>2024-07-07T01:45:43Z</time></trkpt><trkpt lat="35.5545978" lon="138.7983754"><ele>1363.9133333333332</ele><time>2024-07-07T01:45:58Z</time></trkpt><trkpt lat="35.554732" lon="138.7985519"><ele>1367.62</ele><time>2024-07-07T01:46:39Z</time></trkpt><trkpt lat="35.5544993" lon="138.7985364"><ele>1373.6166666666668</ele><time>2024-07-07T01:47:26Z</time></trkpt><trkpt lat="35.5544625" lon="138.7987643"><ele>1380.6200000000001</ele><time>2024-07-07T01:48:42Z</time></trkpt><trkpt lat="35.554346" lon="138.798939"><ele>1391.6299999999999</ele><time>2024-07-07T01:49:32Z</time></trkpt><trkpt lat="35.554237" lon="138.7991165"><ele>1397.3866666666665</ele><time>2024-07-07T01:49:50Z</time></trkpt><trkpt lat="35.5540638" lon="138.7992254"><ele>1403.5833333333333</ele><time>2024-07-07T01:50:17Z</time></trkpt><trkpt lat="35.5539181" lon="138.7994033"><ele>1405.9399999999998</ele><time>2024-07-07T01:50:41Z</time></trkpt><trkpt lat="35.5537557" lon="138.7995432"><ele>1409.2733333333333</ele><time>2024-07-07T01:51:02Z</time></trkpt><trkpt lat="35.5535993" lon="138.799704"><ele>1409.1666666666667</ele><time>2024-07-07T01:51:23Z</time></trkpt><trkpt lat="35.5534258" lon="138.7998124"><ele>1409.3333333333333</ele><time>2024-07-07T01:51:44Z</time></trkpt><trkpt lat="35.5532369" lon="138.799794"><ele>1411.8400000000001</ele><time>2024-07-07T01:52:14Z</time></trkpt><trkpt lat="35.5530826" lon="138.7999312"><ele>1415.3400000000001</ele><time>2024-07-07T01:52:38Z</time></trkpt><trkpt lat="35.5531093" lon="138.799692"><ele>1421.3500000000001</ele><time>2024-07-07T01:53:19Z</time></trkpt><trkpt lat="35.5531954" lon="138.79948"><ele>1426.4366666666667</ele><time>2024-07-07T01:53:37Z</time></trkpt><trkpt lat="35.5533169" lon="138.7993154"><ele>1433.846666666667</ele><time>2024-07-07T01:53:52Z</time></trkpt><trkpt lat="35.5535038" lon="138.7992105"><ele>1436.1266666666668</ele><time>2024-07-07T01:54:52Z</time></trkpt><trkpt lat="35.5536531" lon="138.799043"><ele>1437.2133333333334</ele><time>2024-07-07T01:55:28Z</time></trkpt><trkpt lat="35.5534729" lon="138.7989794"><ele>1438.17</ele><time>2024-07-07T01:55:55Z</time></trkpt><trkpt lat="35.5533428" lon="138.7991671"><ele>1442.3933333333334</ele><time>2024-07-07T01:56:26Z</time></trkpt><trkpt lat="35.5531583" lon="138.799233"><ele>1447.3066666666666</ele><time>2024-07-07T01:57:06Z</time></trkpt><trkpt lat="35.552975" lon="138.7993458"><ele>1450.42</ele><time>2024-07-07T01:57:33Z</time></trkpt><trkpt lat="35.5527777" lon="138.7993584"><ele>1454.6233333333332</ele><time>2024-07-07T01:58:12Z</time></trkpt><trkpt lat="35.5525978" lon="138.7993773"><ele>1458.7266666666667</ele><time>2024-07-07T01:58:33Z</time></trkpt><trkpt lat="35.5524178" lon="138.7994917"><ele>1460.4966666666667</ele><time>2024-07-07T01:58:54Z</time></trkpt><trkpt lat="35.5522212" lon="138.7995245"><ele>1462.1566666666668</ele><time>2024-07-07T01:59:17Z</time></trkpt><trkpt lat="35.5520238" lon="138.7995459"><ele>1463.2900000000002</ele><time>2024-07-07T01:59:39Z</time></trkpt><trkpt lat="35.5521909" lon="138.7993976"><ele>1466.43</ele><time>2024-07-07T02:00:27Z</time></trkpt><trkpt lat="35.5523322" lon="138.7992309"><ele>1470.0233333333333</ele><time>2024-07-07T02:01:08Z</time></trkpt><trkpt lat="35.5524803" lon="138.7990821"><ele>1472.8700000000001</ele><time>2024-07-07T02:01:22Z</time></trkpt><trkpt lat="35.5526638" lon="138.7989077"><ele>1476.0900000000001</ele><time>2024-07-07T02:01:39Z</time></trkpt><trkpt lat="35.5527661" lon="138.798706"><ele>1477.0266666666666</ele><time>2024-07-07T02:02:09Z</time></trkpt><trkpt lat="35.5525889" lon="138.7988016"><ele>1479.006666666667</ele><time>2024-07-07T02:02:39Z</time></trkpt><trkpt lat="35.5524301" lon="138.798907"><ele>1481.1333333333332</ele><time>2024-07-07T02:03:06Z</time></trkpt><trkpt lat="35.552263" lon="138.7988217"><ele>1488.5566666666666</ele><time>2024-07-07T02:04:09Z</time></trkpt><trkpt lat="35.5521569" lon="138.7986207"><ele>1497.6933333333334</ele><time>2024-07-07T02:05:16Z</time></trkpt><trkpt lat="35.5519671" lon="138.7986207"><ele>1507.8866666666665</ele><time>2024-07-07T02:06:16Z</time></trkpt><trkpt lat="35.5517906" lon="138.7986955"><ele>1513.0666666666666</ele><time>2024-07-07T02:06:49Z</time></trkpt><trkpt lat="35.5516144" lon="138.7986335"><ele>1518.0433333333333</ele><time>2024-07-07T02:07:58Z</time></trkpt><trkpt lat="35.5514092" lon="138.7984811"><ele>1525.46</ele><time>2024-07-07T02:09:07Z</time></trkpt><trkpt lat="35.5512701" lon="138.7983394"><ele>1534.3733333333332</ele><time>2024-07-07T02:09:37Z</time></trkpt><trkpt lat="35.5510989" lon="138.7984612"><ele>1540.6933333333334</ele><time>2024-07-07T02:10:07Z</time></trkpt><trkpt lat="35.550898" lon="138.7985315"><ele>1543.8833333333332</ele><time>2024-07-07T02:10:37Z</time></trkpt><trkpt lat="35.5507157" lon="138.7985712"><ele>1546.26</ele><time>2024-07-07T02:11:01Z</time></trkpt><trkpt lat="35.5505271" lon="138.7986102"><ele>1548.5333333333335</ele><time>2024-07-07T02:11:37Z</time></trkpt><trkpt lat="35.550318" lon="138.7986478"><ele>1552.89</ele><time>2024-07-07T02:11:54Z</time></trkpt><trkpt lat="35.5501314" lon="138.7986518"><ele>1558.426666666667</ele><time>2024-07-07T02:12:16Z</time></trkpt><trkpt lat="35.5499409" lon="138.7986557"><ele>1565.3466666666666</ele><time>2024-07-07T02:13:07Z</time></trkpt><trkpt lat="35.5497551" lon="138.7986616"><ele>1570.8166666666666</ele><time>2024-07-07T02:14:16Z</time></trkpt><trkpt lat="35.5495831" lon="138.7987572"><ele>1575.4000000000003</ele><time>2024-07-07T02:14:34Z</time></trkpt><trkpt lat="35.5495174" lon="138.7985398"><ele>1578.1499999999999</ele><time>2024-07-07T02:15:54Z</time></trkpt><trkpt lat="35.5493517" lon="138.7986525"><ele>1579.9766666666667</ele><time>2024-07-07T02:16:09Z</time></trkpt><trkpt lat="35.5492555" lon="138.7988514"><ele>1581.67</ele><time>2024-07-07T02:16:33Z</time></trkpt><trkpt lat="35.5490964" lon="138.7989802"><ele>1584.4033333333334</ele><time>2024-07-07T02:16:50Z</time></trkpt><trkpt lat="35.5489427" lon="138.7991203"><ele>1587.3033333333333</ele><time>2024-07-07T02:17:42Z</time></trkpt><trkpt lat="35.5487681" lon="138.799188"><ele>1590.7733333333335</ele><time>2024-07-07T02:17:57Z</time></trkpt><trkpt lat="35.5485828" lon="138.7991983"><ele>1593.89</ele><time>2024-07-07T02:18:21Z</time></trkpt><trkpt lat="35.5483977" lon="138.7992681"><ele>1597.5033333333333</ele><time>2024-07-07T02:19:08Z</time></trkpt><trkpt lat="35.5482019" lon="138.7992834"><ele>1599.9266666666665</ele><time>2024-07-07T02:19:36Z</time></trkpt><trkpt lat="35.5484166" lon="138.7992757"><ele>1601.3500000000001</ele><time>2024-07-07T02:20:06Z</time></trkpt><trkpt lat="35.5482364" lon="138.7991818"><ele>1600.03</ele><time>2024-07-07T02:20:30Z</time></trkpt><trkpt lat="35.5480834" lon="138.7990643"><ele>1597.3366666666668</ele><time>2024-07-07T02:20:54Z</time></trkpt><trkpt lat="35.5481737" lon="138.7992586"><ele>1597.6966666666667</ele><time>2024-07-07T02:23:18Z</time></trkpt><trkpt lat="35.5480102" lon="138.7994019"><ele>1603.1899999999998</ele><time>2024-07-07T02:23:42Z</time></trkpt><trkpt lat="35.5481226" lon="138.7995779"><ele>1611.0933333333332</ele><time>2024-07-07T02:24:42Z</time></trkpt><trkpt lat="35.5479409" lon="138.7996052"><ele>1617.3333333333333</ele><time>2024-07-07T02:25:30Z</time></trkpt><trkpt lat="35.5478925" lon="138.7998482"><ele>1621.7633333333333</ele><time>2024-07-07T02:26:24Z</time></trkpt><trkpt lat="35.5476207" lon="138.7998405"><ele>1628.0233333333333</ele><time>2024-07-07T02:26:42Z</time></trkpt><trkpt lat="35.5475492" lon="138.8000662"><ele>1634.9433333333334</ele><time>2024-07-07T02:28:14Z</time></trkpt><trkpt lat="35.5474647" lon="138.8002718"><ele>1641.5533333333333</ele><time>2024-07-07T02:29:20Z</time></trkpt><trkpt lat="35.5474379" lon="138.8004934"><ele>1646.3533333333335</ele><time>2024-07-07T02:29:41Z</time></trkpt><trkpt lat="35.547373" lon="138.8007237"><ele>1650.9866666666667</ele><time>2024-07-07T02:30:20Z</time></trkpt><trkpt lat="35.5474374" lon="138.8009371"><ele>1654.8233333333335</ele><time>2024-07-07T02:30:47Z</time></trkpt><trkpt lat="35.5476148" lon="138.8010557"><ele>1657.2</ele><time>2024-07-07T02:31:35Z</time></trkpt><trkpt lat="35.5478107" lon="138.8010685"><ele>1657.7933333333333</ele><time>2024-07-07T02:32:02Z</time></trkpt><trkpt lat="35.5479862" lon="138.8011412"><ele>1657.9433333333334</ele><time>2024-07-07T02:32:36Z</time></trkpt><trkpt lat="35.5481591" lon="138.8013485"><ele>1658.4733333333334</ele><time>2024-07-07T02:33:24Z</time></trkpt><trkpt lat="35.548244" lon="138.8015602"><ele>1660.6833333333336</ele><time>2024-07-07T02:33:42Z</time></trkpt><trkpt lat="35.5483458" lon="138.8017744"><ele>1663.1599999999999</ele><time>2024-07-07T02:34:02Z</time></trkpt><trkpt lat="35.5484739" lon="138.8019705"><ele>1665.8266666666668</ele><time>2024-07-07T02:34:27Z</time></trkpt><trkpt lat="35.5484544" lon="138.8022154"><ele>1667.3999999999999</ele><time>2024-07-07T02:34:51Z</time></trkpt><trkpt lat="35.5484343" lon="138.8024386"><ele>1668.3400000000001</ele><time>2024-07-07T02:35:12Z</time></trkpt><trkpt lat="35.5484133" lon="138.8026581"><ele>1670.5333333333335</ele><time>2024-07-07T02:35:42Z</time></trkpt><trkpt lat="35.5484605" lon="138.8028889"><ele>1672.756666666667</ele><time>2024-07-07T02:36:15Z</time></trkpt><trkpt lat="35.548427" lon="138.8031086"><ele>1676.74</ele><time>2024-07-07T02:36:45Z</time></trkpt><trkpt lat="35.5485202" lon="138.8032977"><ele>1678.6000000000001</ele><time>2024-07-07T02:37:03Z</time></trkpt><trkpt lat="35.5485463" lon="138.8035183"><ele>1682.3400000000001</ele><time>2024-07-07T02:37:27Z</time></trkpt><trkpt lat="35.5486025" lon="138.8037307"><ele>1684.9333333333334</ele><time>2024-07-07T02:38:00Z</time></trkpt><trkpt lat="35.5486211" lon="138.8039977"><ele>1689.4666666666665</ele><time>2024-07-07T02:38:36Z</time></trkpt><trkpt lat="35.54862" lon="138.8042245"><ele>1692.6000000000001</ele><time>2024-07-07T02:39:00Z</time></trkpt><trkpt lat="35.5485763" lon="138.8044538"><ele>1695.9066666666668</ele><time>2024-07-07T02:39:27Z</time></trkpt><trkpt lat="35.5485929" lon="138.8046912"><ele>1698.3933333333334</ele><time>2024-07-07T02:39:51Z</time></trkpt><trkpt lat="35.5485894" lon="138.804916"><ele>1701.1033333333332</ele><time>2024-07-07T02:40:39Z</time></trkpt><trkpt lat="35.5485905" lon="138.8051736"><ele>1703.53</ele><time>2024-07-07T02:41:00Z</time></trkpt><trkpt lat="35.5486434" lon="138.8054065"><ele>1705.9533333333336</ele><time>2024-07-07T02:41:21Z</time></trkpt><trkpt lat="35.5487714" lon="138.8055729"><ele>1709.3533333333335</ele><time>2024-07-07T02:42:00Z</time></trkpt><trkpt lat="35.5489261" lon="138.8057242"><ele>1712.4633333333334</ele><time>2024-07-07T02:42:37Z</time></trkpt><trkpt lat="35.5491253" lon="138.8057881"><ele>1715.5766666666668</ele><time>2024-07-07T02:42:56Z</time></trkpt><trkpt lat="35.5492703" lon="138.8059493"><ele>1717.86</ele><time>2024-07-07T02:43:23Z</time></trkpt><trkpt lat="35.5493889" lon="138.8061208"><ele>1720.8500000000001</ele><time>2024-07-07T02:43:41Z</time></trkpt><trkpt lat="35.5494937" lon="138.8063306"><ele>1723.11</ele><time>2024-07-07T02:44:05Z</time></trkpt><trkpt lat="35.5495457" lon="138.806551"><ele>1725.283333333333</ele><time>2024-07-07T02:44:23Z</time></trkpt><trkpt lat="35.5495331" lon="138.8067871"><ele>1726.8766666666668</ele><time>2024-07-07T02:44:35Z</time></trkpt><trkpt lat="35.5495838" lon="138.8070055"><ele>1726.6666666666667</ele><time>2024-07-07T02:45:24Z</time></trkpt><trkpt lat="35.5496768" lon="138.807229"><ele>1724.6500000000003</ele><time>2024-07-07T02:45:45Z</time></trkpt><trkpt lat="35.5498019" lon="138.8074262"><ele>1721.18</ele><time>2024-07-07T02:46:12Z</time></trkpt><trkpt lat="35.549965" lon="138.807537"><ele>1720.47</ele><time>2024-07-07T02:46:30Z</time></trkpt><trkpt lat="35.5498438" lon="138.8077038"><ele>1720.8866666666665</ele><time>2024-07-07T02:47:51Z</time></trkpt><trkpt lat="35.5498995" lon="138.8079158"><ele>1727.7666666666667</ele><time>2024-07-07T02:49:12Z</time></trkpt><trkpt lat="35.5498644" lon="138.8082041"><ele>1736.2733333333333</ele><time>2024-07-07T02:51:15Z</time></trkpt><trkpt lat="35.5497548" lon="138.8084261"><ele>1747.1333333333334</ele><time>2024-07-07T02:51:39Z</time></trkpt><trkpt lat="35.5497131" lon="138.8086627"><ele>1755.4233333333334</ele><time>2024-07-07T02:52:48Z</time></trkpt><trkpt lat="35.549551" lon="138.8087906"><ele>1762.43</ele><time>2024-07-07T02:53:05Z</time></trkpt><trkpt lat="35.5494512" lon="138.8089822"><ele>1768.8666666666668</ele><time>2024-07-07T02:53:51Z</time></trkpt><trkpt lat="35.5492552" lon="138.8091259"><ele>1773.9966666666667</ele><time>2024-07-07T02:54:36Z</time></trkpt><trkpt lat="35.5494147" lon="138.8090102"><ele>1777.3466666666666</ele><time>2024-07-07T03:02:05Z</time></trkpt><trkpt lat="35.5495411" lon="138.808805"><ele>1775.1066666666666</ele><time>2024-07-07T03:02:26Z</time></trkpt><trkpt lat="35.5496856" lon="138.8086386"><ele>1769.0199999999998</ele><time>2024-07-07T03:03:42Z</time></trkpt><trkpt lat="35.5497201" lon="138.8084148"><ele>1761.4566666666667</ele><time>2024-07-07T03:04:00Z</time></trkpt><trkpt lat="35.5498298" lon="138.808229"><ele>1755.38</ele><time>2024-07-07T03:04:18Z</time></trkpt><trkpt lat="35.5499454" lon="138.8080558"><ele>1749.956666666667</ele><time>2024-07-07T03:04:47Z</time></trkpt><trkpt lat="35.5498582" lon="138.8078432"><ele>1742.7866666666669</ele><time>2024-07-07T03:05:08Z</time></trkpt><trkpt lat="35.5499248" lon="138.8076134"><ele>1733.3666666666668</ele><time>2024-07-07T03:05:50Z</time></trkpt><trkpt lat="35.5498914" lon="138.8073536"><ele>1725.8066666666666</ele><time>2024-07-07T03:06:12Z</time></trkpt><trkpt lat="35.5497188" lon="138.8072542"><ele>1721.9866666666667</ele><time>2024-07-07T03:06:27Z</time></trkpt><trkpt lat="35.5495402" lon="138.8072145"><ele>1720.49</ele><time>2024-07-07T03:07:00Z</time></trkpt><trkpt lat="35.5494914" lon="138.806964"><ele>1720.9733333333334</ele><time>2024-07-07T03:08:06Z</time></trkpt><trkpt lat="35.5493054" lon="138.8069136"><ele>1723.7933333333333</ele><time>2024-07-07T03:08:20Z</time></trkpt><trkpt lat="35.5491026" lon="138.8068784"><ele>1728.2233333333334</ele><time>2024-07-07T03:08:40Z</time></trkpt><trkpt lat="35.5490947" lon="138.806647"><ele>1732.25</ele><time>2024-07-07T03:09:03Z</time></trkpt><trkpt lat="35.5490249" lon="138.8064173"><ele>1733.5666666666666</ele><time>2024-07-07T03:09:21Z</time></trkpt><trkpt lat="35.5488838" lon="138.8062684"><ele>1735.0933333333332</ele><time>2024-07-07T03:09:36Z</time></trkpt><trkpt lat="35.5486653" lon="138.8062399"><ele>1734.5833333333333</ele><time>2024-07-07T03:10:06Z</time></trkpt><trkpt lat="35.548482" lon="138.8063249"><ele>1731.9466666666667</ele><time>2024-07-07T03:10:24Z</time></trkpt><trkpt lat="35.5483093" lon="138.806236"><ele>1728.926666666667</ele><time>2024-07-07T03:10:42Z</time></trkpt><trkpt lat="35.5482063" lon="138.8060499"><ele>1725.78</ele><time>2024-07-07T03:12:12Z</time></trkpt><trkpt lat="35.5483333" lon="138.8058493"><ele>1725.8933333333334</ele><time>2024-07-07T03:27:00Z</time></trkpt><trkpt lat="35.5481938" lon="138.8056428"><ele>1724.7333333333333</ele><time>2024-07-07T03:27:18Z</time></trkpt><trkpt lat="35.5481066" lon="138.8054394"><ele>1724.0333333333335</ele><time>2024-07-07T03:27:33Z</time></trkpt><trkpt lat="35.5480863" lon="138.8051772"><ele>1722.16</ele><time>2024-07-07T03:27:54Z</time></trkpt><trkpt lat="35.5480091" lon="138.8049304"><ele>1721.8233333333335</ele><time>2024-07-07T03:28:09Z</time></trkpt><trkpt lat="35.5479158" lon="138.8047087"><ele>1721.2866666666669</ele><time>2024-07-07T03:28:24Z</time></trkpt><trkpt lat="35.5478259" lon="138.8044988"><ele>1721.6166666666668</ele><time>2024-07-07T03:28:39Z</time></trkpt><trkpt lat="35.5476943" lon="138.8043072"><ele>1722.0433333333333</ele><time>2024-07-07T03:28:54Z</time></trkpt><trkpt lat="35.5475514" lon="138.8041394"><ele>1722.3033333333333</ele><time>2024-07-07T03:29:09Z</time></trkpt><trkpt lat="35.5473858" lon="138.8040286"><ele>1723.04</ele><time>2024-07-07T03:29:27Z</time></trkpt><trkpt lat="35.5472392" lon="138.8038291"><ele>1725.5966666666666</ele><time>2024-07-07T03:30:03Z</time></trkpt><trkpt lat="35.5471484" lon="138.8036081"><ele>1728.1999999999998</ele><time>2024-07-07T03:30:18Z</time></trkpt><trkpt lat="35.5470279" lon="138.8034013"><ele>1727.7833333333335</ele><time>2024-07-07T03:30:33Z</time></trkpt><trkpt lat="35.546846" lon="138.8032513"><ele>1726.0866666666668</ele><time>2024-07-07T03:30:48Z</time></trkpt><trkpt lat="35.5467002" lon="138.8031033"><ele>1726.1666666666667</ele><time>2024-07-07T03:31:03Z</time></trkpt><trkpt lat="35.5465163" lon="138.8029963"><ele>1727.55</ele><time>2024-07-07T03:31:18Z</time></trkpt><trkpt lat="35.5463013" lon="138.8029566"><ele>1726.9333333333334</ele><time>2024-07-07T03:31:33Z</time></trkpt><trkpt lat="35.546122" lon="138.8028944"><ele>1724.2333333333333</ele><time>2024-07-07T03:31:48Z</time></trkpt><trkpt lat="35.5459418" lon="138.8027726"><ele>1722.3066666666666</ele><time>2024-07-07T03:32:06Z</time></trkpt><trkpt lat="35.545772" lon="138.8026694"><ele>1721.9866666666667</ele><time>2024-07-07T03:32:21Z</time></trkpt><trkpt lat="35.5455784" lon="138.8026475"><ele>1722.0133333333333</ele><time>2024-07-07T03:32:36Z</time></trkpt><trkpt lat="35.5453981" lon="138.8025597"><ele>1721.2833333333335</ele><time>2024-07-07T03:32:54Z</time></trkpt><trkpt lat="35.545225" lon="138.8027037"><ele>1719.6033333333332</ele><time>2024-07-07T03:33:09Z</time></trkpt><trkpt lat="35.5450737" lon="138.8028244"><ele>1715.493333333333</ele><time>2024-07-07T03:33:29Z</time></trkpt><trkpt lat="35.5448827" lon="138.8028878"><ele>1710.5533333333333</ele><time>2024-07-07T03:34:03Z</time></trkpt><trkpt lat="35.5446963" lon="138.8029886"><ele>1704.4733333333334</ele><time>2024-07-07T03:34:23Z</time></trkpt><trkpt lat="35.5445247" lon="138.8031035"><ele>1699.8133333333335</ele><time>2024-07-07T03:34:39Z</time></trkpt><trkpt lat="35.5443969" lon="138.8032838"><ele>1695.29</ele><time>2024-07-07T03:34:54Z</time></trkpt><trkpt lat="35.5442157" lon="138.8032882"><ele>1691.8033333333333</ele><time>2024-07-07T03:35:15Z</time></trkpt><trkpt lat="35.5440499" lon="138.8033755"><ele>1688.63</ele><time>2024-07-07T03:35:33Z</time></trkpt><trkpt lat="35.5438819" lon="138.8034933"><ele>1686.0333333333335</ele><time>2024-07-07T03:35:51Z</time></trkpt><trkpt lat="35.5436859" lon="138.8034827"><ele>1683.8033333333333</ele><time>2024-07-07T03:36:12Z</time></trkpt><trkpt lat="35.5434809" lon="138.8035165"><ele>1681.5633333333333</ele><time>2024-07-07T03:36:33Z</time></trkpt><trkpt lat="35.5433436" lon="138.8037002"><ele>1678.1333333333334</ele><time>2024-07-07T03:36:57Z</time></trkpt><trkpt lat="35.5431389" lon="138.8037098"><ele>1675.1866666666665</ele><time>2024-07-07T03:37:15Z</time></trkpt><trkpt lat="35.5430132" lon="138.8038843"><ele>1671.6933333333334</ele><time>2024-07-07T03:37:33Z</time></trkpt><trkpt lat="35.5429083" lon="138.8040964"><ele>1667.8499999999997</ele><time>2024-07-07T03:38:00Z</time></trkpt><trkpt lat="35.5427164" lon="138.8040284"><ele>1662.5166666666664</ele><time>2024-07-07T03:38:21Z</time></trkpt><trkpt lat="35.5426919" lon="138.8042635"><ele>1657.1166666666668</ele><time>2024-07-07T03:38:42Z</time></trkpt><trkpt lat="35.5425082" lon="138.804186"><ele>1652.3966666666665</ele><time>2024-07-07T03:39:15Z</time></trkpt><trkpt lat="35.5423375" lon="138.804306"><ele>1645.5200000000002</ele><time>2024-07-07T03:39:45Z</time></trkpt><trkpt lat="35.5422497" lon="138.8045195"><ele>1638.4833333333333</ele><time>2024-07-07T03:40:15Z</time></trkpt><trkpt lat="35.5420598" lon="138.8045452"><ele>1629.72</ele><time>2024-07-07T03:40:57Z</time></trkpt><trkpt lat="35.5420196" lon="138.8047688"><ele>1623.4166666666667</ele><time>2024-07-07T03:41:33Z</time></trkpt><trkpt lat="35.5418399" lon="138.804695"><ele>1616.9433333333334</ele><time>2024-07-07T03:42:14Z</time></trkpt><trkpt lat="35.5416401" lon="138.8046453"><ele>1610.7233333333334</ele><time>2024-07-07T03:42:39Z</time></trkpt><trkpt lat="35.5414594" lon="138.8047726"><ele>1603.95</ele><time>2024-07-07T03:43:05Z</time></trkpt><trkpt lat="35.5412976" lon="138.8048954"><ele>1596.6666666666667</ele><time>2024-07-07T03:43:45Z</time></trkpt><trkpt lat="35.541105" lon="138.8049043"><ele>1591.3966666666668</ele><time>2024-07-07T03:44:00Z</time></trkpt><trkpt lat="35.5409669" lon="138.805068"><ele>1587.0066666666664</ele><time>2024-07-07T03:44:21Z</time></trkpt><trkpt lat="35.5408426" lon="138.805269"><ele>1583.5433333333333</ele><time>2024-07-07T03:44:40Z</time></trkpt><trkpt lat="35.5406576" lon="138.8051889"><ele>1580.6533333333334</ele><time>2024-07-07T03:44:55Z</time></trkpt><trkpt lat="35.5404723" lon="138.8052091"><ele>1577.6500000000003</ele><time>2024-07-07T03:45:10Z</time></trkpt><trkpt lat="35.5402704" lon="138.8052406"><ele>1574.9633333333331</ele><time>2024-07-07T03:45:34Z</time></trkpt><trkpt lat="35.5400709" lon="138.8052971"><ele>1571.9399999999998</ele><time>2024-07-07T03:45:49Z</time></trkpt><trkpt lat="35.5398783" lon="138.8052551"><ele>1569.1466666666668</ele><time>2024-07-07T03:46:04Z</time></trkpt><trkpt lat="35.5396799" lon="138.805294"><ele>1566.28</ele><time>2024-07-07T03:46:22Z</time></trkpt><trkpt lat="35.5394843" lon="138.805371"><ele>1562.9466666666667</ele><time>2024-07-07T03:46:40Z</time></trkpt><trkpt lat="35.5392769" lon="138.8054468"><ele>1559.4633333333331</ele><time>2024-07-07T03:46:58Z</time></trkpt><trkpt lat="35.5390948" lon="138.8053535"><ele>1554.96</ele><time>2024-07-07T03:47:16Z</time></trkpt><trkpt lat="35.538901" lon="138.8054399"><ele>1551.1633333333336</ele><time>2024-07-07T03:47:28Z</time></trkpt><trkpt lat="35.5387236" lon="138.8055697"><ele>1549.0366666666669</ele><time>2024-07-07T03:47:43Z</time></trkpt><trkpt lat="35.5385541" lon="138.8056695"><ele>1548.493333333333</ele><time>2024-07-07T03:47:58Z</time></trkpt><trkpt lat="35.5383878" lon="138.805535"><ele>1545.1966666666667</ele><time>2024-07-07T03:48:16Z</time></trkpt><trkpt lat="35.5381954" lon="138.8055484"><ele>1540.5033333333333</ele><time>2024-07-07T03:48:34Z</time></trkpt><trkpt lat="35.537985" lon="138.8055511"><ele>1535.8633333333335</ele><time>2024-07-07T03:48:52Z</time></trkpt><trkpt lat="35.5379207" lon="138.8057606"><ele>1537.4000000000003</ele><time>2024-07-07T03:49:13Z</time></trkpt><trkpt lat="35.5376809" lon="138.8056948"><ele>1537.956666666667</ele><time>2024-07-07T03:49:22Z</time></trkpt><trkpt lat="35.5375441" lon="138.8055395"><ele>1537.4166666666667</ele><time>2024-07-07T03:49:34Z</time></trkpt><trkpt lat="35.5374252" lon="138.8053452"><ele>1532.5666666666668</ele><time>2024-07-07T03:49:49Z</time></trkpt><trkpt lat="35.5372429" lon="138.8052135"><ele>1527.966666666667</ele><time>2024-07-07T03:50:04Z</time></trkpt><trkpt lat="35.5370453" lon="138.8051908"><ele>1525.1866666666667</ele><time>2024-07-07T03:50:19Z</time></trkpt><trkpt lat="35.5369239" lon="138.8053701"><ele>1524.7233333333334</ele><time>2024-07-07T03:50:37Z</time></trkpt><trkpt lat="35.5367495" lon="138.8054726"><ele>1527.2066666666667</ele><time>2024-07-07T03:51:04Z</time></trkpt><trkpt lat="35.5365904" lon="138.805582"><ele>1530.1166666666668</ele><time>2024-07-07T03:51:19Z</time></trkpt><trkpt lat="35.5364307" lon="138.8057153"><ele>1532.3766666666668</ele><time>2024-07-07T03:51:37Z</time></trkpt><trkpt lat="35.536274" lon="138.805599"><ele>1534.49</ele><time>2024-07-07T03:51:52Z</time></trkpt><trkpt lat="35.5360754" lon="138.8055439"><ele>1536.9366666666667</ele><time>2024-07-07T03:52:09Z</time></trkpt><trkpt lat="35.5359043" lon="138.8054711"><ele>1539.6500000000003</ele><time>2024-07-07T03:52:25Z</time></trkpt><trkpt lat="35.5357292" lon="138.8053559"><ele>1541.7200000000003</ele><time>2024-07-07T03:52:46Z</time></trkpt><trkpt lat="35.5355475" lon="138.8053595"><ele>1543.736666666667</ele><time>2024-07-07T03:53:04Z</time></trkpt><trkpt lat="35.5353681" lon="138.8054532"><ele>1546.5766666666666</ele><time>2024-07-07T03:53:25Z</time></trkpt><trkpt lat="35.5352076" lon="138.805567"><ele>1548.8533333333335</ele><time>2024-07-07T03:53:55Z</time></trkpt><trkpt lat="35.5350291" lon="138.8056494"><ele>1550.2733333333333</ele><time>2024-07-07T03:54:13Z</time></trkpt><trkpt lat="35.534843" lon="138.8057348"><ele>1549.2533333333333</ele><time>2024-07-07T03:54:34Z</time></trkpt><trkpt lat="35.5347302" lon="138.8059152"><ele>1545.5766666666666</ele><time>2024-07-07T03:54:52Z</time></trkpt><trkpt lat="35.5345276" lon="138.8059341"><ele>1540.006666666667</ele><time>2024-07-07T03:55:13Z</time></trkpt><trkpt lat="35.5344025" lon="138.806139"><ele>1534.7</ele><time>2024-07-07T03:56:04Z</time></trkpt><trkpt lat="35.534208" lon="138.8062536"><ele>1529.7033333333331</ele><time>2024-07-07T03:56:22Z</time></trkpt><trkpt lat="35.5340192" lon="138.806339"><ele>1524.5333333333335</ele><time>2024-07-07T03:56:40Z</time></trkpt><trkpt lat="35.5338506" lon="138.8064813"><ele>1519.5766666666668</ele><time>2024-07-07T03:56:58Z</time></trkpt><trkpt lat="35.5337154" lon="138.8066355"><ele>1516.6766666666665</ele><time>2024-07-07T03:57:13Z</time></trkpt><trkpt lat="35.5335306" lon="138.8065998"><ele>1513.7366666666667</ele><time>2024-07-07T03:57:31Z</time></trkpt><trkpt lat="35.5333498" lon="138.8066036"><ele>1509.8400000000001</ele><time>2024-07-07T03:57:49Z</time></trkpt><trkpt lat="35.5331692" lon="138.8066182"><ele>1504.2033333333336</ele><time>2024-07-07T03:58:21Z</time></trkpt><trkpt lat="35.5329962" lon="138.8064929"><ele>1497.8999999999999</ele><time>2024-07-07T03:59:04Z</time></trkpt><trkpt lat="35.5328134" lon="138.8064604"><ele>1492.7300000000002</ele><time>2024-07-07T03:59:25Z</time></trkpt><trkpt lat="35.5326162" lon="138.8064591"><ele>1487.6666666666667</ele><time>2024-07-07T03:59:52Z</time></trkpt><trkpt lat="35.5324432" lon="138.8063922"><ele>1485.1866666666667</ele><time>2024-07-07T04:00:07Z</time></trkpt><trkpt lat="35.5322691" lon="138.8062516"><ele>1482.5933333333332</ele><time>2024-07-07T04:00:25Z</time></trkpt><trkpt lat="35.5320703" lon="138.8062755"><ele>1481.3366666666668</ele><time>2024-07-07T04:00:44Z</time></trkpt><trkpt lat="35.5318589" lon="138.8063172"><ele>1481.2466666666667</ele><time>2024-07-07T04:00:59Z</time></trkpt><trkpt lat="35.5316739" lon="138.8063078"><ele>1481.3066666666666</ele><time>2024-07-07T04:01:17Z</time></trkpt><trkpt lat="35.5315023" lon="138.8061864"><ele>1481.28</ele><time>2024-07-07T04:01:37Z</time></trkpt><trkpt lat="35.5313002" lon="138.8061356"><ele>1479.8433333333335</ele><time>2024-07-07T04:01:59Z</time></trkpt><trkpt lat="35.5311164" lon="138.8061121"><ele>1477.4766666666667</ele><time>2024-07-07T04:02:16Z</time></trkpt><trkpt lat="35.5309705" lon="138.8059569"><ele>1475.3166666666666</ele><time>2024-07-07T04:02:29Z</time></trkpt><trkpt lat="35.5308874" lon="138.8057469"><ele>1471.41</ele><time>2024-07-07T04:02:47Z</time></trkpt><trkpt lat="35.5310035" lon="138.8055718"><ele>1470.2966666666664</ele><time>2024-07-07T04:03:01Z</time></trkpt><trkpt lat="35.5308044" lon="138.8054969"><ele>1465.6633333333332</ele><time>2024-07-07T04:03:16Z</time></trkpt><trkpt lat="35.5307187" lon="138.8052463"><ele>1459.6933333333334</ele><time>2024-07-07T04:04:48Z</time></trkpt><trkpt lat="35.5306472" lon="138.8050347"><ele>1449.66</ele><time>2024-07-07T04:05:03Z</time></trkpt><trkpt lat="35.5306701" lon="138.8048037"><ele>1442.4400000000003</ele><time>2024-07-07T04:05:22Z</time></trkpt><trkpt lat="35.5305384" lon="138.804998"><ele>1437.5233333333335</ele><time>2024-07-07T04:06:04Z</time></trkpt><trkpt lat="35.5303465" lon="138.804978"><ele>1433.4966666666667</ele><time>2024-07-07T04:06:28Z</time></trkpt><trkpt lat="35.5301492" lon="138.8050524"><ele>1430.596666666667</ele><time>2024-07-07T04:06:45Z</time></trkpt><trkpt lat="35.5299701" lon="138.8050798"><ele>1428.4133333333332</ele><time>2024-07-07T04:07:04Z</time></trkpt><trkpt lat="35.5297568" lon="138.805089"><ele>1428.29</ele><time>2024-07-07T04:07:25Z</time></trkpt><trkpt lat="35.5296049" lon="138.8049193"><ele>1425.6633333333332</ele><time>2024-07-07T04:07:46Z</time></trkpt><trkpt lat="35.5294221" lon="138.804964"><ele>1424.2766666666666</ele><time>2024-07-07T04:08:01Z</time></trkpt><trkpt lat="35.5292105" lon="138.8049104"><ele>1420.2733333333333</ele><time>2024-07-07T04:08:19Z</time></trkpt><trkpt lat="35.5290088" lon="138.8048283"><ele>1417.3000000000002</ele><time>2024-07-07T04:08:40Z</time></trkpt><trkpt lat="35.5288556" lon="138.8046372"><ele>1410.9800000000002</ele><time>2024-07-07T04:09:07Z</time></trkpt><trkpt lat="35.5286631" lon="138.8046416"><ele>1407.8400000000001</ele><time>2024-07-07T04:09:22Z</time></trkpt><trkpt lat="35.5285045" lon="138.8044917"><ele>1403.0200000000002</ele><time>2024-07-07T04:10:07Z</time></trkpt><trkpt lat="35.528333" lon="138.8043493"><ele>1399.21</ele><time>2024-07-07T04:10:25Z</time></trkpt><trkpt lat="35.5281476" lon="138.8043443"><ele>1394.3966666666668</ele><time>2024-07-07T04:11:04Z</time></trkpt><trkpt lat="35.5279823" lon="138.8041983"><ele>1391.1066666666668</ele><time>2024-07-07T04:11:24Z</time></trkpt><trkpt lat="35.5277877" lon="138.8041391"><ele>1387.46</ele><time>2024-07-07T04:11:46Z</time></trkpt><trkpt lat="35.5275834" lon="138.8041664"><ele>1381.96</ele><time>2024-07-07T04:12:10Z</time></trkpt><trkpt lat="35.5274644" lon="138.8039883"><ele>1377.2933333333333</ele><time>2024-07-07T04:12:31Z</time></trkpt><trkpt lat="35.5272613" lon="138.8039493"><ele>1373.6899999999998</ele><time>2024-07-07T04:12:43Z</time></trkpt><trkpt lat="35.5271077" lon="138.8037769"><ele>1372.5666666666668</ele><time>2024-07-07T04:13:09Z</time></trkpt><trkpt lat="35.5269262" lon="138.8036967"><ele>1372.1933333333334</ele><time>2024-07-07T04:13:27Z</time></trkpt><trkpt lat="35.5267123" lon="138.8036515"><ele>1372.7633333333333</ele><time>2024-07-07T04:13:42Z</time></trkpt><trkpt lat="35.5265411" lon="138.8035527"><ele>1372.7233333333334</ele><time>2024-07-07T04:13:57Z</time></trkpt><trkpt lat="35.5264175" lon="138.8033634"><ele>1373.3433333333335</ele><time>2024-07-07T04:14:15Z</time></trkpt><trkpt lat="35.5262886" lon="138.8031736"><ele>1373.86</ele><time>2024-07-07T04:14:35Z</time></trkpt><trkpt lat="35.5261076" lon="138.8030935"><ele>1374.5833333333333</ele><time>2024-07-07T04:14:51Z</time></trkpt><trkpt lat="35.5259141" lon="138.8030113"><ele>1374.0233333333333</ele><time>2024-07-07T04:15:06Z</time></trkpt><trkpt lat="35.5257197" lon="138.8028959"><ele>1373.2233333333334</ele><time>2024-07-07T04:15:21Z</time></trkpt><trkpt lat="35.5255501" lon="138.8027459"><ele>1372.0733333333335</ele><time>2024-07-07T04:15:36Z</time></trkpt><trkpt lat="35.5253646" lon="138.8026489"><ele>1370.8400000000001</ele><time>2024-07-07T04:15:54Z</time></trkpt><trkpt lat="35.5251815" lon="138.8026503"><ele>1368.9833333333333</ele><time>2024-07-07T04:16:09Z</time></trkpt><trkpt lat="35.5250052" lon="138.8025611"><ele>1366.756666666667</ele><time>2024-07-07T04:16:27Z</time></trkpt><trkpt lat="35.5248323" lon="138.8024442"><ele>1364.82</ele><time>2024-07-07T04:16:45Z</time></trkpt><trkpt lat="35.5246828" lon="138.8022794"><ele>1363.1733333333334</ele><time>2024-07-07T04:17:03Z</time></trkpt><trkpt lat="35.5245305" lon="138.8021307"><ele>1361.1033333333332</ele><time>2024-07-07T04:17:21Z</time></trkpt><trkpt lat="35.5244596" lon="138.8019092"><ele>1358.86</ele><time>2024-07-07T04:17:39Z</time></trkpt><trkpt lat="35.5243282" lon="138.8017379"><ele>1356.0333333333335</ele><time>2024-07-07T04:18:57Z</time></trkpt><trkpt lat="35.5241329" lon="138.8016835"><ele>1353.8266666666666</ele><time>2024-07-07T04:19:36Z</time></trkpt><trkpt lat="35.5243271" lon="138.8016399"><ele>1352.1333333333334</ele><time>2024-07-07T04:21:33Z</time></trkpt><trkpt lat="35.5241892" lon="138.8014936"><ele>1350.8133333333335</ele><time>2024-07-07T04:21:44Z</time></trkpt><trkpt lat="35.5240658" lon="138.8013239"><ele>1348.1433333333334</ele><time>2024-07-07T04:22:21Z</time></trkpt><trkpt lat="35.5240853" lon="138.8010942"><ele>1343.7933333333333</ele><time>2024-07-07T04:22:39Z</time></trkpt><trkpt lat="35.5240049" lon="138.8008741"><ele>1339.2700000000002</ele><time>2024-07-07T04:22:54Z</time></trkpt><trkpt lat="35.5239632" lon="138.8006345"><ele>1335.25</ele><time>2024-07-07T04:23:12Z</time></trkpt><trkpt lat="35.5238844" lon="138.8004087"><ele>1332.1933333333334</ele><time>2024-07-07T04:23:30Z</time></trkpt><trkpt lat="35.5238443" lon="138.8001824"><ele>1327.87</ele><time>2024-07-07T04:23:48Z</time></trkpt><trkpt lat="35.5236847" lon="138.8000173"><ele>1324.5666666666668</ele><time>2024-07-07T04:24:09Z</time></trkpt><trkpt lat="35.52349" lon="138.8000183"><ele>1320.6766666666665</ele><time>2024-07-07T04:24:27Z</time></trkpt><trkpt lat="35.5233183" lon="138.7999022"><ele>1317.8966666666665</ele><time>2024-07-07T04:24:45Z</time></trkpt><trkpt lat="35.5231892" lon="138.7996949"><ele>1315.0566666666666</ele><time>2024-07-07T04:25:00Z</time></trkpt><trkpt lat="35.5230652" lon="138.7995278"><ele>1313.3933333333334</ele><time>2024-07-07T04:25:15Z</time></trkpt><trkpt lat="35.5229095" lon="138.7993593"><ele>1313.2466666666667</ele><time>2024-07-07T04:25:33Z</time></trkpt><trkpt lat="35.5228175" lon="138.7991358"><ele>1314.4466666666667</ele><time>2024-07-07T04:25:50Z</time></trkpt><trkpt lat="35.5226725" lon="138.7989439"><ele>1314.67</ele><time>2024-07-07T04:26:08Z</time></trkpt><trkpt lat="35.522491" lon="138.7990028"><ele>1315.93</ele><time>2024-07-07T04:26:21Z</time></trkpt><trkpt lat="35.5223249" lon="138.7988835"><ele>1316.95</ele><time>2024-07-07T04:26:39Z</time></trkpt><trkpt lat="35.5221196" lon="138.798774"><ele>1318.5666666666668</ele><time>2024-07-07T04:26:54Z</time></trkpt><trkpt lat="35.5219369" lon="138.7987112"><ele>1317.77</ele><time>2024-07-07T04:27:09Z</time></trkpt><trkpt lat="35.5217873" lon="138.7985356"><ele>1317.9766666666667</ele><time>2024-07-07T04:27:28Z</time></trkpt><trkpt lat="35.5218191" lon="138.7982734"><ele>1317.4533333333331</ele><time>2024-07-07T04:27:43Z</time></trkpt><trkpt lat="35.5216819" lon="138.7981157"><ele>1319.1533333333334</ele><time>2024-07-07T04:27:57Z</time></trkpt><trkpt lat="35.5215605" lon="138.7979385"><ele>1319.2066666666667</ele><time>2024-07-07T04:28:15Z</time></trkpt><trkpt lat="35.5214584" lon="138.7977207"><ele>1318.8500000000001</ele><time>2024-07-07T04:28:29Z</time></trkpt><trkpt lat="35.5214518" lon="138.7974653"><ele>1316.9066666666668</ele><time>2024-07-07T04:28:44Z</time></trkpt><trkpt lat="35.5213396" lon="138.7972844"><ele>1314.5966666666666</ele><time>2024-07-07T04:28:58Z</time></trkpt><trkpt lat="35.5211895" lon="138.7971109"><ele>1313.83</ele><time>2024-07-07T04:29:14Z</time></trkpt><trkpt lat="35.5211044" lon="138.7968965"><ele>1313.1966666666667</ele><time>2024-07-07T04:29:32Z</time></trkpt><trkpt lat="35.5209478" lon="138.7967569"><ele>1312.4733333333334</ele><time>2024-07-07T04:29:47Z</time></trkpt><trkpt lat="35.5208308" lon="138.7965442"><ele>1311.2766666666666</ele><time>2024-07-07T04:30:08Z</time></trkpt><trkpt lat="35.5207022" lon="138.7963441"><ele>1309.7</ele><time>2024-07-07T04:30:26Z</time></trkpt><trkpt lat="35.5206119" lon="138.7961113"><ele>1307.51</ele><time>2024-07-07T04:30:47Z</time></trkpt><trkpt lat="35.520434" lon="138.7960136"><ele>1305.48</ele><time>2024-07-07T04:31:02Z</time></trkpt><trkpt lat="35.5202653" lon="138.7958826"><ele>1303.4033333333334</ele><time>2024-07-07T04:31:17Z</time></trkpt><trkpt lat="35.5200802" lon="138.7958136"><ele>1302.1166666666666</ele><time>2024-07-07T04:31:32Z</time></trkpt><trkpt lat="35.5200146" lon="138.7955841"><ele>1299.4766666666667</ele><time>2024-07-07T04:34:26Z</time></trkpt><trkpt lat="35.5200097" lon="138.7953347"><ele>1296.6899999999998</ele><time>2024-07-07T04:34:41Z</time></trkpt><trkpt lat="35.5199062" lon="138.7951384"><ele>1296.506666666667</ele><time>2024-07-07T04:35:08Z</time></trkpt><trkpt lat="35.5198558" lon="138.7949187"><ele>1298.29</ele><time>2024-07-07T04:35:26Z</time></trkpt><trkpt lat="35.5198837" lon="138.7946929"><ele>1300.45</ele><time>2024-07-07T04:35:44Z</time></trkpt><trkpt lat="35.5199477" lon="138.7944638"><ele>1297.36</ele><time>2024-07-07T04:36:11Z</time></trkpt><trkpt lat="35.5199257" lon="138.7942381"><ele>1291.76</ele><time>2024-07-07T04:36:26Z</time></trkpt><trkpt lat="35.5198742" lon="138.7939976"><ele>1283.88</ele><time>2024-07-07T04:36:47Z</time></trkpt><trkpt lat="35.5198831" lon="138.7937482"><ele>1277.6633333333332</ele><time>2024-07-07T04:37:05Z</time></trkpt><trkpt lat="35.5196867" lon="138.7936869"><ele>1272.2</ele><time>2024-07-07T04:37:29Z</time></trkpt><trkpt lat="35.5197557" lon="138.7934718"><ele>1268.48</ele><time>2024-07-07T04:38:11Z</time></trkpt><trkpt lat="35.5195524" lon="138.7934648"><ele>1265.0333333333335</ele><time>2024-07-07T04:38:26Z</time></trkpt><trkpt lat="35.5194037" lon="138.7933273"><ele>1261.4466666666667</ele><time>2024-07-07T04:38:41Z</time></trkpt><trkpt lat="35.5192941" lon="138.7931467"><ele>1256.5566666666666</ele><time>2024-07-07T04:39:02Z</time></trkpt><trkpt lat="35.5191154" lon="138.793066"><ele>1250.74</ele><time>2024-07-07T04:39:17Z</time></trkpt><trkpt lat="35.5190908" lon="138.7928421"><ele>1246.6766666666667</ele><time>2024-07-07T04:40:04Z</time></trkpt><trkpt lat="35.518869" lon="138.7927853"><ele>1242.7066666666667</ele><time>2024-07-07T04:40:16Z</time></trkpt><trkpt lat="35.5186788" lon="138.7927435"><ele>1239.2866666666666</ele><time>2024-07-07T04:40:31Z</time></trkpt><trkpt lat="35.518563" lon="138.7925719"><ele>1235.8133333333333</ele><time>2024-07-07T04:40:49Z</time></trkpt><trkpt lat="35.5183978" lon="138.7924833"><ele>1233.7166666666667</ele><time>2024-07-07T04:41:04Z</time></trkpt><trkpt lat="35.5183108" lon="138.7922876"><ele>1231.5033333333333</ele><time>2024-07-07T04:41:19Z</time></trkpt><trkpt lat="35.5181349" lon="138.7922069"><ele>1228.2066666666667</ele><time>2024-07-07T04:41:34Z</time></trkpt><trkpt lat="35.5179894" lon="138.792041"><ele>1224.28</ele><time>2024-07-07T04:41:52Z</time></trkpt><trkpt lat="35.51782" lon="138.791944"><ele>1219.18</ele><time>2024-07-07T04:42:10Z</time></trkpt><trkpt lat="35.5176317" lon="138.7919323"><ele>1214.0666666666666</ele><time>2024-07-07T04:42:31Z</time></trkpt><trkpt lat="35.5175058" lon="138.7917651"><ele>1210.3166666666666</ele><time>2024-07-07T04:42:49Z</time></trkpt><trkpt lat="35.5173353" lon="138.7916917"><ele>1207.3566666666668</ele><time>2024-07-07T04:43:04Z</time></trkpt><trkpt lat="35.5172074" lon="138.7915325"><ele>1205.4433333333334</ele><time>2024-07-07T04:43:22Z</time></trkpt><trkpt lat="35.5170182" lon="138.7915736"><ele>1200.8533333333332</ele><time>2024-07-07T04:43:40Z</time></trkpt><trkpt lat="35.5169226" lon="138.7913622"><ele>1201.2033333333334</ele><time>2024-07-07T04:43:54Z</time></trkpt><trkpt lat="35.5168155" lon="138.7911588"><ele>1202.2966666666666</ele><time>2024-07-07T04:44:13Z</time></trkpt><trkpt lat="35.5166458" lon="138.7910773"><ele>1204.4033333333334</ele><time>2024-07-07T04:44:28Z</time></trkpt><trkpt lat="35.5165514" lon="138.7908863"><ele>1204.93</ele><time>2024-07-07T04:44:40Z</time></trkpt><trkpt lat="35.5164203" lon="138.7907302"><ele>1205.5033333333333</ele><time>2024-07-07T04:44:52Z</time></trkpt><trkpt lat="35.5162179" lon="138.7907367"><ele>1205.6066666666666</ele><time>2024-07-07T04:45:04Z</time></trkpt><trkpt lat="35.516016" lon="138.7907109"><ele>1204.6466666666668</ele><time>2024-07-07T04:45:19Z</time></trkpt><trkpt lat="35.5158385" lon="138.7906649"><ele>1202.7333333333333</ele><time>2024-07-07T04:45:34Z</time></trkpt><trkpt lat="35.5156603" lon="138.7905934"><ele>1204.46</ele><time>2024-07-07T04:45:49Z</time></trkpt><trkpt lat="35.515488" lon="138.7904671"><ele>1205.2633333333333</ele><time>2024-07-07T04:46:04Z</time></trkpt><trkpt lat="35.5153507" lon="138.790322"><ele>1205.6833333333334</ele><time>2024-07-07T04:46:16Z</time></trkpt><trkpt lat="35.5152322" lon="138.7901176"><ele>1204.6133333333335</ele><time>2024-07-07T04:46:31Z</time></trkpt><trkpt lat="35.5150827" lon="138.7899735"><ele>1204.3500000000001</ele><time>2024-07-07T04:46:46Z</time></trkpt><trkpt lat="35.5149728" lon="138.7897956"><ele>1204.55</ele><time>2024-07-07T04:47:04Z</time></trkpt><trkpt lat="35.5147913" lon="138.7896761"><ele>1202.6066666666668</ele><time>2024-07-07T04:47:22Z</time></trkpt><trkpt lat="35.5146533" lon="138.7895261"><ele>1201.5166666666667</ele><time>2024-07-07T04:47:52Z</time></trkpt><trkpt lat="35.5144566" lon="138.7894648"><ele>1201.3766666666668</ele><time>2024-07-07T04:48:04Z</time></trkpt><trkpt lat="35.5143837" lon="138.7892627"><ele>1204.0566666666666</ele><time>2024-07-07T04:48:19Z</time></trkpt><trkpt lat="35.5142385" lon="138.7891096"><ele>1201.2133333333334</ele><time>2024-07-07T04:48:34Z</time></trkpt><trkpt lat="35.5142904" lon="138.7888909"><ele>1200.72</ele><time>2024-07-07T04:48:46Z</time></trkpt><trkpt lat="35.5141745" lon="138.7887192"><ele>1197.3</ele><time>2024-07-07T04:49:07Z</time></trkpt><trkpt lat="35.5139983" lon="138.7885632"><ele>1198.3999999999999</ele><time>2024-07-07T04:49:22Z</time></trkpt><trkpt lat="35.5137965" lon="138.7884604"><ele>1194.65</ele><time>2024-07-07T04:49:49Z</time></trkpt><trkpt lat="35.513618" lon="138.7882749"><ele>1191.7066666666667</ele><time>2024-07-07T04:50:01Z</time></trkpt><trkpt lat="35.5135337" lon="138.788068"><ele>1188.3733333333332</ele><time>2024-07-07T04:50:19Z</time></trkpt><trkpt lat="35.5133614" lon="138.7879771"><ele>1183.7466666666667</ele><time>2024-07-07T04:50:31Z</time></trkpt><trkpt lat="35.5131902" lon="138.7879071"><ele>1180.14</ele><time>2024-07-07T04:50:43Z</time></trkpt><trkpt lat="35.5130116" lon="138.7877793"><ele>1176.2633333333333</ele><time>2024-07-07T04:51:07Z</time></trkpt><trkpt lat="35.5128455" lon="138.7876815"><ele>1175.8133333333333</ele><time>2024-07-07T04:51:22Z</time></trkpt><trkpt lat="35.5127005" lon="138.7875434"><ele>1176.48</ele><time>2024-07-07T04:51:43Z</time></trkpt><trkpt lat="35.5126041" lon="138.787289"><ele>1180.8633333333335</ele><time>2024-07-07T04:52:04Z</time></trkpt><trkpt lat="35.5124961" lon="138.7870708"><ele>1185.5800000000002</ele><time>2024-07-07T04:52:16Z</time></trkpt><trkpt lat="35.5123367" lon="138.7869"><ele>1188.506666666667</ele><time>2024-07-07T04:52:28Z</time></trkpt><trkpt lat="35.5121326" lon="138.786906"><ele>1183.1533333333334</ele><time>2024-07-07T04:52:40Z</time></trkpt><trkpt lat="35.5119343" lon="138.786982"><ele>1173.3999999999999</ele><time>2024-07-07T04:52:55Z</time></trkpt><trkpt lat="35.5117567" lon="138.786886"><ele>1164.5133333333333</ele><time>2024-07-07T04:53:10Z</time></trkpt><trkpt lat="35.5115677" lon="138.7869655"><ele>1158.8733333333332</ele><time>2024-07-07T04:53:39Z</time></trkpt><trkpt lat="35.5113778" lon="138.7870522"><ele>1157.0333333333335</ele><time>2024-07-07T04:53:53Z</time></trkpt><trkpt lat="35.5111956" lon="138.786916"><ele>1156.4266666666665</ele><time>2024-07-07T04:54:08Z</time></trkpt><trkpt lat="35.510998" lon="138.7868426"><ele>1155.6233333333332</ele><time>2024-07-07T04:54:26Z</time></trkpt><trkpt lat="35.5108021" lon="138.7868233"><ele>1153.0066666666667</ele><time>2024-07-07T04:54:40Z</time></trkpt><trkpt lat="35.5106021" lon="138.7868765"><ele>1149.4433333333334</ele><time>2024-07-07T04:54:54Z</time></trkpt><trkpt lat="35.5104181" lon="138.7869294"><ele>1146.0466666666664</ele><time>2024-07-07T04:55:15Z</time></trkpt><trkpt lat="35.5102086" lon="138.7869016"><ele>1142.4266666666665</ele><time>2024-07-07T04:55:33Z</time></trkpt><trkpt lat="35.5100188" lon="138.7869016"><ele>1137.3866666666665</ele><time>2024-07-07T04:55:47Z</time></trkpt><trkpt lat="35.5098026" lon="138.7869402"><ele>1132.78</ele><time>2024-07-07T04:56:06Z</time></trkpt><trkpt lat="35.5096137" lon="138.7869694"><ele>1129.3866666666668</ele><time>2024-07-07T04:56:34Z</time></trkpt><trkpt lat="35.5094967" lon="138.7867807"><ele>1125.7966666666669</ele><time>2024-07-07T04:56:58Z</time></trkpt><trkpt lat="35.5093145" lon="138.7866794"><ele>1122.506666666667</ele><time>2024-07-07T04:57:25Z</time></trkpt><trkpt lat="35.509098" lon="138.7866745"><ele>1119.08</ele><time>2024-07-07T04:57:43Z</time></trkpt><trkpt lat="35.5089167" lon="138.7866225"><ele>1116.87</ele><time>2024-07-07T04:58:10Z</time></trkpt><trkpt lat="35.5087046" lon="138.7866623"><ele>1115.24</ele><time>2024-07-07T04:58:28Z</time></trkpt><trkpt lat="35.5084871" lon="138.7867423"><ele>1113.8766666666668</ele><time>2024-07-07T04:58:43Z</time></trkpt><trkpt lat="35.5082862" lon="138.786802"><ele>1112.4733333333336</ele><time>2024-07-07T04:58:58Z</time></trkpt><trkpt lat="35.508103" lon="138.7868272"><ele>1111.0466666666669</ele><time>2024-07-07T04:59:13Z</time></trkpt><trkpt lat="35.5080047" lon="138.7866183"><ele>1110.0266666666666</ele><time>2024-07-07T04:59:25Z</time></trkpt><trkpt lat="35.5079027" lon="138.7864239"><ele>1107.7533333333333</ele><time>2024-07-07T04:59:40Z</time></trkpt><trkpt lat="35.5078303" lon="138.7862119"><ele>1105.0200000000002</ele><time>2024-07-07T04:59:57Z</time></trkpt><trkpt lat="35.5077611" lon="138.7859917"><ele>1102.4833333333333</ele><time>2024-07-07T05:00:15Z</time></trkpt><trkpt lat="35.5076788" lon="138.7857496"><ele>1103.4133333333332</ele><time>2024-07-07T05:00:47Z</time></trkpt><trkpt lat="35.5076234" lon="138.7855252"><ele>1108.1133333333335</ele><time>2024-07-07T05:01:04Z</time></trkpt><trkpt lat="35.5075048" lon="138.7853378"><ele>1113.9866666666667</ele><time>2024-07-07T05:01:17Z</time></trkpt><trkpt lat="35.5073442" lon="138.7852338"><ele>1119.2633333333333</ele><time>2024-07-07T05:01:32Z</time></trkpt><trkpt lat="35.5071552" lon="138.7852298"><ele>1122.9866666666667</ele><time>2024-07-07T05:01:50Z</time></trkpt><trkpt lat="35.506998" lon="138.7850522"><ele>1127.1133333333335</ele><time>2024-07-07T05:02:14Z</time></trkpt><trkpt lat="35.506913" lon="138.7848381"><ele>1129.0333333333335</ele><time>2024-07-07T05:02:41Z</time></trkpt><trkpt lat="35.506841" lon="138.7846063"><ele>1129.8999999999999</ele><time>2024-07-07T05:03:02Z</time></trkpt><trkpt lat="35.5068479" lon="138.7843526"><ele>1129.75</ele><time>2024-07-07T05:03:23Z</time></trkpt><trkpt lat="35.50676" lon="138.7841429"><ele>1131.4166666666667</ele><time>2024-07-07T05:03:41Z</time></trkpt><trkpt lat="35.5066" lon="138.7840247"><ele>1134.5933333333332</ele><time>2024-07-07T05:03:59Z</time></trkpt><trkpt lat="35.5065226" lon="138.7838201"><ele>1136.1933333333334</ele><time>2024-07-07T05:04:14Z</time></trkpt><trkpt lat="35.5064725" lon="138.7835645"><ele>1137.1433333333332</ele><time>2024-07-07T05:04:29Z</time></trkpt><trkpt lat="35.5063319" lon="138.7834017"><ele>1136.4533333333331</ele><time>2024-07-07T05:04:53Z</time></trkpt><trkpt lat="35.5061373" lon="138.7833653"><ele>1137.9533333333331</ele><time>2024-07-07T05:05:11Z</time></trkpt><trkpt lat="35.5059826" lon="138.7832307"><ele>1137.5333333333335</ele><time>2024-07-07T05:05:26Z</time></trkpt><trkpt lat="35.5058133" lon="138.7831246"><ele>1136.6466666666668</ele><time>2024-07-07T05:05:41Z</time></trkpt><trkpt lat="35.505637" lon="138.7829966"><ele>1133.9166666666667</ele><time>2024-07-07T05:05:55Z</time></trkpt><trkpt lat="35.5054352" lon="138.782996"><ele>1131.5400000000002</ele><time>2024-07-07T05:06:18Z</time></trkpt><trkpt lat="35.5052581" lon="138.7828726"><ele>1128.8533333333335</ele><time>2024-07-07T05:06:29Z</time></trkpt><trkpt lat="35.5051441" lon="138.7826706"><ele>1126.2933333333333</ele><time>2024-07-07T05:06:44Z</time></trkpt><trkpt lat="35.5050169" lon="138.7825056"><ele>1124.55</ele><time>2024-07-07T05:06:59Z</time></trkpt><trkpt lat="35.5048467" lon="138.7823599"><ele>1122.8633333333335</ele><time>2024-07-07T05:07:17Z</time></trkpt><trkpt lat="35.5046633" lon="138.7822664"><ele>1121.4633333333334</ele><time>2024-07-07T05:07:31Z</time></trkpt><trkpt lat="35.504513" lon="138.7820555"><ele>1119.3166666666666</ele><time>2024-07-07T05:07:49Z</time></trkpt><trkpt lat="35.5043425" lon="138.7819495"><ele>1117.0166666666667</ele><time>2024-07-07T05:08:07Z</time></trkpt><trkpt lat="35.5042072" lon="138.7817397"><ele>1115.8633333333335</ele><time>2024-07-07T05:08:26Z</time></trkpt><trkpt lat="35.5040429" lon="138.7816099"><ele>1116.9433333333334</ele><time>2024-07-07T05:08:44Z</time></trkpt><trkpt lat="35.5039578" lon="138.7814056"><ele>1119.7466666666667</ele><time>2024-07-07T05:15:39Z</time></trkpt><trkpt lat="35.5038346" lon="138.7812248"><ele>1121.9933333333333</ele><time>2024-07-07T05:15:57Z</time></trkpt><trkpt lat="35.5037771" lon="138.7809968"><ele>1125.62</ele><time>2024-07-07T05:16:24Z</time></trkpt><trkpt lat="35.5036071" lon="138.7808347"><ele>1130.6033333333332</ele><time>2024-07-07T05:17:39Z</time></trkpt><trkpt lat="35.5034872" lon="138.7806597"><ele>1136.1666666666667</ele><time>2024-07-07T05:17:56Z</time></trkpt><trkpt lat="35.50336" lon="138.7805017"><ele>1139.006666666667</ele><time>2024-07-07T05:18:30Z</time></trkpt><trkpt lat="35.5031916" lon="138.7803369"><ele>1138.3766666666668</ele><time>2024-07-07T05:19:33Z</time></trkpt><trkpt lat="35.503261" lon="138.7800971"><ele>1135.5266666666666</ele><time>2024-07-07T05:19:51Z</time></trkpt><trkpt lat="35.5033432" lon="138.7798947"><ele>1131.2533333333333</ele><time>2024-07-07T05:20:06Z</time></trkpt><trkpt lat="35.5034186" lon="138.7796784"><ele>1127.2866666666666</ele><time>2024-07-07T05:20:24Z</time></trkpt><trkpt lat="35.5034817" lon="138.7794546"><ele>1122.8000000000002</ele><time>2024-07-07T05:20:53Z</time></trkpt><trkpt lat="35.503474" lon="138.7791977"><ele>1118.1899999999998</ele><time>2024-07-07T05:21:15Z</time></trkpt><trkpt lat="35.5035608" lon="138.7790002"><ele>1114.8966666666668</ele><time>2024-07-07T05:21:30Z</time></trkpt><trkpt lat="35.5035278" lon="138.7787663"><ele>1112.3766666666668</ele><time>2024-07-07T05:21:48Z</time></trkpt><trkpt lat="35.5036236" lon="138.7785316"><ele>1112.2466666666667</ele><time>2024-07-07T05:22:03Z</time></trkpt><trkpt lat="35.5036323" lon="138.7783024"><ele>1111.0900000000001</ele><time>2024-07-07T05:22:24Z</time></trkpt><trkpt lat="35.5037321" lon="138.7781131"><ele>1111.1399999999999</ele><time>2024-07-07T05:22:42Z</time></trkpt><trkpt lat="35.5036988" lon="138.7778575"><ele>1107.86</ele><time>2024-07-07T05:27:23Z</time></trkpt><trkpt lat="35.503806" lon="138.7776409"><ele>1104.8466666666666</ele><time>2024-07-07T05:28:02Z</time></trkpt><trkpt lat="35.5037491" lon="138.7773908"><ele>1098.96</ele><time>2024-07-07T05:28:20Z</time></trkpt><trkpt lat="35.503654" lon="138.7775933"><ele>1096.8233333333333</ele><time>2024-07-07T05:28:35Z</time></trkpt><trkpt lat="35.5036215" lon="138.7773356"><ele>1092.2166666666667</ele><time>2024-07-07T05:29:05Z</time></trkpt><trkpt lat="35.5035312" lon="138.7771268"><ele>1089.1433333333334</ele><time>2024-07-07T05:29:26Z</time></trkpt><trkpt lat="35.5035461" lon="138.7768986"><ele>1084.95</ele><time>2024-07-07T05:33:05Z</time></trkpt><trkpt lat="35.5035039" lon="138.7766834"><ele>1082.5733333333333</ele><time>2024-07-07T05:47:53Z</time></trkpt><trkpt lat="35.503386" lon="138.7765036"><ele>1080.5966666666666</ele><time>2024-07-07T05:50:56Z</time></trkpt><trkpt lat="35.5032456" lon="138.7763335"><ele>1077.08</ele><time>2024-07-07T05:51:29Z</time></trkpt><trkpt lat="35.5030665" lon="138.776273"><ele>1071.2433333333336</ele><time>2024-07-07T05:52:47Z</time></trkpt><trkpt lat="35.5029315" lon="138.7760808"><ele>1062.9133333333332</ele><time>2024-07-07T05:53:20Z</time></trkpt><trkpt lat="35.5029153" lon="138.7758405"><ele>1054.4366666666667</ele><time>2024-07-07T05:53:38Z</time></trkpt><trkpt lat="35.5030256" lon="138.7756451"><ele>1047.3566666666668</ele><time>2024-07-07T05:54:02Z</time></trkpt><trkpt lat="35.5028427" lon="138.7755424"><ele>1041.76</ele><time>2024-07-07T05:54:20Z</time></trkpt><trkpt lat="35.5028894" lon="138.7753075"><ele>1034.4433333333334</ele><time>2024-07-07T05:54:41Z</time></trkpt><trkpt lat="35.5027228" lon="138.7754551"><ele>1029.93</ele><time>2024-07-07T05:54:59Z</time></trkpt><trkpt lat="35.502814" lon="138.7752212"><ele>1025.6766666666665</ele><time>2024-07-07T05:55:20Z</time></trkpt><trkpt lat="35.5027615" lon="138.7749617"><ele>1022.3533333333334</ele><time>2024-07-07T05:55:38Z</time></trkpt><trkpt lat="35.5026419" lon="138.7747901"><ele>1017.5866666666667</ele><time>2024-07-07T05:55:56Z</time></trkpt><trkpt lat="35.5024934" lon="138.7746296"><ele>1012.8633333333333</ele><time>2024-07-07T05:56:20Z</time></trkpt><trkpt lat="35.5024774" lon="138.7743752"><ele>1009.3166666666667</ele><time>2024-07-07T05:56:37Z</time></trkpt><trkpt lat="35.5025592" lon="138.7741597"><ele>1004.5566666666667</ele><time>2024-07-07T05:56:55Z</time></trkpt><trkpt lat="35.5024647" lon="138.7739582"><ele>998.7566666666667</ele><time>2024-07-07T05:57:17Z</time></trkpt><trkpt lat="35.5023837" lon="138.773752"><ele>992.56</ele><time>2024-07-07T05:57:49Z</time></trkpt><trkpt lat="35.502303" lon="138.773535"><ele>985.6933333333333</ele><time>2024-07-07T05:58:23Z</time></trkpt><trkpt lat="35.5023038" lon="138.7732896"><ele>979.6566666666668</ele><time>2024-07-07T05:58:50Z</time></trkpt><trkpt lat="35.5021116" lon="138.7731974"><ele>971.59</ele><time>2024-07-07T05:59:14Z</time></trkpt><trkpt lat="35.5022055" lon="138.7729802"><ele>965.8633333333332</ele><time>2024-07-07T05:59:32Z</time></trkpt><trkpt lat="35.5021038" lon="138.7727902"><ele>959.5933333333332</ele><time>2024-07-07T05:59:56Z</time></trkpt><trkpt lat="35.5020166" lon="138.7725957"><ele>955.41</ele><time>2024-07-07T06:00:17Z</time></trkpt><trkpt lat="35.5019688" lon="138.7723761"><ele>949.4166666666666</ele><time>2024-07-07T06:00:35Z</time></trkpt><trkpt lat="35.5020112" lon="138.7721502"><ele>947.57</ele><time>2024-07-07T06:00:50Z</time></trkpt><trkpt lat="35.5020755" lon="138.7719183"><ele>948.3000000000001</ele><time>2024-07-07T06:03:53Z</time></trkpt><trkpt lat="35.5020993" lon="138.7716908"><ele>950.5300000000001</ele><time>2024-07-07T06:04:08Z</time></trkpt><trkpt lat="35.5021352" lon="138.7714712"><ele>949.2599999999999</ele><time>2024-07-07T06:04:23Z</time></trkpt><trkpt lat="35.5020422" lon="138.7712518"><ele>946.2033333333334</ele><time>2024-07-07T06:04:38Z</time></trkpt><trkpt lat="35.5019859" lon="138.7710332"><ele>942.7366666666667</ele><time>2024-07-07T06:04:56Z</time></trkpt><trkpt lat="35.5021645" lon="138.7710658"><ele>941.0366666666667</ele><time>2024-07-07T06:05:29Z</time></trkpt><trkpt lat="35.5020602" lon="138.7708618"><ele>937.5799999999999</ele><time>2024-07-07T06:05:44Z</time></trkpt><trkpt lat="35.5022211" lon="138.7707486"><ele>932.6333333333333</ele><time>2024-07-07T06:06:02Z</time></trkpt><trkpt lat="35.5023894" lon="138.7708366"><ele>926.7966666666667</ele><time>2024-07-07T06:06:14Z</time></trkpt><trkpt lat="35.502195" lon="138.7707269"><ele>924.5066666666667</ele><time>2024-07-07T06:06:35Z</time></trkpt><trkpt lat="35.5022374" lon="138.7705098"><ele>921.5733333333333</ele><time>2024-07-07T06:06:52Z</time></trkpt><trkpt lat="35.5023637" lon="138.7703361"><ele>916.0733333333334</ele><time>2024-07-07T06:07:26Z</time></trkpt><trkpt lat="35.5023984" lon="138.7700761"><ele>906.2466666666668</ele><time>2024-07-07T06:08:16Z</time></trkpt><trkpt lat="35.5023392" lon="138.7698616"><ele>898.0566666666667</ele><time>2024-07-07T06:08:44Z</time></trkpt><trkpt lat="35.5025059" lon="138.7700191"><ele>892.7666666666665</ele><time>2024-07-07T06:08:56Z</time></trkpt><trkpt lat="35.5023975" lon="138.769827"><ele>889.9266666666667</ele><time>2024-07-07T06:09:31Z</time></trkpt><trkpt lat="35.5022445" lon="138.7696708"><ele>886.44</ele><time>2024-07-07T06:09:59Z</time></trkpt><trkpt lat="35.5022842" lon="138.7694479"><ele>881.7800000000001</ele><time>2024-07-07T06:10:17Z</time></trkpt><trkpt lat="35.5023207" lon="138.76921"><ele>876.9666666666667</ele><time>2024-07-07T06:10:40Z</time></trkpt><trkpt lat="35.5021292" lon="138.7693438"><ele>873.3133333333334</ele><time>2024-07-07T06:11:11Z</time></trkpt><trkpt lat="35.5020004" lon="138.7695316"><ele>870.4366666666668</ele><time>2024-07-07T06:11:27Z</time></trkpt><trkpt lat="35.5018348" lon="138.7697058"><ele>868.8933333333333</ele><time>2024-07-07T06:11:42Z</time></trkpt><trkpt lat="35.5016282" lon="138.7697063"><ele>868.0733333333334</ele><time>2024-07-07T06:12:00Z</time></trkpt><trkpt lat="35.5014484" lon="138.7695442"><ele>864.0633333333334</ele><time>2024-07-07T06:12:18Z</time></trkpt><trkpt lat="35.5012755" lon="138.7696323"><ele>860.0566666666667</ele><time>2024-07-07T06:12:39Z</time></trkpt><trkpt lat="35.5011347" lon="138.7698074"><ele>856.2199999999999</ele><time>2024-07-07T06:12:54Z</time></trkpt><trkpt lat="35.5009758" lon="138.7700106"><ele>855.3733333333333</ele><time>2024-07-07T06:13:10Z</time></trkpt><trkpt lat="35.5008234" lon="138.7701994"><ele>854.5033333333334</ele><time>2024-07-07T06:13:22Z</time></trkpt><trkpt lat="35.5006568" lon="138.7700122"><ele>851.8333333333334</ele><time>2024-07-07T06:14:04Z</time></trkpt><trkpt lat="35.5004869" lon="138.7698526"><ele>850.3866666666667</ele><time>2024-07-07T06:14:16Z</time></trkpt><trkpt lat="35.5003314" lon="138.7696866"><ele>849.3766666666667</ele><time>2024-07-07T06:14:28Z</time></trkpt><trkpt lat="35.500231" lon="138.7694605"><ele>850.3366666666667</ele><time>2024-07-07T06:14:43Z</time></trkpt><trkpt lat="35.5002596" lon="138.7692129"><ele>851.1966666666667</ele><time>2024-07-07T06:15:01Z</time></trkpt><trkpt lat="35.5003932" lon="138.7690118"><ele>851.4066666666668</ele><time>2024-07-07T06:15:16Z</time></trkpt><trkpt lat="35.5003953" lon="138.7687636"><ele>851.6766666666667</ele><time>2024-07-07T06:15:31Z</time></trkpt><trkpt lat="35.5002032" lon="138.7686898"><ele>852.1833333333334</ele><time>2024-07-07T06:15:43Z</time></trkpt><trkpt lat="35.5000511" lon="138.7685271"><ele>853.4466666666667</ele><time>2024-07-07T06:15:57Z</time></trkpt><trkpt lat="35.4998373" lon="138.7685171"><ele>854.46</ele><time>2024-07-07T06:16:10Z</time></trkpt><trkpt lat="35.4996569" lon="138.7685618"><ele>855.0600000000001</ele><time>2024-07-07T06:16:22Z</time></trkpt><trkpt lat="35.4994672" lon="138.768552"><ele>855.2533333333334</ele><time>2024-07-07T06:16:37Z</time></trkpt><trkpt lat="35.4992781" lon="138.768609"><ele>855.39</ele><time>2024-07-07T06:17:19Z</time></trkpt><trkpt lat="35.4990981" lon="138.7687034"><ele>855.4133333333334</ele><time>2024-07-07T06:17:37Z</time></trkpt><trkpt lat="35.4989026" lon="138.7687373"><ele>855.3533333333335</ele><time>2024-07-07T06:17:49Z</time></trkpt><trkpt lat="35.4985368" lon="138.7688329"><ele>855.1533333333333</ele><time>2024-07-07T06:18:04Z</time></trkpt><trkpt lat="35.4986875" lon="138.7684653"><ele>855.06</ele><time>2024-07-07T06:18:19Z</time></trkpt><trkpt lat="35.4984974" lon="138.7683665"><ele>854.9666666666667</ele><time>2024-07-07T06:19:13Z</time></trkpt><trkpt lat="35.4983122" lon="138.7684007"><ele>854.9666666666667</ele><time>2024-07-07T06:19:34Z</time></trkpt></trkseg></trk></gpx>