<?xml version='1.0' encoding='UTF-8'?><gpx creator="YAMAP - https://yamap.com" xsi:schemaLocation="http://www.topografix.com/GPX/1/1 http://www.topografix.com/GPX/1/1/gpx.xsd" version="1.1" xmlns="http://www.topografix.com/GPX/1/1" xmlns:xsi="http://www.w3.org/2001/XMLSchema-instance"><metadata><bounds maxlat="35.3611548" maxlon="139.079613" minlat="35.2783279" minlon="139.002414"/></metadata><trk><name>山北駅から金時山へ</name><number>1</number><trkseg><trkpt lat="35.3611409" lon="139.079613"><ele>111.87</ele><time>2025-03-19T22:54:10Z</time></trkpt><trkpt lat="35.3611548" lon="139.0793472"><ele>112.18</ele><time>2025-03-19T22:54:53Z</time></trkpt><trkpt lat="35.3611059" lon="139.0790867"><ele>112.14</ele><time>2025-03-19T22:55:09Z</time></trkpt><trkpt lat="35.3610328" lon="139.0788435"><ele>112.04333333333334</ele><time>2025-03-19T22:55:24Z</time></trkpt><trkpt lat="35.3609664" lon="139.0786314"><ele>111.59666666666665</ele><time>2025-03-19T22:55:36Z</time></trkpt><trkpt lat="35.3609186" lon="139.0783766"><ele>111.48000000000002</ele><time>2025-03-19T22:55:53Z</time></trkpt><trkpt lat="35.3608967" lon="139.0781449"><ele>111.72333333333334</ele><time>2025-03-19T22:56:07Z</time></trkpt><trkpt lat="35.3606745" lon="139.0781444"><ele>111.64</ele><time>2025-03-19T22:56:25Z</time></trkpt><trkpt lat="35.3605864" lon="139.0779176"><ele>111.28000000000002</ele><time>2025-03-19T22:56:40Z</time></trkpt><trkpt lat="35.3605372" lon="139.077687"><ele>110.68666666666667</ele><time>2025-03-19T22:57:01Z</time></trkpt><trkpt lat="35.3604934" lon="139.0774516"><ele>110.83333333333333</ele><time>2025-03-19T22:57:16Z</time></trkpt><trkpt lat="35.3604477" lon="139.0772188"><ele>111.44666666666667</ele><time>2025-03-19T22:57:31Z</time></trkpt><trkpt lat="35.3604216" lon="139.0769681"><ele>112.79666666666667</ele><time>2025-03-19T22:57:46Z</time></trkpt><trkpt lat="35.3603802" lon="139.07671"><ele>114.13333333333334</ele><time>2025-03-19T22:58:01Z</time></trkpt><trkpt lat="35.3603426" lon="139.0764683"><ele>115.32666666666667</ele><time>2025-03-19T22:58:16Z</time></trkpt><trkpt lat="35.3603178" lon="139.0761997"><ele>115.96</ele><time>2025-03-19T22:58:30Z</time></trkpt><trkpt lat="35.360276" lon="139.0759842"><ele>116.58999999999999</ele><time>2025-03-19T22:58:42Z</time></trkpt><trkpt lat="35.3602693" lon="139.0757421"><ele>117.30000000000001</ele><time>2025-03-19T22:58:56Z</time></trkpt><trkpt lat="35.3601849" lon="139.075529"><ele>117.78666666666668</ele><time>2025-03-19T22:59:22Z</time></trkpt><trkpt lat="35.3601555" lon="139.075294"><ele>118.09666666666668</ele><time>2025-03-19T22:59:37Z</time></trkpt><trkpt lat="35.3601485" lon="139.0750667"><ele>118.05666666666667</ele><time>2025-03-19T22:59:52Z</time></trkpt><trkpt lat="35.3600902" lon="139.0747976"><ele>118.95666666666666</ele><time>2025-03-19T23:00:07Z</time></trkpt><trkpt lat="35.3600538" lon="139.0745704"><ele>119.87</ele><time>2025-03-19T23:00:19Z</time></trkpt><trkpt lat="35.3600033" lon="139.0743349"><ele>120.67333333333333</ele><time>2025-03-19T23:00:34Z</time></trkpt><trkpt lat="35.3599748" lon="139.0740865"><ele>120.72333333333334</ele><time>2025-03-19T23:00:48Z</time></trkpt><trkpt lat="35.359938" lon="139.0738592"><ele>120.71333333333332</ele><time>2025-03-19T23:01:02Z</time></trkpt><trkpt lat="35.3598843" lon="139.073622"><ele>120.60666666666668</ele><time>2025-03-19T23:01:14Z</time></trkpt><trkpt lat="35.3598762" lon="139.0733675"><ele>120.48</ele><time>2025-03-19T23:01:28Z</time></trkpt><trkpt lat="35.3598393" lon="139.0731408"><ele>120.23666666666668</ele><time>2025-03-19T23:01:43Z</time></trkpt><trkpt lat="35.3598026" lon="139.0729196"><ele>120.38</ele><time>2025-03-19T23:01:58Z</time></trkpt><trkpt lat="35.3597549" lon="139.0726488"><ele>120.40000000000002</ele><time>2025-03-19T23:02:12Z</time></trkpt><trkpt lat="35.3597249" lon="139.0724126"><ele>120.31666666666668</ele><time>2025-03-19T23:02:24Z</time></trkpt><trkpt lat="35.3596644" lon="139.072168"><ele>120.26666666666667</ele><time>2025-03-19T23:02:38Z</time></trkpt><trkpt lat="35.3596099" lon="139.0719445"><ele>120.19000000000001</ele><time>2025-03-19T23:02:52Z</time></trkpt><trkpt lat="35.3594339" lon="139.0718302"><ele>119.51333333333334</ele><time>2025-03-19T23:03:04Z</time></trkpt><trkpt lat="35.3592533" lon="139.0717346"><ele>120.44333333333334</ele><time>2025-03-19T23:03:19Z</time></trkpt><trkpt lat="35.359038" lon="139.0716798"><ele>122.96666666666665</ele><time>2025-03-19T23:03:34Z</time></trkpt><trkpt lat="35.3588472" lon="139.0715699"><ele>126.39666666666666</ele><time>2025-03-19T23:04:04Z</time></trkpt><trkpt lat="35.3586594" lon="139.0714828"><ele>128.23</ele><time>2025-03-19T23:04:19Z</time></trkpt><trkpt lat="35.358538" lon="139.0712396"><ele>127.27333333333333</ele><time>2025-03-19T23:04:34Z</time></trkpt><trkpt lat="35.3584874" lon="139.0710066"><ele>125.38666666666666</ele><time>2025-03-19T23:04:46Z</time></trkpt><trkpt lat="35.3584925" lon="139.0707823"><ele>122.44666666666667</ele><time>2025-03-19T23:05:00Z</time></trkpt><trkpt lat="35.3585404" lon="139.070566"><ele>119.00999999999999</ele><time>2025-03-19T23:05:15Z</time></trkpt><trkpt lat="35.3586404" lon="139.0703353"><ele>118.69666666666667</ele><time>2025-03-19T23:05:29Z</time></trkpt><trkpt lat="35.3586656" lon="139.0700814"><ele>119.50999999999999</ele><time>2025-03-19T23:05:46Z</time></trkpt><trkpt lat="35.3586478" lon="139.0698519"><ele>122.45</ele><time>2025-03-19T23:05:58Z</time></trkpt><trkpt lat="35.358552" lon="139.0696288"><ele>123.02</ele><time>2025-03-19T23:06:10Z</time></trkpt><trkpt lat="35.3583822" lon="139.06948"><ele>122.44333333333333</ele><time>2025-03-19T23:06:27Z</time></trkpt><trkpt lat="35.3582297" lon="139.0693616"><ele>121.75333333333333</ele><time>2025-03-19T23:06:42Z</time></trkpt><trkpt lat="35.3579972" lon="139.0692969"><ele>121.25333333333333</ele><time>2025-03-19T23:06:53Z</time></trkpt><trkpt lat="35.3577946" lon="139.0692771"><ele>120.97333333333331</ele><time>2025-03-19T23:07:05Z</time></trkpt><trkpt lat="35.3575888" lon="139.0692153"><ele>120.91000000000001</ele><time>2025-03-19T23:07:19Z</time></trkpt><trkpt lat="35.3573813" lon="139.069181"><ele>120.47666666666665</ele><time>2025-03-19T23:07:34Z</time></trkpt><trkpt lat="35.3572" lon="139.0692264"><ele>120.49000000000001</ele><time>2025-03-19T23:07:45Z</time></trkpt><trkpt lat="35.3570142" lon="139.0692553"><ele>119.71999999999998</ele><time>2025-03-19T23:08:00Z</time></trkpt><trkpt lat="35.3568222" lon="139.0693117"><ele>117.96333333333332</ele><time>2025-03-19T23:08:11Z</time></trkpt><trkpt lat="35.3566433" lon="139.0693887"><ele>114.65666666666665</ele><time>2025-03-19T23:08:37Z</time></trkpt><trkpt lat="35.3564275" lon="139.0694287"><ele>110.87666666666667</ele><time>2025-03-19T23:08:49Z</time></trkpt><trkpt lat="35.3562595" lon="139.0695219"><ele>107.97333333333334</ele><time>2025-03-19T23:09:01Z</time></trkpt><trkpt lat="35.3560657" lon="139.0695646"><ele>106.64333333333336</ele><time>2025-03-19T23:09:15Z</time></trkpt><trkpt lat="35.3558697" lon="139.0696456"><ele>106.65333333333335</ele><time>2025-03-19T23:09:29Z</time></trkpt><trkpt lat="35.3556896" lon="139.0696875"><ele>107.85666666666668</ele><time>2025-03-19T23:09:41Z</time></trkpt><trkpt lat="35.3555021" lon="139.0697602"><ele>110.64666666666666</ele><time>2025-03-19T23:09:55Z</time></trkpt><trkpt lat="35.3553041" lon="139.0697607"><ele>113.80666666666667</ele><time>2025-03-19T23:10:13Z</time></trkpt><trkpt lat="35.355106" lon="139.0698425"><ele>116.06</ele><time>2025-03-19T23:10:27Z</time></trkpt><trkpt lat="35.3549019" lon="139.069863"><ele>117.14666666666666</ele><time>2025-03-19T23:10:39Z</time></trkpt><trkpt lat="35.3546744" lon="139.069874"><ele>117.45333333333333</ele><time>2025-03-19T23:10:53Z</time></trkpt><trkpt lat="35.3544915" lon="139.0698619"><ele>117.79666666666667</ele><time>2025-03-19T23:11:05Z</time></trkpt><trkpt lat="35.3542999" lon="139.0698506"><ele>117.86666666666667</ele><time>2025-03-19T23:11:16Z</time></trkpt><trkpt lat="35.3540979" lon="139.0698308"><ele>117.76666666666667</ele><time>2025-03-19T23:11:31Z</time></trkpt><trkpt lat="35.3538853" lon="139.0698234"><ele>117.41333333333334</ele><time>2025-03-19T23:11:45Z</time></trkpt><trkpt lat="35.3536742" lon="139.0698411"><ele>116.62333333333333</ele><time>2025-03-19T23:11:59Z</time></trkpt><trkpt lat="35.3534695" lon="139.0697935"><ele>116.32</ele><time>2025-03-19T23:12:14Z</time></trkpt><trkpt lat="35.3532731" lon="139.069782"><ele>116.39</ele><time>2025-03-19T23:12:28Z</time></trkpt><trkpt lat="35.3530828" lon="139.0698044"><ele>116.88333333333334</ele><time>2025-03-19T23:12:40Z</time></trkpt><trkpt lat="35.3528744" lon="139.0698325"><ele>116.58999999999999</ele><time>2025-03-19T23:12:57Z</time></trkpt><trkpt lat="35.3526862" lon="139.0698336"><ele>115.48000000000002</ele><time>2025-03-19T23:13:06Z</time></trkpt><trkpt lat="35.3524568" lon="139.0698974"><ele>113.57666666666667</ele><time>2025-03-19T23:13:20Z</time></trkpt><trkpt lat="35.3523533" lon="139.069696"><ele>112.09666666666668</ele><time>2025-03-19T23:13:34Z</time></trkpt><trkpt lat="35.3524209" lon="139.0694591"><ele>111.71999999999998</ele><time>2025-03-19T23:13:52Z</time></trkpt><trkpt lat="35.3525302" lon="139.0692312"><ele>113.01666666666665</ele><time>2025-03-19T23:14:10Z</time></trkpt><trkpt lat="35.3525845" lon="139.0690131"><ele>114.34333333333335</ele><time>2025-03-19T23:14:22Z</time></trkpt><trkpt lat="35.3526272" lon="139.0687921"><ele>115.58666666666666</ele><time>2025-03-19T23:14:36Z</time></trkpt><trkpt lat="35.3526007" lon="139.0685307"><ele>116.21333333333332</ele><time>2025-03-19T23:14:51Z</time></trkpt><trkpt lat="35.3525178" lon="139.0683"><ele>116.83999999999999</ele><time>2025-03-19T23:15:06Z</time></trkpt><trkpt lat="35.3523809" lon="139.0681037"><ele>117.63</ele><time>2025-03-19T23:15:18Z</time></trkpt><trkpt lat="35.3522038" lon="139.0679872"><ele>118.45</ele><time>2025-03-19T23:15:36Z</time></trkpt><trkpt lat="35.3521205" lon="139.0677545"><ele>119.60666666666667</ele><time>2025-03-19T23:15:54Z</time></trkpt><trkpt lat="35.3520998" lon="139.0675274"><ele>120.67333333333333</ele><time>2025-03-19T23:16:09Z</time></trkpt><trkpt lat="35.3520036" lon="139.0673413"><ele>123.43333333333332</ele><time>2025-03-19T23:16:23Z</time></trkpt><trkpt lat="35.3519466" lon="139.067101"><ele>126.10000000000001</ele><time>2025-03-19T23:16:38Z</time></trkpt><trkpt lat="35.3519238" lon="139.0668684"><ele>128.34333333333333</ele><time>2025-03-19T23:16:53Z</time></trkpt><trkpt lat="35.3519908" lon="139.0666393"><ele>129.39333333333335</ele><time>2025-03-19T23:17:05Z</time></trkpt><trkpt lat="35.3521095" lon="139.0664681"><ele>130.33666666666667</ele><time>2025-03-19T23:17:25Z</time></trkpt><trkpt lat="35.352238" lon="139.0662719"><ele>132.39333333333332</ele><time>2025-03-19T23:17:55Z</time></trkpt><trkpt lat="35.3521755" lon="139.0664867"><ele>132.61333333333334</ele><time>2025-03-19T23:22:40Z</time></trkpt><trkpt lat="35.3520074" lon="139.0663511"><ele>133.59</ele><time>2025-03-19T23:22:58Z</time></trkpt><trkpt lat="35.3518436" lon="139.066517"><ele>135.36</ele><time>2025-03-19T23:23:16Z</time></trkpt><trkpt lat="35.3517442" lon="139.066714"><ele>139.6966666666667</ele><time>2025-03-19T23:23:30Z</time></trkpt><trkpt lat="35.351718" lon="139.0669533"><ele>141.93333333333334</ele><time>2025-03-19T23:23:46Z</time></trkpt><trkpt lat="35.351702" lon="139.0671902"><ele>142.98666666666668</ele><time>2025-03-19T23:24:00Z</time></trkpt><trkpt lat="35.3517241" lon="139.0674271"><ele>143.53333333333333</ele><time>2025-03-19T23:24:15Z</time></trkpt><trkpt lat="35.3517247" lon="139.0676543"><ele>145.89000000000001</ele><time>2025-03-19T23:24:30Z</time></trkpt><trkpt lat="35.3515957" lon="139.0674431"><ele>151.0</ele><time>2025-03-19T23:25:01Z</time></trkpt><trkpt lat="35.351476" lon="139.0672759"><ele>154.91666666666666</ele><time>2025-03-19T23:25:20Z</time></trkpt><trkpt lat="35.3513789" lon="139.067066"><ele>157.86333333333334</ele><time>2025-03-19T23:25:34Z</time></trkpt><trkpt lat="35.3513542" lon="139.0668088"><ele>159.32333333333335</ele><time>2025-03-19T23:25:49Z</time></trkpt><trkpt lat="35.3512849" lon="139.0665521"><ele>164.02666666666667</ele><time>2025-03-19T23:26:06Z</time></trkpt><trkpt lat="35.3512706" lon="139.0663227"><ele>168.32666666666668</ele><time>2025-03-19T23:26:24Z</time></trkpt><trkpt lat="35.3511856" lon="139.0661168"><ele>171.64333333333332</ele><time>2025-03-19T23:26:39Z</time></trkpt><trkpt lat="35.3510089" lon="139.0659744"><ele>174.06333333333336</ele><time>2025-03-19T23:27:00Z</time></trkpt><trkpt lat="35.3508945" lon="139.0658033"><ele>177.74333333333334</ele><time>2025-03-19T23:27:28Z</time></trkpt><trkpt lat="35.3507045" lon="139.0656494"><ele>180.76</ele><time>2025-03-19T23:27:49Z</time></trkpt><trkpt lat="35.3505285" lon="139.0655148"><ele>182.62333333333333</ele><time>2025-03-19T23:28:04Z</time></trkpt><trkpt lat="35.3503625" lon="139.0653606"><ele>184.02999999999997</ele><time>2025-03-19T23:28:22Z</time></trkpt><trkpt lat="35.3502108" lon="139.0652091"><ele>185.87</ele><time>2025-03-19T23:28:37Z</time></trkpt><trkpt lat="35.3500147" lon="139.0650638"><ele>188.0633333333333</ele><time>2025-03-19T23:29:22Z</time></trkpt><trkpt lat="35.3500075" lon="139.0652894"><ele>191.75666666666666</ele><time>2025-03-19T23:29:49Z</time></trkpt><trkpt lat="35.3501497" lon="139.0654547"><ele>193.55333333333337</ele><time>2025-03-19T23:30:04Z</time></trkpt><trkpt lat="35.3503118" lon="139.0656249"><ele>194.45333333333335</ele><time>2025-03-19T23:30:16Z</time></trkpt><trkpt lat="35.350412" lon="139.065816"><ele>195.96333333333337</ele><time>2025-03-19T23:30:28Z</time></trkpt><trkpt lat="35.3505279" lon="139.0660159"><ele>199.08</ele><time>2025-03-19T23:30:42Z</time></trkpt><trkpt lat="35.3506157" lon="139.0662322"><ele>203.63333333333333</ele><time>2025-03-19T23:31:01Z</time></trkpt><trkpt lat="35.3506779" lon="139.0664497"><ele>206.38333333333335</ele><time>2025-03-19T23:31:16Z</time></trkpt><trkpt lat="35.3506071" lon="139.0666726"><ele>209.92666666666665</ele><time>2025-03-19T23:31:40Z</time></trkpt><trkpt lat="35.3505286" lon="139.0669083"><ele>212.49333333333334</ele><time>2025-03-19T23:31:55Z</time></trkpt><trkpt lat="35.3505089" lon="139.0671596"><ele>214.71666666666667</ele><time>2025-03-19T23:32:13Z</time></trkpt><trkpt lat="35.3503951" lon="139.0669505"><ele>217.35333333333332</ele><time>2025-03-19T23:33:19Z</time></trkpt><trkpt lat="35.3502997" lon="139.0666992"><ele>219.79333333333332</ele><time>2025-03-19T23:35:13Z</time></trkpt><trkpt lat="35.350159" lon="139.0665204"><ele>223.4433333333333</ele><time>2025-03-19T23:35:35Z</time></trkpt><trkpt lat="35.3501005" lon="139.0662232"><ele>225.49</ele><time>2025-03-19T23:35:44Z</time></trkpt><trkpt lat="35.3499681" lon="139.0664182"><ele>228.92333333333332</ele><time>2025-03-19T23:36:14Z</time></trkpt><trkpt lat="35.3498664" lon="139.0666167"><ele>231.67666666666665</ele><time>2025-03-19T23:36:29Z</time></trkpt><trkpt lat="35.3497493" lon="139.066859"><ele>236.04333333333332</ele><time>2025-03-19T23:36:47Z</time></trkpt><trkpt lat="35.3496763" lon="139.0670973"><ele>239.04666666666665</ele><time>2025-03-19T23:37:05Z</time></trkpt><trkpt lat="35.3495769" lon="139.0672986"><ele>241.64000000000001</ele><time>2025-03-19T23:37:20Z</time></trkpt><trkpt lat="35.3493941" lon="139.0673582"><ele>244.32666666666668</ele><time>2025-03-19T23:37:41Z</time></trkpt><trkpt lat="35.3493686" lon="139.0671314"><ele>246.47666666666666</ele><time>2025-03-19T23:38:08Z</time></trkpt><trkpt lat="35.3492888" lon="139.0668955"><ele>251.38333333333335</ele><time>2025-03-19T23:38:26Z</time></trkpt><trkpt lat="35.3492224" lon="139.0666633"><ele>257.11333333333334</ele><time>2025-03-19T23:38:41Z</time></trkpt><trkpt lat="35.3491275" lon="139.066436"><ele>263.2</ele><time>2025-03-19T23:38:59Z</time></trkpt><trkpt lat="35.3491023" lon="139.0662164"><ele>265.1666666666667</ele><time>2025-03-19T23:39:20Z</time></trkpt><trkpt lat="35.3490453" lon="139.0659836"><ele>266.46</ele><time>2025-03-19T23:39:38Z</time></trkpt><trkpt lat="35.3490401" lon="139.0657617"><ele>267.6366666666666</ele><time>2025-03-19T23:39:55Z</time></trkpt><trkpt lat="35.3490368" lon="139.065531"><ele>269.7266666666667</ele><time>2025-03-19T23:40:09Z</time></trkpt><trkpt lat="35.3489344" lon="139.0657428"><ele>272.31</ele><time>2025-03-19T23:40:39Z</time></trkpt><trkpt lat="35.3488824" lon="139.065968"><ele>274.40000000000003</ele><time>2025-03-19T23:40:57Z</time></trkpt><trkpt lat="35.3488261" lon="139.0661814"><ele>277.6766666666667</ele><time>2025-03-19T23:41:12Z</time></trkpt><trkpt lat="35.3487956" lon="139.0664442"><ele>279.99</ele><time>2025-03-19T23:41:29Z</time></trkpt><trkpt lat="35.3488219" lon="139.0666727"><ele>281.56</ele><time>2025-03-19T23:41:44Z</time></trkpt><trkpt lat="35.3487751" lon="139.066927"><ele>283.68333333333334</ele><time>2025-03-19T23:42:02Z</time></trkpt><trkpt lat="35.3487108" lon="139.0671453"><ele>285.76666666666665</ele><time>2025-03-19T23:42:17Z</time></trkpt><trkpt lat="35.3486006" lon="139.0673485"><ele>289.04333333333335</ele><time>2025-03-19T23:42:35Z</time></trkpt><trkpt lat="35.3484193" lon="139.067465"><ele>292.93</ele><time>2025-03-19T23:42:56Z</time></trkpt><trkpt lat="35.3484817" lon="139.0672346"><ele>296.6933333333333</ele><time>2025-03-19T23:43:38Z</time></trkpt><trkpt lat="35.3483279" lon="139.0670921"><ele>301.97333333333336</ele><time>2025-03-19T23:44:17Z</time></trkpt><trkpt lat="35.3483034" lon="139.066858"><ele>307.3766666666667</ele><time>2025-03-19T23:44:44Z</time></trkpt><trkpt lat="35.3482233" lon="139.0666596"><ele>312.88666666666666</ele><time>2025-03-19T23:45:11Z</time></trkpt><trkpt lat="35.3481093" lon="139.0664866"><ele>317.69</ele><time>2025-03-19T23:47:53Z</time></trkpt><trkpt lat="35.3480368" lon="139.0662787"><ele>320.71999999999997</ele><time>2025-03-19T23:48:14Z</time></trkpt><trkpt lat="35.3480008" lon="139.0660485"><ele>322.8</ele><time>2025-03-19T23:48:35Z</time></trkpt><trkpt lat="35.3479012" lon="139.0657414"><ele>326.18333333333334</ele><time>2025-03-19T23:49:50Z</time></trkpt><trkpt lat="35.3479951" lon="139.0655477"><ele>329.7666666666667</ele><time>2025-03-19T23:50:11Z</time></trkpt><trkpt lat="35.34802" lon="139.0652978"><ele>334.51000000000005</ele><time>2025-03-19T23:50:31Z</time></trkpt><trkpt lat="35.3480408" lon="139.065067"><ele>337.34999999999997</ele><time>2025-03-19T23:50:50Z</time></trkpt><trkpt lat="35.3480302" lon="139.064823"><ele>343.5933333333334</ele><time>2025-03-19T23:51:08Z</time></trkpt><trkpt lat="35.3480605" lon="139.0645835"><ele>347.3966666666667</ele><time>2025-03-19T23:51:32Z</time></trkpt><trkpt lat="35.3480471" lon="139.0643372"><ele>353.1433333333334</ele><time>2025-03-19T23:51:50Z</time></trkpt><trkpt lat="35.348127" lon="139.064128"><ele>354.96666666666664</ele><time>2025-03-19T23:52:05Z</time></trkpt><trkpt lat="35.3482456" lon="139.0639481"><ele>356.68666666666667</ele><time>2025-03-19T23:52:23Z</time></trkpt><trkpt lat="35.3482535" lon="139.0637138"><ele>354.76666666666665</ele><time>2025-03-19T23:52:38Z</time></trkpt><trkpt lat="35.3482621" lon="139.0634551"><ele>354.33</ele><time>2025-03-19T23:52:59Z</time></trkpt><trkpt lat="35.3484485" lon="139.06336"><ele>354.4833333333333</ele><time>2025-03-19T23:53:47Z</time></trkpt><trkpt lat="35.3485787" lon="139.0631856"><ele>357.91</ele><time>2025-03-19T23:54:02Z</time></trkpt><trkpt lat="35.3487147" lon="139.063033"><ele>360.90000000000003</ele><time>2025-03-19T23:54:17Z</time></trkpt><trkpt lat="35.3488727" lon="139.0628957"><ele>362.9166666666667</ele><time>2025-03-19T23:54:32Z</time></trkpt><trkpt lat="35.3489722" lon="139.0626951"><ele>362.55333333333334</ele><time>2025-03-19T23:54:50Z</time></trkpt><trkpt lat="35.3490802" lon="139.0625013"><ele>360.5166666666667</ele><time>2025-03-19T23:55:04Z</time></trkpt><trkpt lat="35.3490245" lon="139.0622667"><ele>362.00666666666666</ele><time>2025-03-19T23:55:20Z</time></trkpt><trkpt lat="35.3490478" lon="139.0620367"><ele>365.69666666666666</ele><time>2025-03-19T23:55:41Z</time></trkpt><trkpt lat="35.3491101" lon="139.0618255"><ele>370.6333333333334</ele><time>2025-03-19T23:55:56Z</time></trkpt><trkpt lat="35.3492009" lon="139.0616216"><ele>374.0366666666667</ele><time>2025-03-19T23:56:20Z</time></trkpt><trkpt lat="35.3493803" lon="139.061589"><ele>375.27666666666664</ele><time>2025-03-19T23:57:14Z</time></trkpt><trkpt lat="35.3495147" lon="139.0614303"><ele>375.53999999999996</ele><time>2025-03-19T23:57:26Z</time></trkpt><trkpt lat="35.3496372" lon="139.0612538"><ele>378.59999999999997</ele><time>2025-03-19T23:57:44Z</time></trkpt><trkpt lat="35.3498033" lon="139.0611432"><ele>381.4666666666667</ele><time>2025-03-19T23:58:02Z</time></trkpt><trkpt lat="35.3500466" lon="139.0611353"><ele>383.0366666666667</ele><time>2025-03-19T23:58:38Z</time></trkpt><trkpt lat="35.3502477" lon="139.0611054"><ele>379.8333333333333</ele><time>2025-03-19T23:59:08Z</time></trkpt><trkpt lat="35.3504067" lon="139.0609863"><ele>379.7733333333333</ele><time>2025-03-19T23:59:29Z</time></trkpt><trkpt lat="35.3505399" lon="139.0608066"><ele>382.3833333333334</ele><time>2025-03-19T23:59:44Z</time></trkpt><trkpt lat="35.3507217" lon="139.060675"><ele>383.31</ele><time>2025-03-20T00:00:26Z</time></trkpt><trkpt lat="35.3508407" lon="139.060497"><ele>380.3866666666667</ele><time>2025-03-20T00:00:47Z</time></trkpt><trkpt lat="35.3509058" lon="139.0602879"><ele>381.1233333333334</ele><time>2025-03-20T00:01:08Z</time></trkpt><trkpt lat="35.3509561" lon="139.0600574"><ele>387.1033333333334</ele><time>2025-03-20T00:01:29Z</time></trkpt><trkpt lat="35.3511306" lon="139.0599407"><ele>393.12000000000006</ele><time>2025-03-20T00:01:47Z</time></trkpt><trkpt lat="35.3511667" lon="139.0597244"><ele>396.3333333333333</ele><time>2025-03-20T00:02:08Z</time></trkpt><trkpt lat="35.351283" lon="139.0595447"><ele>395.7166666666667</ele><time>2025-03-20T00:02:26Z</time></trkpt><trkpt lat="35.3513716" lon="139.0593473"><ele>396.1333333333334</ele><time>2025-03-20T00:02:44Z</time></trkpt><trkpt lat="35.3513831" lon="139.0590956"><ele>398.75333333333333</ele><time>2025-03-20T00:03:05Z</time></trkpt><trkpt lat="35.3513465" lon="139.0588683"><ele>403.46333333333337</ele><time>2025-03-20T00:03:23Z</time></trkpt><trkpt lat="35.3512188" lon="139.0586794"><ele>411.33</ele><time>2025-03-20T00:04:08Z</time></trkpt><trkpt lat="35.3511867" lon="139.0584525"><ele>413.42</ele><time>2025-03-20T00:05:02Z</time></trkpt><trkpt lat="35.3510997" lon="139.0582153"><ele>416.89333333333326</ele><time>2025-03-20T00:05:26Z</time></trkpt><trkpt lat="35.3509774" lon="139.0580261"><ele>418.58666666666664</ele><time>2025-03-20T00:05:41Z</time></trkpt><trkpt lat="35.3509313" lon="139.0578069"><ele>423.76</ele><time>2025-03-20T00:05:56Z</time></trkpt><trkpt lat="35.3508834" lon="139.0575731"><ele>428.67666666666673</ele><time>2025-03-20T00:06:14Z</time></trkpt><trkpt lat="35.3508128" lon="139.0573588"><ele>433.99666666666667</ele><time>2025-03-20T00:06:32Z</time></trkpt><trkpt lat="35.3508203" lon="139.0571088"><ele>437.1366666666667</ele><time>2025-03-20T00:06:50Z</time></trkpt><trkpt lat="35.3507902" lon="139.0568874"><ele>437.64000000000004</ele><time>2025-03-20T00:07:14Z</time></trkpt><trkpt lat="35.3506483" lon="139.0567306"><ele>437.2166666666667</ele><time>2025-03-20T00:07:43Z</time></trkpt><trkpt lat="35.3504952" lon="139.0566121"><ele>437.46333333333337</ele><time>2025-03-20T00:08:03Z</time></trkpt><trkpt lat="35.350381" lon="139.0564138"><ele>438.5366666666667</ele><time>2025-03-20T00:08:23Z</time></trkpt><trkpt lat="35.3502026" lon="139.0563503"><ele>437.34666666666664</ele><time>2025-03-20T00:08:56Z</time></trkpt><trkpt lat="35.3499999" lon="139.0564378"><ele>436.5933333333333</ele><time>2025-03-20T00:09:14Z</time></trkpt><trkpt lat="35.3498344" lon="139.0565298"><ele>437.13000000000005</ele><time>2025-03-20T00:09:50Z</time></trkpt><trkpt lat="35.3499159" lon="139.0567541"><ele>444.48</ele><time>2025-03-20T00:10:59Z</time></trkpt><trkpt lat="35.3497525" lon="139.0568526"><ele>452.3433333333333</ele><time>2025-03-20T00:11:29Z</time></trkpt><trkpt lat="35.3499205" lon="139.056939"><ele>461.0466666666666</ele><time>2025-03-20T00:12:02Z</time></trkpt><trkpt lat="35.350097" lon="139.0568591"><ele>464.02666666666664</ele><time>2025-03-20T00:12:23Z</time></trkpt><trkpt lat="35.3502694" lon="139.057008"><ele>466.77666666666664</ele><time>2025-03-20T00:13:02Z</time></trkpt><trkpt lat="35.350152" lon="139.0572"><ele>469.29333333333335</ele><time>2025-03-20T00:13:35Z</time></trkpt><trkpt lat="35.3500357" lon="139.0573799"><ele>474.9633333333333</ele><time>2025-03-20T00:14:08Z</time></trkpt><trkpt lat="35.3499336" lon="139.0575685"><ele>481.4066666666667</ele><time>2025-03-20T00:14:44Z</time></trkpt><trkpt lat="35.3497819" lon="139.0576885"><ele>488.99333333333334</ele><time>2025-03-20T00:15:44Z</time></trkpt><trkpt lat="35.3497313" lon="139.05791"><ele>494.77333333333337</ele><time>2025-03-20T00:16:53Z</time></trkpt><trkpt lat="35.3495993" lon="139.0580702"><ele>500.3966666666667</ele><time>2025-03-20T00:17:20Z</time></trkpt><trkpt lat="35.3494572" lon="139.058213"><ele>505.0833333333333</ele><time>2025-03-20T00:17:44Z</time></trkpt><trkpt lat="35.3494474" lon="139.0584351"><ele>508.91</ele><time>2025-03-20T00:18:11Z</time></trkpt><trkpt lat="35.3493589" lon="139.0586464"><ele>511.96999999999997</ele><time>2025-03-20T00:18:32Z</time></trkpt><trkpt lat="35.3491758" lon="139.0586658"><ele>514.0233333333334</ele><time>2025-03-20T00:18:50Z</time></trkpt><trkpt lat="35.3489892" lon="139.0586653"><ele>516.29</ele><time>2025-03-20T00:19:08Z</time></trkpt><trkpt lat="35.3487925" lon="139.0586895"><ele>518.4166666666666</ele><time>2025-03-20T00:19:26Z</time></trkpt><trkpt lat="35.3486151" lon="139.058797"><ele>520.6833333333333</ele><time>2025-03-20T00:20:08Z</time></trkpt><trkpt lat="35.3484261" lon="139.0588011"><ele>523.4499999999999</ele><time>2025-03-20T00:20:17Z</time></trkpt><trkpt lat="35.3482635" lon="139.0589242"><ele>526.4466666666666</ele><time>2025-03-20T00:20:41Z</time></trkpt><trkpt lat="35.3482851" lon="139.0591792"><ele>529.1566666666666</ele><time>2025-03-20T00:21:26Z</time></trkpt><trkpt lat="35.3480888" lon="139.0592419"><ele>531.9266666666666</ele><time>2025-03-20T00:22:11Z</time></trkpt><trkpt lat="35.3478994" lon="139.0591506"><ele>533.8666666666667</ele><time>2025-03-20T00:22:32Z</time></trkpt><trkpt lat="35.3476877" lon="139.0590803"><ele>534.9433333333333</ele><time>2025-03-20T00:23:05Z</time></trkpt><trkpt lat="35.3475101" lon="139.0590216"><ele>535.2466666666666</ele><time>2025-03-20T00:23:20Z</time></trkpt><trkpt lat="35.347306" lon="139.0588894"><ele>535.9833333333332</ele><time>2025-03-20T00:23:38Z</time></trkpt><trkpt lat="35.3471849" lon="139.0587055"><ele>537.2799999999999</ele><time>2025-03-20T00:24:20Z</time></trkpt><trkpt lat="35.3471627" lon="139.0584698"><ele>538.6333333333333</ele><time>2025-03-20T00:24:35Z</time></trkpt><trkpt lat="35.347177" lon="139.0582103"><ele>539.3266666666667</ele><time>2025-03-20T00:24:53Z</time></trkpt><trkpt lat="35.3471212" lon="139.0579967"><ele>539.6966666666667</ele><time>2025-03-20T00:25:05Z</time></trkpt><trkpt lat="35.347004" lon="139.0577819"><ele>539.5233333333333</ele><time>2025-03-20T00:25:23Z</time></trkpt><trkpt lat="35.3468176" lon="139.0576837"><ele>538.4466666666667</ele><time>2025-03-20T00:25:38Z</time></trkpt><trkpt lat="35.3466273" lon="139.0575897"><ele>536.37</ele><time>2025-03-20T00:25:50Z</time></trkpt><trkpt lat="35.3464405" lon="139.0574575"><ele>534.0799999999999</ele><time>2025-03-20T00:26:41Z</time></trkpt><trkpt lat="35.3462365" lon="139.0573825"><ele>532.1533333333333</ele><time>2025-03-20T00:26:56Z</time></trkpt><trkpt lat="35.3460324" lon="139.0572792"><ele>530.85</ele><time>2025-03-20T00:27:32Z</time></trkpt><trkpt lat="35.3458969" lon="139.0570832"><ele>530.4366666666666</ele><time>2025-03-20T00:27:47Z</time></trkpt><trkpt lat="35.3457892" lon="139.0568802"><ele>530.8333333333334</ele><time>2025-03-20T00:28:02Z</time></trkpt><trkpt lat="35.3456884" lon="139.0566556"><ele>531.8466666666667</ele><time>2025-03-20T00:28:17Z</time></trkpt><trkpt lat="35.345645" lon="139.0564318"><ele>533.5733333333333</ele><time>2025-03-20T00:28:32Z</time></trkpt><trkpt lat="35.3456122" lon="139.0561732"><ele>536.5566666666667</ele><time>2025-03-20T00:28:47Z</time></trkpt><trkpt lat="35.3456361" lon="139.055905"><ele>539.6866666666666</ele><time>2025-03-20T00:29:05Z</time></trkpt><trkpt lat="35.345671" lon="139.0556645"><ele>541.6766666666666</ele><time>2025-03-20T00:29:20Z</time></trkpt><trkpt lat="35.3456628" lon="139.0554019"><ele>542.7966666666666</ele><time>2025-03-20T00:29:35Z</time></trkpt><trkpt lat="35.3456022" lon="139.0551146"><ele>544.4333333333333</ele><time>2025-03-20T00:30:17Z</time></trkpt><trkpt lat="35.3455218" lon="139.0548848"><ele>546.9766666666666</ele><time>2025-03-20T00:30:38Z</time></trkpt><trkpt lat="35.3455366" lon="139.0546462"><ele>549.2900000000001</ele><time>2025-03-20T00:30:59Z</time></trkpt><trkpt lat="35.3453923" lon="139.0545006"><ele>552.4533333333334</ele><time>2025-03-20T00:31:17Z</time></trkpt><trkpt lat="35.3453403" lon="139.0542749"><ele>555.4533333333334</ele><time>2025-03-20T00:31:38Z</time></trkpt><trkpt lat="35.3452521" lon="139.0540686"><ele>558.2233333333334</ele><time>2025-03-20T00:32:41Z</time></trkpt><trkpt lat="35.3451266" lon="139.0538614"><ele>559.3433333333334</ele><time>2025-03-20T00:32:56Z</time></trkpt><trkpt lat="35.3449955" lon="139.0537018"><ele>559.9766666666667</ele><time>2025-03-20T00:33:11Z</time></trkpt><trkpt lat="35.3448171" lon="139.0535688"><ele>559.7700000000001</ele><time>2025-03-20T00:33:26Z</time></trkpt><trkpt lat="35.3446343" lon="139.0534705"><ele>558.0300000000001</ele><time>2025-03-20T00:33:44Z</time></trkpt><trkpt lat="35.3445882" lon="139.0532578"><ele>555.66</ele><time>2025-03-20T00:34:14Z</time></trkpt><trkpt lat="35.3446182" lon="139.0530369"><ele>554.2033333333334</ele><time>2025-03-20T00:35:44Z</time></trkpt><trkpt lat="35.3445042" lon="139.0528207"><ele>553.0966666666667</ele><time>2025-03-20T00:36:29Z</time></trkpt><trkpt lat="35.3443521" lon="139.0526582"><ele>552.0333333333334</ele><time>2025-03-20T00:36:44Z</time></trkpt><trkpt lat="35.3441611" lon="139.0525496"><ele>550.6833333333334</ele><time>2025-03-20T00:36:59Z</time></trkpt><trkpt lat="35.3439883" lon="139.0524633"><ele>550.2766666666666</ele><time>2025-03-20T00:37:14Z</time></trkpt><trkpt lat="35.3437894" lon="139.0523744"><ele>550.37</ele><time>2025-03-20T00:37:28Z</time></trkpt><trkpt lat="35.3435863" lon="139.0522808"><ele>550.4366666666666</ele><time>2025-03-20T00:37:42Z</time></trkpt><trkpt lat="35.3433964" lon="139.0521844"><ele>550.52</ele><time>2025-03-20T00:37:54Z</time></trkpt><trkpt lat="35.3432084" lon="139.0521253"><ele>550.6433333333333</ele><time>2025-03-20T00:38:08Z</time></trkpt><trkpt lat="35.3430079" lon="139.0520417"><ele>551.9333333333333</ele><time>2025-03-20T00:38:23Z</time></trkpt><trkpt lat="35.3428288" lon="139.0519475"><ele>553.5766666666667</ele><time>2025-03-20T00:38:35Z</time></trkpt><trkpt lat="35.3426439" lon="139.0518346"><ele>555.1866666666667</ele><time>2025-03-20T00:38:50Z</time></trkpt><trkpt lat="35.3424657" lon="139.0517314"><ele>555.8133333333334</ele><time>2025-03-20T00:39:05Z</time></trkpt><trkpt lat="35.3422642" lon="139.0516244"><ele>556.2833333333333</ele><time>2025-03-20T00:39:20Z</time></trkpt><trkpt lat="35.3421034" lon="139.0515123"><ele>556.7266666666667</ele><time>2025-03-20T00:39:35Z</time></trkpt><trkpt lat="35.3419648" lon="139.0513715"><ele>557.2766666666666</ele><time>2025-03-20T00:39:47Z</time></trkpt><trkpt lat="35.3418222" lon="139.0512196"><ele>557.8466666666667</ele><time>2025-03-20T00:39:59Z</time></trkpt><trkpt lat="35.3416781" lon="139.0510338"><ele>558.16</ele><time>2025-03-20T00:40:14Z</time></trkpt><trkpt lat="35.3415354" lon="139.0508925"><ele>558.6266666666667</ele><time>2025-03-20T00:40:29Z</time></trkpt><trkpt lat="35.3414004" lon="139.0507323"><ele>559.6899999999999</ele><time>2025-03-20T00:40:41Z</time></trkpt><trkpt lat="35.3412809" lon="139.050564"><ele>561.89</ele><time>2025-03-20T00:41:53Z</time></trkpt><trkpt lat="35.3411249" lon="139.050444"><ele>564.17</ele><time>2025-03-20T00:42:44Z</time></trkpt><trkpt lat="35.3409302" lon="139.0504752"><ele>565.19</ele><time>2025-03-20T00:42:59Z</time></trkpt><trkpt lat="35.3407464" lon="139.0504507"><ele>565.0</ele><time>2025-03-20T00:43:14Z</time></trkpt><trkpt lat="35.3405757" lon="139.050342"><ele>566.5100000000001</ele><time>2025-03-20T00:43:32Z</time></trkpt><trkpt lat="35.3406258" lon="139.0501106"><ele>570.46</ele><time>2025-03-20T00:44:05Z</time></trkpt><trkpt lat="35.3404922" lon="139.0499591"><ele>577.2366666666667</ele><time>2025-03-20T00:44:44Z</time></trkpt><trkpt lat="35.3404507" lon="139.0497297"><ele>583.62</ele><time>2025-03-20T00:45:05Z</time></trkpt><trkpt lat="35.340415" lon="139.0495001"><ele>588.3566666666667</ele><time>2025-03-20T00:45:29Z</time></trkpt><trkpt lat="35.3403233" lon="139.0493074"><ele>592.6166666666667</ele><time>2025-03-20T00:45:50Z</time></trkpt><trkpt lat="35.340177" lon="139.0491594"><ele>596.26</ele><time>2025-03-20T00:46:14Z</time></trkpt><trkpt lat="35.3400168" lon="139.0490266"><ele>600.0366666666667</ele><time>2025-03-20T00:46:35Z</time></trkpt><trkpt lat="35.3398314" lon="139.0489189"><ele>602.3733333333333</ele><time>2025-03-20T00:46:56Z</time></trkpt><trkpt lat="35.3396627" lon="139.0488297"><ele>603.7266666666666</ele><time>2025-03-20T00:47:11Z</time></trkpt><trkpt lat="35.3394909" lon="139.0487516"><ele>605.9066666666666</ele><time>2025-03-20T00:47:25Z</time></trkpt><trkpt lat="35.339323" lon="139.0486612"><ele>608.1233333333333</ele><time>2025-03-20T00:47:43Z</time></trkpt><trkpt lat="35.3391469" lon="139.0485739"><ele>611.1433333333333</ele><time>2025-03-20T00:48:02Z</time></trkpt><trkpt lat="35.3389842" lon="139.0484595"><ele>615.81</ele><time>2025-03-20T00:48:26Z</time></trkpt><trkpt lat="35.3389264" lon="139.048234"><ele>621.3866666666667</ele><time>2025-03-20T00:48:47Z</time></trkpt><trkpt lat="35.3388811" lon="139.0479957"><ele>626.99</ele><time>2025-03-20T00:49:11Z</time></trkpt><trkpt lat="35.3387679" lon="139.0478224"><ele>632.4733333333334</ele><time>2025-03-20T00:49:53Z</time></trkpt><trkpt lat="35.338647" lon="139.047652"><ele>638.6266666666667</ele><time>2025-03-20T00:50:29Z</time></trkpt><trkpt lat="35.3385068" lon="139.0477983"><ele>644.0966666666667</ele><time>2025-03-20T00:50:59Z</time></trkpt><trkpt lat="35.3383405" lon="139.047664"><ele>648.4533333333334</ele><time>2025-03-20T00:51:26Z</time></trkpt><trkpt lat="35.3381884" lon="139.0475203"><ele>651.8233333333334</ele><time>2025-03-20T00:51:49Z</time></trkpt><trkpt lat="35.3380557" lon="139.047327"><ele>657.0333333333334</ele><time>2025-03-20T00:52:26Z</time></trkpt><trkpt lat="35.3379025" lon="139.0471769"><ele>661.9633333333333</ele><time>2025-03-20T00:52:53Z</time></trkpt><trkpt lat="35.3378301" lon="139.0469529"><ele>667.69</ele><time>2025-03-20T00:53:23Z</time></trkpt><trkpt lat="35.337769" lon="139.046744"><ele>672.75</ele><time>2025-03-20T00:53:56Z</time></trkpt><trkpt lat="35.3375909" lon="139.046672"><ele>677.9333333333334</ele><time>2025-03-20T00:54:23Z</time></trkpt><trkpt lat="35.337476" lon="139.0464929"><ele>682.4366666666666</ele><time>2025-03-20T00:54:56Z</time></trkpt><trkpt lat="35.3373142" lon="139.046382"><ele>687.8633333333333</ele><time>2025-03-20T00:55:17Z</time></trkpt><trkpt lat="35.337139" lon="139.0462362"><ele>692.2166666666667</ele><time>2025-03-20T00:55:38Z</time></trkpt><trkpt lat="35.3370145" lon="139.0460592"><ele>695.7466666666668</ele><time>2025-03-20T00:56:05Z</time></trkpt><trkpt lat="35.3368706" lon="139.0459066"><ele>696.7033333333334</ele><time>2025-03-20T00:56:59Z</time></trkpt><trkpt lat="35.3367891" lon="139.0456947"><ele>697.1066666666667</ele><time>2025-03-20T00:57:17Z</time></trkpt><trkpt lat="35.3366963" lon="139.0455049"><ele>696.63</ele><time>2025-03-20T00:57:35Z</time></trkpt><trkpt lat="35.3365942" lon="139.0452669"><ele>695.4</ele><time>2025-03-20T00:57:53Z</time></trkpt><trkpt lat="35.3364649" lon="139.0450875"><ele>694.0333333333333</ele><time>2025-03-20T00:58:11Z</time></trkpt><trkpt lat="35.3363385" lon="139.0448903"><ele>693.1133333333333</ele><time>2025-03-20T00:58:26Z</time></trkpt><trkpt lat="35.336249" lon="139.0446401"><ele>693.2233333333334</ele><time>2025-03-20T00:58:44Z</time></trkpt><trkpt lat="35.3361862" lon="139.0444194"><ele>692.7166666666666</ele><time>2025-03-20T00:59:02Z</time></trkpt><trkpt lat="35.3362198" lon="139.0441525"><ele>689.25</ele><time>2025-03-20T00:59:26Z</time></trkpt><trkpt lat="35.3360966" lon="139.0439769"><ele>684.3000000000001</ele><time>2025-03-20T00:59:50Z</time></trkpt><trkpt lat="35.3359517" lon="139.0438095"><ele>679.0133333333333</ele><time>2025-03-20T01:00:17Z</time></trkpt><trkpt lat="35.3358584" lon="139.0435873"><ele>675.5833333333334</ele><time>2025-03-20T01:00:38Z</time></trkpt><trkpt lat="35.3357608" lon="139.0433904"><ele>673.3766666666667</ele><time>2025-03-20T01:00:53Z</time></trkpt><trkpt lat="35.3357255" lon="139.0431681"><ele>672.21</ele><time>2025-03-20T01:01:08Z</time></trkpt><trkpt lat="35.3356502" lon="139.0429679"><ele>673.63</ele><time>2025-03-20T01:01:26Z</time></trkpt><trkpt lat="35.3355887" lon="139.0427362"><ele>677.6766666666667</ele><time>2025-03-20T01:01:59Z</time></trkpt><trkpt lat="35.3354427" lon="139.0425842"><ele>684.2800000000001</ele><time>2025-03-20T01:03:05Z</time></trkpt><trkpt lat="35.3354905" lon="139.042359"><ele>688.9266666666667</ele><time>2025-03-20T01:04:44Z</time></trkpt><trkpt lat="35.3355604" lon="139.0421105"><ele>690.5300000000001</ele><time>2025-03-20T01:05:44Z</time></trkpt><trkpt lat="35.3356089" lon="139.041876"><ele>687.7333333333335</ele><time>2025-03-20T01:06:08Z</time></trkpt><trkpt lat="35.3356801" lon="139.0416711"><ele>682.9500000000002</ele><time>2025-03-20T01:06:29Z</time></trkpt><trkpt lat="35.3356949" lon="139.0414302"><ele>677.9233333333333</ele><time>2025-03-20T01:06:53Z</time></trkpt><trkpt lat="35.3357048" lon="139.0411773"><ele>673.9499999999999</ele><time>2025-03-20T01:07:11Z</time></trkpt><trkpt lat="35.3356681" lon="139.0409125"><ele>671.9533333333334</ele><time>2025-03-20T01:07:26Z</time></trkpt><trkpt lat="35.3356771" lon="139.0406833"><ele>670.5133333333333</ele><time>2025-03-20T01:07:44Z</time></trkpt><trkpt lat="35.3357225" lon="139.0404236"><ele>668.6899999999999</ele><time>2025-03-20T01:08:02Z</time></trkpt><trkpt lat="35.3357731" lon="139.0401666"><ele>665.99</ele><time>2025-03-20T01:08:20Z</time></trkpt><trkpt lat="35.3358211" lon="139.0399244"><ele>663.4733333333334</ele><time>2025-03-20T01:08:35Z</time></trkpt><trkpt lat="35.3358274" lon="139.0396843"><ele>662.4666666666667</ele><time>2025-03-20T01:08:53Z</time></trkpt><trkpt lat="35.3358269" lon="139.0394424"><ele>662.5400000000001</ele><time>2025-03-20T01:09:08Z</time></trkpt><trkpt lat="35.3358176" lon="139.0392071"><ele>662.4033333333333</ele><time>2025-03-20T01:09:23Z</time></trkpt><trkpt lat="35.3356711" lon="139.0390181"><ele>662.2533333333334</ele><time>2025-03-20T01:09:35Z</time></trkpt><trkpt lat="35.3355145" lon="139.0388408"><ele>662.3666666666667</ele><time>2025-03-20T01:09:50Z</time></trkpt><trkpt lat="35.3353796" lon="139.0386493"><ele>662.7033333333334</ele><time>2025-03-20T01:10:20Z</time></trkpt><trkpt lat="35.3352901" lon="139.0384458"><ele>662.6666666666666</ele><time>2025-03-20T01:10:35Z</time></trkpt><trkpt lat="35.3351965" lon="139.0382506"><ele>662.4133333333333</ele><time>2025-03-20T01:10:50Z</time></trkpt><trkpt lat="35.3350251" lon="139.0380886"><ele>662.12</ele><time>2025-03-20T01:11:05Z</time></trkpt><trkpt lat="35.3350281" lon="139.0378188"><ele>661.9333333333334</ele><time>2025-03-20T01:11:23Z</time></trkpt><trkpt lat="35.3349338" lon="139.0375981"><ele>661.9633333333333</ele><time>2025-03-20T01:11:38Z</time></trkpt><trkpt lat="35.3348722" lon="139.0373734"><ele>661.9266666666667</ele><time>2025-03-20T01:11:59Z</time></trkpt><trkpt lat="35.3347863" lon="139.0371261"><ele>662.2166666666667</ele><time>2025-03-20T01:12:08Z</time></trkpt><trkpt lat="35.3347766" lon="139.0368853"><ele>663.1500000000001</ele><time>2025-03-20T01:12:30Z</time></trkpt><trkpt lat="35.3348674" lon="139.0366826"><ele>666.8666666666667</ele><time>2025-03-20T01:12:51Z</time></trkpt><trkpt lat="35.3349429" lon="139.0364603"><ele>671.73</ele><time>2025-03-20T01:13:24Z</time></trkpt><trkpt lat="35.3349766" lon="139.0362308"><ele>676.8833333333333</ele><time>2025-03-20T01:13:45Z</time></trkpt><trkpt lat="35.3349642" lon="139.0359711"><ele>679.4566666666667</ele><time>2025-03-20T01:14:06Z</time></trkpt><trkpt lat="35.3348793" lon="139.0357498"><ele>680.7266666666666</ele><time>2025-03-20T01:14:27Z</time></trkpt><trkpt lat="35.3347813" lon="139.0355561"><ele>681.0166666666668</ele><time>2025-03-20T01:14:42Z</time></trkpt><trkpt lat="35.3346494" lon="139.0353968"><ele>681.12</ele><time>2025-03-20T01:14:54Z</time></trkpt><trkpt lat="35.3345315" lon="139.0351992"><ele>680.92</ele><time>2025-03-20T01:15:09Z</time></trkpt><trkpt lat="35.3344222" lon="139.034996"><ele>680.5500000000001</ele><time>2025-03-20T01:15:24Z</time></trkpt><trkpt lat="35.334283" lon="139.0348167"><ele>679.9566666666666</ele><time>2025-03-20T01:15:54Z</time></trkpt><trkpt lat="35.3340999" lon="139.0346353"><ele>677.09</ele><time>2025-03-20T01:16:48Z</time></trkpt><trkpt lat="35.3340218" lon="139.0344355"><ele>673.8366666666667</ele><time>2025-03-20T01:17:03Z</time></trkpt><trkpt lat="35.3339507" lon="139.0341979"><ele>669.4866666666667</ele><time>2025-03-20T01:17:24Z</time></trkpt><trkpt lat="35.3339712" lon="139.0339209"><ele>665.9833333333332</ele><time>2025-03-20T01:21:57Z</time></trkpt><trkpt lat="35.334017" lon="139.0337017"><ele>663.69</ele><time>2025-03-20T01:22:54Z</time></trkpt><trkpt lat="35.3339458" lon="139.0334859"><ele>663.4033333333333</ele><time>2025-03-20T01:23:30Z</time></trkpt><trkpt lat="35.333821" lon="139.033314"><ele>666.3000000000001</ele><time>2025-03-20T01:23:54Z</time></trkpt><trkpt lat="35.33368" lon="139.0331471"><ele>670.3933333333333</ele><time>2025-03-20T01:24:24Z</time></trkpt><trkpt lat="35.3336078" lon="139.0329197"><ele>676.0433333333334</ele><time>2025-03-20T01:25:00Z</time></trkpt><trkpt lat="35.3334714" lon="139.032762"><ele>681.5066666666667</ele><time>2025-03-20T01:25:30Z</time></trkpt><trkpt lat="35.3333367" lon="139.0325919"><ele>686.4766666666668</ele><time>2025-03-20T01:26:03Z</time></trkpt><trkpt lat="35.3331071" lon="139.0324599"><ele>692.6166666666668</ele><time>2025-03-20T01:26:51Z</time></trkpt><trkpt lat="35.3330851" lon="139.0322236"><ele>699.1833333333334</ele><time>2025-03-20T01:27:30Z</time></trkpt><trkpt lat="35.3328757" lon="139.0322587"><ele>706.0100000000001</ele><time>2025-03-20T01:27:57Z</time></trkpt><trkpt lat="35.3326906" lon="139.0323068"><ele>710.5666666666666</ele><time>2025-03-20T01:28:15Z</time></trkpt><trkpt lat="35.3325103" lon="139.0323531"><ele>713.9699999999999</ele><time>2025-03-20T01:28:33Z</time></trkpt><trkpt lat="35.3323273" lon="139.0324334"><ele>716.9366666666666</ele><time>2025-03-20T01:28:54Z</time></trkpt><trkpt lat="35.3320971" lon="139.0323486"><ele>720.0333333333333</ele><time>2025-03-20T01:29:27Z</time></trkpt><trkpt lat="35.3319683" lon="139.032194"><ele>723.9</ele><time>2025-03-20T01:29:39Z</time></trkpt><trkpt lat="35.3319777" lon="139.0319111"><ele>727.14</ele><time>2025-03-20T01:30:12Z</time></trkpt><trkpt lat="35.332027" lon="139.0316985"><ele>728.88</ele><time>2025-03-20T01:30:36Z</time></trkpt><trkpt lat="35.3318775" lon="139.0318215"><ele>731.0166666666665</ele><time>2025-03-20T01:31:39Z</time></trkpt><trkpt lat="35.3317556" lon="139.0319945"><ele>734.2166666666667</ele><time>2025-03-20T01:32:03Z</time></trkpt><trkpt lat="35.3315771" lon="139.0320585"><ele>738.7400000000001</ele><time>2025-03-20T01:32:24Z</time></trkpt><trkpt lat="35.3313882" lon="139.0321161"><ele>741.7933333333334</ele><time>2025-03-20T01:32:45Z</time></trkpt><trkpt lat="35.3311958" lon="139.0321915"><ele>744.18</ele><time>2025-03-20T01:33:06Z</time></trkpt><trkpt lat="35.3310012" lon="139.0322264"><ele>746.7766666666666</ele><time>2025-03-20T01:33:23Z</time></trkpt><trkpt lat="35.330811" lon="139.0322989"><ele>750.3566666666667</ele><time>2025-03-20T01:33:42Z</time></trkpt><trkpt lat="35.3306167" lon="139.0323127"><ele>754.0500000000001</ele><time>2025-03-20T01:34:15Z</time></trkpt><trkpt lat="35.3304539" lon="139.0324144"><ele>759.5133333333333</ele><time>2025-03-20T01:34:51Z</time></trkpt><trkpt lat="35.3302671" lon="139.0324692"><ele>765.3666666666667</ele><time>2025-03-20T01:35:39Z</time></trkpt><trkpt lat="35.3301026" lon="139.0325661"><ele>772.7400000000001</ele><time>2025-03-20T01:36:09Z</time></trkpt><trkpt lat="35.3299498" lon="139.0327148"><ele>780.1933333333333</ele><time>2025-03-20T01:36:57Z</time></trkpt><trkpt lat="35.3297935" lon="139.0328694"><ele>789.3133333333334</ele><time>2025-03-20T01:38:12Z</time></trkpt><trkpt lat="35.3296309" lon="139.0329657"><ele>799.66</ele><time>2025-03-20T01:39:06Z</time></trkpt><trkpt lat="35.3294447" lon="139.0330536"><ele>808.36</ele><time>2025-03-20T01:39:45Z</time></trkpt><trkpt lat="35.3292704" lon="139.0332369"><ele>814.3433333333332</ele><time>2025-03-20T01:40:12Z</time></trkpt><trkpt lat="35.3291183" lon="139.0333891"><ele>818.3566666666667</ele><time>2025-03-20T01:40:33Z</time></trkpt><trkpt lat="35.3289478" lon="139.0334831"><ele>822.6033333333334</ele><time>2025-03-20T01:41:12Z</time></trkpt><trkpt lat="35.3288694" lon="139.0336875"><ele>827.4833333333332</ele><time>2025-03-20T01:41:45Z</time></trkpt><trkpt lat="35.3288328" lon="139.0339066"><ele>832.0466666666666</ele><time>2025-03-20T01:42:09Z</time></trkpt><trkpt lat="35.3287239" lon="139.0341251"><ele>837.2466666666666</ele><time>2025-03-20T01:42:42Z</time></trkpt><trkpt lat="35.328593" lon="139.0342836"><ele>843.7666666666668</ele><time>2025-03-20T01:43:27Z</time></trkpt><trkpt lat="35.3285959" lon="139.034509"><ele>850.9733333333334</ele><time>2025-03-20T01:44:12Z</time></trkpt><trkpt lat="35.3285763" lon="139.0347493"><ele>857.0233333333334</ele><time>2025-03-20T01:44:39Z</time></trkpt><trkpt lat="35.3285232" lon="139.0349622"><ele>861.1666666666666</ele><time>2025-03-20T01:45:06Z</time></trkpt><trkpt lat="35.3285047" lon="139.0352052"><ele>864.04</ele><time>2025-03-20T01:45:27Z</time></trkpt><trkpt lat="35.328413" lon="139.0353948"><ele>865.35</ele><time>2025-03-20T01:54:57Z</time></trkpt><trkpt lat="35.3284717" lon="139.0351808"><ele>865.9033333333333</ele><time>2025-03-20T01:56:18Z</time></trkpt><trkpt lat="35.3283816" lon="139.0353741"><ele>865.4900000000001</ele><time>2025-03-20T01:57:33Z</time></trkpt><trkpt lat="35.3284836" lon="139.0351649"><ele>865.46</ele><time>2025-03-20T01:57:57Z</time></trkpt><trkpt lat="35.3285638" lon="139.0349528"><ele>864.9066666666668</ele><time>2025-03-20T01:59:03Z</time></trkpt><trkpt lat="35.328591" lon="139.0346982"><ele>863.2800000000001</ele><time>2025-03-20T01:59:21Z</time></trkpt><trkpt lat="35.3286255" lon="139.0344233"><ele>860.04</ele><time>2025-03-20T01:59:52Z</time></trkpt><trkpt lat="35.3286021" lon="139.0341988"><ele>855.0799999999999</ele><time>2025-03-20T02:00:37Z</time></trkpt><trkpt lat="35.3286809" lon="139.0339481"><ele>848.0300000000001</ele><time>2025-03-20T02:01:01Z</time></trkpt><trkpt lat="35.32881" lon="139.033767"><ele>840.9033333333333</ele><time>2025-03-20T02:01:22Z</time></trkpt><trkpt lat="35.3289319" lon="139.0336006"><ele>834.5</ele><time>2025-03-20T02:01:40Z</time></trkpt><trkpt lat="35.329044" lon="139.0334277"><ele>829.4433333333335</ele><time>2025-03-20T02:02:13Z</time></trkpt><trkpt lat="35.3292263" lon="139.0332914"><ele>824.1366666666667</ele><time>2025-03-20T02:02:30Z</time></trkpt><trkpt lat="35.3293736" lon="139.0331323"><ele>819.71</ele><time>2025-03-20T02:02:48Z</time></trkpt><trkpt lat="35.3295022" lon="139.0329778"><ele>815.9666666666667</ele><time>2025-03-20T02:03:16Z</time></trkpt><trkpt lat="35.3296882" lon="139.0329142"><ele>812.3066666666667</ele><time>2025-03-20T02:03:58Z</time></trkpt><trkpt lat="35.3298513" lon="139.0327869"><ele>804.69</ele><time>2025-03-20T02:04:34Z</time></trkpt><trkpt lat="35.3300007" lon="139.0326567"><ele>795.2199999999999</ele><time>2025-03-20T02:05:10Z</time></trkpt><trkpt lat="35.3301932" lon="139.0325745"><ele>784.2433333333333</ele><time>2025-03-20T02:05:36Z</time></trkpt><trkpt lat="35.3303729" lon="139.0324329"><ele>776.2400000000001</ele><time>2025-03-20T02:05:58Z</time></trkpt><trkpt lat="35.3305327" lon="139.0322837"><ele>767.68</ele><time>2025-03-20T02:06:27Z</time></trkpt><trkpt lat="35.3307442" lon="139.0322469"><ele>760.9366666666666</ele><time>2025-03-20T02:06:51Z</time></trkpt><trkpt lat="35.3309458" lon="139.0322509"><ele>754.6033333333334</ele><time>2025-03-20T02:07:08Z</time></trkpt><trkpt lat="35.331139" lon="139.0322332"><ele>751.0066666666667</ele><time>2025-03-20T02:07:23Z</time></trkpt><trkpt lat="35.3313589" lon="139.0321571"><ele>747.2633333333333</ele><time>2025-03-20T02:07:37Z</time></trkpt><trkpt lat="35.3315375" lon="139.0320895"><ele>744.5133333333333</ele><time>2025-03-20T02:07:55Z</time></trkpt><trkpt lat="35.3317254" lon="139.032021"><ele>741.5733333333333</ele><time>2025-03-20T02:08:12Z</time></trkpt><trkpt lat="35.3318933" lon="139.0318474"><ele>738.6833333333333</ele><time>2025-03-20T02:08:27Z</time></trkpt><trkpt lat="35.3320312" lon="139.0316726"><ele>734.2166666666667</ele><time>2025-03-20T02:08:48Z</time></trkpt><trkpt lat="35.3320473" lon="139.0314323"><ele>729.52</ele><time>2025-03-20T02:09:19Z</time></trkpt><trkpt lat="35.3318591" lon="139.0313552"><ele>724.9466666666667</ele><time>2025-03-20T02:09:40Z</time></trkpt><trkpt lat="35.3319476" lon="139.0311274"><ele>720.79</ele><time>2025-03-20T02:10:16Z</time></trkpt><trkpt lat="35.3320649" lon="139.0309385"><ele>715.4333333333334</ele><time>2025-03-20T02:10:33Z</time></trkpt><trkpt lat="35.3321364" lon="139.0307324"><ele>709.8266666666667</ele><time>2025-03-20T02:10:48Z</time></trkpt><trkpt lat="35.332167" lon="139.0305155"><ele>703.7933333333334</ele><time>2025-03-20T02:11:06Z</time></trkpt><trkpt lat="35.3321419" lon="139.030253"><ele>698.6500000000001</ele><time>2025-03-20T02:11:27Z</time></trkpt><trkpt lat="35.3320688" lon="139.030021"><ele>694.19</ele><time>2025-03-20T02:11:42Z</time></trkpt><trkpt lat="35.3319954" lon="139.029808"><ele>689.3466666666667</ele><time>2025-03-20T02:11:56Z</time></trkpt><trkpt lat="35.3319311" lon="139.0295794"><ele>684.2800000000001</ele><time>2025-03-20T02:12:16Z</time></trkpt><trkpt lat="35.3319005" lon="139.0293427"><ele>679.5533333333333</ele><time>2025-03-20T02:12:40Z</time></trkpt><trkpt lat="35.3319517" lon="139.0291256"><ele>675.6466666666666</ele><time>2025-03-20T02:12:55Z</time></trkpt><trkpt lat="35.331984" lon="139.028907"><ele>671.5833333333334</ele><time>2025-03-20T02:13:16Z</time></trkpt><trkpt lat="35.3319601" lon="139.0286629"><ele>666.11</ele><time>2025-03-20T02:13:34Z</time></trkpt><trkpt lat="35.33189" lon="139.0284487"><ele>659.71</ele><time>2025-03-20T02:13:52Z</time></trkpt><trkpt lat="35.3317294" lon="139.028283"><ele>654.98</ele><time>2025-03-20T02:14:10Z</time></trkpt><trkpt lat="35.331596" lon="139.0280979"><ele>652.33</ele><time>2025-03-20T02:14:31Z</time></trkpt><trkpt lat="35.3314585" lon="139.0279407"><ele>653.6133333333333</ele><time>2025-03-20T02:14:52Z</time></trkpt><trkpt lat="35.3312532" lon="139.027891"><ele>655.7633333333333</ele><time>2025-03-20T02:15:25Z</time></trkpt><trkpt lat="35.3310744" lon="139.0278255"><ele>658.9233333333333</ele><time>2025-03-20T02:15:46Z</time></trkpt><trkpt lat="35.3309275" lon="139.0276529"><ele>660.5666666666666</ele><time>2025-03-20T02:16:04Z</time></trkpt><trkpt lat="35.3308434" lon="139.0274218"><ele>661.4133333333333</ele><time>2025-03-20T02:16:22Z</time></trkpt><trkpt lat="35.3308938" lon="139.0271592"><ele>660.9566666666667</ele><time>2025-03-20T02:16:40Z</time></trkpt><trkpt lat="35.3308991" lon="139.0269075"><ele>658.5333333333333</ele><time>2025-03-20T02:16:58Z</time></trkpt><trkpt lat="35.3308611" lon="139.0266917"><ele>654.84</ele><time>2025-03-20T02:17:19Z</time></trkpt><trkpt lat="35.3308614" lon="139.0264382"><ele>651.8366666666667</ele><time>2025-03-20T02:17:37Z</time></trkpt><trkpt lat="35.3308696" lon="139.0261824"><ele>653.3466666666667</ele><time>2025-03-20T02:18:34Z</time></trkpt><trkpt lat="35.3308105" lon="139.0259574"><ele>657.5933333333332</ele><time>2025-03-20T02:18:52Z</time></trkpt><trkpt lat="35.330713" lon="139.025763"><ele>662.9699999999999</ele><time>2025-03-20T02:19:25Z</time></trkpt><trkpt lat="35.3305994" lon="139.0255814"><ele>665.8833333333333</ele><time>2025-03-20T02:20:01Z</time></trkpt><trkpt lat="35.3304109" lon="139.0255672"><ele>665.9699999999999</ele><time>2025-03-20T02:20:19Z</time></trkpt><trkpt lat="35.330424" lon="139.0253366"><ele>666.0266666666666</ele><time>2025-03-20T02:20:37Z</time></trkpt><trkpt lat="35.3303855" lon="139.0250871"><ele>666.0500000000001</ele><time>2025-03-20T02:20:55Z</time></trkpt><trkpt lat="35.3304246" lon="139.0248327"><ele>668.9333333333333</ele><time>2025-03-20T02:21:13Z</time></trkpt><trkpt lat="35.3304376" lon="139.0245695"><ele>670.7466666666667</ele><time>2025-03-20T02:21:31Z</time></trkpt><trkpt lat="35.3305464" lon="139.024356"><ele>673.8733333333333</ele><time>2025-03-20T02:21:49Z</time></trkpt><trkpt lat="35.3306348" lon="139.0241261"><ele>675.5566666666667</ele><time>2025-03-20T02:22:06Z</time></trkpt><trkpt lat="35.3307638" lon="139.0239392"><ele>677.6566666666666</ele><time>2025-03-20T02:22:25Z</time></trkpt><trkpt lat="35.3308895" lon="139.0237437"><ele>679.54</ele><time>2025-03-20T02:22:42Z</time></trkpt><trkpt lat="35.3310326" lon="139.0235948"><ele>683.1066666666666</ele><time>2025-03-20T02:23:08Z</time></trkpt><trkpt lat="35.3312298" lon="139.02346"><ele>687.3266666666667</ele><time>2025-03-20T02:24:04Z</time></trkpt><trkpt lat="35.3312928" lon="139.0232477"><ele>690.61</ele><time>2025-03-20T02:24:31Z</time></trkpt><trkpt lat="35.3313765" lon="139.0230394"><ele>695.0600000000001</ele><time>2025-03-20T02:24:49Z</time></trkpt><trkpt lat="35.3314843" lon="139.0228483"><ele>700.8433333333334</ele><time>2025-03-20T02:25:40Z</time></trkpt><trkpt lat="35.3314241" lon="139.0226405"><ele>706.8333333333334</ele><time>2025-03-20T02:26:07Z</time></trkpt><trkpt lat="35.3313362" lon="139.0224379"><ele>710.57</ele><time>2025-03-20T02:26:28Z</time></trkpt><trkpt lat="35.3312658" lon="139.0222141"><ele>711.7866666666667</ele><time>2025-03-20T02:26:49Z</time></trkpt><trkpt lat="35.3312586" lon="139.0219923"><ele>712.93</ele><time>2025-03-20T02:27:07Z</time></trkpt><trkpt lat="35.3312658" lon="139.021729"><ele>714.3733333333333</ele><time>2025-03-20T02:27:25Z</time></trkpt><trkpt lat="35.331225" lon="139.0214886"><ele>716.6466666666666</ele><time>2025-03-20T02:27:43Z</time></trkpt><trkpt lat="35.3311432" lon="139.0212744"><ele>720.0966666666667</ele><time>2025-03-20T02:28:01Z</time></trkpt><trkpt lat="35.331033" lon="139.0210917"><ele>724.96</ele><time>2025-03-20T02:28:52Z</time></trkpt><trkpt lat="35.3309085" lon="139.0209196"><ele>732.0633333333334</ele><time>2025-03-20T02:30:10Z</time></trkpt><trkpt lat="35.3309005" lon="139.0206243"><ele>740.9866666666667</ele><time>2025-03-20T02:30:43Z</time></trkpt><trkpt lat="35.3308308" lon="139.0204185"><ele>749.4166666666666</ele><time>2025-03-20T02:31:43Z</time></trkpt><trkpt lat="35.3308542" lon="139.0201839"><ele>757.68</ele><time>2025-03-20T02:32:07Z</time></trkpt><trkpt lat="35.3308671" lon="139.0199591"><ele>764.2666666666668</ele><time>2025-03-20T02:33:01Z</time></trkpt><trkpt lat="35.3307741" lon="139.0197569"><ele>769.1766666666666</ele><time>2025-03-20T02:33:13Z</time></trkpt><trkpt lat="35.3306765" lon="139.0195565"><ele>771.4066666666666</ele><time>2025-03-20T02:33:39Z</time></trkpt><trkpt lat="35.330575" lon="139.0193585"><ele>772.6433333333334</ele><time>2025-03-20T02:34:01Z</time></trkpt><trkpt lat="35.3303991" lon="139.0192182"><ele>773.8566666666667</ele><time>2025-03-20T02:34:24Z</time></trkpt><trkpt lat="35.3302178" lon="139.0190846"><ele>775.2133333333335</ele><time>2025-03-20T02:34:43Z</time></trkpt><trkpt lat="35.330079" lon="139.0189073"><ele>776.6300000000001</ele><time>2025-03-20T02:35:01Z</time></trkpt><trkpt lat="35.3299079" lon="139.0187895"><ele>778.5933333333334</ele><time>2025-03-20T02:35:25Z</time></trkpt><trkpt lat="35.3297216" lon="139.0188328"><ele>779.9833333333335</ele><time>2025-03-20T02:35:49Z</time></trkpt><trkpt lat="35.3295858" lon="139.0189871"><ele>778.7600000000001</ele><time>2025-03-20T02:36:10Z</time></trkpt><trkpt lat="35.3294096" lon="139.0190929"><ele>775.6333333333336</ele><time>2025-03-20T02:36:34Z</time></trkpt><trkpt lat="35.3292293" lon="139.0191065"><ele>771.3000000000001</ele><time>2025-03-20T02:36:52Z</time></trkpt><trkpt lat="35.3290158" lon="139.0190693"><ele>767.2266666666668</ele><time>2025-03-20T02:37:04Z</time></trkpt><trkpt lat="35.3288328" lon="139.0190347"><ele>765.0966666666667</ele><time>2025-03-20T02:37:19Z</time></trkpt><trkpt lat="35.3286447" lon="139.0189661"><ele>764.9</ele><time>2025-03-20T02:37:34Z</time></trkpt><trkpt lat="35.3284751" lon="139.0188342"><ele>767.6166666666667</ele><time>2025-03-20T02:37:49Z</time></trkpt><trkpt lat="35.3283152" lon="139.0187052"><ele>770.1899999999999</ele><time>2025-03-20T02:38:06Z</time></trkpt><trkpt lat="35.3281084" lon="139.018626"><ele>772.3333333333334</ele><time>2025-03-20T02:38:37Z</time></trkpt><trkpt lat="35.3279142" lon="139.0186812"><ele>772.2400000000001</ele><time>2025-03-20T02:38:52Z</time></trkpt><trkpt lat="35.3277282" lon="139.0186382"><ele>770.9433333333333</ele><time>2025-03-20T02:39:07Z</time></trkpt><trkpt lat="35.3275292" lon="139.0186087"><ele>767.82</ele><time>2025-03-20T02:39:25Z</time></trkpt><trkpt lat="35.327327" lon="139.0185317"><ele>765.07</ele><time>2025-03-20T02:39:40Z</time></trkpt><trkpt lat="35.327132" lon="139.0184696"><ele>762.7933333333334</ele><time>2025-03-20T02:39:57Z</time></trkpt><trkpt lat="35.3269397" lon="139.018369"><ele>761.5266666666666</ele><time>2025-03-20T02:40:12Z</time></trkpt><trkpt lat="35.3267172" lon="139.0183296"><ele>760.07</ele><time>2025-03-20T02:40:30Z</time></trkpt><trkpt lat="35.3265173" lon="139.0182643"><ele>757.77</ele><time>2025-03-20T02:40:54Z</time></trkpt><trkpt lat="35.3263239" lon="139.0182183"><ele>755.6866666666668</ele><time>2025-03-20T02:41:12Z</time></trkpt><trkpt lat="35.326145" lon="139.0181693"><ele>753.7400000000001</ele><time>2025-03-20T02:41:27Z</time></trkpt><trkpt lat="35.3260174" lon="139.0179933"><ele>752.9166666666666</ele><time>2025-03-20T02:41:51Z</time></trkpt><trkpt lat="35.3258211" lon="139.017905"><ele>751.89</ele><time>2025-03-20T02:42:12Z</time></trkpt><trkpt lat="35.325632" lon="139.0178146"><ele>750.7833333333333</ele><time>2025-03-20T02:42:32Z</time></trkpt><trkpt lat="35.3254703" lon="139.0177173"><ele>748.6966666666666</ele><time>2025-03-20T02:42:47Z</time></trkpt><trkpt lat="35.3252888" lon="139.0176277"><ele>746.9466666666666</ele><time>2025-03-20T02:43:02Z</time></trkpt><trkpt lat="35.325157" lon="139.0174683"><ele>745.5566666666667</ele><time>2025-03-20T02:43:19Z</time></trkpt><trkpt lat="35.3249615" lon="139.0174311"><ele>744.62</ele><time>2025-03-20T02:43:40Z</time></trkpt><trkpt lat="35.3247896" lon="139.017331"><ele>743.2933333333334</ele><time>2025-03-20T02:43:58Z</time></trkpt><trkpt lat="35.3246112" lon="139.0172171"><ele>741.8000000000001</ele><time>2025-03-20T02:44:13Z</time></trkpt><trkpt lat="35.3244137" lon="139.0171407"><ele>740.6133333333333</ele><time>2025-03-20T02:44:28Z</time></trkpt><trkpt lat="35.3242119" lon="139.017042"><ele>737.6033333333334</ele><time>2025-03-20T02:44:46Z</time></trkpt><trkpt lat="35.3240205" lon="139.0169878"><ele>735.08</ele><time>2025-03-20T02:45:28Z</time></trkpt><trkpt lat="35.3238395" lon="139.0169147"><ele>734.6166666666667</ele><time>2025-03-20T02:45:43Z</time></trkpt><trkpt lat="35.323682" lon="139.0170222"><ele>737.14</ele><time>2025-03-20T02:46:01Z</time></trkpt><trkpt lat="35.323493" lon="139.017027"><ele>739.8666666666667</ele><time>2025-03-20T02:46:13Z</time></trkpt><trkpt lat="35.3232933" lon="139.0170641"><ele>740.6966666666667</ele><time>2025-03-20T02:46:27Z</time></trkpt><trkpt lat="35.3231037" lon="139.017031"><ele>741.67</ele><time>2025-03-20T02:46:39Z</time></trkpt><trkpt lat="35.3228984" lon="139.017011"><ele>742.41</ele><time>2025-03-20T02:46:53Z</time></trkpt><trkpt lat="35.3227119" lon="139.0169762"><ele>742.93</ele><time>2025-03-20T02:47:04Z</time></trkpt><trkpt lat="35.3225283" lon="139.0168552"><ele>743.1333333333333</ele><time>2025-03-20T02:47:19Z</time></trkpt><trkpt lat="35.3223567" lon="139.0167579"><ele>742.9699999999999</ele><time>2025-03-20T02:47:33Z</time></trkpt><trkpt lat="35.3221834" lon="139.0166207"><ele>742.5733333333334</ele><time>2025-03-20T02:47:47Z</time></trkpt><trkpt lat="35.3220218" lon="139.0164677"><ele>742.0366666666667</ele><time>2025-03-20T02:48:01Z</time></trkpt><trkpt lat="35.3218677" lon="139.0163304"><ele>741.9966666666668</ele><time>2025-03-20T02:48:13Z</time></trkpt><trkpt lat="35.3216752" lon="139.0162232"><ele>740.9733333333334</ele><time>2025-03-20T02:48:28Z</time></trkpt><trkpt lat="35.321517" lon="139.0160404"><ele>738.5466666666667</ele><time>2025-03-20T02:48:42Z</time></trkpt><trkpt lat="35.3213803" lon="139.0158621"><ele>735.6100000000001</ele><time>2025-03-20T02:48:56Z</time></trkpt><trkpt lat="35.3212708" lon="139.0156858"><ele>733.5533333333333</ele><time>2025-03-20T02:49:10Z</time></trkpt><trkpt lat="35.3211114" lon="139.0155625"><ele>732.57</ele><time>2025-03-20T02:49:22Z</time></trkpt><trkpt lat="35.3209534" lon="139.0154084"><ele>732.2766666666666</ele><time>2025-03-20T02:49:43Z</time></trkpt><trkpt lat="35.3209176" lon="139.0151557"><ele>733.8166666666666</ele><time>2025-03-20T02:50:04Z</time></trkpt><trkpt lat="35.3209282" lon="139.0149265"><ele>735.5933333333332</ele><time>2025-03-20T02:50:21Z</time></trkpt><trkpt lat="35.3208841" lon="139.0146642"><ele>736.6833333333334</ele><time>2025-03-20T02:50:36Z</time></trkpt><trkpt lat="35.3207687" lon="139.0144892"><ele>737.61</ele><time>2025-03-20T02:50:47Z</time></trkpt><trkpt lat="35.3206297" lon="139.0143259"><ele>738.0566666666667</ele><time>2025-03-20T02:50:58Z</time></trkpt><trkpt lat="35.3204838" lon="139.0141027"><ele>736.9433333333333</ele><time>2025-03-20T02:51:13Z</time></trkpt><trkpt lat="35.3203758" lon="139.0139222"><ele>735.0766666666667</ele><time>2025-03-20T02:51:28Z</time></trkpt><trkpt lat="35.3204433" lon="139.0136789"><ele>733.5500000000001</ele><time>2025-03-20T02:51:46Z</time></trkpt><trkpt lat="35.3203795" lon="139.0134653"><ele>734.1166666666668</ele><time>2025-03-20T02:53:46Z</time></trkpt><trkpt lat="35.3203382" lon="139.013244"><ele>735.5833333333334</ele><time>2025-03-20T02:53:58Z</time></trkpt><trkpt lat="35.3201512" lon="139.0131794"><ele>739.9666666666667</ele><time>2025-03-20T02:55:01Z</time></trkpt><trkpt lat="35.3199916" lon="139.0130227"><ele>744.9866666666667</ele><time>2025-03-20T02:55:16Z</time></trkpt><trkpt lat="35.3199719" lon="139.0127841"><ele>748.5166666666668</ele><time>2025-03-20T02:55:58Z</time></trkpt><trkpt lat="35.3199718" lon="139.0125216"><ele>748.9866666666667</ele><time>2025-03-20T02:56:19Z</time></trkpt><trkpt lat="35.3198315" lon="139.0123517"><ele>748.4833333333332</ele><time>2025-03-20T02:56:37Z</time></trkpt><trkpt lat="35.3196544" lon="139.0122608"><ele>747.4966666666666</ele><time>2025-03-20T02:56:55Z</time></trkpt><trkpt lat="35.319763" lon="139.0120775"><ele>747.36</ele><time>2025-03-20T02:57:13Z</time></trkpt><trkpt lat="35.3196572" lon="139.0122794"><ele>746.61</ele><time>2025-03-20T02:58:28Z</time></trkpt><trkpt lat="35.319548" lon="139.0124618"><ele>746.9566666666666</ele><time>2025-03-20T02:58:49Z</time></trkpt><trkpt lat="35.3193744" lon="139.0125291"><ele>745.4766666666668</ele><time>2025-03-20T02:59:16Z</time></trkpt><trkpt lat="35.3191647" lon="139.0126055"><ele>743.11</ele><time>2025-03-20T02:59:31Z</time></trkpt><trkpt lat="35.3189564" lon="139.0125317"><ele>738.2333333333332</ele><time>2025-03-20T02:59:46Z</time></trkpt><trkpt lat="35.3187718" lon="139.0125234"><ele>734.5</ele><time>2025-03-20T03:00:01Z</time></trkpt><trkpt lat="35.3185913" lon="139.012546"><ele>732.6033333333334</ele><time>2025-03-20T03:00:19Z</time></trkpt><trkpt lat="35.3183856" lon="139.0125834"><ele>732.6166666666668</ele><time>2025-03-20T03:00:31Z</time></trkpt><trkpt lat="35.3181887" lon="139.0126734"><ele>732.4733333333334</ele><time>2025-03-20T03:00:46Z</time></trkpt><trkpt lat="35.318002" lon="139.0127297"><ele>732.3100000000001</ele><time>2025-03-20T03:00:58Z</time></trkpt><trkpt lat="35.3178209" lon="139.0127873"><ele>732.0866666666667</ele><time>2025-03-20T03:01:13Z</time></trkpt><trkpt lat="35.3176189" lon="139.0127379"><ele>732.4133333333333</ele><time>2025-03-20T03:01:25Z</time></trkpt><trkpt lat="35.3174746" lon="139.0125768"><ele>733.0733333333334</ele><time>2025-03-20T03:01:40Z</time></trkpt><trkpt lat="35.317355" lon="139.0123713"><ele>735.3133333333334</ele><time>2025-03-20T03:01:58Z</time></trkpt><trkpt lat="35.3172342" lon="139.0121557"><ele>738.1533333333333</ele><time>2025-03-20T03:02:12Z</time></trkpt><trkpt lat="35.3171335" lon="139.0119607"><ele>742.0366666666667</ele><time>2025-03-20T03:02:24Z</time></trkpt><trkpt lat="35.3169907" lon="139.0117918"><ele>745.6266666666667</ele><time>2025-03-20T03:02:39Z</time></trkpt><trkpt lat="35.3168557" lon="139.011632"><ele>747.5666666666667</ele><time>2025-03-20T03:02:54Z</time></trkpt><trkpt lat="35.3166755" lon="139.0115501"><ele>747.7666666666668</ele><time>2025-03-20T03:03:08Z</time></trkpt><trkpt lat="35.3164836" lon="139.0115182"><ele>748.8666666666667</ele><time>2025-03-20T03:03:24Z</time></trkpt><trkpt lat="35.3163093" lon="139.0114319"><ele>750.6233333333333</ele><time>2025-03-20T03:03:39Z</time></trkpt><trkpt lat="35.3161253" lon="139.0113129"><ele>752.71</ele><time>2025-03-20T03:03:54Z</time></trkpt><trkpt lat="35.3159568" lon="139.011164"><ele>753.66</ele><time>2025-03-20T03:04:09Z</time></trkpt><trkpt lat="35.3157837" lon="139.0110191"><ele>754.0466666666666</ele><time>2025-03-20T03:04:24Z</time></trkpt><trkpt lat="35.3155686" lon="139.0109428"><ele>755.5866666666667</ele><time>2025-03-20T03:04:39Z</time></trkpt><trkpt lat="35.3155204" lon="139.0107043"><ele>757.0866666666667</ele><time>2025-03-20T03:04:55Z</time></trkpt><trkpt lat="35.3156251" lon="139.0105198"><ele>760.1633333333333</ele><time>2025-03-20T03:05:07Z</time></trkpt><trkpt lat="35.3156002" lon="139.0102868"><ele>763.25</ele><time>2025-03-20T03:05:25Z</time></trkpt><trkpt lat="35.3154414" lon="139.0101765"><ele>765.7666666666668</ele><time>2025-03-20T03:05:40Z</time></trkpt><trkpt lat="35.3152582" lon="139.0101746"><ele>767.2566666666668</ele><time>2025-03-20T03:05:58Z</time></trkpt><trkpt lat="35.3150517" lon="139.0102803"><ele>768.3533333333334</ele><time>2025-03-20T03:06:16Z</time></trkpt><trkpt lat="35.3148627" lon="139.0103336"><ele>769.8566666666667</ele><time>2025-03-20T03:06:28Z</time></trkpt><trkpt lat="35.3146674" lon="139.0102738"><ele>771.88</ele><time>2025-03-20T03:06:43Z</time></trkpt><trkpt lat="35.3144728" lon="139.0102391"><ele>773.1433333333334</ele><time>2025-03-20T03:06:58Z</time></trkpt><trkpt lat="35.3142815" lon="139.0101677"><ele>774.34</ele><time>2025-03-20T03:07:13Z</time></trkpt><trkpt lat="35.3141244" lon="139.0100395"><ele>775.02</ele><time>2025-03-20T03:07:27Z</time></trkpt><trkpt lat="35.3141461" lon="139.0098102"><ele>777.06</ele><time>2025-03-20T03:07:43Z</time></trkpt><trkpt lat="35.3142006" lon="139.0095934"><ele>779.36</ele><time>2025-03-20T03:07:58Z</time></trkpt><trkpt lat="35.3141966" lon="139.0093582"><ele>782.6233333333333</ele><time>2025-03-20T03:08:13Z</time></trkpt><trkpt lat="35.3140245" lon="139.009204"><ele>784.91</ele><time>2025-03-20T03:08:33Z</time></trkpt><trkpt lat="35.313835" lon="139.0092949"><ele>787.8499999999999</ele><time>2025-03-20T03:09:22Z</time></trkpt><trkpt lat="35.3136508" lon="139.0093512"><ele>790.4499999999999</ele><time>2025-03-20T03:09:37Z</time></trkpt><trkpt lat="35.3134767" lon="139.0094418"><ele>792.7066666666666</ele><time>2025-03-20T03:09:52Z</time></trkpt><trkpt lat="35.3132848" lon="139.0094877"><ele>794.0066666666667</ele><time>2025-03-20T03:10:07Z</time></trkpt><trkpt lat="35.3130884" lon="139.0095434"><ele>795.37</ele><time>2025-03-20T03:10:22Z</time></trkpt><trkpt lat="35.3128663" lon="139.0095842"><ele>797.1833333333334</ele><time>2025-03-20T03:10:37Z</time></trkpt><trkpt lat="35.3126801" lon="139.0096207"><ele>799.0933333333334</ele><time>2025-03-20T03:10:52Z</time></trkpt><trkpt lat="35.3124922" lon="139.0096236"><ele>801.0833333333334</ele><time>2025-03-20T03:11:07Z</time></trkpt><trkpt lat="35.3122893" lon="139.0096608"><ele>803.1233333333333</ele><time>2025-03-20T03:11:22Z</time></trkpt><trkpt lat="35.3120885" lon="139.0096584"><ele>804.9166666666666</ele><time>2025-03-20T03:11:37Z</time></trkpt><trkpt lat="35.3118814" lon="139.0096874"><ele>807.3299999999999</ele><time>2025-03-20T03:11:52Z</time></trkpt><trkpt lat="35.3116766" lon="139.0097911"><ele>810.0133333333333</ele><time>2025-03-20T03:12:10Z</time></trkpt><trkpt lat="35.3114913" lon="139.0098976"><ele>812.7766666666666</ele><time>2025-03-20T03:12:25Z</time></trkpt><trkpt lat="35.3113572" lon="139.0100737"><ele>814.9233333333335</ele><time>2025-03-20T03:12:37Z</time></trkpt><trkpt lat="35.3112008" lon="139.0101932"><ele>817.0733333333334</ele><time>2025-03-20T03:12:49Z</time></trkpt><trkpt lat="35.3109967" lon="139.0102669"><ele>818.3266666666668</ele><time>2025-03-20T03:13:04Z</time></trkpt><trkpt lat="35.3108607" lon="139.0104144"><ele>819.3733333333334</ele><time>2025-03-20T03:13:18Z</time></trkpt><trkpt lat="35.3107021" lon="139.010562"><ele>820.6899999999999</ele><time>2025-03-20T03:13:33Z</time></trkpt><trkpt lat="35.3105255" lon="139.0106656"><ele>823.15</ele><time>2025-03-20T03:13:50Z</time></trkpt><trkpt lat="35.3103184" lon="139.0107073"><ele>825.58</ele><time>2025-03-20T03:14:07Z</time></trkpt><trkpt lat="35.3101223" lon="139.010654"><ele>827.02</ele><time>2025-03-20T03:14:22Z</time></trkpt><trkpt lat="35.3099291" lon="139.0105549"><ele>828.5766666666667</ele><time>2025-03-20T03:14:37Z</time></trkpt><trkpt lat="35.3097678" lon="139.0104253"><ele>829.6533333333333</ele><time>2025-03-20T03:14:52Z</time></trkpt><trkpt lat="35.3095791" lon="139.0102772"><ele>830.7366666666667</ele><time>2025-03-20T03:15:07Z</time></trkpt><trkpt lat="35.3094061" lon="139.0101826"><ele>831.2066666666666</ele><time>2025-03-20T03:15:22Z</time></trkpt><trkpt lat="35.3091855" lon="139.010096"><ele>831.5600000000001</ele><time>2025-03-20T03:15:37Z</time></trkpt><trkpt lat="35.3089687" lon="139.0100804"><ele>831.3666666666667</ele><time>2025-03-20T03:15:55Z</time></trkpt><trkpt lat="35.3087703" lon="139.0100649"><ele>831.1766666666667</ele><time>2025-03-20T03:16:10Z</time></trkpt><trkpt lat="35.3085766" lon="139.0100548"><ele>831.0866666666667</ele><time>2025-03-20T03:16:24Z</time></trkpt><trkpt lat="35.308361" lon="139.0100063"><ele>831.2866666666667</ele><time>2025-03-20T03:16:39Z</time></trkpt><trkpt lat="35.3081603" lon="139.0099483"><ele>831.31</ele><time>2025-03-20T03:16:53Z</time></trkpt><trkpt lat="35.3079398" lon="139.0098838"><ele>831.38</ele><time>2025-03-20T03:17:08Z</time></trkpt><trkpt lat="35.307736" lon="139.0098061"><ele>831.57</ele><time>2025-03-20T03:17:23Z</time></trkpt><trkpt lat="35.3075522" lon="139.0096782"><ele>831.8866666666668</ele><time>2025-03-20T03:17:37Z</time></trkpt><trkpt lat="35.3073944" lon="139.0095687"><ele>832.1933333333333</ele><time>2025-03-20T03:17:49Z</time></trkpt><trkpt lat="35.3072203" lon="139.0094392"><ele>832.4133333333333</ele><time>2025-03-20T03:18:04Z</time></trkpt><trkpt lat="35.3070328" lon="139.0093449"><ele>832.5166666666668</ele><time>2025-03-20T03:18:22Z</time></trkpt><trkpt lat="35.3068438" lon="139.009259"><ele>832.4966666666666</ele><time>2025-03-20T03:18:37Z</time></trkpt><trkpt lat="35.3066464" lon="139.0092154"><ele>833.3566666666667</ele><time>2025-03-20T03:18:52Z</time></trkpt><trkpt lat="35.3064426" lon="139.0092029"><ele>835.3866666666667</ele><time>2025-03-20T03:19:06Z</time></trkpt><trkpt lat="35.3062208" lon="139.0092196"><ele>838.2466666666668</ele><time>2025-03-20T03:19:21Z</time></trkpt><trkpt lat="35.3060084" lon="139.0092101"><ele>840.4066666666666</ele><time>2025-03-20T03:19:36Z</time></trkpt><trkpt lat="35.3058263" lon="139.0092827"><ele>842.0533333333333</ele><time>2025-03-20T03:19:48Z</time></trkpt><trkpt lat="35.3056332" lon="139.0092427"><ele>843.1866666666668</ele><time>2025-03-20T03:20:03Z</time></trkpt><trkpt lat="35.3054541" lon="139.0091812"><ele>844.2866666666667</ele><time>2025-03-20T03:20:19Z</time></trkpt><trkpt lat="35.3052763" lon="139.0091077"><ele>844.6966666666667</ele><time>2025-03-20T03:20:34Z</time></trkpt><trkpt lat="35.3051107" lon="139.008998"><ele>845.2199999999999</ele><time>2025-03-20T03:20:46Z</time></trkpt><trkpt lat="35.3049405" lon="139.0089116"><ele>846.35</ele><time>2025-03-20T03:21:24Z</time></trkpt><trkpt lat="35.3047589" lon="139.0087832"><ele>849.17</ele><time>2025-03-20T03:22:03Z</time></trkpt><trkpt lat="35.3045785" lon="139.0086525"><ele>852.1033333333334</ele><time>2025-03-20T03:22:21Z</time></trkpt><trkpt lat="35.304382" lon="139.0086107"><ele>855.5366666666667</ele><time>2025-03-20T03:22:39Z</time></trkpt><trkpt lat="35.3041875" lon="139.0085389"><ele>858.4833333333332</ele><time>2025-03-20T03:23:00Z</time></trkpt><trkpt lat="35.3040133" lon="139.008464"><ele>861.3433333333334</ele><time>2025-03-20T03:23:36Z</time></trkpt><trkpt lat="35.3038178" lon="139.0084599"><ele>863.8766666666667</ele><time>2025-03-20T03:23:57Z</time></trkpt><trkpt lat="35.3036181" lon="139.0084352"><ele>866.7866666666667</ele><time>2025-03-20T03:24:18Z</time></trkpt><trkpt lat="35.30343" lon="139.0084416"><ele>870.0866666666667</ele><time>2025-03-20T03:24:39Z</time></trkpt><trkpt lat="35.3032509" lon="139.0084037"><ele>873.5</ele><time>2025-03-20T03:24:57Z</time></trkpt><trkpt lat="35.303048" lon="139.0083497"><ele>876.73</ele><time>2025-03-20T03:25:18Z</time></trkpt><trkpt lat="35.3028578" lon="139.0082625"><ele>879.48</ele><time>2025-03-20T03:25:36Z</time></trkpt><trkpt lat="35.3026752" lon="139.0082013"><ele>881.61</ele><time>2025-03-20T03:25:54Z</time></trkpt><trkpt lat="35.3024763" lon="139.0081421"><ele>882.5766666666667</ele><time>2025-03-20T03:26:12Z</time></trkpt><trkpt lat="35.3022686" lon="139.0080649"><ele>883.68</ele><time>2025-03-20T03:26:39Z</time></trkpt><trkpt lat="35.3020826" lon="139.0079984"><ele>884.7566666666667</ele><time>2025-03-20T03:26:54Z</time></trkpt><trkpt lat="35.3018899" lon="139.007929"><ele>885.9499999999999</ele><time>2025-03-20T03:27:09Z</time></trkpt><trkpt lat="35.3017165" lon="139.007835"><ele>887.0</ele><time>2025-03-20T03:27:24Z</time></trkpt><trkpt lat="35.3015459" lon="139.0077132"><ele>887.9633333333333</ele><time>2025-03-20T03:27:39Z</time></trkpt><trkpt lat="35.3013455" lon="139.0076283"><ele>889.3066666666667</ele><time>2025-03-20T03:27:54Z</time></trkpt><trkpt lat="35.3011608" lon="139.0075805"><ele>891.2999999999998</ele><time>2025-03-20T03:28:12Z</time></trkpt><trkpt lat="35.3009715" lon="139.0075582"><ele>894.09</ele><time>2025-03-20T03:28:33Z</time></trkpt><trkpt lat="35.3007819" lon="139.0074898"><ele>897.61</ele><time>2025-03-20T03:28:54Z</time></trkpt><trkpt lat="35.3005944" lon="139.0073969"><ele>901.4166666666666</ele><time>2025-03-20T03:29:15Z</time></trkpt><trkpt lat="35.30042" lon="139.0072951"><ele>905.3233333333334</ele><time>2025-03-20T03:29:36Z</time></trkpt><trkpt lat="35.300247" lon="139.0071943"><ele>909.4166666666666</ele><time>2025-03-20T03:30:00Z</time></trkpt><trkpt lat="35.3000868" lon="139.0070782"><ele>913.7266666666668</ele><time>2025-03-20T03:30:33Z</time></trkpt><trkpt lat="35.299909" lon="139.0069803"><ele>918.9833333333335</ele><time>2025-03-20T03:31:00Z</time></trkpt><trkpt lat="35.299729" lon="139.0068663"><ele>924.4666666666667</ele><time>2025-03-20T03:31:45Z</time></trkpt><trkpt lat="35.2995565" lon="139.0067442"><ele>929.37</ele><time>2025-03-20T03:32:12Z</time></trkpt><trkpt lat="35.2993723" lon="139.0066236"><ele>932.43</ele><time>2025-03-20T03:32:39Z</time></trkpt><trkpt lat="35.2992033" lon="139.0065392"><ele>934.3400000000001</ele><time>2025-03-20T03:32:57Z</time></trkpt><trkpt lat="35.2990307" lon="139.0064586"><ele>936.1700000000001</ele><time>2025-03-20T03:33:15Z</time></trkpt><trkpt lat="35.2988375" lon="139.0063805"><ele>938.9333333333334</ele><time>2025-03-20T03:33:36Z</time></trkpt><trkpt lat="35.2986405" lon="139.0063383"><ele>941.4466666666667</ele><time>2025-03-20T03:36:18Z</time></trkpt><trkpt lat="35.2984637" lon="139.0062343"><ele>943.7566666666668</ele><time>2025-03-20T03:36:42Z</time></trkpt><trkpt lat="35.2982652" lon="139.00621"><ele>946.0500000000001</ele><time>2025-03-20T03:37:09Z</time></trkpt><trkpt lat="35.2980807" lon="139.0062129"><ele>948.35</ele><time>2025-03-20T03:37:27Z</time></trkpt><trkpt lat="35.2978903" lon="139.0062251"><ele>950.04</ele><time>2025-03-20T03:37:48Z</time></trkpt><trkpt lat="35.2977142" lon="139.0062807"><ele>949.8299999999999</ele><time>2025-03-20T03:38:06Z</time></trkpt><trkpt lat="35.2975332" lon="139.006318"><ele>948.7233333333334</ele><time>2025-03-20T03:38:24Z</time></trkpt><trkpt lat="35.2973498" lon="139.0063581"><ele>947.5233333333334</ele><time>2025-03-20T03:38:39Z</time></trkpt><trkpt lat="35.2971545" lon="139.0064193"><ele>948.2033333333334</ele><time>2025-03-20T03:38:54Z</time></trkpt><trkpt lat="35.2969955" lon="139.0065266"><ele>949.8033333333333</ele><time>2025-03-20T03:39:09Z</time></trkpt><trkpt lat="35.2967998" lon="139.0066437"><ele>952.3233333333334</ele><time>2025-03-20T03:39:30Z</time></trkpt><trkpt lat="35.296637" lon="139.0067452"><ele>954.14</ele><time>2025-03-20T03:39:45Z</time></trkpt><trkpt lat="35.296462" lon="139.0068615"><ele>956.0400000000001</ele><time>2025-03-20T03:40:03Z</time></trkpt><trkpt lat="35.2962849" lon="139.0069305"><ele>957.8133333333334</ele><time>2025-03-20T03:40:21Z</time></trkpt><trkpt lat="35.2961178" lon="139.006837"><ele>959.4333333333334</ele><time>2025-03-20T03:40:45Z</time></trkpt><trkpt lat="35.2959409" lon="139.0068927"><ele>960.6566666666668</ele><time>2025-03-20T03:41:15Z</time></trkpt><trkpt lat="35.2957387" lon="139.0068642"><ele>960.98</ele><time>2025-03-20T03:41:33Z</time></trkpt><trkpt lat="35.2955757" lon="139.0067244"><ele>960.7233333333334</ele><time>2025-03-20T03:41:54Z</time></trkpt><trkpt lat="35.2954036" lon="139.0065831"><ele>959.5233333333332</ele><time>2025-03-20T03:42:12Z</time></trkpt><trkpt lat="35.2952126" lon="139.0065358"><ele>956.6666666666666</ele><time>2025-03-20T03:42:27Z</time></trkpt><trkpt lat="35.295031" lon="139.0063981"><ele>953.5133333333333</ele><time>2025-03-20T03:42:45Z</time></trkpt><trkpt lat="35.2948776" lon="139.0062744"><ele>950.0566666666667</ele><time>2025-03-20T03:43:00Z</time></trkpt><trkpt lat="35.2946782" lon="139.0062028"><ele>948.1666666666666</ele><time>2025-03-20T03:43:15Z</time></trkpt><trkpt lat="35.2945158" lon="139.0060414"><ele>947.44</ele><time>2025-03-20T03:43:30Z</time></trkpt><trkpt lat="35.2943324" lon="139.0059204"><ele>948.2833333333334</ele><time>2025-03-20T03:43:45Z</time></trkpt><trkpt lat="35.2941629" lon="139.0058046"><ele>949.3666666666667</ele><time>2025-03-20T03:44:03Z</time></trkpt><trkpt lat="35.2940061" lon="139.0056689"><ele>951.1066666666666</ele><time>2025-03-20T03:44:24Z</time></trkpt><trkpt lat="35.2938719" lon="139.0054975"><ele>953.9733333333334</ele><time>2025-03-20T03:44:45Z</time></trkpt><trkpt lat="35.2937069" lon="139.0054011"><ele>957.64</ele><time>2025-03-20T03:45:12Z</time></trkpt><trkpt lat="35.2935513" lon="139.0052556"><ele>961.9866666666667</ele><time>2025-03-20T03:45:36Z</time></trkpt><trkpt lat="35.2933968" lon="139.0051097"><ele>967.1833333333334</ele><time>2025-03-20T03:46:15Z</time></trkpt><trkpt lat="35.2932149" lon="139.0050124"><ele>972.8166666666666</ele><time>2025-03-20T03:46:51Z</time></trkpt><trkpt lat="35.2930425" lon="139.0049214"><ele>979.2933333333334</ele><time>2025-03-20T03:47:57Z</time></trkpt><trkpt lat="35.2928847" lon="139.0047817"><ele>985.8266666666667</ele><time>2025-03-20T03:48:44Z</time></trkpt><trkpt lat="35.292819" lon="139.00456"><ele>994.5</ele><time>2025-03-20T03:49:46Z</time></trkpt><trkpt lat="35.292666" lon="139.0046895"><ele>1000.27</ele><time>2025-03-20T03:52:53Z</time></trkpt><trkpt lat="35.292467" lon="139.0046558"><ele>1007.0766666666667</ele><time>2025-03-20T03:53:29Z</time></trkpt><trkpt lat="35.2922854" lon="139.0046351"><ele>1013.52</ele><time>2025-03-20T03:54:11Z</time></trkpt><trkpt lat="35.2920895" lon="139.0046632"><ele>1023.21</ele><time>2025-03-20T03:55:20Z</time></trkpt><trkpt lat="35.2919071" lon="139.0046106"><ele>1034.04</ele><time>2025-03-20T03:56:02Z</time></trkpt><trkpt lat="35.2917334" lon="139.0046805"><ele>1045.7633333333333</ele><time>2025-03-20T03:57:44Z</time></trkpt><trkpt lat="35.291551" lon="139.0047606"><ele>1059.6466666666665</ele><time>2025-03-20T03:59:50Z</time></trkpt><trkpt lat="35.291366" lon="139.0047499"><ele>1074.2633333333333</ele><time>2025-03-20T04:00:59Z</time></trkpt><trkpt lat="35.2911855" lon="139.0047388"><ele>1088.6299999999999</ele><time>2025-03-20T04:02:50Z</time></trkpt><trkpt lat="35.2909902" lon="139.0047291"><ele>1106.323333333333</ele><time>2025-03-20T04:06:02Z</time></trkpt><trkpt lat="35.2908146" lon="139.0048739"><ele>1122.9566666666667</ele><time>2025-03-20T04:08:50Z</time></trkpt><trkpt lat="35.290629" lon="139.0048667"><ele>1141.3733333333332</ele><time>2025-03-20T04:10:02Z</time></trkpt><trkpt lat="35.2903581" lon="139.0048542"><ele>1161.2433333333336</ele><time>2025-03-20T04:12:44Z</time></trkpt><trkpt lat="35.2901846" lon="139.0049443"><ele>1179.89</ele><time>2025-03-20T04:14:26Z</time></trkpt><trkpt lat="35.2899951" lon="139.0048719"><ele>1195.5900000000001</ele><time>2025-03-20T04:14:59Z</time></trkpt><trkpt lat="35.2898228" lon="139.0048025"><ele>1203.66</ele><time>2025-03-20T04:15:32Z</time></trkpt><trkpt lat="35.289636" lon="139.0049045"><ele>1208.7033333333336</ele><time>2025-03-20T04:27:05Z</time></trkpt><trkpt lat="35.289514" lon="139.0050938"><ele>1210.36</ele><time>2025-03-20T04:28:05Z</time></trkpt><trkpt lat="35.2894198" lon="139.0052826"><ele>1207.2833333333335</ele><time>2025-03-20T04:28:26Z</time></trkpt><trkpt lat="35.289413" lon="139.0055253"><ele>1200.46</ele><time>2025-03-20T04:29:20Z</time></trkpt><trkpt lat="35.2893973" lon="139.0057539"><ele>1189.7333333333333</ele><time>2025-03-20T04:29:47Z</time></trkpt><trkpt lat="35.2892932" lon="139.0059603"><ele>1177.6033333333332</ele><time>2025-03-20T04:31:13Z</time></trkpt><trkpt lat="35.2891783" lon="139.0061526"><ele>1166.0066666666667</ele><time>2025-03-20T04:31:35Z</time></trkpt><trkpt lat="35.2890474" lon="139.0063527"><ele>1157.9566666666667</ele><time>2025-03-20T04:32:05Z</time></trkpt><trkpt lat="35.2889242" lon="139.006515"><ele>1150.8266666666666</ele><time>2025-03-20T04:32:32Z</time></trkpt><trkpt lat="35.2887661" lon="139.0066543"><ele>1145.3100000000002</ele><time>2025-03-20T04:33:08Z</time></trkpt><trkpt lat="35.2886007" lon="139.0067485"><ele>1138.3766666666668</ele><time>2025-03-20T04:34:02Z</time></trkpt><trkpt lat="35.2884439" lon="139.0068737"><ele>1132.0600000000002</ele><time>2025-03-20T04:34:41Z</time></trkpt><trkpt lat="35.2882389" lon="139.0069874"><ele>1124.7933333333333</ele><time>2025-03-20T04:36:20Z</time></trkpt><trkpt lat="35.2880788" lon="139.0071087"><ele>1114.25</ele><time>2025-03-20T04:37:02Z</time></trkpt><trkpt lat="35.2878967" lon="139.0071919"><ele>1102.2866666666666</ele><time>2025-03-20T04:37:44Z</time></trkpt><trkpt lat="35.2876931" lon="139.0072047"><ele>1094.23</ele><time>2025-03-20T04:38:08Z</time></trkpt><trkpt lat="35.2875013" lon="139.0072653"><ele>1091.4833333333333</ele><time>2025-03-20T04:38:28Z</time></trkpt><trkpt lat="35.2873203" lon="139.007342"><ele>1090.9166666666667</ele><time>2025-03-20T04:38:55Z</time></trkpt><trkpt lat="35.2871476" lon="139.007425"><ele>1085.0266666666666</ele><time>2025-03-20T04:39:29Z</time></trkpt><trkpt lat="35.2870069" lon="139.0075975"><ele>1075.7766666666666</ele><time>2025-03-20T04:40:02Z</time></trkpt><trkpt lat="35.2868454" lon="139.0077081"><ele>1064.53</ele><time>2025-03-20T04:40:35Z</time></trkpt><trkpt lat="35.2866711" lon="139.0078734"><ele>1054.4433333333334</ele><time>2025-03-20T04:41:20Z</time></trkpt><trkpt lat="35.2865551" lon="139.0076994"><ele>1048.83</ele><time>2025-03-20T04:41:59Z</time></trkpt><trkpt lat="35.2865661" lon="139.0074719"><ele>1045.6933333333334</ele><time>2025-03-20T04:42:47Z</time></trkpt><trkpt lat="35.2866135" lon="139.0072494"><ele>1041.9799999999998</ele><time>2025-03-20T04:43:17Z</time></trkpt><trkpt lat="35.2865906" lon="139.0070051"><ele>1036.7266666666667</ele><time>2025-03-20T04:43:44Z</time></trkpt><trkpt lat="35.2865726" lon="139.0067844"><ele>1031.6899999999998</ele><time>2025-03-20T04:44:11Z</time></trkpt><trkpt lat="35.2866679" lon="139.0065718"><ele>1028.27</ele><time>2025-03-20T04:44:44Z</time></trkpt><trkpt lat="35.2864733" lon="139.0065981"><ele>1023.3000000000001</ele><time>2025-03-20T04:45:29Z</time></trkpt><trkpt lat="35.2863085" lon="139.0066917"><ele>1016.1666666666666</ele><time>2025-03-20T04:46:02Z</time></trkpt><trkpt lat="35.2861346" lon="139.0067559"><ele>1006.5466666666666</ele><time>2025-03-20T04:46:41Z</time></trkpt><trkpt lat="35.2859772" lon="139.0066412"><ele>996.3366666666667</ele><time>2025-03-20T04:47:14Z</time></trkpt><trkpt lat="35.2858763" lon="139.0064555"><ele>987.59</ele><time>2025-03-20T04:47:44Z</time></trkpt><trkpt lat="35.2857206" lon="139.0065864"><ele>980.4</ele><time>2025-03-20T04:48:32Z</time></trkpt><trkpt lat="35.2855208" lon="139.0065007"><ele>971.43</ele><time>2025-03-20T04:49:44Z</time></trkpt><trkpt lat="35.2853948" lon="139.006337"><ele>960.23</ele><time>2025-03-20T04:50:38Z</time></trkpt><trkpt lat="35.2852393" lon="139.0062147"><ele>947.41</ele><time>2025-03-20T04:51:41Z</time></trkpt><trkpt lat="35.2850578" lon="139.0063287"><ele>937.25</ele><time>2025-03-20T04:52:11Z</time></trkpt><trkpt lat="35.2849268" lon="139.0061653"><ele>927.3100000000001</ele><time>2025-03-20T04:53:01Z</time></trkpt><trkpt lat="35.2847752" lon="139.0060365"><ele>917.32</ele><time>2025-03-20T04:54:02Z</time></trkpt><trkpt lat="35.2845722" lon="139.0060641"><ele>906.27</ele><time>2025-03-20T04:54:35Z</time></trkpt><trkpt lat="35.284412" lon="139.0061739"><ele>895.6833333333334</ele><time>2025-03-20T04:55:14Z</time></trkpt><trkpt lat="35.2843957" lon="139.0059528"><ele>888.9566666666666</ele><time>2025-03-20T04:55:41Z</time></trkpt><trkpt lat="35.2844729" lon="139.0057232"><ele>884.6633333333333</ele><time>2025-03-20T04:55:59Z</time></trkpt><trkpt lat="35.2846159" lon="139.0055518"><ele>883.57</ele><time>2025-03-20T04:56:20Z</time></trkpt><trkpt lat="35.2847058" lon="139.0053578"><ele>880.61</ele><time>2025-03-20T04:56:50Z</time></trkpt><trkpt lat="35.2847014" lon="139.0050966"><ele>875.27</ele><time>2025-03-20T04:57:05Z</time></trkpt><trkpt lat="35.2848297" lon="139.0049251"><ele>869.4033333333333</ele><time>2025-03-20T04:57:32Z</time></trkpt><trkpt lat="35.2848409" lon="139.0046898"><ele>863.5433333333334</ele><time>2025-03-20T04:57:56Z</time></trkpt><trkpt lat="35.2848679" lon="139.0044493"><ele>858.7466666666668</ele><time>2025-03-20T04:58:17Z</time></trkpt><trkpt lat="35.284986" lon="139.0042737"><ele>852.7033333333334</ele><time>2025-03-20T04:58:35Z</time></trkpt><trkpt lat="35.2849359" lon="139.0040364"><ele>848.6833333333334</ele><time>2025-03-20T04:59:14Z</time></trkpt><trkpt lat="35.28497" lon="139.0038128"><ele>846.2366666666667</ele><time>2025-03-20T04:59:32Z</time></trkpt><trkpt lat="35.2850543" lon="139.0036154"><ele>845.1633333333333</ele><time>2025-03-20T04:59:53Z</time></trkpt><trkpt lat="35.2849367" lon="139.0034458"><ele>843.9866666666667</ele><time>2025-03-20T05:00:26Z</time></trkpt><trkpt lat="35.2847386" lon="139.0035171"><ele>840.79</ele><time>2025-03-20T05:00:56Z</time></trkpt><trkpt lat="35.2846014" lon="139.0033638"><ele>836.3266666666667</ele><time>2025-03-20T05:01:35Z</time></trkpt><trkpt lat="35.2844231" lon="139.0033146"><ele>830.1733333333333</ele><time>2025-03-20T05:02:02Z</time></trkpt><trkpt lat="35.2842262" lon="139.003288"><ele>824.6533333333333</ele><time>2025-03-20T05:02:26Z</time></trkpt><trkpt lat="35.2840436" lon="139.0032507"><ele>819.33</ele><time>2025-03-20T05:02:50Z</time></trkpt><trkpt lat="35.2838429" lon="139.0033083"><ele>814.3100000000001</ele><time>2025-03-20T05:03:14Z</time></trkpt><trkpt lat="35.2836424" lon="139.0032619"><ele>809.7766666666666</ele><time>2025-03-20T05:03:50Z</time></trkpt><trkpt lat="35.2834697" lon="139.003346"><ele>805.4233333333333</ele><time>2025-03-20T05:04:17Z</time></trkpt><trkpt lat="35.2832863" lon="139.0032782"><ele>801.02</ele><time>2025-03-20T05:04:44Z</time></trkpt><trkpt lat="35.2830845" lon="139.0032953"><ele>796.1966666666667</ele><time>2025-03-20T05:05:14Z</time></trkpt><trkpt lat="35.2828673" lon="139.003351"><ele>791.0633333333334</ele><time>2025-03-20T05:05:44Z</time></trkpt><trkpt lat="35.2826553" lon="139.0033097"><ele>786.5233333333334</ele><time>2025-03-20T05:06:08Z</time></trkpt><trkpt lat="35.2824621" lon="139.0033202"><ele>782.57</ele><time>2025-03-20T05:06:29Z</time></trkpt><trkpt lat="35.2822666" lon="139.0032911"><ele>777.5666666666666</ele><time>2025-03-20T05:06:50Z</time></trkpt><trkpt lat="35.2820714" lon="139.0032351"><ele>772.4866666666667</ele><time>2025-03-20T05:07:14Z</time></trkpt><trkpt lat="35.2818802" lon="139.0032742"><ele>767.1033333333334</ele><time>2025-03-20T05:07:35Z</time></trkpt><trkpt lat="35.2817082" lon="139.0033439"><ele>762.3866666666668</ele><time>2025-03-20T05:07:53Z</time></trkpt><trkpt lat="35.2815261" lon="139.003432"><ele>757.7766666666666</ele><time>2025-03-20T05:08:14Z</time></trkpt><trkpt lat="35.2813302" lon="139.00337"><ele>753.2933333333334</ele><time>2025-03-20T05:08:35Z</time></trkpt><trkpt lat="35.2811197" lon="139.0033144"><ele>748.6433333333333</ele><time>2025-03-20T05:08:53Z</time></trkpt><trkpt lat="35.2809162" lon="139.0033009"><ele>743.4633333333333</ele><time>2025-03-20T05:09:17Z</time></trkpt><trkpt lat="35.2807117" lon="139.0032605"><ele>738.43</ele><time>2025-03-20T05:09:38Z</time></trkpt><trkpt lat="35.2805251" lon="139.0032673"><ele>734.4933333333333</ele><time>2025-03-20T05:09:56Z</time></trkpt><trkpt lat="35.2803329" lon="139.0032044"><ele>731.5300000000001</ele><time>2025-03-20T05:10:17Z</time></trkpt><trkpt lat="35.2801623" lon="139.0031084"><ele>728.64</ele><time>2025-03-20T05:10:38Z</time></trkpt><trkpt lat="35.2799751" lon="139.0030432"><ele>725.57</ele><time>2025-03-20T05:10:56Z</time></trkpt><trkpt lat="35.2797965" lon="139.002911"><ele>721.75</ele><time>2025-03-20T05:11:14Z</time></trkpt><trkpt lat="35.2796079" lon="139.0028236"><ele>717.9899999999999</ele><time>2025-03-20T05:11:32Z</time></trkpt><trkpt lat="35.2794527" lon="139.0027112"><ele>714.77</ele><time>2025-03-20T05:11:47Z</time></trkpt><trkpt lat="35.279302" lon="139.0025864"><ele>712.4233333333333</ele><time>2025-03-20T05:12:02Z</time></trkpt><trkpt lat="35.2790631" lon="139.0024184"><ele>710.34</ele><time>2025-03-20T05:12:35Z</time></trkpt><trkpt lat="35.2788818" lon="139.002414"><ele>707.7599999999999</ele><time>2025-03-20T05:12:47Z</time></trkpt><trkpt lat="35.2787418" lon="139.0026044"><ele>704.9866666666667</ele><time>2025-03-20T05:13:11Z</time></trkpt><trkpt lat="35.278527" lon="139.0026464"><ele>702.2366666666667</ele><time>2025-03-20T05:13:26Z</time></trkpt><trkpt lat="35.2783279" lon="139.0027047"><ele>699.4133333333334</ele><time>2025-03-20T05:13:44Z</time></trkpt></trkseg></trk></gpx>