<?xml version='1.0' encoding='UTF-8'?><gpx creator="YAMAP - https://yamap.com" xsi:schemaLocation="http://www.topografix.com/GPX/1/1 http://www.topografix.com/GPX/1/1/gpx.xsd" version="1.1" xmlns="http://www.topografix.com/GPX/1/1" xmlns:xsi="http://www.w3.org/2001/XMLSchema-instance"><metadata><bounds maxlat="35.7898105" maxlon="139.1808127" minlat="35.7244981" minlon="139.1291141"/></metadata><trk><name>馬頭刈尾根から大岳山</name><number>1</number><trkseg><trkpt lat="35.7244981" lon="139.1804728"><ele>232.27</ele><time>2023-09-08T23:00:23Z</time></trkpt><trkpt lat="35.7246673" lon="139.1803657"><ele>231.87</ele><time>2023-09-08T23:00:53Z</time></trkpt><trkpt lat="35.7248607" lon="139.1803684"><ele>231.01</ele><time>2023-09-08T23:01:08Z</time></trkpt><trkpt lat="35.725029" lon="139.1804492"><ele>228.35333333333332</ele><time>2023-09-08T23:01:19Z</time></trkpt><trkpt lat="35.7252058" lon="139.1805283"><ele>222.9466666666667</ele><time>2023-09-08T23:01:33Z</time></trkpt><trkpt lat="35.725376" lon="139.1806286"><ele>220.32333333333335</ele><time>2023-09-08T23:01:48Z</time></trkpt><trkpt lat="35.7255568" lon="139.1807076"><ele>222.69333333333336</ele><time>2023-09-08T23:02:03Z</time></trkpt><trkpt lat="35.725723" lon="139.1808127"><ele>229.19000000000003</ele><time>2023-09-08T23:02:18Z</time></trkpt><trkpt lat="35.7259077" lon="139.1807987"><ele>234.73666666666668</ele><time>2023-09-08T23:02:32Z</time></trkpt><trkpt lat="35.7260646" lon="139.1806785"><ele>237.58</ele><time>2023-09-08T23:02:45Z</time></trkpt><trkpt lat="35.7261999" lon="139.1805173"><ele>239.70000000000002</ele><time>2023-09-08T23:02:59Z</time></trkpt><trkpt lat="35.7263379" lon="139.1803608"><ele>240.82666666666668</ele><time>2023-09-08T23:03:13Z</time></trkpt><trkpt lat="35.7264601" lon="139.1801774"><ele>241.68666666666664</ele><time>2023-09-08T23:03:28Z</time></trkpt><trkpt lat="35.7265903" lon="139.1800136"><ele>243.13333333333335</ele><time>2023-09-08T23:03:40Z</time></trkpt><trkpt lat="35.7266921" lon="139.1798268"><ele>245.07333333333335</ele><time>2023-09-08T23:03:56Z</time></trkpt><trkpt lat="35.7268066" lon="139.1796295"><ele>247.41333333333333</ele><time>2023-09-08T23:04:11Z</time></trkpt><trkpt lat="35.7267283" lon="139.1794293"><ele>249.31000000000003</ele><time>2023-09-08T23:04:26Z</time></trkpt><trkpt lat="35.7268896" lon="139.1793248"><ele>251.49666666666667</ele><time>2023-09-08T23:04:52Z</time></trkpt><trkpt lat="35.7269652" lon="139.1791234"><ele>254.02666666666664</ele><time>2023-09-08T23:05:09Z</time></trkpt><trkpt lat="35.7271548" lon="139.1791218"><ele>257.1333333333333</ele><time>2023-09-08T23:05:27Z</time></trkpt><trkpt lat="35.7273107" lon="139.1792333"><ele>260.7933333333333</ele><time>2023-09-08T23:05:39Z</time></trkpt><trkpt lat="35.7274821" lon="139.1793046"><ele>263.53333333333336</ele><time>2023-09-08T23:05:54Z</time></trkpt><trkpt lat="35.7276599" lon="139.1793725"><ele>265.40333333333336</ele><time>2023-09-08T23:06:16Z</time></trkpt><trkpt lat="35.7278342" lon="139.1794686"><ele>266.5166666666667</ele><time>2023-09-08T23:06:34Z</time></trkpt><trkpt lat="35.7279691" lon="139.1793215"><ele>269.2366666666667</ele><time>2023-09-08T23:06:51Z</time></trkpt><trkpt lat="35.728147" lon="139.1793585"><ele>273.37666666666667</ele><time>2023-09-08T23:07:03Z</time></trkpt><trkpt lat="35.728277" lon="139.179517"><ele>276.18333333333334</ele><time>2023-09-08T23:07:17Z</time></trkpt><trkpt lat="35.7284569" lon="139.1795378"><ele>276.13666666666666</ele><time>2023-09-08T23:07:32Z</time></trkpt><trkpt lat="35.7286424" lon="139.1794894"><ele>275.7033333333334</ele><time>2023-09-08T23:07:47Z</time></trkpt><trkpt lat="35.7288119" lon="139.1793955"><ele>277.1133333333333</ele><time>2023-09-08T23:08:00Z</time></trkpt><trkpt lat="35.7290136" lon="139.1794131"><ele>279.34666666666664</ele><time>2023-09-08T23:08:12Z</time></trkpt><trkpt lat="35.7291999" lon="139.1793997"><ele>279.8</ele><time>2023-09-08T23:08:36Z</time></trkpt><trkpt lat="35.7293815" lon="139.1794422"><ele>277.8433333333333</ele><time>2023-09-08T23:08:51Z</time></trkpt><trkpt lat="35.7295641" lon="139.1794697"><ele>276.1366666666667</ele><time>2023-09-08T23:09:00Z</time></trkpt><trkpt lat="35.72974" lon="139.1795328"><ele>274.08</ele><time>2023-09-08T23:09:15Z</time></trkpt><trkpt lat="35.7299161" lon="139.17947"><ele>273.9033333333333</ele><time>2023-09-08T23:09:27Z</time></trkpt><trkpt lat="35.7300797" lon="139.1793399"><ele>275.15000000000003</ele><time>2023-09-08T23:09:41Z</time></trkpt><trkpt lat="35.7302749" lon="139.1793224"><ele>276.7</ele><time>2023-09-08T23:09:54Z</time></trkpt><trkpt lat="35.7304488" lon="139.1794155"><ele>278.77333333333337</ele><time>2023-09-08T23:10:04Z</time></trkpt><trkpt lat="35.7305229" lon="139.1796277"><ele>279.69</ele><time>2023-09-08T23:10:21Z</time></trkpt><trkpt lat="35.7305287" lon="139.1798507"><ele>280.26</ele><time>2023-09-08T23:10:37Z</time></trkpt><trkpt lat="35.7305926" lon="139.1800584"><ele>279.18333333333334</ele><time>2023-09-08T23:10:51Z</time></trkpt><trkpt lat="35.7306157" lon="139.1803063"><ele>275.5133333333333</ele><time>2023-09-08T23:11:07Z</time></trkpt><trkpt lat="35.7307397" lon="139.180467"><ele>273.91333333333336</ele><time>2023-09-08T23:12:17Z</time></trkpt><trkpt lat="35.7308328" lon="139.1802679"><ele>277.49666666666667</ele><time>2023-09-08T23:13:46Z</time></trkpt><trkpt lat="35.7308204" lon="139.1800359"><ele>285.59666666666664</ele><time>2023-09-08T23:13:58Z</time></trkpt><trkpt lat="35.7307863" lon="139.1797859"><ele>294.05</ele><time>2023-09-08T23:14:24Z</time></trkpt><trkpt lat="35.7306495" lon="139.1796351"><ele>296.16333333333336</ele><time>2023-09-08T23:14:45Z</time></trkpt><trkpt lat="35.7306659" lon="139.1794138"><ele>296.88</ele><time>2023-09-08T23:15:06Z</time></trkpt><trkpt lat="35.7307795" lon="139.1792416"><ele>299.66</ele><time>2023-09-08T23:15:49Z</time></trkpt><trkpt lat="35.730958" lon="139.1793001"><ele>308.42</ele><time>2023-09-08T23:18:29Z</time></trkpt><trkpt lat="35.7311116" lon="139.1794266"><ele>319.94</ele><time>2023-09-08T23:19:54Z</time></trkpt><trkpt lat="35.7312884" lon="139.1794832"><ele>333.0566666666667</ele><time>2023-09-08T23:20:59Z</time></trkpt><trkpt lat="35.731468" lon="139.1794602"><ele>343.81</ele><time>2023-09-08T23:21:20Z</time></trkpt><trkpt lat="35.7316431" lon="139.1793883"><ele>352.6666666666667</ele><time>2023-09-08T23:22:11Z</time></trkpt><trkpt lat="35.7317801" lon="139.1792444"><ele>358.16</ele><time>2023-09-08T23:23:09Z</time></trkpt><trkpt lat="35.7319317" lon="139.1791197"><ele>363.3633333333334</ele><time>2023-09-08T23:23:41Z</time></trkpt><trkpt lat="35.7320999" lon="139.1790313"><ele>370.66333333333336</ele><time>2023-09-08T23:25:09Z</time></trkpt><trkpt lat="35.7322105" lon="139.1788529"><ele>379.19666666666666</ele><time>2023-09-08T23:26:48Z</time></trkpt><trkpt lat="35.7322417" lon="139.1786332"><ele>387.2633333333333</ele><time>2023-09-08T23:27:10Z</time></trkpt><trkpt lat="35.732302" lon="139.1784064"><ele>390.55</ele><time>2023-09-08T23:27:23Z</time></trkpt><trkpt lat="35.7322542" lon="139.1781829"><ele>392.67</ele><time>2023-09-08T23:28:10Z</time></trkpt><trkpt lat="35.7321397" lon="139.1779937"><ele>395.8</ele><time>2023-09-08T23:28:28Z</time></trkpt><trkpt lat="35.7321235" lon="139.1777719"><ele>401.48333333333335</ele><time>2023-09-08T23:29:28Z</time></trkpt><trkpt lat="35.7321517" lon="139.1775484"><ele>407.94666666666666</ele><time>2023-09-08T23:30:02Z</time></trkpt><trkpt lat="35.7322413" lon="139.1773564"><ele>413.6033333333333</ele><time>2023-09-08T23:30:51Z</time></trkpt><trkpt lat="35.7323824" lon="139.1772121"><ele>418.75333333333333</ele><time>2023-09-08T23:31:18Z</time></trkpt><trkpt lat="35.7325385" lon="139.1770935"><ele>423.7166666666667</ele><time>2023-09-08T23:31:33Z</time></trkpt><trkpt lat="35.7326575" lon="139.176921"><ele>428.08</ele><time>2023-09-08T23:31:56Z</time></trkpt><trkpt lat="35.7327773" lon="139.1767526"><ele>432.35666666666674</ele><time>2023-09-08T23:32:39Z</time></trkpt><trkpt lat="35.732861" lon="139.1765439"><ele>434.07</ele><time>2023-09-08T23:33:06Z</time></trkpt><trkpt lat="35.7330056" lon="139.1764087"><ele>435.1333333333334</ele><time>2023-09-08T23:33:22Z</time></trkpt><trkpt lat="35.733177" lon="139.176305"><ele>435.7266666666667</ele><time>2023-09-08T23:33:37Z</time></trkpt><trkpt lat="35.7333233" lon="139.1761621"><ele>439.7166666666667</ele><time>2023-09-08T23:35:10Z</time></trkpt><trkpt lat="35.7334769" lon="139.1760311"><ele>445.08666666666664</ele><time>2023-09-08T23:36:03Z</time></trkpt><trkpt lat="35.7335285" lon="139.1758103"><ele>453.3533333333333</ele><time>2023-09-08T23:36:41Z</time></trkpt><trkpt lat="35.7336174" lon="139.1756176"><ele>459.84666666666664</ele><time>2023-09-08T23:37:48Z</time></trkpt><trkpt lat="35.7336212" lon="139.1753914"><ele>466.9266666666667</ele><time>2023-09-08T23:38:33Z</time></trkpt><trkpt lat="35.7337705" lon="139.1752669"><ele>472.59</ele><time>2023-09-08T23:39:34Z</time></trkpt><trkpt lat="35.7339616" lon="139.1752399"><ele>477.77</ele><time>2023-09-08T23:39:54Z</time></trkpt><trkpt lat="35.73417" lon="139.1752112"><ele>483.4533333333334</ele><time>2023-09-08T23:40:29Z</time></trkpt><trkpt lat="35.7343427" lon="139.1751396"><ele>490.6366666666667</ele><time>2023-09-08T23:41:38Z</time></trkpt><trkpt lat="35.734524" lon="139.1751538"><ele>497.8766666666667</ele><time>2023-09-08T23:43:01Z</time></trkpt><trkpt lat="35.7347121" lon="139.1751021"><ele>505.3</ele><time>2023-09-08T23:44:30Z</time></trkpt><trkpt lat="35.7348852" lon="139.1749947"><ele>512.7766666666666</ele><time>2023-09-08T23:45:43Z</time></trkpt><trkpt lat="35.7350601" lon="139.1749391"><ele>521.9366666666666</ele><time>2023-09-08T23:46:42Z</time></trkpt><trkpt lat="35.7352409" lon="139.1749107"><ele>530.7333333333332</ele><time>2023-09-08T23:47:55Z</time></trkpt><trkpt lat="35.7354227" lon="139.1749235"><ele>538.27</ele><time>2023-09-08T23:48:53Z</time></trkpt><trkpt lat="35.7356025" lon="139.1749699"><ele>546.7566666666667</ele><time>2023-09-08T23:49:28Z</time></trkpt><trkpt lat="35.735773" lon="139.1750552"><ele>555.4233333333333</ele><time>2023-09-08T23:51:14Z</time></trkpt><trkpt lat="35.7359549" lon="139.1750665"><ele>564.6766666666666</ele><time>2023-09-08T23:52:22Z</time></trkpt><trkpt lat="35.7361349" lon="139.1750861"><ele>572.1266666666667</ele><time>2023-09-08T23:53:38Z</time></trkpt><trkpt lat="35.7363183" lon="139.1749951"><ele>578.1766666666667</ele><time>2023-09-08T23:54:41Z</time></trkpt><trkpt lat="35.7364611" lon="139.1748478"><ele>583.3433333333334</ele><time>2023-09-08T23:55:23Z</time></trkpt><trkpt lat="35.7366011" lon="139.1747063"><ele>587.3666666666667</ele><time>2023-09-08T23:55:43Z</time></trkpt><trkpt lat="35.7367824" lon="139.1746461"><ele>589.9866666666666</ele><time>2023-09-08T23:56:00Z</time></trkpt><trkpt lat="35.7369249" lon="139.1745098"><ele>592.4333333333334</ele><time>2023-09-08T23:57:11Z</time></trkpt><trkpt lat="35.7370909" lon="139.1744175"><ele>595.09</ele><time>2023-09-08T23:57:54Z</time></trkpt><trkpt lat="35.7372719" lon="139.1743946"><ele>598.4133333333333</ele><time>2023-09-08T23:58:32Z</time></trkpt><trkpt lat="35.7374515" lon="139.1743666"><ele>601.3733333333333</ele><time>2023-09-08T23:58:57Z</time></trkpt><trkpt lat="35.7376025" lon="139.1742363"><ele>604.2433333333333</ele><time>2023-09-08T23:59:34Z</time></trkpt><trkpt lat="35.7377251" lon="139.1740706"><ele>608.75</ele><time>2023-09-09T00:00:45Z</time></trkpt><trkpt lat="35.7377846" lon="139.1738461"><ele>614.6566666666666</ele><time>2023-09-09T00:01:46Z</time></trkpt><trkpt lat="35.7378621" lon="139.1736406"><ele>621.4833333333333</ele><time>2023-09-09T00:02:14Z</time></trkpt><trkpt lat="35.738003" lon="139.1734989"><ele>627.6766666666667</ele><time>2023-09-09T00:03:14Z</time></trkpt><trkpt lat="35.7381321" lon="139.1733294"><ele>633.2333333333335</ele><time>2023-09-09T00:03:55Z</time></trkpt><trkpt lat="35.7382403" lon="139.1731491"><ele>638.4666666666667</ele><time>2023-09-09T00:04:22Z</time></trkpt><trkpt lat="35.7383564" lon="139.1729729"><ele>643.85</ele><time>2023-09-09T00:05:02Z</time></trkpt><trkpt lat="35.738408" lon="139.1727596"><ele>648.44</ele><time>2023-09-09T00:05:41Z</time></trkpt><trkpt lat="35.7384958" lon="139.1725477"><ele>652.43</ele><time>2023-09-09T00:06:04Z</time></trkpt><trkpt lat="35.7386765" lon="139.1726044"><ele>655.64</ele><time>2023-09-09T00:07:02Z</time></trkpt><trkpt lat="35.738775" lon="139.1724171"><ele>659.09</ele><time>2023-09-09T00:07:32Z</time></trkpt><trkpt lat="35.7389454" lon="139.1722851"><ele>664.3366666666667</ele><time>2023-09-09T00:08:49Z</time></trkpt><trkpt lat="35.7390789" lon="139.1721258"><ele>671.9200000000001</ele><time>2023-09-09T00:09:34Z</time></trkpt><trkpt lat="35.7392288" lon="139.1719538"><ele>679.8066666666667</ele><time>2023-09-09T00:11:04Z</time></trkpt><trkpt lat="35.7394127" lon="139.1719296"><ele>688.0133333333333</ele><time>2023-09-09T00:11:28Z</time></trkpt><trkpt lat="35.739558" lon="139.1720736"><ele>693.8433333333332</ele><time>2023-09-09T00:12:07Z</time></trkpt><trkpt lat="35.7397386" lon="139.1720206"><ele>699.48</ele><time>2023-09-09T00:13:04Z</time></trkpt><trkpt lat="35.7399337" lon="139.171941"><ele>704.5966666666667</ele><time>2023-09-09T00:13:31Z</time></trkpt><trkpt lat="35.7401042" lon="139.1718669"><ele>711.5033333333334</ele><time>2023-09-09T00:14:25Z</time></trkpt><trkpt lat="35.7402828" lon="139.171807"><ele>717.5300000000001</ele><time>2023-09-09T00:14:59Z</time></trkpt><trkpt lat="35.7404894" lon="139.1717113"><ele>722.4133333333333</ele><time>2023-09-09T00:15:24Z</time></trkpt><trkpt lat="35.7406698" lon="139.1717132"><ele>726.7166666666667</ele><time>2023-09-09T00:16:36Z</time></trkpt><trkpt lat="35.7408309" lon="139.1716094"><ele>732.4033333333333</ele><time>2023-09-09T00:17:12Z</time></trkpt><trkpt lat="35.7409898" lon="139.1714363"><ele>740.09</ele><time>2023-09-09T00:18:09Z</time></trkpt><trkpt lat="35.7411691" lon="139.1713786"><ele>749.9</ele><time>2023-09-09T00:19:18Z</time></trkpt><trkpt lat="35.741349" lon="139.1712473"><ele>758.9333333333334</ele><time>2023-09-09T00:20:57Z</time></trkpt><trkpt lat="35.7415235" lon="139.171187"><ele>767.1333333333333</ele><time>2023-09-09T00:21:30Z</time></trkpt><trkpt lat="35.7416751" lon="139.1710503"><ele>773.2066666666666</ele><time>2023-09-09T00:22:54Z</time></trkpt><trkpt lat="35.7417975" lon="139.1708738"><ele>779.81</ele><time>2023-09-09T00:23:51Z</time></trkpt><trkpt lat="35.7419908" lon="139.1708168"><ele>785.4733333333334</ele><time>2023-09-09T00:24:54Z</time></trkpt><trkpt lat="35.7421829" lon="139.1707487"><ele>789.4966666666666</ele><time>2023-09-09T00:25:45Z</time></trkpt><trkpt lat="35.7423359" lon="139.1705712"><ele>791.7633333333333</ele><time>2023-09-09T00:26:03Z</time></trkpt><trkpt lat="35.7424445" lon="139.1703841"><ele>792.8033333333333</ele><time>2023-09-09T00:26:18Z</time></trkpt><trkpt lat="35.7424438" lon="139.1701414"><ele>793.2866666666667</ele><time>2023-09-09T00:26:36Z</time></trkpt><trkpt lat="35.7424579" lon="139.1699169"><ele>792.7533333333334</ele><time>2023-09-09T00:26:57Z</time></trkpt><trkpt lat="35.7425627" lon="139.1697057"><ele>788.8466666666668</ele><time>2023-09-09T00:27:39Z</time></trkpt><trkpt lat="35.7426273" lon="139.1694794"><ele>782.04</ele><time>2023-09-09T00:27:54Z</time></trkpt><trkpt lat="35.7424843" lon="139.1693397"><ele>779.0666666666667</ele><time>2023-09-09T00:28:17Z</time></trkpt><trkpt lat="35.7425426" lon="139.1691271"><ele>777.66</ele><time>2023-09-09T00:28:44Z</time></trkpt><trkpt lat="35.7424938" lon="139.1689022"><ele>781.1033333333334</ele><time>2023-09-09T00:29:08Z</time></trkpt><trkpt lat="35.742459" lon="139.1686841"><ele>783.2366666666667</ele><time>2023-09-09T00:29:47Z</time></trkpt><trkpt lat="35.742448" lon="139.1684612"><ele>786.9533333333334</ele><time>2023-09-09T00:30:11Z</time></trkpt><trkpt lat="35.7423682" lon="139.1682508"><ele>789.5966666666667</ele><time>2023-09-09T00:30:35Z</time></trkpt><trkpt lat="35.7423071" lon="139.1680196"><ele>792.6</ele><time>2023-09-09T00:31:20Z</time></trkpt><trkpt lat="35.7423781" lon="139.1678026"><ele>796.1766666666667</ele><time>2023-09-09T00:34:00Z</time></trkpt><trkpt lat="35.7422627" lon="139.1676259"><ele>801.9166666666666</ele><time>2023-09-09T00:35:18Z</time></trkpt><trkpt lat="35.742139" lon="139.1674632"><ele>807.43</ele><time>2023-09-09T00:36:00Z</time></trkpt><trkpt lat="35.7419407" lon="139.167436"><ele>816.1933333333333</ele><time>2023-09-09T00:36:30Z</time></trkpt><trkpt lat="35.7419029" lon="139.1672185"><ele>823.2066666666666</ele><time>2023-09-09T00:37:00Z</time></trkpt><trkpt lat="35.7418872" lon="139.1669966"><ele>827.27</ele><time>2023-09-09T00:37:27Z</time></trkpt><trkpt lat="35.741786" lon="139.1667749"><ele>826.32</ele><time>2023-09-09T00:37:57Z</time></trkpt><trkpt lat="35.7417078" lon="139.1665558"><ele>826.4366666666666</ele><time>2023-09-09T00:38:27Z</time></trkpt><trkpt lat="35.7416373" lon="139.1663322"><ele>829.32</ele><time>2023-09-09T00:39:45Z</time></trkpt><trkpt lat="35.7415224" lon="139.1661589"><ele>836.2866666666667</ele><time>2023-09-09T00:40:18Z</time></trkpt><trkpt lat="35.7414558" lon="139.1659375"><ele>845.35</ele><time>2023-09-09T00:42:21Z</time></trkpt><trkpt lat="35.7413731" lon="139.1657281"><ele>855.6133333333333</ele><time>2023-09-09T00:43:00Z</time></trkpt><trkpt lat="35.7414362" lon="139.1654998"><ele>865.16</ele><time>2023-09-09T00:43:33Z</time></trkpt><trkpt lat="35.741558" lon="139.1653254"><ele>871.2366666666667</ele><time>2023-09-09T00:43:57Z</time></trkpt><trkpt lat="35.7416986" lon="139.1651275"><ele>876.3966666666666</ele><time>2023-09-09T00:44:30Z</time></trkpt><trkpt lat="35.7416985" lon="139.1649012"><ele>879.2366666666667</ele><time>2023-09-09T00:45:20Z</time></trkpt><trkpt lat="35.7416111" lon="139.1646954"><ele>879.6833333333334</ele><time>2023-09-09T00:45:47Z</time></trkpt><trkpt lat="35.7415581" lon="139.1644731"><ele>876.1933333333333</ele><time>2023-09-09T00:46:26Z</time></trkpt><trkpt lat="35.7414554" lon="139.1642771"><ele>871.1866666666666</ele><time>2023-09-09T00:46:44Z</time></trkpt><trkpt lat="35.7414788" lon="139.1640482"><ele>865.71</ele><time>2023-09-09T00:47:35Z</time></trkpt><trkpt lat="35.7414822" lon="139.1637928"><ele>859.3466666666667</ele><time>2023-09-09T00:48:35Z</time></trkpt><trkpt lat="35.741511" lon="139.163559"><ele>851.5300000000001</ele><time>2023-09-09T00:49:08Z</time></trkpt><trkpt lat="35.7415723" lon="139.163351"><ele>843.21</ele><time>2023-09-09T00:49:35Z</time></trkpt><trkpt lat="35.741735" lon="139.1631644"><ele>835.21</ele><time>2023-09-09T00:50:11Z</time></trkpt><trkpt lat="35.7418418" lon="139.1629686"><ele>828.9633333333333</ele><time>2023-09-09T00:50:23Z</time></trkpt><trkpt lat="35.7419655" lon="139.1627803"><ele>823.1633333333334</ele><time>2023-09-09T00:50:56Z</time></trkpt><trkpt lat="35.742084" lon="139.1625877"><ele>817.9733333333334</ele><time>2023-09-09T00:51:20Z</time></trkpt><trkpt lat="35.7421519" lon="139.1623785"><ele>813.2966666666667</ele><time>2023-09-09T00:51:29Z</time></trkpt><trkpt lat="35.742233" lon="139.1621602"><ele>812.0900000000001</ele><time>2023-09-09T00:51:41Z</time></trkpt><trkpt lat="35.7423791" lon="139.1620039"><ele>815.8800000000001</ele><time>2023-09-09T00:53:05Z</time></trkpt><trkpt lat="35.7425437" lon="139.1618338"><ele>825.1</ele><time>2023-09-09T00:55:31Z</time></trkpt><trkpt lat="35.7427101" lon="139.1617485"><ele>834.5066666666667</ele><time>2023-09-09T00:55:49Z</time></trkpt><trkpt lat="35.7428543" lon="139.1615355"><ele>842.3100000000001</ele><time>2023-09-09T00:57:28Z</time></trkpt><trkpt lat="35.7430352" lon="139.161466"><ele>849.1166666666668</ele><time>2023-09-09T00:58:13Z</time></trkpt><trkpt lat="35.7431108" lon="139.1612526"><ele>855.6566666666668</ele><time>2023-09-09T00:58:43Z</time></trkpt><trkpt lat="35.7432694" lon="139.1611231"><ele>861.2000000000002</ele><time>2023-09-09T00:59:25Z</time></trkpt><trkpt lat="35.7433304" lon="139.160896"><ele>865.0300000000001</ele><time>2023-09-09T00:59:46Z</time></trkpt><trkpt lat="35.7434195" lon="139.1607021"><ele>868.2766666666666</ele><time>2023-09-09T01:00:25Z</time></trkpt><trkpt lat="35.7434792" lon="139.1604751"><ele>872.3666666666668</ele><time>2023-09-09T01:01:16Z</time></trkpt><trkpt lat="35.7434903" lon="139.160251"><ele>877.4833333333332</ele><time>2023-09-09T01:02:50Z</time></trkpt><trkpt lat="35.7435417" lon="139.1600154"><ele>884.9933333333333</ele><time>2023-09-09T01:03:47Z</time></trkpt><trkpt lat="35.7436126" lon="139.159801"><ele>892.02</ele><time>2023-09-09T01:04:44Z</time></trkpt><trkpt lat="35.7436204" lon="139.1595532"><ele>899.1</ele><time>2023-09-09T01:05:14Z</time></trkpt><trkpt lat="35.7435848" lon="139.1593274"><ele>905.4533333333334</ele><time>2023-09-09T01:05:29Z</time></trkpt><trkpt lat="35.7436311" lon="139.1590748"><ele>910.8233333333334</ele><time>2023-09-09T01:05:59Z</time></trkpt><trkpt lat="35.7437836" lon="139.1589322"><ele>912.7966666666667</ele><time>2023-09-09T01:06:14Z</time></trkpt><trkpt lat="35.7438889" lon="139.1587487"><ele>911.6533333333333</ele><time>2023-09-09T01:06:35Z</time></trkpt><trkpt lat="35.7440324" lon="139.1585808"><ele>908.9533333333334</ele><time>2023-09-09T01:07:08Z</time></trkpt><trkpt lat="35.7441601" lon="139.158422"><ele>904.6333333333333</ele><time>2023-09-09T01:07:26Z</time></trkpt><trkpt lat="35.7442258" lon="139.1581922"><ele>901.0633333333334</ele><time>2023-09-09T01:08:08Z</time></trkpt><trkpt lat="35.7443436" lon="139.1580207"><ele>898.0733333333334</ele><time>2023-09-09T01:08:29Z</time></trkpt><trkpt lat="35.7444389" lon="139.1578237"><ele>894.4766666666668</ele><time>2023-09-09T01:09:11Z</time></trkpt><trkpt lat="35.7445281" lon="139.1575984"><ele>890.4533333333334</ele><time>2023-09-09T01:09:29Z</time></trkpt><trkpt lat="35.7446004" lon="139.1573822"><ele>885.9133333333333</ele><time>2023-09-09T01:09:47Z</time></trkpt><trkpt lat="35.7446265" lon="139.1571613"><ele>884.0933333333334</ele><time>2023-09-09T01:10:26Z</time></trkpt><trkpt lat="35.7447004" lon="139.1569503"><ele>881.93</ele><time>2023-09-09T01:11:11Z</time></trkpt><trkpt lat="35.7447519" lon="139.1567341"><ele>880.7766666666668</ele><time>2023-09-09T01:11:41Z</time></trkpt><trkpt lat="35.744863" lon="139.1565435"><ele>877.0833333333334</ele><time>2023-09-09T01:12:35Z</time></trkpt><trkpt lat="35.7450244" lon="139.1564229"><ele>872.73</ele><time>2023-09-09T01:13:05Z</time></trkpt><trkpt lat="35.7452124" lon="139.1563575"><ele>865.7266666666666</ele><time>2023-09-09T01:13:32Z</time></trkpt><trkpt lat="35.7453962" lon="139.1562915"><ele>858.8433333333334</ele><time>2023-09-09T01:14:23Z</time></trkpt><trkpt lat="35.7455813" lon="139.156185"><ele>851.0266666666666</ele><time>2023-09-09T01:14:41Z</time></trkpt><trkpt lat="35.7458138" lon="139.1561269"><ele>846.0733333333334</ele><time>2023-09-09T01:14:59Z</time></trkpt><trkpt lat="35.7459973" lon="139.156147"><ele>843.4200000000001</ele><time>2023-09-09T01:15:16Z</time></trkpt><trkpt lat="35.7461901" lon="139.1562285"><ele>843.4066666666666</ele><time>2023-09-09T01:15:55Z</time></trkpt><trkpt lat="35.7463872" lon="139.156218"><ele>846.2266666666666</ele><time>2023-09-09T01:16:34Z</time></trkpt><trkpt lat="35.7465699" lon="139.1561937"><ele>850.7733333333332</ele><time>2023-09-09T01:17:04Z</time></trkpt><trkpt lat="35.7467576" lon="139.1562372"><ele>856.1766666666666</ele><time>2023-09-09T01:18:10Z</time></trkpt><trkpt lat="35.7469215" lon="139.1560918"><ele>859.4433333333333</ele><time>2023-09-09T01:18:46Z</time></trkpt><trkpt lat="35.7470934" lon="139.1559589"><ele>860.7266666666666</ele><time>2023-09-09T01:19:01Z</time></trkpt><trkpt lat="35.7472189" lon="139.1557967"><ele>861.3533333333334</ele><time>2023-09-09T01:19:16Z</time></trkpt><trkpt lat="35.7473885" lon="139.1557184"><ele>861.6166666666667</ele><time>2023-09-09T01:19:40Z</time></trkpt><trkpt lat="35.7475387" lon="139.1555866"><ele>861.7366666666667</ele><time>2023-09-09T01:19:55Z</time></trkpt><trkpt lat="35.7476344" lon="139.1553962"><ele>862.3000000000001</ele><time>2023-09-09T01:20:10Z</time></trkpt><trkpt lat="35.7477076" lon="139.1551829"><ele>863.6066666666667</ele><time>2023-09-09T01:20:34Z</time></trkpt><trkpt lat="35.7478658" lon="139.1550214"><ele>865.6966666666667</ele><time>2023-09-09T01:20:58Z</time></trkpt><trkpt lat="35.7480309" lon="139.1548601"><ele>867.5300000000001</ele><time>2023-09-09T01:21:25Z</time></trkpt><trkpt lat="35.7481189" lon="139.1546264"><ele>869.6466666666666</ele><time>2023-09-09T01:21:46Z</time></trkpt><trkpt lat="35.7482224" lon="139.1544417"><ele>871.9066666666668</ele><time>2023-09-09T01:22:07Z</time></trkpt><trkpt lat="35.7483967" lon="139.1543427"><ele>874.3966666666666</ele><time>2023-09-09T01:22:28Z</time></trkpt><trkpt lat="35.7485808" lon="139.1542726"><ele>877.0233333333334</ele><time>2023-09-09T01:22:49Z</time></trkpt><trkpt lat="35.7487506" lon="139.1541242"><ele>879.23</ele><time>2023-09-09T01:23:07Z</time></trkpt><trkpt lat="35.7489326" lon="139.1540332"><ele>880.6266666666667</ele><time>2023-09-09T01:23:28Z</time></trkpt><trkpt lat="35.74912" lon="139.1540045"><ele>881.41</ele><time>2023-09-09T01:23:46Z</time></trkpt><trkpt lat="35.749257" lon="139.1538501"><ele>880.7333333333332</ele><time>2023-09-09T01:24:34Z</time></trkpt><trkpt lat="35.7494428" lon="139.1538723"><ele>882.39</ele><time>2023-09-09T01:24:55Z</time></trkpt><trkpt lat="35.7496355" lon="139.1538702"><ele>884.57</ele><time>2023-09-09T01:25:28Z</time></trkpt><trkpt lat="35.7498421" lon="139.1538083"><ele>890.6533333333333</ele><time>2023-09-09T01:26:16Z</time></trkpt><trkpt lat="35.7500183" lon="139.1536934"><ele>896.6866666666666</ele><time>2023-09-09T01:26:37Z</time></trkpt><trkpt lat="35.7502144" lon="139.1535685"><ele>900.0300000000001</ele><time>2023-09-09T01:27:16Z</time></trkpt><trkpt lat="35.7503493" lon="139.1533776"><ele>898.6733333333333</ele><time>2023-09-09T01:27:43Z</time></trkpt><trkpt lat="35.7504622" lon="139.1531766"><ele>894.4333333333334</ele><time>2023-09-09T01:27:58Z</time></trkpt><trkpt lat="35.7505779" lon="139.1529865"><ele>892.1466666666666</ele><time>2023-09-09T01:28:31Z</time></trkpt><trkpt lat="35.7507107" lon="139.1528327"><ele>892.54</ele><time>2023-09-09T01:28:55Z</time></trkpt><trkpt lat="35.7507991" lon="139.1526122"><ele>899.23</ele><time>2023-09-09T01:29:46Z</time></trkpt><trkpt lat="35.7507872" lon="139.1523906"><ele>904.6933333333333</ele><time>2023-09-09T01:30:13Z</time></trkpt><trkpt lat="35.7509875" lon="139.152316"><ele>913.7166666666667</ele><time>2023-09-09T01:31:10Z</time></trkpt><trkpt lat="35.7511211" lon="139.1521426"><ele>916.2600000000001</ele><time>2023-09-09T01:31:40Z</time></trkpt><trkpt lat="35.7512142" lon="139.1519455"><ele>917.9766666666668</ele><time>2023-09-09T01:32:04Z</time></trkpt><trkpt lat="35.7513467" lon="139.1517919"><ele>912.43</ele><time>2023-09-09T01:32:43Z</time></trkpt><trkpt lat="35.7515314" lon="139.1517143"><ele>903.9266666666667</ele><time>2023-09-09T01:35:49Z</time></trkpt><trkpt lat="35.7516997" lon="139.1515848"><ele>896.9466666666667</ele><time>2023-09-09T01:36:34Z</time></trkpt><trkpt lat="35.7518737" lon="139.1515269"><ele>893.2166666666666</ele><time>2023-09-09T01:37:31Z</time></trkpt><trkpt lat="35.7520719" lon="139.1513447"><ele>892.8966666666666</ele><time>2023-09-09T01:38:52Z</time></trkpt><trkpt lat="35.7522054" lon="139.1511722"><ele>894.1166666666668</ele><time>2023-09-09T01:39:03Z</time></trkpt><trkpt lat="35.7523575" lon="139.1510478"><ele>897.6233333333333</ele><time>2023-09-09T01:41:13Z</time></trkpt><trkpt lat="35.7525206" lon="139.1509412"><ele>904.3166666666666</ele><time>2023-09-09T01:41:52Z</time></trkpt><trkpt lat="35.7526874" lon="139.1508099"><ele>910.9900000000001</ele><time>2023-09-09T01:42:31Z</time></trkpt><trkpt lat="35.7528657" lon="139.1507519"><ele>916.8366666666667</ele><time>2023-09-09T01:43:04Z</time></trkpt><trkpt lat="35.7529927" lon="139.1505868"><ele>921.65</ele><time>2023-09-09T01:43:25Z</time></trkpt><trkpt lat="35.7530906" lon="139.1503827"><ele>926.5733333333334</ele><time>2023-09-09T01:44:48Z</time></trkpt><trkpt lat="35.7531969" lon="139.1501547"><ele>930.3533333333334</ele><time>2023-09-09T01:45:08Z</time></trkpt><trkpt lat="35.7533496" lon="139.149999"><ele>932.9666666666667</ele><time>2023-09-09T01:45:44Z</time></trkpt><trkpt lat="35.7534195" lon="139.1497843"><ele>933.8133333333332</ele><time>2023-09-09T01:46:02Z</time></trkpt><trkpt lat="35.7536107" lon="139.149709"><ele>935.65</ele><time>2023-09-09T01:46:50Z</time></trkpt><trkpt lat="35.7537829" lon="139.1495856"><ele>941.5966666666667</ele><time>2023-09-09T01:50:41Z</time></trkpt><trkpt lat="35.7539594" lon="139.149512"><ele>950.64</ele><time>2023-09-09T01:50:59Z</time></trkpt><trkpt lat="35.7540795" lon="139.1493033"><ele>959.1066666666667</ele><time>2023-09-09T01:51:44Z</time></trkpt><trkpt lat="35.7541462" lon="139.1490929"><ele>962.0600000000001</ele><time>2023-09-09T01:51:59Z</time></trkpt><trkpt lat="35.7542389" lon="139.1488882"><ele>960.3933333333333</ele><time>2023-09-09T01:52:17Z</time></trkpt><trkpt lat="35.7542045" lon="139.1486692"><ele>954.3000000000001</ele><time>2023-09-09T01:53:20Z</time></trkpt><trkpt lat="35.7542369" lon="139.1484267"><ele>944.9533333333333</ele><time>2023-09-09T01:54:11Z</time></trkpt><trkpt lat="35.754111" lon="139.1482178"><ele>936.8933333333334</ele><time>2023-09-09T01:54:56Z</time></trkpt><trkpt lat="35.7540937" lon="139.1479651"><ele>933.7733333333334</ele><time>2023-09-09T01:55:26Z</time></trkpt><trkpt lat="35.7539645" lon="139.1478043"><ele>934.77</ele><time>2023-09-09T01:56:14Z</time></trkpt><trkpt lat="35.7537959" lon="139.1476812"><ele>935.3333333333334</ele><time>2023-09-09T01:56:41Z</time></trkpt><trkpt lat="35.7537327" lon="139.1474614"><ele>933.6933333333333</ele><time>2023-09-09T01:57:17Z</time></trkpt><trkpt lat="35.7537578" lon="139.1472334"><ele>931.3533333333334</ele><time>2023-09-09T01:58:14Z</time></trkpt><trkpt lat="35.7538827" lon="139.1470418"><ele>930.09</ele><time>2023-09-09T01:58:29Z</time></trkpt><trkpt lat="35.7540171" lon="139.1468725"><ele>931.3299999999999</ele><time>2023-09-09T02:00:41Z</time></trkpt><trkpt lat="35.7540546" lon="139.1466017"><ele>935.1266666666667</ele><time>2023-09-09T02:01:44Z</time></trkpt><trkpt lat="35.7540979" lon="139.1463775"><ele>937.1766666666666</ele><time>2023-09-09T02:01:59Z</time></trkpt><trkpt lat="35.7541894" lon="139.1461862"><ele>943.7066666666666</ele><time>2023-09-09T02:04:01Z</time></trkpt><trkpt lat="35.754307" lon="139.1460094"><ele>950.4766666666666</ele><time>2023-09-09T02:04:40Z</time></trkpt><trkpt lat="35.75438" lon="139.1458014"><ele>959.7833333333334</ele><time>2023-09-09T02:05:25Z</time></trkpt><trkpt lat="35.7544517" lon="139.1455832"><ele>961.9866666666667</ele><time>2023-09-09T02:05:43Z</time></trkpt><trkpt lat="35.754507" lon="139.1453314"><ele>963.1500000000001</ele><time>2023-09-09T02:08:06Z</time></trkpt><trkpt lat="35.754661" lon="139.1451968"><ele>966.5866666666667</ele><time>2023-09-09T02:10:42Z</time></trkpt><trkpt lat="35.7548403" lon="139.1450748"><ele>976.9666666666667</ele><time>2023-09-09T02:12:00Z</time></trkpt><trkpt lat="35.7549573" lon="139.1448907"><ele>988.6966666666667</ele><time>2023-09-09T02:13:09Z</time></trkpt><trkpt lat="35.7551162" lon="139.1447182"><ele>998.1666666666666</ele><time>2023-09-09T02:13:21Z</time></trkpt><trkpt lat="35.755194" lon="139.1444946"><ele>1002.2166666666667</ele><time>2023-09-09T02:13:54Z</time></trkpt><trkpt lat="35.7551442" lon="139.1442803"><ele>1003.2600000000001</ele><time>2023-09-09T02:14:15Z</time></trkpt><trkpt lat="35.7551779" lon="139.1440337"><ele>1004.2366666666667</ele><time>2023-09-09T02:15:48Z</time></trkpt><trkpt lat="35.7552047" lon="139.1438059"><ele>1004.6266666666667</ele><time>2023-09-09T02:16:36Z</time></trkpt><trkpt lat="35.7552986" lon="139.1436072"><ele>1010.2733333333334</ele><time>2023-09-09T02:17:27Z</time></trkpt><trkpt lat="35.7553335" lon="139.1433809"><ele>1018.29</ele><time>2023-09-09T02:18:27Z</time></trkpt><trkpt lat="35.7554038" lon="139.143172"><ele>1026.34</ele><time>2023-09-09T02:19:00Z</time></trkpt><trkpt lat="35.755408" lon="139.1429349"><ele>1030.7666666666667</ele><time>2023-09-09T02:19:51Z</time></trkpt><trkpt lat="35.7554156" lon="139.1427033"><ele>1031.99</ele><time>2023-09-09T02:20:09Z</time></trkpt><trkpt lat="35.75552" lon="139.1425009"><ele>1035.4733333333334</ele><time>2023-09-09T02:20:36Z</time></trkpt><trkpt lat="35.7556458" lon="139.142328"><ele>1040.6333333333334</ele><time>2023-09-09T02:21:45Z</time></trkpt><trkpt lat="35.7556687" lon="139.1420953"><ele>1046.4366666666667</ele><time>2023-09-09T02:22:06Z</time></trkpt><trkpt lat="35.7556783" lon="139.1418357"><ele>1049.1200000000001</ele><time>2023-09-09T02:22:48Z</time></trkpt><trkpt lat="35.7556564" lon="139.1415905"><ele>1046.46</ele><time>2023-09-09T02:23:54Z</time></trkpt><trkpt lat="35.7555386" lon="139.1413771"><ele>1042.9466666666667</ele><time>2023-09-09T02:24:33Z</time></trkpt><trkpt lat="35.7554883" lon="139.1411545"><ele>1043.05</ele><time>2023-09-09T02:24:51Z</time></trkpt><trkpt lat="35.7553789" lon="139.1409623"><ele>1046.7466666666667</ele><time>2023-09-09T02:25:48Z</time></trkpt><trkpt lat="35.755241" lon="139.1407635"><ele>1050.5233333333333</ele><time>2023-09-09T02:26:03Z</time></trkpt><trkpt lat="35.7552019" lon="139.1405287"><ele>1049.56</ele><time>2023-09-09T02:32:45Z</time></trkpt><trkpt lat="35.7551731" lon="139.1402851"><ele>1045.0866666666668</ele><time>2023-09-09T02:33:32Z</time></trkpt><trkpt lat="35.7551914" lon="139.140058"><ele>1039.5566666666666</ele><time>2023-09-09T02:33:47Z</time></trkpt><trkpt lat="35.755137" lon="139.1398312"><ele>1034.52</ele><time>2023-09-09T02:34:02Z</time></trkpt><trkpt lat="35.7551812" lon="139.1396112"><ele>1029.2933333333333</ele><time>2023-09-09T02:34:22Z</time></trkpt><trkpt lat="35.7552133" lon="139.1393885"><ele>1025.08</ele><time>2023-09-09T02:34:35Z</time></trkpt><trkpt lat="35.7552716" lon="139.1391779"><ele>1021.7199999999999</ele><time>2023-09-09T02:34:49Z</time></trkpt><trkpt lat="35.7553441" lon="139.1389664"><ele>1020.5066666666667</ele><time>2023-09-09T02:35:02Z</time></trkpt><trkpt lat="35.7553819" lon="139.1387458"><ele>1018.3166666666666</ele><time>2023-09-09T02:35:17Z</time></trkpt><trkpt lat="35.7554485" lon="139.1385331"><ele>1015.8333333333334</ele><time>2023-09-09T02:35:35Z</time></trkpt><trkpt lat="35.7555678" lon="139.1383642"><ele>1013.65</ele><time>2023-09-09T02:35:51Z</time></trkpt><trkpt lat="35.7556553" lon="139.138167"><ele>1012.5833333333334</ele><time>2023-09-09T02:36:10Z</time></trkpt><trkpt lat="35.7557673" lon="139.1379911"><ele>1012.6033333333334</ele><time>2023-09-09T02:36:26Z</time></trkpt><trkpt lat="35.7558277" lon="139.1377771"><ele>1014.07</ele><time>2023-09-09T02:36:45Z</time></trkpt><trkpt lat="35.7559291" lon="139.1375884"><ele>1016.5366666666667</ele><time>2023-09-09T02:37:08Z</time></trkpt><trkpt lat="35.756" lon="139.1373696"><ele>1019.2133333333333</ele><time>2023-09-09T02:37:31Z</time></trkpt><trkpt lat="35.7560587" lon="139.1371471"><ele>1020.6899999999999</ele><time>2023-09-09T02:37:45Z</time></trkpt><trkpt lat="35.7561368" lon="139.1369476"><ele>1021.58</ele><time>2023-09-09T02:38:09Z</time></trkpt><trkpt lat="35.7562436" lon="139.1367624"><ele>1022.0</ele><time>2023-09-09T02:39:40Z</time></trkpt><trkpt lat="35.756362" lon="139.1365781"><ele>1022.5933333333334</ele><time>2023-09-09T02:40:31Z</time></trkpt><trkpt lat="35.7564339" lon="139.1363627"><ele>1022.7433333333333</ele><time>2023-09-09T02:41:22Z</time></trkpt><trkpt lat="35.7565776" lon="139.136146"><ele>1022.89</ele><time>2023-09-09T02:41:37Z</time></trkpt><trkpt lat="35.7566959" lon="139.135964"><ele>1023.3833333333333</ele><time>2023-09-09T02:42:01Z</time></trkpt><trkpt lat="35.7567896" lon="139.1357124"><ele>1023.36</ele><time>2023-09-09T02:42:19Z</time></trkpt><trkpt lat="35.7568638" lon="139.1354882"><ele>1024.5233333333333</ele><time>2023-09-09T02:42:34Z</time></trkpt><trkpt lat="35.756895" lon="139.1352687"><ele>1026.2166666666667</ele><time>2023-09-09T02:42:52Z</time></trkpt><trkpt lat="35.7570469" lon="139.1351492"><ele>1028.6733333333332</ele><time>2023-09-09T02:43:13Z</time></trkpt><trkpt lat="35.757082" lon="139.1348949"><ele>1030.6633333333332</ele><time>2023-09-09T02:43:43Z</time></trkpt><trkpt lat="35.7570863" lon="139.1346557"><ele>1032.5233333333333</ele><time>2023-09-09T02:44:01Z</time></trkpt><trkpt lat="35.7571413" lon="139.1344144"><ele>1034.9566666666667</ele><time>2023-09-09T02:44:25Z</time></trkpt><trkpt lat="35.7571704" lon="139.1341807"><ele>1038.4333333333334</ele><time>2023-09-09T02:44:46Z</time></trkpt><trkpt lat="35.7572992" lon="139.1340196"><ele>1042.3766666666668</ele><time>2023-09-09T02:45:34Z</time></trkpt><trkpt lat="35.7573785" lon="139.1338067"><ele>1046.6966666666665</ele><time>2023-09-09T02:46:34Z</time></trkpt><trkpt lat="35.757378" lon="139.1335698"><ele>1051.4366666666665</ele><time>2023-09-09T02:48:20Z</time></trkpt><trkpt lat="35.7573316" lon="139.1333498"><ele>1055.6033333333335</ele><time>2023-09-09T02:48:47Z</time></trkpt><trkpt lat="35.7573964" lon="139.1331025"><ele>1059.2533333333333</ele><time>2023-09-09T02:49:14Z</time></trkpt><trkpt lat="35.7573873" lon="139.1328482"><ele>1061.0833333333333</ele><time>2023-09-09T02:49:38Z</time></trkpt><trkpt lat="35.7573284" lon="139.1326248"><ele>1064.1833333333332</ele><time>2023-09-09T02:49:56Z</time></trkpt><trkpt lat="35.7574573" lon="139.1324681"><ele>1067.6933333333334</ele><time>2023-09-09T02:50:41Z</time></trkpt><trkpt lat="35.7575432" lon="139.1322374"><ele>1071.74</ele><time>2023-09-09T02:50:56Z</time></trkpt><trkpt lat="35.7576397" lon="139.1320138"><ele>1075.3066666666666</ele><time>2023-09-09T02:51:20Z</time></trkpt><trkpt lat="35.7577898" lon="139.1318723"><ele>1078.5966666666666</ele><time>2023-09-09T02:51:41Z</time></trkpt><trkpt lat="35.7578842" lon="139.1316498"><ele>1081.5733333333335</ele><time>2023-09-09T02:52:11Z</time></trkpt><trkpt lat="35.758016" lon="139.1314729"><ele>1083.49</ele><time>2023-09-09T02:52:29Z</time></trkpt><trkpt lat="35.7581329" lon="139.1312886"><ele>1084.6066666666666</ele><time>2023-09-09T02:52:48Z</time></trkpt><trkpt lat="35.7582428" lon="139.1310837"><ele>1086.36</ele><time>2023-09-09T02:53:10Z</time></trkpt><trkpt lat="35.7583669" lon="139.1309178"><ele>1089.4033333333334</ele><time>2023-09-09T02:53:31Z</time></trkpt><trkpt lat="35.7585148" lon="139.1307359"><ele>1093.96</ele><time>2023-09-09T02:54:04Z</time></trkpt><trkpt lat="35.7586851" lon="139.130618"><ele>1097.8966666666668</ele><time>2023-09-09T02:54:22Z</time></trkpt><trkpt lat="35.7588839" lon="139.1305227"><ele>1100.6966666666667</ele><time>2023-09-09T02:55:07Z</time></trkpt><trkpt lat="35.7590695" lon="139.1304908"><ele>1103.36</ele><time>2023-09-09T02:55:22Z</time></trkpt><trkpt lat="35.759245" lon="139.1304293"><ele>1106.3166666666666</ele><time>2023-09-09T02:56:10Z</time></trkpt><trkpt lat="35.7594406" lon="139.1303044"><ele>1110.2733333333333</ele><time>2023-09-09T02:56:31Z</time></trkpt><trkpt lat="35.7596053" lon="139.1302001"><ele>1114.4533333333334</ele><time>2023-09-09T02:56:46Z</time></trkpt><trkpt lat="35.7597745" lon="139.1300788"><ele>1118.6000000000001</ele><time>2023-09-09T02:57:07Z</time></trkpt><trkpt lat="35.7599499" lon="139.1299209"><ele>1121.2233333333334</ele><time>2023-09-09T02:57:49Z</time></trkpt><trkpt lat="35.760144" lon="139.1298136"><ele>1122.8033333333333</ele><time>2023-09-09T02:58:01Z</time></trkpt><trkpt lat="35.7603226" lon="139.1297518"><ele>1123.8333333333333</ele><time>2023-09-09T02:58:13Z</time></trkpt><trkpt lat="35.760483" lon="139.1295725"><ele>1125.3400000000001</ele><time>2023-09-09T02:58:28Z</time></trkpt><trkpt lat="35.760635" lon="139.1294329"><ele>1127.1566666666665</ele><time>2023-09-09T02:58:49Z</time></trkpt><trkpt lat="35.7608014" lon="139.1293164"><ele>1128.5966666666666</ele><time>2023-09-09T02:59:22Z</time></trkpt><trkpt lat="35.760971" lon="139.1292271"><ele>1131.75</ele><time>2023-09-09T02:59:46Z</time></trkpt><trkpt lat="35.7611532" lon="139.1292055"><ele>1135.2433333333333</ele><time>2023-09-09T03:00:10Z</time></trkpt><trkpt lat="35.7613341" lon="139.1292213"><ele>1139.3566666666668</ele><time>2023-09-09T03:00:28Z</time></trkpt><trkpt lat="35.7615259" lon="139.1291622"><ele>1141.5766666666668</ele><time>2023-09-09T03:01:10Z</time></trkpt><trkpt lat="35.7617138" lon="139.129147"><ele>1143.3433333333335</ele><time>2023-09-09T03:01:22Z</time></trkpt><trkpt lat="35.7619013" lon="139.1291141"><ele>1143.88</ele><time>2023-09-09T03:01:34Z</time></trkpt><trkpt lat="35.7620859" lon="139.1291313"><ele>1143.22</ele><time>2023-09-09T03:02:16Z</time></trkpt><trkpt lat="35.762304" lon="139.129148"><ele>1143.95</ele><time>2023-09-09T03:02:31Z</time></trkpt><trkpt lat="35.7625164" lon="139.1291672"><ele>1144.9766666666667</ele><time>2023-09-09T03:02:46Z</time></trkpt><trkpt lat="35.7626998" lon="139.1292391"><ele>1147.8</ele><time>2023-09-09T03:03:04Z</time></trkpt><trkpt lat="35.762867" lon="139.1293676"><ele>1149.9866666666667</ele><time>2023-09-09T03:03:39Z</time></trkpt><trkpt lat="35.7630585" lon="139.1294125"><ele>1153.0466666666669</ele><time>2023-09-09T03:04:16Z</time></trkpt><trkpt lat="35.7632598" lon="139.1293937"><ele>1152.84</ele><time>2023-09-09T03:04:58Z</time></trkpt><trkpt lat="35.7634231" lon="139.1294898"><ele>1154.42</ele><time>2023-09-09T03:05:19Z</time></trkpt><trkpt lat="35.7635885" lon="139.1296027"><ele>1157.0133333333333</ele><time>2023-09-09T03:07:07Z</time></trkpt><trkpt lat="35.7637621" lon="139.1296723"><ele>1163.32</ele><time>2023-09-09T03:08:04Z</time></trkpt><trkpt lat="35.7639681" lon="139.1297719"><ele>1169.5933333333332</ele><time>2023-09-09T03:09:37Z</time></trkpt><trkpt lat="35.7641617" lon="139.1297336"><ele>1173.78</ele><time>2023-09-09T03:09:46Z</time></trkpt><trkpt lat="35.7639842" lon="139.1297925"><ele>1176.8866666666665</ele><time>2023-09-09T03:10:07Z</time></trkpt><trkpt lat="35.7641338" lon="139.1299518"><ele>1182.7066666666667</ele><time>2023-09-09T03:13:01Z</time></trkpt><trkpt lat="35.7643138" lon="139.1299824"><ele>1190.8666666666666</ele><time>2023-09-09T03:14:06Z</time></trkpt><trkpt lat="35.7644845" lon="139.1301002"><ele>1204.2099999999998</ele><time>2023-09-09T03:14:39Z</time></trkpt><trkpt lat="35.7646655" lon="139.1301095"><ele>1213.4099999999999</ele><time>2023-09-09T03:16:00Z</time></trkpt><trkpt lat="35.7648656" lon="139.130102"><ele>1225.3799999999999</ele><time>2023-09-09T03:19:15Z</time></trkpt><trkpt lat="35.765042" lon="139.1301552"><ele>1237.6233333333332</ele><time>2023-09-09T03:19:33Z</time></trkpt><trkpt lat="35.7652358" lon="139.1302242"><ele>1250.6966666666665</ele><time>2023-09-09T03:21:03Z</time></trkpt><trkpt lat="35.7652124" lon="139.1304473"><ele>1260.1299999999999</ele><time>2023-09-09T03:22:00Z</time></trkpt><trkpt lat="35.7651338" lon="139.130669"><ele>1263.1266666666668</ele><time>2023-09-09T03:25:19Z</time></trkpt><trkpt lat="35.7649824" lon="139.1308289"><ele>1262.31</ele><time>2023-09-09T03:26:04Z</time></trkpt><trkpt lat="35.7649267" lon="139.1310406"><ele>1258.3400000000001</ele><time>2023-09-09T03:26:49Z</time></trkpt><trkpt lat="35.7649255" lon="139.1312727"><ele>1253.2466666666667</ele><time>2023-09-09T03:28:37Z</time></trkpt><trkpt lat="35.7648783" lon="139.1315028"><ele>1242.55</ele><time>2023-09-09T03:29:46Z</time></trkpt><trkpt lat="35.7650841" lon="139.1315679"><ele>1232.4399999999998</ele><time>2023-09-09T03:31:46Z</time></trkpt><trkpt lat="35.7652692" lon="139.1315652"><ele>1221.37</ele><time>2023-09-09T03:32:13Z</time></trkpt><trkpt lat="35.7654507" lon="139.1316561"><ele>1215.14</ele><time>2023-09-09T03:32:52Z</time></trkpt><trkpt lat="35.7653624" lon="139.1318913"><ele>1205.2566666666667</ele><time>2023-09-09T03:34:16Z</time></trkpt><trkpt lat="35.765297" lon="139.1321382"><ele>1195.1366666666665</ele><time>2023-09-09T03:34:34Z</time></trkpt><trkpt lat="35.7652312" lon="139.1323466"><ele>1184.0733333333335</ele><time>2023-09-09T03:34:52Z</time></trkpt><trkpt lat="35.765138" lon="139.1325429"><ele>1176.9933333333336</ele><time>2023-09-09T03:35:37Z</time></trkpt><trkpt lat="35.764948" lon="139.1326278"><ele>1170.93</ele><time>2023-09-09T03:36:16Z</time></trkpt><trkpt lat="35.7649912" lon="139.132844"><ele>1166.1666666666667</ele><time>2023-09-09T03:36:55Z</time></trkpt><trkpt lat="35.7649279" lon="139.1330831"><ele>1159.9666666666667</ele><time>2023-09-09T03:37:07Z</time></trkpt><trkpt lat="35.7650845" lon="139.1332514"><ele>1155.743333333333</ele><time>2023-09-09T03:37:40Z</time></trkpt><trkpt lat="35.7652567" lon="139.1333648"><ele>1150.99</ele><time>2023-09-09T03:38:01Z</time></trkpt><trkpt lat="35.7654341" lon="139.1335268"><ele>1145.4399999999998</ele><time>2023-09-09T03:38:40Z</time></trkpt><trkpt lat="35.7654528" lon="139.1337508"><ele>1134.9533333333334</ele><time>2023-09-09T03:39:07Z</time></trkpt><trkpt lat="35.765537" lon="139.1339524"><ele>1128.736666666667</ele><time>2023-09-09T03:39:37Z</time></trkpt><trkpt lat="35.7655397" lon="139.1341986"><ele>1127.3433333333335</ele><time>2023-09-09T03:41:10Z</time></trkpt><trkpt lat="35.7655228" lon="139.1344249"><ele>1129.1866666666667</ele><time>2023-09-09T03:41:34Z</time></trkpt><trkpt lat="35.765629" lon="139.1346382"><ele>1129.2766666666666</ele><time>2023-09-09T03:41:52Z</time></trkpt><trkpt lat="35.7658327" lon="139.1345179"><ele>1130.8700000000001</ele><time>2023-09-09T03:42:43Z</time></trkpt><trkpt lat="35.7660017" lon="139.1344186"><ele>1133.1566666666668</ele><time>2023-09-09T03:42:55Z</time></trkpt><trkpt lat="35.7661872" lon="139.1343709"><ele>1134.2900000000002</ele><time>2023-09-09T03:44:07Z</time></trkpt><trkpt lat="35.766356" lon="139.1344928"><ele>1128.5833333333333</ele><time>2023-09-09T03:44:46Z</time></trkpt><trkpt lat="35.7665348" lon="139.1345469"><ele>1124.55</ele><time>2023-09-09T03:45:19Z</time></trkpt><trkpt lat="35.766728" lon="139.1346278"><ele>1118.4766666666667</ele><time>2023-09-09T03:45:43Z</time></trkpt><trkpt lat="35.7668986" lon="139.1345545"><ele>1114.7766666666666</ele><time>2023-09-09T03:46:16Z</time></trkpt><trkpt lat="35.7671026" lon="139.1345894"><ele>1109.0400000000002</ele><time>2023-09-09T03:46:31Z</time></trkpt><trkpt lat="35.7673028" lon="139.1345217"><ele>1106.3266666666666</ele><time>2023-09-09T03:47:07Z</time></trkpt><trkpt lat="35.7674878" lon="139.1344936"><ele>1104.1366666666665</ele><time>2023-09-09T03:47:28Z</time></trkpt><trkpt lat="35.7676792" lon="139.1345675"><ele>1101.0</ele><time>2023-09-09T03:48:07Z</time></trkpt><trkpt lat="35.7678099" lon="139.1347284"><ele>1095.6166666666666</ele><time>2023-09-09T03:48:55Z</time></trkpt><trkpt lat="35.7679242" lon="139.1349354"><ele>1090.2766666666666</ele><time>2023-09-09T03:49:22Z</time></trkpt><trkpt lat="35.7680767" lon="139.1350768"><ele>1085.2833333333335</ele><time>2023-09-09T03:50:38Z</time></trkpt><trkpt lat="35.7682411" lon="139.1349845"><ele>1080.73</ele><time>2023-09-09T03:51:08Z</time></trkpt><trkpt lat="35.7684331" lon="139.134952"><ele>1073.7666666666667</ele><time>2023-09-09T03:51:47Z</time></trkpt><trkpt lat="35.7685764" lon="139.1348132"><ele>1067.0600000000002</ele><time>2023-09-09T03:52:23Z</time></trkpt><trkpt lat="35.7687795" lon="139.1348191"><ele>1057.29</ele><time>2023-09-09T03:53:17Z</time></trkpt><trkpt lat="35.7689874" lon="139.1348913"><ele>1047.1333333333334</ele><time>2023-09-09T03:53:32Z</time></trkpt><trkpt lat="35.7691608" lon="139.1349659"><ele>1037.65</ele><time>2023-09-09T03:53:47Z</time></trkpt><trkpt lat="35.769306" lon="139.1351508"><ele>1034.5</ele><time>2023-09-09T03:54:08Z</time></trkpt><trkpt lat="35.7693802" lon="139.1353645"><ele>1036.8</ele><time>2023-09-09T03:54:26Z</time></trkpt><trkpt lat="35.76959" lon="139.1353826"><ele>1039.5533333333333</ele><time>2023-09-09T03:54:44Z</time></trkpt><trkpt lat="35.7697748" lon="139.1354608"><ele>1039.5366666666666</ele><time>2023-09-09T03:54:56Z</time></trkpt><trkpt lat="35.7699031" lon="139.1356441"><ele>1038.8566666666666</ele><time>2023-09-09T03:55:20Z</time></trkpt><trkpt lat="35.7700449" lon="139.1358134"><ele>1038.8500000000001</ele><time>2023-09-09T03:55:40Z</time></trkpt><trkpt lat="35.7701613" lon="139.1360229"><ele>1040.1366666666665</ele><time>2023-09-09T03:56:04Z</time></trkpt><trkpt lat="35.7703351" lon="139.1361201"><ele>1040.8533333333332</ele><time>2023-09-09T03:56:22Z</time></trkpt><trkpt lat="35.7704901" lon="139.1362468"><ele>1041.2233333333334</ele><time>2023-09-09T03:56:40Z</time></trkpt><trkpt lat="35.7706347" lon="139.1363918"><ele>1041.5833333333333</ele><time>2023-09-09T03:56:58Z</time></trkpt><trkpt lat="35.7708104" lon="139.1365374"><ele>1041.9666666666665</ele><time>2023-09-09T03:57:19Z</time></trkpt><trkpt lat="35.7709852" lon="139.136632"><ele>1042.5433333333333</ele><time>2023-09-09T03:57:34Z</time></trkpt><trkpt lat="35.7711992" lon="139.1366532"><ele>1042.9866666666667</ele><time>2023-09-09T03:58:13Z</time></trkpt><trkpt lat="35.7713779" lon="139.1367324"><ele>1043.57</ele><time>2023-09-09T03:58:28Z</time></trkpt><trkpt lat="35.7715378" lon="139.1368463"><ele>1045.6033333333335</ele><time>2023-09-09T03:58:49Z</time></trkpt><trkpt lat="35.7716908" lon="139.1369901"><ele>1048.32</ele><time>2023-09-09T03:59:10Z</time></trkpt><trkpt lat="35.7717351" lon="139.1372118"><ele>1050.25</ele><time>2023-09-09T04:00:13Z</time></trkpt><trkpt lat="35.7718587" lon="139.1373996"><ele>1049.1200000000001</ele><time>2023-09-09T04:00:25Z</time></trkpt><trkpt lat="35.7718353" lon="139.137657"><ele>1043.2666666666667</ele><time>2023-09-09T04:00:58Z</time></trkpt><trkpt lat="35.7717537" lon="139.1379052"><ele>1034.01</ele><time>2023-09-09T04:01:13Z</time></trkpt><trkpt lat="35.7717177" lon="139.1381482"><ele>1025.6933333333334</ele><time>2023-09-09T04:01:34Z</time></trkpt><trkpt lat="35.771732" lon="139.1383995"><ele>1025.0466666666669</ele><time>2023-09-09T04:01:55Z</time></trkpt><trkpt lat="35.771826" lon="139.1385991"><ele>1027.1833333333334</ele><time>2023-09-09T04:02:16Z</time></trkpt><trkpt lat="35.7718782" lon="139.1388285"><ele>1028.0933333333335</ele><time>2023-09-09T04:02:34Z</time></trkpt><trkpt lat="35.7719392" lon="139.1390434"><ele>1022.8866666666667</ele><time>2023-09-09T04:03:07Z</time></trkpt><trkpt lat="35.7720764" lon="139.1391888"><ele>1017.4266666666667</ele><time>2023-09-09T04:03:22Z</time></trkpt><trkpt lat="35.7721726" lon="139.1393998"><ele>1011.2833333333333</ele><time>2023-09-09T04:03:40Z</time></trkpt><trkpt lat="35.7722885" lon="139.1395823"><ele>1004.5233333333334</ele><time>2023-09-09T04:03:55Z</time></trkpt><trkpt lat="35.7723953" lon="139.1397611"><ele>999.2066666666666</ele><time>2023-09-09T04:04:10Z</time></trkpt><trkpt lat="35.7725156" lon="139.1399359"><ele>995.4499999999999</ele><time>2023-09-09T04:04:25Z</time></trkpt><trkpt lat="35.7726847" lon="139.1400304"><ele>992.5166666666668</ele><time>2023-09-09T04:04:35Z</time></trkpt><trkpt lat="35.7728315" lon="139.1401764"><ele>987.9699999999999</ele><time>2023-09-09T04:05:17Z</time></trkpt><trkpt lat="35.7729768" lon="139.1403355"><ele>982.4333333333334</ele><time>2023-09-09T04:05:35Z</time></trkpt><trkpt lat="35.773114" lon="139.1404806"><ele>977.65</ele><time>2023-09-09T04:06:02Z</time></trkpt><trkpt lat="35.7732774" lon="139.140608"><ele>969.8233333333334</ele><time>2023-09-09T04:06:17Z</time></trkpt><trkpt lat="35.7734838" lon="139.1406826"><ele>959.8166666666666</ele><time>2023-09-09T04:06:35Z</time></trkpt><trkpt lat="35.7736275" lon="139.1408716"><ele>950.9133333333333</ele><time>2023-09-09T04:06:50Z</time></trkpt><trkpt lat="35.7737413" lon="139.1410485"><ele>947.6866666666666</ele><time>2023-09-09T04:07:08Z</time></trkpt><trkpt lat="35.7738783" lon="139.1412724"><ele>948.4566666666666</ele><time>2023-09-09T04:07:29Z</time></trkpt><trkpt lat="35.7739818" lon="139.1414682"><ele>947.6933333333333</ele><time>2023-09-09T04:07:41Z</time></trkpt><trkpt lat="35.7740285" lon="139.1417077"><ele>944.7033333333334</ele><time>2023-09-09T04:07:59Z</time></trkpt><trkpt lat="35.7741772" lon="139.1418456"><ele>938.35</ele><time>2023-09-09T04:08:09Z</time></trkpt><trkpt lat="35.7742842" lon="139.1420398"><ele>933.9966666666668</ele><time>2023-09-09T04:08:33Z</time></trkpt><trkpt lat="35.7743649" lon="139.1422737"><ele>929.9733333333334</ele><time>2023-09-09T04:08:51Z</time></trkpt><trkpt lat="35.7745131" lon="139.1420753"><ele>921.25</ele><time>2023-09-09T04:09:15Z</time></trkpt><trkpt lat="35.7745597" lon="139.1418164"><ele>912.62</ele><time>2023-09-09T04:09:30Z</time></trkpt><trkpt lat="35.774569" lon="139.1415812"><ele>906.79</ele><time>2023-09-09T04:09:45Z</time></trkpt><trkpt lat="35.7745576" lon="139.1418184"><ele>906.8733333333334</ele><time>2023-09-09T04:10:39Z</time></trkpt><trkpt lat="35.774687" lon="139.1420294"><ele>904.3866666666668</ele><time>2023-09-09T04:10:57Z</time></trkpt><trkpt lat="35.7748584" lon="139.1421355"><ele>899.2033333333334</ele><time>2023-09-09T04:11:06Z</time></trkpt><trkpt lat="35.7750274" lon="139.1423021"><ele>893.9399999999999</ele><time>2023-09-09T04:11:41Z</time></trkpt><trkpt lat="35.775205" lon="139.1423761"><ele>890.3533333333334</ele><time>2023-09-09T04:11:53Z</time></trkpt><trkpt lat="35.7753767" lon="139.1424664"><ele>885.5466666666667</ele><time>2023-09-09T04:12:17Z</time></trkpt><trkpt lat="35.775565" lon="139.142568"><ele>881.93</ele><time>2023-09-09T04:12:29Z</time></trkpt><trkpt lat="35.7757413" lon="139.1426585"><ele>878.2466666666666</ele><time>2023-09-09T04:12:44Z</time></trkpt><trkpt lat="35.7759136" lon="139.1427493"><ele>875.09</ele><time>2023-09-09T04:13:27Z</time></trkpt><trkpt lat="35.7757704" lon="139.1431012"><ele>880.6666666666666</ele><time>2023-09-09T04:18:53Z</time></trkpt><trkpt lat="35.7759036" lon="139.1428756"><ele>880.7166666666667</ele><time>2023-09-09T04:21:50Z</time></trkpt><trkpt lat="35.7760498" lon="139.1426323"><ele>880.7800000000001</ele><time>2023-09-09T04:22:09Z</time></trkpt><trkpt lat="35.7762433" lon="139.1427369"><ele>871.9566666666666</ele><time>2023-09-09T04:26:09Z</time></trkpt><trkpt lat="35.7764596" lon="139.1427483"><ele>869.9499999999999</ele><time>2023-09-09T04:26:27Z</time></trkpt><trkpt lat="35.7766252" lon="139.1426269"><ele>871.0766666666667</ele><time>2023-09-09T04:26:42Z</time></trkpt><trkpt lat="35.7767614" lon="139.1424578"><ele>874.66</ele><time>2023-09-09T04:26:51Z</time></trkpt><trkpt lat="35.7769358" lon="139.1425357"><ele>880.2700000000001</ele><time>2023-09-09T04:27:20Z</time></trkpt><trkpt lat="35.7768371" lon="139.1427217"><ele>883.0166666666668</ele><time>2023-09-09T04:27:34Z</time></trkpt><trkpt lat="35.7767596" lon="139.1429301"><ele>883.0600000000001</ele><time>2023-09-09T04:27:46Z</time></trkpt><trkpt lat="35.7769699" lon="139.1430054"><ele>880.8433333333334</ele><time>2023-09-09T04:28:01Z</time></trkpt><trkpt lat="35.7771593" lon="139.1430435"><ele>879.9866666666667</ele><time>2023-09-09T04:28:19Z</time></trkpt><trkpt lat="35.7773408" lon="139.1431958"><ele>878.8100000000001</ele><time>2023-09-09T04:28:37Z</time></trkpt><trkpt lat="35.7773373" lon="139.1434176"><ele>876.1366666666668</ele><time>2023-09-09T04:28:55Z</time></trkpt><trkpt lat="35.7773049" lon="139.1436681"><ele>872.6866666666668</ele><time>2023-09-09T04:29:22Z</time></trkpt><trkpt lat="35.7774689" lon="139.1437846"><ele>873.4333333333334</ele><time>2023-09-09T04:29:34Z</time></trkpt><trkpt lat="35.7776591" lon="139.1438539"><ele>878.91</ele><time>2023-09-09T04:29:46Z</time></trkpt><trkpt lat="35.777688" lon="139.144103"><ele>882.02</ele><time>2023-09-09T04:30:04Z</time></trkpt><trkpt lat="35.7776921" lon="139.1443614"><ele>879.2133333333335</ele><time>2023-09-09T04:30:25Z</time></trkpt><trkpt lat="35.77765" lon="139.1446482"><ele>874.4166666666666</ele><time>2023-09-09T04:30:43Z</time></trkpt><trkpt lat="35.7777701" lon="139.1448332"><ele>874.8133333333334</ele><time>2023-09-09T04:30:58Z</time></trkpt><trkpt lat="35.777951" lon="139.1448243"><ele>882.1166666666667</ele><time>2023-09-09T04:31:30Z</time></trkpt><trkpt lat="35.7781887" lon="139.1446975"><ele>884.32</ele><time>2023-09-09T04:31:39Z</time></trkpt><trkpt lat="35.778368" lon="139.1445694"><ele>882.4433333333333</ele><time>2023-09-09T04:31:51Z</time></trkpt><trkpt lat="35.7785059" lon="139.1443943"><ele>877.2766666666666</ele><time>2023-09-09T04:32:09Z</time></trkpt><trkpt lat="35.7786744" lon="139.1442886"><ele>876.04</ele><time>2023-09-09T04:32:27Z</time></trkpt><trkpt lat="35.7788898" lon="139.1443017"><ele>875.11</ele><time>2023-09-09T04:32:42Z</time></trkpt><trkpt lat="35.7790937" lon="139.1442303"><ele>875.2633333333333</ele><time>2023-09-09T04:32:57Z</time></trkpt><trkpt lat="35.7792654" lon="139.1443224"><ele>873.44</ele><time>2023-09-09T04:33:12Z</time></trkpt><trkpt lat="35.7794628" lon="139.1443538"><ele>873.4</ele><time>2023-09-09T04:33:30Z</time></trkpt><trkpt lat="35.7796812" lon="139.1443565"><ele>871.4633333333333</ele><time>2023-09-09T04:33:51Z</time></trkpt><trkpt lat="35.7798971" lon="139.144368"><ele>868.29</ele><time>2023-09-09T04:34:16Z</time></trkpt><trkpt lat="35.7800875" lon="139.1443113"><ele>866.1666666666666</ele><time>2023-09-09T04:34:37Z</time></trkpt><trkpt lat="35.7801181" lon="139.1445583"><ele>861.23</ele><time>2023-09-09T04:35:16Z</time></trkpt><trkpt lat="35.7800472" lon="139.1447702"><ele>855.7033333333334</ele><time>2023-09-09T04:35:40Z</time></trkpt><trkpt lat="35.7799999" lon="139.1450127"><ele>846.6166666666668</ele><time>2023-09-09T04:35:58Z</time></trkpt><trkpt lat="35.7800651" lon="139.1452517"><ele>844.0066666666668</ele><time>2023-09-09T04:36:13Z</time></trkpt><trkpt lat="35.7801833" lon="139.145481"><ele>847.6966666666667</ele><time>2023-09-09T04:36:25Z</time></trkpt><trkpt lat="35.7803551" lon="139.1456081"><ele>854.34</ele><time>2023-09-09T04:36:37Z</time></trkpt><trkpt lat="35.7805342" lon="139.1456339"><ele>858.2766666666666</ele><time>2023-09-09T04:36:46Z</time></trkpt><trkpt lat="35.7807149" lon="139.1457574"><ele>861.0833333333334</ele><time>2023-09-09T04:37:00Z</time></trkpt><trkpt lat="35.7808429" lon="139.1459418"><ele>861.4233333333333</ele><time>2023-09-09T04:37:12Z</time></trkpt><trkpt lat="35.7807589" lon="139.1461606"><ele>857.6366666666667</ele><time>2023-09-09T04:37:24Z</time></trkpt><trkpt lat="35.7805851" lon="139.1463002"><ele>848.5033333333334</ele><time>2023-09-09T04:37:39Z</time></trkpt><trkpt lat="35.7805222" lon="139.1465149"><ele>841.0766666666667</ele><time>2023-09-09T04:37:54Z</time></trkpt><trkpt lat="35.7805326" lon="139.1467738"><ele>839.5500000000001</ele><time>2023-09-09T04:38:06Z</time></trkpt><trkpt lat="35.7805377" lon="139.1470042"><ele>842.04</ele><time>2023-09-09T04:38:15Z</time></trkpt><trkpt lat="35.7807232" lon="139.1471825"><ele>848.71</ele><time>2023-09-09T04:38:30Z</time></trkpt><trkpt lat="35.7809285" lon="139.1472869"><ele>855.9366666666666</ele><time>2023-09-09T04:38:43Z</time></trkpt><trkpt lat="35.7810262" lon="139.1475786"><ele>860.27</ele><time>2023-09-09T04:38:52Z</time></trkpt><trkpt lat="35.7812225" lon="139.1475775"><ele>862.0833333333334</ele><time>2023-09-09T04:39:07Z</time></trkpt><trkpt lat="35.781424" lon="139.1475978"><ele>860.0466666666667</ele><time>2023-09-09T04:39:25Z</time></trkpt><trkpt lat="35.7816056" lon="139.1476414"><ele>860.6733333333333</ele><time>2023-09-09T04:39:37Z</time></trkpt><trkpt lat="35.7817911" lon="139.1477255"><ele>857.5833333333334</ele><time>2023-09-09T04:39:52Z</time></trkpt><trkpt lat="35.7819494" lon="139.1478403"><ele>855.1700000000001</ele><time>2023-09-09T04:40:04Z</time></trkpt><trkpt lat="35.7819785" lon="139.1480737"><ele>853.71</ele><time>2023-09-09T04:40:20Z</time></trkpt><trkpt lat="35.7819104" lon="139.1483047"><ele>852.79</ele><time>2023-09-09T04:40:38Z</time></trkpt><trkpt lat="35.7818138" lon="139.1484924"><ele>850.1533333333333</ele><time>2023-09-09T04:40:50Z</time></trkpt><trkpt lat="35.7818607" lon="139.1487393"><ele>849.3433333333334</ele><time>2023-09-09T04:41:05Z</time></trkpt><trkpt lat="35.7818958" lon="139.1489657"><ele>852.0133333333333</ele><time>2023-09-09T04:41:26Z</time></trkpt><trkpt lat="35.781946" lon="139.1492313"><ele>854.2400000000001</ele><time>2023-09-09T04:41:44Z</time></trkpt><trkpt lat="35.7820126" lon="139.1494692"><ele>855.7233333333334</ele><time>2023-09-09T04:41:59Z</time></trkpt><trkpt lat="35.7820177" lon="139.1497243"><ele>855.9133333333333</ele><time>2023-09-09T04:42:28Z</time></trkpt><trkpt lat="35.7819296" lon="139.1499349"><ele>860.4633333333333</ele><time>2023-09-09T04:42:42Z</time></trkpt><trkpt lat="35.7819923" lon="139.1501465"><ele>867.1666666666666</ele><time>2023-09-09T04:42:57Z</time></trkpt><trkpt lat="35.7821754" lon="139.1502266"><ele>878.0833333333334</ele><time>2023-09-09T04:43:28Z</time></trkpt><trkpt lat="35.7822853" lon="139.1504545"><ele>885.98</ele><time>2023-09-09T04:43:43Z</time></trkpt><trkpt lat="35.782337" lon="139.1506832"><ele>889.0300000000001</ele><time>2023-09-09T04:44:01Z</time></trkpt><trkpt lat="35.7824971" lon="139.1508405"><ele>889.7766666666666</ele><time>2023-09-09T04:44:25Z</time></trkpt><trkpt lat="35.782668" lon="139.1509144"><ele>892.5933333333332</ele><time>2023-09-09T04:44:37Z</time></trkpt><trkpt lat="35.7828505" lon="139.1508634"><ele>895.11</ele><time>2023-09-09T04:44:55Z</time></trkpt><trkpt lat="35.7830203" lon="139.1507865"><ele>897.6133333333333</ele><time>2023-09-09T04:45:19Z</time></trkpt><trkpt lat="35.7832263" lon="139.1507891"><ele>898.3733333333334</ele><time>2023-09-09T04:45:37Z</time></trkpt><trkpt lat="35.783416" lon="139.1508622"><ele>897.1566666666668</ele><time>2023-09-09T04:45:55Z</time></trkpt><trkpt lat="35.7835991" lon="139.1508936"><ele>889.8100000000001</ele><time>2023-09-09T04:46:31Z</time></trkpt><trkpt lat="35.783777" lon="139.1509671"><ele>881.4200000000001</ele><time>2023-09-09T04:46:55Z</time></trkpt><trkpt lat="35.7838779" lon="139.1511738"><ele>876.0133333333333</ele><time>2023-09-09T04:47:43Z</time></trkpt><trkpt lat="35.7839718" lon="139.1513723"><ele>873.5333333333334</ele><time>2023-09-09T04:48:25Z</time></trkpt><trkpt lat="35.7839282" lon="139.151593"><ele>872.4499999999999</ele><time>2023-09-09T04:48:55Z</time></trkpt><trkpt lat="35.7838801" lon="139.1518079"><ele>869.79</ele><time>2023-09-09T04:49:10Z</time></trkpt><trkpt lat="35.7838954" lon="139.1520367"><ele>867.29</ele><time>2023-09-09T04:49:52Z</time></trkpt><trkpt lat="35.7840978" lon="139.1519932"><ele>864.0300000000001</ele><time>2023-09-09T04:50:19Z</time></trkpt><trkpt lat="35.7842974" lon="139.1519763"><ele>859.0533333333334</ele><time>2023-09-09T04:50:54Z</time></trkpt><trkpt lat="35.784481" lon="139.1519745"><ele>852.6266666666667</ele><time>2023-09-09T04:51:03Z</time></trkpt><trkpt lat="35.7846534" lon="139.1520445"><ele>847.48</ele><time>2023-09-09T04:51:18Z</time></trkpt><trkpt lat="35.784856" lon="139.1520241"><ele>846.06</ele><time>2023-09-09T04:51:33Z</time></trkpt><trkpt lat="35.78505" lon="139.1520309"><ele>843.9533333333333</ele><time>2023-09-09T04:51:51Z</time></trkpt><trkpt lat="35.7852148" lon="139.1518827"><ele>842.4233333333333</ele><time>2023-09-09T04:52:06Z</time></trkpt><trkpt lat="35.7853942" lon="139.1518304"><ele>838.5500000000001</ele><time>2023-09-09T04:52:18Z</time></trkpt><trkpt lat="35.7856028" lon="139.1519262"><ele>834.3633333333333</ele><time>2023-09-09T04:52:33Z</time></trkpt><trkpt lat="35.7858165" lon="139.1519006"><ele>826.8166666666666</ele><time>2023-09-09T04:52:51Z</time></trkpt><trkpt lat="35.7859839" lon="139.1517933"><ele>819.7400000000001</ele><time>2023-09-09T04:53:03Z</time></trkpt><trkpt lat="35.7860888" lon="139.1515971"><ele>816.0066666666667</ele><time>2023-09-09T04:53:20Z</time></trkpt><trkpt lat="35.7859424" lon="139.1513988"><ele>815.5466666666667</ele><time>2023-09-09T04:53:47Z</time></trkpt><trkpt lat="35.7860473" lon="139.1511891"><ele>816.6533333333333</ele><time>2023-09-09T04:54:01Z</time></trkpt><trkpt lat="35.7862372" lon="139.1511621"><ele>818.8766666666667</ele><time>2023-09-09T04:54:22Z</time></trkpt><trkpt lat="35.786406" lon="139.1510501"><ele>821.4566666666666</ele><time>2023-09-09T04:54:40Z</time></trkpt><trkpt lat="35.786603" lon="139.1509502"><ele>825.1966666666667</ele><time>2023-09-09T04:54:55Z</time></trkpt><trkpt lat="35.7867841" lon="139.1509859"><ele>828.1933333333333</ele><time>2023-09-09T04:55:23Z</time></trkpt><trkpt lat="35.7869712" lon="139.150982"><ele>830.6433333333333</ele><time>2023-09-09T04:55:53Z</time></trkpt><trkpt lat="35.7867802" lon="139.150979"><ele>831.5033333333334</ele><time>2023-09-09T04:56:23Z</time></trkpt><trkpt lat="35.7869798" lon="139.151075"><ele>830.9766666666668</ele><time>2023-09-09T04:56:50Z</time></trkpt><trkpt lat="35.7871689" lon="139.1510337"><ele>829.6999999999999</ele><time>2023-09-09T04:57:05Z</time></trkpt><trkpt lat="35.7873765" lon="139.1509943"><ele>829.96</ele><time>2023-09-09T04:57:17Z</time></trkpt><trkpt lat="35.7875476" lon="139.1510993"><ele>831.4633333333335</ele><time>2023-09-09T04:57:32Z</time></trkpt><trkpt lat="35.7877133" lon="139.1512259"><ele>832.57</ele><time>2023-09-09T04:57:50Z</time></trkpt><trkpt lat="35.787896" lon="139.1513621"><ele>833.86</ele><time>2023-09-09T04:58:11Z</time></trkpt><trkpt lat="35.7880665" lon="139.1514504"><ele>834.25</ele><time>2023-09-09T04:58:20Z</time></trkpt><trkpt lat="35.7882586" lon="139.1514006"><ele>835.3966666666666</ele><time>2023-09-09T04:58:33Z</time></trkpt><trkpt lat="35.7884653" lon="139.1514402"><ele>837.0766666666667</ele><time>2023-09-09T04:58:45Z</time></trkpt><trkpt lat="35.788591" lon="139.1516544"><ele>837.69</ele><time>2023-09-09T04:59:15Z</time></trkpt><trkpt lat="35.7885921" lon="139.1519015"><ele>836.19</ele><time>2023-09-09T04:59:27Z</time></trkpt><trkpt lat="35.7886119" lon="139.1521274"><ele>834.0466666666667</ele><time>2023-09-09T04:59:47Z</time></trkpt><trkpt lat="35.7886087" lon="139.1523939"><ele>835.07</ele><time>2023-09-09T05:00:02Z</time></trkpt><trkpt lat="35.7885495" lon="139.152621"><ele>836.4466666666667</ele><time>2023-09-09T05:00:14Z</time></trkpt><trkpt lat="35.7885949" lon="139.1528593"><ele>838.2166666666667</ele><time>2023-09-09T05:00:29Z</time></trkpt><trkpt lat="35.7887577" lon="139.1530106"><ele>838.6766666666666</ele><time>2023-09-09T05:00:44Z</time></trkpt><trkpt lat="35.7888994" lon="139.1531527"><ele>840.9033333333333</ele><time>2023-09-09T05:00:56Z</time></trkpt><trkpt lat="35.7891068" lon="139.1532565"><ele>841.9499999999999</ele><time>2023-09-09T05:01:11Z</time></trkpt><trkpt lat="35.7893014" lon="139.1532866"><ele>842.1766666666667</ele><time>2023-09-09T05:01:23Z</time></trkpt><trkpt lat="35.7894368" lon="139.1534565"><ele>840.1466666666666</ele><time>2023-09-09T05:01:38Z</time></trkpt><trkpt lat="35.7896209" lon="139.1534367"><ele>838.0500000000001</ele><time>2023-09-09T05:01:53Z</time></trkpt><trkpt lat="35.7898105" lon="139.1533687"><ele>836.3266666666667</ele><time>2023-09-09T05:03:08Z</time></trkpt></trkseg></trk></gpx>