<?xml version='1.0' encoding='UTF-8'?><gpx creator="YAMAP - https://yamap.com" xsi:schemaLocation="http://www.topografix.com/GPX/1/1 http://www.topografix.com/GPX/1/1/gpx.xsd" version="1.1" xmlns="http://www.topografix.com/GPX/1/1" xmlns:xsi="http://www.w3.org/2001/XMLSchema-instance"><metadata><bounds maxlat="35.9345656" maxlon="139.3087534" minlat="35.8890249" minlon="139.2226135"/></metadata><trk><name>大沢山・蟹穴山・茶之岳山・スカリ山・観音ヶ岳・愛宕山・東ムカイ山・小瀬名富士・物見山・高指山・...</name><number>1</number><trkseg><trkpt lat="35.9086336" lon="139.226753"><ele>181.5</ele><time>2023-03-31T23:55:22Z</time></trkpt><trkpt lat="35.908506" lon="139.2269109"><ele>182.985</ele><time>2023-03-31T23:56:49Z</time></trkpt><trkpt lat="35.9085048" lon="139.2271388"><ele>183.88666666666668</ele><time>2023-03-31T23:57:09Z</time></trkpt><trkpt lat="35.9086819" lon="139.2272008"><ele>183.87333333333333</ele><time>2023-03-31T23:57:20Z</time></trkpt><trkpt lat="35.9088548" lon="139.2271146"><ele>181.5666666666667</ele><time>2023-03-31T23:57:38Z</time></trkpt><trkpt lat="35.9089001" lon="139.227348"><ele>178.51666666666665</ele><time>2023-03-31T23:57:51Z</time></trkpt><trkpt lat="35.9088634" lon="139.2275754"><ele>178.21</ele><time>2023-03-31T23:58:06Z</time></trkpt><trkpt lat="35.9088777" lon="139.2277997"><ele>179.34</ele><time>2023-03-31T23:58:17Z</time></trkpt><trkpt lat="35.9089332" lon="139.2280106"><ele>181.86666666666667</ele><time>2023-03-31T23:58:31Z</time></trkpt><trkpt lat="35.9090541" lon="139.2281956"><ele>183.3166666666667</ele><time>2023-03-31T23:58:41Z</time></trkpt><trkpt lat="35.9092338" lon="139.2282659"><ele>182.82333333333335</ele><time>2023-03-31T23:58:50Z</time></trkpt><trkpt lat="35.9094094" lon="139.2283378"><ele>180.64666666666668</ele><time>2023-03-31T23:59:06Z</time></trkpt><trkpt lat="35.9095173" lon="139.2285266"><ele>177.83333333333334</ele><time>2023-03-31T23:59:17Z</time></trkpt><trkpt lat="35.9096377" lon="139.2287082"><ele>177.12666666666667</ele><time>2023-03-31T23:59:27Z</time></trkpt><trkpt lat="35.9097373" lon="139.2288977"><ele>177.1</ele><time>2023-03-31T23:59:41Z</time></trkpt><trkpt lat="35.9097211" lon="139.2291212"><ele>177.83</ele><time>2023-03-31T23:59:52Z</time></trkpt><trkpt lat="35.90975" lon="139.229347"><ele>178.88</ele><time>2023-04-01T00:00:08Z</time></trkpt><trkpt lat="35.9098008" lon="139.2295679"><ele>179.7733333333333</ele><time>2023-04-01T00:00:18Z</time></trkpt><trkpt lat="35.9098725" lon="139.2297875"><ele>180.0</ele><time>2023-04-01T00:00:42Z</time></trkpt><trkpt lat="35.9100578" lon="139.2297992"><ele>178.45666666666668</ele><time>2023-04-01T00:00:57Z</time></trkpt><trkpt lat="35.9102341" lon="139.2298467"><ele>176.31333333333336</ele><time>2023-04-01T00:01:04Z</time></trkpt><trkpt lat="35.9104183" lon="139.2298478"><ele>173.33666666666667</ele><time>2023-04-01T00:01:15Z</time></trkpt><trkpt lat="35.9105947" lon="139.2297797"><ele>170.55999999999997</ele><time>2023-04-01T00:01:23Z</time></trkpt><trkpt lat="35.9107743" lon="139.2297121"><ele>170.83666666666667</ele><time>2023-04-01T00:01:36Z</time></trkpt><trkpt lat="35.9109817" lon="139.2297333"><ele>174.67999999999998</ele><time>2023-04-01T00:01:46Z</time></trkpt><trkpt lat="35.911073" lon="139.2299279"><ele>178.80666666666664</ele><time>2023-04-01T00:01:57Z</time></trkpt><trkpt lat="35.9110014" lon="139.2301426"><ele>179.49</ele><time>2023-04-01T00:02:06Z</time></trkpt><trkpt lat="35.9112025" lon="139.2301219"><ele>179.50666666666666</ele><time>2023-04-01T00:02:27Z</time></trkpt><trkpt lat="35.9113872" lon="139.2301397"><ele>181.14333333333335</ele><time>2023-04-01T00:02:41Z</time></trkpt><trkpt lat="35.9115704" lon="139.2301983"><ele>184.6933333333333</ele><time>2023-04-01T00:02:54Z</time></trkpt><trkpt lat="35.9117515" lon="139.2302155"><ele>186.73666666666668</ele><time>2023-04-01T00:03:06Z</time></trkpt><trkpt lat="35.9118275" lon="139.2304297"><ele>188.65</ele><time>2023-04-01T00:03:35Z</time></trkpt><trkpt lat="35.9119916" lon="139.2305459"><ele>190.07666666666668</ele><time>2023-04-01T00:03:42Z</time></trkpt><trkpt lat="35.9121849" lon="139.2305519"><ele>191.98666666666668</ele><time>2023-04-01T00:03:52Z</time></trkpt><trkpt lat="35.9123419" lon="139.2304137"><ele>194.01</ele><time>2023-04-01T00:04:00Z</time></trkpt><trkpt lat="35.9125348" lon="139.2303766"><ele>196.34333333333333</ele><time>2023-04-01T00:04:10Z</time></trkpt><trkpt lat="35.912699" lon="139.2305044"><ele>197.98000000000002</ele><time>2023-04-01T00:04:19Z</time></trkpt><trkpt lat="35.9127944" lon="139.2306984"><ele>197.4333333333333</ele><time>2023-04-01T00:04:29Z</time></trkpt><trkpt lat="35.9128225" lon="139.2309279"><ele>195.77666666666667</ele><time>2023-04-01T00:04:39Z</time></trkpt><trkpt lat="35.9128651" lon="139.2311457"><ele>193.3066666666667</ele><time>2023-04-01T00:04:52Z</time></trkpt><trkpt lat="35.9130481" lon="139.2312505"><ele>190.62666666666667</ele><time>2023-04-01T00:05:02Z</time></trkpt><trkpt lat="35.9132089" lon="139.231365"><ele>186.95666666666668</ele><time>2023-04-01T00:05:15Z</time></trkpt><trkpt lat="35.9133425" lon="139.2315371"><ele>181.94000000000003</ele><time>2023-04-01T00:05:29Z</time></trkpt><trkpt lat="35.9133007" lon="139.2313153"><ele>179.90333333333334</ele><time>2023-04-01T00:06:19Z</time></trkpt><trkpt lat="35.9134838" lon="139.231344"><ele>177.67</ele><time>2023-04-01T00:06:31Z</time></trkpt><trkpt lat="35.9135" lon="139.231119"><ele>178.49666666666667</ele><time>2023-04-01T00:07:07Z</time></trkpt><trkpt lat="35.913689" lon="139.2310933"><ele>177.0233333333333</ele><time>2023-04-01T00:07:24Z</time></trkpt><trkpt lat="35.9138446" lon="139.2309749"><ele>177.4466666666667</ele><time>2023-04-01T00:07:35Z</time></trkpt><trkpt lat="35.9140207" lon="139.2309168"><ele>177.13666666666668</ele><time>2023-04-01T00:07:47Z</time></trkpt><trkpt lat="35.9142002" lon="139.2308253"><ele>177.47000000000003</ele><time>2023-04-01T00:08:00Z</time></trkpt><trkpt lat="35.9143483" lon="139.230698"><ele>177.73666666666668</ele><time>2023-04-01T00:08:10Z</time></trkpt><trkpt lat="35.9144626" lon="139.2305118"><ele>178.36333333333334</ele><time>2023-04-01T00:08:21Z</time></trkpt><trkpt lat="35.9146348" lon="139.2304279"><ele>179.01</ele><time>2023-04-01T00:08:33Z</time></trkpt><trkpt lat="35.9148207" lon="139.2304484"><ele>179.05333333333337</ele><time>2023-04-01T00:08:47Z</time></trkpt><trkpt lat="35.9149857" lon="139.2305493"><ele>178.6966666666667</ele><time>2023-04-01T00:09:02Z</time></trkpt><trkpt lat="35.915161" lon="139.2306227"><ele>178.67333333333332</ele><time>2023-04-01T00:09:15Z</time></trkpt><trkpt lat="35.9153401" lon="139.2305734"><ele>179.0</ele><time>2023-04-01T00:09:37Z</time></trkpt><trkpt lat="35.9154979" lon="139.2304449"><ele>179.29333333333332</ele><time>2023-04-01T00:09:50Z</time></trkpt><trkpt lat="35.9156472" lon="139.2302817"><ele>179.65666666666667</ele><time>2023-04-01T00:10:02Z</time></trkpt><trkpt lat="35.9157655" lon="139.230098"><ele>181.46</ele><time>2023-04-01T00:10:15Z</time></trkpt><trkpt lat="35.9158238" lon="139.2298426"><ele>182.9466666666667</ele><time>2023-04-01T00:10:26Z</time></trkpt><trkpt lat="35.9159403" lon="139.2296663"><ele>183.71666666666667</ele><time>2023-04-01T00:10:39Z</time></trkpt><trkpt lat="35.9159851" lon="139.2294383"><ele>182.7833333333333</ele><time>2023-04-01T00:10:50Z</time></trkpt><trkpt lat="35.9161138" lon="139.2292672"><ele>182.35333333333332</ele><time>2023-04-01T00:11:07Z</time></trkpt><trkpt lat="35.9162461" lon="139.2291126"><ele>182.32333333333335</ele><time>2023-04-01T00:11:21Z</time></trkpt><trkpt lat="35.9164287" lon="139.2290472"><ele>183.69666666666663</ele><time>2023-04-01T00:11:36Z</time></trkpt><trkpt lat="35.9165744" lon="139.2291845"><ele>184.42</ele><time>2023-04-01T00:11:52Z</time></trkpt><trkpt lat="35.9167331" lon="139.2293062"><ele>185.32000000000002</ele><time>2023-04-01T00:12:01Z</time></trkpt><trkpt lat="35.9169034" lon="139.2293833"><ele>185.23666666666668</ele><time>2023-04-01T00:12:15Z</time></trkpt><trkpt lat="35.9170689" lon="139.229251"><ele>185.33</ele><time>2023-04-01T00:12:34Z</time></trkpt><trkpt lat="35.9172378" lon="139.2291333"><ele>185.83333333333334</ele><time>2023-04-01T00:12:42Z</time></trkpt><trkpt lat="35.9173792" lon="139.2289859"><ele>186.0566666666667</ele><time>2023-04-01T00:12:52Z</time></trkpt><trkpt lat="35.917508" lon="139.2288157"><ele>186.61666666666665</ele><time>2023-04-01T00:13:29Z</time></trkpt><trkpt lat="35.9176762" lon="139.2286956"><ele>186.70666666666668</ele><time>2023-04-01T00:13:37Z</time></trkpt><trkpt lat="35.9178284" lon="139.2285506"><ele>187.18666666666664</ele><time>2023-04-01T00:13:46Z</time></trkpt><trkpt lat="35.9179757" lon="139.2284146"><ele>189.41666666666666</ele><time>2023-04-01T00:13:59Z</time></trkpt><trkpt lat="35.9181072" lon="139.2282575"><ele>192.60999999999999</ele><time>2023-04-01T00:14:11Z</time></trkpt><trkpt lat="35.9181924" lon="139.2280575"><ele>193.3033333333333</ele><time>2023-04-01T00:14:20Z</time></trkpt><trkpt lat="35.9182349" lon="139.2278259"><ele>192.26666666666665</ele><time>2023-04-01T00:14:31Z</time></trkpt><trkpt lat="35.9183067" lon="139.2276024"><ele>190.90333333333334</ele><time>2023-04-01T00:14:42Z</time></trkpt><trkpt lat="35.9183147" lon="139.2273774"><ele>192.08333333333334</ele><time>2023-04-01T00:14:55Z</time></trkpt><trkpt lat="35.9184299" lon="139.227206"><ele>193.53</ele><time>2023-04-01T00:15:09Z</time></trkpt><trkpt lat="35.9185584" lon="139.2270398"><ele>194.39333333333332</ele><time>2023-04-01T00:15:24Z</time></trkpt><trkpt lat="35.9186167" lon="139.2268228"><ele>194.89</ele><time>2023-04-01T00:15:42Z</time></trkpt><trkpt lat="35.9185885" lon="139.2265998"><ele>195.51333333333332</ele><time>2023-04-01T00:15:55Z</time></trkpt><trkpt lat="35.9186422" lon="139.2263732"><ele>195.26666666666665</ele><time>2023-04-01T00:16:07Z</time></trkpt><trkpt lat="35.9185342" lon="139.22619"><ele>195.78333333333333</ele><time>2023-04-01T00:16:12Z</time></trkpt><trkpt lat="35.9184922" lon="139.2259603"><ele>195.93666666666664</ele><time>2023-04-01T00:16:23Z</time></trkpt><trkpt lat="35.9185257" lon="139.2257248"><ele>196.88</ele><time>2023-04-01T00:16:37Z</time></trkpt><trkpt lat="35.9185627" lon="139.2255037"><ele>197.10999999999999</ele><time>2023-04-01T00:16:48Z</time></trkpt><trkpt lat="35.9186117" lon="139.2252726"><ele>197.06333333333336</ele><time>2023-04-01T00:17:01Z</time></trkpt><trkpt lat="35.9186564" lon="139.2250578"><ele>197.01666666666665</ele><time>2023-04-01T00:17:14Z</time></trkpt><trkpt lat="35.9187487" lon="139.2248665"><ele>197.38333333333335</ele><time>2023-04-01T00:17:25Z</time></trkpt><trkpt lat="35.918781" lon="139.224644"><ele>197.83333333333334</ele><time>2023-04-01T00:17:37Z</time></trkpt><trkpt lat="35.9188671" lon="139.2244347"><ele>198.42</ele><time>2023-04-01T00:17:50Z</time></trkpt><trkpt lat="35.9189523" lon="139.224235"><ele>199.54999999999998</ele><time>2023-04-01T00:18:01Z</time></trkpt><trkpt lat="35.9190674" lon="139.2240604"><ele>200.36666666666667</ele><time>2023-04-01T00:18:13Z</time></trkpt><trkpt lat="35.9191764" lon="139.2238744"><ele>201.04666666666665</ele><time>2023-04-01T00:18:26Z</time></trkpt><trkpt lat="35.9193572" lon="139.2238045"><ele>201.40666666666667</ele><time>2023-04-01T00:18:41Z</time></trkpt><trkpt lat="35.9195116" lon="139.2236684"><ele>203.00333333333333</ele><time>2023-04-01T00:18:55Z</time></trkpt><trkpt lat="35.9196875" lon="139.2235494"><ele>204.37666666666667</ele><time>2023-04-01T00:19:12Z</time></trkpt><trkpt lat="35.9198366" lon="139.2234196"><ele>205.62</ele><time>2023-04-01T00:19:26Z</time></trkpt><trkpt lat="35.919984" lon="139.2232509"><ele>205.61333333333334</ele><time>2023-04-01T00:19:39Z</time></trkpt><trkpt lat="35.9201497" lon="139.2231521"><ele>205.6966666666667</ele><time>2023-04-01T00:19:55Z</time></trkpt><trkpt lat="35.9202933" lon="139.2233448"><ele>205.48666666666668</ele><time>2023-04-01T00:20:08Z</time></trkpt><trkpt lat="35.9203841" lon="139.2235377"><ele>205.69333333333336</ele><time>2023-04-01T00:20:32Z</time></trkpt><trkpt lat="35.9204901" lon="139.2237297"><ele>206.25333333333333</ele><time>2023-04-01T00:20:50Z</time></trkpt><trkpt lat="35.9205617" lon="139.2239448"><ele>206.82333333333335</ele><time>2023-04-01T00:21:06Z</time></trkpt><trkpt lat="35.9206766" lon="139.2241212"><ele>207.56333333333336</ele><time>2023-04-01T00:21:16Z</time></trkpt><trkpt lat="35.9208382" lon="139.2242197"><ele>208.0666666666667</ele><time>2023-04-01T00:21:46Z</time></trkpt><trkpt lat="35.9210223" lon="139.2242083"><ele>208.5</ele><time>2023-04-01T00:22:05Z</time></trkpt><trkpt lat="35.9212079" lon="139.2241457"><ele>208.75333333333333</ele><time>2023-04-01T00:22:13Z</time></trkpt><trkpt lat="35.921362" lon="139.2239956"><ele>209.05999999999997</ele><time>2023-04-01T00:22:24Z</time></trkpt><trkpt lat="35.9214906" lon="139.2238231"><ele>209.91</ele><time>2023-04-01T00:22:37Z</time></trkpt><trkpt lat="35.9216714" lon="139.2237652"><ele>210.98333333333335</ele><time>2023-04-01T00:22:48Z</time></trkpt><trkpt lat="35.921827" lon="139.2236364"><ele>212.42666666666665</ele><time>2023-04-01T00:23:01Z</time></trkpt><trkpt lat="35.9219947" lon="139.2235341"><ele>213.41666666666666</ele><time>2023-04-01T00:23:13Z</time></trkpt><trkpt lat="35.9221087" lon="139.223354"><ele>214.51333333333332</ele><time>2023-04-01T00:23:30Z</time></trkpt><trkpt lat="35.9222632" lon="139.2232347"><ele>215.2566666666667</ele><time>2023-04-01T00:23:42Z</time></trkpt><trkpt lat="35.9224443" lon="139.2232247"><ele>215.90666666666667</ele><time>2023-04-01T00:23:54Z</time></trkpt><trkpt lat="35.9226146" lon="139.2231278"><ele>216.38333333333333</ele><time>2023-04-01T00:24:10Z</time></trkpt><trkpt lat="35.9227512" lon="139.2229811"><ele>217.14666666666668</ele><time>2023-04-01T00:24:24Z</time></trkpt><trkpt lat="35.9227519" lon="139.2227554"><ele>218.4433333333333</ele><time>2023-04-01T00:24:38Z</time></trkpt><trkpt lat="35.9229193" lon="139.2226135"><ele>220.35</ele><time>2023-04-01T00:24:45Z</time></trkpt><trkpt lat="35.9231016" lon="139.2226606"><ele>221.46333333333334</ele><time>2023-04-01T00:24:50Z</time></trkpt><trkpt lat="35.9232849" lon="139.2227311"><ele>222.4366666666667</ele><time>2023-04-01T00:25:18Z</time></trkpt><trkpt lat="35.9232987" lon="139.2229634"><ele>223.04999999999998</ele><time>2023-04-01T00:25:28Z</time></trkpt><trkpt lat="35.9232975" lon="139.2231937"><ele>225.42</ele><time>2023-04-01T00:25:40Z</time></trkpt><trkpt lat="35.9233938" lon="139.2233843"><ele>228.4533333333333</ele><time>2023-04-01T00:25:56Z</time></trkpt><trkpt lat="35.9235625" lon="139.2234642"><ele>231.4</ele><time>2023-04-01T00:26:07Z</time></trkpt><trkpt lat="35.923699" lon="139.2236452"><ele>234.66</ele><time>2023-04-01T00:26:21Z</time></trkpt><trkpt lat="35.9238794" lon="139.2236287"><ele>235.90333333333334</ele><time>2023-04-01T00:26:34Z</time></trkpt><trkpt lat="35.9240543" lon="139.2235402"><ele>236.45000000000002</ele><time>2023-04-01T00:26:49Z</time></trkpt><trkpt lat="35.9242206" lon="139.2236652"><ele>236.0233333333333</ele><time>2023-04-01T00:27:01Z</time></trkpt><trkpt lat="35.924298" lon="139.2238656"><ele>236.87333333333333</ele><time>2023-04-01T00:27:16Z</time></trkpt><trkpt lat="35.9244282" lon="139.2240322"><ele>238.32000000000002</ele><time>2023-04-01T00:27:31Z</time></trkpt><trkpt lat="35.924617" lon="139.2239996"><ele>238.96</ele><time>2023-04-01T00:27:47Z</time></trkpt><trkpt lat="35.9247956" lon="139.2239196"><ele>239.15666666666667</ele><time>2023-04-01T00:28:01Z</time></trkpt><trkpt lat="35.9249835" lon="139.2239572"><ele>239.29999999999998</ele><time>2023-04-01T00:28:13Z</time></trkpt><trkpt lat="35.925133" lon="139.2240818"><ele>241.28666666666663</ele><time>2023-04-01T00:28:23Z</time></trkpt><trkpt lat="35.9252885" lon="139.2242002"><ele>244.00666666666666</ele><time>2023-04-01T00:28:36Z</time></trkpt><trkpt lat="35.9254715" lon="139.2242306"><ele>246.54333333333332</ele><time>2023-04-01T00:28:54Z</time></trkpt><trkpt lat="35.9256537" lon="139.2242501"><ele>248.58333333333334</ele><time>2023-04-01T00:29:10Z</time></trkpt><trkpt lat="35.9258005" lon="139.2241162"><ele>248.74</ele><time>2023-04-01T00:29:41Z</time></trkpt><trkpt lat="35.9259844" lon="139.2241497"><ele>249.12333333333333</ele><time>2023-04-01T00:30:04Z</time></trkpt><trkpt lat="35.9261647" lon="139.2242223"><ele>248.68666666666664</ele><time>2023-04-01T00:30:14Z</time></trkpt><trkpt lat="35.92635" lon="139.2242635"><ele>251.66333333333333</ele><time>2023-04-01T00:30:24Z</time></trkpt><trkpt lat="35.9265159" lon="139.2241701"><ele>253.64666666666668</ele><time>2023-04-01T00:30:46Z</time></trkpt><trkpt lat="35.9267146" lon="139.2242068"><ele>254.84666666666666</ele><time>2023-04-01T00:31:00Z</time></trkpt><trkpt lat="35.9268202" lon="139.2244056"><ele>254.31333333333336</ele><time>2023-04-01T00:31:13Z</time></trkpt><trkpt lat="35.9270065" lon="139.2244621"><ele>255.02666666666664</ele><time>2023-04-01T00:31:24Z</time></trkpt><trkpt lat="35.9270779" lon="139.2246857"><ele>256.72333333333336</ele><time>2023-04-01T00:31:43Z</time></trkpt><trkpt lat="35.9272523" lon="139.2247986"><ele>258.3966666666667</ele><time>2023-04-01T00:31:53Z</time></trkpt><trkpt lat="35.9274448" lon="139.2248271"><ele>259.68</ele><time>2023-04-01T00:32:05Z</time></trkpt><trkpt lat="35.9276333" lon="139.2248363"><ele>261.21333333333337</ele><time>2023-04-01T00:32:20Z</time></trkpt><trkpt lat="35.927815" lon="139.2248303"><ele>262.99666666666667</ele><time>2023-04-01T00:32:34Z</time></trkpt><trkpt lat="35.9279397" lon="139.2249996"><ele>264.60333333333335</ele><time>2023-04-01T00:32:47Z</time></trkpt><trkpt lat="35.927981" lon="139.2252311"><ele>265.5466666666667</ele><time>2023-04-01T00:32:59Z</time></trkpt><trkpt lat="35.9280601" lon="139.2254479"><ele>266.94</ele><time>2023-04-01T00:33:13Z</time></trkpt><trkpt lat="35.9281223" lon="139.2256588"><ele>268.9066666666667</ele><time>2023-04-01T00:33:32Z</time></trkpt><trkpt lat="35.9281228" lon="139.2258987"><ele>270.1466666666667</ele><time>2023-04-01T00:33:43Z</time></trkpt><trkpt lat="35.9281347" lon="139.226125"><ele>270.3533333333333</ele><time>2023-04-01T00:33:57Z</time></trkpt><trkpt lat="35.9282161" lon="139.2263258"><ele>271.3433333333333</ele><time>2023-04-01T00:34:08Z</time></trkpt><trkpt lat="35.9282964" lon="139.2265277"><ele>273.6233333333333</ele><time>2023-04-01T00:34:20Z</time></trkpt><trkpt lat="35.9283841" lon="139.2267286"><ele>276.26</ele><time>2023-04-01T00:34:34Z</time></trkpt><trkpt lat="35.9285417" lon="139.2268554"><ele>277.45666666666665</ele><time>2023-04-01T00:34:50Z</time></trkpt><trkpt lat="35.9287297" lon="139.2267685"><ele>277.80333333333334</ele><time>2023-04-01T00:35:00Z</time></trkpt><trkpt lat="35.9289245" lon="139.2266677"><ele>278.24666666666667</ele><time>2023-04-01T00:35:08Z</time></trkpt><trkpt lat="35.9290683" lon="139.2265129"><ele>280.15333333333336</ele><time>2023-04-01T00:35:23Z</time></trkpt><trkpt lat="35.9292697" lon="139.2265508"><ele>281.52</ele><time>2023-04-01T00:35:33Z</time></trkpt><trkpt lat="35.929454" lon="139.2265918"><ele>283.6566666666667</ele><time>2023-04-01T00:35:44Z</time></trkpt><trkpt lat="35.9295664" lon="139.2264131"><ele>285.1233333333334</ele><time>2023-04-01T00:36:00Z</time></trkpt><trkpt lat="35.929694" lon="139.2262477"><ele>288.3633333333334</ele><time>2023-04-01T00:36:12Z</time></trkpt><trkpt lat="35.9298236" lon="139.2260843"><ele>290.41333333333336</ele><time>2023-04-01T00:36:25Z</time></trkpt><trkpt lat="35.9299887" lon="139.2259772"><ele>292.96666666666664</ele><time>2023-04-01T00:36:41Z</time></trkpt><trkpt lat="35.9301205" lon="139.2258256"><ele>292.97333333333336</ele><time>2023-04-01T00:36:59Z</time></trkpt><trkpt lat="35.9302594" lon="139.2256794"><ele>292.1233333333333</ele><time>2023-04-01T00:37:19Z</time></trkpt><trkpt lat="35.9304493" lon="139.2256275"><ele>291.5933333333333</ele><time>2023-04-01T00:37:34Z</time></trkpt><trkpt lat="35.9306267" lon="139.2255741"><ele>293.6166666666666</ele><time>2023-04-01T00:37:52Z</time></trkpt><trkpt lat="35.9307815" lon="139.2254597"><ele>296.18</ele><time>2023-04-01T00:39:01Z</time></trkpt><trkpt lat="35.9309466" lon="139.2256121"><ele>297.88</ele><time>2023-04-01T00:39:14Z</time></trkpt><trkpt lat="35.9310976" lon="139.225746"><ele>300.06333333333333</ele><time>2023-04-01T00:39:25Z</time></trkpt><trkpt lat="35.9312344" lon="139.2259102"><ele>304.31</ele><time>2023-04-01T00:39:37Z</time></trkpt><trkpt lat="35.9313913" lon="139.2260479"><ele>309.0466666666666</ele><time>2023-04-01T00:39:52Z</time></trkpt><trkpt lat="35.9315744" lon="139.2260501"><ele>311.04999999999995</ele><time>2023-04-01T00:40:31Z</time></trkpt><trkpt lat="35.9317591" lon="139.2260864"><ele>310.76</ele><time>2023-04-01T00:40:39Z</time></trkpt><trkpt lat="35.9319421" lon="139.2260671"><ele>309.64000000000004</ele><time>2023-04-01T00:40:50Z</time></trkpt><trkpt lat="35.9321248" lon="139.2260101"><ele>310.7866666666667</ele><time>2023-04-01T00:41:07Z</time></trkpt><trkpt lat="35.9319954" lon="139.2261708"><ele>312.64000000000004</ele><time>2023-04-01T00:41:35Z</time></trkpt><trkpt lat="35.9318075" lon="139.226195"><ele>313.63000000000005</ele><time>2023-04-01T00:41:49Z</time></trkpt><trkpt lat="35.9316268" lon="139.2261709"><ele>313.7966666666667</ele><time>2023-04-01T00:42:20Z</time></trkpt><trkpt lat="35.9314449" lon="139.2261452"><ele>315.25333333333333</ele><time>2023-04-01T00:42:38Z</time></trkpt><trkpt lat="35.9312742" lon="139.2260426"><ele>315.28999999999996</ele><time>2023-04-01T00:42:56Z</time></trkpt><trkpt lat="35.9311033" lon="139.2261162"><ele>319.19666666666666</ele><time>2023-04-01T00:43:18Z</time></trkpt><trkpt lat="35.9309295" lon="139.2261797"><ele>323.3</ele><time>2023-04-01T00:43:49Z</time></trkpt><trkpt lat="35.9307576" lon="139.2263031"><ele>328.84999999999997</ele><time>2023-04-01T00:44:00Z</time></trkpt><trkpt lat="35.9306506" lon="139.2264935"><ele>331.59</ele><time>2023-04-01T00:44:16Z</time></trkpt><trkpt lat="35.9305519" lon="139.226681"><ele>332.5733333333333</ele><time>2023-04-01T00:44:29Z</time></trkpt><trkpt lat="35.9304676" lon="139.226882"><ele>334.6333333333333</ele><time>2023-04-01T00:44:47Z</time></trkpt><trkpt lat="35.9304567" lon="139.227106"><ele>335.65333333333336</ele><time>2023-04-01T00:45:00Z</time></trkpt><trkpt lat="35.9303907" lon="139.2273204"><ele>335.5566666666667</ele><time>2023-04-01T00:45:11Z</time></trkpt><trkpt lat="35.9303535" lon="139.2275401"><ele>337.18333333333334</ele><time>2023-04-01T00:45:44Z</time></trkpt><trkpt lat="35.9303133" lon="139.2277685"><ele>340.03999999999996</ele><time>2023-04-01T00:45:58Z</time></trkpt><trkpt lat="35.9301811" lon="139.2279253"><ele>344.10999999999996</ele><time>2023-04-01T00:46:20Z</time></trkpt><trkpt lat="35.9300028" lon="139.2279928"><ele>346.27</ele><time>2023-04-01T00:46:33Z</time></trkpt><trkpt lat="35.929812" lon="139.2280488"><ele>347.07666666666665</ele><time>2023-04-01T00:46:49Z</time></trkpt><trkpt lat="35.9297181" lon="139.2282475"><ele>347.60999999999996</ele><time>2023-04-01T00:47:21Z</time></trkpt><trkpt lat="35.9297462" lon="139.2284728"><ele>348.02</ele><time>2023-04-01T00:47:35Z</time></trkpt><trkpt lat="35.9299278" lon="139.2284938"><ele>351.3500000000001</ele><time>2023-04-01T00:48:19Z</time></trkpt><trkpt lat="35.9300999" lon="139.2284088"><ele>354.8633333333334</ele><time>2023-04-01T00:48:33Z</time></trkpt><trkpt lat="35.9302643" lon="139.2283016"><ele>358.7266666666667</ele><time>2023-04-01T00:49:44Z</time></trkpt><trkpt lat="35.9304318" lon="139.2282091"><ele>360.71000000000004</ele><time>2023-04-01T00:49:58Z</time></trkpt><trkpt lat="35.9306142" lon="139.2282033"><ele>362.74666666666667</ele><time>2023-04-01T00:50:14Z</time></trkpt><trkpt lat="35.930761" lon="139.2283456"><ele>364.21333333333337</ele><time>2023-04-01T00:50:41Z</time></trkpt><trkpt lat="35.9309143" lon="139.2284859"><ele>366.9666666666667</ele><time>2023-04-01T00:50:53Z</time></trkpt><trkpt lat="35.9310952" lon="139.2284522"><ele>371.43666666666667</ele><time>2023-04-01T00:51:04Z</time></trkpt><trkpt lat="35.9312379" lon="139.2282931"><ele>374.9266666666667</ele><time>2023-04-01T00:51:30Z</time></trkpt><trkpt lat="35.931402" lon="139.2283894"><ele>378.42333333333335</ele><time>2023-04-01T00:52:18Z</time></trkpt><trkpt lat="35.9313085" lon="139.2285864"><ele>379.3633333333334</ele><time>2023-04-01T00:52:24Z</time></trkpt><trkpt lat="35.931156" lon="139.2287057"><ele>382.1233333333334</ele><time>2023-04-01T00:52:35Z</time></trkpt><trkpt lat="35.9309852" lon="139.2288172"><ele>383.5133333333333</ele><time>2023-04-01T00:52:49Z</time></trkpt><trkpt lat="35.9308149" lon="139.2286999"><ele>383.9433333333333</ele><time>2023-04-01T00:52:59Z</time></trkpt><trkpt lat="35.9306616" lon="139.2288198"><ele>384.09999999999997</ele><time>2023-04-01T00:54:14Z</time></trkpt><trkpt lat="35.9304779" lon="139.2288724"><ele>380.8233333333333</ele><time>2023-04-01T00:54:34Z</time></trkpt><trkpt lat="35.9304469" lon="139.2290978"><ele>380.55333333333334</ele><time>2023-04-01T00:54:40Z</time></trkpt><trkpt lat="35.9303965" lon="139.229321"><ele>380.4666666666667</ele><time>2023-04-01T00:54:47Z</time></trkpt><trkpt lat="35.930302" lon="139.2295163"><ele>382.24666666666667</ele><time>2023-04-01T00:55:04Z</time></trkpt><trkpt lat="35.9303128" lon="139.2297401"><ele>380.8966666666667</ele><time>2023-04-01T00:55:23Z</time></trkpt><trkpt lat="35.9304951" lon="139.229752"><ele>381.28</ele><time>2023-04-01T00:55:35Z</time></trkpt><trkpt lat="35.9306581" lon="139.2296444"><ele>385.18666666666667</ele><time>2023-04-01T00:55:47Z</time></trkpt><trkpt lat="35.9308068" lon="139.2295136"><ele>392.04</ele><time>2023-04-01T00:55:58Z</time></trkpt><trkpt lat="35.9309766" lon="139.2294334"><ele>397.83</ele><time>2023-04-01T00:56:17Z</time></trkpt><trkpt lat="35.9311827" lon="139.2294494"><ele>401.2633333333333</ele><time>2023-04-01T00:57:08Z</time></trkpt><trkpt lat="35.9313451" lon="139.2293479"><ele>403.76666666666665</ele><time>2023-04-01T00:57:51Z</time></trkpt><trkpt lat="35.9315234" lon="139.2292844"><ele>404.8766666666667</ele><time>2023-04-01T00:59:51Z</time></trkpt><trkpt lat="35.93137" lon="139.22912"><ele>402.65333333333336</ele><time>2023-04-01T01:00:33Z</time></trkpt><trkpt lat="35.9315526" lon="139.2291454"><ele>402.25333333333333</ele><time>2023-04-01T01:01:49Z</time></trkpt><trkpt lat="35.9317294" lon="139.2290356"><ele>401.48333333333335</ele><time>2023-04-01T01:02:06Z</time></trkpt><trkpt lat="35.9318706" lon="139.228876"><ele>404.4433333333333</ele><time>2023-04-01T01:02:15Z</time></trkpt><trkpt lat="35.9318767" lon="139.2286483"><ele>406.81333333333333</ele><time>2023-04-01T01:03:20Z</time></trkpt><trkpt lat="35.9320307" lon="139.2285312"><ele>410.31</ele><time>2023-04-01T01:03:28Z</time></trkpt><trkpt lat="35.9321909" lon="139.2284137"><ele>412.3533333333333</ele><time>2023-04-01T01:03:39Z</time></trkpt><trkpt lat="35.9323692" lon="139.2283757"><ele>413.53333333333336</ele><time>2023-04-01T01:03:56Z</time></trkpt><trkpt lat="35.9325489" lon="139.2284145"><ele>413.6700000000001</ele><time>2023-04-01T01:04:11Z</time></trkpt><trkpt lat="35.9325766" lon="139.2286384"><ele>416.34666666666664</ele><time>2023-04-01T01:04:25Z</time></trkpt><trkpt lat="35.9324238" lon="139.2287786"><ele>419.06333333333333</ele><time>2023-04-01T01:04:32Z</time></trkpt><trkpt lat="35.9323412" lon="139.2289786"><ele>423.36999999999995</ele><time>2023-04-01T01:04:48Z</time></trkpt><trkpt lat="35.9322709" lon="139.2291866"><ele>426.26</ele><time>2023-04-01T01:05:05Z</time></trkpt><trkpt lat="35.9321902" lon="139.22939"><ele>429.2866666666667</ele><time>2023-04-01T01:05:36Z</time></trkpt><trkpt lat="35.9323102" lon="139.2295572"><ele>432.24666666666667</ele><time>2023-04-01T01:05:52Z</time></trkpt><trkpt lat="35.9324565" lon="139.2297142"><ele>434.93</ele><time>2023-04-01T01:06:08Z</time></trkpt><trkpt lat="35.9326036" lon="139.2298443"><ele>438.49333333333334</ele><time>2023-04-01T01:06:25Z</time></trkpt><trkpt lat="35.9327864" lon="139.2299171"><ele>439.97</ele><time>2023-04-01T01:06:43Z</time></trkpt><trkpt lat="35.9328765" lon="139.2301109"><ele>443.0733333333333</ele><time>2023-04-01T01:07:13Z</time></trkpt><trkpt lat="35.9329155" lon="139.2303338"><ele>444.52333333333337</ele><time>2023-04-01T01:07:28Z</time></trkpt><trkpt lat="35.9330293" lon="139.2305083"><ele>448.27666666666664</ele><time>2023-04-01T01:07:42Z</time></trkpt><trkpt lat="35.9331852" lon="139.2306321"><ele>450.49333333333334</ele><time>2023-04-01T01:08:00Z</time></trkpt><trkpt lat="35.9333457" lon="139.2307457"><ele>452.5466666666666</ele><time>2023-04-01T01:08:16Z</time></trkpt><trkpt lat="35.9334884" lon="139.2309057"><ele>453.53999999999996</ele><time>2023-04-01T01:08:33Z</time></trkpt><trkpt lat="35.9335774" lon="139.2311024"><ele>454.04333333333335</ele><time>2023-04-01T01:08:47Z</time></trkpt><trkpt lat="35.933544" lon="139.2313225"><ele>454.5333333333333</ele><time>2023-04-01T01:08:58Z</time></trkpt><trkpt lat="35.9336534" lon="139.2315033"><ele>455.5133333333333</ele><time>2023-04-01T01:09:22Z</time></trkpt><trkpt lat="35.9338084" lon="139.2313726"><ele>457.19</ele><time>2023-04-01T01:09:32Z</time></trkpt><trkpt lat="35.9339853" lon="139.2314494"><ele>460.4166666666667</ele><time>2023-04-01T01:09:50Z</time></trkpt><trkpt lat="35.9338718" lon="139.2316339"><ele>463.8433333333333</ele><time>2023-04-01T01:10:07Z</time></trkpt><trkpt lat="35.9336869" lon="139.2316353"><ele>464.6066666666666</ele><time>2023-04-01T01:10:19Z</time></trkpt><trkpt lat="35.9336663" lon="139.2318635"><ele>463.6766666666667</ele><time>2023-04-01T01:10:37Z</time></trkpt><trkpt lat="35.9337929" lon="139.2320272"><ele>464.0566666666667</ele><time>2023-04-01T01:10:52Z</time></trkpt><trkpt lat="35.9337054" lon="139.2322375"><ele>467.35666666666674</ele><time>2023-04-01T01:11:07Z</time></trkpt><trkpt lat="35.9337523" lon="139.2324539"><ele>472.8333333333333</ele><time>2023-04-01T01:11:47Z</time></trkpt><trkpt lat="35.9336448" lon="139.2326384"><ele>474.91333333333336</ele><time>2023-04-01T01:11:59Z</time></trkpt><trkpt lat="35.9335557" lon="139.2328406"><ele>475.80999999999995</ele><time>2023-04-01T01:12:14Z</time></trkpt><trkpt lat="35.9337296" lon="139.2329014"><ele>477.01</ele><time>2023-04-01T01:12:30Z</time></trkpt><trkpt lat="35.9338698" lon="139.2327546"><ele>480.3066666666667</ele><time>2023-04-01T01:13:03Z</time></trkpt><trkpt lat="35.9339334" lon="139.2325455"><ele>483.17</ele><time>2023-04-01T01:13:18Z</time></trkpt><trkpt lat="35.9340257" lon="139.2323518"><ele>483.83</ele><time>2023-04-01T01:13:30Z</time></trkpt><trkpt lat="35.934129" lon="139.2321639"><ele>484.36000000000007</ele><time>2023-04-01T01:13:46Z</time></trkpt><trkpt lat="35.9342714" lon="139.2320149"><ele>485.8966666666667</ele><time>2023-04-01T01:13:58Z</time></trkpt><trkpt lat="35.934391" lon="139.2318486"><ele>487.44000000000005</ele><time>2023-04-01T01:14:41Z</time></trkpt><trkpt lat="35.9345656" lon="139.2319301"><ele>489.08</ele><time>2023-04-01T01:14:54Z</time></trkpt><trkpt lat="35.9345321" lon="139.2321539"><ele>491.90000000000003</ele><time>2023-04-01T01:15:04Z</time></trkpt><trkpt lat="35.9343905" lon="139.2322991"><ele>495.45</ele><time>2023-04-01T01:15:14Z</time></trkpt><trkpt lat="35.9343882" lon="139.232522"><ele>499.25</ele><time>2023-04-01T01:15:29Z</time></trkpt><trkpt lat="35.9342773" lon="139.2327029"><ele>500.8933333333334</ele><time>2023-04-01T01:15:54Z</time></trkpt><trkpt lat="35.9342442" lon="139.2329448"><ele>503.79</ele><time>2023-04-01T01:16:12Z</time></trkpt><trkpt lat="35.93424" lon="139.233177"><ele>507.39333333333326</ele><time>2023-04-01T01:16:45Z</time></trkpt><trkpt lat="35.9341648" lon="139.2333908"><ele>510.92333333333335</ele><time>2023-04-01T01:17:57Z</time></trkpt><trkpt lat="35.9340997" lon="139.2336017"><ele>515.6966666666666</ele><time>2023-04-01T01:18:12Z</time></trkpt><trkpt lat="35.9342817" lon="139.2336321"><ele>519.33</ele><time>2023-04-01T01:18:47Z</time></trkpt><trkpt lat="35.9344444" lon="139.2335243"><ele>523.52</ele><time>2023-04-01T01:19:03Z</time></trkpt><trkpt lat="35.9344262" lon="139.2337517"><ele>526.0600000000001</ele><time>2023-04-01T01:19:43Z</time></trkpt><trkpt lat="35.9342926" lon="139.2339141"><ele>528.4666666666667</ele><time>2023-04-01T01:20:01Z</time></trkpt><trkpt lat="35.9341764" lon="139.23409"><ele>531.5433333333334</ele><time>2023-04-01T01:20:38Z</time></trkpt><trkpt lat="35.9340588" lon="139.2342756"><ele>533.1366666666667</ele><time>2023-04-01T01:21:00Z</time></trkpt><trkpt lat="35.9339805" lon="139.2344828"><ele>535.5500000000001</ele><time>2023-04-01T01:21:18Z</time></trkpt><trkpt lat="35.9339231" lon="139.2346978"><ele>537.92</ele><time>2023-04-01T01:21:40Z</time></trkpt><trkpt lat="35.9338305" lon="139.2349032"><ele>541.2133333333333</ele><time>2023-04-01T01:22:01Z</time></trkpt><trkpt lat="35.9336747" lon="139.2350471"><ele>541.3466666666667</ele><time>2023-04-01T01:22:16Z</time></trkpt><trkpt lat="35.9335755" lon="139.2352377"><ele>542.0866666666666</ele><time>2023-04-01T01:22:34Z</time></trkpt><trkpt lat="35.9336022" lon="139.2354682"><ele>543.2733333333332</ele><time>2023-04-01T01:22:49Z</time></trkpt><trkpt lat="35.9334078" lon="139.2354876"><ele>545.7800000000001</ele><time>2023-04-01T01:23:10Z</time></trkpt><trkpt lat="35.9332259" lon="139.2354517"><ele>545.1833333333334</ele><time>2023-04-01T01:23:16Z</time></trkpt><trkpt lat="35.9330573" lon="139.2355479"><ele>543.49</ele><time>2023-04-01T01:23:28Z</time></trkpt><trkpt lat="35.9328694" lon="139.2355842"><ele>542.4666666666667</ele><time>2023-04-01T01:23:42Z</time></trkpt><trkpt lat="35.9327257" lon="139.2357261"><ele>543.8333333333334</ele><time>2023-04-01T01:23:56Z</time></trkpt><trkpt lat="35.9325849" lon="139.2358653"><ele>544.59</ele><time>2023-04-01T01:24:07Z</time></trkpt><trkpt lat="35.932415" lon="139.2359507"><ele>544.8433333333334</ele><time>2023-04-01T01:24:26Z</time></trkpt><trkpt lat="35.9322338" lon="139.2359051"><ele>543.5033333333333</ele><time>2023-04-01T01:24:43Z</time></trkpt><trkpt lat="35.9321125" lon="139.2360892"><ele>544.6833333333334</ele><time>2023-04-01T01:24:58Z</time></trkpt><trkpt lat="35.9320651" lon="139.2363154"><ele>546.9733333333334</ele><time>2023-04-01T01:25:09Z</time></trkpt><trkpt lat="35.9320275" lon="139.2365375"><ele>554.12</ele><time>2023-04-01T01:25:25Z</time></trkpt><trkpt lat="35.9318779" lon="139.2366618"><ele>558.87</ele><time>2023-04-01T01:25:46Z</time></trkpt><trkpt lat="35.9316986" lon="139.2367123"><ele>561.2866666666667</ele><time>2023-04-01T01:26:02Z</time></trkpt><trkpt lat="35.9315446" lon="139.2368335"><ele>559.46</ele><time>2023-04-01T01:26:35Z</time></trkpt><trkpt lat="35.9313605" lon="139.2368326"><ele>557.0166666666667</ele><time>2023-04-01T01:26:53Z</time></trkpt><trkpt lat="35.9311882" lon="139.2367635"><ele>555.7933333333334</ele><time>2023-04-01T01:27:08Z</time></trkpt><trkpt lat="35.9310353" lon="139.2368972"><ele>557.3633333333333</ele><time>2023-04-01T01:27:22Z</time></trkpt><trkpt lat="35.9308722" lon="139.2370011"><ele>560.3866666666668</ele><time>2023-04-01T01:27:35Z</time></trkpt><trkpt lat="35.9307188" lon="139.2371211"><ele>563.5733333333334</ele><time>2023-04-01T01:27:49Z</time></trkpt><trkpt lat="35.9306068" lon="139.2373093"><ele>564.62</ele><time>2023-04-01T01:28:07Z</time></trkpt><trkpt lat="35.9305276" lon="139.2375112"><ele>564.8633333333333</ele><time>2023-04-01T01:28:21Z</time></trkpt><trkpt lat="35.9304576" lon="139.237723"><ele>564.7466666666668</ele><time>2023-04-01T01:28:33Z</time></trkpt><trkpt lat="35.9303186" lon="139.2378714"><ele>565.0033333333333</ele><time>2023-04-01T01:28:46Z</time></trkpt><trkpt lat="35.9303034" lon="139.238103"><ele>563.8766666666667</ele><time>2023-04-01T01:28:58Z</time></trkpt><trkpt lat="35.930285" lon="139.2383246"><ele>560.6166666666667</ele><time>2023-04-01T01:29:09Z</time></trkpt><trkpt lat="35.9302133" lon="139.2385295"><ele>555.6866666666666</ele><time>2023-04-01T01:29:23Z</time></trkpt><trkpt lat="35.9301864" lon="139.2387515"><ele>550.55</ele><time>2023-04-01T01:29:35Z</time></trkpt><trkpt lat="35.9301051" lon="139.2389618"><ele>547.1933333333333</ele><time>2023-04-01T01:29:48Z</time></trkpt><trkpt lat="35.9299599" lon="139.2391057"><ele>544.86</ele><time>2023-04-01T01:30:06Z</time></trkpt><trkpt lat="35.9298619" lon="139.2389101"><ele>543.8633333333333</ele><time>2023-04-01T01:30:09Z</time></trkpt><trkpt lat="35.9297515" lon="139.2387311"><ele>541.2366666666667</ele><time>2023-04-01T01:30:17Z</time></trkpt><trkpt lat="35.929566" lon="139.2388038"><ele>535.7600000000001</ele><time>2023-04-01T01:30:30Z</time></trkpt><trkpt lat="35.9295028" lon="139.2390119"><ele>531.3033333333334</ele><time>2023-04-01T01:30:38Z</time></trkpt><trkpt lat="35.9293663" lon="139.2391706"><ele>526.67</ele><time>2023-04-01T01:30:54Z</time></trkpt><trkpt lat="35.9292207" lon="139.2393097"><ele>523.9933333333333</ele><time>2023-04-01T01:31:04Z</time></trkpt><trkpt lat="35.9291433" lon="139.2395107"><ele>521.2566666666667</ele><time>2023-04-01T01:31:16Z</time></trkpt><trkpt lat="35.9290587" lon="139.2397125"><ele>520.4433333333333</ele><time>2023-04-01T01:31:30Z</time></trkpt><trkpt lat="35.9290518" lon="139.2399389"><ele>520.4033333333333</ele><time>2023-04-01T01:31:40Z</time></trkpt><trkpt lat="35.9291004" lon="139.2401835"><ele>520.58</ele><time>2023-04-01T01:31:51Z</time></trkpt><trkpt lat="35.9290858" lon="139.2404103"><ele>520.9533333333333</ele><time>2023-04-01T01:32:05Z</time></trkpt><trkpt lat="35.9289897" lon="139.2406028"><ele>520.6866666666666</ele><time>2023-04-01T01:32:18Z</time></trkpt><trkpt lat="35.9288779" lon="139.2408119"><ele>518.4766666666668</ele><time>2023-04-01T01:32:29Z</time></trkpt><trkpt lat="35.9287872" lon="139.2410134"><ele>515.6933333333333</ele><time>2023-04-01T01:32:42Z</time></trkpt><trkpt lat="35.9286997" lon="139.241213"><ele>512.0400000000001</ele><time>2023-04-01T01:32:52Z</time></trkpt><trkpt lat="35.9286324" lon="139.2414274"><ele>508.2133333333333</ele><time>2023-04-01T01:33:04Z</time></trkpt><trkpt lat="35.9285228" lon="139.2416047"><ele>503.99</ele><time>2023-04-01T01:33:17Z</time></trkpt><trkpt lat="35.9285381" lon="139.2418397"><ele>501.96</ele><time>2023-04-01T01:33:30Z</time></trkpt><trkpt lat="35.9286439" lon="139.2420314"><ele>501.1033333333333</ele><time>2023-04-01T01:33:39Z</time></trkpt><trkpt lat="35.9287953" lon="139.2421841"><ele>501.75666666666666</ele><time>2023-04-01T01:33:50Z</time></trkpt><trkpt lat="35.9287579" lon="139.2424116"><ele>502.3233333333333</ele><time>2023-04-01T01:34:08Z</time></trkpt><trkpt lat="35.9285948" lon="139.2425177"><ele>503.99666666666667</ele><time>2023-04-01T01:34:23Z</time></trkpt><trkpt lat="35.9284459" lon="139.2426658"><ele>505.54</ele><time>2023-04-01T01:34:40Z</time></trkpt><trkpt lat="35.9283646" lon="139.2428753"><ele>507.7866666666667</ele><time>2023-04-01T01:34:54Z</time></trkpt><trkpt lat="35.9282759" lon="139.2430736"><ele>510.1933333333333</ele><time>2023-04-01T01:35:07Z</time></trkpt><trkpt lat="35.9280954" lon="139.2430884"><ele>511.22333333333336</ele><time>2023-04-01T01:35:23Z</time></trkpt><trkpt lat="35.9279012" lon="139.2431016"><ele>510.3566666666666</ele><time>2023-04-01T01:35:42Z</time></trkpt><trkpt lat="35.927751" lon="139.243227"><ele>510.09666666666664</ele><time>2023-04-01T01:36:09Z</time></trkpt><trkpt lat="35.9276422" lon="139.2434179"><ele>511.7266666666667</ele><time>2023-04-01T01:36:22Z</time></trkpt><trkpt lat="35.9276268" lon="139.243654"><ele>513.3266666666667</ele><time>2023-04-01T01:36:35Z</time></trkpt><trkpt lat="35.9275072" lon="139.2438224"><ele>513.2800000000001</ele><time>2023-04-01T01:36:48Z</time></trkpt><trkpt lat="35.9273571" lon="139.2439612"><ele>512.8366666666667</ele><time>2023-04-01T01:37:03Z</time></trkpt><trkpt lat="35.927168" lon="139.2440613"><ele>510.17666666666673</ele><time>2023-04-01T01:37:18Z</time></trkpt><trkpt lat="35.9270087" lon="139.2441795"><ele>508.33</ele><time>2023-04-01T01:37:33Z</time></trkpt><trkpt lat="35.9268237" lon="139.2442193"><ele>506.05999999999995</ele><time>2023-04-01T01:37:46Z</time></trkpt><trkpt lat="35.9266643" lon="139.2443455"><ele>505.92333333333335</ele><time>2023-04-01T01:37:57Z</time></trkpt><trkpt lat="35.9265725" lon="139.2445536"><ele>503.8766666666667</ele><time>2023-04-01T01:38:37Z</time></trkpt><trkpt lat="35.9265196" lon="139.2447707"><ele>501.62999999999994</ele><time>2023-04-01T01:38:48Z</time></trkpt><trkpt lat="35.9264686" lon="139.2449839"><ele>500.70666666666665</ele><time>2023-04-01T01:39:03Z</time></trkpt><trkpt lat="35.9264186" lon="139.2452033"><ele>500.7166666666667</ele><time>2023-04-01T01:39:18Z</time></trkpt><trkpt lat="35.9263233" lon="139.2453991"><ele>501.0</ele><time>2023-04-01T01:39:27Z</time></trkpt><trkpt lat="35.9262129" lon="139.245579"><ele>501.41333333333336</ele><time>2023-04-01T01:40:11Z</time></trkpt><trkpt lat="35.9260307" lon="139.24555"><ele>500.60999999999996</ele><time>2023-04-01T01:40:45Z</time></trkpt><trkpt lat="35.9258825" lon="139.2456922"><ele>499.9866666666667</ele><time>2023-04-01T01:41:24Z</time></trkpt><trkpt lat="35.9257114" lon="139.2457725"><ele>498.59666666666664</ele><time>2023-04-01T01:41:39Z</time></trkpt><trkpt lat="35.9256152" lon="139.2459705"><ele>499.4766666666667</ele><time>2023-04-01T01:42:09Z</time></trkpt><trkpt lat="35.9254842" lon="139.2461257"><ele>500.34999999999997</ele><time>2023-04-01T01:42:28Z</time></trkpt><trkpt lat="35.9254015" lon="139.2463271"><ele>502.27333333333337</ele><time>2023-04-01T01:42:40Z</time></trkpt><trkpt lat="35.9252192" lon="139.2464317"><ele>503.4766666666667</ele><time>2023-04-01T01:42:54Z</time></trkpt><trkpt lat="35.925017" lon="139.2464769"><ele>502.89000000000004</ele><time>2023-04-01T01:43:05Z</time></trkpt><trkpt lat="35.9248394" lon="139.2465308"><ele>501.0733333333333</ele><time>2023-04-01T01:43:16Z</time></trkpt><trkpt lat="35.9246384" lon="139.24648"><ele>499.0033333333334</ele><time>2023-04-01T01:43:30Z</time></trkpt><trkpt lat="35.9244823" lon="139.2463685"><ele>497.09999999999997</ele><time>2023-04-01T01:43:45Z</time></trkpt><trkpt lat="35.9243089" lon="139.2464609"><ele>496.2366666666667</ele><time>2023-04-01T01:44:00Z</time></trkpt><trkpt lat="35.924126" lon="139.2464912"><ele>495.97333333333336</ele><time>2023-04-01T01:44:18Z</time></trkpt><trkpt lat="35.9239409" lon="139.2464707"><ele>496.26000000000005</ele><time>2023-04-01T01:44:31Z</time></trkpt><trkpt lat="35.9237486" lon="139.2464572"><ele>495.57666666666665</ele><time>2023-04-01T01:44:43Z</time></trkpt><trkpt lat="35.9235928" lon="139.2465963"><ele>495.41333333333336</ele><time>2023-04-01T01:44:56Z</time></trkpt><trkpt lat="35.9234047" lon="139.2465862"><ele>496.23333333333335</ele><time>2023-04-01T01:45:12Z</time></trkpt><trkpt lat="35.9232222" lon="139.2465647"><ele>497.60666666666674</ele><time>2023-04-01T01:45:30Z</time></trkpt><trkpt lat="35.9230726" lon="139.2464175"><ele>494.4766666666667</ele><time>2023-04-01T01:45:43Z</time></trkpt><trkpt lat="35.922893" lon="139.2463662"><ele>490.90333333333336</ele><time>2023-04-01T01:46:00Z</time></trkpt><trkpt lat="35.9227036" lon="139.2463095"><ele>486.99333333333334</ele><time>2023-04-01T01:46:13Z</time></trkpt><trkpt lat="35.9225242" lon="139.2463351"><ele>486.26666666666665</ele><time>2023-04-01T01:46:27Z</time></trkpt><trkpt lat="35.9223282" lon="139.2463423"><ele>483.26000000000005</ele><time>2023-04-01T01:46:39Z</time></trkpt><trkpt lat="35.9221509" lon="139.2462849"><ele>478.9666666666667</ele><time>2023-04-01T01:46:48Z</time></trkpt><trkpt lat="35.9219721" lon="139.2462532"><ele>474.6333333333334</ele><time>2023-04-01T01:47:04Z</time></trkpt><trkpt lat="35.92179" lon="139.2462481"><ele>472.74333333333334</ele><time>2023-04-01T01:47:17Z</time></trkpt><trkpt lat="35.9216634" lon="139.2464084"><ele>473.89000000000004</ele><time>2023-04-01T01:47:27Z</time></trkpt><trkpt lat="35.9216875" lon="139.2466414"><ele>478.27333333333337</ele><time>2023-04-01T01:47:53Z</time></trkpt><trkpt lat="35.9217327" lon="139.2468646"><ele>485.10999999999996</ele><time>2023-04-01T01:48:08Z</time></trkpt><trkpt lat="35.9218072" lon="139.2470738"><ele>491.39333333333326</ele><time>2023-04-01T01:48:24Z</time></trkpt><trkpt lat="35.9218341" lon="139.2472997"><ele>492.81666666666666</ele><time>2023-04-01T01:48:54Z</time></trkpt><trkpt lat="35.9218401" lon="139.247522"><ele>492.34</ele><time>2023-04-01T01:49:06Z</time></trkpt><trkpt lat="35.9218888" lon="139.2477354"><ele>493.03333333333336</ele><time>2023-04-01T01:49:33Z</time></trkpt><trkpt lat="35.9219603" lon="139.2479555"><ele>496.52</ele><time>2023-04-01T01:49:45Z</time></trkpt><trkpt lat="35.9220409" lon="139.2481645"><ele>500.30999999999995</ele><time>2023-04-01T01:49:59Z</time></trkpt><trkpt lat="35.9219893" lon="139.2483844"><ele>500.42333333333335</ele><time>2023-04-01T01:50:34Z</time></trkpt><trkpt lat="35.9219703" lon="139.2486111"><ele>499.51000000000005</ele><time>2023-04-01T01:50:49Z</time></trkpt><trkpt lat="35.9219935" lon="139.2488316"><ele>498.5166666666667</ele><time>2023-04-01T01:51:09Z</time></trkpt><trkpt lat="35.922095" lon="139.2490304"><ele>502.32666666666665</ele><time>2023-04-01T01:51:22Z</time></trkpt><trkpt lat="35.9219901" lon="139.2492401"><ele>503.6366666666667</ele><time>2023-04-01T01:51:32Z</time></trkpt><trkpt lat="35.9220129" lon="139.2494724"><ele>506.02666666666664</ele><time>2023-04-01T01:51:48Z</time></trkpt><trkpt lat="35.9220277" lon="139.2497132"><ele>504.7966666666666</ele><time>2023-04-01T01:52:03Z</time></trkpt><trkpt lat="35.9220368" lon="139.2499529"><ele>506.0333333333333</ele><time>2023-04-01T01:52:18Z</time></trkpt><trkpt lat="35.9219342" lon="139.2501546"><ele>503.50666666666666</ele><time>2023-04-01T01:52:38Z</time></trkpt><trkpt lat="35.9220226" lon="139.2503506"><ele>502.76666666666665</ele><time>2023-04-01T01:52:59Z</time></trkpt><trkpt lat="35.9221241" lon="139.2505555"><ele>503.75333333333333</ele><time>2023-04-01T01:53:15Z</time></trkpt><trkpt lat="35.922192" lon="139.2507746"><ele>508.50333333333333</ele><time>2023-04-01T01:53:30Z</time></trkpt><trkpt lat="35.9222187" lon="139.2510042"><ele>512.86</ele><time>2023-04-01T01:53:41Z</time></trkpt><trkpt lat="35.9222021" lon="139.2512282"><ele>513.0066666666667</ele><time>2023-04-01T01:53:55Z</time></trkpt><trkpt lat="35.9222041" lon="139.2514634"><ele>510.1466666666667</ele><time>2023-04-01T01:54:11Z</time></trkpt><trkpt lat="35.9221513" lon="139.2516768"><ele>505.9433333333333</ele><time>2023-04-01T01:54:28Z</time></trkpt><trkpt lat="35.9220785" lon="139.2518905"><ele>505.49666666666667</ele><time>2023-04-01T01:54:50Z</time></trkpt><trkpt lat="35.9220492" lon="139.2521184"><ele>507.52</ele><time>2023-04-01T01:55:04Z</time></trkpt><trkpt lat="35.9219948" lon="139.2523303"><ele>509.75</ele><time>2023-04-01T01:55:20Z</time></trkpt><trkpt lat="35.9219041" lon="139.2525232"><ele>509.43666666666667</ele><time>2023-04-01T01:55:44Z</time></trkpt><trkpt lat="35.9219088" lon="139.2527533"><ele>506.84999999999997</ele><time>2023-04-01T01:56:02Z</time></trkpt><trkpt lat="35.9218158" lon="139.2529519"><ele>503.40000000000003</ele><time>2023-04-01T01:56:20Z</time></trkpt><trkpt lat="35.9218249" lon="139.2531775"><ele>501.81333333333333</ele><time>2023-04-01T01:57:01Z</time></trkpt><trkpt lat="35.9217876" lon="139.2533997"><ele>500.5733333333333</ele><time>2023-04-01T01:57:17Z</time></trkpt><trkpt lat="35.9217241" lon="139.2536216"><ele>500.90000000000003</ele><time>2023-04-01T01:57:34Z</time></trkpt><trkpt lat="35.921888" lon="139.2537214"><ele>503.4833333333333</ele><time>2023-04-01T01:57:48Z</time></trkpt><trkpt lat="35.9220692" lon="139.2537086"><ele>507.82</ele><time>2023-04-01T01:58:17Z</time></trkpt><trkpt lat="35.9222412" lon="139.2538107"><ele>511.81333333333333</ele><time>2023-04-01T01:58:33Z</time></trkpt><trkpt lat="35.922369" lon="139.2539916"><ele>511.3966666666667</ele><time>2023-04-01T01:58:48Z</time></trkpt><trkpt lat="35.9224888" lon="139.2541762"><ele>508.71999999999997</ele><time>2023-04-01T01:59:06Z</time></trkpt><trkpt lat="35.9226147" lon="139.2543446"><ele>504.9766666666667</ele><time>2023-04-01T01:59:21Z</time></trkpt><trkpt lat="35.9227301" lon="139.2545284"><ele>502.34999999999997</ele><time>2023-04-01T01:59:37Z</time></trkpt><trkpt lat="35.9228914" lon="139.2546296"><ele>501.5566666666667</ele><time>2023-04-01T01:59:53Z</time></trkpt><trkpt lat="35.9230707" lon="139.2547275"><ele>502.9566666666667</ele><time>2023-04-01T02:00:10Z</time></trkpt><trkpt lat="35.9232448" lon="139.2547852"><ele>504.5133333333334</ele><time>2023-04-01T02:00:31Z</time></trkpt><trkpt lat="35.9234273" lon="139.2547976"><ele>506.24333333333334</ele><time>2023-04-01T02:00:51Z</time></trkpt><trkpt lat="35.9235906" lon="139.2548969"><ele>508.4533333333334</ele><time>2023-04-01T02:01:53Z</time></trkpt><trkpt lat="35.923737" lon="139.2550389"><ele>508.9866666666667</ele><time>2023-04-01T02:02:07Z</time></trkpt><trkpt lat="35.9239119" lon="139.2551103"><ele>503.3066666666667</ele><time>2023-04-01T02:02:20Z</time></trkpt><trkpt lat="35.9240186" lon="139.2552968"><ele>493.78</ele><time>2023-04-01T02:02:50Z</time></trkpt><trkpt lat="35.9240986" lon="139.255499"><ele>488.68</ele><time>2023-04-01T02:03:13Z</time></trkpt><trkpt lat="35.9241186" lon="139.255736"><ele>487.59</ele><time>2023-04-01T02:03:25Z</time></trkpt><trkpt lat="35.9240913" lon="139.2559631"><ele>488.5833333333333</ele><time>2023-04-01T02:03:42Z</time></trkpt><trkpt lat="35.9240158" lon="139.2561711"><ele>482.09666666666664</ele><time>2023-04-01T02:04:05Z</time></trkpt><trkpt lat="35.9239642" lon="139.2563954"><ele>477.22666666666663</ele><time>2023-04-01T02:04:21Z</time></trkpt><trkpt lat="35.9240191" lon="139.2566125"><ele>473.1066666666666</ele><time>2023-04-01T02:04:32Z</time></trkpt><trkpt lat="35.9240967" lon="139.2568273"><ele>474.9066666666667</ele><time>2023-04-01T02:04:45Z</time></trkpt><trkpt lat="35.9240516" lon="139.2570466"><ele>474.02</ele><time>2023-04-01T02:05:00Z</time></trkpt><trkpt lat="35.9238937" lon="139.25718"><ele>468.62000000000006</ele><time>2023-04-01T02:05:21Z</time></trkpt><trkpt lat="35.9237778" lon="139.257362"><ele>461.4466666666667</ele><time>2023-04-01T02:05:50Z</time></trkpt><trkpt lat="35.9237985" lon="139.2575854"><ele>458.6333333333334</ele><time>2023-04-01T02:06:38Z</time></trkpt><trkpt lat="35.923834" lon="139.2578072"><ele>462.24</ele><time>2023-04-01T02:06:51Z</time></trkpt><trkpt lat="35.9238598" lon="139.2580296"><ele>467.35999999999996</ele><time>2023-04-01T02:07:04Z</time></trkpt><trkpt lat="35.9236784" lon="139.2579983"><ele>468.6499999999999</ele><time>2023-04-01T02:07:39Z</time></trkpt><trkpt lat="35.9234932" lon="139.2580436"><ele>461.8033333333333</ele><time>2023-04-01T02:07:50Z</time></trkpt><trkpt lat="35.9234477" lon="139.2582622"><ele>456.57</ele><time>2023-04-01T02:08:00Z</time></trkpt><trkpt lat="35.9233879" lon="139.2584753"><ele>455.2133333333333</ele><time>2023-04-01T02:08:12Z</time></trkpt><trkpt lat="35.9232878" lon="139.2586888"><ele>460.6666666666667</ele><time>2023-04-01T02:08:31Z</time></trkpt><trkpt lat="35.9233274" lon="139.2589203"><ele>465.0733333333333</ele><time>2023-04-01T02:08:51Z</time></trkpt><trkpt lat="35.923276" lon="139.2591415"><ele>464.41333333333336</ele><time>2023-04-01T02:09:13Z</time></trkpt><trkpt lat="35.9231561" lon="139.2593307"><ele>459.01666666666665</ele><time>2023-04-01T02:09:53Z</time></trkpt><trkpt lat="35.9229924" lon="139.2594393"><ele>453.73333333333335</ele><time>2023-04-01T02:10:09Z</time></trkpt><trkpt lat="35.9229819" lon="139.2596665"><ele>453.6966666666667</ele><time>2023-04-01T02:10:35Z</time></trkpt><trkpt lat="35.9229242" lon="139.2598789"><ele>459.53333333333336</ele><time>2023-04-01T02:10:46Z</time></trkpt><trkpt lat="35.923" lon="139.2600821"><ele>464.00666666666666</ele><time>2023-04-01T02:11:00Z</time></trkpt><trkpt lat="35.9230991" lon="139.2602725"><ele>464.6233333333333</ele><time>2023-04-01T02:11:57Z</time></trkpt><trkpt lat="35.9229874" lon="139.2604567"><ele>460.5</ele><time>2023-04-01T02:12:27Z</time></trkpt><trkpt lat="35.9228983" lon="139.2606578"><ele>455.7366666666667</ele><time>2023-04-01T02:12:39Z</time></trkpt><trkpt lat="35.9228281" lon="139.2608747"><ele>452.7133333333333</ele><time>2023-04-01T02:12:54Z</time></trkpt><trkpt lat="35.9226837" lon="139.2610163"><ele>449.17333333333335</ele><time>2023-04-01T02:13:21Z</time></trkpt><trkpt lat="35.9227582" lon="139.2612311"><ele>447.96333333333337</ele><time>2023-04-01T02:13:31Z</time></trkpt><trkpt lat="35.9228503" lon="139.2614349"><ele>448.6666666666667</ele><time>2023-04-01T02:13:44Z</time></trkpt><trkpt lat="35.9229613" lon="139.2616182"><ele>451.8066666666667</ele><time>2023-04-01T02:14:27Z</time></trkpt><trkpt lat="35.9230303" lon="139.261831"><ele>453.24666666666667</ele><time>2023-04-01T02:14:40Z</time></trkpt><trkpt lat="35.9231892" lon="139.2619375"><ele>452.6433333333334</ele><time>2023-04-01T02:15:37Z</time></trkpt><trkpt lat="35.9232724" lon="139.2621397"><ele>453.6333333333334</ele><time>2023-04-01T02:17:52Z</time></trkpt><trkpt lat="35.9234383" lon="139.2622706"><ele>457.0266666666667</ele><time>2023-04-01T02:18:52Z</time></trkpt><trkpt lat="35.9236231" lon="139.2622973"><ele>462.24333333333334</ele><time>2023-04-01T02:19:10Z</time></trkpt><trkpt lat="35.9238059" lon="139.2624241"><ele>467.49000000000007</ele><time>2023-04-01T02:19:43Z</time></trkpt><trkpt lat="35.9239716" lon="139.2625517"><ele>473.4466666666667</ele><time>2023-04-01T02:21:04Z</time></trkpt><trkpt lat="35.9241325" lon="139.2626604"><ele>478.9133333333334</ele><time>2023-04-01T02:21:46Z</time></trkpt><trkpt lat="35.9241503" lon="139.2628901"><ele>483.9666666666667</ele><time>2023-04-01T02:22:30Z</time></trkpt><trkpt lat="35.9242182" lon="139.2631145"><ele>487.03000000000003</ele><time>2023-04-01T02:22:47Z</time></trkpt><trkpt lat="35.9241447" lon="139.2633192"><ele>489.25</ele><time>2023-04-01T02:23:14Z</time></trkpt><trkpt lat="35.9239911" lon="139.2634426"><ele>490.03000000000003</ele><time>2023-04-01T02:23:54Z</time></trkpt><trkpt lat="35.9238105" lon="139.263474"><ele>488.6266666666667</ele><time>2023-04-01T02:24:49Z</time></trkpt><trkpt lat="35.9236267" lon="139.2634907"><ele>482.1466666666667</ele><time>2023-04-01T02:25:16Z</time></trkpt><trkpt lat="35.9234481" lon="139.2635421"><ele>473.09999999999997</ele><time>2023-04-01T02:25:58Z</time></trkpt><trkpt lat="35.9233058" lon="139.2636823"><ele>465.8433333333333</ele><time>2023-04-01T02:27:03Z</time></trkpt><trkpt lat="35.923142" lon="139.2638111"><ele>463.16333333333336</ele><time>2023-04-01T02:27:18Z</time></trkpt><trkpt lat="35.9230176" lon="139.2639727"><ele>463.27666666666664</ele><time>2023-04-01T02:28:31Z</time></trkpt><trkpt lat="35.9228746" lon="139.2641192"><ele>463.52</ele><time>2023-04-01T02:28:58Z</time></trkpt><trkpt lat="35.9227132" lon="139.2642761"><ele>465.5733333333333</ele><time>2023-04-01T02:29:14Z</time></trkpt><trkpt lat="35.9225459" lon="139.2643721"><ele>467.4166666666667</ele><time>2023-04-01T02:29:38Z</time></trkpt><trkpt lat="35.9223955" lon="139.2645217"><ele>469.15000000000003</ele><time>2023-04-01T02:30:02Z</time></trkpt><trkpt lat="35.9222414" lon="139.2646545"><ele>469.3566666666666</ele><time>2023-04-01T02:30:16Z</time></trkpt><trkpt lat="35.922197" lon="139.2648733"><ele>470.10999999999996</ele><time>2023-04-01T02:30:44Z</time></trkpt><trkpt lat="35.9221755" lon="139.2651006"><ele>470.5933333333333</ele><time>2023-04-01T02:31:01Z</time></trkpt><trkpt lat="35.922046" lon="139.2652553"><ele>471.0366666666667</ele><time>2023-04-01T02:31:23Z</time></trkpt><trkpt lat="35.9219405" lon="139.2654406"><ele>471.4433333333333</ele><time>2023-04-01T02:31:42Z</time></trkpt><trkpt lat="35.9219791" lon="139.2656647"><ele>472.3833333333334</ele><time>2023-04-01T02:31:51Z</time></trkpt><trkpt lat="35.9219761" lon="139.2658911"><ele>473.30333333333334</ele><time>2023-04-01T02:32:06Z</time></trkpt><trkpt lat="35.9218213" lon="139.2660062"><ele>475.27</ele><time>2023-04-01T02:32:53Z</time></trkpt><trkpt lat="35.9217296" lon="139.2661991"><ele>477.24333333333334</ele><time>2023-04-01T02:33:15Z</time></trkpt><trkpt lat="35.9217048" lon="139.2664186"><ele>479.2633333333333</ele><time>2023-04-01T02:33:36Z</time></trkpt><trkpt lat="35.921684" lon="139.2666435"><ele>479.1000000000001</ele><time>2023-04-01T02:34:29Z</time></trkpt><trkpt lat="35.9215693" lon="139.2668258"><ele>477.25</ele><time>2023-04-01T02:34:46Z</time></trkpt><trkpt lat="35.9214497" lon="139.2669962"><ele>474.52666666666664</ele><time>2023-04-01T02:35:00Z</time></trkpt><trkpt lat="35.9213057" lon="139.2671349"><ele>473.14000000000004</ele><time>2023-04-01T02:35:21Z</time></trkpt><trkpt lat="35.9211241" lon="139.2671758"><ele>472.3533333333333</ele><time>2023-04-01T02:35:59Z</time></trkpt><trkpt lat="35.9209264" lon="139.2671613"><ele>471.93333333333334</ele><time>2023-04-01T02:36:12Z</time></trkpt><trkpt lat="35.9207393" lon="139.2671444"><ele>469.7733333333333</ele><time>2023-04-01T02:36:56Z</time></trkpt><trkpt lat="35.9205663" lon="139.2670772"><ele>467.3433333333333</ele><time>2023-04-01T02:37:26Z</time></trkpt><trkpt lat="35.9203861" lon="139.2670914"><ele>464.3533333333333</ele><time>2023-04-01T02:39:05Z</time></trkpt><trkpt lat="35.9202578" lon="139.2672696"><ele>461.08</ele><time>2023-04-01T02:39:19Z</time></trkpt><trkpt lat="35.9201188" lon="139.2674282"><ele>456.9166666666667</ele><time>2023-04-01T02:39:56Z</time></trkpt><trkpt lat="35.9199589" lon="139.2675491"><ele>453.1666666666667</ele><time>2023-04-01T02:40:07Z</time></trkpt><trkpt lat="35.919829" lon="139.2677044"><ele>451.7833333333333</ele><time>2023-04-01T02:40:40Z</time></trkpt><trkpt lat="35.9196847" lon="139.267858"><ele>452.21000000000004</ele><time>2023-04-01T02:41:04Z</time></trkpt><trkpt lat="35.9195233" lon="139.2679657"><ele>453.07</ele><time>2023-04-01T02:41:39Z</time></trkpt><trkpt lat="35.9193431" lon="139.2679782"><ele>452.74000000000007</ele><time>2023-04-01T02:43:08Z</time></trkpt><trkpt lat="35.9192288" lon="139.2678055"><ele>451.45666666666665</ele><time>2023-04-01T02:43:39Z</time></trkpt><trkpt lat="35.9191587" lon="139.2675927"><ele>448.6333333333334</ele><time>2023-04-01T02:44:46Z</time></trkpt><trkpt lat="35.9189838" lon="139.2675174"><ele>444.75333333333333</ele><time>2023-04-01T02:45:14Z</time></trkpt><trkpt lat="35.918794" lon="139.2675057"><ele>439.6933333333334</ele><time>2023-04-01T02:46:02Z</time></trkpt><trkpt lat="35.9186328" lon="139.2674062"><ele>433.7366666666667</ele><time>2023-04-01T02:46:23Z</time></trkpt><trkpt lat="35.9184987" lon="139.2672381"><ele>428.1666666666667</ele><time>2023-04-01T02:47:16Z</time></trkpt><trkpt lat="35.9183432" lon="139.2670996"><ele>424.18</ele><time>2023-04-01T02:50:21Z</time></trkpt><trkpt lat="35.918213" lon="139.2669423"><ele>423.05333333333334</ele><time>2023-04-01T02:50:32Z</time></trkpt><trkpt lat="35.9180234" lon="139.2668868"><ele>422.86666666666673</ele><time>2023-04-01T02:50:47Z</time></trkpt><trkpt lat="35.9178348" lon="139.2668811"><ele>422.84</ele><time>2023-04-01T02:51:01Z</time></trkpt><trkpt lat="35.9176523" lon="139.2669664"><ele>422.5</ele><time>2023-04-01T02:51:18Z</time></trkpt><trkpt lat="35.9174877" lon="139.2670956"><ele>422.59666666666664</ele><time>2023-04-01T02:51:27Z</time></trkpt><trkpt lat="35.9174978" lon="139.2673333"><ele>421.6833333333334</ele><time>2023-04-01T02:51:49Z</time></trkpt><trkpt lat="35.91733" lon="139.2674359"><ele>421.91</ele><time>2023-04-01T02:53:12Z</time></trkpt><trkpt lat="35.9171481" lon="139.2674523"><ele>422.2966666666667</ele><time>2023-04-01T02:53:29Z</time></trkpt><trkpt lat="35.9169779" lon="139.2675256"><ele>425.57666666666665</ele><time>2023-04-01T02:54:25Z</time></trkpt><trkpt lat="35.9167956" lon="139.2675653"><ele>428.62000000000006</ele><time>2023-04-01T02:55:22Z</time></trkpt><trkpt lat="35.9167365" lon="139.2677752"><ele>433.82</ele><time>2023-04-01T02:55:46Z</time></trkpt><trkpt lat="35.9166466" lon="139.2679735"><ele>436.43666666666667</ele><time>2023-04-01T02:56:09Z</time></trkpt><trkpt lat="35.9165194" lon="139.2681321"><ele>439.0933333333333</ele><time>2023-04-01T02:56:27Z</time></trkpt><trkpt lat="35.9164823" lon="139.2683541"><ele>439.62999999999994</ele><time>2023-04-01T02:56:49Z</time></trkpt><trkpt lat="35.9163991" lon="139.2685511"><ele>442.0733333333333</ele><time>2023-04-01T02:57:13Z</time></trkpt><trkpt lat="35.9162525" lon="139.2686932"><ele>442.95666666666665</ele><time>2023-04-01T02:57:29Z</time></trkpt><trkpt lat="35.9161099" lon="139.2688311"><ele>445.2133333333333</ele><time>2023-04-01T02:58:07Z</time></trkpt><trkpt lat="35.9160836" lon="139.2690611"><ele>446.82666666666665</ele><time>2023-04-01T02:58:42Z</time></trkpt><trkpt lat="35.9159967" lon="139.2692586"><ele>449.1133333333333</ele><time>2023-04-01T02:59:09Z</time></trkpt><trkpt lat="35.915835" lon="139.2693639"><ele>448.85999999999996</ele><time>2023-04-01T02:59:23Z</time></trkpt><trkpt lat="35.9156603" lon="139.2694559"><ele>447.24666666666667</ele><time>2023-04-01T02:59:37Z</time></trkpt><trkpt lat="35.9155082" lon="139.2695751"><ele>444.1166666666666</ele><time>2023-04-01T02:59:54Z</time></trkpt><trkpt lat="35.9153262" lon="139.2696389"><ele>441.02333333333337</ele><time>2023-04-01T03:00:13Z</time></trkpt><trkpt lat="35.9151772" lon="139.2697758"><ele>435.0800000000001</ele><time>2023-04-01T03:00:34Z</time></trkpt><trkpt lat="35.914999" lon="139.2698127"><ele>432.5</ele><time>2023-04-01T03:00:52Z</time></trkpt><trkpt lat="35.9148238" lon="139.2698991"><ele>431.27333333333337</ele><time>2023-04-01T03:01:36Z</time></trkpt><trkpt lat="35.91468" lon="139.2700487"><ele>431.5566666666667</ele><time>2023-04-01T03:02:00Z</time></trkpt><trkpt lat="35.9145302" lon="139.2701803"><ele>428.8933333333334</ele><time>2023-04-01T03:02:12Z</time></trkpt><trkpt lat="35.9144789" lon="139.2704021"><ele>425.8333333333333</ele><time>2023-04-01T03:02:42Z</time></trkpt><trkpt lat="35.9143906" lon="139.2705967"><ele>422.35999999999996</ele><time>2023-04-01T03:03:15Z</time></trkpt><trkpt lat="35.9142944" lon="139.2707841"><ele>417.8066666666667</ele><time>2023-04-01T03:03:50Z</time></trkpt><trkpt lat="35.9142111" lon="139.2709898"><ele>411.97333333333336</ele><time>2023-04-01T03:04:36Z</time></trkpt><trkpt lat="35.9140808" lon="139.2711574"><ele>407.8733333333334</ele><time>2023-04-01T03:05:09Z</time></trkpt><trkpt lat="35.9139634" lon="139.2713258"><ele>405.41</ele><time>2023-04-01T03:05:21Z</time></trkpt><trkpt lat="35.913787" lon="139.2714038"><ele>402.3633333333334</ele><time>2023-04-01T03:05:36Z</time></trkpt><trkpt lat="35.9136045" lon="139.2714356"><ele>397.3933333333334</ele><time>2023-04-01T03:06:24Z</time></trkpt><trkpt lat="35.9135218" lon="139.271635"><ele>393.55333333333334</ele><time>2023-04-01T03:06:36Z</time></trkpt><trkpt lat="35.9134956" lon="139.2718702"><ele>390.8666666666666</ele><time>2023-04-01T03:07:35Z</time></trkpt><trkpt lat="35.913411" lon="139.2720667"><ele>390.65000000000003</ele><time>2023-04-01T03:07:48Z</time></trkpt><trkpt lat="35.9132729" lon="139.2722152"><ele>388.8066666666667</ele><time>2023-04-01T03:08:01Z</time></trkpt><trkpt lat="35.9131238" lon="139.2723868"><ele>389.65333333333336</ele><time>2023-04-01T03:09:56Z</time></trkpt><trkpt lat="35.9130372" lon="139.2725863"><ele>390.5133333333333</ele><time>2023-04-01T03:10:06Z</time></trkpt><trkpt lat="35.9130003" lon="139.2728071"><ele>389.3333333333333</ele><time>2023-04-01T03:10:21Z</time></trkpt><trkpt lat="35.9128396" lon="139.2729237"><ele>381.98</ele><time>2023-04-01T03:10:41Z</time></trkpt><trkpt lat="35.9127533" lon="139.2731251"><ele>374.0466666666667</ele><time>2023-04-01T03:10:50Z</time></trkpt><trkpt lat="35.9126932" lon="139.2733415"><ele>371.81333333333333</ele><time>2023-04-01T03:10:59Z</time></trkpt><trkpt lat="35.912701" lon="139.2735685"><ele>372.07666666666665</ele><time>2023-04-01T03:11:17Z</time></trkpt><trkpt lat="35.9126799" lon="139.2737901"><ele>372.2633333333333</ele><time>2023-04-01T03:13:52Z</time></trkpt><trkpt lat="35.9126214" lon="139.2740004"><ele>370.96</ele><time>2023-04-01T03:20:43Z</time></trkpt><trkpt lat="35.9124914" lon="139.2741554"><ele>373.2733333333333</ele><time>2023-04-01T03:21:33Z</time></trkpt><trkpt lat="35.9123667" lon="139.2743293"><ele>379.2</ele><time>2023-04-01T03:22:39Z</time></trkpt><trkpt lat="35.9122409" lon="139.2745043"><ele>387.6333333333334</ele><time>2023-04-01T03:24:40Z</time></trkpt><trkpt lat="35.9120997" lon="139.2746503"><ele>397.4466666666667</ele><time>2023-04-01T03:26:22Z</time></trkpt><trkpt lat="35.9120545" lon="139.2748833"><ele>405.6266666666666</ele><time>2023-04-01T03:27:01Z</time></trkpt><trkpt lat="35.9119652" lon="139.2750852"><ele>410.58</ele><time>2023-04-01T03:28:34Z</time></trkpt><trkpt lat="35.9118858" lon="139.2752884"><ele>412.1166666666666</ele><time>2023-04-01T03:28:56Z</time></trkpt><trkpt lat="35.9118056" lon="139.2755017"><ele>413.69</ele><time>2023-04-01T03:29:46Z</time></trkpt><trkpt lat="35.9117189" lon="139.2756995"><ele>415.58666666666664</ele><time>2023-04-01T03:30:03Z</time></trkpt><trkpt lat="35.9116431" lon="139.2759169"><ele>417.1233333333334</ele><time>2023-04-01T03:30:36Z</time></trkpt><trkpt lat="35.9115739" lon="139.2761537"><ele>417.72333333333336</ele><time>2023-04-01T03:30:56Z</time></trkpt><trkpt lat="35.9116434" lon="139.2763615"><ele>422.18333333333334</ele><time>2023-04-01T03:32:40Z</time></trkpt><trkpt lat="35.9115616" lon="139.2765599"><ele>424.71000000000004</ele><time>2023-04-01T03:45:29Z</time></trkpt><trkpt lat="35.9115129" lon="139.276782"><ele>423.78999999999996</ele><time>2023-04-01T03:46:13Z</time></trkpt><trkpt lat="35.9114658" lon="139.2769971"><ele>417.8033333333333</ele><time>2023-04-01T03:46:38Z</time></trkpt><trkpt lat="35.9114673" lon="139.2772188"><ele>415.42</ele><time>2023-04-01T03:47:02Z</time></trkpt><trkpt lat="35.9115399" lon="139.2774387"><ele>417.0933333333334</ele><time>2023-04-01T03:47:47Z</time></trkpt><trkpt lat="35.9116097" lon="139.2776637"><ele>419.4433333333334</ele><time>2023-04-01T03:48:05Z</time></trkpt><trkpt lat="35.9117716" lon="139.2777665"><ele>421.1233333333333</ele><time>2023-04-01T03:49:20Z</time></trkpt><trkpt lat="35.9116893" lon="139.2779772"><ele>421.59999999999997</ele><time>2023-04-01T03:50:55Z</time></trkpt><trkpt lat="35.9115526" lon="139.2781262"><ele>419.67333333333335</ele><time>2023-04-01T03:51:47Z</time></trkpt><trkpt lat="35.9113738" lon="139.2780913"><ele>414.8533333333334</ele><time>2023-04-01T03:52:13Z</time></trkpt><trkpt lat="35.9112052" lon="139.2781962"><ele>406.6266666666667</ele><time>2023-04-01T03:52:47Z</time></trkpt><trkpt lat="35.9110249" lon="139.2782092"><ele>400.02666666666664</ele><time>2023-04-01T03:53:02Z</time></trkpt><trkpt lat="35.9108448" lon="139.2781986"><ele>393.8533333333333</ele><time>2023-04-01T03:53:46Z</time></trkpt><trkpt lat="35.9107529" lon="139.2783922"><ele>390.7166666666667</ele><time>2023-04-01T03:54:37Z</time></trkpt><trkpt lat="35.9106001" lon="139.2785323"><ele>386.6066666666666</ele><time>2023-04-01T03:54:51Z</time></trkpt><trkpt lat="35.9104185" lon="139.2784953"><ele>383.8833333333334</ele><time>2023-04-01T03:55:09Z</time></trkpt><trkpt lat="35.910302" lon="139.2786774"><ele>382.9166666666667</ele><time>2023-04-01T03:55:23Z</time></trkpt><trkpt lat="35.9101442" lon="139.2787892"><ele>384.6366666666667</ele><time>2023-04-01T03:55:37Z</time></trkpt><trkpt lat="35.9099747" lon="139.2786839"><ele>386.1966666666667</ele><time>2023-04-01T03:55:49Z</time></trkpt><trkpt lat="35.9097934" lon="139.2786261"><ele>386.45000000000005</ele><time>2023-04-01T03:56:02Z</time></trkpt><trkpt lat="35.9097303" lon="139.2788338"><ele>386.06333333333333</ele><time>2023-04-01T03:56:17Z</time></trkpt><trkpt lat="35.9097287" lon="139.2790558"><ele>385.76</ele><time>2023-04-01T03:56:28Z</time></trkpt><trkpt lat="35.9097693" lon="139.2792875"><ele>386.38000000000005</ele><time>2023-04-01T03:56:42Z</time></trkpt><trkpt lat="35.9098403" lon="139.2794965"><ele>387.79</ele><time>2023-04-01T03:56:56Z</time></trkpt><trkpt lat="35.9098843" lon="139.2797132"><ele>390.82</ele><time>2023-04-01T03:57:10Z</time></trkpt><trkpt lat="35.9099501" lon="139.2799202"><ele>392.03666666666663</ele><time>2023-04-01T03:57:27Z</time></trkpt><trkpt lat="35.9098536" lon="139.2801187"><ele>392.35999999999996</ele><time>2023-04-01T03:57:40Z</time></trkpt><trkpt lat="35.9096745" lon="139.2802003"><ele>393.4266666666667</ele><time>2023-04-01T03:57:53Z</time></trkpt><trkpt lat="35.9097092" lon="139.2804284"><ele>394.09</ele><time>2023-04-01T03:58:18Z</time></trkpt><trkpt lat="35.909549" lon="139.2805458"><ele>396.1266666666667</ele><time>2023-04-01T03:58:34Z</time></trkpt><trkpt lat="35.9095363" lon="139.2807868"><ele>395.8666666666666</ele><time>2023-04-01T03:58:55Z</time></trkpt><trkpt lat="35.9093999" lon="139.2809435"><ele>397.77</ele><time>2023-04-01T03:59:11Z</time></trkpt><trkpt lat="35.9092475" lon="139.2810775"><ele>396.23</ele><time>2023-04-01T03:59:28Z</time></trkpt><trkpt lat="35.9091009" lon="139.2812218"><ele>392.46000000000004</ele><time>2023-04-01T03:59:46Z</time></trkpt><trkpt lat="35.9089554" lon="139.2813651"><ele>388.4066666666667</ele><time>2023-04-01T03:59:57Z</time></trkpt><trkpt lat="35.9088643" lon="139.2815662"><ele>384.56333333333333</ele><time>2023-04-01T04:00:12Z</time></trkpt><trkpt lat="35.9088313" lon="139.281793"><ele>384.5133333333333</ele><time>2023-04-01T04:00:24Z</time></trkpt><trkpt lat="35.9087728" lon="139.2820143"><ele>384.1433333333334</ele><time>2023-04-01T04:00:39Z</time></trkpt><trkpt lat="35.9086122" lon="139.2821408"><ele>382.2833333333333</ele><time>2023-04-01T04:00:59Z</time></trkpt><trkpt lat="35.9084963" lon="139.2823125"><ele>378.90333333333336</ele><time>2023-04-01T04:01:11Z</time></trkpt><trkpt lat="35.9083674" lon="139.2824676"><ele>374.49666666666667</ele><time>2023-04-01T04:03:36Z</time></trkpt><trkpt lat="35.9082053" lon="139.2825968"><ele>373.31333333333333</ele><time>2023-04-01T04:03:50Z</time></trkpt><trkpt lat="35.9081163" lon="139.2828081"><ele>373.5233333333333</ele><time>2023-04-01T04:04:20Z</time></trkpt><trkpt lat="35.9080104" lon="139.2829965"><ele>375.95666666666665</ele><time>2023-04-01T04:04:33Z</time></trkpt><trkpt lat="35.907871" lon="139.2831494"><ele>378.54333333333335</ele><time>2023-04-01T04:04:49Z</time></trkpt><trkpt lat="35.9077027" lon="139.2832319"><ele>380.84</ele><time>2023-04-01T04:05:11Z</time></trkpt><trkpt lat="35.9075205" lon="139.2832674"><ele>381.52333333333337</ele><time>2023-04-01T04:05:29Z</time></trkpt><trkpt lat="35.9073431" lon="139.283206"><ele>381.7966666666666</ele><time>2023-04-01T04:05:54Z</time></trkpt><trkpt lat="35.9071626" lon="139.2831771"><ele>380.33</ele><time>2023-04-01T04:06:15Z</time></trkpt><trkpt lat="35.9072566" lon="139.2833672"><ele>376.4266666666667</ele><time>2023-04-01T04:06:50Z</time></trkpt><trkpt lat="35.9074058" lon="139.2835004"><ele>372.18</ele><time>2023-04-01T04:07:07Z</time></trkpt><trkpt lat="35.9075342" lon="139.2836641"><ele>368.44</ele><time>2023-04-01T04:07:23Z</time></trkpt><trkpt lat="35.9075214" lon="139.2838887"><ele>366.2033333333334</ele><time>2023-04-01T04:07:38Z</time></trkpt><trkpt lat="35.9074337" lon="139.2840848"><ele>361.43666666666667</ele><time>2023-04-01T04:08:15Z</time></trkpt><trkpt lat="35.9073085" lon="139.2842459"><ele>354.6066666666666</ele><time>2023-04-01T04:08:41Z</time></trkpt><trkpt lat="35.9072321" lon="139.2844519"><ele>348.06</ele><time>2023-04-01T04:09:11Z</time></trkpt><trkpt lat="35.9071122" lon="139.2846187"><ele>344.34999999999997</ele><time>2023-04-01T04:09:27Z</time></trkpt><trkpt lat="35.9071179" lon="139.2848412"><ele>345.15333333333336</ele><time>2023-04-01T04:09:43Z</time></trkpt><trkpt lat="35.9070055" lon="139.2850331"><ele>348.59</ele><time>2023-04-01T04:10:06Z</time></trkpt><trkpt lat="35.9068415" lon="139.2851325"><ele>353.1933333333333</ele><time>2023-04-01T04:10:16Z</time></trkpt><trkpt lat="35.9066678" lon="139.2852328"><ele>355.9866666666667</ele><time>2023-04-01T04:10:35Z</time></trkpt><trkpt lat="35.906542" lon="139.2853975"><ele>359.34</ele><time>2023-04-01T04:10:54Z</time></trkpt><trkpt lat="35.9064659" lon="139.285607"><ele>362.52666666666664</ele><time>2023-04-01T04:11:22Z</time></trkpt><trkpt lat="35.9063556" lon="139.2857853"><ele>365.22333333333336</ele><time>2023-04-01T04:11:36Z</time></trkpt><trkpt lat="35.9062112" lon="139.2859335"><ele>365.26666666666665</ele><time>2023-04-01T04:11:59Z</time></trkpt><trkpt lat="35.9060762" lon="139.2861009"><ele>365.43</ele><time>2023-04-01T04:12:21Z</time></trkpt><trkpt lat="35.9059274" lon="139.2862263"><ele>367.05</ele><time>2023-04-01T04:12:52Z</time></trkpt><trkpt lat="35.9058237" lon="139.2864198"><ele>371.08</ele><time>2023-04-01T04:13:12Z</time></trkpt><trkpt lat="35.9056523" lon="139.2865146"><ele>374.86666666666673</ele><time>2023-04-01T04:13:27Z</time></trkpt><trkpt lat="35.9055179" lon="139.2866749"><ele>377.3433333333334</ele><time>2023-04-01T04:13:48Z</time></trkpt><trkpt lat="35.9055863" lon="139.2868922"><ele>378.7633333333334</ele><time>2023-04-01T04:14:09Z</time></trkpt><trkpt lat="35.9057232" lon="139.287037"><ele>381.9766666666667</ele><time>2023-04-01T04:15:02Z</time></trkpt><trkpt lat="35.9057507" lon="139.287257"><ele>387.1000000000001</ele><time>2023-04-01T04:15:30Z</time></trkpt><trkpt lat="35.9056367" lon="139.2875438"><ele>392.9333333333334</ele><time>2023-04-01T04:15:44Z</time></trkpt><trkpt lat="35.9054559" lon="139.2875418"><ele>394.0233333333333</ele><time>2023-04-01T04:16:17Z</time></trkpt><trkpt lat="35.9052952" lon="139.2876538"><ele>393.1933333333333</ele><time>2023-04-01T04:16:30Z</time></trkpt><trkpt lat="35.9051452" lon="139.2877878"><ele>391.3866666666667</ele><time>2023-04-01T04:16:44Z</time></trkpt><trkpt lat="35.9050034" lon="139.2879384"><ele>391.49333333333334</ele><time>2023-04-01T04:16:59Z</time></trkpt><trkpt lat="35.9048671" lon="139.2880861"><ele>391.1666666666667</ele><time>2023-04-01T04:17:15Z</time></trkpt><trkpt lat="35.9046802" lon="139.2881012"><ele>389.93</ele><time>2023-04-01T04:17:34Z</time></trkpt><trkpt lat="35.9044941" lon="139.288081"><ele>386.9666666666667</ele><time>2023-04-01T04:17:51Z</time></trkpt><trkpt lat="35.9043065" lon="139.2880449"><ele>384.8733333333333</ele><time>2023-04-01T04:18:07Z</time></trkpt><trkpt lat="35.9041241" lon="139.2880461"><ele>383.34666666666664</ele><time>2023-04-01T04:18:21Z</time></trkpt><trkpt lat="35.9039397" lon="139.2880021"><ele>383.34999999999997</ele><time>2023-04-01T04:18:34Z</time></trkpt><trkpt lat="35.903758" lon="139.2880179"><ele>382.21000000000004</ele><time>2023-04-01T04:18:50Z</time></trkpt><trkpt lat="35.9035733" lon="139.2880223"><ele>380.81</ele><time>2023-04-01T04:19:04Z</time></trkpt><trkpt lat="35.9033824" lon="139.2880511"><ele>379.7066666666667</ele><time>2023-04-01T04:19:22Z</time></trkpt><trkpt lat="35.9032156" lon="139.2881378"><ele>378.34</ele><time>2023-04-01T04:20:01Z</time></trkpt><trkpt lat="35.9031016" lon="139.2883106"><ele>374.7733333333333</ele><time>2023-04-01T04:20:19Z</time></trkpt><trkpt lat="35.9029292" lon="139.2883978"><ele>371.3933333333334</ele><time>2023-04-01T04:20:35Z</time></trkpt><trkpt lat="35.902814" lon="139.288571"><ele>368.60666666666674</ele><time>2023-04-01T04:21:06Z</time></trkpt><trkpt lat="35.9027238" lon="139.2887637"><ele>367.87999999999994</ele><time>2023-04-01T04:21:17Z</time></trkpt><trkpt lat="35.9026408" lon="139.2889667"><ele>366.72333333333336</ele><time>2023-04-01T04:21:29Z</time></trkpt><trkpt lat="35.9025468" lon="139.2891653"><ele>365.50666666666666</ele><time>2023-04-01T04:21:49Z</time></trkpt><trkpt lat="35.9024573" lon="139.2893696"><ele>363.71999999999997</ele><time>2023-04-01T04:22:03Z</time></trkpt><trkpt lat="35.9023193" lon="139.2895318"><ele>361.6766666666667</ele><time>2023-04-01T04:22:20Z</time></trkpt><trkpt lat="35.9022402" lon="139.2897318"><ele>361.5333333333333</ele><time>2023-04-01T04:22:37Z</time></trkpt><trkpt lat="35.9023214" lon="139.2899416"><ele>361.44</ele><time>2023-04-01T04:22:50Z</time></trkpt><trkpt lat="35.9024461" lon="139.2901228"><ele>361.9866666666667</ele><time>2023-04-01T04:23:03Z</time></trkpt><trkpt lat="35.9025211" lon="139.2903262"><ele>360.72333333333336</ele><time>2023-04-01T04:23:17Z</time></trkpt><trkpt lat="35.9024868" lon="139.2905486"><ele>358.39000000000004</ele><time>2023-04-01T04:23:43Z</time></trkpt><trkpt lat="35.9025827" lon="139.2907367"><ele>355.6166666666666</ele><time>2023-04-01T04:23:57Z</time></trkpt><trkpt lat="35.9027472" lon="139.2908294"><ele>353.9466666666667</ele><time>2023-04-01T04:24:04Z</time></trkpt><trkpt lat="35.902908" lon="139.2909677"><ele>355.82666666666665</ele><time>2023-04-01T04:24:19Z</time></trkpt><trkpt lat="35.9030202" lon="139.2911468"><ele>358.65333333333336</ele><time>2023-04-01T04:24:42Z</time></trkpt><trkpt lat="35.9030863" lon="139.2913673"><ele>361.3933333333334</ele><time>2023-04-01T04:25:05Z</time></trkpt><trkpt lat="35.9031581" lon="139.2915762"><ele>362.1033333333333</ele><time>2023-04-01T04:25:19Z</time></trkpt><trkpt lat="35.9032791" lon="139.2917473"><ele>362.19</ele><time>2023-04-01T04:25:34Z</time></trkpt><trkpt lat="35.9033709" lon="139.291939"><ele>360.99666666666667</ele><time>2023-04-01T04:25:50Z</time></trkpt><trkpt lat="35.9034086" lon="139.2921617"><ele>357.70666666666665</ele><time>2023-04-01T04:26:03Z</time></trkpt><trkpt lat="35.9035256" lon="139.2923323"><ele>354.4533333333334</ele><time>2023-04-01T04:26:16Z</time></trkpt><trkpt lat="35.9036573" lon="139.2924837"><ele>353.07666666666665</ele><time>2023-04-01T04:26:58Z</time></trkpt><trkpt lat="35.9036598" lon="139.2927062"><ele>355.51</ele><time>2023-04-01T04:27:51Z</time></trkpt><trkpt lat="35.9035322" lon="139.2928669"><ele>359.2366666666667</ele><time>2023-04-01T04:28:10Z</time></trkpt><trkpt lat="35.9033928" lon="139.2930322"><ele>363.3633333333334</ele><time>2023-04-01T04:28:28Z</time></trkpt><trkpt lat="35.9032967" lon="139.2932298"><ele>366.9533333333334</ele><time>2023-04-01T04:29:10Z</time></trkpt><trkpt lat="35.9032415" lon="139.2934524"><ele>369.4566666666667</ele><time>2023-04-01T04:29:24Z</time></trkpt><trkpt lat="35.9032121" lon="139.2936833"><ele>369.18333333333334</ele><time>2023-04-01T04:29:37Z</time></trkpt><trkpt lat="35.9030301" lon="139.2937502"><ele>366.99</ele><time>2023-04-01T04:30:12Z</time></trkpt><trkpt lat="35.9028553" lon="139.2938128"><ele>362.19</ele><time>2023-04-01T04:30:48Z</time></trkpt><trkpt lat="35.9026746" lon="139.2938477"><ele>357.0733333333333</ele><time>2023-04-01T04:31:16Z</time></trkpt><trkpt lat="35.9024975" lon="139.2939289"><ele>351.43</ele><time>2023-04-01T04:31:33Z</time></trkpt><trkpt lat="35.9023313" lon="139.2940164"><ele>346.8433333333333</ele><time>2023-04-01T04:31:50Z</time></trkpt><trkpt lat="35.9021462" lon="139.294002"><ele>343.26666666666665</ele><time>2023-04-01T04:32:10Z</time></trkpt><trkpt lat="35.9019718" lon="139.2940593"><ele>339.3333333333333</ele><time>2023-04-01T04:32:52Z</time></trkpt><trkpt lat="35.9018274" lon="139.2941919"><ele>335.86333333333334</ele><time>2023-04-01T04:33:06Z</time></trkpt><trkpt lat="35.9016622" lon="139.2943002"><ele>330.17333333333335</ele><time>2023-04-01T04:33:19Z</time></trkpt><trkpt lat="35.9015012" lon="139.294413"><ele>325.88</ele><time>2023-04-01T04:33:34Z</time></trkpt><trkpt lat="35.9013901" lon="139.2945987"><ele>321.17333333333335</ele><time>2023-04-01T04:33:53Z</time></trkpt><trkpt lat="35.9012817" lon="139.2947849"><ele>317.76</ele><time>2023-04-01T04:34:26Z</time></trkpt><trkpt lat="35.9011421" lon="139.2949822"><ele>314.0</ele><time>2023-04-01T04:34:56Z</time></trkpt><trkpt lat="35.9010106" lon="139.2951435"><ele>310.4433333333333</ele><time>2023-04-01T04:35:10Z</time></trkpt><trkpt lat="35.9009141" lon="139.2953388"><ele>308.47999999999996</ele><time>2023-04-01T04:35:27Z</time></trkpt><trkpt lat="35.9008186" lon="139.2955355"><ele>308.8233333333333</ele><time>2023-04-01T04:35:46Z</time></trkpt><trkpt lat="35.9006356" lon="139.2955046"><ele>310.94</ele><time>2023-04-01T04:35:54Z</time></trkpt><trkpt lat="35.9004721" lon="139.2955988"><ele>313.02333333333337</ele><time>2023-04-01T04:36:30Z</time></trkpt><trkpt lat="35.9004422" lon="139.2958263"><ele>315.1666666666667</ele><time>2023-04-01T04:36:49Z</time></trkpt><trkpt lat="35.9003888" lon="139.2960379"><ele>315.57</ele><time>2023-04-01T04:37:08Z</time></trkpt><trkpt lat="35.9002181" lon="139.2961558"><ele>315.2966666666666</ele><time>2023-04-01T04:37:26Z</time></trkpt><trkpt lat="35.9000417" lon="139.2962059"><ele>312.3766666666667</ele><time>2023-04-01T04:37:40Z</time></trkpt><trkpt lat="35.8999128" lon="139.2960503"><ele>309.78333333333336</ele><time>2023-04-01T04:38:00Z</time></trkpt><trkpt lat="35.8997498" lon="139.2961549"><ele>305.4633333333333</ele><time>2023-04-01T04:38:17Z</time></trkpt><trkpt lat="35.8996591" lon="139.2963469"><ele>301.66</ele><time>2023-04-01T04:38:55Z</time></trkpt><trkpt lat="35.8995136" lon="139.2965012"><ele>297.2966666666667</ele><time>2023-04-01T04:39:14Z</time></trkpt><trkpt lat="35.899396" lon="139.2966738"><ele>293.59999999999997</ele><time>2023-04-01T04:39:25Z</time></trkpt><trkpt lat="35.8993349" lon="139.2968887"><ele>290.9166666666667</ele><time>2023-04-01T04:39:40Z</time></trkpt><trkpt lat="35.8993485" lon="139.297117"><ele>290.8833333333334</ele><time>2023-04-01T04:39:59Z</time></trkpt><trkpt lat="35.899309" lon="139.2973421"><ele>292.09333333333336</ele><time>2023-04-01T04:40:10Z</time></trkpt><trkpt lat="35.8992912" lon="139.2975651"><ele>293.1933333333333</ele><time>2023-04-01T04:40:34Z</time></trkpt><trkpt lat="35.8992502" lon="139.297798"><ele>292.9066666666667</ele><time>2023-04-01T04:40:57Z</time></trkpt><trkpt lat="35.8992251" lon="139.2980219"><ele>293.07</ele><time>2023-04-01T04:41:08Z</time></trkpt><trkpt lat="35.8993258" lon="139.2982059"><ele>294.1366666666667</ele><time>2023-04-01T04:41:33Z</time></trkpt><trkpt lat="35.8991027" lon="139.2978646"><ele>292.0566666666667</ele><time>2023-04-01T04:42:07Z</time></trkpt><trkpt lat="35.8992734" lon="139.2979945"><ele>292.43333333333334</ele><time>2023-04-01T04:43:01Z</time></trkpt><trkpt lat="35.8992017" lon="139.2982017"><ele>291.84</ele><time>2023-04-01T04:44:53Z</time></trkpt><trkpt lat="35.8991166" lon="139.2984126"><ele>294.7366666666667</ele><time>2023-04-01T04:45:07Z</time></trkpt><trkpt lat="35.8990128" lon="139.2985984"><ele>296.43333333333334</ele><time>2023-04-01T04:45:23Z</time></trkpt><trkpt lat="35.8988475" lon="139.2986877"><ele>299.3933333333334</ele><time>2023-04-01T04:45:38Z</time></trkpt><trkpt lat="35.8987015" lon="139.2988362"><ele>302.29</ele><time>2023-04-01T04:45:56Z</time></trkpt><trkpt lat="35.8985389" lon="139.2989354"><ele>302.55</ele><time>2023-04-01T04:46:09Z</time></trkpt><trkpt lat="35.8983713" lon="139.299029"><ele>300.77666666666664</ele><time>2023-04-01T04:46:27Z</time></trkpt><trkpt lat="35.898202" lon="139.298932"><ele>299.96</ele><time>2023-04-01T04:46:40Z</time></trkpt><trkpt lat="35.8980545" lon="139.2987997"><ele>300.55333333333334</ele><time>2023-04-01T04:46:54Z</time></trkpt><trkpt lat="35.8979028" lon="139.298949"><ele>302.28333333333336</ele><time>2023-04-01T04:47:20Z</time></trkpt><trkpt lat="35.8977779" lon="139.2991434"><ele>303.25333333333333</ele><time>2023-04-01T04:47:51Z</time></trkpt><trkpt lat="35.8976806" lon="139.2993367"><ele>304.89000000000004</ele><time>2023-04-01T04:48:02Z</time></trkpt><trkpt lat="35.8975895" lon="139.2995346"><ele>307.09</ele><time>2023-04-01T04:48:16Z</time></trkpt><trkpt lat="35.8974892" lon="139.2997372"><ele>310.01666666666665</ele><time>2023-04-01T04:48:29Z</time></trkpt><trkpt lat="35.8973412" lon="139.2999004"><ele>313.62</ele><time>2023-04-01T04:48:44Z</time></trkpt><trkpt lat="35.8971568" lon="139.2999328"><ele>316.33</ele><time>2023-04-01T04:48:59Z</time></trkpt><trkpt lat="35.8971471" lon="139.2997097"><ele>316.6266666666666</ele><time>2023-04-01T04:49:14Z</time></trkpt><trkpt lat="35.897141" lon="139.2994818"><ele>313.3966666666667</ele><time>2023-04-01T04:49:26Z</time></trkpt><trkpt lat="35.8969554" lon="139.2994954"><ele>311.0933333333333</ele><time>2023-04-01T04:49:36Z</time></trkpt><trkpt lat="35.8968475" lon="139.2996896"><ele>311.4666666666667</ele><time>2023-04-01T04:50:03Z</time></trkpt><trkpt lat="35.8967615" lon="139.2998883"><ele>313.77000000000004</ele><time>2023-04-01T04:50:26Z</time></trkpt><trkpt lat="35.8966377" lon="139.300069"><ele>314.83</ele><time>2023-04-01T04:51:21Z</time></trkpt><trkpt lat="35.8965599" lon="139.3002807"><ele>313.63</ele><time>2023-04-01T04:51:32Z</time></trkpt><trkpt lat="35.896392" lon="139.3003767"><ele>309.91333333333336</ele><time>2023-04-01T04:51:44Z</time></trkpt><trkpt lat="35.8962228" lon="139.3004551"><ele>305.1233333333333</ele><time>2023-04-01T04:51:59Z</time></trkpt><trkpt lat="35.8960481" lon="139.3005102"><ele>299.40333333333336</ele><time>2023-04-01T04:52:15Z</time></trkpt><trkpt lat="35.8958808" lon="139.3004016"><ele>296.6066666666666</ele><time>2023-04-01T04:52:33Z</time></trkpt><trkpt lat="35.8957151" lon="139.3004902"><ele>293.95</ele><time>2023-04-01T04:52:54Z</time></trkpt><trkpt lat="35.8955293" lon="139.3005089"><ele>292.53000000000003</ele><time>2023-04-01T04:53:09Z</time></trkpt><trkpt lat="35.8954023" lon="139.3006833"><ele>289.24333333333334</ele><time>2023-04-01T04:53:22Z</time></trkpt><trkpt lat="35.8952885" lon="139.3008649"><ele>285.7866666666667</ele><time>2023-04-01T04:53:39Z</time></trkpt><trkpt lat="35.8951901" lon="139.3010513"><ele>281.2866666666667</ele><time>2023-04-01T04:54:04Z</time></trkpt><trkpt lat="35.8951746" lon="139.301279"><ele>275.82</ele><time>2023-04-01T04:54:49Z</time></trkpt><trkpt lat="35.895174" lon="139.3015067"><ele>269.8933333333334</ele><time>2023-04-01T04:55:17Z</time></trkpt><trkpt lat="35.8950638" lon="139.3016888"><ele>264.8966666666667</ele><time>2023-04-01T04:55:47Z</time></trkpt><trkpt lat="35.8949454" lon="139.3018598"><ele>261.26</ele><time>2023-04-01T04:56:25Z</time></trkpt><trkpt lat="35.8948498" lon="139.3020674"><ele>257.6533333333333</ele><time>2023-04-01T04:56:59Z</time></trkpt><trkpt lat="35.8946995" lon="139.3021921"><ele>255.26333333333332</ele><time>2023-04-01T04:57:18Z</time></trkpt><trkpt lat="35.89461" lon="139.302442"><ele>256.06666666666666</ele><time>2023-04-01T04:57:51Z</time></trkpt><trkpt lat="35.8945881" lon="139.3026724"><ele>257.21000000000004</ele><time>2023-04-01T04:58:10Z</time></trkpt><trkpt lat="35.8945102" lon="139.3028911"><ele>256.55</ele><time>2023-04-01T04:58:38Z</time></trkpt><trkpt lat="35.8944184" lon="139.3030909"><ele>253.83333333333334</ele><time>2023-04-01T04:58:54Z</time></trkpt><trkpt lat="35.894362" lon="139.3033016"><ele>253.33666666666667</ele><time>2023-04-01T04:59:31Z</time></trkpt><trkpt lat="35.8942175" lon="139.3034389"><ele>255.86333333333334</ele><time>2023-04-01T04:59:57Z</time></trkpt><trkpt lat="35.8940355" lon="139.3034611"><ele>259.3333333333333</ele><time>2023-04-01T05:00:27Z</time></trkpt><trkpt lat="35.8938638" lon="139.3035357"><ele>263.34333333333336</ele><time>2023-04-01T05:01:20Z</time></trkpt><trkpt lat="35.893803" lon="139.3037458"><ele>267.64000000000004</ele><time>2023-04-01T05:02:59Z</time></trkpt><trkpt lat="35.8938279" lon="139.3039676"><ele>271.87333333333333</ele><time>2023-04-01T05:03:56Z</time></trkpt><trkpt lat="35.8938823" lon="139.3041862"><ele>276.67</ele><time>2023-04-01T05:05:01Z</time></trkpt><trkpt lat="35.8937477" lon="139.3043343"><ele>281.7</ele><time>2023-04-01T05:06:06Z</time></trkpt><trkpt lat="35.8936261" lon="139.3044979"><ele>287.73333333333335</ele><time>2023-04-01T05:06:36Z</time></trkpt><trkpt lat="35.8934675" lon="139.304624"><ele>291.2366666666667</ele><time>2023-04-01T05:06:47Z</time></trkpt><trkpt lat="35.8932852" lon="139.3047246"><ele>290.8833333333334</ele><time>2023-04-01T05:06:57Z</time></trkpt><trkpt lat="35.8931123" lon="139.3048068"><ele>286.9633333333333</ele><time>2023-04-01T05:07:36Z</time></trkpt><trkpt lat="35.892945" lon="139.3047111"><ele>282.9466666666667</ele><time>2023-04-01T05:07:45Z</time></trkpt><trkpt lat="35.8927967" lon="139.3045739"><ele>278.75</ele><time>2023-04-01T05:07:59Z</time></trkpt><trkpt lat="35.892618" lon="139.3045368"><ele>275.1766666666667</ele><time>2023-04-01T05:09:54Z</time></trkpt><trkpt lat="35.8924734" lon="139.3046714"><ele>269.31666666666666</ele><time>2023-04-01T05:11:25Z</time></trkpt><trkpt lat="35.8923407" lon="139.3045062"><ele>265.4766666666667</ele><time>2023-04-01T05:12:25Z</time></trkpt><trkpt lat="35.8921942" lon="139.3046376"><ele>260.53999999999996</ele><time>2023-04-01T05:12:57Z</time></trkpt><trkpt lat="35.8922934" lon="139.3048342"><ele>255.53666666666666</ele><time>2023-04-01T05:15:29Z</time></trkpt><trkpt lat="35.8924032" lon="139.30501"><ele>247.61</ele><time>2023-04-01T05:15:40Z</time></trkpt><trkpt lat="35.8925403" lon="139.3051584"><ele>243.50666666666666</ele><time>2023-04-01T05:15:56Z</time></trkpt><trkpt lat="35.8925804" lon="139.305377"><ele>238.59666666666666</ele><time>2023-04-01T05:16:16Z</time></trkpt><trkpt lat="35.8926643" lon="139.3055803"><ele>236.37</ele><time>2023-04-01T05:16:35Z</time></trkpt><trkpt lat="35.8927229" lon="139.3057929"><ele>232.15666666666667</ele><time>2023-04-01T05:16:56Z</time></trkpt><trkpt lat="35.8925748" lon="139.3059247"><ele>228.25333333333333</ele><time>2023-04-01T05:17:54Z</time></trkpt><trkpt lat="35.8924005" lon="139.3058595"><ele>223.03</ele><time>2023-04-01T05:20:02Z</time></trkpt><trkpt lat="35.892215" lon="139.305801"><ele>216.26666666666668</ele><time>2023-04-01T05:20:25Z</time></trkpt><trkpt lat="35.8920344" lon="139.3058381"><ele>209.86333333333334</ele><time>2023-04-01T05:21:03Z</time></trkpt><trkpt lat="35.8918511" lon="139.3058606"><ele>203.23666666666668</ele><time>2023-04-01T05:21:31Z</time></trkpt><trkpt lat="35.8916924" lon="139.305974"><ele>197.63666666666666</ele><time>2023-04-01T05:21:46Z</time></trkpt><trkpt lat="35.891512" lon="139.3059896"><ele>194.81333333333336</ele><time>2023-04-01T05:21:59Z</time></trkpt><trkpt lat="35.8913314" lon="139.3060822"><ele>192.43999999999997</ele><time>2023-04-01T05:22:27Z</time></trkpt><trkpt lat="35.8911611" lon="139.3061896"><ele>190.1</ele><time>2023-04-01T05:22:40Z</time></trkpt><trkpt lat="35.891077" lon="139.3063871"><ele>187.3033333333333</ele><time>2023-04-01T05:22:58Z</time></trkpt><trkpt lat="35.8909" lon="139.3064448"><ele>184.52333333333334</ele><time>2023-04-01T05:23:21Z</time></trkpt><trkpt lat="35.8907773" lon="139.3066092"><ele>181.36</ele><time>2023-04-01T05:23:36Z</time></trkpt><trkpt lat="35.8906107" lon="139.3067084"><ele>177.86666666666667</ele><time>2023-04-01T05:24:01Z</time></trkpt><trkpt lat="35.8904233" lon="139.3067383"><ele>174.72333333333333</ele><time>2023-04-01T05:24:31Z</time></trkpt><trkpt lat="35.8902355" lon="139.3067327"><ele>172.75</ele><time>2023-04-01T05:24:56Z</time></trkpt><trkpt lat="35.8900689" lon="139.3068261"><ele>172.01666666666665</ele><time>2023-04-01T05:25:08Z</time></trkpt><trkpt lat="35.8900367" lon="139.3070489"><ele>171.49333333333334</ele><time>2023-04-01T05:25:19Z</time></trkpt><trkpt lat="35.8899508" lon="139.3072441"><ele>169.46</ele><time>2023-04-01T05:25:45Z</time></trkpt><trkpt lat="35.8898831" lon="139.3074495"><ele>166.17333333333335</ele><time>2023-04-01T05:26:05Z</time></trkpt><trkpt lat="35.889824" lon="139.3076649"><ele>162.24</ele><time>2023-04-01T05:26:25Z</time></trkpt><trkpt lat="35.8898056" lon="139.3078925"><ele>158.96</ele><time>2023-04-01T05:26:47Z</time></trkpt><trkpt lat="35.8898238" lon="139.308114"><ele>155.70666666666668</ele><time>2023-04-01T05:26:59Z</time></trkpt><trkpt lat="35.8898971" lon="139.3083314"><ele>152.84</ele><time>2023-04-01T05:27:14Z</time></trkpt><trkpt lat="35.8899517" lon="139.3085458"><ele>148.71333333333334</ele><time>2023-04-01T05:27:32Z</time></trkpt><trkpt lat="35.8898844" lon="139.3087534"><ele>143.61333333333334</ele><time>2023-04-01T05:28:03Z</time></trkpt><trkpt lat="35.8897113" lon="139.3086839"><ele>138.39666666666665</ele><time>2023-04-01T05:29:06Z</time></trkpt><trkpt lat="35.8895336" lon="139.3086304"><ele>133.5233333333333</ele><time>2023-04-01T05:29:29Z</time></trkpt><trkpt lat="35.8893514" lon="139.3085784"><ele>130.56666666666666</ele><time>2023-04-01T05:29:42Z</time></trkpt><trkpt lat="35.8891702" lon="139.3085545"><ele>127.17999999999999</ele><time>2023-04-01T05:29:56Z</time></trkpt><trkpt lat="35.8890249" lon="139.3084153"><ele>126.18666666666667</ele><time>2023-04-01T05:30:15Z</time></trkpt><trkpt lat="35.8890585" lon="139.3086342"><ele>123.51666666666667</ele><time>2023-04-01T05:34:27Z</time></trkpt></trkseg></trk></gpx>