<?xml version='1.0' encoding='UTF-8'?><gpx creator="YAMAP - https://yamap.com" xsi:schemaLocation="http://www.topografix.com/GPX/1/1 http://www.topografix.com/GPX/1/1/gpx.xsd" version="1.1" xmlns="http://www.topografix.com/GPX/1/1" xmlns:xsi="http://www.w3.org/2001/XMLSchema-instance"><metadata><bounds maxlat="34.872314" maxlon="139.0236933" minlat="34.8307286" minlon="138.9312152"/></metadata><trk><name>爆風の天城山</name><number>1</number><trkseg><trkpt lat="34.8337799" lon="138.9312626"><ele>632.57</ele><time>2023-12-17T00:05:06Z</time></trkpt><trkpt lat="34.8336005" lon="138.9312152"><ele>642.9100000000001</ele><time>2023-12-17T00:05:40Z</time></trkpt><trkpt lat="34.8334641" lon="138.9313601"><ele>642.7433333333333</ele><time>2023-12-17T00:05:58Z</time></trkpt><trkpt lat="34.8333079" lon="138.9314725"><ele>649.9333333333333</ele><time>2023-12-17T00:06:51Z</time></trkpt><trkpt lat="34.8332968" lon="138.9316913"><ele>650.06</ele><time>2023-12-17T00:07:06Z</time></trkpt><trkpt lat="34.8330804" lon="138.9317491"><ele>655.6133333333333</ele><time>2023-12-17T00:07:40Z</time></trkpt><trkpt lat="34.832912" lon="138.9316622"><ele>657.8100000000001</ele><time>2023-12-17T00:07:58Z</time></trkpt><trkpt lat="34.8327467" lon="138.9317549"><ele>662.2900000000001</ele><time>2023-12-17T00:08:16Z</time></trkpt><trkpt lat="34.8326881" lon="138.9319626"><ele>665.2233333333334</ele><time>2023-12-17T00:08:30Z</time></trkpt><trkpt lat="34.8325017" lon="138.9319738"><ele>668.5400000000001</ele><time>2023-12-17T00:09:01Z</time></trkpt><trkpt lat="34.8323473" lon="138.9320988"><ele>675.2700000000001</ele><time>2023-12-17T00:09:28Z</time></trkpt><trkpt lat="34.832289" lon="138.9323118"><ele>684.8466666666667</ele><time>2023-12-17T00:09:56Z</time></trkpt><trkpt lat="34.8322222" lon="138.9325161"><ele>695.8166666666667</ele><time>2023-12-17T00:10:11Z</time></trkpt><trkpt lat="34.8323902" lon="138.9325985"><ele>701.6066666666667</ele><time>2023-12-17T00:10:28Z</time></trkpt><trkpt lat="34.8322115" lon="138.9326348"><ele>704.36</ele><time>2023-12-17T00:11:43Z</time></trkpt><trkpt lat="34.8320355" lon="138.9326978"><ele>706.8466666666667</ele><time>2023-12-17T00:11:57Z</time></trkpt><trkpt lat="34.8318477" lon="138.9327308"><ele>711.5233333333334</ele><time>2023-12-17T00:12:17Z</time></trkpt><trkpt lat="34.8316803" lon="138.9328407"><ele>718.6866666666666</ele><time>2023-12-17T00:12:40Z</time></trkpt><trkpt lat="34.8315263" lon="138.9329575"><ele>724.0866666666667</ele><time>2023-12-17T00:13:07Z</time></trkpt><trkpt lat="34.8314073" lon="138.9327834"><ele>730.6033333333334</ele><time>2023-12-17T00:13:40Z</time></trkpt><trkpt lat="34.8313182" lon="138.9329818"><ele>734.1166666666667</ele><time>2023-12-17T00:14:14Z</time></trkpt><trkpt lat="34.8311741" lon="138.9331265"><ele>739.4333333333334</ele><time>2023-12-17T00:15:14Z</time></trkpt><trkpt lat="34.8309845" lon="138.9331643"><ele>749.6066666666667</ele><time>2023-12-17T00:16:18Z</time></trkpt><trkpt lat="34.8308838" lon="138.9333549"><ele>760.3166666666666</ele><time>2023-12-17T00:16:41Z</time></trkpt><trkpt lat="34.830945" lon="138.9335656"><ele>770.0866666666667</ele><time>2023-12-17T00:17:17Z</time></trkpt><trkpt lat="34.8310605" lon="138.9337364"><ele>773.7466666666666</ele><time>2023-12-17T00:17:29Z</time></trkpt><trkpt lat="34.8312461" lon="138.9337526"><ele>776.29</ele><time>2023-12-17T00:17:44Z</time></trkpt><trkpt lat="34.8310791" lon="138.9338426"><ele>780.85</ele><time>2023-12-17T00:18:04Z</time></trkpt><trkpt lat="34.8309049" lon="138.9337622"><ele>782.9266666666667</ele><time>2023-12-17T00:18:32Z</time></trkpt><trkpt lat="34.8308728" lon="138.9339866"><ele>791.8000000000001</ele><time>2023-12-17T00:19:44Z</time></trkpt><trkpt lat="34.8309787" lon="138.9341727"><ele>799.5133333333333</ele><time>2023-12-17T00:20:02Z</time></trkpt><trkpt lat="34.831101" lon="138.9343488"><ele>808.1333333333333</ele><time>2023-12-17T00:20:28Z</time></trkpt><trkpt lat="34.8311359" lon="138.9345681"><ele>814.4333333333334</ele><time>2023-12-17T00:21:32Z</time></trkpt><trkpt lat="34.8311631" lon="138.9347954"><ele>820.44</ele><time>2023-12-17T00:22:12Z</time></trkpt><trkpt lat="34.8313455" lon="138.9347886"><ele>826.4666666666667</ele><time>2023-12-17T00:23:38Z</time></trkpt><trkpt lat="34.8315212" lon="138.9347146"><ele>829.2833333333333</ele><time>2023-12-17T00:24:04Z</time></trkpt><trkpt lat="34.8316927" lon="138.9346423"><ele>829.8100000000001</ele><time>2023-12-17T00:24:22Z</time></trkpt><trkpt lat="34.831878" lon="138.9345451"><ele>828.4866666666667</ele><time>2023-12-17T00:24:42Z</time></trkpt><trkpt lat="34.8319395" lon="138.934753"><ele>830.5233333333334</ele><time>2023-12-17T00:25:09Z</time></trkpt><trkpt lat="34.8319455" lon="138.9349929"><ele>834.6899999999999</ele><time>2023-12-17T00:25:32Z</time></trkpt><trkpt lat="34.8320445" lon="138.9351964"><ele>840.91</ele><time>2023-12-17T00:26:03Z</time></trkpt><trkpt lat="34.832163" lon="138.9353714"><ele>841.2599999999999</ele><time>2023-12-17T00:26:30Z</time></trkpt><trkpt lat="34.832216" lon="138.935583"><ele>840.5333333333333</ele><time>2023-12-17T00:26:56Z</time></trkpt><trkpt lat="34.8323218" lon="138.9357616"><ele>842.6133333333333</ele><time>2023-12-17T00:27:15Z</time></trkpt><trkpt lat="34.8324855" lon="138.9356523"><ele>846.5099999999999</ele><time>2023-12-17T00:27:27Z</time></trkpt><trkpt lat="34.832664" lon="138.9356176"><ele>851.6366666666668</ele><time>2023-12-17T00:27:41Z</time></trkpt><trkpt lat="34.8328299" lon="138.935518"><ele>852.0133333333333</ele><time>2023-12-17T00:28:06Z</time></trkpt><trkpt lat="34.8330006" lon="138.9356013"><ele>854.3333333333334</ele><time>2023-12-17T00:28:33Z</time></trkpt><trkpt lat="34.8331738" lon="138.9356739"><ele>854.1233333333333</ele><time>2023-12-17T00:28:46Z</time></trkpt><trkpt lat="34.8333542" lon="138.9356602"><ele>854.08</ele><time>2023-12-17T00:29:00Z</time></trkpt><trkpt lat="34.833239" lon="138.9358367"><ele>854.7533333333334</ele><time>2023-12-17T00:29:50Z</time></trkpt><trkpt lat="34.8330648" lon="138.935929"><ele>858.9866666666667</ele><time>2023-12-17T00:30:45Z</time></trkpt><trkpt lat="34.8329004" lon="138.9360417"><ele>867.4366666666666</ele><time>2023-12-17T00:31:21Z</time></trkpt><trkpt lat="34.8327614" lon="138.9361914"><ele>875.9366666666668</ele><time>2023-12-17T00:32:44Z</time></trkpt><trkpt lat="34.8327314" lon="138.9364162"><ele>886.2566666666667</ele><time>2023-12-17T00:33:16Z</time></trkpt><trkpt lat="34.8326286" lon="138.9365986"><ele>895.8933333333334</ele><time>2023-12-17T00:33:41Z</time></trkpt><trkpt lat="34.8326496" lon="138.9368192"><ele>905.4133333333333</ele><time>2023-12-17T00:34:40Z</time></trkpt><trkpt lat="34.8325114" lon="138.9369662"><ele>911.7599999999999</ele><time>2023-12-17T00:35:01Z</time></trkpt><trkpt lat="34.8324002" lon="138.937146"><ele>916.87</ele><time>2023-12-17T00:35:30Z</time></trkpt><trkpt lat="34.8323936" lon="138.9373704"><ele>921.5333333333333</ele><time>2023-12-17T00:35:55Z</time></trkpt><trkpt lat="34.8325316" lon="138.9375194"><ele>926.0466666666667</ele><time>2023-12-17T00:36:16Z</time></trkpt><trkpt lat="34.8324124" lon="138.9377772"><ele>930.3966666666666</ele><time>2023-12-17T00:36:26Z</time></trkpt><trkpt lat="34.8324575" lon="138.9380296"><ele>933.8666666666667</ele><time>2023-12-17T00:37:11Z</time></trkpt><trkpt lat="34.8323509" lon="138.938219"><ele>937.1733333333333</ele><time>2023-12-17T00:37:28Z</time></trkpt><trkpt lat="34.8323075" lon="138.938437"><ele>939.1333333333333</ele><time>2023-12-17T00:37:47Z</time></trkpt><trkpt lat="34.8321648" lon="138.9385717"><ele>940.7533333333334</ele><time>2023-12-17T00:38:09Z</time></trkpt><trkpt lat="34.8321232" lon="138.9387869"><ele>941.0166666666668</ele><time>2023-12-17T00:38:36Z</time></trkpt><trkpt lat="34.8321099" lon="138.9390143"><ele>941.0300000000001</ele><time>2023-12-17T00:38:50Z</time></trkpt><trkpt lat="34.8320213" lon="138.9392264"><ele>939.4000000000001</ele><time>2023-12-17T00:39:07Z</time></trkpt><trkpt lat="34.8319769" lon="138.9394614"><ele>936.9133333333333</ele><time>2023-12-17T00:39:22Z</time></trkpt><trkpt lat="34.8318767" lon="138.9396501"><ele>933.64</ele><time>2023-12-17T00:39:34Z</time></trkpt><trkpt lat="34.8318483" lon="138.93987"><ele>930.1533333333333</ele><time>2023-12-17T00:39:55Z</time></trkpt><trkpt lat="34.8317791" lon="138.9400842"><ele>926.6500000000001</ele><time>2023-12-17T00:40:12Z</time></trkpt><trkpt lat="34.8316985" lon="138.9402821"><ele>924.1266666666667</ele><time>2023-12-17T00:40:28Z</time></trkpt><trkpt lat="34.831567" lon="138.9404382"><ele>921.9933333333333</ele><time>2023-12-17T00:40:45Z</time></trkpt><trkpt lat="34.8314405" lon="138.9405992"><ele>920.7466666666666</ele><time>2023-12-17T00:40:58Z</time></trkpt><trkpt lat="34.8313223" lon="138.9407826"><ele>918.9533333333334</ele><time>2023-12-17T00:41:17Z</time></trkpt><trkpt lat="34.8311678" lon="138.9409026"><ele>917.71</ele><time>2023-12-17T00:41:39Z</time></trkpt><trkpt lat="34.8310364" lon="138.9410583"><ele>915.9433333333333</ele><time>2023-12-17T00:41:53Z</time></trkpt><trkpt lat="34.830924" lon="138.9412312"><ele>913.5833333333334</ele><time>2023-12-17T00:42:22Z</time></trkpt><trkpt lat="34.8309025" lon="138.9414522"><ele>911.2733333333334</ele><time>2023-12-17T00:42:36Z</time></trkpt><trkpt lat="34.8309252" lon="138.941672"><ele>908.61</ele><time>2023-12-17T00:43:06Z</time></trkpt><trkpt lat="34.8309579" lon="138.9418916"><ele>905.7033333333334</ele><time>2023-12-17T00:43:30Z</time></trkpt><trkpt lat="34.8310882" lon="138.9420499"><ele>902.1166666666667</ele><time>2023-12-17T00:44:15Z</time></trkpt><trkpt lat="34.8311225" lon="138.9422734"><ele>898.2033333333334</ele><time>2023-12-17T00:44:32Z</time></trkpt><trkpt lat="34.8311082" lon="138.9425014"><ele>895.3000000000001</ele><time>2023-12-17T00:44:48Z</time></trkpt><trkpt lat="34.8310206" lon="138.9427142"><ele>893.2833333333334</ele><time>2023-12-17T00:45:03Z</time></trkpt><trkpt lat="34.8308798" lon="138.9428593"><ele>892.7933333333334</ele><time>2023-12-17T00:45:22Z</time></trkpt><trkpt lat="34.8308679" lon="138.9430803"><ele>893.3833333333333</ele><time>2023-12-17T00:45:35Z</time></trkpt><trkpt lat="34.8308096" lon="138.9432897"><ele>895.48</ele><time>2023-12-17T00:45:54Z</time></trkpt><trkpt lat="34.8307894" lon="138.9435072"><ele>898.1766666666667</ele><time>2023-12-17T00:46:11Z</time></trkpt><trkpt lat="34.8307286" lon="138.9437258"><ele>900.9200000000001</ele><time>2023-12-17T00:46:26Z</time></trkpt><trkpt lat="34.8308297" lon="138.9439159"><ele>903.0366666666667</ele><time>2023-12-17T00:46:43Z</time></trkpt><trkpt lat="34.8309643" lon="138.9440632"><ele>906.0833333333334</ele><time>2023-12-17T00:46:59Z</time></trkpt><trkpt lat="34.8311127" lon="138.944198"><ele>910.1066666666667</ele><time>2023-12-17T00:47:12Z</time></trkpt><trkpt lat="34.8312501" lon="138.9443426"><ele>913.3466666666667</ele><time>2023-12-17T00:47:26Z</time></trkpt><trkpt lat="34.8313838" lon="138.9444893"><ele>916.0666666666666</ele><time>2023-12-17T00:47:39Z</time></trkpt><trkpt lat="34.8315404" lon="138.9446"><ele>916.3633333333333</ele><time>2023-12-17T00:47:58Z</time></trkpt><trkpt lat="34.8316463" lon="138.9447964"><ele>918.75</ele><time>2023-12-17T00:48:29Z</time></trkpt><trkpt lat="34.8317524" lon="138.944979"><ele>920.4166666666666</ele><time>2023-12-17T00:48:38Z</time></trkpt><trkpt lat="34.8317324" lon="138.9452105"><ele>923.5333333333333</ele><time>2023-12-17T00:49:04Z</time></trkpt><trkpt lat="34.8318076" lon="138.9454278"><ele>923.4</ele><time>2023-12-17T00:49:37Z</time></trkpt><trkpt lat="34.8317948" lon="138.9456548"><ele>924.5200000000001</ele><time>2023-12-17T00:49:54Z</time></trkpt><trkpt lat="34.8319253" lon="138.945827"><ele>921.4466666666667</ele><time>2023-12-17T00:50:08Z</time></trkpt><trkpt lat="34.8318965" lon="138.9460494"><ele>920.87</ele><time>2023-12-17T00:50:30Z</time></trkpt><trkpt lat="34.8317907" lon="138.9462308"><ele>919.2866666666667</ele><time>2023-12-17T00:50:47Z</time></trkpt><trkpt lat="34.8317232" lon="138.9464352"><ele>921.52</ele><time>2023-12-17T00:50:59Z</time></trkpt><trkpt lat="34.8316018" lon="138.946609"><ele>924.6266666666667</ele><time>2023-12-17T00:51:14Z</time></trkpt><trkpt lat="34.831584" lon="138.9468295"><ele>926.36</ele><time>2023-12-17T00:51:32Z</time></trkpt><trkpt lat="34.831504" lon="138.9470309"><ele>928.15</ele><time>2023-12-17T00:51:51Z</time></trkpt><trkpt lat="34.8314095" lon="138.9472191"><ele>931.0166666666668</ele><time>2023-12-17T00:52:06Z</time></trkpt><trkpt lat="34.831347" lon="138.9474289"><ele>934.4066666666668</ele><time>2023-12-17T00:52:23Z</time></trkpt><trkpt lat="34.8314137" lon="138.9476386"><ele>935.5866666666667</ele><time>2023-12-17T00:52:35Z</time></trkpt><trkpt lat="34.8314418" lon="138.9478547"><ele>933.71</ele><time>2023-12-17T00:52:51Z</time></trkpt><trkpt lat="34.8315548" lon="138.9480313"><ele>932.2599999999999</ele><time>2023-12-17T00:53:07Z</time></trkpt><trkpt lat="34.8317108" lon="138.9481551"><ele>931.7566666666667</ele><time>2023-12-17T00:53:19Z</time></trkpt><trkpt lat="34.8317441" lon="138.9483794"><ele>931.5233333333332</ele><time>2023-12-17T00:53:49Z</time></trkpt><trkpt lat="34.8318303" lon="138.9485715"><ele>931.0566666666667</ele><time>2023-12-17T00:53:56Z</time></trkpt><trkpt lat="34.8319187" lon="138.9487687"><ele>930.63</ele><time>2023-12-17T00:54:10Z</time></trkpt><trkpt lat="34.8319016" lon="138.9489932"><ele>932.4866666666667</ele><time>2023-12-17T00:54:25Z</time></trkpt><trkpt lat="34.8320697" lon="138.9491002"><ele>934.2333333333332</ele><time>2023-12-17T00:54:38Z</time></trkpt><trkpt lat="34.8322181" lon="138.9492288"><ele>935.6666666666666</ele><time>2023-12-17T00:54:51Z</time></trkpt><trkpt lat="34.8322966" lon="138.9494313"><ele>936.68</ele><time>2023-12-17T00:55:05Z</time></trkpt><trkpt lat="34.8324202" lon="138.9496074"><ele>937.8833333333333</ele><time>2023-12-17T00:55:22Z</time></trkpt><trkpt lat="34.8325586" lon="138.9497477"><ele>940.1666666666666</ele><time>2023-12-17T00:55:38Z</time></trkpt><trkpt lat="34.8327322" lon="138.9498156"><ele>940.1233333333333</ele><time>2023-12-17T00:55:51Z</time></trkpt><trkpt lat="34.8328981" lon="138.9499055"><ele>939.0099999999999</ele><time>2023-12-17T00:56:10Z</time></trkpt><trkpt lat="34.8329339" lon="138.9501274"><ele>940.7600000000001</ele><time>2023-12-17T00:56:24Z</time></trkpt><trkpt lat="34.8330946" lon="138.9502276"><ele>941.6033333333334</ele><time>2023-12-17T00:56:49Z</time></trkpt><trkpt lat="34.8332274" lon="138.9503792"><ele>942.7733333333334</ele><time>2023-12-17T00:57:08Z</time></trkpt><trkpt lat="34.8331782" lon="138.9505899"><ele>943.8066666666667</ele><time>2023-12-17T00:57:22Z</time></trkpt><trkpt lat="34.8331419" lon="138.9508114"><ele>947.89</ele><time>2023-12-17T00:57:57Z</time></trkpt><trkpt lat="34.833168" lon="138.9510326"><ele>953.8233333333334</ele><time>2023-12-17T00:58:09Z</time></trkpt><trkpt lat="34.8333089" lon="138.9511796"><ele>956.8566666666667</ele><time>2023-12-17T00:58:27Z</time></trkpt><trkpt lat="34.8334743" lon="138.9510794"><ele>958.1066666666667</ele><time>2023-12-17T00:58:41Z</time></trkpt><trkpt lat="34.8335665" lon="138.950879"><ele>957.0166666666665</ele><time>2023-12-17T00:58:56Z</time></trkpt><trkpt lat="34.8337157" lon="138.9510028"><ele>956.8333333333334</ele><time>2023-12-17T01:00:05Z</time></trkpt><trkpt lat="34.833758" lon="138.9512303"><ele>958.3633333333333</ele><time>2023-12-17T01:00:48Z</time></trkpt><trkpt lat="34.8338767" lon="138.9514075"><ele>962.87</ele><time>2023-12-17T01:01:01Z</time></trkpt><trkpt lat="34.8338707" lon="138.9516306"><ele>968.7866666666667</ele><time>2023-12-17T01:01:42Z</time></trkpt><trkpt lat="34.8340358" lon="138.951734"><ele>971.98</ele><time>2023-12-17T01:01:54Z</time></trkpt><trkpt lat="34.8342155" lon="138.9517919"><ele>971.6466666666669</ele><time>2023-12-17T01:02:10Z</time></trkpt><trkpt lat="34.8343842" lon="138.9518828"><ele>968.5633333333334</ele><time>2023-12-17T01:02:25Z</time></trkpt><trkpt lat="34.8343678" lon="138.95166"><ele>964.7133333333333</ele><time>2023-12-17T01:03:04Z</time></trkpt><trkpt lat="34.8342919" lon="138.9514549"><ele>961.4</ele><time>2023-12-17T01:03:17Z</time></trkpt><trkpt lat="34.834297" lon="138.9512324"><ele>957.3333333333334</ele><time>2023-12-17T01:03:30Z</time></trkpt><trkpt lat="34.8344102" lon="138.9510602"><ele>952.9066666666668</ele><time>2023-12-17T01:03:47Z</time></trkpt><trkpt lat="34.8344344" lon="138.9508264"><ele>949.2566666666667</ele><time>2023-12-17T01:04:22Z</time></trkpt><trkpt lat="34.8343543" lon="138.9506235"><ele>946.3633333333333</ele><time>2023-12-17T01:04:38Z</time></trkpt><trkpt lat="34.8343048" lon="138.9504063"><ele>945.71</ele><time>2023-12-17T01:04:52Z</time></trkpt><trkpt lat="34.8342554" lon="138.9501887"><ele>946.5300000000001</ele><time>2023-12-17T01:05:08Z</time></trkpt><trkpt lat="34.8342269" lon="138.9499589"><ele>948.64</ele><time>2023-12-17T01:05:26Z</time></trkpt><trkpt lat="34.8341645" lon="138.9497459"><ele>950.35</ele><time>2023-12-17T01:07:41Z</time></trkpt><trkpt lat="34.8341889" lon="138.9495185"><ele>952.0500000000001</ele><time>2023-12-17T01:07:53Z</time></trkpt><trkpt lat="34.8342101" lon="138.9493012"><ele>951.87</ele><time>2023-12-17T01:08:07Z</time></trkpt><trkpt lat="34.8343278" lon="138.9491298"><ele>952.0300000000001</ele><time>2023-12-17T01:08:20Z</time></trkpt><trkpt lat="34.8345084" lon="138.9491458"><ele>952.0300000000001</ele><time>2023-12-17T01:08:40Z</time></trkpt><trkpt lat="34.8345216" lon="138.9493661"><ele>954.5333333333334</ele><time>2023-12-17T01:08:52Z</time></trkpt><trkpt lat="34.8345463" lon="138.9496062"><ele>957.6566666666668</ele><time>2023-12-17T01:09:08Z</time></trkpt><trkpt lat="34.8346881" lon="138.9497515"><ele>960.34</ele><time>2023-12-17T01:09:24Z</time></trkpt><trkpt lat="34.8348179" lon="138.9495945"><ele>961.64</ele><time>2023-12-17T01:09:33Z</time></trkpt><trkpt lat="34.8349832" lon="138.9494996"><ele>961.68</ele><time>2023-12-17T01:09:50Z</time></trkpt><trkpt lat="34.835137" lon="138.9496169"><ele>961.6233333333333</ele><time>2023-12-17T01:10:03Z</time></trkpt><trkpt lat="34.8353228" lon="138.9495905"><ele>960.8933333333334</ele><time>2023-12-17T01:10:22Z</time></trkpt><trkpt lat="34.8355093" lon="138.9496385"><ele>958.9633333333335</ele><time>2023-12-17T01:10:39Z</time></trkpt><trkpt lat="34.8356753" lon="138.9495416"><ele>956.9933333333333</ele><time>2023-12-17T01:10:59Z</time></trkpt><trkpt lat="34.8357409" lon="138.9493318"><ele>954.1966666666667</ele><time>2023-12-17T01:11:10Z</time></trkpt><trkpt lat="34.8358983" lon="138.9492215"><ele>951.5500000000001</ele><time>2023-12-17T01:11:23Z</time></trkpt><trkpt lat="34.8360845" lon="138.9491847"><ele>947.8533333333334</ele><time>2023-12-17T01:11:40Z</time></trkpt><trkpt lat="34.8361697" lon="138.9493797"><ele>947.2233333333334</ele><time>2023-12-17T01:11:57Z</time></trkpt><trkpt lat="34.8362063" lon="138.9496029"><ele>951.9766666666668</ele><time>2023-12-17T01:12:18Z</time></trkpt><trkpt lat="34.8363845" lon="138.9496726"><ele>955.2966666666667</ele><time>2023-12-17T01:12:36Z</time></trkpt><trkpt lat="34.8365587" lon="138.9496034"><ele>955.2600000000001</ele><time>2023-12-17T01:12:56Z</time></trkpt><trkpt lat="34.8367346" lon="138.9495342"><ele>952.3966666666666</ele><time>2023-12-17T01:13:13Z</time></trkpt><trkpt lat="34.8369136" lon="138.9494806"><ele>953.6733333333333</ele><time>2023-12-17T01:13:29Z</time></trkpt><trkpt lat="34.8370948" lon="138.9494433"><ele>958.66</ele><time>2023-12-17T01:13:48Z</time></trkpt><trkpt lat="34.8371938" lon="138.9492552"><ele>959.4200000000001</ele><time>2023-12-17T01:14:04Z</time></trkpt><trkpt lat="34.8373754" lon="138.949209"><ele>958.2199999999999</ele><time>2023-12-17T01:14:25Z</time></trkpt><trkpt lat="34.8374212" lon="138.9494226"><ele>955.73</ele><time>2023-12-17T01:14:41Z</time></trkpt><trkpt lat="34.8375301" lon="138.9496171"><ele>957.3733333333333</ele><time>2023-12-17T01:15:01Z</time></trkpt><trkpt lat="34.8377001" lon="138.9495399"><ele>958.3800000000001</ele><time>2023-12-17T01:15:22Z</time></trkpt><trkpt lat="34.8378841" lon="138.9495843"><ele>958.6166666666668</ele><time>2023-12-17T01:15:37Z</time></trkpt><trkpt lat="34.8380508" lon="138.9496731"><ele>958.5366666666667</ele><time>2023-12-17T01:15:52Z</time></trkpt><trkpt lat="34.8381374" lon="138.9498651"><ele>959.0</ele><time>2023-12-17T01:16:07Z</time></trkpt><trkpt lat="34.8381946" lon="138.950073"><ele>958.9133333333334</ele><time>2023-12-17T01:16:35Z</time></trkpt><trkpt lat="34.8382858" lon="138.9502658"><ele>958.4333333333334</ele><time>2023-12-17T01:16:51Z</time></trkpt><trkpt lat="34.8383698" lon="138.9504631"><ele>959.3066666666667</ele><time>2023-12-17T01:17:08Z</time></trkpt><trkpt lat="34.8384092" lon="138.9506807"><ele>959.7866666666667</ele><time>2023-12-17T01:17:23Z</time></trkpt><trkpt lat="34.8383386" lon="138.9508861"><ele>960.8266666666667</ele><time>2023-12-17T01:17:38Z</time></trkpt><trkpt lat="34.8383461" lon="138.9511053"><ele>960.2866666666667</ele><time>2023-12-17T01:17:56Z</time></trkpt><trkpt lat="34.838322" lon="138.9513222"><ele>962.6033333333334</ele><time>2023-12-17T01:18:13Z</time></trkpt><trkpt lat="34.8384299" lon="138.9515032"><ele>963.5933333333334</ele><time>2023-12-17T01:18:29Z</time></trkpt><trkpt lat="34.838501" lon="138.9517082"><ele>963.5766666666667</ele><time>2023-12-17T01:18:45Z</time></trkpt><trkpt lat="34.8384433" lon="138.9519236"><ele>963.12</ele><time>2023-12-17T01:19:16Z</time></trkpt><trkpt lat="34.8384101" lon="138.9521391"><ele>961.6933333333333</ele><time>2023-12-17T01:19:32Z</time></trkpt><trkpt lat="34.8383213" lon="138.95233"><ele>964.9566666666668</ele><time>2023-12-17T01:19:49Z</time></trkpt><trkpt lat="34.8384635" lon="138.9524651"><ele>968.73</ele><time>2023-12-17T01:20:16Z</time></trkpt><trkpt lat="34.8386471" lon="138.9524806"><ele>973.8133333333334</ele><time>2023-12-17T01:20:33Z</time></trkpt><trkpt lat="34.8388281" lon="138.9525114"><ele>976.0066666666667</ele><time>2023-12-17T01:20:49Z</time></trkpt><trkpt lat="34.838979" lon="138.9526452"><ele>976.37</ele><time>2023-12-17T01:21:07Z</time></trkpt><trkpt lat="34.8390756" lon="138.9528317"><ele>978.7833333333333</ele><time>2023-12-17T01:21:23Z</time></trkpt><trkpt lat="34.8391712" lon="138.9530196"><ele>981.4566666666666</ele><time>2023-12-17T01:21:38Z</time></trkpt><trkpt lat="34.8392362" lon="138.9532308"><ele>986.0833333333334</ele><time>2023-12-17T01:21:56Z</time></trkpt><trkpt lat="34.8392925" lon="138.9534398"><ele>987.21</ele><time>2023-12-17T01:22:23Z</time></trkpt><trkpt lat="34.8392943" lon="138.9536597"><ele>987.7400000000001</ele><time>2023-12-17T01:22:43Z</time></trkpt><trkpt lat="34.8394186" lon="138.9538202"><ele>987.2333333333332</ele><time>2023-12-17T01:23:23Z</time></trkpt><trkpt lat="34.8393902" lon="138.9540397"><ele>988.1066666666667</ele><time>2023-12-17T01:23:46Z</time></trkpt><trkpt lat="34.8394855" lon="138.9542286"><ele>991.39</ele><time>2023-12-17T01:24:12Z</time></trkpt><trkpt lat="34.8395735" lon="138.9544247"><ele>993.59</ele><time>2023-12-17T01:24:34Z</time></trkpt><trkpt lat="34.8397041" lon="138.9545843"><ele>996.1266666666667</ele><time>2023-12-17T01:24:58Z</time></trkpt><trkpt lat="34.8397944" lon="138.9547743"><ele>996.6366666666667</ele><time>2023-12-17T01:25:16Z</time></trkpt><trkpt lat="34.83989" lon="138.9549691"><ele>996.39</ele><time>2023-12-17T01:25:40Z</time></trkpt><trkpt lat="34.839973" lon="138.9551707"><ele>997.31</ele><time>2023-12-17T01:25:58Z</time></trkpt><trkpt lat="34.8399013" lon="138.9553748"><ele>1000.4033333333333</ele><time>2023-12-17T01:26:15Z</time></trkpt><trkpt lat="34.8397629" lon="138.9555177"><ele>1008.8566666666666</ele><time>2023-12-17T01:26:37Z</time></trkpt><trkpt lat="34.8397163" lon="138.9557368"><ele>1016.6966666666667</ele><time>2023-12-17T01:27:12Z</time></trkpt><trkpt lat="34.8396922" lon="138.9559634"><ele>1021.5433333333334</ele><time>2023-12-17T01:27:29Z</time></trkpt><trkpt lat="34.8396833" lon="138.9561882"><ele>1022.6466666666666</ele><time>2023-12-17T01:27:50Z</time></trkpt><trkpt lat="34.8396975" lon="138.9564114"><ele>1023.9933333333335</ele><time>2023-12-17T01:28:06Z</time></trkpt><trkpt lat="34.8397038" lon="138.9566371"><ele>1026.1566666666668</ele><time>2023-12-17T01:28:22Z</time></trkpt><trkpt lat="34.8396662" lon="138.9568524"><ele>1027.7333333333333</ele><time>2023-12-17T01:28:41Z</time></trkpt><trkpt lat="34.8396299" lon="138.9570681"><ele>1029.7566666666667</ele><time>2023-12-17T01:28:57Z</time></trkpt><trkpt lat="34.8395869" lon="138.9572807"><ele>1032.26</ele><time>2023-12-17T01:29:11Z</time></trkpt><trkpt lat="34.8394801" lon="138.95746"><ele>1035.5166666666667</ele><time>2023-12-17T01:29:28Z</time></trkpt><trkpt lat="34.8395685" lon="138.9576721"><ele>1035.9033333333334</ele><time>2023-12-17T01:29:54Z</time></trkpt><trkpt lat="34.8395344" lon="138.9578916"><ele>1034.74</ele><time>2023-12-17T01:30:08Z</time></trkpt><trkpt lat="34.8393811" lon="138.9580084"><ele>1034.22</ele><time>2023-12-17T01:30:31Z</time></trkpt><trkpt lat="34.8393164" lon="138.9582142"><ele>1035.4366666666667</ele><time>2023-12-17T01:30:49Z</time></trkpt><trkpt lat="34.8393552" lon="138.9584324"><ele>1037.7266666666667</ele><time>2023-12-17T01:31:07Z</time></trkpt><trkpt lat="34.8393413" lon="138.9586623"><ele>1038.8733333333332</ele><time>2023-12-17T01:31:28Z</time></trkpt><trkpt lat="34.8393448" lon="138.9588839"><ele>1040.2533333333333</ele><time>2023-12-17T01:31:43Z</time></trkpt><trkpt lat="34.8393774" lon="138.9591006"><ele>1041.99</ele><time>2023-12-17T01:31:58Z</time></trkpt><trkpt lat="34.8393692" lon="138.9593201"><ele>1044.79</ele><time>2023-12-17T01:32:17Z</time></trkpt><trkpt lat="34.8394114" lon="138.9595335"><ele>1047.71</ele><time>2023-12-17T01:32:49Z</time></trkpt><trkpt lat="34.8393546" lon="138.9597468"><ele>1051.3733333333332</ele><time>2023-12-17T01:33:09Z</time></trkpt><trkpt lat="34.8393303" lon="138.9599637"><ele>1054.6233333333332</ele><time>2023-12-17T01:33:29Z</time></trkpt><trkpt lat="34.839378" lon="138.9601808"><ele>1058.68</ele><time>2023-12-17T01:33:49Z</time></trkpt><trkpt lat="34.8394241" lon="138.9603923"><ele>1063.2133333333334</ele><time>2023-12-17T01:34:07Z</time></trkpt><trkpt lat="34.8395851" lon="138.9602915"><ele>1066.66</ele><time>2023-12-17T01:34:21Z</time></trkpt><trkpt lat="34.8397668" lon="138.9602745"><ele>1067.2633333333335</ele><time>2023-12-17T01:34:39Z</time></trkpt><trkpt lat="34.8399193" lon="138.9604208"><ele>1066.4733333333334</ele><time>2023-12-17T01:34:58Z</time></trkpt><trkpt lat="34.8400076" lon="138.9606281"><ele>1067.0166666666667</ele><time>2023-12-17T01:35:17Z</time></trkpt><trkpt lat="34.840131" lon="138.9607916"><ele>1069.47</ele><time>2023-12-17T01:35:41Z</time></trkpt><trkpt lat="34.8402043" lon="138.9609949"><ele>1072.1466666666665</ele><time>2023-12-17T01:36:05Z</time></trkpt><trkpt lat="34.8403228" lon="138.9611628"><ele>1073.6766666666665</ele><time>2023-12-17T01:36:35Z</time></trkpt><trkpt lat="34.8403247" lon="138.9614054"><ele>1075.6366666666665</ele><time>2023-12-17T01:37:03Z</time></trkpt><trkpt lat="34.8403556" lon="138.9616257"><ele>1077.7666666666667</ele><time>2023-12-17T01:37:14Z</time></trkpt><trkpt lat="34.8403931" lon="138.9618417"><ele>1080.0566666666666</ele><time>2023-12-17T01:37:28Z</time></trkpt><trkpt lat="34.8404408" lon="138.9620555"><ele>1083.0666666666666</ele><time>2023-12-17T01:37:50Z</time></trkpt><trkpt lat="34.8405062" lon="138.962263"><ele>1086.7066666666667</ele><time>2023-12-17T01:38:32Z</time></trkpt><trkpt lat="34.840622" lon="138.9624449"><ele>1091.2966666666669</ele><time>2023-12-17T01:38:49Z</time></trkpt><trkpt lat="34.8407811" lon="138.9625777"><ele>1095.5666666666668</ele><time>2023-12-17T01:39:25Z</time></trkpt><trkpt lat="34.8409087" lon="138.9627323"><ele>1100.22</ele><time>2023-12-17T01:40:05Z</time></trkpt><trkpt lat="34.8410878" lon="138.9628264"><ele>1104.0533333333333</ele><time>2023-12-17T01:40:16Z</time></trkpt><trkpt lat="34.8412583" lon="138.962918"><ele>1106.7933333333333</ele><time>2023-12-17T01:40:30Z</time></trkpt><trkpt lat="34.841316" lon="138.9631719"><ele>1110.8266666666666</ele><time>2023-12-17T01:40:50Z</time></trkpt><trkpt lat="34.8414228" lon="138.9633771"><ele>1117.3533333333332</ele><time>2023-12-17T01:41:28Z</time></trkpt><trkpt lat="34.841582" lon="138.9634892"><ele>1124.9733333333334</ele><time>2023-12-17T01:41:48Z</time></trkpt><trkpt lat="34.8417571" lon="138.9635515"><ele>1130.9066666666668</ele><time>2023-12-17T01:42:31Z</time></trkpt><trkpt lat="34.8419527" lon="138.9635917"><ele>1136.8866666666665</ele><time>2023-12-17T01:42:46Z</time></trkpt><trkpt lat="34.842105" lon="138.9634438"><ele>1142.1066666666666</ele><time>2023-12-17T01:43:18Z</time></trkpt><trkpt lat="34.8421936" lon="138.9632491"><ele>1144.6133333333335</ele><time>2023-12-17T01:43:31Z</time></trkpt><trkpt lat="34.842345" lon="138.9633785"><ele>1146.14</ele><time>2023-12-17T01:43:57Z</time></trkpt><trkpt lat="34.8425297" lon="138.9634245"><ele>1148.0533333333333</ele><time>2023-12-17T01:44:16Z</time></trkpt><trkpt lat="34.8426935" lon="138.9635184"><ele>1151.99</ele><time>2023-12-17T01:44:53Z</time></trkpt><trkpt lat="34.8428364" lon="138.9636535"><ele>1154.7766666666666</ele><time>2023-12-17T01:45:08Z</time></trkpt><trkpt lat="34.843004" lon="138.9637456"><ele>1157.27</ele><time>2023-12-17T01:45:25Z</time></trkpt><trkpt lat="34.843187" lon="138.9637258"><ele>1158.6533333333334</ele><time>2023-12-17T01:45:43Z</time></trkpt><trkpt lat="34.8433709" lon="138.963709"><ele>1159.3700000000001</ele><time>2023-12-17T01:46:02Z</time></trkpt><trkpt lat="34.8435203" lon="138.9638457"><ele>1161.8366666666668</ele><time>2023-12-17T01:46:19Z</time></trkpt><trkpt lat="34.8437029" lon="138.9639019"><ele>1164.99</ele><time>2023-12-17T01:46:39Z</time></trkpt><trkpt lat="34.8438819" lon="138.9639514"><ele>1169.7933333333333</ele><time>2023-12-17T01:47:03Z</time></trkpt><trkpt lat="34.8440535" lon="138.9638603"><ele>1173.2166666666667</ele><time>2023-12-17T01:47:32Z</time></trkpt><trkpt lat="34.8442341" lon="138.9638151"><ele>1176.5333333333333</ele><time>2023-12-17T01:47:53Z</time></trkpt><trkpt lat="34.8443691" lon="138.9636672"><ele>1178.6433333333334</ele><time>2023-12-17T01:48:22Z</time></trkpt><trkpt lat="34.8445471" lon="138.963624"><ele>1182.3266666666668</ele><time>2023-12-17T01:49:08Z</time></trkpt><trkpt lat="34.8446875" lon="138.9634854"><ele>1186.91</ele><time>2023-12-17T01:49:32Z</time></trkpt><trkpt lat="34.8447755" lon="138.9632909"><ele>1192.8000000000002</ele><time>2023-12-17T01:49:52Z</time></trkpt><trkpt lat="34.8448523" lon="138.9630909"><ele>1197.9633333333334</ele><time>2023-12-17T01:50:27Z</time></trkpt><trkpt lat="34.8448754" lon="138.9628664"><ele>1203.3033333333333</ele><time>2023-12-17T01:51:01Z</time></trkpt><trkpt lat="34.8447839" lon="138.9626648"><ele>1205.21</ele><time>2023-12-17T01:51:24Z</time></trkpt><trkpt lat="34.8446385" lon="138.9625319"><ele>1204.6499999999999</ele><time>2023-12-17T01:51:39Z</time></trkpt><trkpt lat="34.8445277" lon="138.9623443"><ele>1201.9499999999998</ele><time>2023-12-17T01:51:55Z</time></trkpt><trkpt lat="34.8443707" lon="138.9622323"><ele>1203.5</ele><time>2023-12-17T01:52:12Z</time></trkpt><trkpt lat="34.8441817" lon="138.9621916"><ele>1206.1566666666665</ele><time>2023-12-17T01:53:05Z</time></trkpt><trkpt lat="34.8443472" lon="138.9622836"><ele>1208.7866666666666</ele><time>2023-12-17T01:54:54Z</time></trkpt><trkpt lat="34.8445065" lon="138.9624059"><ele>1207.1366666666665</ele><time>2023-12-17T01:55:13Z</time></trkpt><trkpt lat="34.8446743" lon="138.9625028"><ele>1204.4166666666667</ele><time>2023-12-17T01:55:27Z</time></trkpt><trkpt lat="34.8448012" lon="138.9626624"><ele>1202.8666666666666</ele><time>2023-12-17T01:55:39Z</time></trkpt><trkpt lat="34.8448331" lon="138.9624368"><ele>1201.8266666666668</ele><time>2023-12-17T01:55:58Z</time></trkpt><trkpt lat="34.8447625" lon="138.9622294"><ele>1199.7266666666667</ele><time>2023-12-17T01:56:15Z</time></trkpt><trkpt lat="34.8447565" lon="138.9620079"><ele>1195.17</ele><time>2023-12-17T01:56:33Z</time></trkpt><trkpt lat="34.8446419" lon="138.9618228"><ele>1191.7933333333333</ele><time>2023-12-17T01:56:50Z</time></trkpt><trkpt lat="34.8446464" lon="138.9616036"><ele>1188.9733333333334</ele><time>2023-12-17T01:57:04Z</time></trkpt><trkpt lat="34.8446793" lon="138.9613817"><ele>1187.3533333333335</ele><time>2023-12-17T01:57:30Z</time></trkpt><trkpt lat="34.8447944" lon="138.9612119"><ele>1187.53</ele><time>2023-12-17T01:57:46Z</time></trkpt><trkpt lat="34.844916" lon="138.96105"><ele>1190.35</ele><time>2023-12-17T01:58:03Z</time></trkpt><trkpt lat="34.8450855" lon="138.9609568"><ele>1193.7133333333334</ele><time>2023-12-17T01:58:22Z</time></trkpt><trkpt lat="34.8452612" lon="138.9608804"><ele>1195.12</ele><time>2023-12-17T01:58:34Z</time></trkpt><trkpt lat="34.845412" lon="138.9607523"><ele>1193.9566666666667</ele><time>2023-12-17T01:58:49Z</time></trkpt><trkpt lat="34.8455829" lon="138.9606541"><ele>1191.1766666666665</ele><time>2023-12-17T01:59:05Z</time></trkpt><trkpt lat="34.8457145" lon="138.9604961"><ele>1187.92</ele><time>2023-12-17T01:59:42Z</time></trkpt><trkpt lat="34.8458494" lon="138.9603447"><ele>1183.45</ele><time>2023-12-17T01:59:51Z</time></trkpt><trkpt lat="34.8460384" lon="138.9602966"><ele>1180.3466666666666</ele><time>2023-12-17T02:00:45Z</time></trkpt><trkpt lat="34.8462079" lon="138.9603932"><ele>1177.5166666666667</ele><time>2023-12-17T02:00:59Z</time></trkpt><trkpt lat="34.8463905" lon="138.9603276"><ele>1177.466666666667</ele><time>2023-12-17T02:01:15Z</time></trkpt><trkpt lat="34.8465031" lon="138.9605021"><ele>1177.6333333333334</ele><time>2023-12-17T02:01:30Z</time></trkpt><trkpt lat="34.8466783" lon="138.9605923"><ele>1177.9833333333333</ele><time>2023-12-17T02:02:15Z</time></trkpt><trkpt lat="34.8468638" lon="138.9606159"><ele>1177.4166666666667</ele><time>2023-12-17T02:02:30Z</time></trkpt><trkpt lat="34.8469952" lon="138.9604553"><ele>1177.3</ele><time>2023-12-17T02:02:57Z</time></trkpt><trkpt lat="34.8471456" lon="138.9603318"><ele>1177.4366666666667</ele><time>2023-12-17T02:03:11Z</time></trkpt><trkpt lat="34.8472206" lon="138.9601266"><ele>1178.5766666666666</ele><time>2023-12-17T02:03:29Z</time></trkpt><trkpt lat="34.8473974" lon="138.9600515"><ele>1179.1133333333335</ele><time>2023-12-17T02:03:40Z</time></trkpt><trkpt lat="34.8475695" lon="138.9601241"><ele>1179.5233333333333</ele><time>2023-12-17T02:03:54Z</time></trkpt><trkpt lat="34.8477428" lon="138.9601933"><ele>1179.6866666666667</ele><time>2023-12-17T02:04:24Z</time></trkpt><trkpt lat="34.8479203" lon="138.9601527"><ele>1182.0333333333333</ele><time>2023-12-17T02:04:39Z</time></trkpt><trkpt lat="34.8480529" lon="138.9600045"><ele>1184.8999999999999</ele><time>2023-12-17T02:05:01Z</time></trkpt><trkpt lat="34.8481528" lon="138.9598178"><ele>1186.5533333333333</ele><time>2023-12-17T02:05:21Z</time></trkpt><trkpt lat="34.8483068" lon="138.9596853"><ele>1186.4466666666667</ele><time>2023-12-17T02:05:37Z</time></trkpt><trkpt lat="34.848465" lon="138.9595545"><ele>1186.2166666666667</ele><time>2023-12-17T02:05:51Z</time></trkpt><trkpt lat="34.8486513" lon="138.9595416"><ele>1187.8700000000001</ele><time>2023-12-17T02:06:06Z</time></trkpt><trkpt lat="34.8488033" lon="138.9594137"><ele>1189.493333333333</ele><time>2023-12-17T02:06:28Z</time></trkpt><trkpt lat="34.8489791" lon="138.9593641"><ele>1192.1633333333332</ele><time>2023-12-17T02:06:45Z</time></trkpt><trkpt lat="34.8491426" lon="138.9592469"><ele>1194.5166666666667</ele><time>2023-12-17T02:07:09Z</time></trkpt><trkpt lat="34.8493019" lon="138.9591316"><ele>1197.8233333333335</ele><time>2023-12-17T02:07:25Z</time></trkpt><trkpt lat="34.8494616" lon="138.9590156"><ele>1201.0433333333333</ele><time>2023-12-17T02:07:41Z</time></trkpt><trkpt lat="34.8496367" lon="138.959089"><ele>1202.49</ele><time>2023-12-17T02:08:06Z</time></trkpt><trkpt lat="34.8497515" lon="138.9592585"><ele>1201.9466666666667</ele><time>2023-12-17T02:08:24Z</time></trkpt><trkpt lat="34.8498968" lon="138.9593895"><ele>1199.7166666666665</ele><time>2023-12-17T02:08:42Z</time></trkpt><trkpt lat="34.8500603" lon="138.9595037"><ele>1197.8366666666666</ele><time>2023-12-17T02:08:57Z</time></trkpt><trkpt lat="34.8501906" lon="138.9596728"><ele>1196.8866666666665</ele><time>2023-12-17T02:09:20Z</time></trkpt><trkpt lat="34.8503553" lon="138.9597831"><ele>1196.7066666666667</ele><time>2023-12-17T02:09:31Z</time></trkpt><trkpt lat="34.8505401" lon="138.9597965"><ele>1197.1333333333334</ele><time>2023-12-17T02:09:47Z</time></trkpt><trkpt lat="34.8507223" lon="138.9597649"><ele>1197.8133333333335</ele><time>2023-12-17T02:10:04Z</time></trkpt><trkpt lat="34.8508955" lon="138.9596749"><ele>1197.5333333333335</ele><time>2023-12-17T02:10:21Z</time></trkpt><trkpt lat="34.8510747" lon="138.9597336"><ele>1198.0433333333333</ele><time>2023-12-17T02:10:45Z</time></trkpt><trkpt lat="34.8512572" lon="138.9598019"><ele>1198.9733333333334</ele><time>2023-12-17T02:10:56Z</time></trkpt><trkpt lat="34.8514074" lon="138.9599423"><ele>1201.0166666666667</ele><time>2023-12-17T02:11:08Z</time></trkpt><trkpt lat="34.8515428" lon="138.9600959"><ele>1202.4166666666667</ele><time>2023-12-17T02:11:20Z</time></trkpt><trkpt lat="34.8516249" lon="138.9602958"><ele>1202.7533333333333</ele><time>2023-12-17T02:11:33Z</time></trkpt><trkpt lat="34.851571" lon="138.9605079"><ele>1202.5733333333335</ele><time>2023-12-17T02:12:04Z</time></trkpt><trkpt lat="34.8514852" lon="138.9607009"><ele>1204.1766666666665</ele><time>2023-12-17T02:12:16Z</time></trkpt><trkpt lat="34.851503" lon="138.9609187"><ele>1204.7433333333336</ele><time>2023-12-17T02:12:42Z</time></trkpt><trkpt lat="34.8516502" lon="138.9610737"><ele>1202.3</ele><time>2023-12-17T02:12:57Z</time></trkpt><trkpt lat="34.8517388" lon="138.9612676"><ele>1197.5966666666668</ele><time>2023-12-17T02:13:11Z</time></trkpt><trkpt lat="34.851687" lon="138.961484"><ele>1197.9933333333336</ele><time>2023-12-17T02:13:25Z</time></trkpt><trkpt lat="34.8518269" lon="138.9616228"><ele>1200.9566666666667</ele><time>2023-12-17T02:13:57Z</time></trkpt><trkpt lat="34.8520118" lon="138.9616535"><ele>1204.6466666666668</ele><time>2023-12-17T02:14:10Z</time></trkpt><trkpt lat="34.8521927" lon="138.9616831"><ele>1205.4099999999999</ele><time>2023-12-17T02:14:26Z</time></trkpt><trkpt lat="34.8523736" lon="138.9617651"><ele>1207.8166666666666</ele><time>2023-12-17T02:14:43Z</time></trkpt><trkpt lat="34.8525298" lon="138.9618886"><ele>1210.0033333333333</ele><time>2023-12-17T02:14:55Z</time></trkpt><trkpt lat="34.8526112" lon="138.9620881"><ele>1210.8566666666666</ele><time>2023-12-17T02:15:34Z</time></trkpt><trkpt lat="34.8524877" lon="138.9622609"><ele>1210.29</ele><time>2023-12-17T02:15:49Z</time></trkpt><trkpt lat="34.8524151" lon="138.9624622"><ele>1208.8666666666668</ele><time>2023-12-17T02:16:02Z</time></trkpt><trkpt lat="34.8523872" lon="138.9626888"><ele>1207.2333333333333</ele><time>2023-12-17T02:16:28Z</time></trkpt><trkpt lat="34.8523312" lon="138.9629031"><ele>1205.6866666666667</ele><time>2023-12-17T02:16:43Z</time></trkpt><trkpt lat="34.8524076" lon="138.9631025"><ele>1203.91</ele><time>2023-12-17T02:17:10Z</time></trkpt><trkpt lat="34.8524522" lon="138.9633154"><ele>1202.5866666666668</ele><time>2023-12-17T02:17:20Z</time></trkpt><trkpt lat="34.8525747" lon="138.963492"><ele>1200.4433333333334</ele><time>2023-12-17T02:17:29Z</time></trkpt><trkpt lat="34.852632" lon="138.9637008"><ele>1199.3166666666666</ele><time>2023-12-17T02:17:48Z</time></trkpt><trkpt lat="34.8528083" lon="138.96376"><ele>1198.1566666666668</ele><time>2023-12-17T02:18:09Z</time></trkpt><trkpt lat="34.8529886" lon="138.9637711"><ele>1196.6366666666665</ele><time>2023-12-17T02:18:23Z</time></trkpt><trkpt lat="34.8531616" lon="138.9638359"><ele>1194.2433333333333</ele><time>2023-12-17T02:18:53Z</time></trkpt><trkpt lat="34.8532972" lon="138.9640001"><ele>1191.0666666666666</ele><time>2023-12-17T02:19:07Z</time></trkpt><trkpt lat="34.8533017" lon="138.9642262"><ele>1189.7033333333334</ele><time>2023-12-17T02:19:24Z</time></trkpt><trkpt lat="34.8532627" lon="138.964444"><ele>1189.79</ele><time>2023-12-17T02:19:37Z</time></trkpt><trkpt lat="34.8534151" lon="138.9645831"><ele>1190.1599999999999</ele><time>2023-12-17T02:20:00Z</time></trkpt><trkpt lat="34.8535746" lon="138.9646983"><ele>1188.8866666666665</ele><time>2023-12-17T02:20:12Z</time></trkpt><trkpt lat="34.853679" lon="138.9648946"><ele>1185.2133333333331</ele><time>2023-12-17T02:20:39Z</time></trkpt><trkpt lat="34.8535556" lon="138.9650553"><ele>1183.033333333333</ele><time>2023-12-17T02:20:59Z</time></trkpt><trkpt lat="34.8534804" lon="138.9652572"><ele>1180.93</ele><time>2023-12-17T02:21:19Z</time></trkpt><trkpt lat="34.8533424" lon="138.9654017"><ele>1180.1066666666668</ele><time>2023-12-17T02:21:34Z</time></trkpt><trkpt lat="34.8531791" lon="138.9655256"><ele>1180.2533333333333</ele><time>2023-12-17T02:22:09Z</time></trkpt><trkpt lat="34.853039" lon="138.9656706"><ele>1181.61</ele><time>2023-12-17T02:22:19Z</time></trkpt><trkpt lat="34.8529106" lon="138.9658485"><ele>1182.6866666666667</ele><time>2023-12-17T02:22:38Z</time></trkpt><trkpt lat="34.8528188" lon="138.9660617"><ele>1182.72</ele><time>2023-12-17T02:22:54Z</time></trkpt><trkpt lat="34.8526519" lon="138.9661734"><ele>1182.24</ele><time>2023-12-17T02:23:06Z</time></trkpt><trkpt lat="34.8524643" lon="138.9661829"><ele>1183.176666666667</ele><time>2023-12-17T02:23:20Z</time></trkpt><trkpt lat="34.8522805" lon="138.9662161"><ele>1183.64</ele><time>2023-12-17T02:23:37Z</time></trkpt><trkpt lat="34.8520993" lon="138.9661718"><ele>1184.3700000000001</ele><time>2023-12-17T02:23:54Z</time></trkpt><trkpt lat="34.8519178" lon="138.9662108"><ele>1184.4633333333334</ele><time>2023-12-17T02:24:07Z</time></trkpt><trkpt lat="34.8517687" lon="138.9663404"><ele>1183.8400000000001</ele><time>2023-12-17T02:24:22Z</time></trkpt><trkpt lat="34.8518096" lon="138.9665777"><ele>1182.216666666667</ele><time>2023-12-17T02:24:43Z</time></trkpt><trkpt lat="34.8518685" lon="138.9668044"><ele>1180.2933333333333</ele><time>2023-12-17T02:24:54Z</time></trkpt><trkpt lat="34.851951" lon="138.9669995"><ele>1179.24</ele><time>2023-12-17T02:25:10Z</time></trkpt><trkpt lat="34.8521071" lon="138.9671129"><ele>1179.1833333333334</ele><time>2023-12-17T02:25:24Z</time></trkpt><trkpt lat="34.8522215" lon="138.9672987"><ele>1179.3466666666666</ele><time>2023-12-17T02:25:40Z</time></trkpt><trkpt lat="34.8523695" lon="138.9674363"><ele>1179.33</ele><time>2023-12-17T02:25:52Z</time></trkpt><trkpt lat="34.8525549" lon="138.9674741"><ele>1179.3733333333332</ele><time>2023-12-17T02:26:08Z</time></trkpt><trkpt lat="34.852737" lon="138.9675299"><ele>1179.3266666666666</ele><time>2023-12-17T02:26:29Z</time></trkpt><trkpt lat="34.8526907" lon="138.9677446"><ele>1179.5633333333335</ele><time>2023-12-17T02:26:56Z</time></trkpt><trkpt lat="34.8526525" lon="138.9679596"><ele>1179.7833333333335</ele><time>2023-12-17T02:27:10Z</time></trkpt><trkpt lat="34.8526859" lon="138.9681857"><ele>1180.0633333333333</ele><time>2023-12-17T02:27:24Z</time></trkpt><trkpt lat="34.8528181" lon="138.968346"><ele>1180.0666666666666</ele><time>2023-12-17T02:27:44Z</time></trkpt><trkpt lat="34.8529575" lon="138.9684904"><ele>1180.0566666666666</ele><time>2023-12-17T02:28:00Z</time></trkpt><trkpt lat="34.8531235" lon="138.9685815"><ele>1179.5866666666668</ele><time>2023-12-17T02:28:15Z</time></trkpt><trkpt lat="34.8532441" lon="138.9687631"><ele>1179.3666666666666</ele><time>2023-12-17T02:28:37Z</time></trkpt><trkpt lat="34.853347" lon="138.968946"><ele>1179.0633333333333</ele><time>2023-12-17T02:28:57Z</time></trkpt><trkpt lat="34.8534618" lon="138.9691264"><ele>1179.4</ele><time>2023-12-17T02:29:12Z</time></trkpt><trkpt lat="34.8535793" lon="138.9692976"><ele>1179.5633333333335</ele><time>2023-12-17T02:29:27Z</time></trkpt><trkpt lat="34.853732" lon="138.969432"><ele>1179.8433333333332</ele><time>2023-12-17T02:30:10Z</time></trkpt><trkpt lat="34.853907" lon="138.9695393"><ele>1179.63</ele><time>2023-12-17T02:30:21Z</time></trkpt><trkpt lat="34.8540881" lon="138.9696076"><ele>1179.5266666666666</ele><time>2023-12-17T02:30:33Z</time></trkpt><trkpt lat="34.8542525" lon="138.969699"><ele>1179.4233333333334</ele><time>2023-12-17T02:30:46Z</time></trkpt><trkpt lat="34.8544247" lon="138.9697893"><ele>1179.3766666666668</ele><time>2023-12-17T02:30:59Z</time></trkpt><trkpt lat="34.8543529" lon="138.969992"><ele>1178.9833333333333</ele><time>2023-12-17T02:31:32Z</time></trkpt><trkpt lat="34.8542106" lon="138.9701426"><ele>1178.7600000000002</ele><time>2023-12-17T02:31:50Z</time></trkpt><trkpt lat="34.8540629" lon="138.9702752"><ele>1178.95</ele><time>2023-12-17T02:32:03Z</time></trkpt><trkpt lat="34.8539964" lon="138.9704831"><ele>1179.1533333333334</ele><time>2023-12-17T02:32:16Z</time></trkpt><trkpt lat="34.8539234" lon="138.9706991"><ele>1179.3366666666666</ele><time>2023-12-17T02:32:37Z</time></trkpt><trkpt lat="34.8539652" lon="138.970923"><ele>1178.57</ele><time>2023-12-17T02:32:51Z</time></trkpt><trkpt lat="34.8539585" lon="138.9711489"><ele>1178.89</ele><time>2023-12-17T02:33:05Z</time></trkpt><trkpt lat="34.8539421" lon="138.9713799"><ele>1179.0533333333333</ele><time>2023-12-17T02:33:20Z</time></trkpt><trkpt lat="34.8540638" lon="138.9715635"><ele>1179.9233333333334</ele><time>2023-12-17T02:33:38Z</time></trkpt><trkpt lat="34.8542466" lon="138.9715832"><ele>1178.11</ele><time>2023-12-17T02:33:52Z</time></trkpt><trkpt lat="34.8544201" lon="138.9716565"><ele>1175.6566666666665</ele><time>2023-12-17T02:34:10Z</time></trkpt><trkpt lat="34.8545831" lon="138.9717721"><ele>1173.2133333333334</ele><time>2023-12-17T02:34:23Z</time></trkpt><trkpt lat="34.854617" lon="138.9719899"><ele>1173.1000000000001</ele><time>2023-12-17T02:34:51Z</time></trkpt><trkpt lat="34.8545914" lon="138.9722098"><ele>1174.3</ele><time>2023-12-17T02:35:10Z</time></trkpt><trkpt lat="34.8546856" lon="138.9724047"><ele>1173.8433333333332</ele><time>2023-12-17T02:35:25Z</time></trkpt><trkpt lat="34.854633" lon="138.9726152"><ele>1173.16</ele><time>2023-12-17T02:35:43Z</time></trkpt><trkpt lat="34.8546102" lon="138.9728384"><ele>1171.4733333333334</ele><time>2023-12-17T02:36:01Z</time></trkpt><trkpt lat="34.8546938" lon="138.9730521"><ele>1170.21</ele><time>2023-12-17T02:36:21Z</time></trkpt><trkpt lat="34.8547685" lon="138.9732547"><ele>1167.9033333333334</ele><time>2023-12-17T02:36:36Z</time></trkpt><trkpt lat="34.8548387" lon="138.973468"><ele>1166.3733333333332</ele><time>2023-12-17T02:36:52Z</time></trkpt><trkpt lat="34.8550131" lon="138.9735348"><ele>1166.5900000000001</ele><time>2023-12-17T02:37:07Z</time></trkpt><trkpt lat="34.854899" lon="138.9737061"><ele>1167.9266666666667</ele><time>2023-12-17T02:37:42Z</time></trkpt><trkpt lat="34.8547197" lon="138.9737377"><ele>1168.1233333333334</ele><time>2023-12-17T02:38:01Z</time></trkpt><trkpt lat="34.854665" lon="138.9739882"><ele>1168.1833333333334</ele><time>2023-12-17T02:38:12Z</time></trkpt><trkpt lat="34.8546369" lon="138.9742106"><ele>1166.9833333333333</ele><time>2023-12-17T02:38:19Z</time></trkpt><trkpt lat="34.8545926" lon="138.9744263"><ele>1165.2233333333334</ele><time>2023-12-17T02:38:36Z</time></trkpt><trkpt lat="34.8545285" lon="138.9746316"><ele>1162.4066666666668</ele><time>2023-12-17T02:39:03Z</time></trkpt><trkpt lat="34.8545705" lon="138.9748446"><ele>1157.54</ele><time>2023-12-17T02:39:28Z</time></trkpt><trkpt lat="34.8546929" lon="138.9750254"><ele>1154.9566666666667</ele><time>2023-12-17T02:39:45Z</time></trkpt><trkpt lat="34.8547364" lon="138.9752457"><ele>1152.3766666666668</ele><time>2023-12-17T02:40:03Z</time></trkpt><trkpt lat="34.8548519" lon="138.9754239"><ele>1151.4533333333336</ele><time>2023-12-17T02:40:18Z</time></trkpt><trkpt lat="34.8549658" lon="138.9756027"><ele>1149.57</ele><time>2023-12-17T02:40:35Z</time></trkpt><trkpt lat="34.8551202" lon="138.9757207"><ele>1149.5166666666667</ele><time>2023-12-17T02:40:51Z</time></trkpt><trkpt lat="34.8552671" lon="138.9758561"><ele>1149.4766666666667</ele><time>2023-12-17T02:41:05Z</time></trkpt><trkpt lat="34.8554594" lon="138.9759042"><ele>1151.0833333333333</ele><time>2023-12-17T02:41:17Z</time></trkpt><trkpt lat="34.8556337" lon="138.975978"><ele>1150.5966666666666</ele><time>2023-12-17T02:41:54Z</time></trkpt><trkpt lat="34.8558092" lon="138.9760357"><ele>1150.3533333333332</ele><time>2023-12-17T02:42:06Z</time></trkpt><trkpt lat="34.8559674" lon="138.9761605"><ele>1148.1200000000001</ele><time>2023-12-17T02:42:26Z</time></trkpt><trkpt lat="34.8561425" lon="138.9762432"><ele>1147.49</ele><time>2023-12-17T02:42:43Z</time></trkpt><trkpt lat="34.8560939" lon="138.9764703"><ele>1146.4933333333336</ele><time>2023-12-17T02:43:00Z</time></trkpt><trkpt lat="34.8562439" lon="138.9766086"><ele>1146.9533333333336</ele><time>2023-12-17T02:43:16Z</time></trkpt><trkpt lat="34.8562131" lon="138.9768325"><ele>1145.9533333333336</ele><time>2023-12-17T02:43:36Z</time></trkpt><trkpt lat="34.8561625" lon="138.9770441"><ele>1146.5533333333333</ele><time>2023-12-17T02:43:56Z</time></trkpt><trkpt lat="34.8561052" lon="138.977255"><ele>1145.7966666666669</ele><time>2023-12-17T02:44:13Z</time></trkpt><trkpt lat="34.8561161" lon="138.9774833"><ele>1144.6433333333334</ele><time>2023-12-17T02:44:26Z</time></trkpt><trkpt lat="34.8562263" lon="138.9776601"><ele>1143.0200000000002</ele><time>2023-12-17T02:44:37Z</time></trkpt><trkpt lat="34.8563858" lon="138.9777629"><ele>1142.1733333333334</ele><time>2023-12-17T02:44:55Z</time></trkpt><trkpt lat="34.8564463" lon="138.9779714"><ele>1141.6866666666667</ele><time>2023-12-17T02:45:27Z</time></trkpt><trkpt lat="34.8565088" lon="138.9781835"><ele>1141.3533333333335</ele><time>2023-12-17T02:45:42Z</time></trkpt><trkpt lat="34.8565863" lon="138.9784044"><ele>1141.32</ele><time>2023-12-17T02:46:00Z</time></trkpt><trkpt lat="34.8565267" lon="138.9786148"><ele>1142.1233333333334</ele><time>2023-12-17T02:46:13Z</time></trkpt><trkpt lat="34.856487" lon="138.9788285"><ele>1142.9000000000003</ele><time>2023-12-17T02:46:30Z</time></trkpt><trkpt lat="34.8563538" lon="138.9789938"><ele>1141.8633333333335</ele><time>2023-12-17T02:46:49Z</time></trkpt><trkpt lat="34.8561696" lon="138.9790049"><ele>1139.3633333333335</ele><time>2023-12-17T02:47:07Z</time></trkpt><trkpt lat="34.8560717" lon="138.9791926"><ele>1137.1166666666666</ele><time>2023-12-17T02:47:21Z</time></trkpt><trkpt lat="34.855963" lon="138.9793824"><ele>1136.506666666667</ele><time>2023-12-17T02:47:35Z</time></trkpt><trkpt lat="34.8558553" lon="138.979567"><ele>1136.18</ele><time>2023-12-17T02:47:51Z</time></trkpt><trkpt lat="34.8558313" lon="138.979785"><ele>1136.1200000000001</ele><time>2023-12-17T02:48:16Z</time></trkpt><trkpt lat="34.8558103" lon="138.9800048"><ele>1135.6233333333332</ele><time>2023-12-17T02:48:26Z</time></trkpt><trkpt lat="34.8557757" lon="138.9802199"><ele>1135.3266666666668</ele><time>2023-12-17T02:48:37Z</time></trkpt><trkpt lat="34.8559095" lon="138.9803715"><ele>1135.9400000000003</ele><time>2023-12-17T02:48:50Z</time></trkpt><trkpt lat="34.8560669" lon="138.980491"><ele>1134.8166666666666</ele><time>2023-12-17T02:49:04Z</time></trkpt><trkpt lat="34.8562494" lon="138.9805741"><ele>1133.47</ele><time>2023-12-17T02:49:21Z</time></trkpt><trkpt lat="34.8563904" lon="138.980716"><ele>1131.28</ele><time>2023-12-17T02:49:32Z</time></trkpt><trkpt lat="34.8563239" lon="138.9809239"><ele>1128.02</ele><time>2023-12-17T02:49:46Z</time></trkpt><trkpt lat="34.8562794" lon="138.9811413"><ele>1124.2633333333333</ele><time>2023-12-17T02:50:04Z</time></trkpt><trkpt lat="34.8564354" lon="138.9812719"><ele>1122.9033333333334</ele><time>2023-12-17T02:50:16Z</time></trkpt><trkpt lat="34.8564721" lon="138.9814869"><ele>1122.4833333333333</ele><time>2023-12-17T02:50:25Z</time></trkpt><trkpt lat="34.8565449" lon="138.9816876"><ele>1122.0866666666668</ele><time>2023-12-17T02:50:46Z</time></trkpt><trkpt lat="34.8567365" lon="138.9817452"><ele>1122.8500000000001</ele><time>2023-12-17T02:50:59Z</time></trkpt><trkpt lat="34.856864" lon="138.9819052"><ele>1126.08</ele><time>2023-12-17T02:51:12Z</time></trkpt><trkpt lat="34.8569374" lon="138.982108"><ele>1131.1333333333334</ele><time>2023-12-17T02:51:27Z</time></trkpt><trkpt lat="34.8568536" lon="138.9823086"><ele>1131.3233333333333</ele><time>2023-12-17T02:51:43Z</time></trkpt><trkpt lat="34.8567621" lon="138.9825071"><ele>1129.0233333333333</ele><time>2023-12-17T02:51:59Z</time></trkpt><trkpt lat="34.8567876" lon="138.9827287"><ele>1127.7166666666665</ele><time>2023-12-17T02:52:16Z</time></trkpt><trkpt lat="34.8568661" lon="138.9829259"><ele>1128.0633333333335</ele><time>2023-12-17T02:52:31Z</time></trkpt><trkpt lat="34.8567968" lon="138.9831284"><ele>1129.46</ele><time>2023-12-17T02:52:42Z</time></trkpt><trkpt lat="34.8566279" lon="138.9832065"><ele>1126.97</ele><time>2023-12-17T02:52:56Z</time></trkpt><trkpt lat="34.8566303" lon="138.9834321"><ele>1124.1499999999999</ele><time>2023-12-17T02:53:13Z</time></trkpt><trkpt lat="34.8567163" lon="138.9836253"><ele>1123.9066666666668</ele><time>2023-12-17T02:53:23Z</time></trkpt><trkpt lat="34.8568128" lon="138.9838134"><ele>1127.5133333333333</ele><time>2023-12-17T02:53:46Z</time></trkpt><trkpt lat="34.8569086" lon="138.9840114"><ele>1131.7466666666667</ele><time>2023-12-17T02:53:59Z</time></trkpt><trkpt lat="34.8570153" lon="138.9842021"><ele>1135.6433333333334</ele><time>2023-12-17T02:54:29Z</time></trkpt><trkpt lat="34.8568423" lon="138.9842714"><ele>1136.2566666666667</ele><time>2023-12-17T03:01:45Z</time></trkpt><trkpt lat="34.8568421" lon="138.9845021"><ele>1135.9933333333336</ele><time>2023-12-17T03:02:03Z</time></trkpt><trkpt lat="34.8569172" lon="138.9847037"><ele>1135.4133333333332</ele><time>2023-12-17T03:02:20Z</time></trkpt><trkpt lat="34.8570195" lon="138.9848933"><ele>1138.49</ele><time>2023-12-17T03:02:33Z</time></trkpt><trkpt lat="34.8570635" lon="138.9851055"><ele>1141.67</ele><time>2023-12-17T03:03:03Z</time></trkpt><trkpt lat="34.8572324" lon="138.9851896"><ele>1144.3333333333333</ele><time>2023-12-17T03:03:33Z</time></trkpt><trkpt lat="34.8573889" lon="138.9852995"><ele>1146.45</ele><time>2023-12-17T03:03:44Z</time></trkpt><trkpt lat="34.8575422" lon="138.985426"><ele>1149.6833333333334</ele><time>2023-12-17T03:03:59Z</time></trkpt><trkpt lat="34.8576978" lon="138.985546"><ele>1153.3733333333332</ele><time>2023-12-17T03:04:46Z</time></trkpt><trkpt lat="34.8578615" lon="138.9856535"><ele>1154.89</ele><time>2023-12-17T03:05:02Z</time></trkpt><trkpt lat="34.8580158" lon="138.9857761"><ele>1154.42</ele><time>2023-12-17T03:05:25Z</time></trkpt><trkpt lat="34.8580994" lon="138.9859739"><ele>1152.8666666666668</ele><time>2023-12-17T03:05:44Z</time></trkpt><trkpt lat="34.8581693" lon="138.9861761"><ele>1154.01</ele><time>2023-12-17T03:05:54Z</time></trkpt><trkpt lat="34.8582169" lon="138.9863969"><ele>1156.1266666666668</ele><time>2023-12-17T03:06:04Z</time></trkpt><trkpt lat="34.858287" lon="138.9865991"><ele>1157.6899999999998</ele><time>2023-12-17T03:06:18Z</time></trkpt><trkpt lat="34.8583622" lon="138.9868047"><ele>1158.3999999999999</ele><time>2023-12-17T03:06:32Z</time></trkpt><trkpt lat="34.8585057" lon="138.9869398"><ele>1158.9733333333334</ele><time>2023-12-17T03:06:48Z</time></trkpt><trkpt lat="34.8585054" lon="138.9871905"><ele>1160.16</ele><time>2023-12-17T03:07:07Z</time></trkpt><trkpt lat="34.8585856" lon="138.9874205"><ele>1160.9633333333334</ele><time>2023-12-17T03:07:28Z</time></trkpt><trkpt lat="34.8587016" lon="138.9875921"><ele>1161.8866666666665</ele><time>2023-12-17T03:07:33Z</time></trkpt><trkpt lat="34.8588809" lon="138.9876556"><ele>1162.3966666666668</ele><time>2023-12-17T03:07:51Z</time></trkpt><trkpt lat="34.8590491" lon="138.9877408"><ele>1161.9733333333334</ele><time>2023-12-17T03:08:03Z</time></trkpt><trkpt lat="34.8591191" lon="138.98795"><ele>1162.3266666666666</ele><time>2023-12-17T03:08:20Z</time></trkpt><trkpt lat="34.8591852" lon="138.9881578"><ele>1165.1000000000001</ele><time>2023-12-17T03:08:39Z</time></trkpt><trkpt lat="34.8593007" lon="138.9883348"><ele>1169.78</ele><time>2023-12-17T03:09:00Z</time></trkpt><trkpt lat="34.8592492" lon="138.988546"><ele>1174.0966666666668</ele><time>2023-12-17T03:09:30Z</time></trkpt><trkpt lat="34.8593756" lon="138.9887087"><ele>1177.4566666666667</ele><time>2023-12-17T03:09:48Z</time></trkpt><trkpt lat="34.8595381" lon="138.9888577"><ele>1182.3233333333335</ele><time>2023-12-17T03:09:57Z</time></trkpt><trkpt lat="34.8596651" lon="138.9890275"><ele>1189.1733333333332</ele><time>2023-12-17T03:10:49Z</time></trkpt><trkpt lat="34.8598273" lon="138.9891476"><ele>1197.0966666666666</ele><time>2023-12-17T03:11:18Z</time></trkpt><trkpt lat="34.8597238" lon="138.9893295"><ele>1203.9166666666667</ele><time>2023-12-17T03:12:40Z</time></trkpt><trkpt lat="34.8598728" lon="138.9894551"><ele>1211.6566666666668</ele><time>2023-12-17T03:13:15Z</time></trkpt><trkpt lat="34.860047" lon="138.9895352"><ele>1220.0533333333333</ele><time>2023-12-17T03:13:47Z</time></trkpt><trkpt lat="34.8599293" lon="138.9897027"><ele>1229.3999999999999</ele><time>2023-12-17T03:15:43Z</time></trkpt><trkpt lat="34.8600258" lon="138.9898963"><ele>1238.993333333333</ele><time>2023-12-17T03:16:43Z</time></trkpt><trkpt lat="34.8600028" lon="138.9901147"><ele>1249.3533333333332</ele><time>2023-12-17T03:18:03Z</time></trkpt><trkpt lat="34.8601657" lon="138.9902173"><ele>1260.2166666666665</ele><time>2023-12-17T03:19:34Z</time></trkpt><trkpt lat="34.8603349" lon="138.9902961"><ele>1270.5233333333333</ele><time>2023-12-17T03:20:09Z</time></trkpt><trkpt lat="34.8605085" lon="138.990211"><ele>1276.6666666666667</ele><time>2023-12-17T03:21:00Z</time></trkpt><trkpt lat="34.8606732" lon="138.9903171"><ele>1283.2566666666667</ele><time>2023-12-17T03:21:32Z</time></trkpt><trkpt lat="34.860814" lon="138.9904799"><ele>1289.243333333333</ele><time>2023-12-17T03:21:56Z</time></trkpt><trkpt lat="34.8608998" lon="138.9906857"><ele>1297.95</ele><time>2023-12-17T03:23:16Z</time></trkpt><trkpt lat="34.8607541" lon="138.9908189"><ele>1305.04</ele><time>2023-12-17T03:23:56Z</time></trkpt><trkpt lat="34.8606182" lon="138.9909681"><ele>1310.0666666666666</ele><time>2023-12-17T03:24:13Z</time></trkpt><trkpt lat="34.860444" lon="138.991045"><ele>1313.3533333333332</ele><time>2023-12-17T03:24:41Z</time></trkpt><trkpt lat="34.8602955" lon="138.9911866"><ele>1315.5866666666668</ele><time>2023-12-17T03:25:03Z</time></trkpt><trkpt lat="34.8601447" lon="138.9913251"><ele>1317.9166666666667</ele><time>2023-12-17T03:25:21Z</time></trkpt><trkpt lat="34.8600149" lon="138.9915518"><ele>1319.7033333333336</ele><time>2023-12-17T03:25:56Z</time></trkpt><trkpt lat="34.86012" lon="138.9917364"><ele>1321.14</ele><time>2023-12-17T03:26:23Z</time></trkpt><trkpt lat="34.8601765" lon="138.9919601"><ele>1321.9633333333334</ele><time>2023-12-17T03:26:37Z</time></trkpt><trkpt lat="34.8601089" lon="138.9921629"><ele>1322.4333333333334</ele><time>2023-12-17T03:26:49Z</time></trkpt><trkpt lat="34.8600811" lon="138.9923886"><ele>1322.1933333333334</ele><time>2023-12-17T03:27:04Z</time></trkpt><trkpt lat="34.860107" lon="138.9926076"><ele>1323.9033333333334</ele><time>2023-12-17T03:27:23Z</time></trkpt><trkpt lat="34.8600317" lon="138.9928154"><ele>1326.4199999999998</ele><time>2023-12-17T03:27:41Z</time></trkpt><trkpt lat="34.8600016" lon="138.9930328"><ele>1329.8533333333332</ele><time>2023-12-17T03:27:57Z</time></trkpt><trkpt lat="34.8599822" lon="138.9932531"><ele>1331.6133333333335</ele><time>2023-12-17T03:28:13Z</time></trkpt><trkpt lat="34.8598586" lon="138.9934166"><ele>1332.8366666666668</ele><time>2023-12-17T03:28:30Z</time></trkpt><trkpt lat="34.8598294" lon="138.9936348"><ele>1334.78</ele><time>2023-12-17T03:28:49Z</time></trkpt><trkpt lat="34.8597788" lon="138.9938475"><ele>1336.8633333333335</ele><time>2023-12-17T03:29:19Z</time></trkpt><trkpt lat="34.8596608" lon="138.9940215"><ele>1340.0633333333333</ele><time>2023-12-17T03:29:41Z</time></trkpt><trkpt lat="34.8595976" lon="138.994228"><ele>1343.73</ele><time>2023-12-17T03:30:06Z</time></trkpt><trkpt lat="34.85956" lon="138.99445"><ele>1349.5233333333333</ele><time>2023-12-17T03:30:29Z</time></trkpt><trkpt lat="34.8596567" lon="138.9946581"><ele>1354.93</ele><time>2023-12-17T03:32:12Z</time></trkpt><trkpt lat="34.8598049" lon="138.9947869"><ele>1356.6166666666666</ele><time>2023-12-17T03:32:28Z</time></trkpt><trkpt lat="34.8598814" lon="138.9949986"><ele>1351.9799999999998</ele><time>2023-12-17T03:32:49Z</time></trkpt><trkpt lat="34.8600445" lon="138.9951195"><ele>1348.1166666666666</ele><time>2023-12-17T03:33:04Z</time></trkpt><trkpt lat="34.8602164" lon="138.9952021"><ele>1345.4399999999998</ele><time>2023-12-17T03:33:22Z</time></trkpt><trkpt lat="34.8604051" lon="138.9951791"><ele>1344.49</ele><time>2023-12-17T03:33:44Z</time></trkpt><trkpt lat="34.8605869" lon="138.995144"><ele>1338.9333333333334</ele><time>2023-12-17T03:34:17Z</time></trkpt><trkpt lat="34.8607701" lon="138.9951688"><ele>1332.5066666666667</ele><time>2023-12-17T03:34:53Z</time></trkpt><trkpt lat="34.8609389" lon="138.9952539"><ele>1325.7233333333334</ele><time>2023-12-17T03:35:10Z</time></trkpt><trkpt lat="34.8610515" lon="138.995428"><ele>1317.92</ele><time>2023-12-17T03:35:29Z</time></trkpt><trkpt lat="34.8612311" lon="138.9954949"><ele>1311.8733333333334</ele><time>2023-12-17T03:35:54Z</time></trkpt><trkpt lat="34.8613792" lon="138.9956344"><ele>1305.38</ele><time>2023-12-17T03:36:28Z</time></trkpt><trkpt lat="34.8615367" lon="138.9957425"><ele>1302.6533333333334</ele><time>2023-12-17T03:36:38Z</time></trkpt><trkpt lat="34.8617081" lon="138.9958218"><ele>1300.6333333333334</ele><time>2023-12-17T03:36:51Z</time></trkpt><trkpt lat="34.8618115" lon="138.9960052"><ele>1300.0166666666667</ele><time>2023-12-17T03:37:14Z</time></trkpt><trkpt lat="34.8619188" lon="138.9961829"><ele>1298.2266666666667</ele><time>2023-12-17T03:37:30Z</time></trkpt><trkpt lat="34.8620576" lon="138.9963259"><ele>1298.2066666666667</ele><time>2023-12-17T03:38:18Z</time></trkpt><trkpt lat="34.8621412" lon="138.9965234"><ele>1303.12</ele><time>2023-12-17T03:39:57Z</time></trkpt><trkpt lat="34.8622706" lon="138.996679"><ele>1311.8766666666668</ele><time>2023-12-17T03:40:29Z</time></trkpt><trkpt lat="34.8623544" lon="138.9968793"><ele>1322.0633333333335</ele><time>2023-12-17T03:40:59Z</time></trkpt><trkpt lat="34.8624013" lon="138.9970905"><ele>1330.5666666666666</ele><time>2023-12-17T03:41:36Z</time></trkpt><trkpt lat="34.8623852" lon="138.9973095"><ele>1338.71</ele><time>2023-12-17T03:42:33Z</time></trkpt><trkpt lat="34.86231" lon="138.9975108"><ele>1344.4866666666667</ele><time>2023-12-17T03:43:03Z</time></trkpt><trkpt lat="34.8622381" lon="138.9977117"><ele>1348.87</ele><time>2023-12-17T03:43:54Z</time></trkpt><trkpt lat="34.8622045" lon="138.9979299"><ele>1351.8466666666666</ele><time>2023-12-17T03:44:12Z</time></trkpt><trkpt lat="34.8622192" lon="138.9981513"><ele>1353.34</ele><time>2023-12-17T03:44:25Z</time></trkpt><trkpt lat="34.8623088" lon="138.9983573"><ele>1354.6766666666667</ele><time>2023-12-17T03:44:41Z</time></trkpt><trkpt lat="34.8624189" lon="138.9985328"><ele>1356.95</ele><time>2023-12-17T03:45:12Z</time></trkpt><trkpt lat="34.8625168" lon="138.9987581"><ele>1361.03</ele><time>2023-12-17T03:45:26Z</time></trkpt><trkpt lat="34.8626417" lon="138.9989358"><ele>1365.8733333333332</ele><time>2023-12-17T03:46:25Z</time></trkpt><trkpt lat="34.8627307" lon="138.999134"><ele>1370.6866666666667</ele><time>2023-12-17T03:46:55Z</time></trkpt><trkpt lat="34.862834" lon="138.9993163"><ele>1374.0833333333333</ele><time>2023-12-17T03:47:29Z</time></trkpt><trkpt lat="34.862966" lon="138.9994751"><ele>1377.9766666666667</ele><time>2023-12-17T03:48:10Z</time></trkpt><trkpt lat="34.8631228" lon="138.9995928"><ele>1384.6866666666667</ele><time>2023-12-17T03:48:39Z</time></trkpt><trkpt lat="34.8632863" lon="138.9996854"><ele>1392.53</ele><time>2023-12-17T03:49:11Z</time></trkpt><trkpt lat="34.8634516" lon="138.9997883"><ele>1398.4133333333332</ele><time>2023-12-17T03:49:36Z</time></trkpt><trkpt lat="34.8634272" lon="139.0000106"><ele>1398.32</ele><time>2023-12-17T03:50:05Z</time></trkpt><trkpt lat="34.8632993" lon="139.0001649"><ele>1397.6299999999999</ele><time>2023-12-17T03:50:56Z</time></trkpt><trkpt lat="34.8632392" lon="139.0003776"><ele>1397.39</ele><time>2023-12-17T03:51:20Z</time></trkpt><trkpt lat="34.8632509" lon="139.0005972"><ele>1397.7133333333334</ele><time>2023-12-17T03:51:37Z</time></trkpt><trkpt lat="34.8631467" lon="139.0007885"><ele>1397.3633333333335</ele><time>2023-12-17T03:52:05Z</time></trkpt><trkpt lat="34.8630766" lon="139.0010052"><ele>1397.2633333333333</ele><time>2023-12-17T03:52:41Z</time></trkpt><trkpt lat="34.8630337" lon="139.0012298"><ele>1399.1733333333334</ele><time>2023-12-17T03:52:55Z</time></trkpt><trkpt lat="34.8629697" lon="139.0014444"><ele>1400.743333333333</ele><time>2023-12-17T03:53:22Z</time></trkpt><trkpt lat="34.8629108" lon="139.0016672"><ele>1401.5666666666668</ele><time>2023-12-17T03:53:46Z</time></trkpt><trkpt lat="34.8628316" lon="139.0018679"><ele>1401.8733333333337</ele><time>2023-12-17T03:58:11Z</time></trkpt><trkpt lat="34.8629636" lon="139.0020192"><ele>1399.1566666666668</ele><time>2023-12-17T03:58:58Z</time></trkpt><trkpt lat="34.8630645" lon="139.0022034"><ele>1390.14</ele><time>2023-12-17T03:59:52Z</time></trkpt><trkpt lat="34.8630465" lon="139.0024262"><ele>1377.8500000000001</ele><time>2023-12-17T04:00:26Z</time></trkpt><trkpt lat="34.8630753" lon="139.0026467"><ele>1365.2133333333334</ele><time>2023-12-17T04:00:56Z</time></trkpt><trkpt lat="34.8631247" lon="139.002858"><ele>1357.1466666666668</ele><time>2023-12-17T04:01:27Z</time></trkpt><trkpt lat="34.8631223" lon="139.0030819"><ele>1350.5566666666666</ele><time>2023-12-17T04:01:53Z</time></trkpt><trkpt lat="34.8630884" lon="139.0033026"><ele>1347.5733333333333</ele><time>2023-12-17T04:02:11Z</time></trkpt><trkpt lat="34.8630617" lon="139.00353"><ele>1345.2366666666667</ele><time>2023-12-17T04:02:26Z</time></trkpt><trkpt lat="34.8629496" lon="139.0037105"><ele>1344.77</ele><time>2023-12-17T04:02:41Z</time></trkpt><trkpt lat="34.8628729" lon="139.0039188"><ele>1343.25</ele><time>2023-12-17T04:03:02Z</time></trkpt><trkpt lat="34.8627537" lon="139.0041085"><ele>1343.2833333333333</ele><time>2023-12-17T04:03:16Z</time></trkpt><trkpt lat="34.8626818" lon="139.0043194"><ele>1342.71</ele><time>2023-12-17T04:03:31Z</time></trkpt><trkpt lat="34.8626119" lon="139.0045236"><ele>1342.5033333333333</ele><time>2023-12-17T04:03:46Z</time></trkpt><trkpt lat="34.8625349" lon="139.0047217"><ele>1342.0200000000002</ele><time>2023-12-17T04:04:00Z</time></trkpt><trkpt lat="34.8625488" lon="139.0049402"><ele>1341.5033333333333</ele><time>2023-12-17T04:04:18Z</time></trkpt><trkpt lat="34.8626344" lon="139.0051447"><ele>1341.12</ele><time>2023-12-17T04:04:30Z</time></trkpt><trkpt lat="34.8627047" lon="139.0053531"><ele>1340.6166666666666</ele><time>2023-12-17T04:04:46Z</time></trkpt><trkpt lat="34.8627527" lon="139.0055644"><ele>1339.03</ele><time>2023-12-17T04:05:21Z</time></trkpt><trkpt lat="34.8628664" lon="139.0057514"><ele>1337.13</ele><time>2023-12-17T04:05:37Z</time></trkpt><trkpt lat="34.863055" lon="139.0057535"><ele>1335.43</ele><time>2023-12-17T04:05:58Z</time></trkpt><trkpt lat="34.8631365" lon="139.0059566"><ele>1334.7033333333334</ele><time>2023-12-17T04:06:15Z</time></trkpt><trkpt lat="34.8631696" lon="139.0061742"><ele>1334.1533333333334</ele><time>2023-12-17T04:06:33Z</time></trkpt><trkpt lat="34.8632638" lon="139.0063689"><ele>1333.26</ele><time>2023-12-17T04:06:45Z</time></trkpt><trkpt lat="34.863306" lon="139.0065855"><ele>1332.1033333333335</ele><time>2023-12-17T04:07:02Z</time></trkpt><trkpt lat="34.8632981" lon="139.006821"><ele>1330.3866666666665</ele><time>2023-12-17T04:07:17Z</time></trkpt><trkpt lat="34.8632136" lon="139.0070258"><ele>1326.3866666666665</ele><time>2023-12-17T04:07:41Z</time></trkpt><trkpt lat="34.8631606" lon="139.0072383"><ele>1321.82</ele><time>2023-12-17T04:07:56Z</time></trkpt><trkpt lat="34.8630077" lon="139.0073668"><ele>1316.8066666666666</ele><time>2023-12-17T04:08:19Z</time></trkpt><trkpt lat="34.8629572" lon="139.007581"><ele>1312.8833333333334</ele><time>2023-12-17T04:08:36Z</time></trkpt><trkpt lat="34.8627991" lon="139.0076925"><ele>1307.5033333333333</ele><time>2023-12-17T04:09:09Z</time></trkpt><trkpt lat="34.8627173" lon="139.0078891"><ele>1301.2233333333336</ele><time>2023-12-17T04:09:41Z</time></trkpt><trkpt lat="34.8625729" lon="139.0080239"><ele>1294.6233333333332</ele><time>2023-12-17T04:10:00Z</time></trkpt><trkpt lat="34.8624395" lon="139.0081995"><ele>1287.7733333333333</ele><time>2023-12-17T04:10:39Z</time></trkpt><trkpt lat="34.8623379" lon="139.0083813"><ele>1281.6466666666668</ele><time>2023-12-17T04:11:09Z</time></trkpt><trkpt lat="34.8622628" lon="139.0085988"><ele>1277.1133333333335</ele><time>2023-12-17T04:11:22Z</time></trkpt><trkpt lat="34.8621242" lon="139.0087504"><ele>1275.1466666666668</ele><time>2023-12-17T04:11:39Z</time></trkpt><trkpt lat="34.8619771" lon="139.0088889"><ele>1274.3466666666666</ele><time>2023-12-17T04:11:54Z</time></trkpt><trkpt lat="34.861892" lon="139.0090885"><ele>1273.49</ele><time>2023-12-17T04:12:21Z</time></trkpt><trkpt lat="34.8618725" lon="139.009309"><ele>1272.1133333333335</ele><time>2023-12-17T04:12:52Z</time></trkpt><trkpt lat="34.8617625" lon="139.0094854"><ele>1271.3866666666668</ele><time>2023-12-17T04:13:10Z</time></trkpt><trkpt lat="34.8616108" lon="139.0096049"><ele>1270.7633333333333</ele><time>2023-12-17T04:13:34Z</time></trkpt><trkpt lat="34.8617391" lon="139.0097599"><ele>1268.7733333333333</ele><time>2023-12-17T04:14:02Z</time></trkpt><trkpt lat="34.8616735" lon="139.0099676"><ele>1264.7733333333333</ele><time>2023-12-17T04:14:36Z</time></trkpt><trkpt lat="34.8617646" lon="139.0101681"><ele>1259.0666666666666</ele><time>2023-12-17T04:15:01Z</time></trkpt><trkpt lat="34.8617862" lon="139.010397"><ele>1255.2066666666667</ele><time>2023-12-17T04:15:20Z</time></trkpt><trkpt lat="34.8618263" lon="139.0106129"><ele>1255.0966666666668</ele><time>2023-12-17T04:16:03Z</time></trkpt><trkpt lat="34.8619299" lon="139.0108178"><ele>1259.4766666666667</ele><time>2023-12-17T04:17:40Z</time></trkpt><trkpt lat="34.8618965" lon="139.011037"><ele>1267.0500000000002</ele><time>2023-12-17T04:19:39Z</time></trkpt><trkpt lat="34.861842" lon="139.0112474"><ele>1276.6666666666667</ele><time>2023-12-17T04:20:53Z</time></trkpt><trkpt lat="34.8618454" lon="139.0114667"><ele>1285.5</ele><time>2023-12-17T04:21:49Z</time></trkpt><trkpt lat="34.8618737" lon="139.0116843"><ele>1293.7466666666667</ele><time>2023-12-17T04:22:29Z</time></trkpt><trkpt lat="34.8619123" lon="139.0119003"><ele>1298.7466666666667</ele><time>2023-12-17T04:22:54Z</time></trkpt><trkpt lat="34.8619842" lon="139.0121086"><ele>1302.4766666666667</ele><time>2023-12-17T04:23:09Z</time></trkpt><trkpt lat="34.8619409" lon="139.0123211"><ele>1304.3733333333334</ele><time>2023-12-17T04:23:29Z</time></trkpt><trkpt lat="34.8619565" lon="139.0125488"><ele>1306.1866666666667</ele><time>2023-12-17T04:23:52Z</time></trkpt><trkpt lat="34.8619571" lon="139.0127755"><ele>1308.1166666666668</ele><time>2023-12-17T04:24:18Z</time></trkpt><trkpt lat="34.8620245" lon="139.0129856"><ele>1310.02</ele><time>2023-12-17T04:24:34Z</time></trkpt><trkpt lat="34.8619597" lon="139.0131998"><ele>1311.5966666666666</ele><time>2023-12-17T04:24:47Z</time></trkpt><trkpt lat="34.8619301" lon="139.0134186"><ele>1312.74</ele><time>2023-12-17T04:25:09Z</time></trkpt><trkpt lat="34.8619182" lon="139.0136431"><ele>1313.5866666666668</ele><time>2023-12-17T04:25:41Z</time></trkpt><trkpt lat="34.861865" lon="139.0138668"><ele>1314.2</ele><time>2023-12-17T04:25:54Z</time></trkpt><trkpt lat="34.8618538" lon="139.0140883"><ele>1315.24</ele><time>2023-12-17T04:26:09Z</time></trkpt><trkpt lat="34.8618918" lon="139.0143115"><ele>1316.79</ele><time>2023-12-17T04:26:30Z</time></trkpt><trkpt lat="34.8618981" lon="139.0145344"><ele>1318.4666666666665</ele><time>2023-12-17T04:26:50Z</time></trkpt><trkpt lat="34.861805" lon="139.0147465"><ele>1320.2300000000002</ele><time>2023-12-17T04:27:12Z</time></trkpt><trkpt lat="34.8618058" lon="139.0149702"><ele>1321.7333333333333</ele><time>2023-12-17T04:27:32Z</time></trkpt><trkpt lat="34.8618129" lon="139.0151896"><ele>1322.5666666666666</ele><time>2023-12-17T04:27:56Z</time></trkpt><trkpt lat="34.8618405" lon="139.0154144"><ele>1322.25</ele><time>2023-12-17T04:28:11Z</time></trkpt><trkpt lat="34.8619131" lon="139.0156153"><ele>1319.6233333333332</ele><time>2023-12-17T04:28:27Z</time></trkpt><trkpt lat="34.8618364" lon="139.0158163"><ele>1315.9133333333332</ele><time>2023-12-17T04:28:52Z</time></trkpt><trkpt lat="34.8619402" lon="139.0159986"><ele>1308.0800000000002</ele><time>2023-12-17T04:29:43Z</time></trkpt><trkpt lat="34.8619529" lon="139.0162205"><ele>1299.2200000000003</ele><time>2023-12-17T04:30:06Z</time></trkpt><trkpt lat="34.8620992" lon="139.0163511"><ele>1289.61</ele><time>2023-12-17T04:30:32Z</time></trkpt><trkpt lat="34.8619666" lon="139.0165036"><ele>1283.8266666666668</ele><time>2023-12-17T04:32:12Z</time></trkpt><trkpt lat="34.8619965" lon="139.0167197"><ele>1277.2133333333334</ele><time>2023-12-17T04:34:00Z</time></trkpt><trkpt lat="34.8621181" lon="139.0168817"><ele>1270.0033333333333</ele><time>2023-12-17T04:34:27Z</time></trkpt><trkpt lat="34.8619998" lon="139.0170596"><ele>1262.33</ele><time>2023-12-17T04:35:07Z</time></trkpt><trkpt lat="34.8619224" lon="139.0172578"><ele>1257.43</ele><time>2023-12-17T04:35:20Z</time></trkpt><trkpt lat="34.861819" lon="139.0174475"><ele>1255.7766666666666</ele><time>2023-12-17T04:35:31Z</time></trkpt><trkpt lat="34.8617098" lon="139.017623"><ele>1255.4166666666667</ele><time>2023-12-17T04:35:46Z</time></trkpt><trkpt lat="34.8616868" lon="139.0178457"><ele>1255.4533333333334</ele><time>2023-12-17T04:36:07Z</time></trkpt><trkpt lat="34.8615705" lon="139.0180207"><ele>1255.1066666666666</ele><time>2023-12-17T04:36:25Z</time></trkpt><trkpt lat="34.8614633" lon="139.0182055"><ele>1254.0033333333333</ele><time>2023-12-17T04:36:39Z</time></trkpt><trkpt lat="34.8613877" lon="139.0184072"><ele>1253.4466666666667</ele><time>2023-12-17T04:36:54Z</time></trkpt><trkpt lat="34.8613461" lon="139.0186269"><ele>1252.3733333333334</ele><time>2023-12-17T04:37:12Z</time></trkpt><trkpt lat="34.8612612" lon="139.0188422"><ele>1251.68</ele><time>2023-12-17T04:37:24Z</time></trkpt><trkpt lat="34.861262" lon="139.0190668"><ele>1249.02</ele><time>2023-12-17T04:37:41Z</time></trkpt><trkpt lat="34.8611111" lon="139.0191926"><ele>1246.2566666666667</ele><time>2023-12-17T04:37:55Z</time></trkpt><trkpt lat="34.8609662" lon="139.0193304"><ele>1242.9666666666667</ele><time>2023-12-17T04:38:10Z</time></trkpt><trkpt lat="34.8608947" lon="139.0195325"><ele>1242.2466666666667</ele><time>2023-12-17T04:38:26Z</time></trkpt><trkpt lat="34.8607345" lon="139.0196378"><ele>1244.1666666666667</ele><time>2023-12-17T04:38:45Z</time></trkpt><trkpt lat="34.8606612" lon="139.0198391"><ele>1249.2866666666669</ele><time>2023-12-17T04:39:50Z</time></trkpt><trkpt lat="34.860496" lon="139.0199351"><ele>1257.3966666666668</ele><time>2023-12-17T04:40:49Z</time></trkpt><trkpt lat="34.8604499" lon="139.0201471"><ele>1266.8166666666666</ele><time>2023-12-17T04:42:32Z</time></trkpt><trkpt lat="34.8603762" lon="139.0203516"><ele>1276.4533333333334</ele><time>2023-12-17T04:43:24Z</time></trkpt><trkpt lat="34.860247" lon="139.0205077"><ele>1284.5366666666666</ele><time>2023-12-17T04:44:20Z</time></trkpt><trkpt lat="34.860138" lon="139.0206992"><ele>1290.2266666666667</ele><time>2023-12-17T04:44:33Z</time></trkpt><trkpt lat="34.8599505" lon="139.0207088"><ele>1293.3133333333335</ele><time>2023-12-17T04:45:58Z</time></trkpt><trkpt lat="34.8600247" lon="139.0209125"><ele>1295.18</ele><time>2023-12-17T04:46:39Z</time></trkpt><trkpt lat="34.8601906" lon="139.0210015"><ele>1294.5933333333335</ele><time>2023-12-17T04:46:55Z</time></trkpt><trkpt lat="34.8603475" lon="139.0211123"><ele>1291.8733333333332</ele><time>2023-12-17T04:47:15Z</time></trkpt><trkpt lat="34.8605073" lon="139.0212248"><ele>1286.3866666666665</ele><time>2023-12-17T04:47:49Z</time></trkpt><trkpt lat="34.8606734" lon="139.0213416"><ele>1277.9466666666667</ele><time>2023-12-17T04:48:21Z</time></trkpt><trkpt lat="34.8608484" lon="139.0212831"><ele>1270.6866666666665</ele><time>2023-12-17T04:48:39Z</time></trkpt><trkpt lat="34.8608784" lon="139.0210629"><ele>1265.6766666666665</ele><time>2023-12-17T04:48:56Z</time></trkpt><trkpt lat="34.8610061" lon="139.0212348"><ele>1261.2</ele><time>2023-12-17T04:49:23Z</time></trkpt><trkpt lat="34.8611857" lon="139.0211756"><ele>1255.0766666666666</ele><time>2023-12-17T04:49:48Z</time></trkpt><trkpt lat="34.8612332" lon="139.0213929"><ele>1246.2866666666669</ele><time>2023-12-17T04:50:11Z</time></trkpt><trkpt lat="34.8613571" lon="139.0212334"><ele>1240.54</ele><time>2023-12-17T04:50:27Z</time></trkpt><trkpt lat="34.8615472" lon="139.0212332"><ele>1235.0133333333333</ele><time>2023-12-17T04:51:02Z</time></trkpt><trkpt lat="34.8617156" lon="139.0211468"><ele>1229.2933333333333</ele><time>2023-12-17T04:51:33Z</time></trkpt><trkpt lat="34.8617391" lon="139.0213672"><ele>1223.53</ele><time>2023-12-17T04:51:56Z</time></trkpt><trkpt lat="34.8618819" lon="139.0215044"><ele>1217.1033333333335</ele><time>2023-12-17T04:52:34Z</time></trkpt><trkpt lat="34.8619029" lon="139.0212798"><ele>1214.3633333333335</ele><time>2023-12-17T04:52:49Z</time></trkpt><trkpt lat="34.8620791" lon="139.0213291"><ele>1208.5933333333332</ele><time>2023-12-17T04:53:15Z</time></trkpt><trkpt lat="34.8620966" lon="139.021551"><ele>1205.07</ele><time>2023-12-17T04:53:40Z</time></trkpt><trkpt lat="34.8622804" lon="139.0215618"><ele>1197.2966666666666</ele><time>2023-12-17T04:54:09Z</time></trkpt><trkpt lat="34.8623639" lon="139.0217619"><ele>1191.3166666666666</ele><time>2023-12-17T04:54:47Z</time></trkpt><trkpt lat="34.8621997" lon="139.0218523"><ele>1187.3233333333335</ele><time>2023-12-17T04:55:07Z</time></trkpt><trkpt lat="34.8622475" lon="139.0220666"><ele>1183.5966666666666</ele><time>2023-12-17T04:55:47Z</time></trkpt><trkpt lat="34.8624315" lon="139.0220247"><ele>1181.1166666666668</ele><time>2023-12-17T04:56:02Z</time></trkpt><trkpt lat="34.8626203" lon="139.0220192"><ele>1175.8</ele><time>2023-12-17T04:56:28Z</time></trkpt><trkpt lat="34.8627503" lon="139.0218423"><ele>1172.1333333333332</ele><time>2023-12-17T04:56:52Z</time></trkpt><trkpt lat="34.8628643" lon="139.0216728"><ele>1167.8066666666666</ele><time>2023-12-17T04:57:10Z</time></trkpt><trkpt lat="34.8630376" lon="139.0217435"><ele>1162.82</ele><time>2023-12-17T04:58:12Z</time></trkpt><trkpt lat="34.8631692" lon="139.0219067"><ele>1156.9733333333334</ele><time>2023-12-17T04:59:03Z</time></trkpt><trkpt lat="34.8633361" lon="139.0218001"><ele>1150.5133333333333</ele><time>2023-12-17T04:59:18Z</time></trkpt><trkpt lat="34.8634429" lon="139.0216228"><ele>1145.6666666666667</ele><time>2023-12-17T04:59:45Z</time></trkpt><trkpt lat="34.8635475" lon="139.0214238"><ele>1141.03</ele><time>2023-12-17T05:00:06Z</time></trkpt><trkpt lat="34.8635698" lon="139.0212043"><ele>1138.3366666666668</ele><time>2023-12-17T05:00:15Z</time></trkpt><trkpt lat="34.8636653" lon="139.021017"><ele>1135.1866666666667</ele><time>2023-12-17T05:00:31Z</time></trkpt><trkpt lat="34.8636687" lon="139.0207953"><ele>1135.28</ele><time>2023-12-17T05:00:50Z</time></trkpt><trkpt lat="34.8636778" lon="139.0205737"><ele>1136.4633333333334</ele><time>2023-12-17T05:01:06Z</time></trkpt><trkpt lat="34.8637362" lon="139.0203514"><ele>1138.6733333333334</ele><time>2023-12-17T05:01:23Z</time></trkpt><trkpt lat="34.8637357" lon="139.0201308"><ele>1139.7033333333336</ele><time>2023-12-17T05:01:49Z</time></trkpt><trkpt lat="34.8638755" lon="139.0199795"><ele>1137.77</ele><time>2023-12-17T05:02:08Z</time></trkpt><trkpt lat="34.8639452" lon="139.0197508"><ele>1135.6966666666667</ele><time>2023-12-17T05:02:24Z</time></trkpt><trkpt lat="34.8641262" lon="139.0197513"><ele>1131.8533333333332</ele><time>2023-12-17T05:02:46Z</time></trkpt><trkpt lat="34.8642996" lon="139.0196713"><ele>1129.5133333333333</ele><time>2023-12-17T05:02:58Z</time></trkpt><trkpt lat="34.8644499" lon="139.019806"><ele>1126.5233333333333</ele><time>2023-12-17T05:03:20Z</time></trkpt><trkpt lat="34.8646399" lon="139.0197928"><ele>1124.3233333333335</ele><time>2023-12-17T05:03:34Z</time></trkpt><trkpt lat="34.864823" lon="139.0198402"><ele>1121.3166666666666</ele><time>2023-12-17T05:04:09Z</time></trkpt><trkpt lat="34.8649922" lon="139.0199528"><ele>1118.1533333333334</ele><time>2023-12-17T05:04:21Z</time></trkpt><trkpt lat="34.8651696" lon="139.0199925"><ele>1114.5066666666667</ele><time>2023-12-17T05:04:39Z</time></trkpt><trkpt lat="34.8653584" lon="139.0200121"><ele>1111.6533333333334</ele><time>2023-12-17T05:04:57Z</time></trkpt><trkpt lat="34.865536" lon="139.0200782"><ele>1108.83</ele><time>2023-12-17T05:05:19Z</time></trkpt><trkpt lat="34.8657195" lon="139.0201115"><ele>1106.8966666666668</ele><time>2023-12-17T05:05:33Z</time></trkpt><trkpt lat="34.8658858" lon="139.0200157"><ele>1104.7333333333333</ele><time>2023-12-17T05:05:52Z</time></trkpt><trkpt lat="34.8660657" lon="139.0199731"><ele>1102.89</ele><time>2023-12-17T05:06:21Z</time></trkpt><trkpt lat="34.8662449" lon="139.0200147"><ele>1100.2266666666667</ele><time>2023-12-17T05:06:38Z</time></trkpt><trkpt lat="34.8663895" lon="139.0198811"><ele>1097.62</ele><time>2023-12-17T05:07:03Z</time></trkpt><trkpt lat="34.8665686" lon="139.0199143"><ele>1095.28</ele><time>2023-12-17T05:07:18Z</time></trkpt><trkpt lat="34.8667452" lon="139.020007"><ele>1095.0166666666667</ele><time>2023-12-17T05:07:47Z</time></trkpt><trkpt lat="34.8669228" lon="139.019957"><ele>1094.1533333333334</ele><time>2023-12-17T05:08:01Z</time></trkpt><trkpt lat="34.8670965" lon="139.019873"><ele>1093.0633333333335</ele><time>2023-12-17T05:08:24Z</time></trkpt><trkpt lat="34.8672026" lon="139.019688"><ele>1090.39</ele><time>2023-12-17T05:08:37Z</time></trkpt><trkpt lat="34.8673808" lon="139.0196253"><ele>1089.3533333333332</ele><time>2023-12-17T05:08:54Z</time></trkpt><trkpt lat="34.8674376" lon="139.0194158"><ele>1087.5200000000002</ele><time>2023-12-17T05:09:13Z</time></trkpt><trkpt lat="34.8674754" lon="139.0191978"><ele>1085.8533333333335</ele><time>2023-12-17T05:09:35Z</time></trkpt><trkpt lat="34.8675227" lon="139.0189759"><ele>1083.0766666666666</ele><time>2023-12-17T05:09:57Z</time></trkpt><trkpt lat="34.8676779" lon="139.0188547"><ele>1081.0500000000002</ele><time>2023-12-17T05:10:10Z</time></trkpt><trkpt lat="34.8678624" lon="139.0188865"><ele>1079.15</ele><time>2023-12-17T05:10:30Z</time></trkpt><trkpt lat="34.8680213" lon="139.0187605"><ele>1076.8033333333333</ele><time>2023-12-17T05:10:44Z</time></trkpt><trkpt lat="34.8681961" lon="139.0187057"><ele>1074.6966666666667</ele><time>2023-12-17T05:11:02Z</time></trkpt><trkpt lat="34.8683425" lon="139.0185693"><ele>1071.7700000000002</ele><time>2023-12-17T05:11:22Z</time></trkpt><trkpt lat="34.8685237" lon="139.0186049"><ele>1070.1433333333334</ele><time>2023-12-17T05:11:48Z</time></trkpt><trkpt lat="34.8687004" lon="139.0185287"><ele>1068.5966666666666</ele><time>2023-12-17T05:12:03Z</time></trkpt><trkpt lat="34.8688764" lon="139.0184609"><ele>1067.8600000000001</ele><time>2023-12-17T05:12:32Z</time></trkpt><trkpt lat="34.8690538" lon="139.018412"><ele>1066.2666666666667</ele><time>2023-12-17T05:12:45Z</time></trkpt><trkpt lat="34.8692471" lon="139.0183987"><ele>1064.8533333333332</ele><time>2023-12-17T05:13:00Z</time></trkpt><trkpt lat="34.8694177" lon="139.0183132"><ele>1062.47</ele><time>2023-12-17T05:13:18Z</time></trkpt><trkpt lat="34.8695886" lon="139.018391"><ele>1062.97</ele><time>2023-12-17T05:13:45Z</time></trkpt><trkpt lat="34.8697697" lon="139.0184382"><ele>1066.26</ele><time>2023-12-17T05:14:15Z</time></trkpt><trkpt lat="34.8699496" lon="139.0184606"><ele>1070.85</ele><time>2023-12-17T05:14:33Z</time></trkpt><trkpt lat="34.8701363" lon="139.0184728"><ele>1073.43</ele><time>2023-12-17T05:14:51Z</time></trkpt><trkpt lat="34.8700889" lon="139.018686"><ele>1075.7033333333334</ele><time>2023-12-17T05:15:36Z</time></trkpt><trkpt lat="34.8701369" lon="139.0188976"><ele>1078.47</ele><time>2023-12-17T05:15:55Z</time></trkpt><trkpt lat="34.8701685" lon="139.0191153"><ele>1080.7933333333333</ele><time>2023-12-17T05:16:10Z</time></trkpt><trkpt lat="34.8701932" lon="139.0193323"><ele>1080.7</ele><time>2023-12-17T05:16:25Z</time></trkpt><trkpt lat="34.870213" lon="139.0195517"><ele>1079.9466666666667</ele><time>2023-12-17T05:16:43Z</time></trkpt><trkpt lat="34.8702797" lon="139.0197579"><ele>1078.1666666666667</ele><time>2023-12-17T05:17:02Z</time></trkpt><trkpt lat="34.8703543" lon="139.0199581"><ele>1075.4633333333331</ele><time>2023-12-17T05:17:20Z</time></trkpt><trkpt lat="34.8704486" lon="139.0201524"><ele>1071.8066666666666</ele><time>2023-12-17T05:17:37Z</time></trkpt><trkpt lat="34.8705669" lon="139.0203241"><ele>1068.2733333333333</ele><time>2023-12-17T05:17:56Z</time></trkpt><trkpt lat="34.8706983" lon="139.0204774"><ele>1064.4566666666667</ele><time>2023-12-17T05:18:12Z</time></trkpt><trkpt lat="34.8707172" lon="139.0206955"><ele>1060.4066666666665</ele><time>2023-12-17T05:18:30Z</time></trkpt><trkpt lat="34.8706851" lon="139.0209121"><ele>1057.8366666666668</ele><time>2023-12-17T05:18:55Z</time></trkpt><trkpt lat="34.8707443" lon="139.0211209"><ele>1057.0233333333335</ele><time>2023-12-17T05:19:19Z</time></trkpt><trkpt lat="34.8708655" lon="139.0212976"><ele>1058.4233333333334</ele><time>2023-12-17T05:19:35Z</time></trkpt><trkpt lat="34.8710482" lon="139.0213027"><ele>1059.2233333333334</ele><time>2023-12-17T05:19:46Z</time></trkpt><trkpt lat="34.8712208" lon="139.0213866"><ele>1059.0033333333333</ele><time>2023-12-17T05:20:02Z</time></trkpt><trkpt lat="34.8713771" lon="139.0215128"><ele>1058.6699999999998</ele><time>2023-12-17T05:20:19Z</time></trkpt><trkpt lat="34.8714624" lon="139.0213027"><ele>1056.2166666666665</ele><time>2023-12-17T05:20:33Z</time></trkpt><trkpt lat="34.8716423" lon="139.021343"><ele>1054.1033333333335</ele><time>2023-12-17T05:20:57Z</time></trkpt><trkpt lat="34.8717536" lon="139.0215535"><ele>1052.43</ele><time>2023-12-17T05:21:03Z</time></trkpt><trkpt lat="34.8718535" lon="139.0217499"><ele>1053.3966666666668</ele><time>2023-12-17T05:21:08Z</time></trkpt><trkpt lat="34.8719071" lon="139.0219645"><ele>1055.7166666666667</ele><time>2023-12-17T05:21:20Z</time></trkpt><trkpt lat="34.8718257" lon="139.022189"><ele>1057.31</ele><time>2023-12-17T05:21:35Z</time></trkpt><trkpt lat="34.8717976" lon="139.0224089"><ele>1057.6366666666665</ele><time>2023-12-17T05:21:58Z</time></trkpt><trkpt lat="34.8718225" lon="139.0226261"><ele>1055.1233333333334</ele><time>2023-12-17T05:22:17Z</time></trkpt><trkpt lat="34.8717205" lon="139.0228084"><ele>1048.6066666666668</ele><time>2023-12-17T05:22:40Z</time></trkpt><trkpt lat="34.8718234" lon="139.0229957"><ele>1042.9033333333334</ele><time>2023-12-17T05:22:58Z</time></trkpt><trkpt lat="34.8719232" lon="139.023185"><ele>1040.9366666666665</ele><time>2023-12-17T05:23:47Z</time></trkpt><trkpt lat="34.8720632" lon="139.0233334"><ele>1042.78</ele><time>2023-12-17T05:23:58Z</time></trkpt><trkpt lat="34.8722138" lon="139.0234918"><ele>1045.0033333333333</ele><time>2023-12-17T05:24:16Z</time></trkpt><trkpt lat="34.872314" lon="139.0236933"><ele>1045.8266666666666</ele><time>2023-12-17T05:25:28Z</time></trkpt></trkseg></trk></gpx>